idx,street,postcode,housenumber,lon,lat
281657,Agnetevej,3070,1,12.566009,56.008479
281658,Agnetevej,3070,2,12.570503,56.008177
281659,Agnetevej,3070,3,12.565009,56.005571
281775,Antonievej,3070,1A,12.581364,56.007674
281776,Antonievej,3070,1B,12.581262,56.007754
281777,Antonievej,3070,5,12.580818,56.008064
281778,Antonievej,3070,7,12.580661,56.008182
281903,Bakkevej,3070,2A,12.583641,56.008212
281904,Bakkevej,3070,2B,12.58385,56.008357
281905,Bakkevej,3070,4A,12.584071,56.008486
281906,Bakkevej,3070,4B,12.584403,56.00858
282211,Birkestien,3070,5,12.590481,56.012473
282212,Birkestien,3070,6,12.590277,56.01226
282691,Borupgårdsvej,3070,1,12.579982,56.00751
282692,Borupgårdsvej,3070,2,12.580627,56.007529
282693,Borupgårdsvej,3070,3,12.579645,56.007767
282694,Borupgårdsvej,3070,4,12.580494,56.007655
282695,Borupgårdsvej,3070,6,12.580268,56.007828
283433,Dalsborgvej,3070,1,12.575507,56.005439
283434,Dalsborgvej,3070,2,12.574951,56.005513
283435,Dalsborgvej,3070,3,12.575082,56.005221
283436,Dalsborgvej,3070,4,12.574701,56.005282
283437,Dalsborgvej,3070,6,12.574363,56.005082
283438,Dalsborgvej,3070,7,12.574613,56.004958
283439,Dalsborgvej,3070,9,12.574828,56.004844
283440,Dalsborgvej,3070,13,12.575073,56.004576
283835,Elmebakken,3070,1,12.566443,56.0094
283836,Elmebakken,3070,3,12.566149,56.009383
283837,Elmebakken,3070,4,12.566064,56.009698
283838,Elmebakken,3070,5,12.565762,56.009346
283839,Elmebakken,3070,6,12.56573,56.009646
283840,Elmebakken,3070,7,12.565401,56.009323
283841,Elmebakken,3070,8,12.565366,56.009621
283842,Elmebakken,3070,9,12.565083,56.009301
283843,Elmebakken,3070,10,12.565012,56.009627
283844,Elmebakken,3070,11,12.564734,56.009279
283845,Elmebakken,3070,12,12.56464,56.009605
283846,Elmebakken,3070,13,12.564383,56.009258
283847,Elmebakken,3070,14,12.564347,56.009583
283848,Elmebakken,3070,15,12.564015,56.009235
283849,Elmebakken,3070,16,12.563985,56.00956
283850,Elmebakken,3070,17,12.563728,56.009218
283851,Elmebakken,3070,18,12.56364,56.009538
283852,Elmebakken,3070,19,12.563335,56.009194
283853,Elmebakken,3070,20,12.563289,56.009517
283854,Elmebakken,3070,21,12.56299,56.009172
283855,Elmebakken,3070,22,12.562938,56.009496
283856,Elmebakken,3070,23,12.562649,56.009152
283857,Elmebakken,3070,24,12.56259,56.009473
283858,Elmebakken,3070,25,12.562296,56.009128
283859,Elmebakken,3070,26,12.562289,56.009451
284286,Essingen,3070,1,12.572354,56.009688
284287,Essingen,3070,2,12.572268,56.009787
284288,Essingen,3070,3,12.571262,56.009805
284289,Essingen,3070,4,12.570985,56.009926
284290,Essingen,3070,5,12.571199,56.009979
284291,Essingen,3070,6,12.571456,56.010054
284292,Essingen,3070,7,12.571552,56.009884
284293,Essingen,3070,8,12.57217,56.009915
284294,Essingen,3070,9,12.572093,56.010006
284295,Essingen,3070,10,12.571997,56.010105
284296,Essingen,3070,11,12.571916,56.010195
284297,Essingen,3070,12,12.571838,56.010288
284298,Essingen,3070,13,12.57146,56.010338
284299,Essingen,3070,14,12.571299,56.010292
284300,Essingen,3070,15,12.571024,56.010216
284301,Essingen,3070,16,12.57085,56.010169
284302,Essingen,3070,17,12.570703,56.010335
284303,Essingen,3070,18,12.570885,56.010383
284304,Essingen,3070,19,12.571172,56.010466
284305,Essingen,3070,20,12.571759,56.010464
284306,Essingen,3070,21,12.571671,56.010568
284307,Essingen,3070,22,12.571584,56.010662
284308,Essingen,3070,23,12.571486,56.010775
284309,Essingen,3070,24,12.571059,56.010707
284310,Essingen,3070,25,12.570903,56.010664
284311,Essingen,3070,26,12.570649,56.010594
284312,Essingen,3070,27,12.570487,56.01055
284313,Essingen,3070,28,12.570316,56.01072
284314,Essingen,3070,29,12.570479,56.010765
284315,Essingen,3070,30,12.570762,56.010843
284316,Essingen,3070,31,12.571265,56.010913
284317,Essingen,3070,32,12.571191,56.011002
284318,Essingen,3070,33,12.57112,56.01109
284319,Essingen,3070,34,12.571027,56.011197
284320,Essingen,3070,35,12.570938,56.011301
284321,Essingen,3070,36,12.570678,56.011087
284322,Essingen,3070,37,12.570469,56.011032
284323,Essingen,3070,38,12.570216,56.010961
284324,Essingen,3070,39,12.570031,56.010911
284325,Essingen,3070,40,12.569834,56.010856
284326,Essingen,3070,41,12.569934,56.010665
284327,Essingen,3070,42,12.570054,56.01053
284328,Essingen,3070,43,12.570185,56.010385
284329,Essingen,3070,44,12.570319,56.010231
284330,Essingen,3070,45,12.570447,56.01008
284331,Essingen,3070,46,12.570577,56.009934
284332,Essingen,3070,47,12.570716,56.009775
284333,Essingen,3070,48,12.570817,56.009663
284582,Fokken,3070,1,12.579084,56.014206
284583,Fokken,3070,2,12.579396,56.014099
284584,Fokken,3070,3,12.578949,56.014228
284585,Fokken,3070,4,12.57955,56.01407
284586,Fokken,3070,5,12.578788,56.014254
284587,Fokken,3070,6,12.579706,56.014049
284588,Fokken,3070,7,12.578636,56.014279
284589,Fokken,3070,8,12.579858,56.014025
284590,Fokken,3070,9,12.578525,56.014294
284591,Fokken,3070,10,12.580002,56.014002
284592,Fokken,3070,11,12.578454,56.014323
284593,Fokken,3070,12,12.58015,56.013978
284594,Fokken,3070,13,12.578369,56.014314
284595,Fokken,3070,14,12.580299,56.013954
284596,Fokken,3070,15,12.57831,56.014347
284597,Fokken,3070,16,12.580267,56.013999
284598,Fokken,3070,17,12.578228,56.014337
284599,Fokken,3070,18,12.580075,56.014212
284600,Fokken,3070,19,12.578154,56.014374
284601,Fokken,3070,20,12.580026,56.014249
284602,Fokken,3070,21,12.578586,56.014504
284603,Fokken,3070,22,12.580198,56.014194
284604,Fokken,3070,23,12.578548,56.014533
284605,Fokken,3070,24,12.580336,56.01417
284606,Fokken,3070,25,12.578479,56.014522
284607,Fokken,3070,26,12.580514,56.014138
284608,Fokken,3070,27,12.578422,56.014555
284609,Fokken,3070,28,12.580483,56.014198
284610,Fokken,3070,29,12.578348,56.014545
284611,Fokken,3070,30,12.579618,56.014508
284612,Fokken,3070,31,12.578279,56.014574
284613,Fokken,3070,32,12.579583,56.01456
284614,Fokken,3070,33,12.578192,56.014563
284615,Fokken,3070,34,12.57976,56.014487
284616,Fokken,3070,35,12.57815,56.014599
284617,Fokken,3070,36,12.5799,56.014462
284618,Fokken,3070,37,12.579292,56.014621
284619,Fokken,3070,38,12.580045,56.014437
284620,Fokken,3070,39,12.579145,56.014645
284621,Fokken,3070,40,12.580188,56.01442
284622,Fokken,3070,41,12.578993,56.014669
284623,Fokken,3070,42,12.580333,56.014393
284624,Fokken,3070,43,12.578866,56.01469
284625,Fokken,3070,44,12.5805,56.014366
284626,Fokken,3070,45,12.578754,56.014706
284627,Fokken,3070,46,12.580464,56.014413
284628,Fokken,3070,47,12.578683,56.014739
284629,Fokken,3070,48,12.580274,56.014623
284630,Fokken,3070,49,12.578587,56.01473
284631,Fokken,3070,50,12.580242,56.014666
284632,Fokken,3070,51,12.578523,56.014757
284633,Fokken,3070,52,12.580405,56.014605
284634,Fokken,3070,53,12.578442,56.014748
284635,Fokken,3070,54,12.580558,56.014581
284636,Fokken,3070,55,12.578372,56.014786
284637,Fokken,3070,56,12.580712,56.014553
284638,Fokken,3070,57,12.578797,56.014918
284639,Fokken,3070,58,12.580702,56.0146
284640,Fokken,3070,59,12.578748,56.01495
284641,Fokken,3070,60,12.57982,56.014923
284642,Fokken,3070,61,12.578668,56.014932
284643,Fokken,3070,62,12.579791,56.014977
284644,Fokken,3070,63,12.578649,56.014967
284645,Fokken,3070,64,12.579959,56.014903
284646,Fokken,3070,65,12.578568,56.01495
284647,Fokken,3070,66,12.5801,56.01488
284648,Fokken,3070,67,12.578499,56.014988
284649,Fokken,3070,68,12.580247,56.014855
284650,Fokken,3070,69,12.578407,56.014983
284651,Fokken,3070,70,12.580401,56.014832
284652,Fokken,3070,71,12.578355,56.015016
284653,Fokken,3070,72,12.580551,56.014806
284654,Fokken,3070,73,12.579502,56.015033
284655,Fokken,3070,74,12.580712,56.014776
284656,Fokken,3070,75,12.579356,56.015058
284657,Fokken,3070,76,12.58067,56.014826
284658,Fokken,3070,77,12.579219,56.015081
284659,Fokken,3070,78,12.580492,56.015036
284660,Fokken,3070,79,12.579067,56.015106
284661,Fokken,3070,80,12.580447,56.015069
284662,Fokken,3070,81,12.578953,56.015125
284663,Fokken,3070,82,12.58061,56.015019
284664,Fokken,3070,83,12.578877,56.015151
284665,Fokken,3070,84,12.580766,56.014994
284666,Fokken,3070,85,12.57879,56.015147
284667,Fokken,3070,86,12.580921,56.01497
284668,Fokken,3070,87,12.578733,56.015177
284669,Fokken,3070,88,12.580888,56.015008
284670,Fokken,3070,89,12.57864,56.015167
284671,Fokken,3070,90,12.580025,56.015338
284672,Fokken,3070,91,12.578581,56.015204
284673,Fokken,3070,92,12.579994,56.01539
284674,Fokken,3070,93,12.579008,56.015325
284675,Fokken,3070,94,12.580163,56.015317
284676,Fokken,3070,95,12.578973,56.015363
284677,Fokken,3070,96,12.580303,56.015293
284678,Fokken,3070,97,12.57888,56.015348
284679,Fokken,3070,98,12.580455,56.015269
284680,Fokken,3070,99,12.578847,56.015384
284681,Fokken,3070,100,12.580609,56.015244
284682,Fokken,3070,101,12.578767,56.015369
284683,Fokken,3070,102,12.580762,56.015219
284684,Fokken,3070,103,12.578727,56.0154
284685,Fokken,3070,104,12.580928,56.015192
284686,Fokken,3070,105,12.578577,56.015444
284687,Fokken,3070,106,12.580871,56.015225
284688,Fokken,3070,107,12.578592,56.015401
284689,Fokken,3070,108,12.58071,56.015455
284690,Fokken,3070,110,12.580676,56.0155
284691,Fokken,3070,112,12.580839,56.015433
284692,Fokken,3070,114,12.580981,56.01541
284693,Fokken,3070,116,12.581165,56.015387
284694,Fokken,3070,118,12.58112,56.015436
284965,Fr Leyels Vej,3070,1,12.56878,56.014079
284966,Fr Leyels Vej,3070,2,12.568959,56.014592
284967,Fr Leyels Vej,3070,3,12.568524,56.013962
284968,Fr Leyels Vej,3070,4,12.56921,56.014588
284969,Fr Leyels Vej,3070,5,12.568267,56.013842
284970,Fr Leyels Vej,3070,6,12.569383,56.014756
284971,Fr Leyels Vej,3070,7,12.568002,56.013725
284972,Fr Leyels Vej,3070,8,12.569632,56.014752
284973,Fr Leyels Vej,3070,9,12.567801,56.013933
284974,Fr Leyels Vej,3070,10,12.569842,56.014911
284975,Fr Leyels Vej,3070,11,12.568047,56.014047
284976,Fr Leyels Vej,3070,12,12.570046,56.015151
284977,Fr Leyels Vej,3070,13,12.568301,56.014162
284978,Fr Leyels Vej,3070,14,12.569958,56.015197
284979,Fr Leyels Vej,3070,15,12.568541,56.014271
284980,Fr Leyels Vej,3070,16,12.569804,56.015277
284981,Fr Leyels Vej,3070,17,12.568071,56.014607
284982,Fr Leyels Vej,3070,18,12.569506,56.015084
284983,Fr Leyels Vej,3070,19,12.567833,56.014503
284984,Fr Leyels Vej,3070,20,12.569,56.014956
284985,Fr Leyels Vej,3070,21,12.567555,56.014378
284986,Fr Leyels Vej,3070,22,12.568787,56.01483
284987,Fr Leyels Vej,3070,23,12.567291,56.014257
284988,Fr Leyels Vej,3070,24,12.568522,56.01485
284989,Fr Leyels Vej,3070,25,12.566823,56.014354
284990,Fr Leyels Vej,3070,26,12.568361,56.015075
284991,Fr Leyels Vej,3070,27,12.5671,56.014472
284992,Fr Leyels Vej,3070,28,12.5686,56.015075
284993,Fr Leyels Vej,3070,29,12.567352,56.014587
284994,Fr Leyels Vej,3070,30,12.568791,56.015238
284995,Fr Leyels Vej,3070,31,12.567607,56.014704
284996,Fr Leyels Vej,3070,32,12.569025,56.015238
284997,Fr Leyels Vej,3070,33,12.567872,56.014827
284998,Fr Leyels Vej,3070,34,12.569247,56.015087
284999,Fr Leyels Vej,3070,35,12.567289,56.015285
285000,Fr Leyels Vej,3070,36,12.569699,56.015332
285001,Fr Leyels Vej,3070,37,12.567001,56.015156
285002,Fr Leyels Vej,3070,38,12.569543,56.015414
285003,Fr Leyels Vej,3070,39,12.566725,56.015031
285004,Fr Leyels Vej,3070,40,12.569454,56.01546
285005,Fr Leyels Vej,3070,41,12.566446,56.014908
285006,Fr Leyels Vej,3070,42,12.569294,56.015544
285007,Fr Leyels Vej,3070,43,12.566177,56.014784
285008,Fr Leyels Vej,3070,44,12.569211,56.015588
285009,Fr Leyels Vej,3070,45,12.565982,56.014996
285010,Fr Leyels Vej,3070,46,12.568382,56.015463
285011,Fr Leyels Vej,3070,47,12.566248,56.015116
285012,Fr Leyels Vej,3070,48,12.568142,56.015333
285013,Fr Leyels Vej,3070,49,12.566513,56.015238
285014,Fr Leyels Vej,3070,50,12.56791,56.015337
285015,Fr Leyels Vej,3070,51,12.566783,56.015362
285016,Fr Leyels Vej,3070,52,12.567742,56.015564
285017,Fr Leyels Vej,3070,53,12.567055,56.015485
285018,Fr Leyels Vej,3070,54,12.567983,56.015562
285019,Fr Leyels Vej,3070,55,12.566601,56.01583
285020,Fr Leyels Vej,3070,56,12.568161,56.01573
285021,Fr Leyels Vej,3070,57,12.566315,56.015699
285022,Fr Leyels Vej,3070,58,12.568392,56.015725
285023,Fr Leyels Vej,3070,59,12.56604,56.015574
285024,Fr Leyels Vej,3070,60,12.568632,56.015575
285025,Fr Leyels Vej,3070,61,12.565752,56.015442
285026,Fr Leyels Vej,3070,62,12.568889,56.015573
285027,Fr Leyels Vej,3070,63,12.56549,56.015325
285028,Fr Leyels Vej,3070,64,12.568873,56.015772
285029,Fr Leyels Vej,3070,65,12.565057,56.015432
285030,Fr Leyels Vej,3070,66,12.568815,56.015917
285031,Fr Leyels Vej,3070,67,12.565329,56.015553
285032,Fr Leyels Vej,3070,68,12.568758,56.01598
285033,Fr Leyels Vej,3070,69,12.565588,56.015671
285034,Fr Leyels Vej,3070,70,12.568652,56.016096
285035,Fr Leyels Vej,3070,71,12.565831,56.015784
285036,Fr Leyels Vej,3070,72,12.567769,56.015949
285037,Fr Leyels Vej,3070,73,12.566112,56.015909
285038,Fr Leyels Vej,3070,74,12.567527,56.01582
285039,Fr Leyels Vej,3070,75,12.566357,56.016021
285040,Fr Leyels Vej,3070,76,12.567292,56.015825
285041,Fr Leyels Vej,3070,78,12.567117,56.016053
285042,Fr Leyels Vej,3070,80,12.567364,56.016048
285043,Fr Leyels Vej,3070,82,12.567539,56.016216
285044,Fr Leyels Vej,3070,84,12.567789,56.016212
285045,Fr Leyels Vej,3070,86,12.568016,56.016061
285046,Fr Leyels Vej,3070,88,12.568264,56.016057
285047,Fr Leyels Vej,3070,90,12.568599,56.016155
285048,Fr Leyels Vej,3070,92,12.568467,56.01631
285049,Fr Leyels Vej,3070,94,12.568475,56.016377
285050,Fr Leyels Vej,3070,96,12.568486,56.0165
285051,Fr Leyels Vej,3070,98,12.568485,56.016573
285052,Fr Leyels Vej,3070,100,12.568148,56.016662
285053,Fr Leyels Vej,3070,102,12.567904,56.016666
285054,Fr Leyels Vej,3070,104,12.567626,56.016558
285055,Fr Leyels Vej,3070,106,12.567394,56.016562
285056,Fr Leyels Vej,3070,108,12.567153,56.016437
285057,Fr Leyels Vej,3070,110,12.566913,56.016308
285058,Fr Leyels Vej,3070,112,12.566686,56.01631
285195,G.A. Hagemanns Vej,3070,1,12.5814623,56.0083547
285196,G.A. Hagemanns Vej,3070,2,12.5807497,56.0085078
285197,G.A. Hagemanns Vej,3070,3,12.5811841,56.0082765
285198,G.A. Hagemanns Vej,3070,4,12.580337,56.0084737
285199,G.A. Hagemanns Vej,3070,5,12.5800917,56.0081126
285200,G.A. Hagemanns Vej,3070,6,12.580094,56.00837
285201,G.A. Hagemanns Vej,3070,7,12.5793797,56.0079664
285202,G.A. Hagemanns Vej,3070,8,12.579808,56.0083625
285203,G.A. Hagemanns Vej,3070,9,12.5789311,56.0079046
285204,G.A. Hagemanns Vej,3070,10A,12.57891,56.008336
285205,G.A. Hagemanns Vej,3070,10B,12.5786451,56.0082409
285206,G.A. Hagemanns Vej,3070,11A,12.5784343,56.00785
285207,G.A. Hagemanns Vej,3070,11B,12.578138,56.007817
285208,G.A. Hagemanns Vej,3070,12,12.5783738,56.0082373
285209,G.A. Hagemanns Vej,3070,13,12.5778595,56.0077573
285210,G.A. Hagemanns Vej,3070,14,12.5780579,56.0081947
285211,G.A. Hagemanns Vej,3070,15,12.577339,56.007676
285212,G.A. Hagemanns Vej,3070,16,12.5777249,56.0081756
285213,G.A. Hagemanns Vej,3070,17,12.5769567,56.0076167
285214,G.A. Hagemanns Vej,3070,18,12.5774289,56.0080576
285215,G.A. Hagemanns Vej,3070,19,12.5766048,56.0075175
285216,G.A. Hagemanns Vej,3070,20,12.5770648,56.0080912
285217,G.A. Hagemanns Vej,3070,21,12.576228,56.007418
285218,G.A. Hagemanns Vej,3070,22,12.5767936,56.0080185
285219,G.A. Hagemanns Vej,3070,23,12.5759037,56.0073365
285220,G.A. Hagemanns Vej,3070,24,12.5765362,56.0079972
285221,G.A. Hagemanns Vej,3070,25,12.5756581,56.0072631
285222,G.A. Hagemanns Vej,3070,26A,12.5762461,56.0079711
285223,G.A. Hagemanns Vej,3070,26B,12.5762115,56.0078052
285224,G.A. Hagemanns Vej,3070,27,12.5754115,56.0071781
285225,G.A. Hagemanns Vej,3070,28,12.575813,56.00771
285226,G.A. Hagemanns Vej,3070,30,12.5753095,56.0074918
285227,G.A. Hagemanns Vej,3070,32,12.5749793,56.0073921
285228,G.A. Hagemanns Vej,3070,34,12.5746699,56.0072399
285229,G.A. Hagemanns Vej,3070,36,12.5741754,56.0070701
285230,G.A. Hagemanns Vej,3070,38,12.5738235,56.0069307
285835,Gratiavej,3070,8,12.590653,56.010491
285836,Gratiavej,3070,12,12.590947,56.010567
285837,Gratiavej,3070,14A,12.591638,56.010621
285838,Gratiavej,3070,14B,12.591303,56.010773
285839,Gratiavej,3070,16A,12.591911,56.010722
285840,Gratiavej,3070,16B,12.591722,56.010913
285841,Gratiavej,3070,18,12.591884,56.01103
286022,Grønnegangen,3070,1,12.58537,56.009423
286023,Grønnegangen,3070,2,12.584271,56.00897
286024,Grønnegangen,3070,3,12.586266,56.009606
286025,Grønnegangen,3070,4,12.58451,56.008869
286026,Grønnegangen,3070,6,12.585094,56.008624
286027,Grønnegangen,3070,7,12.587105,56.009899
286028,Grønnegangen,3070,8,12.585155,56.008772
286029,Grønnegangen,3070,10,12.585441,56.008957
286030,Grønnegangen,3070,12,12.584866,56.009135
286031,Grønnegangen,3070,14,12.585266,56.009184
286032,Grønnegangen,3070,16,12.585757,56.008988
286033,Grønnegangen,3070,20,12.586205,56.009127
286034,Grønnegangen,3070,24,12.585995,56.009389
286035,Grønnegangen,3070,26,12.586633,56.009224
286036,Grønnegangen,3070,28,12.587001,56.00934
286037,Grønnegangen,3070,32,12.587342,56.009537
286038,Grønnegangen,3070,34,12.587694,56.0094
286039,Grønnegangen,3070,36,12.587564,56.009664
286040,Grønnegangen,3070,40,12.588112,56.009503
286425,Gydestien,3070,1,12.588963,56.009529
286426,Gydestien,3070,2,12.588975,56.009779
286427,Gydestien,3070,3,12.58867,56.009726
286428,Gydevej,3070,1,12.588647,56.010122
286429,Gydevej,3070,2A,12.589211,56.009574
286430,Gydevej,3070,2B,12.589316,56.009601
286431,Gydevej,3070,3A,12.589258,56.010008
286432,Gydevej,3070,3B,12.589152,56.010186
286433,Gydevej,3070,4,12.589324,56.009739
286434,Gydevej,3070,5,12.589448,56.010303
286435,Gydevej,3070,10,12.589922,56.010076
286436,Gydevej,3070,12A,12.590153,56.010088
286437,Gydevej,3070,12B,12.590185,56.010062
286438,Gydevej,3070,12C,12.590181,56.010204
286439,Gydevej,3070,12D,12.590252,56.010258
286440,Gydevej,3070,12E,12.590349,56.010298
286441,Gydevej,3070,12F,12.590433,56.010329
286442,Gydevej,3070,14A,12.589888,56.010348
286443,Gydevej,3070,14B,12.590026,56.010403
286800,Hans Paaskes Vej,3070,1,12.57058,56.015292
286801,Hans Paaskes Vej,3070,2,12.570718,56.015487
286802,Hans Paaskes Vej,3070,3,12.570604,56.015634
286803,Hans Paaskes Vej,3070,4,12.570542,56.015714
286804,Hans Paaskes Vej,3070,5,12.570463,56.015813
286805,Hans Paaskes Vej,3070,6,12.570271,56.015892
286806,Hans Paaskes Vej,3070,7,12.570015,56.015889
286807,Hans Paaskes Vej,3070,8,12.569841,56.015844
286808,Hans Paaskes Vej,3070,9,12.56971,56.015752
286809,Hans Paaskes Vej,3070,10,12.569822,56.015693
286810,Hans Paaskes Vej,3070,11,12.569923,56.015638
286811,Hans Paaskes Vej,3070,12,12.570058,56.015564
286812,Hans Paaskes Vej,3070,13,12.570144,56.015518
286813,Hans Paaskes Vej,3070,14,12.57026,56.015456
286814,Hans Paaskes Vej,3070,15,12.57038,56.015392
286815,Hans Paaskes Vej,3070,16,12.569845,56.016106
286816,Hans Paaskes Vej,3070,17,12.570025,56.01618
286817,Hans Paaskes Vej,3070,18,12.570114,56.01631
286818,Hans Paaskes Vej,3070,19,12.570199,56.016436
286819,Hans Paaskes Vej,3070,20,12.57028,56.01661
286820,Hans Paaskes Vej,3070,21,12.570048,56.016658
286821,Hans Paaskes Vej,3070,22,12.569791,56.016712
286822,Hans Paaskes Vej,3070,23,12.569573,56.016706
286823,Hans Paaskes Vej,3070,24,12.570148,56.016802
286824,Hans Paaskes Vej,3070,25,12.569827,56.016872
286825,Hans Paaskes Vej,3070,26,12.56945,56.016816
286826,Hans Paaskes Vej,3070,27,12.569389,56.016648
286827,Hans Paaskes Vej,3070,28,12.569432,56.016595
286828,Hans Paaskes Vej,3070,29,12.569476,56.016539
286829,Hans Paaskes Vej,3070,30,12.569526,56.016477
286830,Hans Paaskes Vej,3070,31,12.569571,56.016419
286831,Hans Paaskes Vej,3070,32,12.569654,56.016316
286832,Hans Paaskes Vej,3070,33,12.569713,56.016243
286833,Hans Paaskes Vej,3070,34,12.570242,56.016133
286834,Hans Paaskes Vej,3070,35,12.570957,56.016164
286835,Hans Paaskes Vej,3070,36,12.571429,56.016293
286836,Hans Paaskes Vej,3070,37,12.571304,56.016383
286837,Hans Paaskes Vej,3070,38,12.571135,56.01642
286838,Hans Paaskes Vej,3070,39,12.57093,56.016465
286839,Hans Paaskes Vej,3070,40,12.57084,56.016485
286840,Hans Paaskes Vej,3070,41,12.570703,56.016515
286841,Hans Paaskes Vej,3070,42,12.570564,56.016545
286842,Hans Paaskes Vej,3070,43,12.571418,56.016526
286843,Hans Paaskes Vej,3070,44,12.571233,56.016566
286844,Hans Paaskes Vej,3070,45,12.570978,56.016621
286845,Hans Paaskes Vej,3070,46,12.570802,56.01666
286846,Hans Paaskes Vej,3070,47,12.570621,56.0167
286847,Hans Paaskes Vej,3070,48,12.570451,56.016737
286848,Hans Paaskes Vej,3070,49,12.570421,56.016396
286849,Hans Paaskes Vej,3070,50,12.570366,56.016316
286850,Hans Paaskes Vej,3070,51,12.570899,56.015633
286851,Hans Paaskes Vej,3070,52,12.571019,56.01557
286852,Hans Paaskes Vej,3070,53,12.571212,56.015662
286853,Hans Paaskes Vej,3070,54,12.571313,56.015722
286854,Hans Paaskes Vej,3070,55,12.571443,56.0158
286855,Hans Paaskes Vej,3070,56,12.571565,56.015872
286856,Hans Paaskes Vej,3070,57,12.571678,56.015939
286857,Hans Paaskes Vej,3070,58,12.571632,56.016036
286858,Hans Paaskes Vej,3070,59,12.571506,56.01616
286859,Hans Paaskes Vej,3070,60,12.571402,56.016134
286860,Hans Paaskes Vej,3070,61,12.571301,56.01611
286861,Hans Paaskes Vej,3070,62,12.571188,56.016082
286862,Hans Paaskes Vej,3070,63,12.570995,56.01603
286863,Hans Paaskes Vej,3070,64,12.57088,56.016002
286864,Hans Paaskes Vej,3070,65,12.570765,56.015974
286865,Hans Paaskes Vej,3070,66,12.570645,56.015945
286920,Hasselhøj,3070,3,12.566651,56.010602
286921,Hasselhøj,3070,4,12.56628,56.010633
286922,Hasselhøj,3070,5,12.566737,56.010347
286923,Hasselhøj,3070,6,12.566274,56.01047
286924,Hasselhøj,3070,7,12.566792,56.01013
286925,Hasselhøj,3070,8,12.566421,56.010049
286926,Hasselhøj,3070,9,12.56684,56.009921
286927,Hasselhøj,3070,10,12.566489,56.00974
286928,Hasselhøj,3070,11,12.566873,56.009723
286929,Hasselhøj,3070,13,12.56692,56.009449
286930,Hasselhøj,3070,15,12.566901,56.009281
287357,Henriksparken,3070,1,12.572285,56.006957
287358,Henriksparken,3070,2,12.572116,56.007093
287359,Henriksparken,3070,3,12.572119,56.006892
287360,Henriksparken,3070,4,12.572008,56.007169
287361,Henriksparken,3070,5,12.571922,56.006824
287362,Henriksparken,3070,6,12.571878,56.007261
287363,Henriksparken,3070,7,12.571785,56.006758
287364,Henriksparken,3070,8A,12.571139,56.007003
287365,Henriksparken,3070,8B,12.570953,56.007103
287366,Henriksparken,3070,9,12.571618,56.006692
287367,Henriksparken,3070,11,12.571417,56.006624
287368,Henriksparken,3070,13,12.571254,56.006559
288260,Hvilevej,3070,1,12.575275,56.007725
288261,Hvilevej,3070,2,12.575645,56.008036
288262,Hvilevej,3070,3,12.574812,56.007575
288263,Hvilevej,3070,4,12.575276,56.007996
288264,Hvilevej,3070,5,12.574407,56.007526
288265,Hvilevej,3070,6,12.574844,56.007825
288266,Hvilevej,3070,7,12.574037,56.007355
288267,Hvilevej,3070,8,12.574364,56.007723
288268,Hvilevej,3070,9,12.573592,56.007215
288269,Hvilevej,3070,10,12.573907,56.007591
288270,Hvilevej,3070,11,12.573063,56.007097
288271,Hvilevej,3070,12,12.57353,56.007584
288272,Hvilevej,3070,14,12.573208,56.007383
288273,Hvilevej,3070,16,12.572921,56.007305
288332,Hyldebakken,3070,2,12.593661,56.014154
288333,Hyldebakken,3070,4A,12.593994,56.014365
288334,Hyldebakken,3070,4B,12.59463,56.014357
288335,Hyldebakken,3070,5,12.593507,56.014502
288336,Hyldebakken,3070,6,12.594355,56.014566
288337,Hyldebakken,3070,7,12.59373,56.014625
288338,Hyldebakken,3070,8,12.5944,56.014875
288339,Hyldebakken,3070,9,12.593869,56.014871
288340,Hyldebakken,3070,10,12.594502,56.015051
288341,Hyldebakken,3070,11,12.594224,56.015188
288342,Hyldebakken,3070,13,12.594186,56.015414
288767,Jollen,3070,1,12.579151,56.010289
288768,Jollen,3070,3,12.578908,56.010255
288769,Jollen,3070,5,12.578672,56.010257
288770,Jollen,3070,7,12.578317,56.010237
288771,Jollen,3070,9,12.57832,56.01036
288772,Jollen,3070,11,12.578201,56.010485
288773,Jollen,3070,13,12.578343,56.010484
288774,Jollen,3070,15,12.578494,56.010483
288775,Jollen,3070,17,12.578696,56.01041
288776,Jollen,3070,19,12.578829,56.010409
288777,Jollen,3070,21,12.578969,56.010498
288778,Jollen,3070,23,12.579124,56.010496
288779,Jollen,3070,25,12.579268,56.010558
288780,Jollen,3070,27,12.57941,56.010557
288781,Jollen,3070,29,12.579405,56.010792
288782,Jollen,3070,31,12.579152,56.010839
288783,Jollen,3070,33,12.578912,56.010838
288784,Jollen,3070,35,12.578676,56.010771
288785,Jollen,3070,37,12.578329,56.010793
288786,Jollen,3070,39,12.578333,56.010939
288787,Jollen,3070,41,12.578336,56.011069
288788,Jollen,3070,43,12.578217,56.01119
288789,Jollen,3070,45,12.578371,56.011189
288790,Jollen,3070,47,12.578511,56.011188
288791,Jollen,3070,49,12.578717,56.01107
288792,Jollen,3070,51,12.578849,56.011069
288793,Jollen,3070,53,12.579001,56.011068
288794,Jollen,3070,55,12.579147,56.011067
288795,Jollen,3070,57,12.579285,56.011066
288796,Jollen,3070,59,12.579426,56.011083
288797,Jollen,3070,61,12.579416,56.011327
288798,Jollen,3070,63,12.579187,56.011392
288799,Jollen,3070,65,12.578935,56.011393
288800,Jollen,3070,67,12.578699,56.011459
288801,Jollen,3070,69,12.578346,56.011502
288802,Jollen,3070,71,12.578349,56.011636
288803,Jollen,3070,73,12.577892,56.011718
288804,Jollen,3070,75,12.57823,56.011761
288805,Jollen,3070,77,12.578392,56.01176
288806,Jollen,3070,79,12.578534,56.011759
288807,Jollen,3070,81,12.578667,56.011758
288808,Jollen,3070,83,12.578876,56.011703
288809,Jollen,3070,85,12.579006,56.011702
288810,Jollen,3070,87,12.579155,56.011629
288811,Jollen,3070,89,12.579271,56.011628
288812,Jollen,3070,91,12.579436,56.011627
288924,K.A. Hasselbalchs Vej,3070,2,12.567668,56.011147
288925,K.A. Hasselbalchs Vej,3070,4,12.567841,56.011323
288926,K.A. Hasselbalchs Vej,3070,6,12.568008,56.011492
288927,K.A. Hasselbalchs Vej,3070,8,12.5676119,56.0115763
288928,K.A. Hasselbalchs Vej,3070,10,12.5674411,56.0114086
288929,K.A. Hasselbalchs Vej,3070,12,12.5672856,56.0112405
288930,K.A. Hasselbalchs Vej,3070,14,12.5665997,56.011433
288931,K.A. Hasselbalchs Vej,3070,16,12.566779,56.011617
288932,K.A. Hasselbalchs Vej,3070,18,12.566955,56.011794
288933,K.A. Hasselbalchs Vej,3070,20,12.5665447,56.0118662
288934,K.A. Hasselbalchs Vej,3070,22,12.566369,56.0116871
288935,K.A. Hasselbalchs Vej,3070,24,12.5662071,56.0115192
288936,K.A. Hasselbalchs Vej,3070,26,12.5655338,56.0117228
288937,K.A. Hasselbalchs Vej,3070,28,12.5657031,56.011902
288938,K.A. Hasselbalchs Vej,3070,30,12.565877,56.01208
288939,K.A. Hasselbalchs Vej,3070,32,12.5656098,56.0122961
288940,K.A. Hasselbalchs Vej,3070,34,12.5654561,56.0121336
288941,K.A. Hasselbalchs Vej,3070,36,12.5652853,56.0119659
288942,K.A. Hasselbalchs Vej,3070,38,12.5651285,56.0117978
288943,K.A. Hasselbalchs Vej,3070,40,12.564445,56.011994
288944,K.A. Hasselbalchs Vej,3070,42,12.5646132,56.0121695
288945,K.A. Hasselbalchs Vej,3070,44,12.5647833,56.012343
288946,K.A. Hasselbalchs Vej,3070,46,12.5649691,56.0125333
288947,K.A. Hasselbalchs Vej,3070,48,12.564543,56.012584
288948,K.A. Hasselbalchs Vej,3070,50,12.5643749,56.0124124
288949,K.A. Hasselbalchs Vej,3070,52,12.564279,56.012229
288950,K.A. Hasselbalchs Vej,3070,54,12.5640543,56.0120821
288951,K.A. Hasselbalchs Vej,3070,56,12.5633633,56.0122747
288952,K.A. Hasselbalchs Vej,3070,58,12.5635434,56.0124594
288953,K.A. Hasselbalchs Vej,3070,60,12.5637078,56.0126273
288954,K.A. Hasselbalchs Vej,3070,62,12.5638841,56.0128121
288955,K.A. Hasselbalchs Vej,3070,64,12.5636026,56.0130044
288956,K.A. Hasselbalchs Vej,3070,66,12.5634482,56.0128477
288957,K.A. Hasselbalchs Vej,3070,68,12.5632863,56.0126798
288958,K.A. Hasselbalchs Vej,3070,70,12.5631281,56.0125232
288959,K.A. Hasselbalchs Vej,3070,72,12.5629613,56.0123439
288960,K.A. Hasselbalchs Vej,3070,74,12.562284,56.012552
288961,K.A. Hasselbalchs Vej,3070,76,12.5624504,56.0127212
288962,K.A. Hasselbalchs Vej,3070,78,12.562617,56.012893
288963,K.A. Hasselbalchs Vej,3070,80,12.56278,56.013062
288964,K.A. Hasselbalchs Vej,3070,82,12.562955,56.013241
288965,K.A. Hasselbalchs Vej,3070,84,12.562544,56.0133055
288966,K.A. Hasselbalchs Vej,3070,86,12.562379,56.013137
288967,K.A. Hasselbalchs Vej,3070,88,12.5622182,56.0129754
288968,K.A. Hasselbalchs Vej,3070,90,12.5620507,56.0128018
288969,K.A. Hasselbalchs Vej,3070,92,12.5618838,56.012634
288970,K.A. Hasselbalchs Vej,3070,94,12.561195,56.012819
288971,K.A. Hasselbalchs Vej,3070,96,12.561371,56.013001
288972,K.A. Hasselbalchs Vej,3070,98,12.561548,56.0131847
288973,K.A. Hasselbalchs Vej,3070,100,12.5617168,56.0133582
288974,K.A. Hasselbalchs Vej,3070,102,12.5618799,56.0135261
288975,K.A. Hasselbalchs Vej,3070,104,12.561592,56.0137186
288976,K.A. Hasselbalchs Vej,3070,106,12.561427,56.01355
288977,K.A. Hasselbalchs Vej,3070,108,12.561195,56.013277
289259,Kernevænget,3070,3,12.562704,56.010967
289260,Kernevænget,3070,4,12.562053,56.011159
289261,Kernevænget,3070,5,12.56263,56.010794
289262,Kernevænget,3070,6,12.562083,56.011005
289263,Kernevænget,3070,7,12.562594,56.010604
289264,Kernevænget,3070,8,12.562078,56.010815
289265,Kernevænget,3070,9,12.56265,56.010396
289266,Kernevænget,3070,10,12.562188,56.010667
289267,Kernevænget,3070,11,12.562658,56.010206
289268,Kernevænget,3070,12,12.562218,56.010451
289269,Kernevænget,3070,14,12.562275,56.010291
289270,Kernevænget,3070,16,12.562349,56.010112
289527,Kirsebærbakken,3070,3,12.596202,56.015153
289528,Kirsebærbakken,3070,4,12.596714,56.015789
289529,Kirsebærbakken,3070,5,12.595832,56.015273
289530,Kirsebærbakken,3070,6,12.596569,56.015604
289531,Kirsebærbakken,3070,7,12.59528,56.015221
289532,Kirsebærbakken,3070,8,12.59623,56.015421
289533,Kirsebærbakken,3070,9,12.595275,56.01542
289534,Kirsebærbakken,3070,10,12.596118,56.015765
289535,Kirsebærbakken,3070,11,12.594802,56.015178
289536,Kirsebærbakken,3070,12,12.595593,56.015648
289537,Kirsebærbakken,3070,13,12.59471,56.015333
289538,Kirsebærbakken,3070,15,12.594734,56.015493
289598,Klostermosevej,3070,1,12.576701,56.005008
289599,Klostermosevej,3070,2,12.57721,56.00531
289600,Klostermosevej,3070,4A,12.576894,56.005209
289601,Klostermosevej,3070,4B,12.576813,56.005298
289602,Klostermosevej,3070,4C,12.576651,56.005292
289603,Klostermosevej,3070,5,12.574768,56.005633
289604,Klostermosevej,3070,6,12.576092,56.005421
289605,Klostermosevej,3070,7A,12.574393,56.005821
289606,Klostermosevej,3070,7B,12.574326,56.005859
289607,Klostermosevej,3070,7C,12.574266,56.005893
289608,Klostermosevej,3070,8A,12.575564,56.005702
289609,Klostermosevej,3070,8B,12.575335,56.005792
289610,Klostermosevej,3070,8C,12.575364,56.005829
289611,Klostermosevej,3070,9,12.574024,56.005988
289612,Klostermosevej,3070,10,12.575072,56.005892
289613,Klostermosevej,3070,12,12.574649,56.006211
289614,Klostermosevej,3070,14,12.574397,56.006283
289615,Klostermosevej,3070,16,12.574123,56.006392
289616,Klostermosevej,3070,18,12.573875,56.006503
289617,Klostermosevej,3070,20,12.573387,56.00676
289618,Klostermosevej,3070,22,12.573048,56.006898
289619,Klostermosevej,3070,28,12.572823,56.007562
289620,Klostermosevej,3070,41,12.571768,56.007765
289660,Klyveren,3070,2,12.582029,56.013425
289661,Klyveren,3070,3,12.581639,56.013738
289662,Klyveren,3070,4,12.582525,56.013276
289663,Klyveren,3070,5,12.581494,56.013762
289664,Klyveren,3070,6,12.58252,56.01352
289665,Klyveren,3070,7,12.581347,56.013785
289666,Klyveren,3070,9,12.581194,56.013809
289667,Klyveren,3070,11,12.581057,56.013831
289668,Klyveren,3070,12,12.582059,56.013813
289669,Klyveren,3070,13,12.580914,56.013854
289670,Klyveren,3070,14,12.582205,56.01379
289671,Klyveren,3070,15,12.580756,56.013879
289672,Klyveren,3070,16,12.582354,56.013767
289673,Klyveren,3070,17,12.580716,56.013918
289674,Klyveren,3070,18,12.582508,56.013743
289675,Klyveren,3070,19,12.581194,56.014037
289676,Klyveren,3070,20,12.582653,56.01372
289677,Klyveren,3070,21,12.581148,56.014084
289678,Klyveren,3070,22,12.582808,56.013696
289679,Klyveren,3070,23,12.581051,56.014059
289680,Klyveren,3070,24,12.582929,56.013677
289681,Klyveren,3070,25,12.580954,56.01407
289682,Klyveren,3070,26,12.583029,56.013662
289683,Klyveren,3070,27,12.58084,56.014088
289684,Klyveren,3070,28,12.583046,56.013698
289685,Klyveren,3070,29,12.580742,56.014103
289686,Klyveren,3070,30,12.582733,56.013926
289687,Klyveren,3070,31,12.581851,56.014153
289688,Klyveren,3070,32,12.582672,56.013967
289689,Klyveren,3070,33,12.581678,56.014182
289690,Klyveren,3070,34,12.582853,56.013905
289691,Klyveren,3070,35,12.581536,56.014201
289692,Klyveren,3070,36,12.582996,56.013882
289693,Klyveren,3070,37,12.581385,56.014228
289694,Klyveren,3070,38,12.583113,56.013864
289695,Klyveren,3070,39,12.581235,56.014252
289696,Klyveren,3070,40,12.583193,56.013865
289697,Klyveren,3070,41,12.581095,56.014274
289698,Klyveren,3070,42,12.582267,56.014229
289699,Klyveren,3070,43,12.580962,56.014296
289700,Klyveren,3070,44,12.582221,56.014274
289701,Klyveren,3070,45,12.580921,56.014333
289702,Klyveren,3070,46,12.582391,56.014208
289703,Klyveren,3070,47,12.5814,56.014443
289704,Klyveren,3070,48,12.582551,56.014183
289705,Klyveren,3070,49,12.581363,56.014493
289706,Klyveren,3070,50,12.582694,56.014158
289707,Klyveren,3070,51,12.581242,56.014471
289708,Klyveren,3070,52,12.582841,56.014136
289709,Klyveren,3070,53,12.581088,56.014496
289710,Klyveren,3070,54,12.582986,56.014109
289711,Klyveren,3070,55,12.580925,56.014561
289712,Klyveren,3070,56,12.583128,56.014088
289713,Klyveren,3070,57,12.580954,56.01452
289714,Klyveren,3070,58,12.583255,56.014065
289715,Klyveren,3070,59,12.582065,56.014566
289716,Klyveren,3070,60,12.583262,56.014111
289717,Klyveren,3070,61,12.581928,56.014588
289718,Klyveren,3070,62,12.582936,56.014342
289719,Klyveren,3070,63,12.58177,56.014614
289720,Klyveren,3070,64,12.582884,56.014389
289721,Klyveren,3070,65,12.581636,56.014635
289722,Klyveren,3070,66,12.583061,56.014323
289723,Klyveren,3070,67,12.581468,56.014662
289724,Klyveren,3070,68,12.583194,56.0143
289725,Klyveren,3070,69,12.581329,56.014684
289726,Klyveren,3070,70,12.583316,56.014282
289727,Klyveren,3070,71,12.581184,56.014707
289728,Klyveren,3070,72,12.58341,56.014281
289729,Klyveren,3070,73,12.58114,56.014751
289730,Klyveren,3070,74,12.582487,56.01464
289731,Klyveren,3070,75,12.581615,56.014863
289732,Klyveren,3070,76,12.582435,56.014687
289733,Klyveren,3070,77,12.581576,56.014911
289734,Klyveren,3070,78,12.582606,56.014618
289735,Klyveren,3070,79,12.581442,56.014889
289736,Klyveren,3070,80,12.582754,56.0146
289737,Klyveren,3070,81,12.581289,56.014912
289738,Klyveren,3070,82,12.582899,56.014577
289739,Klyveren,3070,83,12.581125,56.01498
289740,Klyveren,3070,84,12.583041,56.014553
289741,Klyveren,3070,85,12.58115,56.014934
289742,Klyveren,3070,86,12.583194,56.014528
289743,Klyveren,3070,87,12.58228,56.014981
289744,Klyveren,3070,88,12.583334,56.014505
289745,Klyveren,3070,89,12.582146,56.015008
289746,Klyveren,3070,90,12.583442,56.014487
289747,Klyveren,3070,91,12.581986,56.015035
289748,Klyveren,3070,92,12.583464,56.014523
289749,Klyveren,3070,93,12.58184,56.015055
289750,Klyveren,3070,94,12.58311,56.014764
289751,Klyveren,3070,95,12.581691,56.015083
289752,Klyveren,3070,96,12.583103,56.01481
289753,Klyveren,3070,97,12.581544,56.015102
289754,Klyveren,3070,98,12.583261,56.014741
289755,Klyveren,3070,99,12.581386,56.015123
289756,Klyveren,3070,100,12.583378,56.014721
289757,Klyveren,3070,101,12.581337,56.015171
289758,Klyveren,3070,102,12.583497,56.014702
289759,Klyveren,3070,103,12.581841,56.015274
289760,Klyveren,3070,104,12.583604,56.014685
289761,Klyveren,3070,105,12.58181,56.015324
289762,Klyveren,3070,106,12.582709,56.015052
289763,Klyveren,3070,107,12.581658,56.015306
289764,Klyveren,3070,108,12.582654,56.015101
289765,Klyveren,3070,109,12.581512,56.01533
289766,Klyveren,3070,110,12.582828,56.015036
289767,Klyveren,3070,111,12.581327,56.01536
289768,Klyveren,3070,112,12.582968,56.015012
289769,Klyveren,3070,113,12.581387,56.015348
289770,Klyveren,3070,114,12.583118,56.014991
289771,Klyveren,3070,116,12.58326,56.014969
289772,Klyveren,3070,118,12.583403,56.014945
289773,Klyveren,3070,120,12.583542,56.01492
289774,Klyveren,3070,122,12.583676,56.014901
289775,Klyveren,3070,124,12.583704,56.01494
289776,Klyveren,3070,126,12.583359,56.015173
289777,Klyveren,3070,128,12.583315,56.015219
289778,Klyveren,3070,130,12.583479,56.015153
289779,Klyveren,3070,132,12.583622,56.01513
289780,Klyveren,3070,134,12.583768,56.015106
289781,Klyveren,3070,136,12.583788,56.015146
290163,Kongevejen,3070,236,12.561036,56.018647
290164,Kongevejen,3070,246,12.556037,56.016819
290172,Kongevejen,3070,256A,12.553677,56.017424
290174,Kongevejen,3070,260,12.55312,56.017696
290176,Kongevejen,3070,262,12.552097,56.01534
290177,Kongevejen,3070,264,12.551492,56.016007
290178,Kongevejen,3070,268,12.550021,56.01702
290654,Kølen,3070,2,12.573735,56.010056
290655,Kølen,3070,3,12.572846,56.009886
290656,Kølen,3070,4,12.572752,56.009994
290657,Kølen,3070,5,12.57264,56.010103
290658,Kølen,3070,6,12.572495,56.010241
290659,Kølen,3070,7,12.572957,56.010435
290660,Kølen,3070,8,12.572742,56.010384
290661,Kølen,3070,9,12.57239,56.010341
290662,Kølen,3070,10,12.572293,56.010444
290663,Kølen,3070,11,12.572212,56.01063
290664,Kølen,3070,12,12.572774,56.010662
290665,Kølen,3070,13,12.572973,56.010711
290666,Kølen,3070,14,12.573013,56.010943
290667,Kølen,3070,15,12.572822,56.01089
290668,Kølen,3070,16,12.572602,56.010828
290669,Kølen,3070,17,12.572449,56.010785
290670,Kølen,3070,18,12.572097,56.010742
290671,Kølen,3070,19,12.571998,56.010835
290672,Kølen,3070,20,12.571903,56.010919
290673,Kølen,3070,21,12.571746,56.011082
290674,Kølen,3070,22,12.572334,56.011058
290675,Kølen,3070,23,12.572526,56.011112
290676,Kølen,3070,24,12.57281,56.011181
290677,Kølen,3070,25,12.573009,56.011237
290678,Kølen,3070,26,12.572933,56.011441
290679,Kølen,3070,27,12.572736,56.01139
290680,Kølen,3070,28,12.572473,56.011309
290681,Kølen,3070,29,12.572281,56.011264
290682,Kølen,3070,30,12.572051,56.011202
290683,Kølen,3070,31,12.571626,56.011188
290684,Kølen,3070,32,12.571525,56.011295
290685,Kølen,3070,33,12.571416,56.011406
290686,Kølen,3070,34,12.571983,56.011447
290687,Kølen,3070,35,12.572194,56.011501
290688,Kølen,3070,36,12.572434,56.011568
290689,Kølen,3070,37,12.572638,56.011626
290690,Kølen,3070,38,12.572848,56.011684
290893,Lindahlstien,3070,1,12.579072,56.006052
290894,Lindahlstien,3070,2,12.579212,56.00618
291088,Lokkerupvej,3070,3,12.576133,56.005159
291089,Lokkerupvej,3070,4A,12.575526,56.004849
291090,Lokkerupvej,3070,4B,12.575632,56.004792
291091,Lokkerupvej,3070,6,12.576176,56.004834
291092,Lokkerupvej,3070,7,12.576567,56.004733
291093,Lokkerupvej,3070,8,12.575945,56.004651
291094,Lokkerupvej,3070,9,12.576361,56.004555
291095,Lokkerupvej,3070,10,12.57568,56.004492
291096,Lokkerupvej,3070,11,12.576172,56.004377
291097,Lokkerupvej,3070,12,12.575502,56.004308
291098,Lokkerupvej,3070,13,12.575956,56.004196
291099,Lokkerupvej,3070,15,12.575639,56.004119
291269,Løntoften,3070,1,12.569748,56.009011
291270,Løntoften,3070,2,12.569285,56.009879
291271,Løntoften,3070,3A,12.569156,56.009134
291272,Løntoften,3070,3B,12.568918,56.00913
291273,Løntoften,3070,4,12.568766,56.010397
291274,Løntoften,3070,5,12.567313,56.009258
291275,Løntoften,3070,7,12.567569,56.009357
291276,Løntoften,3070,8,12.568184,56.010586
291277,Løntoften,3070,9,12.567921,56.009494
291278,Løntoften,3070,10,12.567725,56.010784
291279,Løntoften,3070,12,12.56709,56.01094
291280,Løntoften,3070,13,12.568316,56.009352
291281,Løntoften,3070,14,12.566228,56.011175
291282,Løntoften,3070,15A,12.567721,56.009636
291283,Løntoften,3070,15B,12.567746,56.009795
291284,Løntoften,3070,16,12.565803,56.01128
291285,Løntoften,3070,17,12.568829,56.00945
291286,Løntoften,3070,18,12.565348,56.0114
291287,Løntoften,3070,20,12.564875,56.011451
291288,Løntoften,3070,21,12.568924,56.009704
291289,Løntoften,3070,22,12.564312,56.011648
291290,Løntoften,3070,23,12.568759,56.009848
291291,Løntoften,3070,24,12.563996,56.011693
291292,Løntoften,3070,25,12.568498,56.010058
291293,Løntoften,3070,27,12.568378,56.010187
291294,Løntoften,3070,29,12.568157,56.010298
291295,Løntoften,3070,31,12.567883,56.01046
291296,Løntoften,3070,33,12.56739,56.010532
291297,Løntoften,3070,35,12.567159,56.010639
291298,Løntoften,3070,37A,12.567335,56.010276
291299,Løntoften,3070,37B,12.567309,56.010039
291300,Løntoften,3070,43,12.566799,56.010736
291301,Løntoften,3070,45,12.5662,56.010887
291302,Løntoften,3070,47,12.565878,56.01097
291303,Løntoften,3070,49,12.565518,56.011058
291304,Løntoften,3070,51,12.565203,56.011135
291305,Løntoften,3070,53,12.564889,56.011212
291306,Løntoften,3070,55,12.564544,56.011296
291711,Masten,3070,2,12.576807,56.012923
291712,Masten,3070,4,12.576701,56.012867
291713,Masten,3070,6,12.576596,56.012924
291714,Masten,3070,8,12.576508,56.012868
291715,Masten,3070,10,12.576403,56.012926
291716,Masten,3070,12,12.576269,56.012969
291717,Masten,3070,14,12.576182,56.013027
291718,Masten,3070,16,12.576072,56.01297
291719,Masten,3070,18,12.575986,56.013027
291720,Masten,3070,20,12.575848,56.013128
291721,Masten,3070,22,12.57574,56.013188
291722,Masten,3070,24,12.575631,56.013129
291723,Masten,3070,26,12.57554,56.01319
291724,Masten,3070,28,12.575441,56.013131
291725,Masten,3070,30,12.575353,56.013192
291726,Masten,3070,32,12.576835,56.012541
291727,Masten,3070,34,12.576728,56.012484
291728,Masten,3070,36,12.576633,56.012543
291729,Masten,3070,38,12.576532,56.012485
291730,Masten,3070,40,12.576447,56.012544
291731,Masten,3070,42,12.576304,56.012586
291732,Masten,3070,44,12.576204,56.012645
291733,Masten,3070,46,12.57611,56.012587
291734,Masten,3070,48,12.576017,56.012647
291735,Masten,3070,50,12.575914,56.012589
291736,Masten,3070,52,12.575778,56.012806
291737,Masten,3070,54,12.575669,56.012749
291738,Masten,3070,56,12.575582,56.012807
291739,Masten,3070,58,12.575467,56.012751
291740,Masten,3070,60,12.575383,56.012809
291741,Masten,3070,62,12.575331,56.012408
291742,Masten,3070,64,12.575435,56.012349
291743,Masten,3070,66,12.575524,56.012406
291744,Masten,3070,68,12.57568,56.01219
291745,Masten,3070,70,12.575762,56.012247
291746,Masten,3070,72,12.575848,56.012189
291747,Masten,3070,74,12.575943,56.012246
291748,Masten,3070,76,12.576039,56.012188
291749,Masten,3070,78,12.576202,56.012145
291750,Masten,3070,80,12.576292,56.012085
291751,Masten,3070,82,12.576378,56.012143
291752,Masten,3070,84,12.576494,56.012084
291753,Masten,3070,86,12.576576,56.012142
291754,Masten,3070,88,12.576678,56.012083
291755,Masten,3070,90,12.576773,56.01214
291756,Mathilde Bruuns Vej,3070,1A,12.579593,56.007459
291757,Mathilde Bruuns Vej,3070,1B,12.579335,56.007351
291758,Mathilde Bruuns Vej,3070,2,12.579052,56.007635
291759,Mathilde Bruuns Vej,3070,3,12.578969,56.007278
291760,Mathilde Bruuns Vej,3070,5,12.578636,56.007225
291761,Mathilde Bruuns Vej,3070,6,12.578684,56.007527
291762,Mathilde Bruuns Vej,3070,7,12.578289,56.007115
291763,Mathilde Bruuns Vej,3070,8,12.578084,56.007399
291764,Mathilde Bruuns Vej,3070,9,12.578068,56.006983
291765,Mathilde Bruuns Vej,3070,10,12.577776,56.007391
291766,Mathilde Bruuns Vej,3070,11,12.577629,56.006924
291767,Mathilde Bruuns Vej,3070,12,12.57746,56.007267
291768,Mathilde Bruuns Vej,3070,13,12.57739,56.006832
291769,Mathilde Bruuns Vej,3070,14,12.577242,56.007148
291770,Mathilde Bruuns Vej,3070,15,12.577515,56.00674
291771,Mathilde Bruuns Vej,3070,16,12.577001,56.007059
291772,Mathilde Bruuns Vej,3070,17,12.577063,56.006765
291773,Mathilde Bruuns Vej,3070,18,12.576793,56.007054
291774,Mathilde Bruuns Vej,3070,19,12.576798,56.006686
291775,Mathilde Bruuns Vej,3070,20,12.576602,56.006985
291776,Mathilde Bruuns Vej,3070,21A,12.576411,56.006581
291777,Mathilde Bruuns Vej,3070,21B,12.576167,56.006505
291778,Mathilde Bruuns Vej,3070,21C,12.576375,56.006335
291779,Mathilde Bruuns Vej,3070,22,12.576315,56.006914
291780,Mathilde Bruuns Vej,3070,23,12.575945,56.006416
291781,Mathilde Bruuns Vej,3070,24,12.576076,56.00684
291782,Mathilde Bruuns Vej,3070,25,12.57556,56.006229
291783,Mathilde Bruuns Vej,3070,26,12.575774,56.006734
291784,Mathilde Bruuns Vej,3070,28,12.57528,56.006684
291785,Mathilde Bruuns Vej,3070,30,12.57473,56.006846
291786,Mathilde Bruuns Vej,3070,32,12.574633,56.006805
291787,Mathilde Bruuns Vej,3070,34,12.574391,56.006783
291788,Mathilde Bruuns Vej,3070,36,12.574465,56.006731
291789,Mathilde Bruuns Vej,3070,38,12.574614,56.006661
291790,Mathilde Bruuns Vej,3070,40,12.574689,56.006609
291791,Mathilde Bruuns Vej,3070,42,12.574878,56.006547
291792,Mathilde Bruuns Vej,3070,44,12.574938,56.006501
291793,Mathilde Bruuns Vej,3070,46,12.575012,56.006451
291860,Meulenborg Park,3070,1,12.594881,56.01627
291861,Meulenborg Park,3070,2,12.593345,56.016261
291862,Meulenborg Park,3070,3,12.594878,56.016234
291863,Meulenborg Park,3070,4,12.594125,56.016218
291864,Meulenborg Park,3070,5,12.594875,56.016191
291865,Meulenborg Park,3070,6,12.59404,56.016215
291866,Meulenborg Park,3070,7,12.594871,56.016148
291867,Meulenborg Park,3070,8,12.59396,56.016214
291868,Meulenborg Park,3070,9,12.59487,56.016105
291869,Meulenborg Park,3070,10,12.593877,56.016213
291870,Meulenborg Park,3070,11,12.594868,56.016065
291871,Meulenborg Park,3070,12,12.593797,56.016213
291872,Meulenborg Park,3070,13,12.594717,56.016312
291873,Meulenborg Park,3070,14,12.593706,56.016214
291874,Meulenborg Park,3070,15,12.594633,56.016292
291875,Meulenborg Park,3070,16,12.594131,56.016039
291876,Meulenborg Park,3070,17,12.594578,56.016315
291877,Meulenborg Park,3070,18,12.594044,56.016041
291878,Meulenborg Park,3070,19,12.594517,56.016294
291879,Meulenborg Park,3070,20,12.593961,56.01604
291880,Meulenborg Park,3070,21,12.59445,56.016312
291881,Meulenborg Park,3070,22,12.593881,56.01604
291882,Meulenborg Park,3070,23,12.594411,56.016265
291883,Meulenborg Park,3070,24,12.593798,56.016042
291884,Meulenborg Park,3070,25,12.59445,56.016218
291885,Meulenborg Park,3070,26,12.593704,56.01604
291886,Meulenborg Park,3070,27,12.594407,56.016187
291887,Meulenborg Park,3070,28,12.594105,56.015869
291888,Meulenborg Park,3070,29,12.59444,56.01615
291889,Meulenborg Park,3070,30,12.594108,56.015828
291890,Meulenborg Park,3070,31,12.594406,56.016118
291891,Meulenborg Park,3070,32,12.593949,56.015869
291892,Meulenborg Park,3070,33,12.594417,56.016062
291893,Meulenborg Park,3070,34,12.593948,56.015828
291894,Meulenborg Park,3070,35,12.594528,56.016061
291895,Meulenborg Park,3070,36,12.593808,56.015868
291896,Meulenborg Park,3070,37,12.594628,56.016063
291897,Meulenborg Park,3070,38,12.59381,56.015827
291898,Meulenborg Park,3070,39,12.594723,56.016063
291899,Meulenborg Park,3070,40,12.593653,56.015869
291900,Meulenborg Park,3070,41,12.59444,56.015886
291901,Meulenborg Park,3070,42,12.593657,56.015829
291902,Meulenborg Park,3070,43,12.594437,56.015848
291903,Meulenborg Park,3070,44,12.593477,56.01585
291904,Meulenborg Park,3070,45,12.594587,56.015886
291905,Meulenborg Park,3070,46,12.593477,56.015816
291906,Meulenborg Park,3070,47,12.594584,56.015849
291907,Meulenborg Park,3070,48,12.593351,56.015851
291908,Meulenborg Park,3070,49,12.594733,56.015886
291909,Meulenborg Park,3070,50,12.593355,56.015814
291910,Meulenborg Park,3070,51,12.594732,56.015848
291911,Meulenborg Park,3070,52,12.593234,56.015854
291912,Meulenborg Park,3070,53,12.594912,56.015887
291913,Meulenborg Park,3070,54,12.593234,56.015818
291914,Meulenborg Park,3070,55,12.594912,56.01585
291915,Meulenborg Park,3070,56,12.5931,56.015853
291916,Meulenborg Park,3070,57,12.594452,56.015711
291917,Meulenborg Park,3070,58,12.5931,56.015817
291918,Meulenborg Park,3070,59,12.594451,56.015676
291919,Meulenborg Park,3070,60,12.592975,56.015855
291920,Meulenborg Park,3070,61,12.594599,56.015711
291921,Meulenborg Park,3070,62,12.592973,56.015818
291922,Meulenborg Park,3070,63,12.594599,56.015676
291923,Meulenborg Park,3070,64,12.594096,56.015692
291924,Meulenborg Park,3070,65,12.594746,56.01571
291925,Meulenborg Park,3070,66,12.594101,56.015655
291926,Meulenborg Park,3070,67,12.594745,56.015675
291927,Meulenborg Park,3070,68,12.593952,56.015693
291928,Meulenborg Park,3070,69,12.59491,56.01571
291929,Meulenborg Park,3070,70,12.593951,56.015654
291930,Meulenborg Park,3070,71,12.59491,56.015675
291931,Meulenborg Park,3070,72,12.593804,56.015693
291932,Meulenborg Park,3070,74,12.593806,56.015654
291933,Meulenborg Park,3070,76,12.593653,56.015692
291934,Meulenborg Park,3070,78,12.593653,56.015654
293258,Nøddestien,3070,2,12.589692,56.012594
293259,Nøddestien,3070,4,12.589824,56.012582
293260,Nøddestien,3070,6,12.589976,56.012568
293261,Nøddestien,3070,8,12.590114,56.012553
293262,Nøddestien,3070,10,12.590261,56.012542
293317,Nørrevej,3070,1,12.596221,56.014513
293319,Nørrevej,3070,3,12.595945,56.014299
293320,Nørrevej,3070,5,12.59573,56.014027
293322,Nørrevej,3070,8A,12.597198,56.015708
293323,Nørrevej,3070,8B,12.597117,56.015528
293324,Nørrevej,3070,9,12.595444,56.013773
293325,Nørrevej,3070,10,12.596894,56.015372
293326,Nørrevej,3070,11,12.595338,56.013572
293327,Nørrevej,3070,12,12.596849,56.01525
293328,Nørrevej,3070,15,12.595217,56.013444
293329,Nørrevej,3070,17,12.594933,56.013275
293330,Nørrevej,3070,18,12.596434,56.014926
293331,Nørrevej,3070,19,12.594739,56.013186
293332,Nørrevej,3070,20,12.595975,56.014727
293333,Nørrevej,3070,21,12.594602,56.013023
293334,Nørrevej,3070,22,12.595267,56.014167
293335,Nørrevej,3070,23,12.594254,56.012802
293336,Nørrevej,3070,25,12.593913,56.012665
293337,Nørrevej,3070,26,12.5951,56.013986
293338,Nørrevej,3070,27,12.593766,56.012544
293339,Nørrevej,3070,28,12.594402,56.013437
293340,Nørrevej,3070,29,12.593523,56.012353
293341,Nørrevej,3070,30,12.594291,56.01326
293342,Nørrevej,3070,31,12.593288,56.012255
293343,Nørrevej,3070,32,12.593954,56.01307
293344,Nørrevej,3070,33,12.593156,56.012035
293345,Nørrevej,3070,34,12.592935,56.012463
293346,Nørrevej,3070,35,12.592718,56.011956
293347,Nørrevej,3070,37,12.592351,56.011857
293348,Nørrevej,3070,38,12.592456,56.012298
293349,Nørrevej,3070,39,12.592072,56.011699
293350,Nørrevej,3070,40,12.592031,56.012068
293351,Nørrevej,3070,41A,12.591825,56.011612
293352,Nørrevej,3070,42,12.59095,56.011627
293353,Nørrevej,3070,43A,12.591386,56.011463
293354,Nørrevej,3070,43B,12.591457,56.011428
293355,Nørrevej,3070,44A,12.590609,56.011786
293356,Nørrevej,3070,44B,12.590664,56.011802
293357,Nørrevej,3070,45,12.591325,56.011305
293358,Nørrevej,3070,46,12.590613,56.011956
293359,Nørrevej,3070,47,12.591033,56.011326
293360,Nørrevej,3070,48,12.590134,56.011865
293361,Nørrevej,3070,49,12.590857,56.011237
293362,Nørrevej,3070,50,12.590455,56.011615
293363,Nørrevej,3070,51,12.590614,56.011147
293364,Nørrevej,3070,52,12.590753,56.011456
293365,Nørrevej,3070,53,12.590349,56.011073
293366,Nørrevej,3070,55,12.590078,56.011023
293367,Nørrevej,3070,56,12.590087,56.011621
293368,Nørrevej,3070,57,12.589592,56.010862
293369,Nørrevej,3070,58,12.589713,56.011348
293370,Nørrevej,3070,59,12.589245,56.010817
293371,Nørrevej,3070,60,12.589087,56.010974
293372,Nørrevej,3070,61,12.589018,56.010759
293373,Nørrevej,3070,63,12.588742,56.01068
293374,Nørrevej,3070,64,12.588084,56.010819
293375,Nørrevej,3070,65,12.588436,56.010611
293376,Nørrevej,3070,66,12.587877,56.010788
293377,Nørrevej,3070,67,12.58819,56.010534
293378,Nørrevej,3070,69,12.587522,56.01048
293379,Nørrevej,3070,70A,12.586885,56.010925
293380,Nørrevej,3070,70B,12.586617,56.011065
293381,Nørrevej,3070,71,12.587299,56.010445
293382,Nørrevej,3070,72,12.587143,56.010716
293383,Nørrevej,3070,74,12.586531,56.010826
293384,Nørrevej,3070,75A,12.586677,56.010405
293385,Nørrevej,3070,75B,12.586753,56.010296
293386,Nørrevej,3070,75C,12.586874,56.01019
293387,Nørrevej,3070,76,12.586597,56.010718
293388,Nørrevej,3070,79,12.586358,56.010198
293389,Nørrevej,3070,80,12.582029,56.011748
293390,Nørrevej,3070,81,12.586288,56.010396
293391,Nørrevej,3070,83,12.586066,56.010376
293392,Nørrevej,3070,85A,12.585462,56.010231
293393,Nørrevej,3070,85B,12.58533,56.010205
293394,Nørrevej,3070,87,12.584993,56.010062
293395,Nørrevej,3070,95,12.577697,56.009543
293396,Nørrevej,3070,97,12.57233,56.009066
293397,Nørrevænget,3070,1A,12.5909,56.01215
293398,Nørrevænget,3070,1B,12.5912,56.012254
293399,Nørrevænget,3070,2,12.591367,56.012022
293400,Nørrevænget,3070,3A,12.591111,56.01251
293401,Nørrevænget,3070,3B,12.590925,56.012705
293402,Nørrevænget,3070,4,12.591656,56.01228
293403,Nørrevænget,3070,5,12.591443,56.012796
293404,Nørrevænget,3070,6,12.591853,56.012488
293405,Nørrevænget,3070,7,12.591814,56.013057
293406,Nørrevænget,3070,8,12.592158,56.01274
293407,Nørrevænget,3070,10,12.592239,56.012939
293408,Nørrevænget,3070,11A,12.591787,56.013347
293409,Nørrevænget,3070,11B,12.591955,56.013529
293410,Nørrevænget,3070,12,12.592777,56.012864
293411,Nørrevænget,3070,13,12.59205,56.013262
293412,Nørrevænget,3070,14,12.593068,56.012777
293413,Nørrevænget,3070,15,12.592295,56.013224
293414,Nørrevænget,3070,17,12.592706,56.013202
293415,Nørrevænget,3070,19,12.593115,56.013274
293416,Nørrevænget,3070,21,12.593213,56.013038
293417,Nørrevænget,3070,23,12.593432,56.012902
293760,P.W. Tegners Vej,3070,1,12.5679502,56.0124585
293761,P.W. Tegners Vej,3070,2,12.5677156,56.0129774
293762,P.W. Tegners Vej,3070,3,12.567751,56.012306
293763,P.W. Tegners Vej,3070,4,12.5679522,56.0131202
293764,P.W. Tegners Vej,3070,5,12.5675522,56.0121535
293765,P.W. Tegners Vej,3070,6,12.56818,56.013255
293766,P.W. Tegners Vej,3070,7,12.567346,56.0119926
293767,P.W. Tegners Vej,3070,8,12.567826,56.013386
293768,P.W. Tegners Vej,3070,9,12.567051,56.012166
293769,P.W. Tegners Vej,3070,10,12.5676078,56.0132568
293770,P.W. Tegners Vej,3070,11,12.5672445,56.012312
293771,P.W. Tegners Vej,3070,12,12.5673812,56.0131252
293772,P.W. Tegners Vej,3070,13,12.5674407,56.0124617
293773,P.W. Tegners Vej,3070,14,12.5668163,56.0134178
293774,P.W. Tegners Vej,3070,15,12.567642,56.012619
293775,P.W. Tegners Vej,3070,16,12.567051,56.0135549
293776,P.W. Tegners Vej,3070,17,12.567037,56.012884
293777,P.W. Tegners Vej,3070,18,12.567292,56.013697
293778,P.W. Tegners Vej,3070,19,12.5668334,56.0127268
293779,P.W. Tegners Vej,3070,20,12.5669497,56.013834
293780,P.W. Tegners Vej,3070,21,12.566628,56.012567
293781,P.W. Tegners Vej,3070,22,12.566725,56.013704
293782,P.W. Tegners Vej,3070,23,12.5664167,56.0123993
293783,P.W. Tegners Vej,3070,24,12.5664757,56.0135543
293784,P.W. Tegners Vej,3070,25,12.5659966,56.0124805
293785,P.W. Tegners Vej,3070,26,12.5659189,56.0138523
293786,P.W. Tegners Vej,3070,27,12.56624,56.0126691
293787,P.W. Tegners Vej,3070,28,12.56616,56.013992
293788,P.W. Tegners Vej,3070,29,12.5664898,56.0128575
293789,P.W. Tegners Vej,3070,30,12.5664252,56.0141484
293790,P.W. Tegners Vej,3070,31,12.5667268,56.0130463
293791,P.W. Tegners Vej,3070,32,12.5662377,56.014384
293792,P.W. Tegners Vej,3070,33,12.5661233,56.0133113
293793,P.W. Tegners Vej,3070,34,12.566015,56.014246
293794,P.W. Tegners Vej,3070,35,12.5659341,56.0131671
293795,P.W. Tegners Vej,3070,36,12.5657732,56.0141098
293796,P.W. Tegners Vej,3070,37,12.5657292,56.0130062
293797,P.W. Tegners Vej,3070,38,12.5655379,56.013967
293798,P.W. Tegners Vej,3070,39,12.56552,56.012847
293799,P.W. Tegners Vej,3070,40,12.564801,56.014353
293800,P.W. Tegners Vej,3070,41,12.565318,56.012688
293801,P.W. Tegners Vej,3070,42,12.565052,56.0145047
293802,P.W. Tegners Vej,3070,43,12.565023,56.012858
293803,P.W. Tegners Vej,3070,44,12.5653027,56.014647
293804,P.W. Tegners Vej,3070,45,12.5652128,56.0130038
293805,P.W. Tegners Vej,3070,46,12.565528,56.0147786
293806,P.W. Tegners Vej,3070,47,12.5654228,56.0131646
293807,P.W. Tegners Vej,3070,48,12.565175,56.014913
293808,P.W. Tegners Vej,3070,49,12.5656138,56.0133145
293809,P.W. Tegners Vej,3070,50,12.5649406,56.0147726
293810,P.W. Tegners Vej,3070,51,12.565808,56.013465
293811,P.W. Tegners Vej,3070,52,12.5647019,56.0146357
293812,P.W. Tegners Vej,3070,53,12.565213,56.013737
293813,P.W. Tegners Vej,3070,54,12.5644628,56.014493
293814,P.W. Tegners Vej,3070,55,12.5650013,56.0135797
293815,P.W. Tegners Vej,3070,56,12.563893,56.014784
293816,P.W. Tegners Vej,3070,57,12.5648041,56.0134185
293817,P.W. Tegners Vej,3070,58,12.564144,56.014931
293818,P.W. Tegners Vej,3070,59,12.5645972,56.0132633
293819,P.W. Tegners Vej,3070,60,12.5643925,56.0150819
293820,P.W. Tegners Vej,3070,61,12.5643808,56.0131027
293821,P.W. Tegners Vej,3070,62,12.56464,56.015223
293822,P.W. Tegners Vej,3070,63,12.5639843,56.013189
293823,P.W. Tegners Vej,3070,64,12.564456,56.015453
293824,P.W. Tegners Vej,3070,65,12.564208,56.013363
293825,P.W. Tegners Vej,3070,66,12.5642362,56.0153224
293826,P.W. Tegners Vej,3070,67,12.5644408,56.0135441
293827,P.W. Tegners Vej,3070,68,12.563998,56.015186
293828,P.W. Tegners Vej,3070,69,12.5646741,56.0137215
293829,P.W. Tegners Vej,3070,70,12.563766,56.015049
293830,P.W. Tegners Vej,3070,71,12.5649062,56.0138989
293831,P.W. Tegners Vej,3070,72,12.5635267,56.0149113
293832,P.W. Tegners Vej,3070,73,12.5643071,56.0141694
293833,P.W. Tegners Vej,3070,75,12.564108,56.014019
293834,P.W. Tegners Vej,3070,77,12.5639104,56.0138644
293835,P.W. Tegners Vej,3070,79,12.563705,56.013708
293836,P.W. Tegners Vej,3070,81,12.5635056,56.0135539
293837,P.W. Tegners Vej,3070,83,12.5633012,56.0133987
293838,P.W. Tegners Vej,3070,85,12.5630017,56.0135627
293839,P.W. Tegners Vej,3070,87,12.563202,56.01372
293840,P.W. Tegners Vej,3070,89,12.5633951,56.0138736
293841,P.W. Tegners Vej,3070,91,12.563594,56.014019
293842,P.W. Tegners Vej,3070,93,12.5637938,56.0141728
293843,P.W. Tegners Vej,3070,95,12.5640038,56.0143336
293844,P.W. Tegners Vej,3070,97,12.5633908,56.014593
293845,P.W. Tegners Vej,3070,99,12.563183,56.014435
293846,P.W. Tegners Vej,3070,101,12.562977,56.01428
293847,P.W. Tegners Vej,3070,103,12.562781,56.014128
293848,P.W. Tegners Vej,3070,105,12.5625728,56.0139664
293849,P.W. Tegners Vej,3070,107,12.5623685,56.0138112
293850,P.W. Tegners Vej,3070,109,12.5619611,56.013892
293851,P.W. Tegners Vej,3070,111,12.5621799,56.0140641
293852,P.W. Tegners Vej,3070,113,12.5624102,56.0142358
293853,P.W. Tegners Vej,3070,115,12.5626358,56.0144134
293854,P.W. Tegners Vej,3070,117,12.5628259,56.0145806
293855,P.W. Tegners Vej,3070,119,12.5630697,56.0147462
293856,Parallelvej,3070,1A,12.582869,56.007757
293857,Parallelvej,3070,1B,12.582479,56.007693
293858,Parallelvej,3070,1C,12.582164,56.007508
293859,Parallelvej,3070,2,12.582474,56.008001
293860,Parallelvej,3070,3A,12.58211,56.007271
293861,Parallelvej,3070,3B,12.5818,56.007532
293862,Parallelvej,3070,5,12.581684,56.007366
293863,Parallelvej,3070,6,12.581814,56.007745
293864,Parallelvej,3070,7A,12.581443,56.007309
293865,Parallelvej,3070,7B,12.581272,56.007218
293866,Parallelvej,3070,8,12.580995,56.007674
293867,Parallelvej,3070,9A,12.581018,56.007164
293868,Parallelvej,3070,9B,12.580788,56.007027
293869,Parallelvej,3070,9C,12.580492,56.006916
293870,Parallelvej,3070,9D,12.580173,56.006843
293871,Parallelvej,3070,10,12.580899,56.007457
293872,Parallelvej,3070,11A,12.579641,56.006685
293873,Parallelvej,3070,11B,12.579382,56.006604
293874,Parallelvej,3070,12,12.580657,56.007361
293875,Parallelvej,3070,13,12.579165,56.006482
293876,Parallelvej,3070,14,12.580284,56.007182
293877,Parallelvej,3070,15,12.578912,56.006453
293878,Parallelvej,3070,16,12.579977,56.007087
293879,Parallelvej,3070,17A,12.578557,56.006397
293880,Parallelvej,3070,17B,12.578424,56.006358
293881,Parallelvej,3070,17C,12.578357,56.006222
293882,Parallelvej,3070,18A,12.579751,56.006951
293883,Parallelvej,3070,18B,12.579445,56.006891
293884,Parallelvej,3070,18C,12.579142,56.006828
293885,Parallelvej,3070,19A,12.578035,56.006223
293886,Parallelvej,3070,19B,12.578153,56.006016
293887,Parallelvej,3070,20A,12.578847,56.006727
293888,Parallelvej,3070,20B,12.578682,56.006679
293889,Parallelvej,3070,21,12.577648,56.006038
293890,Parallelvej,3070,22,12.578412,56.006654
293891,Parallelvej,3070,24,12.578153,56.006512
293892,Parallelvej,3070,25A,12.578061,56.005736
293893,Parallelvej,3070,25B,12.578015,56.00563
293894,Parallelvej,3070,25C,12.578456,56.005874
293895,Parallelvej,3070,26,12.57772,56.006404
293896,Parallelvej,3070,27A,12.577531,56.005502
293897,Parallelvej,3070,27B,12.577493,56.005869
293898,Parallelvej,3070,28,12.577415,56.006342
293899,Parallelvej,3070,29,12.577287,56.005919
293900,Parallelvej,3070,30,12.577184,56.006276
293901,Parallelvej,3070,32,12.576909,56.006173
293902,Parallelvej,3070,33,12.577166,56.005737
293903,Parallelvej,3070,34A,12.576572,56.006231
293904,Parallelvej,3070,34B,12.576569,56.006049
293905,Parallelvej,3070,35,12.576926,56.005851
293906,Parallelvej,3070,36A,12.576348,56.005991
293907,Parallelvej,3070,36B,12.576262,56.005851
293908,Parallelvej,3070,37,12.576814,56.005603
293909,Parallelvej,3070,38,12.576063,56.005776
293910,Parallelvej,3070,39,12.576538,56.005702
293911,Parallelvej,3070,41,12.576487,56.005478
293912,Parkvej,3070,1,12.587843,56.011188
293913,Parkvej,3070,2,12.588414,56.010934
293914,Parkvej,3070,3,12.587722,56.01115
293915,Parkvej,3070,4,12.588403,56.011206
293916,Parkvej,3070,5,12.58756,56.011097
293917,Parkvej,3070,6,12.588432,56.011371
293918,Parkvej,3070,7,12.587406,56.011047
293919,Parkvej,3070,8,12.588249,56.011572
293920,Parkvej,3070,9,12.587271,56.011004
293921,Parkvej,3070,10,12.588734,56.011688
293922,Parkvej,3070,11A,12.587498,56.011457
293923,Parkvej,3070,11B,12.587294,56.01132
293924,Parkvej,3070,13,12.587684,56.011791
293925,Parkvej,3070,15,12.588004,56.01182
293926,Parkvej,3070,17,12.58822,56.012013
293927,Parkvej,3070,19,12.588468,56.012181
294023,Piletoften,3070,2,12.565532,56.010385
294024,Piletoften,3070,4,12.565548,56.010641
294025,Piletoften,3070,5,12.564368,56.010557
294026,Piletoften,3070,6,12.565243,56.010624
294027,Piletoften,3070,7,12.564089,56.010649
294028,Piletoften,3070,8,12.564818,56.01082
294029,Piletoften,3070,9,12.563795,56.010751
294030,Piletoften,3070,10,12.564491,56.010891
294031,Piletoften,3070,11,12.563484,56.010516
294032,Piletoften,3070,12,12.564099,56.010982
294033,Piletoften,3070,13,12.56319,56.010619
294034,Piletoften,3070,14,12.563843,56.011061
294035,Piletoften,3070,15,12.563414,56.010884
294036,Piletoften,3070,16,12.564074,56.011213
294037,Piletoften,3070,17,12.563094,56.010995
294038,Piletoften,3070,18,12.564294,56.011375
294039,Piletoften,3070,19,12.562605,56.011178
294040,Piletoften,3070,20,12.563403,56.011207
294041,Piletoften,3070,21,12.561748,56.01144
294042,Piletoften,3070,22,12.563625,56.011354
294043,Piletoften,3070,24,12.56385,56.011499
294044,Piletoften,3070,26,12.56296,56.011354
294045,Piletoften,3070,28,12.563181,56.011491
294046,Piletoften,3070,30A,12.563405,56.011632
294047,Piletoften,3070,30B,12.563571,56.011855
294048,Piletoften,3070,32,12.562518,56.011499
294049,Piletoften,3070,34,12.562732,56.011634
294050,Piletoften,3070,36A,12.562944,56.011771
294051,Piletoften,3070,36B,12.56317,56.011892
294052,Piletoften,3070,38,12.562034,56.011604
294053,Piletoften,3070,40,12.562262,56.011755
294054,Piletoften,3070,42A,12.562491,56.011906
294055,Piletoften,3070,42B,12.562685,56.012085
294182,Platanhaven,3070,1,12.587597,56.012637
294183,Platanhaven,3070,2,12.587202,56.012412
294184,Platanhaven,3070,3,12.587459,56.01265
294185,Platanhaven,3070,4,12.587059,56.012427
294186,Platanhaven,3070,5,12.587308,56.012665
294187,Platanhaven,3070,6,12.587141,56.012226
294188,Platanhaven,3070,7,12.587669,56.012821
294189,Platanhaven,3070,8,12.587015,56.012239
294190,Platanhaven,3070,9,12.58751,56.012837
294191,Platanhaven,3070,10,12.587027,56.012023
294192,Platanhaven,3070,11,12.587712,56.013006
294193,Platanhaven,3070,12,12.586899,56.012036
294194,Platanhaven,3070,13,12.587587,56.013019
294195,Platanhaven,3070,14,12.58671,56.012055
294196,Platanhaven,3070,15,12.587967,56.01295
294197,Platanhaven,3070,16,12.586555,56.012071
294198,Platanhaven,3070,17,12.588085,56.012938
294199,Platanhaven,3070,18,12.587041,56.011835
294200,Platanhaven,3070,19,12.588184,56.012928
294201,Platanhaven,3070,20,12.586836,56.011856
294202,Platanhaven,3070,21,12.588397,56.012905
294203,Platanhaven,3070,22,12.58664,56.011876
294204,Platanhaven,3070,23,12.588514,56.012894
294205,Platanhaven,3070,24,12.587284,56.011934
294206,Platanhaven,3070,25,12.588618,56.012884
294207,Platanhaven,3070,26,12.587426,56.01192
294208,Platanhaven,3070,27,12.588133,56.012733
294209,Platanhaven,3070,28,12.587504,56.012103
294210,Platanhaven,3070,29,12.588333,56.012713
294211,Platanhaven,3070,30,12.587647,56.012089
294212,Platanhaven,3070,31,12.588448,56.012702
294213,Platanhaven,3070,32,12.587472,56.012305
294214,Platanhaven,3070,33,12.587916,56.01256
294215,Platanhaven,3070,34,12.587589,56.012294
294216,Platanhaven,3070,35,12.588088,56.012545
294217,Platanhaven,3070,36,12.5877,56.012283
294218,Platanhaven,3070,37,12.588239,56.012531
294219,Platanhaven,3070,38,12.587815,56.012271
294220,Platanhaven,3070,40,12.587917,56.012261
294335,Poppelhaven,3070,1,12.576082,56.009265
294336,Poppelhaven,3070,2,12.575492,56.009237
294337,Poppelhaven,3070,3,12.57567,56.009072
294338,Poppelhaven,3070,4,12.575479,56.009307
294339,Poppelhaven,3070,5,12.575684,56.008996
294340,Poppelhaven,3070,6,12.575466,56.009377
294341,Poppelhaven,3070,7,12.575697,56.008929
294342,Poppelhaven,3070,8,12.575243,56.009371
294343,Poppelhaven,3070,9,12.575711,56.008858
294344,Poppelhaven,3070,10,12.575259,56.009293
294345,Poppelhaven,3070,11,12.57549,56.008841
294346,Poppelhaven,3070,12,12.575272,56.009224
294347,Poppelhaven,3070,13,12.575475,56.008916
294348,Poppelhaven,3070,14,12.574744,56.009192
294349,Poppelhaven,3070,15,12.575461,56.008988
294350,Poppelhaven,3070,16,12.574731,56.009261
294351,Poppelhaven,3070,17,12.575447,56.009059
294352,Poppelhaven,3070,18,12.574716,56.009338
294353,Poppelhaven,3070,19,12.57492,56.00903
294354,Poppelhaven,3070,20,12.574494,56.009326
294355,Poppelhaven,3070,21,12.574934,56.008957
294356,Poppelhaven,3070,22,12.574508,56.009247
294357,Poppelhaven,3070,23,12.574948,56.008883
294358,Poppelhaven,3070,24,12.574521,56.00918
294359,Poppelhaven,3070,25,12.574726,56.008872
294360,Poppelhaven,3070,26,12.573982,56.009217
294361,Poppelhaven,3070,27,12.574713,56.008941
294362,Poppelhaven,3070,28,12.573969,56.009285
294363,Poppelhaven,3070,29,12.574699,56.009011
294364,Poppelhaven,3070,30,12.573747,56.009272
294365,Poppelhaven,3070,31,12.57416,56.009048
294366,Poppelhaven,3070,32,12.573761,56.009197
294367,Poppelhaven,3070,33,12.574174,56.008976
294368,Poppelhaven,3070,35,12.573952,56.008958
294369,Poppelhaven,3070,37,12.573938,56.009031
294370,Poppelhaven,3070,39,12.573233,56.009097
294371,Poppelhaven,3070,41,12.573246,56.009024
294372,Poppelhaven,3070,43,12.573026,56.009007
294373,Poppelhaven,3070,45,12.573011,56.009083
294374,Poppelvej,3070,1A,12.590923,56.014328
294375,Poppelvej,3070,1B,12.59125,56.01442
294376,Poppelvej,3070,2,12.590201,56.01408
294377,Poppelvej,3070,3,12.591715,56.014341
294378,Poppelvej,3070,4,12.590784,56.014092
294379,Poppelvej,3070,5,12.591856,56.014194
294380,Poppelvej,3070,6,12.591231,56.014055
294381,Poppelvej,3070,8,12.591276,56.013712
294382,Poppelvej,3070,10,12.591535,56.01399
294780,Roret,3070,1,12.569602,56.01253
294781,Roret,3070,3,12.569626,56.012444
294782,Roret,3070,5,12.569651,56.01236
294783,Roret,3070,7,12.569673,56.012271
294784,Roret,3070,9,12.569741,56.012115
294785,Roret,3070,11,12.56977,56.012029
294786,Roret,3070,13,12.569789,56.011948
294787,Roret,3070,15,12.569863,56.011791
294788,Roret,3070,17,12.569881,56.011706
294789,Roret,3070,19,12.569906,56.011619
294790,Roret,3070,21,12.569928,56.011529
294791,Roret,3070,23,12.569953,56.011444
294792,Roret,3070,25,12.570674,56.011618
294793,Roret,3070,27,12.570619,56.011675
294794,Roret,3070,29,12.570594,56.011722
294795,Roret,3070,31,12.570593,56.011774
294796,Roret,3070,33,12.570473,56.011864
294797,Roret,3070,35,12.570478,56.011906
294798,Roret,3070,37,12.570449,56.011952
294799,Roret,3070,39,12.570416,56.012009
294800,Roret,3070,41,12.570337,56.012091
294801,Roret,3070,43,12.570312,56.012134
294802,Roret,3070,45,12.570287,56.01218
294803,Roret,3070,47,12.570257,56.012228
294804,Roret,3070,49,12.570228,56.012273
294805,Roret,3070,51,12.570206,56.012316
294806,Roret,3070,53,12.570179,56.012358
294807,Roret,3070,55,12.570154,56.012405
294808,Roret,3070,57,12.570076,56.012483
294809,Roret,3070,59,12.570052,56.012527
294810,Roret,3070,61,12.570026,56.012568
294811,Roret,3070,63,12.570004,56.01261
294812,Roret,3070,65,12.569977,56.012654
294813,Roret,3070,67,12.569922,56.012746
294814,Roret,3070,69,12.569949,56.012698
294815,Roret,3070,71,12.569895,56.012794
294816,Roret,3070,73,12.569847,56.012938
294817,Roret,3070,75,12.569996,56.013306
294818,Roret,3070,77,12.570057,56.013256
294819,Roret,3070,79,12.57012,56.013201
294820,Roret,3070,81,12.570186,56.01315
294821,Roret,3070,83,12.570294,56.013065
294822,Roret,3070,85,12.570342,56.013024
294823,Roret,3070,87,12.57039,56.012977
294824,Roret,3070,89,12.57044,56.012935
294825,Roret,3070,91,12.57049,56.012891
294826,Roret,3070,93,12.570544,56.012848
294827,Roret,3070,95,12.570601,56.012799
294828,Roret,3070,97,12.570657,56.012757
294829,Roret,3070,99,12.570809,56.012672
294830,Roret,3070,101,12.57086,56.012631
294831,Roret,3070,103,12.570917,56.01258
294832,Roret,3070,105,12.570973,56.012528
294833,Roret,3070,107,12.571031,56.012477
294834,Roret,3070,109,12.571088,56.01243
294835,Roret,3070,111,12.571137,56.01239
294836,Roret,3070,113,12.571177,56.012356
294837,Roret,3070,115,12.571291,56.012261
294838,Roret,3070,117,12.571338,56.012221
294839,Roret,3070,119,12.571384,56.012181
294840,Roret,3070,121,12.571431,56.012144
294841,Roret,3070,123,12.571486,56.012098
294842,Roret,3070,125,12.571543,56.012047
294843,Roret,3070,127,12.571594,56.012001
294844,Roret,3070,129,12.571658,56.011952
294845,Roret,3070,131,12.572306,56.012324
294846,Roret,3070,133,12.572242,56.012374
294847,Roret,3070,135,12.572168,56.012418
294848,Roret,3070,137,12.572097,56.012466
294849,Roret,3070,139,12.571912,56.01255
294850,Roret,3070,141,12.571844,56.012587
294851,Roret,3070,143,12.571785,56.012625
294852,Roret,3070,145,12.571711,56.01267
294853,Roret,3070,147,12.571602,56.012715
294854,Roret,3070,149,12.57158,56.012755
294855,Roret,3070,151,12.571515,56.012794
294856,Roret,3070,153,12.571458,56.012831
294857,Roret,3070,155,12.571299,56.012909
294858,Roret,3070,157,12.571232,56.01295
294859,Roret,3070,159,12.571165,56.012993
294860,Roret,3070,161,12.571099,56.013034
294861,Roret,3070,163,12.571035,56.013073
294862,Roret,3070,165,12.570965,56.013115
294863,Roret,3070,167,12.570899,56.013157
294864,Roret,3070,169,12.570841,56.013197
294865,Roret,3070,171,12.570682,56.013262
294866,Roret,3070,173,12.570618,56.013299
294867,Roret,3070,175,12.570545,56.013342
294868,Roret,3070,177,12.570477,56.013382
294869,Roret,3070,179,12.570367,56.013422
294870,Roret,3070,181,12.570342,56.013465
294871,Roret,3070,183,12.570279,56.013508
294872,Roret,3070,185,12.57022,56.013555
294873,Rosenbakken,3070,3,12.592662,56.01486
294874,Rosenbakken,3070,4,12.593044,56.014739
294875,Rosenbakken,3070,5,12.592688,56.015236
294876,Rosenbakken,3070,6,12.593281,56.015032
294877,Rosenbakken,3070,7,12.593247,56.015192
295310,Rønnebærhaven,3070,1,12.588455,56.014367
295311,Rønnebærhaven,3070,2,12.588292,56.013788
295312,Rønnebærhaven,3070,3,12.588325,56.01438
295313,Rønnebærhaven,3070,4,12.588162,56.013801
295314,Rønnebærhaven,3070,5,12.588594,56.014545
295315,Rønnebærhaven,3070,6,12.588195,56.013606
295316,Rønnebærhaven,3070,7,12.588458,56.014559
295317,Rønnebærhaven,3070,8,12.58806,56.01362
295318,Rønnebærhaven,3070,9,12.588733,56.01473
295319,Rønnebærhaven,3070,10,12.588107,56.013422
295320,Rønnebærhaven,3070,11,12.588621,56.014741
295321,Rønnebærhaven,3070,12,12.587949,56.013439
295322,Rønnebærhaven,3070,13,12.588503,56.014753
295323,Rønnebærhaven,3070,14,12.588016,56.013244
295324,Rønnebærhaven,3070,15,12.58891,56.014673
295325,Rønnebærhaven,3070,16,12.587789,56.013267
295326,Rønnebærhaven,3070,17,12.589034,56.01466
295327,Rønnebærhaven,3070,18,12.588334,56.013298
295328,Rønnebærhaven,3070,19,12.589152,56.014648
295329,Rønnebærhaven,3070,20,12.588474,56.013284
295330,Rønnebærhaven,3070,21,12.588859,56.014479
295331,Rønnebærhaven,3070,22,12.588592,56.013272
295332,Rønnebærhaven,3070,23,12.589083,56.014456
295333,Rønnebærhaven,3070,24,12.588735,56.013258
295334,Rønnebærhaven,3070,25,12.588905,56.014289
295335,Rønnebærhaven,3070,26,12.588625,56.013451
295336,Rønnebærhaven,3070,27,12.589047,56.014274
295337,Rønnebærhaven,3070,28,12.588857,56.013432
295338,Rønnebærhaven,3070,29,12.588562,56.014131
295339,Rønnebærhaven,3070,30,12.588556,56.01365
295340,Rønnebærhaven,3070,31,12.588775,56.014109
295341,Rønnebærhaven,3070,32,12.588679,56.013637
295342,Rønnebærhaven,3070,33,12.588982,56.014088
295343,Rønnebærhaven,3070,34,12.588862,56.013619
295344,Rønnebærhaven,3070,36,12.588574,56.013847
295345,Rønnebærhaven,3070,38,12.588686,56.013836
295346,Rønnebærhaven,3070,40,12.58881,56.013823
295347,Rønnebærhaven,3070,42,12.588912,56.013813
295366,Rønnevænget,3070,3,12.565987,56.010055
295367,Rønnevænget,3070,4,12.565923,56.010404
295368,Rønnevænget,3070,5,12.565659,56.010042
295369,Rønnevænget,3070,7,12.565318,56.010001
295370,Rønnevænget,3070,9,12.564957,56.009989
295371,Rønnevænget,3070,10,12.564776,56.010281
295372,Rønnevænget,3070,11,12.564592,56.009966
295373,Rønnevænget,3070,12,12.564434,56.010261
295374,Rønnevænget,3070,13,12.564298,56.009952
295375,Rønnevænget,3070,14,12.564041,56.010297
295376,Rønnevænget,3070,15,12.563919,56.009938
295377,Rønnevænget,3070,16,12.563814,56.010134
295378,Rønnevænget,3070,17,12.563637,56.009917
295379,Rønnevænget,3070,18,12.563457,56.010186
295380,Rønnevænget,3070,19,12.563227,56.009892
295381,Rønnevænget,3070,20,12.563138,56.010159
295382,Rønnevænget,3070,21,12.56287,56.00988
295383,Rønnevænget,3070,23,12.562519,56.009858
295384,Rønnevænget,3070,25,12.562158,56.009857
295462,Rørtangvej,3070,1A,12.559231,56.011776
295463,Rørtangvej,3070,1B,12.559616,56.012038
295464,Rørtangvej,3070,2A,12.560789,56.012978
295465,Rørtangvej,3070,2B,12.560717,56.013304
295466,Rørtangvej,3070,2C,12.560141,56.012978
295467,Rørtangvej,3070,3A,12.557625,56.011955
295468,Rørtangvej,3070,3B,12.557801,56.011968
295469,Rørtangvej,3070,3C,12.557968,56.011978
295470,Rørtangvej,3070,3D,12.558133,56.011986
295471,Rørtangvej,3070,4,12.559365,56.012557
295472,Rørtangvej,3070,5,12.555811,56.012382
295473,Rørtangvej,3070,6,12.556099,56.012713
295474,Rørtangvej,3070,8,12.556101,56.012883
295476,Rørtangvej,3070,10,12.555951,56.013023
295477,Rørtangvej,3070,12,12.555465,56.013422
295478,Rørtangvej,3070,14,12.554904,56.01315
296307,Skellebækvej,3070,1,12.590931,56.013683
296308,Skellebækvej,3070,2,12.590392,56.013206
296309,Skellebækvej,3070,3,12.590703,56.013474
296310,Skellebækvej,3070,4,12.590612,56.012957
296311,Skellebækvej,3070,5,12.59129,56.013418
296312,Skellebækvej,3070,6,12.591,56.013144
296313,Skellebækvej,3070,8,12.590934,56.012951
296314,Skibsegen,3070,10,12.561986,56.016342
296315,Skibsegen,3070,11,12.562042,56.015917
296316,Skibsegen,3070,12,12.561838,56.016167
296317,Skibsegen,3070,13,12.561854,56.015762
296318,Skibsegen,3070,14,12.561567,56.016283
296319,Skibsegen,3070,15,12.561679,56.015613
296320,Skibsegen,3070,16,12.561363,56.016445
296321,Skibsegen,3070,17,12.561455,56.015471
296322,Skibsegen,3070,18,12.561655,56.016542
296323,Skibsegen,3070,19,12.56124,56.015328
296324,Skibsegen,3070,20,12.562009,56.016533
296325,Skibsegen,3070,21,12.561653,56.015113
296326,Skibsegen,3070,22,12.561458,56.016705
296327,Skibsegen,3070,23,12.561936,56.015218
296328,Skibsegen,3070,24,12.561205,56.016616
296329,Skibsegen,3070,25,12.562205,56.015346
296330,Skibsegen,3070,26,12.560954,56.016524
296331,Skibsegen,3070,27,12.562286,56.015501
296332,Skibsegen,3070,28,12.560694,56.016429
296333,Skibsegen,3070,29,12.562383,56.015657
296334,Skibsegen,3070,30,12.56039,56.016349
296335,Skibsegen,3070,31,12.562468,56.015814
296336,Skibsegen,3070,32,12.560308,56.01619
296337,Skibsegen,3070,33,12.562343,56.016045
296338,Skibsegen,3070,34,12.560226,56.01603
296339,Skibsegen,3070,35,12.562456,56.016194
296340,Skibsegen,3070,36,12.560142,56.015872
296341,Skibsegen,3070,37,12.562551,56.016306
296342,Skibsegen,3070,38,12.560078,56.015715
296343,Skibsegen,3070,40,12.560316,56.015655
296344,Skibsegen,3070,42,12.560713,56.015778
296345,Skibsegen,3070,44,12.560691,56.015969
296346,Skibsegen,3070,46,12.560708,56.016138
296347,Skibsegen,3070,48,12.561003,56.016267
296348,Skibsegen,3070,50,12.561211,56.016155
296349,Skibsegen,3070,52,12.561313,56.016025
296350,Skibsegen,3070,54,12.561507,56.015911
296351,Skibsegen,3070,56,12.561262,56.015774
296352,Skibsegen,3070,58,12.561031,56.01564
296353,Skibsegen,3070,60,12.560779,56.015524
296354,Skibsegen,3070,62,12.559851,56.015205
296355,Skibsegen,3070,64,12.559599,56.015139
296356,Skibsegen,3070,66,12.559319,56.015067
296357,Skibsegen,3070,68,12.558987,56.015032
296358,Skibsegen,3070,70,12.55871,56.014976
296359,Skibsegen,3070,71,12.559974,56.015032
296360,Skibsegen,3070,72,12.558464,56.014909
296361,Skibsegen,3070,73,12.560121,56.014916
296362,Skibsegen,3070,74,12.558455,56.014774
296363,Skibsegen,3070,75,12.560285,56.014802
296364,Skibsegen,3070,76,12.558635,56.014643
296365,Skibsegen,3070,77,12.560442,56.014686
296366,Skibsegen,3070,78,12.558968,56.014713
296367,Skibsegen,3070,79,12.560539,56.014524
296368,Skibsegen,3070,80,12.558984,56.014231
296369,Skibsegen,3070,81,12.559805,56.01476
296370,Skibsegen,3070,82,12.558709,56.014156
296371,Skibsegen,3070,83,12.559921,56.014609
296372,Skibsegen,3070,84,12.558477,56.014069
296373,Skibsegen,3070,85,12.559928,56.014462
296374,Skibsegen,3070,86,12.558299,56.013965
296375,Skibsegen,3070,87,12.559878,56.014271
296376,Skibsegen,3070,88,12.558139,56.013862
296377,Skibsegen,3070,89,12.560529,56.014378
296378,Skibsegen,3070,90,12.558044,56.013719
296379,Skibsegen,3070,91,12.560325,56.014196
296380,Skibsegen,3070,92,12.557933,56.013569
296381,Skibsegen,3070,93,12.560076,56.014082
296382,Skibsegen,3070,94,12.558001,56.013405
296383,Skibsegen,3070,95,12.559842,56.013968
296384,Skibsegen,3070,96,12.558072,56.013257
296385,Skibsegen,3070,97,12.559619,56.01494
296386,Skibsegen,3070,98,12.558247,56.013084
296387,Skibsegen,3070,99,12.559332,56.014858
296388,Skibsegen,3070,100,12.558508,56.012972
296389,Skibsegen,3070,101,12.559446,56.014549
296390,Skibsegen,3070,102,12.558367,56.01331
296391,Skibsegen,3070,103,12.559379,56.014212
296392,Skibsegen,3070,104,12.5583,56.013581
296393,Skibsegen,3070,105,12.559257,56.014038
296394,Skibsegen,3070,106,12.558506,56.013787
296395,Skibsegen,3070,107,12.559237,56.013832
296396,Skibsegen,3070,108,12.558865,56.013951
296397,Skibsegen,3070,110,12.558877,56.0136
296478,Skovbakkevej,3070,1,12.59488,56.012496
296479,Skovbakkevej,3070,2,12.595214,56.012628
296480,Skovbakkevej,3070,3,12.594405,56.012175
296671,Smakkevej,3070,1,12.585166,56.011919
296672,Smakkevej,3070,2,12.584535,56.012704
296673,Smakkevej,3070,3A,12.583753,56.011738
296674,Smakkevej,3070,3B,12.583857,56.011343
297002,Sortevej,3070,1A,12.582237,56.008136
297003,Sortevej,3070,1B,12.58196,56.007988
297004,Sortevej,3070,2,12.581843,56.008213
297005,Sortevej,3070,3,12.581724,56.007862
297006,Sortevej,3070,4,12.581686,56.008132
297007,Sortevej,3070,6,12.581541,56.008098
297050,Sprydet,3070,1,12.573842,56.013477
297051,Sprydet,3070,3,12.573536,56.013124
297052,Sprydet,3070,5,12.573634,56.013066
297053,Sprydet,3070,7,12.573734,56.013123
297054,Sprydet,3070,9,12.573827,56.013065
297055,Sprydet,3070,11,12.573973,56.013188
297056,Sprydet,3070,13,12.574071,56.013128
297057,Sprydet,3070,15,12.574164,56.013186
297058,Sprydet,3070,17,12.574276,56.013126
297059,Sprydet,3070,19,12.574356,56.013185
297060,Sprydet,3070,21,12.574512,56.013189
297061,Sprydet,3070,23,12.574594,56.013248
297062,Sprydet,3070,25,12.574705,56.013188
297063,Sprydet,3070,27,12.574791,56.013246
297064,Sprydet,3070,29,12.574898,56.013186
297065,Sprydet,3070,31,12.574982,56.013245
297066,Sprydet,3070,33,12.575084,56.013185
297067,Sprydet,3070,37,12.573542,56.012674
297068,Sprydet,3070,39,12.573633,56.012732
297069,Sprydet,3070,41,12.573728,56.012672
297070,Sprydet,3070,43,12.573837,56.01273
297071,Sprydet,3070,45,12.573938,56.012671
297072,Sprydet,3070,47,12.574093,56.012793
297073,Sprydet,3070,49,12.574179,56.012735
297074,Sprydet,3070,51,12.574245,56.012792
297075,Sprydet,3070,53,12.574361,56.012733
297076,Sprydet,3070,55,12.574446,56.01279
297077,Sprydet,3070,57,12.57462,56.012796
297078,Sprydet,3070,59,12.574701,56.012855
297079,Sprydet,3070,61,12.574804,56.012794
297080,Sprydet,3070,63,12.574898,56.012853
297081,Sprydet,3070,65,12.575006,56.012793
297082,Sprydet,3070,67,12.575083,56.012851
297083,Sprydet,3070,69,12.575073,56.012449
297084,Sprydet,3070,71,12.574981,56.012392
297085,Sprydet,3070,73,12.574885,56.012451
297086,Sprydet,3070,75,12.574733,56.01233
297087,Sprydet,3070,77,12.574635,56.012387
297088,Sprydet,3070,79,12.574514,56.012332
297089,Sprydet,3070,81,12.574431,56.012389
297090,Sprydet,3070,83,12.574345,56.012333
297091,Sprydet,3070,85,12.57419,56.012326
297092,Sprydet,3070,87,12.574096,56.012267
297093,Sprydet,3070,89,12.573992,56.012328
297094,Sprydet,3070,91,12.573874,56.012269
297095,Sprydet,3070,93,12.573802,56.01233
297096,Sprydet,3070,95,12.573688,56.012271
297097,Sprydet,3070,97,12.573614,56.012331
297098,Sprydet,3070,99,12.573528,56.012272
297153,Staget,3070,2,12.579441,56.01246
297154,Staget,3070,4,12.579355,56.012528
297155,Staget,3070,6,12.579279,56.01246
297156,Staget,3070,8,12.579082,56.012585
297157,Staget,3070,10,12.57902,56.012515
297158,Staget,3070,12,12.578927,56.012586
297159,Staget,3070,14,12.578853,56.012516
297160,Staget,3070,16,12.578655,56.012677
297161,Staget,3070,18,12.578572,56.012608
297162,Staget,3070,20,12.57848,56.012679
297163,Staget,3070,22,12.578404,56.01261
297164,Staget,3070,24,12.578302,56.01268
297165,Staget,3070,26,12.578212,56.012612
297166,Staget,3070,28,12.578193,56.012285
297167,Staget,3070,30,12.578265,56.012215
297168,Staget,3070,32,12.578355,56.012284
297169,Staget,3070,34,12.578522,56.012124
297170,Staget,3070,38,12.578681,56.012122
297171,Staget,3070,40,12.578769,56.012191
297172,Staget,3070,42,12.578857,56.012121
297173,Staget,3070,44,12.579074,56.012135
297174,Staget,3070,46,12.579153,56.012064
297175,Staget,3070,48,12.579234,56.012133
297176,Staget,3070,50,12.579314,56.012063
297177,Staget,3070,52,12.579404,56.012132
297623,Stolbjergvej,3070,1,12.589017,56.011288
297624,Stolbjergvej,3070,2,12.58936,56.011353
297625,Stolbjergvej,3070,3,12.589034,56.011656
297626,Stolbjergvej,3070,4A,12.589375,56.011511
297627,Stolbjergvej,3070,4B,12.589393,56.011664
297628,Stolbjergvej,3070,5A,12.589067,56.011819
297629,Stolbjergvej,3070,5B,12.58902,56.01203
297630,Stolbjergvej,3070,6,12.589736,56.011679
297631,Stolbjergvej,3070,7A,12.588926,56.012273
297632,Stolbjergvej,3070,7B,12.589092,56.012413
297633,Stolbjergvej,3070,8A,12.589504,56.011988
297634,Stolbjergvej,3070,8B,12.5898,56.011973
297635,Stolbjergvej,3070,10,12.58974,56.012125
297636,Stolbjergvej,3070,11,12.589406,56.012929
297637,Stolbjergvej,3070,12,12.589812,56.012252
297638,Stolbjergvej,3070,13,12.589423,56.01308
297639,Stolbjergvej,3070,14,12.590201,56.012775
297640,Stolbjergvej,3070,15,12.589269,56.013313
297641,Stolbjergvej,3070,16,12.589755,56.012773
297642,Stolbjergvej,3070,17,12.589459,56.013454
297643,Stolbjergvej,3070,18,12.58986,56.012957
297644,Stolbjergvej,3070,19,12.589626,56.013615
297645,Stolbjergvej,3070,20,12.589889,56.013204
297646,Stolbjergvej,3070,21,12.58949,56.013884
297647,Stolbjergvej,3070,22,12.589996,56.013496
297648,Stolbjergvej,3070,23A,12.589652,56.014027
297649,Stolbjergvej,3070,23B,12.589778,56.014215
297650,Stolbjergvej,3070,24,12.590183,56.013691
297651,Stolbjergvej,3070,25A,12.589823,56.01439
297652,Stolbjergvej,3070,25B,12.589792,56.014481
297653,Stolbjergvej,3070,26A,12.590413,56.013822
297654,Stolbjergvej,3070,26B,12.590234,56.014379
297655,Stolbjergvej,3070,26C,12.590436,56.014526
297656,Stolbjergvej,3070,27,12.589916,56.014674
297657,Stolbjergvej,3070,28,12.590339,56.014748
297658,Stolbjergvej,3070,29,12.589955,56.014903
297680,Storsejlet,3070,1,12.573825,56.014834
297681,Storsejlet,3070,3,12.573684,56.014851
297682,Storsejlet,3070,4,12.574221,56.01499
297683,Storsejlet,3070,5,12.573535,56.014875
297684,Storsejlet,3070,6,12.574365,56.014966
297685,Storsejlet,3070,7,12.573392,56.014898
297686,Storsejlet,3070,8,12.574507,56.014942
297687,Storsejlet,3070,9,12.573239,56.014922
297688,Storsejlet,3070,10,12.574655,56.014917
297689,Storsejlet,3070,11,12.573137,56.014935
297690,Storsejlet,3070,12,12.574811,56.014892
297691,Storsejlet,3070,13,12.573059,56.014965
297692,Storsejlet,3070,14,12.574906,56.014886
297693,Storsejlet,3070,15,12.572971,56.014957
297694,Storsejlet,3070,16,12.57497,56.01486
297695,Storsejlet,3070,17,12.572904,56.014983
297696,Storsejlet,3070,18,12.575047,56.014865
297697,Storsejlet,3070,19,12.572822,56.014984
297698,Storsejlet,3070,20,12.575113,56.014836
297699,Storsejlet,3070,21,12.572746,56.015016
297700,Storsejlet,3070,22,12.575198,56.014839
297701,Storsejlet,3070,23,12.573183,56.015148
297702,Storsejlet,3070,24,12.574967,56.015093
297703,Storsejlet,3070,25,12.573111,56.015185
297704,Storsejlet,3070,26,12.575047,56.015096
297705,Storsejlet,3070,27,12.573018,56.015182
297706,Storsejlet,3070,28,12.575111,56.015066
297707,Storsejlet,3070,29,12.572959,56.015207
297708,Storsejlet,3070,30,12.575187,56.015071
297709,Storsejlet,3070,31,12.572885,56.015193
297710,Storsejlet,3070,32,12.575259,56.015041
297711,Storsejlet,3070,33,12.572827,56.015225
297712,Storsejlet,3070,34,12.57534,56.015046
297713,Storsejlet,3070,35,12.572741,56.015217
297714,Storsejlet,3070,36,12.5754,56.015017
297715,Storsejlet,3070,37,12.572686,56.015252
297716,Storsejlet,3070,38,12.574478,56.015392
297717,Storsejlet,3070,39,12.572597,56.015244
297718,Storsejlet,3070,40,12.574639,56.015368
297719,Storsejlet,3070,41,12.572519,56.015279
297720,Storsejlet,3070,42,12.574513,56.015379
297721,Storsejlet,3070,43,12.574035,56.015244
297722,Storsejlet,3070,44,12.574778,56.015344
297723,Storsejlet,3070,45,12.573891,56.015267
297724,Storsejlet,3070,46,12.574918,56.01532
297725,Storsejlet,3070,47,12.57375,56.015289
297726,Storsejlet,3070,48,12.575029,56.015299
297727,Storsejlet,3070,49,12.573613,56.015311
297728,Storsejlet,3070,50,12.575105,56.01531
297729,Storsejlet,3070,51,12.573457,56.015336
297730,Storsejlet,3070,52,12.575183,56.015277
297731,Storsejlet,3070,53,12.573322,56.015353
297732,Storsejlet,3070,54,12.575263,56.015286
297733,Storsejlet,3070,55,12.573269,56.015384
297734,Storsejlet,3070,56,12.575336,56.015249
297735,Storsejlet,3070,57,12.573174,56.015374
297736,Storsejlet,3070,58,12.575413,56.015259
297737,Storsejlet,3070,59,12.573104,56.015409
297738,Storsejlet,3070,60,12.57518,56.015526
297739,Storsejlet,3070,61,12.573002,56.015398
297740,Storsejlet,3070,62,12.575231,56.01549
297741,Storsejlet,3070,63,12.572959,56.015428
297742,Storsejlet,3070,64,12.575313,56.015506
297743,Storsejlet,3070,65,12.572877,56.015421
297744,Storsejlet,3070,66,12.575383,56.015469
297745,Storsejlet,3070,67,12.572816,56.015453
297746,Storsejlet,3070,68,12.57547,56.015478
297747,Storsejlet,3070,69,12.572719,56.015446
297748,Storsejlet,3070,70,12.57552,56.015441
297749,Storsejlet,3070,71,12.572652,56.01548
297750,Storsejlet,3070,72,12.575583,56.01546
297751,Storsejlet,3070,73,12.573384,56.015568
297752,Storsejlet,3070,74,12.575615,56.015422
297753,Storsejlet,3070,75,12.573333,56.015597
297754,Storsejlet,3070,77,12.573244,56.015589
297755,Storsejlet,3070,79,12.57319,56.015615
297756,Storsejlet,3070,81,12.573099,56.015608
297757,Storsejlet,3070,83,12.573037,56.015643
297758,Storsejlet,3070,85,12.574251,56.015656
297759,Storsejlet,3070,87,12.574101,56.01568
297760,Storsejlet,3070,89,12.573974,56.015701
297761,Storsejlet,3070,91,12.573812,56.015726
297762,Storsejlet,3070,93,12.573688,56.015741
297763,Storsejlet,3070,95,12.573619,56.015772
297764,Storsejlet,3070,97,12.573524,56.015766
297765,Storsejlet,3070,99,12.573468,56.015798
297766,Storsejlet,3070,101,12.573376,56.015793
297767,Storsejlet,3070,103,12.573327,56.015827
297768,Storsejlet,3070,105,12.573846,56.015934
297769,Storsejlet,3070,107,12.573789,56.015975
297770,Storsejlet,3070,109,12.573673,56.015977
297771,Storsejlet,3070,111,12.573547,56.015985
297772,Storsejlet,3070,113,12.573487,56.016019
298063,Strandvejen,3070,69,12.599224,56.015508
298064,Strandvejen,3070,71B,12.593526,56.010753
298065,Strandvejen,3070,71C,12.588674,56.008631
298066,Strandvejen,3070,71D,12.58748,56.008455
298067,Strandvejen,3070,71E,12.587226,56.008251
298068,Strandvejen,3070,71K,12.584991,56.007471
298069,Strandvejen,3070,73A,12.578659,56.005137
298070,Strandvejen,3070,73B,12.578576,56.005082
298071,Strandvejen,3070,75A,12.578345,56.005118
298072,Strandvejen,3070,75B,12.578414,56.004975
298073,Strandvejen,3070,77,12.578391,56.004867
298074,Strandvejen,3070,79,12.578024,56.004921
298075,Strandvejen,3070,81,12.578048,56.004704
298076,Strandvejen,3070,83,12.5777,56.004883
298077,Strandvejen,3070,85,12.577489,56.00473
298078,Strandvejen,3070,87,12.57719,56.004595
298079,Strandvejen,3070,89,12.577092,56.004439
298080,Strandvejen,3070,93A,12.573524,56.001756
298081,Strandvejen,3070,93B,12.573659,56.002021
298082,Strandvejen,3070,93C,12.5732,56.001818
298083,Strandvejen,3070,95A,12.572869,56.00155
298084,Strandvejen,3070,95B,12.572982,56.00127
298085,Strandvejen,3070,95C,12.572862,56.001146
298086,Strandvejen,3070,95D,12.572662,56.001475
298087,Strandvejen,3070,97A,12.572467,56.000933
298088,Strandvejen,3070,97B,12.572681,56.001047
298089,Strandvejen,3070,98B,12.598212,56.015126
298090,Strandvejen,3070,99A,12.57213,56.000819
298091,Strandvejen,3070,99B,12.571673,56.000649
298092,Strandvejen,3070,100B,12.597474,56.014869
298093,Strandvejen,3070,100C,12.597327,56.014681
298094,Strandvejen,3070,101A,12.571567,56.000433
298095,Strandvejen,3070,101B,12.571387,56.000311
298096,Strandvejen,3070,102,12.597383,56.014422
298097,Strandvejen,3070,103,12.571049,56.000277
298098,Strandvejen,3070,104,12.597068,56.014227
298099,Strandvejen,3070,105,12.570846,56.000117
298100,Strandvejen,3070,106,12.597046,56.013935
298101,Strandvejen,3070,108,12.596499,56.013932
298102,Strandvejen,3070,109,12.570486,56.0
298103,Strandvejen,3070,110A,12.596884,56.013682
298104,Strandvejen,3070,110B,12.596778,56.013582
298105,Strandvejen,3070,110C,12.596619,56.013509
298106,Strandvejen,3070,111,12.570839,55.999737
298107,Strandvejen,3070,112A,12.596604,56.013386
298108,Strandvejen,3070,112B,12.596211,56.013196
298109,Strandvejen,3070,112C,12.596069,56.013042
298110,Strandvejen,3070,113,12.570234,55.99963
298111,Strandvejen,3070,114A,12.59608,56.012848
298112,Strandvejen,3070,114B,12.595498,56.012903
298113,Strandvejen,3070,115,12.569871,55.999583
298114,Strandvejen,3070,116A,12.595955,56.012673
298115,Strandvejen,3070,116B,12.59596,56.012556
298116,Strandvejen,3070,116C,12.595619,56.012514
298117,Strandvejen,3070,117,12.569735,55.999413
298118,Strandvejen,3070,118,12.595782,56.012363
298119,Strandvejen,3070,119A,12.569289,55.999187
298120,Strandvejen,3070,119B,12.569111,55.999021
298121,Strandvejen,3070,120,12.595455,56.012377
298122,Strandvejen,3070,122,12.595617,56.012241
298123,Strandvejen,3070,123,12.56836,55.998645
298124,Strandvejen,3070,124A,12.595355,56.012209
298125,Strandvejen,3070,124B,12.595311,56.012228
298126,Strandvejen,3070,125,12.568261,55.99851
298127,Strandvejen,3070,126,12.594935,56.012221
298128,Strandvejen,3070,127,12.568055,55.998385
298129,Strandvejen,3070,129,12.56774,55.99826
298130,Strandvejen,3070,130A,12.594886,56.011718
298131,Strandvejen,3070,130B,12.594496,56.011506
298132,Strandvejen,3070,130C,12.594178,56.011517
298133,Strandvejen,3070,130D,12.594044,56.011424
298134,Strandvejen,3070,130E,12.594051,56.011311
298135,Strandvejen,3070,130F,12.593954,56.011238
298136,Strandvejen,3070,131A,12.567572,55.998055
298137,Strandvejen,3070,131B,12.567213,55.99797
298138,Strandvejen,3070,131C,12.567109,55.997788
298139,Strandvejen,3070,132,12.593166,56.011238
298144,Strandvejen,3070,134A,12.592932,56.010993
298145,Strandvejen,3070,134B,12.592684,56.011191
298146,Strandvejen,3070,134C,12.592279,56.011101
298151,Strandvejen,3070,136,12.592753,56.010718
298153,Strandvejen,3070,138,12.592619,56.010651
298155,Strandvejen,3070,140,12.592409,56.010531
298159,Strandvejen,3070,142,12.592186,56.010419
298165,Strandvejen,3070,144,12.592079,56.010341
298168,Strandvejen,3070,146,12.591806,56.010368
298171,Strandvejen,3070,148,12.59176,56.010184
298173,Strandvejen,3070,150,12.591566,56.010103
298177,Strandvejen,3070,152,12.591133,56.010125
298179,Strandvejen,3070,154,12.591167,56.009947
298181,Strandvejen,3070,156A,12.590896,56.009902
298182,Strandvejen,3070,156B,12.590868,56.009927
298188,Strandvejen,3070,158A,12.590626,56.009821
298189,Strandvejen,3070,158B,12.590309,56.009924
298192,Strandvejen,3070,160,12.590339,56.009681
298194,Strandvejen,3070,162,12.589956,56.009697
298196,Strandvejen,3070,164,12.589951,56.009658
298198,Strandvejen,3070,166,12.589835,56.009569
298202,Strandvejen,3070,168,12.589488,56.009461
298207,Strandvejen,3070,172,12.589005,56.009348
298208,Strandvejen,3070,174A,12.588873,56.00917
298209,Strandvejen,3070,174B,12.588838,56.009196
298210,Strandvejen,3070,174C,12.588733,56.009268
298211,Strandvejen,3070,174D,12.5886,56.009353
298215,Strandvejen,3070,176A,12.588609,56.009216
298216,Strandvejen,3070,176B,12.588588,56.009237
298218,Strandvejen,3070,178,12.588327,56.009159
298219,Strandvejen,3070,180,12.588133,56.009092
298220,Strandvejen,3070,182,12.587822,56.008969
298221,Strandvejen,3070,184A,12.58752,56.008933
298222,Strandvejen,3070,184B,12.587538,56.00905
298223,Strandvejen,3070,184C,12.587393,56.008856
298224,Strandvejen,3070,186A,12.587274,56.008814
298225,Strandvejen,3070,186B,12.587075,56.008866
298226,Strandvejen,3070,186C,12.587035,56.008901
298227,Strandvejen,3070,188A,12.586975,56.008685
298228,Strandvejen,3070,190,12.586715,56.008587
298229,Strandvejen,3070,192,12.586606,56.008556
298230,Strandvejen,3070,194,12.58646,56.008501
298231,Strandvejen,3070,196,12.586157,56.008413
298232,Strandvejen,3070,198A,12.586319,56.008263
298233,Strandvejen,3070,198B,12.586108,56.008323
298234,Strandvejen,3070,198C,12.585796,56.008385
298235,Strandvejen,3070,198D,12.585693,56.008167
298236,Strandvejen,3070,198E,12.585369,56.008343
298237,Strandvejen,3070,198F,12.58484,56.008174
298238,Strandvejen,3070,200A,12.585172,56.007911
298239,Strandvejen,3070,200B,12.584832,56.007744
298240,Strandvejen,3070,202A,12.584463,56.007644
298241,Strandvejen,3070,202B,12.584403,56.007682
298242,Strandvejen,3070,204A,12.58359,56.007338
298243,Strandvejen,3070,204B,12.583429,56.007363
298244,Strandvejen,3070,204C,12.583605,56.007374
298245,Strandvejen,3070,204D,12.583451,56.007397
298246,Strandvejen,3070,206,12.583044,56.007197
298247,Strandvejen,3070,208,12.582202,56.006925
298248,Strandvejen,3070,210A,12.582223,56.006688
298249,Strandvejen,3070,210B,12.581964,56.006852
298250,Strandvejen,3070,212A,12.581784,56.006784
298251,Strandvejen,3070,214,12.581531,56.00669
298252,Strandvejen,3070,216,12.581251,56.006589
298253,Strandvejen,3070,218A,12.581039,56.006396
298254,Strandvejen,3070,218B,12.580692,56.006433
298255,Strandvejen,3070,220A,12.580576,56.006277
298256,Strandvejen,3070,220B,12.580465,56.006233
298257,Strandvejen,3070,222A,12.58031,56.006138
298258,Strandvejen,3070,222B,12.580124,56.006313
298259,Strandvejen,3070,224A,12.580212,56.006098
298260,Strandvejen,3070,224B,12.580156,56.006138
298261,Strandvejen,3070,226A,12.579756,56.006097
298262,Strandvejen,3070,226B,12.579887,56.006146
298263,Strandvejen,3070,226C,12.579945,56.006114
298264,Strandvejen,3070,228A,12.579706,56.005716
298265,Strandvejen,3070,228B,12.579605,56.005674
298266,Strandvejen,3070,230,12.57938,56.005594
298267,Strandvejen,3070,232A,12.579107,56.005477
298268,Strandvejen,3070,232B,12.578971,56.005437
298269,Strandvejen,3070,232C,12.578841,56.005402
298270,Strandvejen,3070,234A,12.578528,56.005457
298271,Strandvejen,3070,234B,12.57839,56.005386
298272,Strandvejen,3070,236A,12.578102,56.005362
298273,Strandvejen,3070,236B,12.577992,56.005311
298274,Strandvejen,3070,238,12.577748,56.005325
298275,Strandvejen,3070,240,12.577637,56.005279
298276,Strandvejen,3070,242,12.577571,56.005087
298277,Strandvejen,3070,244A,12.57743,56.005012
298278,Strandvejen,3070,244B,12.577312,56.00507
298279,Strandvejen,3070,244C,12.576865,56.004815
298280,Strandvejen,3070,244D,12.577068,56.004844
298281,Strandvejen,3070,244E,12.577066,56.004908
298282,Strandvejen,3070,246,12.576152,56.003999
298283,Strandvejen,3070,250,12.573559,56.002533
298284,Strandvejen,3070,256A,12.572786,56.002167
298285,Strandvejen,3070,258,12.572709,56.001871
298286,Strandvejen,3070,260A,12.572391,56.001779
298287,Strandvejen,3070,260B,12.572277,56.001661
298288,Strandvejen,3070,262A,12.572207,56.001506
298289,Strandvejen,3070,262B,12.571835,56.001401
298290,Strandvejen,3070,264A,12.571792,56.001232
298291,Strandvejen,3070,264B,12.571586,56.001111
298292,Strandvejen,3070,266A,12.571317,56.001024
298293,Strandvejen,3070,266B,12.571184,56.000868
298294,Strandvejen,3070,268A,12.570805,56.000716
298295,Strandvejen,3070,268B,12.570613,56.000634
298296,Strandvejen,3070,270A,12.570514,56.000529
298297,Strandvejen,3070,270B,12.570353,56.000364
298298,Strandvejen,3070,272A,12.57012,56.000224
298299,Strandvejen,3070,272B,12.569808,56.000171
298300,Strandvejen,3070,274A,12.569557,55.999863
298301,Strandvejen,3070,274B,12.569516,55.999887
298302,Strandvejen,3070,274C,12.56941,55.999769
298303,Strandvejen,3070,274D,12.569365,55.999791
298304,Strandvejen,3070,274E,12.569287,55.99987
298305,Strandvejen,3070,274F,12.569204,55.99978
298306,Strandvejen,3070,274G,12.569094,55.999721
298307,Strandvejen,3070,274H,12.568953,55.999611
298308,Strandvejen,3070,278,12.569143,55.999559
298309,Strandvejen,3070,280,12.568754,55.99959
298310,Strandvejen,3070,282,12.568748,55.999461
298311,Strandvejen,3070,284,12.568536,55.999293
298312,Strandvejen,3070,286,12.568262,55.999124
298313,Strandvejen,3070,288,12.568093,55.998939
298314,Strandvejen,3070,290,12.567973,55.998868
298315,Strandvejen,3070,292A,12.567737,55.998642
298316,Strandvejen,3070,292B,12.567698,55.998781
298317,Strandvejen,3070,294A,12.567387,55.998453
298318,Strandvejen,3070,294C,12.567302,55.998496
298319,Strandvejen,3070,296,12.567098,55.998297
298320,Strandvejen,3070,298,12.566701,55.998047
298321,Strandvejen,3070,300,12.566483,55.997886
298612,Stævnen,3070,1,12.575875,56.010067
298613,Stævnen,3070,2,12.576421,56.010074
298614,Stævnen,3070,3,12.575868,56.009954
298615,Stævnen,3070,4,12.576458,56.009982
298616,Stævnen,3070,5,12.5757618,56.0099532
298617,Stævnen,3070,6,12.576536,56.009981
298618,Stævnen,3070,7,12.575668,56.009958
298619,Stævnen,3070,8,12.5766518,56.0099964
298620,Stævnen,3070,9,12.575546,56.009955
298621,Stævnen,3070,10,12.576759,56.009995
298622,Stævnen,3070,11,12.575333,56.009938
298623,Stævnen,3070,12,12.576949,56.01001
298624,Stævnen,3070,13,12.575258,56.009938
298625,Stævnen,3070,14,12.577075,56.010009
298626,Stævnen,3070,15,12.5751403,56.0099252
298627,Stævnen,3070,16,12.577189,56.010008
298628,Stævnen,3070,17,12.575032,56.009926
298629,Stævnen,3070,18,12.57731,56.010035
298630,Stævnen,3070,19,12.57493,56.009941
298631,Stævnen,3070,20,12.577385,56.010023
298632,Stævnen,3070,21,12.574828,56.009926
298633,Stævnen,3070,22,12.577468,56.010022
298634,Stævnen,3070,23,12.574798,56.010076
298635,Stævnen,3070,24,12.577504,56.010127
298636,Stævnen,3070,25,12.574786,56.010196
298637,Stævnen,3070,26,12.577557,56.01025
298638,Stævnen,3070,27,12.574843,56.010294
298639,Stævnen,3070,28,12.577474,56.01032
298640,Stævnen,3070,29,12.57494,56.010284
298641,Stævnen,3070,30,12.577394,56.010314
298642,Stævnen,3070,31,12.575128,56.010178
298643,Stævnen,3070,32,12.577223,56.010307
298644,Stævnen,3070,33,12.575177,56.010306
298645,Stævnen,3070,34,12.57702,56.010301
298646,Stævnen,3070,35,12.575271,56.010299
298647,Stævnen,3070,36,12.576924,56.010236
298648,Stævnen,3070,37,12.575367,56.010208
298649,Stævnen,3070,38,12.576806,56.010236
298650,Stævnen,3070,39,12.5755916,56.0103207
298651,Stævnen,3070,40,12.576732,56.01031
298652,Stævnen,3070,41,12.575676,56.010323
298653,Stævnen,3070,42,12.57663,56.01031
298654,Stævnen,3070,43,12.57577,56.010206
298655,Stævnen,3070,44,12.576573,56.010254
298656,Stævnen,3070,45,12.575884,56.010319
298657,Stævnen,3070,46,12.576439,56.010307
298658,Stævnen,3070,47,12.576002,56.010319
298659,Stævnen,3070,48,12.576314,56.010203
298660,Stævnen,3070,49,12.576018,56.010255
298661,Stævnen,3070,50,12.576459,56.010721
298662,Stævnen,3070,51,12.575892,56.01073
298663,Stævnen,3070,52A,12.576483,56.010586
298664,Stævnen,3070,52B,12.576455,56.01062
298665,Stævnen,3070,53A,12.57583,56.010621
298666,Stævnen,3070,53B,12.575876,56.010589
298667,Stævnen,3070,54,12.576578,56.010627
298668,Stævnen,3070,55,12.575699,56.010646
298669,Stævnen,3070,56,12.576755,56.010638
298670,Stævnen,3070,57,12.575587,56.010647
298671,Stævnen,3070,58,12.576927,56.010592
298672,Stævnen,3070,59,12.575412,56.010483
298673,Stævnen,3070,60,12.577159,56.010571
298674,Stævnen,3070,61,12.575391,56.010585
298675,Stævnen,3070,62,12.57717,56.010467
298676,Stævnen,3070,63,12.575226,56.010617
298677,Stævnen,3070,64,12.577303,56.01062
298678,Stævnen,3070,65,12.57503,56.010588
298679,Stævnen,3070,66,12.57742,56.010619
298680,Stævnen,3070,67,12.574928,56.01059
298681,Stævnen,3070,68,12.577527,56.010619
298682,Stævnen,3070,69A,12.574816,56.010577
298683,Stævnen,3070,69B,12.574713,56.010575
298684,Stævnen,3070,70,12.577519,56.010747
298685,Stævnen,3070,71,12.5747,56.010722
298686,Stævnen,3070,72,12.577532,56.010936
298687,Stævnen,3070,73,12.57468,56.010832
298688,Stævnen,3070,74,12.577426,56.010938
298689,Stævnen,3070,75,12.574706,56.010925
298690,Stævnen,3070,76,12.577321,56.010936
298691,Stævnen,3070,77,12.574825,56.010926
298692,Stævnen,3070,78,12.577211,56.010937
298693,Stævnen,3070,79,12.574938,56.010941
298694,Stævnen,3070,80,12.577079,56.010813
298695,Stævnen,3070,81,12.575033,56.010825
298696,Stævnen,3070,82,12.577094,56.010924
298697,Stævnen,3070,83,12.575164,56.010939
298698,Stævnen,3070,84,12.576978,56.010924
298699,Stævnen,3070,85,12.575254,56.010937
298700,Stævnen,3070,86,12.576871,56.010925
298701,Stævnen,3070,87,12.575455,56.010822
298702,Stævnen,3070,88,12.576707,56.010927
298703,Stævnen,3070,89,12.57547,56.010935
298704,Stævnen,3070,90,12.576536,56.01092
298705,Stævnen,3070,91,12.575593,56.010937
298706,Stævnen,3070,92,12.576386,56.010919
298707,Stævnen,3070,93,12.575701,56.01084
298708,Stævnen,3070,94,12.576315,56.01087
298709,Stævnen,3070,95,12.575786,56.010932
298710,Stævnen,3070,96,12.576364,56.011336
298711,Stævnen,3070,97,12.575889,56.010932
298712,Stævnen,3070,98A,12.576327,56.011277
298713,Stævnen,3070,98B,12.576416,56.011228
298714,Stævnen,3070,99,12.5758,56.011345
298715,Stævnen,3070,100,12.576532,56.011243
298716,Stævnen,3070,101A,12.575704,56.011231
298717,Stævnen,3070,101B,12.575817,56.01123
298718,Stævnen,3070,102,12.576685,56.011243
298719,Stævnen,3070,103,12.575603,56.011261
298720,Stævnen,3070,104,12.576868,56.011206
298721,Stævnen,3070,105,12.575492,56.011262
298722,Stævnen,3070,106,12.577072,56.011158
298723,Stævnen,3070,107,12.575317,56.011097
298724,Stævnen,3070,108,12.577092,56.011084
298725,Stævnen,3070,109,12.575298,56.011201
298726,Stævnen,3070,110,12.577215,56.011252
298727,Stævnen,3070,111,12.575128,56.011233
298728,Stævnen,3070,112,12.57736,56.011254
298729,Stævnen,3070,113,12.574937,56.011223
298730,Stævnen,3070,114A,12.57746,56.011235
298731,Stævnen,3070,114B,12.577554,56.011237
298732,Stævnen,3070,115,12.574846,56.011221
298733,Stævnen,3070,116,12.577569,56.011307
298734,Stævnen,3070,117,12.574729,56.011223
298735,Stævnen,3070,118,12.577571,56.011472
298736,Stævnen,3070,119,12.574718,56.011369
298737,Stævnen,3070,120,12.577494,56.011534
298738,Stævnen,3070,121,12.574704,56.011459
298739,Stævnen,3070,122,12.57734,56.011544
298740,Stævnen,3070,123,12.5747,56.011557
298741,Stævnen,3070,124,12.577191,56.011537
298742,Stævnen,3070,125,12.574823,56.011556
298743,Stævnen,3070,126,12.577094,56.011427
298744,Stævnen,3070,127,12.574926,56.01157
298745,Stævnen,3070,128,12.57708,56.01154
298746,Stævnen,3070,129,12.575044,56.011572
298747,Stævnen,3070,130,12.576979,56.011548
298748,Stævnen,3070,131,12.575139,56.011572
298749,Stævnen,3070,132,12.576864,56.011501
298750,Stævnen,3070,133,12.575254,56.01157
298751,Stævnen,3070,134,12.576677,56.011447
298752,Stævnen,3070,135,12.575452,56.011566
298753,Stævnen,3070,136,12.576667,56.011546
298754,Stævnen,3070,137,12.575555,56.011566
298755,Stævnen,3070,138,12.576583,56.011546
298756,Stævnen,3070,139,12.575668,56.011564
298757,Stævnen,3070,140,12.576496,56.011548
298758,Stævnen,3070,141,12.5757773,56.011564
298759,Stævnen,3070,142,12.576368,56.011548
298760,Stævnen,3070,143,12.57591,56.011561
298761,Stævnen,3070,144,12.576236,56.011517
298762,Stævnen,3070,145,12.575912,56.011449
299742,Tjørnevej,3070,1,12.59408,56.013621
299743,Tjørnevej,3070,2,12.594589,56.013683
299744,Tjørnevej,3070,3,12.593808,56.013708
299745,Tjørnevej,3070,4,12.594074,56.013963
299746,Tjørnevej,3070,5,12.593404,56.01388
299747,Tjørnevej,3070,6,12.592996,56.014237
299748,Tjørnevej,3070,7,12.592965,56.013974
299749,Tjørnevej,3070,8,12.59255,56.014466
299750,Tjørnevej,3070,9A,12.592865,56.013734
299751,Tjørnevej,3070,9B,12.592594,56.01378
299752,Tjørnevej,3070,10,12.592179,56.014559
299753,Tjørnevej,3070,11,12.592597,56.014085
299754,Tjørnevej,3070,12,12.591929,56.014702
299755,Tjørnevej,3070,14,12.592012,56.015001
299756,Tjørnevej,3070,15,12.592043,56.013844
299757,Tjørnevej,3070,17,12.592208,56.014265
299758,Tjørnevej,3070,18,12.59154,56.014812
299759,Tjørnevej,3070,19,12.59132,56.014546
299760,Tjørnevej,3070,20,12.591154,56.01492
299761,Tjørnevej,3070,21,12.590946,56.014567
299762,Tjørnevej,3070,22,12.590764,56.014963
299763,Tjørnevej,3070,24,12.590429,56.015055
299764,Tjørnevej,3070,26,12.589946,56.015159
299765,Tjørnevej,3070,29,12.588678,56.01501
299869,Topsejlet,3070,1,12.576492,56.014624
299870,Topsejlet,3070,2,12.576812,56.014606
299871,Topsejlet,3070,3,12.576346,56.014647
299872,Topsejlet,3070,4,12.576856,56.014564
299873,Topsejlet,3070,5,12.5762,56.01467
299874,Topsejlet,3070,6,12.576973,56.014545
299875,Topsejlet,3070,7,12.576053,56.014694
299876,Topsejlet,3070,8,12.577133,56.014519
299877,Topsejlet,3070,9,12.575935,56.014711
299878,Topsejlet,3070,10,12.577282,56.014496
299879,Topsejlet,3070,11,12.575871,56.014737
299880,Topsejlet,3070,12,12.577417,56.014471
299881,Topsejlet,3070,13,12.575796,56.014728
299882,Topsejlet,3070,14,12.577532,56.014448
299883,Topsejlet,3070,15,12.575729,56.01476
299884,Topsejlet,3070,16,12.577609,56.01446
299885,Topsejlet,3070,17,12.575638,56.01475
299886,Topsejlet,3070,18,12.577695,56.01442
299887,Topsejlet,3070,19,12.575582,56.014794
299888,Topsejlet,3070,20,12.577768,56.014438
299889,Topsejlet,3070,21,12.576006,56.014912
299890,Topsejlet,3070,22,12.577531,56.014674
299891,Topsejlet,3070,23,12.575962,56.014945
299892,Topsejlet,3070,24,12.577602,56.014683
299893,Topsejlet,3070,25,12.575878,56.014937
299894,Topsejlet,3070,26,12.577652,56.014649
299895,Topsejlet,3070,27,12.575826,56.014969
299896,Topsejlet,3070,28,12.577725,56.014665
299897,Topsejlet,3070,29,12.575736,56.014955
299898,Topsejlet,3070,30,12.577789,56.01463
299899,Topsejlet,3070,31,12.575689,56.014993
299900,Topsejlet,3070,32,12.577871,56.014641
299901,Topsejlet,3070,33,12.575618,56.01498
299902,Topsejlet,3070,34,12.577922,56.014609
299903,Topsejlet,3070,35,12.575568,56.015013
299904,Topsejlet,3070,36,12.577991,56.014618
299905,Topsejlet,3070,37,12.576713,56.015037
299906,Topsejlet,3070,38,12.57702,56.015007
299907,Topsejlet,3070,39,12.576587,56.015057
299908,Topsejlet,3070,40,12.577071,56.014973
299909,Topsejlet,3070,41,12.576437,56.015081
299910,Topsejlet,3070,42,12.5772,56.014958
299911,Topsejlet,3070,43,12.576297,56.015103
299912,Topsejlet,3070,44,12.577338,56.01494
299913,Topsejlet,3070,45,12.576158,56.015122
299914,Topsejlet,3070,46,12.577493,56.014912
299915,Topsejlet,3070,47,12.576094,56.015151
299916,Topsejlet,3070,48,12.577638,56.014887
299917,Topsejlet,3070,49,12.575996,56.015145
299918,Topsejlet,3070,50,12.577744,56.014869
299919,Topsejlet,3070,51,12.575934,56.015178
299920,Topsejlet,3070,52,12.577826,56.014875
299921,Topsejlet,3070,53,12.57586,56.015162
299922,Topsejlet,3070,54,12.577899,56.014834
299923,Topsejlet,3070,55,12.575802,56.015202
299924,Topsejlet,3070,56,12.577983,56.014848
299925,Topsejlet,3070,57,12.576227,56.01533
299926,Topsejlet,3070,58,12.57776,56.015105
299927,Topsejlet,3070,59,12.576192,56.015362
299928,Topsejlet,3070,60,12.577814,56.015073
299929,Topsejlet,3070,61,12.576128,56.015345
299930,Topsejlet,3070,62,12.577888,56.01509
299931,Topsejlet,3070,63,12.576082,56.015378
299932,Topsejlet,3070,64,12.577947,56.015049
299933,Topsejlet,3070,65,12.575996,56.015363
299934,Topsejlet,3070,66,12.578036,56.015065
299935,Topsejlet,3070,67,12.575933,56.015401
299936,Topsejlet,3070,68,12.578083,56.015033
299937,Topsejlet,3070,69,12.575848,56.015389
299938,Topsejlet,3070,70,12.578144,56.015047
299939,Topsejlet,3070,71,12.57578,56.015427
299940,Topsejlet,3070,72,12.57819,56.015018
299941,Topsejlet,3070,74,12.577275,56.01539
299942,Topsejlet,3070,76,12.577229,56.015425
299943,Topsejlet,3070,78,12.577417,56.015377
299944,Topsejlet,3070,80,12.577562,56.01535
299945,Topsejlet,3070,82,12.577705,56.015326
299946,Topsejlet,3070,84,12.577849,56.015305
299947,Topsejlet,3070,86,12.577962,56.015301
299948,Topsejlet,3070,88,12.578015,56.015263
299949,Topsejlet,3070,90,12.578143,56.015242
299950,Topsejlet,3070,92,12.578105,56.015279
299951,Topsejlet,3070,94,12.578021,56.01549
299952,Topsejlet,3070,96,12.577969,56.015528
299953,Topsejlet,3070,98,12.578119,56.015502
299954,Topsejlet,3070,100,12.578184,56.015462
299955,Topsejlet,3070,102,12.578303,56.015442
299956,Topsejlet,3070,104,12.578264,56.015479
299957,Topsejlet,3070,106,12.578395,56.015428
299958,Topsejlet,3070,108,12.578381,56.015461
300380,Ved Skoven,3070,1,12.574323,56.005445
300381,Ved Skoven,3070,2,12.573925,56.005621
300382,Ved Skoven,3070,3,12.574045,56.005288
300383,Ved Skoven,3070,4A,12.57382,56.00542
300384,Ved Skoven,3070,4B,12.573668,56.005334
300385,Ved Skoven,3070,5,12.57388,56.005193
300386,Ved Skoven,3070,6,12.573086,56.005414
300387,Ved Skoven,3070,8,12.573332,56.005226
301100,Ørnholmvej,3070,3A,12.555505,56.019435
301101,Ørnholmvej,3070,3B,12.555124,56.019656
301102,Ørnholmvej,3070,4A,12.555244,56.023512
301103,Ørnholmvej,3070,7A,12.552023,56.019468
301104,Ørnholmvej,3070,7B,12.551813,56.019673
301105,Ørnholmvej,3070,8,12.55464,56.020554
301106,Ørnholmvej,3070,11,12.550593,56.02065
301107,Ørnholmvej,3070,13,12.551123,56.021018
301108,Ørnholmvej,3070,15A,12.549923,56.022147
301109,Ørnholmvej,3070,15B,12.548301,56.022073
301110,Ørnholmvej,3070,16,12.553696,56.020769
301111,Ørnholmvej,3070,17,12.549167,56.023473
301112,Ørnholmvej,3070,20,12.552876,56.020516
301113,Ørnholmvej,3070,24,12.551943,56.020999
301114,Ørnholmvej,3070,28,12.55088,56.021931
301115,Ørnholmvej,3070,32,12.550651,56.022148
301116,Ørnholmvej,3070,36,12.54998,56.022815
796237,Kongevejen,3070,248,12.555733,56.016765
837648,Skibsegen,3070,9A,12.563947,56.017101
837649,Skibsegen,3070,9B,12.564293,56.017159
837667,Fokken,3070,109,12.579514,56.015558
837668,Fokken,3070,111,12.579605,56.01575
837669,Roret,3070,187,12.570674,56.013646
837670,Roret,3070,189,12.570762,56.01362
837671,Roret,3070,191,12.570859,56.013593
837672,Roret,3070,193,12.570936,56.01357
837673,Roret,3070,195,12.571028,56.013544
837674,Roret,3070,197,12.571281,56.0135
837675,Roret,3070,199,12.571358,56.013478
837676,Roret,3070,201,12.571438,56.013456
837677,Roret,3070,203,12.57153,56.013429
837678,Roret,3070,205,12.571627,56.013402
837679,Roret,3070,207,12.571726,56.013375
837680,Roret,3070,209,12.572012,56.013336
837681,Roret,3070,211,12.572098,56.01331
837682,Roret,3070,213,12.572171,56.013286
837683,Roret,3070,215,12.572261,56.013261
837684,Roret,3070,217,12.572334,56.013241
837685,Roret,3070,219,12.572408,56.013221
837686,Roret,3070,221,12.572483,56.013199
837687,Roret,3070,223,12.572576,56.013172
837688,Roret,3070,225,12.572671,56.013143
837689,Roret,3070,227,12.572772,56.013114
837690,Roret,3070,229,12.571304,56.013872
837691,Roret,3070,231,12.571404,56.013851
837692,Roret,3070,233,12.571494,56.013834
837693,Roret,3070,235,12.571592,56.013813
837694,Roret,3070,237,12.57169,56.013795
837695,Roret,3070,239,12.571785,56.013774
837696,Roret,3070,241,12.571869,56.013757
837697,Roret,3070,243,12.571958,56.01374
837698,Roret,3070,245,12.57206,56.013721
837699,Roret,3070,247,12.572313,56.013689
837700,Roret,3070,249,12.572412,56.013669
837701,Roret,3070,251,12.572498,56.013652
837702,Roret,3070,253,12.572588,56.013633
837703,Roret,3070,255,12.572685,56.013614
837704,Roret,3070,257,12.572784,56.013595
837705,Roret,3070,259,12.572873,56.013577
837706,Roret,3070,261,12.572962,56.013561
837707,Staget,3070,3,12.580409,56.012896
837708,Staget,3070,36,12.578598,56.012192
837709,Strandvejen,3070,91A,12.574543,56.002377
837710,Strandvejen,3070,91B,12.57435,56.002578
837711,Strandvejen,3070,91C,12.574389,56.00222
837712,Strandvejen,3070,98C,12.598125,56.015214
837713,Strandvejen,3070,98D,12.598365,56.015443
837714,Strandvejen,3070,98E,12.598375,56.01571
837715,Strandvejen,3070,98F,12.598046,56.014883
837716,Strandvejen,3070,98G,12.597721,56.014982
837717,Strandvejen,3070,100D,12.597716,56.014619
837718,Strandvejen,3070,188B,12.586787,56.008811
837719,Strandvejen,3070,248,12.575697,56.00382
837720,Strandvejen,3070,276,12.569391,55.999616
837721,Strandvejen,3070,294,12.567332,55.998472
837724,G.A. Hagemanns Vej,3070,29A,12.575266,56.0070212
837725,G.A. Hagemanns Vej,3070,29B,12.5749233,56.0070082
837726,Løntoften,3070,3C,12.56811,56.009117
837727,Parallelvej,3070,4A,12.582313,56.007917
837728,Parallelvej,3070,4B,12.582155,56.007849
837729,Parallelvej,3070,23,12.577814,56.005906
981188,Stolbjergvej,3070,9A,12.588896,56.012647
981189,Stolbjergvej,3070,9B,12.589103,56.012709
981334,Nørrevej,3070,41B,12.59156,56.011543
981341,Nørrevej,3070,91,12.584156,56.010017
981716,Tjørnevej,3070,28,12.589458,56.015325
981718,Tjørnevej,3070,30,12.588888,56.015433
981759,Nørrevænget,3070,8A,12.592179,56.012747
981761,Nørrevænget,3070,8B,12.592357,56.012696
981885,Grønnegangen,3070,38,12.587896,56.00987
981886,Grønnegangen,3070,42,12.588182,56.009992
982117,Antonievej,3070,3,12.580924,56.007924
2107247,Rosenhaven,3070,2,12.586242,56.011174
2107251,Rosenhaven,3070,4,12.586333,56.011233
2107258,Rosenhaven,3070,6,12.586409,56.011288
2107261,Rosenhaven,3070,8,12.586505,56.011347
2107268,Rosenhaven,3070,10,12.586595,56.011408
2107271,Rosenhaven,3070,12,12.586692,56.011471
2107280,Rosenhaven,3070,14,12.587015,56.011619
2107286,Rosenhaven,3070,16,12.586905,56.011629
2107290,Rosenhaven,3070,18,12.58678,56.011641
2107296,Rosenhaven,3070,20,12.586646,56.011656
2107298,Rosenhaven,3070,22,12.586527,56.011667
2107302,Rosenhaven,3070,24,12.586401,56.011682
2224874,Strandvejen,3070,121A,12.568965,55.998835
2224875,Strandvejen,3070,121B,12.568444,55.998773
2224876,Strandvejen,3070,134D,12.592218,56.010874
2246618,Nørrevej,3070,68,12.587587,56.010746
2246632,Rørtangvej,3070,20,12.553774,56.015018
