idx,street,postcode,housenumber,lon,lat
322387,Borupvej,4140,11,11.8924039,55.5060668
322388,Borupvej,4140,18,11.8960415,55.5053976
322389,Borupvej,4140,23,11.8986662,55.5092312
322390,Borupvej,4140,25,11.8992242,55.5086869
322391,Borupvej,4140,29,11.898217,55.5081201
322392,Borupvej,4140,30,11.8963776,55.5040481
322393,Borupvej,4140,33,11.896618,55.5058642
322394,Borupvej,4140,35,11.8974234,55.5051835
322395,Borupvej,4140,37,11.9001559,55.5084934
322396,Borupvej,4140,40,11.8990557,55.5024477
322397,Borupvej,4140,46,11.9042543,55.497348
322398,Borupvej,4140,51,11.9066056,55.5024601
322399,Borupvej,4140,55,11.9080533,55.502063
322400,Borupvej,4140,58,11.909329,55.501257
322401,Borupvej,4140,60,11.9108967,55.5007954
322402,Borupvej,4140,63,11.9132726,55.5019957
322403,Borupvej,4140,63B,11.912479,55.502172
322404,Borupvej,4140,66,11.9143275,55.5003293
323149,Ejdamsvej,4140,7,11.9055594,55.4865788
323150,Ejdamsvej,4140,15,11.908725,55.4820507
323151,Ejdamsvej,4140,19,11.9035625,55.4827373
323152,Ejdamsvej,4140,20,11.9004398,55.4836679
323153,Ejdamsvej,4140,27,11.8979623,55.4783128
323154,Ejdamsvej,4140,31,11.8968958,55.4774874
323155,Ejdamsvej,4140,33,11.9003035,55.4766904
323156,Ejdamsvej,4140,35,11.9020488,55.474399
323157,Ejdamsvej,4140,38,11.8934064,55.4751543
323158,Ejdamsvej,4140,39,11.8955481,55.4759279
325155,Humleorevej,4140,20,11.8989036,55.4784999
325156,Humleorevej,4140,30,11.9064794,55.4694549
325157,Humleorevej,4140,33,11.9124215,55.4714404
325158,Humleorevej,4140,34,11.911465,55.469798
325159,Humleorevej,4140,36,11.921726,55.460638
325160,Humleorevej,4140,37,11.9221857,55.4606699
325161,Humleorevej,4140,39,11.9249131,55.4610598
327298,Langelinie,4140,11,11.9028594,55.5071331
327299,Langelinie,4140,15,11.9045913,55.5078457
327300,Langelinie,4140,19,11.907431,55.5083212
327301,Langelinie,4140,23,11.9094571,55.5084278
327302,Langelinie,4140,27,11.9097861,55.5108751
327303,Langelinie,4140,31,11.911101,55.508787
327304,Langelinie,4140,36,11.9184416,55.509375
327305,Langelinie,4140,42,11.919478,55.5096314
327306,Langelinie,4140,51,11.9086934,55.5132871
329979,Snekkerupvej,4140,21,11.8882308,55.4884368
329980,Snekkerupvej,4140,25,11.8893711,55.4907517
329981,Snekkerupvej,4140,27,11.889423,55.491083
329982,Snekkerupvej,4140,32,11.8947017,55.4900081
329983,Snekkerupvej,4140,34,11.8986403,55.4914846
329984,Snekkerupvej,4140,35,11.8885271,55.4948918
329985,Snekkerupvej,4140,36,11.8916372,55.4939816
329986,Snekkerupvej,4140,40,11.892991,55.4941087
329987,Snekkerupvej,4140,44,11.892627,55.495287
329988,Snekkerupvej,4140,45,11.892575,55.4960778
329989,Snekkerupvej,4140,48,11.8971991,55.4952417
329990,Snekkerupvej,4140,58,11.8951778,55.5004439
329991,Snekkerupvej,4140,64,11.8968124,55.5006471
329992,Snekkerupvej,4140,66,11.8978803,55.5007234
329993,Snekkerupvej,4140,70,11.896694,55.5009716
329994,Snekkerupvej,4140,74,11.8956162,55.5010487
329995,Snekkerupvej,4140,74B,11.8951635,55.5014354
329996,Snekkerupvej,4140,78,11.894859,55.502601
329997,Snekkerupvej,4140,83,11.8939589,55.5038092
331961,Ågerupvej,4140,81,11.8964423,55.4866276
331962,Ågerupvej,4140,87,11.9060511,55.4884096
331963,Ågerupvej,4140,88,11.907005,55.4877419
331964,Ågerupvej,4140,90,11.9079255,55.4866722
331965,Ågerupvej,4140,94,11.913084,55.4858882
331966,Ågerupvej,4140,98,11.9182584,55.4791188
331967,Ågerupvej,4140,100,11.9178861,55.4790038
331968,Ågerupvej,4140,102,11.9195496,55.4834727
331969,Ågerupvej,4140,104,11.9200166,55.4832509
331970,Ågerupvej,4140,106,11.920555,55.4834448
331971,Ågerupvej,4140,110,11.9083573,55.4886139
331972,Ågerupvej,4140,112,11.9086484,55.4888946
331973,Ågerupvej,4140,119,11.9109805,55.492332
331974,Ågerupvej,4140,120,11.911992,55.4907235
331975,Ågerupvej,4140,126,11.9187809,55.4904884
331976,Ågerupvej,4140,128,11.9180915,55.4898049
331977,Ågerupvej,4140,130,11.919082,55.49101
331978,Ågerupvej,4140,132,11.9173517,55.4924126
331979,Ågerupvej,4140,135,11.9191094,55.493402
331980,Ågerupvej,4140,141,11.9153634,55.4957909
331981,Ågerupvej,4140,143,11.9176814,55.4952402
788493,Bækgårdsvej,4140,33,11.97517,55.4917
1123911,Dalbyvej,4140,1,11.9905291,55.4825459
1123914,Dalbyvej,4140,2A,11.9984709,55.4809058
1123918,Dalbyvej,4140,2B,11.9990061,55.4805004
1123921,Dalbyvej,4140,3,11.9990321,55.481539
1123925,Dalbyvej,4140,4,11.9996017,55.4804801
1123927,Dalbyvej,4140,5,11.9993086,55.4815451
1123930,Dalbyvej,4140,6,11.9990868,55.4811899
1123933,Dalbyvej,4140,7,11.9995223,55.4815478
1123937,Dalbyvej,4140,8,11.9994205,55.4811919
1123942,Dalbyvej,4140,9,11.9998162,55.4815233
1123943,Dalbyvej,4140,10,12.0001676,55.4812203
1123947,Dalbyvej,4140,11,12.0004134,55.4816438
1123951,Dalbyvej,4140,12,12.001485,55.480507
1123952,Dalbyvej,4140,13,12.0004432,55.4816424
1123957,Dalbyvej,4140,14,12.0022846,55.4808948
1123961,Dalbyvej,4140,15,12.0011331,55.4812784
1123962,Dalbyvej,4140,16,12.0026592,55.4809379
1123966,Dalbyvej,4140,17,12.0014112,55.4812411
1123971,Dalbyvej,4140,18,12.0042945,55.4813236
1123973,Dalbyvej,4140,19,12.0017576,55.4812363
1123977,Dalbyvej,4140,20,12.0046785,55.4811062
1123979,Dalbyvej,4140,21,12.00208,55.481469
1123984,Dalbyvej,4140,22,12.0047891,55.4813347
1123987,Dalbyvej,4140,23,12.002607,55.481784
1123989,Dalbyvej,4140,23A,12.0025776,55.4820309
1123994,Dalbyvej,4140,24,12.0050923,55.4810711
1123999,Dalbyvej,4140,25A,12.0030201,55.4812602
1124002,Dalbyvej,4140,25B,12.0031454,55.4815959
1124007,Dalbyvej,4140,25C,12.0031727,55.4817782
1124010,Dalbyvej,4140,26,12.0054747,55.481359
1124013,Dalbyvej,4140,27A,12.0032071,55.482118
1124019,Dalbyvej,4140,27B,12.003468,55.4821776
1124022,Dalbyvej,4140,28,12.0057604,55.4814477
1124026,Dalbyvej,4140,29,12.0036974,55.4814237
1124029,Dalbyvej,4140,30,12.0061563,55.4814588
1124032,Dalbyvej,4140,31,12.0044234,55.4816976
1124038,Dalbyvej,4140,32,12.0061397,55.4812105
1124043,Dalbyvej,4140,33A,12.0044639,55.4819006
1124046,Dalbyvej,4140,33C,12.004879,55.4823608
1124051,Dalbyvej,4140,33E,12.005043,55.48177
1124054,Dalbyvej,4140,33F,12.0053693,55.4817642
1124058,Dalbyvej,4140,34A,12.0062426,55.4809969
1124060,Dalbyvej,4140,34B,12.0065138,55.4809372
1124066,Dalbyvej,4140,35,12.0058695,55.4816727
1124067,Dalbyvej,4140,36,12.0065656,55.4813474
1124072,Dalbyvej,4140,37,12.0061834,55.4817993
1124076,Dalbyvej,4140,38,12.0073993,55.481397
1124077,Dalbyvej,4140,39,12.0065031,55.4818109
1124082,Dalbyvej,4140,41,12.0072006,55.481748
1124083,Dalbyvej,4140,43,12.0110888,55.481128
1124087,Dalbyvej,4140,44,12.0267229,55.4827433
1124092,Dalbyvej,4140,45,12.0173329,55.4807529
1124094,Dalbyvej,4140,46,12.0317391,55.4806488
1124098,Dalbyvej,4140,47,12.0224282,55.4822571
1124103,Dalbyvej,4140,48,12.0312096,55.4830366
1124105,Dalbyvej,4140,49,12.0268123,55.4831067
1124108,Dalbyvej,4140,50,12.044291,55.485412
1124113,Dalbyvej,4140,51,12.0350489,55.4845224
1124123,Dalbyvej,4140,53,12.0355266,55.4845544
1124130,Dalbyvej,4140,55,12.035946,55.484588
1124135,Dalbyvej,4140,57,12.0460821,55.4886606
1124688,Tornbjergvej,4140,1,11.9993165,55.492969
1124689,Tornbjergvej,4140,2,11.9984536,55.4929051
1124690,Tornbjergvej,4140,3,12.0004347,55.4930961
1124691,Tornbjergvej,4140,4,11.9987476,55.4927962
1124692,Tornbjergvej,4140,5,12.0015334,55.4929461
1124693,Tornbjergvej,4140,6,11.9990424,55.4927616
1124694,Tornbjergvej,4140,7,12.0121879,55.4932867
1124695,Tornbjergvej,4140,8,11.9995838,55.4927759
1124696,Tornbjergvej,4140,9,12.0153224,55.4954946
1124697,Tornbjergvej,4140,10,12.0029724,55.4925341
1124698,Tornbjergvej,4140,11,12.0169709,55.4931153
1124699,Tornbjergvej,4140,12,12.0135926,55.4924321
1124700,Tornbjergvej,4140,13,12.0209129,55.4926689
1124701,Tornbjergvej,4140,14,12.0174633,55.4905604
1124702,Tornbjergvej,4140,15,12.0256609,55.4921922
1124705,Tornbjergvej,4140,16,12.0295351,55.4925966
1210227,Svenstrupvejen,4140,64,11.986174,55.527849
1210228,Svenstrupvejen,4140,66,11.986833,55.527825
1242231,Klempegårdsvej,4140,1,12.0079963,55.4807249
1242232,Klempegårdsvej,4140,2,12.0074077,55.4804509
1242233,Klempegårdsvej,4140,3,12.0083007,55.4806704
1242234,Klempegårdsvej,4140,4,12.0071233,55.4803453
1242235,Klempegårdsvej,4140,5,12.0082357,55.4804641
1242236,Klempegårdsvej,4140,6,12.0072055,55.4800722
1242237,Klempegårdsvej,4140,7,12.008479,55.4802525
1242238,Klempegårdsvej,4140,8,12.0076313,55.480284
1242239,Klempegårdsvej,4140,9,12.0089114,55.4801332
1242240,Klempegårdsvej,4140,10,12.0080931,55.4800841
1242241,Klempegårdsvej,4140,11,12.0092138,55.479972
1242242,Klempegårdsvej,4140,12,12.0078911,55.4798793
1242243,Klempegårdsvej,4140,13,12.0095756,55.4801912
1242244,Klempegårdsvej,4140,14,12.0076472,55.4797409
1242245,Klempegårdsvej,4140,15,12.0098126,55.4804254
1242246,Klempegårdsvej,4140,16,12.0078818,55.4795657
1242247,Klempegårdsvej,4140,17,12.0100256,55.4806285
1242248,Klempegårdsvej,4140,18,12.0081881,55.4797467
1242249,Klempegårdsvej,4140,19,12.0102905,55.4805124
1242250,Klempegårdsvej,4140,20,12.0083697,55.479882
1242251,Klempegårdsvej,4140,21,12.0101894,55.4803016
1242252,Klempegårdsvej,4140,22,12.0089854,55.479692
1242253,Klempegårdsvej,4140,23,12.0098688,55.4801002
1242254,Klempegårdsvej,4140,24,12.0087718,55.4795108
1242255,Klempegårdsvej,4140,25,12.0097233,55.4799216
1242256,Klempegårdsvej,4140,26,12.008498,55.479283
1242257,Klempegårdsvej,4140,27,12.0103933,55.4796775
1242258,Klempegårdsvej,4140,28,12.008772,55.47913
1242259,Klempegårdsvej,4140,29,12.0106116,55.4798724
1242260,Klempegårdsvej,4140,30,12.0090728,55.4793811
1242261,Klempegårdsvej,4140,31,12.0107947,55.4800438
1242262,Klempegårdsvej,4140,32,12.0093472,55.4795897
1242263,Klempegårdsvej,4140,33,12.011027,55.4803107
1242264,Klempegårdsvej,4140,34,12.0100001,55.4793437
1242265,Klempegårdsvej,4140,35,12.0113976,55.4802236
1242266,Klempegårdsvej,4140,36,12.0098104,55.4791825
1242267,Klempegårdsvej,4140,37,12.0110963,55.4799412
1242268,Klempegårdsvej,4140,38,12.009577,55.4789697
1242269,Klempegårdsvej,4140,39,12.0109871,55.479781
1242270,Klempegårdsvej,4140,40,12.0093161,55.4788282
1242273,Klempegårdsvej,4140,41,12.010729,55.479581
1242274,Klempegårdsvej,4140,42,12.0096585,55.4786754
1242277,Klempegårdsvej,4140,43,12.011277,55.479415
1242279,Klempegårdsvej,4140,44,12.0099757,55.4788512
1242282,Klempegårdsvej,4140,45,12.0114957,55.479624
1242283,Klempegårdsvej,4140,46,12.0101556,55.4791077
1242287,Klempegårdsvej,4140,47,12.0116906,55.4798272
1242288,Klempegårdsvej,4140,48,12.0105878,55.4792321
1242290,Klempegårdsvej,4140,49,12.011934,55.480045
1242291,Klempegårdsvej,4140,50,12.0107758,55.4791366
1242292,Klempegårdsvej,4140,51,12.0122397,55.479762
1242293,Klempegårdsvej,4140,52,12.0106043,55.4789098
1242294,Klempegårdsvej,4140,52A,12.0102644,55.4786949
1242295,Klempegårdsvej,4140,53,12.011898,55.4796198
1242296,Klempegårdsvej,4140,54,12.0100592,55.4784874
1242297,Klempegårdsvej,4140,55,12.0117409,55.4794579
1242298,Klempegårdsvej,4140,56,12.0102833,55.4782855
1242299,Klempegårdsvej,4140,57,12.0115408,55.4792934
1242300,Klempegårdsvej,4140,58,12.0105362,55.4785188
1242301,Klempegårdsvej,4140,59,12.0122165,55.4790662
1242302,Klempegårdsvej,4140,60,12.0108208,55.4786723
1242303,Klempegårdsvej,4140,61,12.0124025,55.4792538
1242304,Klempegårdsvej,4140,62,12.0110348,55.4788546
1242305,Klempegårdsvej,4140,63,12.0126089,55.4794246
1242306,Klempegårdsvej,4140,64,12.0113386,55.4789835
1242307,Klempegårdsvej,4140,65,12.012842,55.4795956
1242308,Klempegårdsvej,4140,66,12.0117301,55.4788476
1242309,Klempegårdsvej,4140,67,12.0130226,55.4797951
1242310,Klempegårdsvej,4140,68,12.0115265,55.4785941
1242311,Klempegårdsvej,4140,69,12.0134063,55.4797385
1242312,Klempegårdsvej,4140,70,12.0112845,55.4784449
1242313,Klempegårdsvej,4140,71,12.0133365,55.4795212
1242314,Klempegårdsvej,4140,72,12.0110462,55.4782426
1242315,Klempegårdsvej,4140,73,12.0129764,55.4793372
1242316,Klempegårdsvej,4140,74,12.0107738,55.4780564
1242317,Klempegårdsvej,4140,75,12.01277,55.4791761
1242320,Klempegårdsvej,4140,76,12.0110427,55.4779214
1242321,Klempegårdsvej,4140,77,12.0125092,55.4789674
1242324,Klempegårdsvej,4140,78,12.0113481,55.4781252
1242325,Klempegårdsvej,4140,79,12.0130013,55.4787546
1242328,Klempegårdsvej,4140,80,12.011627,55.478308
1242329,Klempegårdsvej,4140,81,12.0132772,55.4789166
1242332,Klempegårdsvej,4140,82,12.0118429,55.4784841
1242333,Klempegårdsvej,4140,83,12.0134547,55.4791228
1242336,Klempegårdsvej,4140,84,12.0120964,55.4786668
1242337,Klempegårdsvej,4140,85,12.0137136,55.4792777
1242339,Klempegårdsvej,4140,86,12.0126003,55.4784659
1242340,Klempegårdsvej,4140,87,12.013965,55.4794294
1242341,Klempegårdsvej,4140,88,12.0123366,55.4783005
1242342,Klempegårdsvej,4140,89,12.014172,55.4795727
1242343,Klempegårdsvej,4140,90,12.0120429,55.478145
1242344,Klempegårdsvej,4140,91,12.0146349,55.4795259
1242345,Klempegårdsvej,4140,92,12.0117651,55.4779118
1242346,Klempegårdsvej,4140,93,12.0144208,55.4793491
1242347,Klempegårdsvej,4140,94,12.0114566,55.4777072
1242348,Klempegårdsvej,4140,95,12.0140862,55.4791841
1242349,Klempegårdsvej,4140,96,12.0117242,55.4775323
1242350,Klempegårdsvej,4140,97,12.0138533,55.4790196
1242351,Klempegårdsvej,4140,98,12.0119678,55.47769
1242352,Klempegårdsvej,4140,99,12.0135941,55.4788136
1242353,Klempegårdsvej,4140,100,12.0121678,55.4778537
1242354,Klempegårdsvej,4140,101,12.0133423,55.4786249
1242355,Klempegårdsvej,4140,102,12.0124445,55.4780282
1242356,Klempegårdsvej,4140,103,12.013819,55.478365
1242357,Klempegårdsvej,4140,104,12.0126468,55.4781649
1242358,Klempegårdsvej,4140,105,12.0141098,55.4785516
1242359,Klempegårdsvej,4140,106,12.0129849,55.4783143
1242360,Klempegårdsvej,4140,107,12.0143662,55.4787288
1242361,Klempegårdsvej,4140,108,12.0133765,55.4781284
1242362,Klempegårdsvej,4140,109,12.0145916,55.4788801
1242363,Klempegårdsvej,4140,110,12.0131508,55.4779581
1242366,Klempegårdsvej,4140,111,12.014851,55.4790435
1242367,Klempegårdsvej,4140,112,12.012887,55.477789
1242371,Klempegårdsvej,4140,113,12.0149453,55.4792454
1242374,Klempegårdsvej,4140,114,12.0126247,55.4776291
1242375,Klempegårdsvej,4140,115,12.015313,55.4793574
1242379,Klempegårdsvej,4140,116,12.0124245,55.477445
1242380,Klempegårdsvej,4140,117,12.0156533,55.4791976
1242381,Klempegårdsvej,4140,118,12.012112,55.4773163
1242382,Klempegårdsvej,4140,119,12.0153335,55.4790641
1242383,Klempegårdsvej,4140,120,12.0129302,55.477437
1242384,Klempegårdsvej,4140,121,12.0151584,55.478857
1242385,Klempegårdsvej,4140,122,12.0131866,55.4776189
1242386,Klempegårdsvej,4140,123,12.014969,55.4786921
1242387,Klempegårdsvej,4140,124,12.0135031,55.4777791
1242388,Klempegårdsvej,4140,125,12.0146215,55.478534
1242389,Klempegårdsvej,4140,126,12.0136951,55.4779641
1242390,Klempegårdsvej,4140,127,12.014349,55.4783951
1242391,Klempegårdsvej,4140,129,12.014125,55.4782352
1244703,Sveibogen,4140,1,11.9803272,55.4847122
1244704,Sveibogen,4140,2,11.9799037,55.4846517
1244705,Sveibogen,4140,3,11.9794125,55.4846701
1244706,Sveibogen,4140,4,11.9788921,55.4848433
1244707,Sveibogen,4140,5,11.9786442,55.4850919
1244708,Sveibogen,4140,6,11.9786801,55.4853554
1244709,Sveibogen,4140,7,11.9791688,55.485699
1244710,Sveibogen,4140,8,11.979645,55.4856006
1244711,Sveibogen,4140,9,11.9798687,55.4853284
1244712,Sveibogen,4140,10,11.9799676,55.4850951
1245605,Coronavej,4140,1,11.9438692,55.4647202
1245976,Vandværksvej,4140,1,11.9742652,55.49651
1245979,Vandværksvej,4140,2,11.9740815,55.4964103
1245980,Vandværksvej,4140,3,11.9744199,55.4964093
1245982,Vandværksvej,4140,4,11.9742195,55.4963314
1245983,Vandværksvej,4140,5,11.9744991,55.496364
1245986,Vandværksvej,4140,6,11.9743729,55.4962438
1245988,Vandværksvej,4140,7,11.9745781,55.4963188
1245989,Vandværksvej,4140,8,11.9744984,55.4961706
1245992,Vandværksvej,4140,9,11.9748724,55.4962038
1245994,Vandværksvej,4140,10,11.974881,55.496013
1245997,Vandværksvej,4140,11,11.9761748,55.4959386
1245999,Vandværksvej,4140,12,11.9755529,55.495861
1246001,Vandværksvej,4140,13,11.9765729,55.4958799
1246004,Vandværksvej,4140,14,11.9757642,55.4958233
1246839,Lokesvej,4140,1,11.9402878,55.4664277
1246841,Lokesvej,4140,2,11.9398891,55.4663411
1246844,Lokesvej,4140,3,11.9403016,55.466171
1246846,Lokesvej,4140,4,11.9399273,55.4660316
1246850,Lokesvej,4140,5,11.9403258,55.465861
1246852,Lokesvej,4140,6,11.9399078,55.4657308
1246854,Lokesvej,4140,8,11.9397785,55.4654162
1246859,Lokesvej,4140,10,11.9403614,55.4655082
1246860,Lokesvej,4140,12,11.9406704,55.465655
1247071,Birkevej,4140,1,11.977818,55.4951204
1247072,Birkevej,4140,2,11.9782454,55.4949698
1247073,Birkevej,4140,3,11.9780138,55.4953353
1247074,Birkevej,4140,4,11.9784827,55.4952259
1247075,Birkevej,4140,5,11.9780009,55.4955397
1247076,Birkevej,4140,6,11.9785882,55.495418
1247077,Birkevej,4140,7,11.9781343,55.495678
1247078,Birkevej,4140,8,11.9786708,55.4955801
1247079,Birkevej,4140,9,11.9781785,55.4958794
1247080,Birkevej,4140,10,11.9787313,55.4957678
1247081,Birkevej,4140,11,11.9782966,55.4960051
1247082,Birkevej,4140,12,11.9787018,55.4959658
1247083,Birkevej,4140,13,11.978328,55.4960697
1247084,Birkevej,4140,14,11.978902,55.4961342
1247085,Birkevej,4140,15,11.9783571,55.4961306
1247086,Birkevej,4140,16,11.9790632,55.4962979
1247087,Birkevej,4140,17,11.9783852,55.496191
1247088,Birkevej,4140,18,11.9790328,55.4965068
1247089,Birkevej,4140,19,11.978413,55.4962508
1247090,Birkevej,4140,21,11.978442,55.496312
1247091,Birkevej,4140,23,11.9784683,55.4963723
1247092,Birkevej,4140,25,11.9785059,55.4964227
1247093,Birkevej,4140,27,11.9786037,55.4965637
1247095,Birkevej,4140,29,11.978616,55.4967799
1247188,Lindevej,4140,1A,11.9730271,55.4959537
1247189,Lindevej,4140,1B,11.9733893,55.4958718
1247191,Lindevej,4140,2A,11.9734788,55.4956857
1247192,Lindevej,4140,2B,11.9735904,55.4956645
1247194,Lindevej,4140,3,11.9736098,55.4958231
1247196,Lindevej,4140,4,11.9736891,55.4956412
1247198,Lindevej,4140,5,11.9738883,55.4957897
1247199,Lindevej,4140,6,11.9740274,55.4955627
1247202,Lindevej,4140,7,11.97413,55.4957052
1247203,Lindevej,4140,8A,11.9743009,55.4955039
1247205,Lindevej,4140,8B,11.9745047,55.4954526
1247206,Lindevej,4140,9,11.9743655,55.4956463
1247207,Lindevej,4140,10A,11.974871,55.4953662
1247208,Lindevej,4140,10B,11.9750564,55.4953092
1247209,Lindevej,4140,10C,11.9752169,55.495295
1247210,Lindevej,4140,11,11.9752833,55.4954687
1247211,Lindevej,4140,12,11.9753689,55.4952576
1247212,Lindevej,4140,13,11.9754875,55.4954244
1247213,Lindevej,4140,14,11.9755774,55.4952098
1247214,Lindevej,4140,15,11.9756615,55.4953851
1247215,Lindevej,4140,16,11.975905,55.495094
1247216,Lindevej,4140,17,11.9760143,55.4953599
1247217,Lindevej,4140,18,11.9761567,55.4950253
1247218,Lindevej,4140,19,11.9763073,55.4952563
1247219,Lindevej,4140,20,11.9767416,55.4949081
1247220,Lindevej,4140,21,11.9771944,55.4950745
1247221,Lindevej,4140,22,11.9772092,55.494816
1247222,Lindevej,4140,23,11.9774553,55.4950126
1247223,Lindevej,4140,24,11.9777082,55.4947196
1247224,Lindevej,4140,25,11.978506,55.4948011
1247225,Lindevej,4140,26,11.9781162,55.4946199
1247226,Lindevej,4140,27,11.9788332,55.4947684
1247227,Lindevej,4140,28,11.9785011,55.4945408
1247228,Lindevej,4140,29,11.9799261,55.4945272
1247230,Lindevej,4140,30,11.9787969,55.4944826
1247232,Lindevej,4140,32,11.9793743,55.4943548
1247233,Lindevej,4140,34,11.980015,55.49423
1247235,Lindevej,4140,35,11.9815952,55.4942279
1247237,Lindevej,4140,36,11.9803594,55.4941499
1247240,Lindevej,4140,38,11.9807679,55.4940593
1247241,Lindevej,4140,40A,11.9809607,55.4940168
1247243,Lindevej,4140,40B,11.9810912,55.494004
1247245,Lindevej,4140,42,11.9813945,55.493902
1247397,Vinkelvej,4140,2,11.9742099,55.4975878
1247398,Vinkelvej,4140,4,11.973575,55.497741
1247399,Vinkelvej,4140,6,11.9739654,55.497479
1247400,Vinkelvej,4140,8,11.9738837,55.4973852
1247401,Vinkelvej,4140,10,11.9737593,55.4972661
1247403,Vinkelvej,4140,12,11.9736696,55.497192
1247405,Vinkelvej,4140,14,11.9735501,55.4971026
1247407,Vinkelvej,4140,16,11.9734984,55.4970619
1247640,Østergade,4140,4,11.9759558,55.497231
1247642,Østergade,4140,5,11.976362,55.4972942
1247643,Østergade,4140,6,11.9758408,55.4970622
1247646,Østergade,4140,7,11.9762826,55.4971714
1247647,Østergade,4140,8,11.975663,55.4969673
1247649,Østergade,4140,9,11.976212,55.497063
1247650,Østergade,4140,10,11.9756303,55.4967696
1247651,Østergade,4140,11A,11.9761501,55.496973
1247652,Østergade,4140,11B,11.9761335,55.4969476
1247653,Østergade,4140,11C,11.976117,55.4969223
1247654,Østergade,4140,11D,11.9761004,55.4968969
1247655,Østergade,4140,11E,11.9763543,55.4969436
1247656,Østergade,4140,11F,11.9764416,55.4969252
1247657,Østergade,4140,11G,11.976383,55.496937
1247658,Østergade,4140,11H,11.9764124,55.4969313
1247659,Østergade,4140,13,11.9760901,55.4967603
1247660,Østergade,4140,14,11.975503,55.4965633
1247661,Østergade,4140,15,11.9759764,55.4965902
1247662,Østergade,4140,16,11.9753681,55.4964637
1247663,Østergade,4140,18,11.9753192,55.4962979
1247664,Østergade,4140,19,11.9759494,55.4964172
1247665,Østergade,4140,21A,11.9759325,55.4963156
1247666,Østergade,4140,22,11.974422,55.495291
1247667,Østergade,4140,23,11.9756456,55.4961382
1247668,Østergade,4140,24,11.9743705,55.4952021
1247669,Østergade,4140,25,11.97523,55.495921
1247670,Østergade,4140,27A,11.9751852,55.49574
1247671,Østergade,4140,27B,11.974957,55.4955923
1247672,Østergade,4140,27C,11.975008,55.495537
1247673,Østergade,4140,27D,11.975125,55.4955108
1247674,Østergade,4140,29,11.9747618,55.4952512
1247676,Østergade,4140,31,11.9746794,55.4951315
1247677,Østergade,4140,33,11.9746861,55.4949144
1247678,Østergade,4140,35,11.9744753,55.494434
1247712,Malervej,4140,1,11.9720986,55.4959051
1247713,Malervej,4140,2,11.9691253,55.4929414
1247756,Bastebjergvej,4140,1,11.9412121,55.5082301
1247758,Bastebjergvej,4140,2,11.9419718,55.508566
1247759,Bastebjergvej,4140,3,11.9338157,55.5090031
1247760,Bastebjergvej,4140,4,11.9398801,55.50883
1247761,Bastebjergvej,4140,5,11.9310983,55.5077717
1247762,Bastebjergvej,4140,6,11.9383767,55.5090016
1247763,Bastebjergvej,4140,7,11.9325952,55.5108916
1247764,Bastebjergvej,4140,8,11.9329571,55.5100154
1247765,Bastebjergvej,4140,9,11.9329528,55.5141718
1248054,Tjørnevej,4140,1,11.9792146,55.4947443
1248055,Tjørnevej,4140,2,11.9790796,55.4939552
1248057,Tjørnevej,4140,3,11.9792994,55.4950537
1248058,Tjørnevej,4140,4,11.979216,55.4941671
1248059,Tjørnevej,4140,5,11.9793536,55.4952253
1248061,Tjørnevej,4140,6,11.9795786,55.4947142
1248062,Tjørnevej,4140,7,11.979425,55.4953922
1248063,Tjørnevej,4140,8,11.9797557,55.4949737
1248064,Tjørnevej,4140,9,11.9794981,55.4955945
1248065,Tjørnevej,4140,10,11.9798466,55.4951304
1248066,Tjørnevej,4140,11,11.9796432,55.4957757
1248067,Tjørnevej,4140,12,11.9799586,55.4953061
1248068,Tjørnevej,4140,13,11.9796805,55.4958977
1248069,Tjørnevej,4140,14,11.9800477,55.4954966
1248070,Tjørnevej,4140,15,11.9797946,55.496134
1248071,Tjørnevej,4140,16,11.9801016,55.4957038
1248072,Tjørnevej,4140,17,11.9798906,55.4963022
1248073,Tjørnevej,4140,18,11.9801774,55.4958342
1248075,Tjørnevej,4140,20,11.980409,55.496003
1248076,Tjørnevej,4140,22,11.9803627,55.4961931
1249277,Dalstrøget,4140,1,11.985773,55.504413
1249279,Dalstrøget,4140,2,11.9859386,55.5039453
1249281,Dalstrøget,4140,3,11.9860129,55.504306
1249283,Dalstrøget,4140,4A,11.9856778,55.5038784
1249285,Dalstrøget,4140,4B,11.9854019,55.5038562
1249287,Dalstrøget,4140,5,11.9862227,55.5040959
1249289,Dalstrøget,4140,6A,11.985178,55.504049
1249291,Dalstrøget,4140,6B,11.9851146,55.5042114
1249293,Dalstrøget,4140,7,11.9863961,55.5038959
1249295,Dalstrøget,4140,8,11.9849684,55.5044221
1249297,Dalstrøget,4140,9,11.9865809,55.5036204
1249299,Dalstrøget,4140,10A,11.984912,55.504254
1249301,Dalstrøget,4140,10B,11.9849131,55.5041996
1249303,Dalstrøget,4140,11,11.9866573,55.5033923
1249305,Dalstrøget,4140,12A,11.9849655,55.5040463
1249307,Dalstrøget,4140,12B,11.9849918,55.5040038
1249309,Dalstrøget,4140,13,11.9867046,55.5031481
1249310,Dalstrøget,4140,14A,11.9850746,55.5038655
1249312,Dalstrøget,4140,14B,11.9851071,55.5038132
1249314,Dalstrøget,4140,15,11.9867053,55.502911
1249316,Dalstrøget,4140,16A,11.98548,55.5037427
1249318,Dalstrøget,4140,16B,11.9855863,55.5037473
1249319,Dalstrøget,4140,17,11.9866938,55.5026849
1249320,Dalstrøget,4140,18A,11.985909,55.503806
1249321,Dalstrøget,4140,18B,11.9860047,55.5038334
1249322,Dalstrøget,4140,20,11.9862629,55.503431
1249324,Dalstrøget,4140,22A,11.9859612,55.5034048
1249326,Dalstrøget,4140,22B,11.985675,55.5034056
1249327,Dalstrøget,4140,24A,11.9851963,55.5036512
1249328,Dalstrøget,4140,24B,11.9851981,55.5035699
1249329,Dalstrøget,4140,26A,11.9850903,55.5034146
1249330,Dalstrøget,4140,26B,11.9850954,55.503299
1249331,Dalstrøget,4140,26C,11.9850941,55.5032397
1249332,Dalstrøget,4140,28A,11.985097,55.5030577
1249333,Dalstrøget,4140,28B,11.9850954,55.5030022
1249334,Dalstrøget,4140,30A,11.9853694,55.5032927
1249335,Dalstrøget,4140,30B,11.9855707,55.503292
1249336,Dalstrøget,4140,32A,11.9857828,55.5032941
1249337,Dalstrøget,4140,32B,11.9859297,55.5032899
1249340,Dalstrøget,4140,34A,11.9861897,55.5033034
1249341,Dalstrøget,4140,34B,11.9862829,55.5033133
1249343,Dalstrøget,4140,36,11.98631,55.5029223
1249344,Dalstrøget,4140,38,11.9859066,55.502927
1249345,Dalstrøget,4140,40,11.9855051,55.5029377
1249346,Dalstrøget,4140,42,11.9850854,55.5028522
1249347,Dalstrøget,4140,44,11.9855153,55.5028126
1249348,Dalstrøget,4140,46,11.9858239,55.502809
1249349,Dalstrøget,4140,48,11.9862627,55.5028057
1249350,Dalstrøget,4140,50,11.9862926,55.502468
1249351,Dalstrøget,4140,52,11.9859041,55.5024698
1249352,Dalstrøget,4140,54,11.9855418,55.5024632
1249353,Dalstrøget,4140,56,11.9850691,55.502654
1249354,Dalstrøget,4140,58,11.9849367,55.5024666
1249355,Dalstrøget,4140,60,11.984869,55.5022334
1249356,Dalstrøget,4140,62,11.9852526,55.5023703
1249357,Dalstrøget,4140,64,11.9856446,55.5023334
1249358,Dalstrøget,4140,66,11.9861062,55.50235
1249360,Dalstrøget,4140,68,11.9864857,55.5023472
1249362,Dalstrøget,4140,70,11.9864513,55.5019603
1249364,Dalstrøget,4140,72,11.986071,55.5019894
1249366,Dalstrøget,4140,74,11.9856508,55.5020144
1249368,Dalstrøget,4140,76,11.985262,55.502024
1249370,Dalstrøget,4140,78,11.984865,55.5020134
1249372,Dalstrøget,4140,80,11.9849238,55.5017994
1249374,Dalstrøget,4140,82,11.9852237,55.5018863
1249376,Dalstrøget,4140,84,11.9856475,55.5018939
1249378,Dalstrøget,4140,86,11.9859985,55.5018574
1249379,Dalstrøget,4140,88,11.9863884,55.5018461
1249380,Dalstrøget,4140,90,11.9867614,55.5018599
1249381,Dalstrøget,4140,92,11.9867767,55.5020835
1249382,Dalstrøget,4140,94,11.9867772,55.5023114
1250151,Slusevej,4140,1B,11.983674,55.485113
1250153,Slusevej,4140,2,11.9826579,55.4853826
1250155,Slusevej,4140,3,11.98405,55.4849672
1250157,Slusevej,4140,4,11.98459,55.484651
1250158,Slusevej,4140,6,11.9837237,55.4847038
1250253,Ærtebjerghusene,4140,1,11.979553,55.5002624
1250257,Ærtebjerghusene,4140,2,11.9793392,55.5004834
1250259,Ærtebjerghusene,4140,3,11.9797089,55.5002381
1250264,Ærtebjerghusene,4140,4,11.9793609,55.50053
1250265,Ærtebjerghusene,4140,5,11.9797325,55.5000998
1250271,Ærtebjerghusene,4140,6,11.9791696,55.5006857
1250272,Ærtebjerghusene,4140,7,11.9796896,55.5000376
1250277,Ærtebjerghusene,4140,8,11.9789377,55.50072
1250282,Ærtebjerghusene,4140,9,11.9796354,55.4999222
1250283,Ærtebjerghusene,4140,10,11.9788334,55.5007508
1250284,Ærtebjerghusene,4140,11,11.9794517,55.4999561
1250285,Ærtebjerghusene,4140,12,11.9785924,55.5007586
1250286,Ærtebjerghusene,4140,13,11.979243,55.4999876
1250287,Ærtebjerghusene,4140,14,11.9785632,55.500697
1250288,Ærtebjerghusene,4140,15,11.9793191,55.5002071
1250289,Ærtebjerghusene,4140,16,11.9785099,55.5005821
1250290,Ærtebjerghusene,4140,17,11.9792631,55.5000881
1250291,Ærtebjerghusene,4140,18,11.9784554,55.5005223
1250292,Ærtebjerghusene,4140,19,11.9789346,55.5002359
1250293,Ærtebjerghusene,4140,20,11.9787555,55.5005038
1250294,Ærtebjerghusene,4140,21,11.9787964,55.5000643
1250295,Ærtebjerghusene,4140,22,11.9789253,55.5004794
1250296,Ærtebjerghusene,4140,23,11.9788148,55.5001038
1250297,Ærtebjerghusene,4140,24,11.9790491,55.500461
1250298,Ærtebjerghusene,4140,25,11.9785829,55.5000884
1250299,Ærtebjerghusene,4140,27,11.9784746,55.5001051
1250300,Ærtebjerghusene,4140,29,11.9783496,55.5001238
1250301,Ærtebjerghusene,4140,31,11.978078,55.5001388
1250302,Ærtebjerghusene,4140,33,11.9781187,55.5002001
1250303,Ærtebjerghusene,4140,35,11.9781674,55.5003044
1250304,Ærtebjerghusene,4140,37,11.9783406,55.5003646
1250306,Ærtebjerghusene,4140,39,11.9784696,55.500345
1250307,Ærtebjerghusene,4140,41,11.9785945,55.5003256
1250699,Neergaardparken,4140,1,11.9816942,55.5047781
1250702,Neergaardparken,4140,2,11.9813386,55.5052523
1250707,Neergaardparken,4140,3,11.981669,55.5044732
1250709,Neergaardparken,4140,4,11.981435,55.505532
1250715,Neergaardparken,4140,5,11.9816341,55.5041838
1250718,Neergaardparken,4140,6,11.9810556,55.5055799
1250719,Neergaardparken,4140,7,11.9813899,55.5039628
1250721,Neergaardparken,4140,8,11.980567,55.5056093
1250723,Neergaardparken,4140,9,11.9810924,55.5040038
1250725,Neergaardparken,4140,10,11.9804787,55.5053747
1250728,Neergaardparken,4140,11,11.9805703,55.5040872
1250729,Neergaardparken,4140,12,11.9803518,55.5051206
1250733,Neergaardparken,4140,13,11.9807011,55.5042814
1250734,Neergaardparken,4140,14,11.9808831,55.5051247
1250737,Neergaardparken,4140,15,11.9809031,55.5045249
1250739,Neergaardparken,4140,16,11.9793931,55.5052011
1250741,Neergaardparken,4140,17,11.9812128,55.5046672
1250745,Neergaardparken,4140,18,11.9792584,55.5052249
1250748,Neergaardparken,4140,19,11.9798956,55.5046638
1250751,Neergaardparken,4140,20,11.9796721,55.5052679
1250755,Neergaardparken,4140,21,11.9797308,55.5044531
1250758,Neergaardparken,4140,22,11.9797476,55.505407
1250765,Neergaardparken,4140,23,11.9796758,55.5042061
1250768,Neergaardparken,4140,24,11.9798152,55.5055346
1250773,Neergaardparken,4140,25,11.9794173,55.5041118
1250777,Neergaardparken,4140,26,11.9798675,55.5056303
1250780,Neergaardparken,4140,27,11.9789463,55.504079
1250783,Neergaardparken,4140,28,11.9798576,55.5058823
1250785,Neergaardparken,4140,29,11.9785636,55.5041249
1250788,Neergaardparken,4140,30,11.9795415,55.5059308
1250791,Neergaardparken,4140,31,11.9787787,55.5043661
1250793,Neergaardparken,4140,33,11.9789034,55.5045797
1250796,Neergaardparken,4140,35,11.9789506,55.5048161
1250797,Neergaardparken,4140,37,11.9793185,55.5047307
1250803,Kymervej,4140,1,11.9774215,55.4884707
1250804,Kymervej,4140,2,11.9763333,55.488554
1250805,Kymervej,4140,3,11.9770328,55.4884823
1250806,Kymervej,4140,5,11.9767598,55.488312
1250807,Kymervej,4140,7,11.9772949,55.4881169
1250808,Kymervej,4140,9,11.9775791,55.488275
1250810,Kymervej,4140,10,11.9754486,55.488565
1250811,Kymervej,4140,11,11.977838,55.4879933
1250814,Kymervej,4140,12,11.975689,55.4883922
1250815,Kymervej,4140,13,11.9775122,55.4879589
1250816,Kymervej,4140,14,11.9760889,55.4882411
1250817,Kymervej,4140,15,11.9778603,55.4877567
1250818,Kymervej,4140,16,11.9763701,55.4881069
1250819,Kymervej,4140,17,11.9780857,55.4875868
1250820,Kymervej,4140,18,11.9766346,55.4879737
1250823,Kymervej,4140,19,11.9782202,55.4874019
1250825,Kymervej,4140,20,11.9769112,55.4878028
1250827,Kymervej,4140,21,11.9783775,55.4872951
1250829,Kymervej,4140,22,11.9771678,55.4877077
1250830,Kymervej,4140,23,11.9784561,55.4871341
1250833,Kymervej,4140,24,11.9773954,55.4875777
1250835,Kymervej,4140,25,11.9787783,55.4870271
1250837,Kymervej,4140,26,11.9775804,55.4874339
1250839,Kymervej,4140,27,11.9787928,55.4867694
1250841,Kymervej,4140,28,11.9777026,55.4872896
1250843,Kymervej,4140,29,11.9789756,55.4866106
1250845,Kymervej,4140,30,11.977884,55.4871283
1250847,Kymervej,4140,31,11.9791272,55.4864652
1250849,Kymervej,4140,32,11.9780426,55.4869891
1250851,Kymervej,4140,33,11.9794878,55.4864003
1250853,Kymervej,4140,34,11.9782279,55.4868456
1250854,Kymervej,4140,36,11.9783616,55.4866793
1250858,Kymervej,4140,38,11.9785103,55.4864928
1250861,Kymervej,4140,40,11.9787026,55.4863887
1250862,Kymervej,4140,42,11.9789059,55.4862001
1251195,Bjørnestien,4140,1,11.9451574,55.4663551
1251197,Bjørnestien,4140,2,11.9456953,55.4662105
1251199,Bjørnestien,4140,3,11.9444458,55.4668266
1251201,Bjørnestien,4140,5,11.9438901,55.4667256
1251203,Bjørnestien,4140,5A,11.9438601,55.4663335
1251204,Bjørnestien,4140,5B,11.9433522,55.466269
1251207,Bjørnestien,4140,7,11.9431195,55.4664571
1251208,Bjørnestien,4140,9A,11.9443788,55.4671687
1251211,Bjørnestien,4140,9B,11.9437579,55.4670299
1251212,Bjørnestien,4140,10,11.9448822,55.4670579
1251214,Bjørnestien,4140,11,11.9433543,55.467045
1251217,Bjørnestien,4140,11A,11.9429657,55.4668601
1251218,Bjørnestien,4140,13,11.9424096,55.4669009
1251222,Bjørnestien,4140,14,11.9445995,55.4676651
1251224,Bjørnestien,4140,16,11.9438462,55.4673761
1251227,Bjørnestien,4140,18,11.9434908,55.467605
1251231,Bjørnestien,4140,20,11.9428969,55.4673359
1251233,Bjørnestien,4140,22,11.9421564,55.4673373
1251308,Kløvestedvej,4140,1,11.9982394,55.4815567
1251311,Kløvestedvej,4140,2A,11.9986444,55.4816122
1251312,Kløvestedvej,4140,2B,11.9993417,55.4830151
1251315,Kløvestedvej,4140,3,11.9981577,55.481927
1251316,Kløvestedvej,4140,5,11.9972052,55.4866081
1251319,Kløvestedvej,4140,6A,11.9975471,55.4917057
1251321,Kløvestedvej,4140,6B,11.9977857,55.4918338
1251323,Kløvestedvej,4140,6C,11.9979281,55.4918073
1251325,Kløvestedvej,4140,7,11.9969041,55.486851
1251328,Kløvestedvej,4140,8,11.9988071,55.4932603
1251329,Kløvestedvej,4140,8A,11.9986193,55.493512
1251332,Kløvestedvej,4140,9,11.9966131,55.4914397
1251333,Kløvestedvej,4140,10,11.9942032,55.5019722
1251335,Kløvestedvej,4140,11,11.997086,55.492451
1251337,Kløvestedvej,4140,12,11.991146,55.506367
1251338,Kløvestedvej,4140,13,11.9980394,55.4926529
1251341,Kløvestedvej,4140,14,11.9896608,55.5086279
1251342,Kløvestedvej,4140,15,11.998013,55.4929393
1251343,Kløvestedvej,4140,17,11.9973815,55.4928839
1251344,Kløvestedvej,4140,17A,11.9965064,55.492918
1251345,Kløvestedvej,4140,19,11.9973761,55.4932246
1251346,Kløvestedvej,4140,19A,11.9976662,55.4930522
1251347,Kløvestedvej,4140,21,11.9979397,55.4933789
1251348,Kløvestedvej,4140,23,11.9972684,55.4936726
1251349,Kløvestedvej,4140,25,11.9965672,55.4937449
1251516,Fiskervej,4140,1,11.9893166,55.4838559
1251517,Fiskervej,4140,2,11.9921566,55.4855337
1251518,Fiskervej,4140,3,11.9894353,55.4840731
1251519,Fiskervej,4140,4,11.99193,55.486048
1251879,Ved Kildepladsen,4140,1,11.9448411,55.468391
1251881,Ved Kildepladsen,4140,2A,11.941817,55.469952
1251883,Ved Kildepladsen,4140,2B,11.941238,55.46949
1251886,Ved Kildepladsen,4140,3,11.9454442,55.468347
1251889,Ved Kildepladsen,4140,4,11.9396497,55.4684014
1251890,Ved Kildepladsen,4140,5A,11.9459406,55.4684535
1251891,Ved Kildepladsen,4140,5B,11.946277,55.4682275
1251894,Ved Kildepladsen,4140,6,11.9393954,55.468079
1251895,Ved Kildepladsen,4140,7,11.9456744,55.4680566
1251897,Ved Kildepladsen,4140,8,11.9393768,55.4669366
1251899,Ved Kildepladsen,4140,9,11.9449569,55.4679983
1251900,Ved Kildepladsen,4140,10,11.9395426,55.4647473
1251901,Ved Kildepladsen,4140,11,11.9446837,55.4679197
1251902,Ved Kildepladsen,4140,13,11.9436114,55.4683955
1251903,Ved Kildepladsen,4140,15,11.944071,55.468374
1251904,Ved Kildepladsen,4140,17,11.9439891,55.467992
1251905,Ved Kildepladsen,4140,19,11.9431804,55.4679065
1251906,Ved Kildepladsen,4140,21,11.9427589,55.4679168
1251907,Ved Kildepladsen,4140,23,11.9422646,55.4678812
1251908,Ved Kildepladsen,4140,25,11.9419842,55.467836
1251909,Ved Kildepladsen,4140,27,11.9414988,55.467856
1251910,Ved Kildepladsen,4140,29,11.9412756,55.4682649
1251911,Ved Kildepladsen,4140,31,11.9419378,55.46832
1251912,Ved Kildepladsen,4140,33,11.9423874,55.4683185
1251913,Ved Kildepladsen,4140,35,11.9428452,55.468399
1251914,Ved Kildepladsen,4140,37,11.9409904,55.4684122
1251946,Langagervej,4140,1,11.9832762,55.4744588
1251950,Langagervej,4140,2,11.9822552,55.4782839
1251952,Langagervej,4140,3,11.9830558,55.4741196
1251956,Langagervej,4140,4,11.9823332,55.478075
1251960,Langagervej,4140,5,11.9841891,55.4715396
1251963,Langagervej,4140,6,11.9802003,55.4762642
1251969,Langagervej,4140,7,11.9852709,55.4712686
1251973,Langagervej,4140,8,11.9828328,55.4740837
1251979,Langagervej,4140,10,11.9824232,55.471461
1251984,Langagervej,4140,12,11.9816064,55.4708597
1251987,Langagervej,4140,14,11.9768178,55.4706788
1252077,Stenhøjparken,4140,1,11.9809525,55.501657
1252080,Stenhøjparken,4140,2,11.980532,55.501839
1252081,Stenhøjparken,4140,3,11.9812081,55.501606
1252084,Stenhøjparken,4140,4,11.9804822,55.5017604
1252086,Stenhøjparken,4140,5,11.9814518,55.5015579
1252087,Stenhøjparken,4140,6,11.980468,55.501738
1252090,Stenhøjparken,4140,7,11.981695,55.501815
1252092,Stenhøjparken,4140,8,11.9804185,55.5016574
1252094,Stenhøjparken,4140,9A,11.9820914,55.5015563
1252096,Stenhøjparken,4140,9B,11.982101,55.5016275
1252098,Stenhøjparken,4140,10,11.9804477,55.5015946
1252099,Stenhøjparken,4140,11A,11.9824047,55.5015407
1252100,Stenhøjparken,4140,11B,11.982415,55.5016121
1252101,Stenhøjparken,4140,12,11.9803972,55.5015137
1252102,Stenhøjparken,4140,13,11.9826705,55.5018859
1252103,Stenhøjparken,4140,14,11.9803825,55.5014896
1252104,Stenhøjparken,4140,15,11.9814125,55.5019321
1252105,Stenhøjparken,4140,16,11.9803349,55.5014107
1252106,Stenhøjparken,4140,17,11.9818956,55.5019802
1252107,Stenhøjparken,4140,18,11.980683,55.5015612
1252108,Stenhøjparken,4140,19,11.9822099,55.5019378
1252109,Stenhøjparken,4140,20,11.9809851,55.5014752
1252110,Stenhøjparken,4140,21,11.9823132,55.5021753
1252111,Stenhøjparken,4140,22,11.9812082,55.5014308
1252112,Stenhøjparken,4140,23,11.9820901,55.5022364
1252113,Stenhøjparken,4140,24,11.9814867,55.5013741
1252114,Stenhøjparken,4140,25,11.9821947,55.5025668
1252115,Stenhøjparken,4140,26A,11.9818324,55.5012691
1252116,Stenhøjparken,4140,26B,11.9818236,55.5011976
1252117,Stenhøjparken,4140,27,11.9826209,55.5024873
1252118,Stenhøjparken,4140,28A,11.9820941,55.5012391
1252119,Stenhøjparken,4140,28B,11.9820844,55.5011676
1252120,Stenhøjparken,4140,29,11.9827404,55.5021428
1252121,Stenhøjparken,4140,30A,11.9823563,55.5012096
1252122,Stenhøjparken,4140,30B,11.9823461,55.5011379
1252123,Stenhøjparken,4140,32A,11.9826945,55.5011848
1252124,Stenhøjparken,4140,32B,11.9826789,55.5010794
1252125,Stenhøjparken,4140,34,11.9828999,55.501146
1252126,Stenhøjparken,4140,36,11.98299,55.501268
1252127,Stenhøjparken,4140,37,11.9830532,55.5022025
1252130,Stenhøjparken,4140,38,11.9830056,55.5013803
1252133,Stenhøjparken,4140,39,11.9831535,55.502405
1252134,Stenhøjparken,4140,40,11.9830206,55.5014869
1252136,Stenhøjparken,4140,41,11.9833411,55.5026797
1252138,Stenhøjparken,4140,42,11.9829578,55.5016346
1252140,Stenhøjparken,4140,44,11.98297,55.5017177
1252143,Stenhøjparken,4140,45,11.9830033,55.5026659
1252144,Stenhøjparken,4140,46,11.9829821,55.5017999
1252147,Stenhøjparken,4140,47,11.9825837,55.5026503
1252148,Stenhøjparken,4140,48,11.9810823,55.5020247
1252151,Stenhøjparken,4140,49,11.9822735,55.5027123
1252154,Stenhøjparken,4140,50,11.981175,55.5020695
1252156,Stenhøjparken,4140,51,11.982753,55.5038388
1252159,Stenhøjparken,4140,52,11.9812522,55.502107
1252161,Stenhøjparken,4140,53,11.98291,55.5038076
1252164,Stenhøjparken,4140,54,11.9813243,55.5021419
1252168,Stenhøjparken,4140,55,11.9832793,55.5037956
1252171,Stenhøjparken,4140,56,11.9813985,55.5021778
1252174,Stenhøjparken,4140,57,11.9832899,55.5037027
1252177,Stenhøjparken,4140,58,11.9814641,55.5022095
1252180,Stenhøjparken,4140,59,11.9836181,55.5037413
1252184,Stenhøjparken,4140,60,11.9817562,55.5025772
1252187,Stenhøjparken,4140,61,11.9836025,55.5038788
1252190,Stenhøjparken,4140,62,11.9817848,55.5026271
1252192,Stenhøjparken,4140,63,11.9836137,55.5040829
1252196,Stenhøjparken,4140,64,11.981811,55.5026726
1252200,Stenhøjparken,4140,65,11.9836367,55.5041485
1252202,Stenhøjparken,4140,66,11.9818386,55.5027204
1252206,Stenhøjparken,4140,67,11.9833108,55.5042312
1252208,Stenhøjparken,4140,68,11.9818605,55.5027582
1252213,Stenhøjparken,4140,69,11.9830092,55.5042772
1252216,Stenhøjparken,4140,70,11.9818857,55.5028019
1252219,Stenhøjparken,4140,71,11.9830095,55.5040971
1252221,Stenhøjparken,4140,72,11.982338,55.503736
1252223,Stenhøjparken,4140,73,11.9829704,55.5040143
1252226,Stenhøjparken,4140,74,11.9822826,55.5036429
1252228,Stenhøjparken,4140,75,11.9830345,55.5043494
1252230,Stenhøjparken,4140,76,11.9821993,55.5035096
1252232,Stenhøjparken,4140,77,11.9833465,55.5043327
1252233,Stenhøjparken,4140,78,11.9821421,55.503415
1252236,Stenhøjparken,4140,79,11.9835751,55.5045218
1252237,Stenhøjparken,4140,80,11.9823751,55.503339
1252240,Stenhøjparken,4140,81,11.9836123,55.5045808
1252242,Stenhøjparken,4140,82,11.9825073,55.503313
1252244,Stenhøjparken,4140,83,11.9832604,55.5046625
1252245,Stenhøjparken,4140,84,11.9827305,55.5032738
1252246,Stenhøjparken,4140,85,11.9830783,55.5046999
1252249,Stenhøjparken,4140,86,11.9829139,55.503248
1252251,Stenhøjparken,4140,87,11.9827645,55.5047527
1252252,Stenhøjparken,4140,88,11.9831753,55.5032359
1252253,Stenhøjparken,4140,89,11.982738,55.5046419
1252254,Stenhøjparken,4140,90,11.983343,55.503243
1252255,Stenhøjparken,4140,91,11.9826903,55.5044823
1252256,Stenhøjparken,4140,92,11.9836829,55.5031911
1252257,Stenhøjparken,4140,93,11.9826536,55.504378
1252258,Stenhøjparken,4140,94,11.9836705,55.5032986
1252259,Stenhøjparken,4140,95,11.9825889,55.5042182
1252260,Stenhøjparken,4140,96,11.9836529,55.5034483
1252261,Stenhøjparken,4140,97,11.9825407,55.5041158
1252262,Stenhøjparken,4140,98,11.9836378,55.5035822
1252263,Stenhøjparken,4140,100,11.9832816,55.5035387
1252264,Stenhøjparken,4140,102,11.9830801,55.5035304
1252265,Stenhøjparken,4140,104,11.9827766,55.5036021
1252268,Stenhøjparken,4140,106,11.982709,55.503494
1252412,Borupvej,4140,48,11.9051438,55.4985701
1252481,Søvej,4140,1,11.9729989,55.4951445
1252482,Søvej,4140,2,11.9736523,55.4948516
1252485,Søvej,4140,3,11.9736388,55.4951513
1252486,Søvej,4140,4,11.9738372,55.4948138
1252489,Søvej,4140,5,11.9738472,55.4950059
1252490,Søvej,4140,6,11.9740264,55.4947741
1252492,Søvej,4140,7,11.9741508,55.4949362
1252495,Søvej,4140,8,11.9741758,55.4947429
1252496,Søvej,4140,10,11.974617,55.4946488
1252497,Søvej,4140,11,11.9750178,55.4947449
1252498,Søvej,4140,12,11.9749315,55.4945806
1252499,Søvej,4140,13,11.9752554,55.4947179
1252500,Søvej,4140,14A,11.9751772,55.4945152
1252501,Søvej,4140,14B,11.9750193,55.4942734
1252502,Søvej,4140,15,11.9756376,55.494777
1252503,Søvej,4140,17,11.9760151,55.4945795
1252504,Søvej,4140,20A,11.9765659,55.4940999
1252505,Søvej,4140,20B,11.9765021,55.4939699
1252506,Søvej,4140,20C,11.9764458,55.4938551
1252507,Søvej,4140,21,11.9768794,55.4944257
1252508,Søvej,4140,23,11.9774133,55.4943148
1252509,Søvej,4140,24,11.9774705,55.4939053
1252510,Søvej,4140,25,11.9778583,55.4942219
1252511,Søvej,4140,26,11.9773658,55.4936913
1252512,Søvej,4140,27,11.9782445,55.4941417
1252513,Søvej,4140,29,11.9786331,55.4940536
1252514,Søvej,4140,31,11.9796923,55.493857
1252515,Søvej,4140,32,11.978071,55.4934776
1252516,Søvej,4140,33,11.9800731,55.4937445
1252519,Søvej,4140,34,11.9781998,55.4937561
1252520,Søvej,4140,35,11.9805532,55.4936652
1253336,Dyrehavevej,4140,1,11.9488789,55.4742971
1253339,Dyrehavevej,4140,2,11.9474771,55.4748744
1253341,Dyrehavevej,4140,3,11.9439565,55.472105
1253344,Dyrehavevej,4140,4,11.9453872,55.4752762
1253346,Dyrehavevej,4140,5,11.9428356,55.4714243
1253350,Dyrehavevej,4140,6,11.930267,55.47748
1253543,Magleskovvej,4140,1,11.9709074,55.5230723
1253544,Magleskovvej,4140,2,11.9706993,55.5234864
1253547,Magleskovvej,4140,3,11.9697072,55.5221509
1253548,Magleskovvej,4140,4,11.9706593,55.5228531
1253550,Magleskovvej,4140,5,11.968752,55.5221927
1253551,Magleskovvej,4140,6,11.9702705,55.5224922
1253553,Magleskovvej,4140,7,11.9647026,55.5220466
1253555,Magleskovvej,4140,8,11.9690348,55.5224132
1253558,Magleskovvej,4140,10,11.9636853,55.5222374
1253559,Magleskovvej,4140,12,11.9623151,55.5222737
1253731,Ebbeskovvej,4140,1,11.9443383,55.5035519
1253732,Ebbeskovvej,4140,2A,11.946522,55.509551
1253733,Ebbeskovvej,4140,2B,11.9457508,55.5097485
1253734,Ebbeskovvej,4140,2C,11.946227,55.510025
1253735,Ebbeskovvej,4140,3,11.9463249,55.503315
1253736,Ebbeskovvej,4140,4,11.946916,55.508992
1253737,Ebbeskovvej,4140,5,11.9474155,55.5031604
1253738,Ebbeskovvej,4140,6,11.9454643,55.5094818
1253739,Ebbeskovvej,4140,7,11.9428506,55.5023391
1253740,Ebbeskovvej,4140,8,11.9420637,55.502687
1253741,Ebbeskovvej,4140,10,11.9384152,55.5051653
1253743,Ebbeskovvej,4140,12,11.9364026,55.4958792
1254737,Ørningevej,4140,1,11.9803384,55.5073312
1254738,Ørningevej,4140,2,11.9797681,55.5069956
1254739,Ørningevej,4140,3,11.9807387,55.507371
1254740,Ørningevej,4140,4,11.9800893,55.5070567
1254741,Ørningevej,4140,5,11.9808554,55.5076995
1254742,Ørningevej,4140,6,11.9803828,55.507037
1254743,Ørningevej,4140,7A,11.9812507,55.5076601
1254744,Ørningevej,4140,7B,11.9816198,55.5078534
1254745,Ørningevej,4140,8,11.980758,55.5070599
1254746,Ørningevej,4140,9,11.9812315,55.5073284
1254747,Ørningevej,4140,10,11.9881868,55.508913
1254748,Ørningevej,4140,11,11.9817426,55.5074108
1254750,Ørningevej,4140,12,11.9890225,55.5089054
1254753,Ørningevej,4140,13,11.9821668,55.5075836
1254754,Ørningevej,4140,15,11.9828015,55.507607
1254757,Ørningevej,4140,16,11.9899568,55.5091069
1254759,Ørningevej,4140,17,11.988024,55.5090394
1254761,Ørningevej,4140,18,11.9909773,55.5097346
1254764,Ørningevej,4140,19,11.988919,55.509151
1254766,Ørningevej,4140,20,11.9942632,55.5124081
1254767,Ørningevej,4140,21,11.9919351,55.5119618
1254768,Ørningevej,4140,22,11.9989263,55.5125079
1254769,Ørningevej,4140,23,11.9930032,55.5126639
1254771,Ørningevej,4140,24,11.999549,55.512538
1254772,Ørningevej,4140,25,11.9950067,55.5126183
1254775,Ørningevej,4140,26,12.0069857,55.5133532
1254778,Ørningevej,4140,27,12.0068802,55.5135836
1254779,Ørningevej,4140,28,12.0169528,55.518568
1254781,Ørningevej,4140,29,12.0075091,55.5138491
1254783,Ørningevej,4140,31,12.0085268,55.5137799
1254786,Ørningevej,4140,33,12.0124577,55.5164533
1254787,Ørningevej,4140,35,12.0185181,55.5189428
1254789,Ørningevej,4140,37,12.0211103,55.5164517
1254792,Ørningevej,4140,39,12.0224321,55.5155306
1254794,Ørningevej,4140,41,12.024004,55.513592
1254961,Regnemarks Bakke,4140,1A,11.9550615,55.4669811
1254963,Regnemarks Bakke,4140,1B,11.9549008,55.4678713
1254966,Regnemarks Bakke,4140,2B,11.949134,55.462855
1254967,Regnemarks Bakke,4140,3,11.956096,55.4672082
1254969,Regnemarks Bakke,4140,4,11.9473732,55.4659288
1254971,Regnemarks Bakke,4140,5,11.9569729,55.467167
1254973,Regnemarks Bakke,4140,6,11.9491425,55.4662521
1254975,Regnemarks Bakke,4140,7,11.9580658,55.467312
1254978,Regnemarks Bakke,4140,8,11.9515812,55.4665321
1254981,Regnemarks Bakke,4140,9,11.9587716,55.4670327
1254983,Regnemarks Bakke,4140,10,11.9550195,55.4667079
1254985,Regnemarks Bakke,4140,11,11.9660226,55.4664977
1254987,Regnemarks Bakke,4140,12,11.9554445,55.4667469
1254989,Regnemarks Bakke,4140,13,11.9722959,55.4657637
1254991,Regnemarks Bakke,4140,14,11.9558013,55.4668587
1254994,Regnemarks Bakke,4140,16,11.9563859,55.4668324
1254996,Regnemarks Bakke,4140,18,11.9589537,55.4666871
1254998,Regnemarks Bakke,4140,20,11.9602888,55.4665107
1255000,Regnemarks Bakke,4140,36,11.9747765,55.4653456
1255900,Ågerupvej,4140,147,11.9224647,55.4942851
1256010,Hegnedevej,4140,1,12.0084962,55.5128377
1256014,Hegnedevej,4140,2,12.0077402,55.5130073
1256016,Hegnedevej,4140,3,12.0209507,55.5110748
1256018,Hegnedevej,4140,4,12.0081137,55.5094535
1256145,Møllevej,4140,2,11.9781724,55.4996389
1256146,Møllevej,4140,2A,11.977674,55.499723
1256147,Møllevej,4140,4,11.9808908,55.4987724
1256149,Møllevej,4140,4A,11.979386,55.4993479
1256150,Møllevej,4140,4B,11.9803299,55.4991972
1256152,Møllevej,4140,4C,11.9787533,55.4988339
1256154,Møllevej,4140,6,11.9812882,55.4992301
1256156,Møllevej,4140,8,11.9816503,55.4991171
1256158,Møllevej,4140,11A,11.9813025,55.4996967
1256160,Møllevej,4140,11B,11.9826127,55.4995028
1256161,Møllevej,4140,11C,11.98195,55.499854
1256163,Møllevej,4140,13A,11.9846347,55.4997052
1256165,Møllevej,4140,13B,11.9844712,55.4995981
1256166,Møllevej,4140,13C,11.9845816,55.4994992
1256169,Møllevej,4140,13D,11.9846284,55.4993817
1256170,Møllevej,4140,13E,11.9846057,55.4993023
1256171,Møllevej,4140,13F,11.9846728,55.4992213
1256172,Møllevej,4140,13G,11.9846162,55.4991577
1256173,Møllevej,4140,13H,11.9849853,55.4994748
1256174,Møllevej,4140,13K,11.9850944,55.4994417
1256175,Møllevej,4140,13L,11.9851732,55.4993561
1256176,Møllevej,4140,13M,11.985254,55.499213
1256177,Møllevej,4140,13N,11.985331,55.4991363
1256178,Møllevej,4140,13P,11.985338,55.499072
1256179,Møllevej,4140,13R,11.9856087,55.4993984
1256180,Møllevej,4140,13S,11.9857853,55.4993408
1256181,Møllevej,4140,13T,11.9858335,55.4993048
1256182,Møllevej,4140,13U,11.9859673,55.4991741
1256183,Møllevej,4140,13V,11.9860597,55.4991141
1256185,Møllevej,4140,13X,11.9860953,55.4990484
1256186,Møllevej,4140,15,11.9850009,55.5000193
1256188,Møllevej,4140,17,11.9860395,55.4998997
1256191,Møllevej,4140,19,11.985922,55.500485
1256672,Rønnevej,4140,1,11.9805544,55.4945084
1256675,Rønnevej,4140,3,11.9806563,55.4947738
1256676,Rønnevej,4140,4,11.9811331,55.494668
1256677,Rønnevej,4140,5,11.9807592,55.4949534
1256679,Rønnevej,4140,6,11.9811567,55.4948972
1256681,Rønnevej,4140,7,11.9808353,55.4951221
1256683,Rønnevej,4140,8,11.9812875,55.4950991
1256685,Rønnevej,4140,9,11.980899,55.4953061
1256689,Rønnevej,4140,10,11.9814556,55.495318
1256691,Rønnevej,4140,11,11.980905,55.495487
1256694,Rønnevej,4140,12,11.981637,55.495503
1256698,Rønnevej,4140,13,11.9811059,55.4956511
1256700,Rønnevej,4140,14,11.9815764,55.4957284
1256703,Rønnevej,4140,15,11.9811763,55.4958239
1256705,Rønnevej,4140,16,11.9817631,55.4959388
1256709,Rønnevej,4140,17,11.9812502,55.4959853
1256711,Rønnevej,4140,18,11.9817966,55.4961931
1256713,Rønnevej,4140,19,11.9812704,55.4961823
1256715,Rønnevej,4140,20,11.9819502,55.4963645
1256716,Rønnevej,4140,21,11.9815298,55.4966269
1256719,Rønnevej,4140,22,11.9820491,55.4965127
1256722,Rønnevej,4140,23,11.9814883,55.4969353
1256723,Rønnevej,4140,24,11.9821043,55.4967762
1256726,Rønnevej,4140,25,11.9818137,55.4971372
1256727,Rønnevej,4140,26,11.9823698,55.4971191
1256729,Rønnevej,4140,27,11.9818657,55.4973561
1256731,Rønnevej,4140,28,11.9826973,55.4970326
1256733,Rønnevej,4140,30,11.9833187,55.4967999
1256918,Elmevej,4140,1,11.9758589,55.4977662
1256921,Elmevej,4140,2A,11.9770112,55.4971688
1256926,Elmevej,4140,2B,11.9771488,55.4971392
1256935,Elmevej,4140,3,11.9763126,55.4976506
1256938,Elmevej,4140,4,11.9777406,55.4970094
1256945,Elmevej,4140,5,11.9802093,55.4971871
1256948,Elmevej,4140,6,11.9792144,55.4966757
1256954,Elmevej,4140,7,11.9800019,55.4969537
1256956,Elmevej,4140,8,11.9799306,55.4965108
1256960,Elmevej,4140,9,11.9804969,55.496835
1256964,Elmevej,4140,10,11.9804224,55.49636
1256966,Elmevej,4140,11,11.9808064,55.4968062
1256970,Elmevej,4140,13,11.980985,55.49712
1256973,Elmevej,4140,15,11.9811179,55.4975076
1256978,Elmevej,4140,17,11.9807383,55.4975515
1256979,Elmevej,4140,19,11.9803828,55.4975656
1256982,Elmevej,4140,21,11.9800355,55.4976587
1256987,Elmevej,4140,23,11.9797668,55.4976563
1256989,Elmevej,4140,25,11.9792143,55.4976451
1256993,Elmevej,4140,27,11.9788874,55.4977247
1256994,Elmevej,4140,29,11.9784956,55.4978089
1256999,Elmevej,4140,31,11.9783365,55.4976182
1257003,Elmevej,4140,33,11.9782089,55.497361
1257005,Elmevej,4140,35,11.9785344,55.4973001
1257008,Elmevej,4140,37,11.9790808,55.4973718
1257010,Elmevej,4140,39,11.978962,55.4971128
1257014,Elmevej,4140,41,11.9793822,55.4970481
1257015,Elmevej,4140,43,11.9795383,55.497289
1257502,Bækgårdsvej,4140,2A,11.9769934,55.497494
1257503,Bækgårdsvej,4140,2B,11.977123,55.497466
1257504,Bækgårdsvej,4140,2C,11.9772529,55.4974371
1257506,Bækgårdsvej,4140,2D,11.977317,55.497607
1257509,Bækgårdsvej,4140,2E,11.977219,55.497622
1257512,Bækgårdsvej,4140,2F,11.977128,55.497635
1257514,Bækgårdsvej,4140,2G,11.977046,55.49765
1257516,Bækgårdsvej,4140,2H,11.976956,55.497663
1257519,Bækgårdsvej,4140,2K,11.976867,55.497675
1257522,Bækgårdsvej,4140,2L,11.977346,55.49767
1257524,Bækgårdsvej,4140,2M,11.977284,55.49768
1257526,Bækgårdsvej,4140,2N,11.977224,55.497691
1257530,Bækgårdsvej,4140,2P,11.977162,55.497699
1257532,Bækgårdsvej,4140,2R,11.977105,55.497709
1257537,Bækgårdsvej,4140,2S,11.977052,55.497719
1257541,Bækgårdsvej,4140,2T,11.976992,55.497727
1257543,Bækgårdsvej,4140,2U,11.976939,55.497736
1257548,Bækgårdsvej,4140,2V,11.976879,55.497742
1257549,Bækgårdsvej,4140,4A,11.9769636,55.4968447
1257553,Bækgårdsvej,4140,4B,11.9768693,55.4968604
1257556,Bækgårdsvej,4140,5,11.9776708,55.496814
1257559,Bækgårdsvej,4140,6A,11.9768302,55.4965894
1257563,Bækgårdsvej,4140,6B,11.9767361,55.4966054
1257565,Bækgårdsvej,4140,7,11.9775068,55.4966482
1257567,Bækgårdsvej,4140,8A,11.976738,55.496315
1257569,Bækgårdsvej,4140,8B,11.9765476,55.4963508
1257571,Bækgårdsvej,4140,9,11.9775862,55.4964292
1257573,Bækgårdsvej,4140,10,11.9767558,55.4960185
1257575,Bækgårdsvej,4140,11,11.9773337,55.4962841
1257577,Bækgårdsvej,4140,12,11.9765527,55.4955829
1257579,Bækgårdsvej,4140,13,11.9772326,55.4960791
1257581,Bækgårdsvej,4140,14,11.9757375,55.4942467
1257583,Bækgårdsvej,4140,15,11.9771958,55.4958997
1257585,Bækgårdsvej,4140,16,11.9757573,55.4939659
1257586,Bækgårdsvej,4140,17,11.977121,55.4957269
1257589,Bækgårdsvej,4140,18,11.9753924,55.4940773
1257590,Bækgårdsvej,4140,19,11.976996,55.4955261
1257593,Bækgårdsvej,4140,21,11.976954,55.495385
1257594,Bækgårdsvej,4140,23,11.9765481,55.4945742
1257596,Bækgårdsvej,4140,25,11.9756481,55.4927778
1257599,Bækgårdsvej,4140,27,11.9754819,55.4926104
1257600,Bækgårdsvej,4140,29,11.9754173,55.4923936
1257602,Bækgårdsvej,4140,31,11.975248,55.4922228
1257604,Bækgårdsvej,4140,33A,11.9757706,55.4916512
1257606,Bækgårdsvej,4140,33B,11.9750731,55.4916988
1257608,Bækgårdsvej,4140,35,11.9750061,55.4913746
1257610,Bækgårdsvej,4140,37A,11.9746187,55.4911186
1257613,Bækgårdsvej,4140,37B,11.9757327,55.4909239
1257616,Bækgårdsvej,4140,41A,11.9742071,55.4903227
1257620,Bækgårdsvej,4140,41B,11.9741562,55.4898612
1257625,Bækgårdsvej,4140,43,11.9737612,55.4892982
1257627,Bækgårdsvej,4140,45A,11.9734597,55.4887798
1257633,Bækgårdsvej,4140,45B,11.9733464,55.4885224
1257636,Bækgårdsvej,4140,47,11.9728271,55.4878778
1257641,Bækgårdsvej,4140,49,11.9726061,55.4873818
1257646,Bækgårdsvej,4140,50B,11.9726312,55.4897762
1257652,Bækgårdsvej,4140,52,11.9716815,55.4899239
1257655,Bækgårdsvej,4140,53,11.973651,55.487205
1257660,Bækgårdsvej,4140,54A,11.9734107,55.4898141
1257664,Bækgårdsvej,4140,54B,11.9732197,55.489465
1257666,Bækgårdsvej,4140,54D,11.9722697,55.4891975
1257671,Bækgårdsvej,4140,55,11.974372,55.4870815
1257674,Bækgårdsvej,4140,56,11.9715252,55.4877901
1257677,Bækgårdsvej,4140,57,11.9733623,55.486944
1257680,Bækgårdsvej,4140,58,11.9707142,55.4867384
1257683,Bækgårdsvej,4140,59,11.972969,55.486999
1257685,Bækgårdsvej,4140,60,11.9705915,55.4858412
1257687,Bækgårdsvej,4140,62,11.9697477,55.4860656
1257689,Bækgårdsvej,4140,64,11.9693154,55.4854892
1257690,Bækgårdsvej,4140,66,11.9700339,55.4853419
1257692,Bækgårdsvej,4140,67,11.973064,55.4857131
1257695,Bækgårdsvej,4140,68,11.9707569,55.4853708
1257697,Bækgårdsvej,4140,69,11.9723427,55.4853839
1257699,Bækgårdsvej,4140,71,11.9716882,55.4853998
1257701,Bækgårdsvej,4140,72,11.9703816,55.4845252
1257703,Bækgårdsvej,4140,74,11.9697208,55.4839249
1257705,Bækgårdsvej,4140,76,11.9678572,55.4829866
1257707,Bækgårdsvej,4140,78,11.970106,55.482356
1257709,Bækgårdsvej,4140,80,11.9701574,55.4820545
1257712,Bækgårdsvej,4140,90,11.9718503,55.481301
1257939,Skrænten,4140,3,11.9818592,55.4945263
1257941,Skrænten,4140,5,11.9820634,55.4947356
1257943,Skrænten,4140,7,11.982162,55.4949347
1257944,Skrænten,4140,9,11.9823682,55.4951794
1257945,Skrænten,4140,11,11.982503,55.4953789
1257946,Skrænten,4140,13,11.9826781,55.4956392
1257947,Skrænten,4140,15,11.9827216,55.4958322
1257948,Skrænten,4140,17,11.9827901,55.4960591
1257949,Skrænten,4140,19,11.9830763,55.496269
1257950,Skrænten,4140,21,11.9831919,55.4964567
1258061,Lammestrupvej,4140,1B,11.9749183,55.5013148
1258064,Lammestrupvej,4140,1C,11.9744761,55.501463
1258068,Lammestrupvej,4140,1D,11.9672178,55.4991145
1258070,Lammestrupvej,4140,2A,11.9754256,55.5014997
1258073,Lammestrupvej,4140,2B,11.9752752,55.5016179
1258074,Lammestrupvej,4140,3A,11.9488304,55.5090728
1258077,Lammestrupvej,4140,3B,11.9476858,55.5093975
1258078,Lammestrupvej,4140,4,11.975024,55.5016783
1258083,Lammestrupvej,4140,5A,11.9473581,55.5104888
1258084,Lammestrupvej,4140,5B,11.9473401,55.5106481
1258091,Lammestrupvej,4140,6,11.9747071,55.5018219
1258094,Lammestrupvej,4140,8,11.974241,55.5020752
1258099,Lammestrupvej,4140,10,11.9729748,55.5031561
1258101,Lammestrupvej,4140,11,11.9472728,55.5109304
1258105,Lammestrupvej,4140,12A,11.9734285,55.5028966
1258106,Lammestrupvej,4140,12B,11.9730096,55.5026916
1258111,Lammestrupvej,4140,13,11.9469221,55.5118819
1258113,Lammestrupvej,4140,14A,11.9637811,55.5067911
1258116,Lammestrupvej,4140,14B,11.962641,55.506863
1258117,Lammestrupvej,4140,15,11.9466649,55.5138771
1258121,Lammestrupvej,4140,16,11.9601601,55.5073985
1258123,Lammestrupvej,4140,17,11.9462641,55.5160018
1258124,Lammestrupvej,4140,18,11.9552904,55.5086548
1258127,Lammestrupvej,4140,19,11.9461392,55.5180706
1258129,Lammestrupvej,4140,20,11.9487102,55.509477
1258131,Lammestrupvej,4140,21,11.944137,55.520943
1258133,Lammestrupvej,4140,22,11.948239,55.509847
1258136,Lammestrupvej,4140,23,11.941414,55.5223049
1258138,Lammestrupvej,4140,24,11.9473332,55.5128814
1258141,Lammestrupvej,4140,25,11.9391167,55.5236038
1258142,Lammestrupvej,4140,26,11.9474483,55.513681
1258145,Lammestrupvej,4140,27,11.937742,55.52444
1258147,Lammestrupvej,4140,28,11.947068,55.515041
1258149,Lammestrupvej,4140,29,11.937527,55.5246676
1258151,Lammestrupvej,4140,30,11.9469282,55.5153192
1258154,Lammestrupvej,4140,31,11.9371417,55.5247824
1258155,Lammestrupvej,4140,32,11.9468746,55.5154546
1258157,Lammestrupvej,4140,33A,11.9367772,55.524889
1258159,Lammestrupvej,4140,33B,11.9363837,55.5248901
1258161,Lammestrupvej,4140,33C,11.9359526,55.5248071
1258163,Lammestrupvej,4140,33D,11.9353194,55.5250677
1258165,Lammestrupvej,4140,34,11.9468219,55.5158853
1258167,Lammestrupvej,4140,35,11.9348801,55.525068
1258170,Lammestrupvej,4140,36,11.9532121,55.5148003
1258173,Lammestrupvej,4140,37,11.9344827,55.5251077
1258178,Lammestrupvej,4140,38,11.946836,55.517577
1258180,Lammestrupvej,4140,39,11.934112,55.5249774
1258184,Lammestrupvej,4140,40,11.9369255,55.5251337
1258185,Lammestrupvej,4140,41,11.9333425,55.5252571
1258186,Lammestrupvej,4140,42,11.9365799,55.5252151
1258187,Lammestrupvej,4140,43,11.931747,55.5254
1258188,Lammestrupvej,4140,44A,11.9318282,55.526256
1258189,Lammestrupvej,4140,44B,11.9312701,55.5258622
1258190,Lammestrupvej,4140,45,11.9299788,55.5260689
1258191,Lammestrupvej,4140,46,11.9309278,55.5257536
1258192,Lammestrupvej,4140,47,11.9296496,55.5265332
1258193,Lammestrupvej,4140,48A,11.930581,55.525862
1258194,Lammestrupvej,4140,48B,11.9304797,55.526122
1258195,Lammestrupvej,4140,49,11.9286676,55.5266503
1258196,Lammestrupvej,4140,50,11.9277247,55.5282283
1258197,Lammestrupvej,4140,51,11.9284139,55.5267922
1258198,Lammestrupvej,4140,53,11.9280245,55.5268444
1258199,Lammestrupvej,4140,55,11.9276936,55.5269174
1258544,Kulmosevej,4140,1,11.9723908,55.4908017
1258550,Kulmosevej,4140,2,11.9717266,55.4908306
1258555,Kulmosevej,4140,3,11.9722402,55.490595
1258557,Kulmosevej,4140,4,11.971777,55.490668
1258562,Kulmosevej,4140,5,11.9720567,55.4903008
1258564,Kulmosevej,4140,6,11.9716465,55.4903906
1258570,Kulmosevej,4140,8,11.971623,55.4902206
1258762,Kimmerslevvej,4140,1,11.9727829,55.4915202
1258764,Kimmerslevvej,4140,3,11.9735088,55.491213
1258766,Kimmerslevvej,4140,4,11.9724547,55.4912356
1258767,Kimmerslevvej,4140,6,11.9731884,55.4909817
1258768,Kimmerslevvej,4140,7,11.9762941,55.4899235
1258770,Kimmerslevvej,4140,8,11.9735,55.490826
1258771,Kimmerslevvej,4140,9,11.9766694,55.4897242
1258772,Kimmerslevvej,4140,11,11.9809562,55.4865591
1258774,Kimmerslevvej,4140,13,11.9814337,55.4854638
1258775,Kimmerslevvej,4140,14,11.9746315,55.4904004
1258778,Kimmerslevvej,4140,15,11.9817064,55.4851682
1258779,Kimmerslevvej,4140,16,11.9746537,55.4901316
1258781,Kimmerslevvej,4140,17,11.9821678,55.4840552
1258782,Kimmerslevvej,4140,18,11.974965,55.4901892
1258783,Kimmerslevvej,4140,20A,11.9752008,55.4901042
1258784,Kimmerslevvej,4140,20B,11.974678,55.4896682
1258785,Kimmerslevvej,4140,20C,11.9755142,55.4897093
1258786,Kimmerslevvej,4140,22,11.9756314,55.4899914
1258787,Kimmerslevvej,4140,24,11.9758586,55.4898901
1258788,Kimmerslevvej,4140,26,11.9759543,55.4896639
1258789,Kimmerslevvej,4140,28,11.9762904,55.4894528
1258790,Kimmerslevvej,4140,30,11.9769139,55.4888759
1258791,Kimmerslevvej,4140,32,11.9813234,55.4841754
1258792,Kimmerslevvej,4140,34,11.9825624,55.4829186
1259486,Krogvej,4140,1,11.9328196,55.5251828
1259502,Krogvej,4140,2,11.9323695,55.5252209
1259506,Krogvej,4140,3,11.9331595,55.5247257
1259519,Krogvej,4140,4,11.932486,55.524996
1259533,Krogvej,4140,5,11.9334593,55.5245555
1259538,Krogvej,4140,6,11.932578,55.524734
1259552,Krogvej,4140,7,11.9337586,55.5244137
1259568,Krogvej,4140,8,11.9328772,55.524529
1259574,Krogvej,4140,9,11.9340657,55.5242285
1259590,Krogvej,4140,10,11.9330446,55.5243303
1259607,Krogvej,4140,11,11.9342713,55.5244001
1259618,Krogvej,4140,12,11.9332281,55.5241084
1259640,Krogvej,4140,13,11.9347835,55.524412
1259653,Krogvej,4140,14,11.9333355,55.5238912
1259664,Krogvej,4140,15,11.9351753,55.5245367
1259680,Krogvej,4140,16,11.93338,55.523671
1259694,Krogvej,4140,18,11.9336686,55.5238827
1259713,Krogvej,4140,20A,11.9341553,55.5239901
1259730,Krogvej,4140,20B,11.9344717,55.5240648
1259736,Krogvej,4140,22,11.9348612,55.5241337
1259745,Krogvej,4140,24,11.9351978,55.524176
1259761,Krogvej,4140,26,11.9355775,55.5242647
1259768,Krogvej,4140,28,11.9360789,55.5242373
1259784,Krogvej,4140,30,11.9365534,55.5243193
1259799,Krogvej,4140,32,11.936104,55.5244342
1260384,Urupvej,4140,1,11.991581,55.513417
1260391,Urupvej,4140,1A,11.9917695,55.5133467
1260397,Urupvej,4140,1B,11.991581,55.513417
1260398,Urupvej,4140,2,11.991551,55.5151332
1260407,Urupvej,4140,3,11.9876858,55.5141667
1260409,Urupvej,4140,4,11.990345,55.515781
1260415,Urupvej,4140,6A,11.9939022,55.5210559
1260418,Urupvej,4140,6B,11.9923618,55.5196084
1260420,Urupvej,4140,7,11.9889532,55.5203844
1260424,Urupvej,4140,8,11.9899963,55.5199546
1260426,Urupvej,4140,9,11.9886236,55.5210419
1260430,Urupvej,4140,10,11.9894911,55.5213962
1260433,Urupvej,4140,11,11.9860738,55.5231313
1260435,Urupvej,4140,12,11.9865452,55.5247007
1260440,Urupvej,4140,15,11.9849054,55.5242734
1260448,Krotoften,4140,1,11.9789103,55.4936847
1260449,Krotoften,4140,3,11.9787926,55.4935118
1260450,Krotoften,4140,5,11.9786715,55.4933287
1260451,Krotoften,4140,7,11.978562,55.49313
1260452,Krotoften,4140,9,11.9784654,55.4929327
1260453,Krotoften,4140,11,11.978409,55.4927379
1260454,Krotoften,4140,13,11.9783167,55.4925621
1260455,Krotoften,4140,14,11.977561,55.4923083
1260456,Krotoften,4140,15,11.9781811,55.4923732
1260457,Krotoften,4140,16,11.9771814,55.4922912
1260458,Krotoften,4140,17,11.9781579,55.4921913
1260459,Krotoften,4140,18,11.9766674,55.4923603
1260460,Krotoften,4140,19,11.9780833,55.4919697
1260461,Krotoften,4140,20,11.9761594,55.4923982
1260462,Krotoften,4140,21,11.9788954,55.4919153
1260463,Krotoften,4140,22,11.9760476,55.4921257
1260464,Krotoften,4140,23,11.9789421,55.49208
1260465,Krotoften,4140,24,11.9764677,55.4921203
1260466,Krotoften,4140,25,11.9790577,55.4922607
1260467,Krotoften,4140,26,11.9768119,55.4921007
1260469,Krotoften,4140,27,11.9791587,55.4924083
1260471,Krotoften,4140,28,11.9770779,55.4920663
1260473,Krotoften,4140,29,11.979264,55.4926377
1260476,Krotoften,4140,30,11.9774697,55.4920247
1260477,Krotoften,4140,31,11.9793471,55.4928068
1260479,Krotoften,4140,32,11.9776095,55.4918151
1260480,Krotoften,4140,33,11.9794576,55.4929762
1260481,Krotoften,4140,34,11.9778141,55.4916704
1260482,Krotoften,4140,35,11.9795612,55.4931412
1260483,Krotoften,4140,36,11.9780883,55.4916187
1260484,Krotoften,4140,37,11.9796521,55.4932818
1260485,Krotoften,4140,38,11.9783546,55.4916453
1260486,Krotoften,4140,39,11.9798072,55.49352
1260487,Krotoften,4140,40,11.9783043,55.491306
1260488,Krotoften,4140,42,11.9783206,55.4911229
1260489,Krotoften,4140,44,11.9784861,55.490943
1260490,Krotoften,4140,46,11.9788194,55.4909145
1260491,Krotoften,4140,48,11.9791146,55.4911737
1260492,Krotoften,4140,50,11.9789345,55.4913051
1260493,Krotoften,4140,52,11.978832,55.4916552
1260494,Krotoften,4140,54,11.9791732,55.4916166
1260495,Krotoften,4140,56,11.9793808,55.4918266
1260496,Krotoften,4140,58,11.9793827,55.492005
1260497,Krotoften,4140,60,11.9795278,55.4922171
1260498,Krotoften,4140,62,11.9795905,55.4924442
1260499,Krotoften,4140,64,11.979692,55.4926241
1260500,Krotoften,4140,66,11.9798836,55.4928913
1260501,Krotoften,4140,68,11.9799917,55.4931267
1260503,Krotoften,4140,70,11.9801341,55.4933361
1260504,Krotoften,4140,72,11.9805,55.493461
1260584,Gammerødvej,4140,1,11.9797314,55.5241025
1260587,Gammerødvej,4140,2,11.9834013,55.524024
1260588,Gammerødvej,4140,3,11.9808178,55.5241134
1260591,Gammerødvej,4140,4,11.9834059,55.5245083
1260593,Gammerødvej,4140,5,11.982071,55.5241767
1260594,Gammerødvej,4140,6,11.9861903,55.5262545
1260612,Sønderled,4140,1,11.9733476,55.490421
1260613,Sønderled,4140,2,11.9731097,55.4906647
1260614,Sønderled,4140,3,11.9734504,55.4902088
1260615,Sønderled,4140,4,11.972988,55.4903928
1260763,Kulerupvej,4140,3,11.9908076,55.4666398
1260766,Kulerupvej,4140,4,11.9896347,55.4662797
1260767,Kulerupvej,4140,5,11.9908891,55.4659337
1260769,Kulerupvej,4140,6,11.9903487,55.4649793
1260771,Kulerupvej,4140,7,11.9907426,55.4653351
1260773,Kulerupvej,4140,8,11.9903991,55.4647671
1260774,Kulerupvej,4140,9A,11.9916547,55.4654187
1260775,Kulerupvej,4140,9B,11.991797,55.4652128
1260776,Kulerupvej,4140,9C,11.9911213,55.4650228
1260777,Kulerupvej,4140,9D,11.991198,55.46484
1260778,Kulerupvej,4140,11,11.9896549,55.4624667
1260779,Kulerupvej,4140,12,11.990662,55.464335
1260782,Kulerupvej,4140,14,11.9903115,55.46427
1260784,Kulerupvej,4140,16,11.989988,55.464101
1260785,Kulerupvej,4140,22,11.9895973,55.4639686
1260786,Kulerupvej,4140,24,11.9893616,55.4642228
1260787,Kulerupvej,4140,26A,11.9878063,55.4640178
1260788,Kulerupvej,4140,26B,11.9882869,55.4637212
1260789,Kulerupvej,4140,28A,11.9886108,55.463797
1260790,Kulerupvej,4140,28B,11.9887918,55.464006
1260791,Kulerupvej,4140,30,11.9874538,55.4629649
1260792,Kulerupvej,4140,32A,11.9894221,55.4637069
1260793,Kulerupvej,4140,32B,11.9894027,55.4636457
1260794,Kulerupvej,4140,34,11.989071,55.4627638
1260796,Kulerupvej,4140,36,11.9876543,55.4623877
1261051,Buen,4140,1,12.0093673,55.4808306
1261055,Buen,4140,3,12.008749,55.4809742
1261059,Buen,4140,5,12.0083953,55.4810563
1261061,Buen,4140,10,12.0058382,55.4805183
1261064,Buen,4140,12,12.0061663,55.4806373
1261069,Buen,4140,14,12.0059214,55.4808367
1261071,Buen,4140,16,12.0057222,55.4809917
1261075,Buen,4140,17,12.0056755,55.4800547
1261078,Buen,4140,18,12.0053044,55.4809601
1261080,Buen,4140,19,12.0060102,55.4801663
1261086,Buen,4140,20,12.005509,55.4807457
1261087,Buen,4140,21,12.0065799,55.4802995
1261094,Buen,4140,22,12.0050569,55.4806043
1261095,Buen,4140,23,12.006723,55.479933
1261096,Buen,4140,24,12.0048427,55.4808694
1261097,Buen,4140,25,12.0068931,55.4798279
1261099,Buen,4140,26,12.0046313,55.4806317
1261101,Buen,4140,27,12.0065191,55.4796943
1261104,Buen,4140,28,12.0047009,55.4804156
1261106,Buen,4140,29,12.0062333,55.4799006
1261107,Buen,4140,30,12.0048481,55.4802113
1261109,Buen,4140,31,12.0058637,55.4797496
1261110,Buen,4140,32,12.0053168,55.4803102
1261111,Buen,4140,33,12.0060307,55.4795704
1261112,Buen,4140,34,12.0044855,55.480039
1261113,Buen,4140,35,12.0054918,55.4793645
1261114,Buen,4140,37,12.0054372,55.4796288
1261115,Buen,4140,39,12.0051568,55.4792547
1261116,Buen,4140,41,12.0048793,55.4794963
1261117,Buen,4140,43,12.0047436,55.4796814
1261118,Buen,4140,45,12.0050759,55.4798315
1261162,Krovænget,4140,1A,11.9760564,55.4932186
1261163,Krovænget,4140,1B,11.9761352,55.4933804
1261164,Krovænget,4140,1C,11.9761943,55.4935023
1261165,Krovænget,4140,1D,11.9762444,55.4936048
1261166,Krovænget,4140,2,11.976078,55.4929053
1261167,Krovænget,4140,3A,11.9771738,55.4932977
1261168,Krovænget,4140,3B,11.9770682,55.4930835
1261169,Krovænget,4140,4,11.9763386,55.492795
1261170,Krovænget,4140,5,11.9777528,55.4929683
1261172,Krovænget,4140,6,11.9767336,55.492788
1261173,Krovænget,4140,7,11.9778212,55.4931088
1261176,Krovænget,4140,8,11.9770509,55.492715
1261178,Krovænget,4140,9,11.9778952,55.4932606
1261179,Krovænget,4140,10,11.9774029,55.4926453
1261182,Krovænget,4140,12,11.9777253,55.4925884
1261326,Ved Lygtebanke,4140,1,11.940202,55.4649601
1261328,Ved Lygtebanke,4140,2,11.9405436,55.4645529
1261330,Ved Lygtebanke,4140,3,11.9408138,55.4651101
1261333,Ved Lygtebanke,4140,4,11.9408955,55.4646089
1261335,Ved Lygtebanke,4140,5,11.9412528,55.4652934
1261337,Ved Lygtebanke,4140,6,11.9413565,55.4649744
1261339,Ved Lygtebanke,4140,7,11.941945,55.4655553
1261341,Ved Lygtebanke,4140,8,11.941953,55.465158
1261343,Ved Lygtebanke,4140,9,11.9423035,55.465653
1261345,Ved Lygtebanke,4140,10,11.9425264,55.4654133
1261565,Dyndetvej,4140,1,11.9808182,55.4830814
1261567,Dyndetvej,4140,2,11.9798409,55.4834726
1261571,Dyndetvej,4140,3,11.9805103,55.4826866
1261576,Dyndetvej,4140,4,11.9789051,55.4825852
1261578,Dyndetvej,4140,5A,11.9801279,55.4822798
1261581,Dyndetvej,4140,5B,11.9789189,55.482104
1261583,Dyndetvej,4140,5C,11.9783676,55.4818607
1261586,Dyndetvej,4140,6,11.9688244,55.4784147
1261590,Dyndetvej,4140,7A,11.9753065,55.4788637
1261591,Dyndetvej,4140,7B,11.9714216,55.4776274
1261594,Dyndetvej,4140,8,11.9679528,55.4804367
1261595,Dyndetvej,4140,9,11.9705729,55.4763201
1261599,Dyndetvej,4140,10,11.966617,55.4784966
1261602,Dyndetvej,4140,11,11.9680013,55.4780611
1261603,Dyndetvej,4140,12,11.9649218,55.4785423
1261608,Dyndetvej,4140,13,11.9642313,55.4781562
1261609,Dyndetvej,4140,14,11.9625986,55.4786491
1261613,Dyndetvej,4140,15A,11.9596202,55.4766741
1261615,Dyndetvej,4140,15B,11.9599377,55.4767834
1261616,Dyndetvej,4140,16,11.9625654,55.4811858
1261619,Dyndetvej,4140,17,11.9593622,55.4761341
1261620,Dyndetvej,4140,18,11.9525012,55.4750786
1261622,Dyndetvej,4140,19A,11.9484929,55.4675899
1261625,Dyndetvej,4140,19B,11.9477766,55.4663102
1261626,Dyndetvej,4140,20,11.9504876,55.4738026
1261628,Dyndetvej,4140,21,11.9463181,55.466001
1261630,Dyndetvej,4140,22,11.9442953,55.4696255
1261633,Dyndetvej,4140,23A,11.9468046,55.4660328
1261635,Dyndetvej,4140,23B,11.9431434,55.4653214
1261637,Dyndetvej,4140,24,11.9471343,55.466261
1261640,Dyndetvej,4140,28,11.9437024,55.4659958
1261641,Dyndetvej,4140,30,11.9435281,55.4656488
1261644,Dyndetvej,4140,32,11.9425443,55.4662594
1261824,Ravneshave,4140,1,12.0238739,55.473176
1261827,Ravneshave,4140,2,12.0208865,55.4738953
1261829,Ravneshave,4140,4,12.020272,55.473508
1261831,Ravneshave,4140,6,12.0324768,55.4730777
1261833,Ravneshave,4140,8,12.0186854,55.4660088
1261970,Skovbrynet,4140,1,11.9799259,55.5090875
1261971,Skovbrynet,4140,2,11.9798344,55.5088296
1261972,Skovbrynet,4140,3,11.9803623,55.5091256
1261973,Skovbrynet,4140,4,11.9804659,55.5088642
1261974,Skovbrynet,4140,5,11.9804415,55.5093242
1261976,Skovbrynet,4140,6,11.9805925,55.5086344
1261978,Skovbrynet,4140,7,11.9804249,55.5095334
1261980,Skovbrynet,4140,8,11.9806211,55.5084124
1261982,Skovbrynet,4140,9,11.9804527,55.5097823
1261985,Skovbrynet,4140,10,11.9806639,55.5082264
1261988,Skovbrynet,4140,11,11.980428,55.5099962
1261989,Skovbrynet,4140,12,11.9806778,55.508042
1261992,Skovbrynet,4140,13,11.9803785,55.5102629
1261993,Skovbrynet,4140,14,11.9811139,55.5080834
1261995,Skovbrynet,4140,15,11.9809121,55.5103107
1261997,Skovbrynet,4140,16,11.9815903,55.5081255
1261999,Skovbrynet,4140,17,11.9814937,55.5103827
1262002,Skovbrynet,4140,18,11.9810565,55.508371
1262003,Skovbrynet,4140,19,11.9818749,55.5104368
1262005,Skovbrynet,4140,20,11.9810272,55.5086177
1262007,Skovbrynet,4140,21,11.981924,55.51022
1262008,Skovbrynet,4140,22,11.9809899,55.5088512
1262009,Skovbrynet,4140,23,11.9819732,55.5099577
1262010,Skovbrynet,4140,24,11.9809336,55.5090878
1262011,Skovbrynet,4140,25,11.9820516,55.5096866
1262012,Skovbrynet,4140,26,11.980935,55.509286
1262013,Skovbrynet,4140,27,11.9822245,55.5094631
1262014,Skovbrynet,4140,28,11.9808854,55.5095634
1262015,Skovbrynet,4140,29,11.9821883,55.5092013
1262016,Skovbrynet,4140,30,11.9809335,55.5097698
1262017,Skovbrynet,4140,31,11.9822644,55.5089366
1262018,Skovbrynet,4140,32,11.9809809,55.51009
1262021,Skovbrynet,4140,33,11.9823433,55.508727
1262022,Skovbrynet,4140,34,11.981376,55.5101063
1262024,Skovbrynet,4140,35,11.982464,55.5084656
1262025,Skovbrynet,4140,36,11.9816056,55.5098758
1262026,Skovbrynet,4140,37,11.9825846,55.508221
1262027,Skovbrynet,4140,38,11.9816809,55.5096276
1262028,Skovbrynet,4140,40,11.9817432,55.5093769
1262029,Skovbrynet,4140,42,11.9817877,55.5091224
1262030,Skovbrynet,4140,44,11.9818529,55.5089042
1262031,Skovbrynet,4140,46,11.9819201,55.5086628
1262032,Skovbrynet,4140,48,11.981967,55.508453
1262033,Skovbrynet,4140,50,11.9822172,55.5081791
1262034,Skovbrynet,4140,52,11.9822777,55.5080089
1262035,Skovbrynet,4140,54,11.980146,55.508898
1262608,Odinsvej,4140,1A,11.941821,55.4668469
1262611,Odinsvej,4140,1B,11.9417337,55.4665862
1262614,Odinsvej,4140,2,11.9411275,55.466675
1262615,Odinsvej,4140,3,11.9422325,55.4663869
1262617,Odinsvej,4140,4,11.9411186,55.4663132
1262619,Odinsvej,4140,5,11.9422282,55.465867
1262621,Odinsvej,4140,6,11.9411813,55.4660144
1262623,Odinsvej,4140,7,11.9419075,55.465863
1262625,Odinsvej,4140,9,11.9413154,55.4657638
1262698,Engdraget,4140,1,11.9297697,55.5267307
1262700,Engdraget,4140,2,11.93038,55.526399
1262702,Engdraget,4140,3,11.9301211,55.5267303
1262705,Engdraget,4140,4,11.9306958,55.5264623
1262707,Engdraget,4140,5,11.9304113,55.5267513
1262708,Engdraget,4140,6,11.9309784,55.5260951
1262711,Engdraget,4140,7,11.930685,55.526791
1262713,Engdraget,4140,8,11.9310497,55.5264381
1262715,Engdraget,4140,9,11.931032,55.5267055
1262717,Engdraget,4140,10,11.9313478,55.5264384
1262719,Engdraget,4140,11,11.931349,55.5267595
1262721,Engdraget,4140,13,11.931625,55.5267091
1263137,Hovedgaden,4140,1A,11.9724496,55.4917314
1263139,Hovedgaden,4140,1B,11.9723791,55.4918556
1263140,Hovedgaden,4140,2,11.973213,55.4916356
1263141,Hovedgaden,4140,3,11.9724973,55.492064
1263142,Hovedgaden,4140,4,11.9729872,55.4918569
1263143,Hovedgaden,4140,5,11.9726129,55.4922591
1263144,Hovedgaden,4140,6,11.9730802,55.4920182
1263145,Hovedgaden,4140,7A,11.9722927,55.4926089
1263146,Hovedgaden,4140,7B,11.9728422,55.4926023
1263147,Hovedgaden,4140,7C,11.9723728,55.4928494
1263148,Hovedgaden,4140,7D,11.9727092,55.4928881
1263150,Hovedgaden,4140,8,11.9732126,55.4922242
1263152,Hovedgaden,4140,9,11.973059,55.4930932
1263154,Hovedgaden,4140,10A,11.9735922,55.4926458
1263155,Hovedgaden,4140,10B,11.973618,55.493033
1263157,Hovedgaden,4140,11,11.9725836,55.4931854
1263158,Hovedgaden,4140,12,11.972661,55.4935407
1263160,Hovedgaden,4140,16A,11.972902,55.494755
1263162,Hovedgaden,4140,16B,11.972923,55.494919
1263164,Hovedgaden,4140,17A,11.9730505,55.4964899
1263165,Hovedgaden,4140,17B,11.9731901,55.4965248
1263166,Hovedgaden,4140,18,11.9728073,55.4954654
1263167,Hovedgaden,4140,19,11.9734912,55.4967007
1263168,Hovedgaden,4140,20,11.972863,55.49562
1263169,Hovedgaden,4140,21,11.9736543,55.4967868
1263170,Hovedgaden,4140,22,11.9728772,55.495778
1263171,Hovedgaden,4140,23A,11.9738515,55.4968907
1263172,Hovedgaden,4140,23B,11.9739145,55.4969249
1263173,Hovedgaden,4140,23C,11.9739094,55.4970113
1263174,Hovedgaden,4140,24,11.9729327,55.4960452
1263175,Hovedgaden,4140,25,11.9741913,55.4970621
1263176,Hovedgaden,4140,26,11.9729669,55.4961487
1263177,Hovedgaden,4140,27,11.9742898,55.497116
1263178,Hovedgaden,4140,28A,11.9730848,55.4962414
1263179,Hovedgaden,4140,28B,11.9730848,55.4962414
1263181,Hovedgaden,4140,28C,11.9730848,55.4962414
1263183,Hovedgaden,4140,28D,11.9730848,55.4962414
1263184,Hovedgaden,4140,29,11.9746162,55.4973463
1263186,Hovedgaden,4140,30,11.9733091,55.4963684
1263187,Hovedgaden,4140,31,11.9748839,55.4974778
1263189,Hovedgaden,4140,32,11.9735048,55.4964836
1263191,Hovedgaden,4140,33,11.9751022,55.4976688
1263192,Hovedgaden,4140,34A,11.9736748,55.4965706
1263195,Hovedgaden,4140,34B,11.9738536,55.4965221
1263196,Hovedgaden,4140,35A,11.9752574,55.4977133
1263198,Hovedgaden,4140,35B,11.9754178,55.4977768
1263201,Hovedgaden,4140,36,11.9740169,55.4967622
1263202,Hovedgaden,4140,37,11.9755151,55.4980776
1263205,Hovedgaden,4140,38,11.974242,55.4968403
1263206,Hovedgaden,4140,39,11.9748076,55.498528
1263208,Hovedgaden,4140,40,11.9743621,55.4969222
1263210,Hovedgaden,4140,41,11.9760256,55.4995224
1263212,Hovedgaden,4140,42,11.9744175,55.4969732
1263214,Hovedgaden,4140,43,11.9746846,55.4994958
1263217,Hovedgaden,4140,44,11.9745363,55.4970174
1263219,Hovedgaden,4140,46,11.9747149,55.4971162
1263221,Hovedgaden,4140,48A,11.9748986,55.497254
1263223,Hovedgaden,4140,48B,11.9751795,55.497139
1263225,Hovedgaden,4140,50A,11.9751241,55.4973754
1263226,Hovedgaden,4140,50B,11.9752691,55.4973047
1263227,Hovedgaden,4140,51,11.975603,55.5007563
1263228,Hovedgaden,4140,52A,11.9752653,55.4974135
1263229,Hovedgaden,4140,52B,11.9753654,55.4974707
1263230,Hovedgaden,4140,52C,11.9752972,55.4974709
1263231,Hovedgaden,4140,52D,11.975497,55.497401
1263232,Hovedgaden,4140,53A,11.9758437,55.5014612
1263233,Hovedgaden,4140,53B,11.9762103,55.5016604
1263234,Hovedgaden,4140,54,11.9756938,55.4974423
1263235,Hovedgaden,4140,54A,11.975483,55.497578
1263236,Hovedgaden,4140,54B,11.9755497,55.4976184
1263237,Hovedgaden,4140,54C,11.9756162,55.4976582
1263238,Hovedgaden,4140,54D,11.975556,55.497537
1263239,Hovedgaden,4140,54E,11.97562,55.497573
1263240,Hovedgaden,4140,54F,11.975693,55.49761
1263241,Hovedgaden,4140,54G,11.975898,55.497565
1263242,Hovedgaden,4140,54H,11.975965,55.497529
1263245,Hovedgaden,4140,54K,11.976037,55.497491
1263246,Hovedgaden,4140,54L,11.975818,55.497523
1263247,Hovedgaden,4140,54M,11.975887,55.497485
1263249,Hovedgaden,4140,54N,11.975953,55.49745
1263250,Hovedgaden,4140,55A,11.976421,55.501877
1263252,Hovedgaden,4140,55B,11.976468,55.501941
1263253,Hovedgaden,4140,55C,11.976448,55.501984
1263256,Hovedgaden,4140,56A,11.9761333,55.4979379
1263257,Hovedgaden,4140,56B,11.9761874,55.4979883
1263260,Hovedgaden,4140,56C,11.9762427,55.4980395
1263262,Hovedgaden,4140,56D,11.9762996,55.4980921
1263263,Hovedgaden,4140,56E,11.9765119,55.4982497
1263266,Hovedgaden,4140,56F,11.9765835,55.4983361
1263267,Hovedgaden,4140,56G,11.976648,55.4984114
1263270,Hovedgaden,4140,56H,11.9766242,55.4984595
1263272,Hovedgaden,4140,56K,11.9765899,55.4984149
1263273,Hovedgaden,4140,56L,11.9765562,55.4983804
1263276,Hovedgaden,4140,56M,11.9765089,55.4983334
1263277,Hovedgaden,4140,56N,11.9764799,55.4982942
1263282,Hovedgaden,4140,56O,11.976446,55.498251
1263285,Hovedgaden,4140,57,11.9764534,55.5022263
1263287,Hovedgaden,4140,58A,11.977343,55.498245
1263292,Hovedgaden,4140,58B,11.9775193,55.4983676
1263295,Hovedgaden,4140,58C,11.9768379,55.4981826
1263299,Hovedgaden,4140,58D,11.9772734,55.4984596
1263300,Hovedgaden,4140,58F,11.9774777,55.4977632
1263303,Hovedgaden,4140,59,11.9765931,55.5024138
1263305,Hovedgaden,4140,60,11.9774216,55.4987867
1263307,Hovedgaden,4140,60A,11.9773948,55.4987302
1263309,Hovedgaden,4140,60E,11.9775695,55.4991046
1263310,Hovedgaden,4140,60F,11.9772098,55.4987377
1263313,Hovedgaden,4140,61,11.976688,55.5026034
1263316,Hovedgaden,4140,62,11.9770637,55.4984701
1263317,Hovedgaden,4140,63,11.9769051,55.5029021
1263319,Hovedgaden,4140,64B,11.9774405,55.4991438
1263323,Hovedgaden,4140,64C,11.9773365,55.4991584
1263327,Hovedgaden,4140,64D,11.977425,55.4993348
1263329,Hovedgaden,4140,64E,11.9774235,55.4993274
1263331,Hovedgaden,4140,65,11.9763673,55.5031301
1263333,Hovedgaden,4140,65A,11.9742587,55.5034679
1263336,Hovedgaden,4140,66,11.977085,55.499638
1263341,Hovedgaden,4140,67,11.9758737,55.5030977
1263348,Hovedgaden,4140,72,11.9772446,55.5009008
1263352,Hovedgaden,4140,76,11.9774566,55.5027976
1263488,Almsvej,4140,1,12.003996,55.4802823
1263489,Almsvej,4140,2,12.0032064,55.4809885
1263493,Almsvej,4140,3,12.0066329,55.4777457
1263496,Almsvej,4140,4,12.0032891,55.4807778
1263497,Almsvej,4140,4A,12.0036846,55.4787254
1263500,Almsvej,4140,5,12.0093982,55.4749298
1263502,Almsvej,4140,6,12.0071074,55.4765902
1263503,Almsvej,4140,8,12.0083612,55.4755051
1263506,Almsvej,4140,10,12.0101971,55.4736791
1263765,Borupvej,4140,65,11.9256786,55.4983576
1263767,Borupvej,4140,67,11.9272658,55.497185
1263769,Borupvej,4140,68,11.925375,55.498292
1263770,Borupvej,4140,69,11.9285194,55.4983673
1263772,Borupvej,4140,70,11.925255,55.4970063
1263773,Borupvej,4140,71,11.9294596,55.4956648
1263775,Borupvej,4140,71A,11.9298579,55.4958417
1263777,Borupvej,4140,72,11.9267449,55.4970813
1263778,Borupvej,4140,74,11.931686,55.493488
1263779,Borupvej,4140,76,11.9318431,55.4928546
1263780,Borupvej,4140,78,11.932065,55.492845
1263781,Borupvej,4140,80A,11.9341542,55.4929524
1263782,Borupvej,4140,80B,11.9339383,55.4928587
1263783,Borupvej,4140,82,11.9361291,55.4929794
1263784,Borupvej,4140,84,11.9374134,55.4930364
1263785,Borupvej,4140,86A,11.9398337,55.4930922
1263788,Borupvej,4140,86B,11.9398287,55.4929067
1263789,Borupvej,4140,88,11.9460334,55.4911921
1263790,Borupvej,4140,90A,11.9518674,55.4913401
1263791,Borupvej,4140,90B,11.9513233,55.491363
1263792,Borupvej,4140,92,11.9526444,55.4920975
1263793,Borupvej,4140,94,11.9534636,55.4913827
1263796,Borupvej,4140,96,11.9542583,55.4914306
1263798,Borupvej,4140,98A,11.9549673,55.4918182
1263802,Borupvej,4140,98B,11.9555119,55.4917866
1263803,Borupvej,4140,100,11.9552956,55.4921017
1263807,Borupvej,4140,102A,11.9537996,55.4929398
1263812,Borupvej,4140,106,11.9578549,55.4915417
1263815,Borupvej,4140,108,11.9554542,55.4866837
1263817,Borupvej,4140,110,11.9603906,55.4809323
1263821,Borupvej,4140,120,11.971934,55.4912271
1264011,Stubberupvej,4140,1,11.9389177,55.5168986
1264014,Stubberupvej,4140,2,11.9429529,55.5172117
1264016,Stubberupvej,4140,3,11.929601,55.5188864
1264018,Stubberupvej,4140,4A,11.936084,55.517552
1264021,Stubberupvej,4140,4B,11.935138,55.517546
1264025,Stubberupvej,4140,5,11.9295248,55.5206306
1264029,Stubberupvej,4140,6,11.9324153,55.5166181
1264031,Stubberupvej,4140,7,11.9295311,55.5208301
1264037,Stubberupvej,4140,8,11.9300284,55.5191778
1264038,Stubberupvej,4140,9,11.9296893,55.52104
1264041,Stubberupvej,4140,10,11.9303321,55.5247989
1264043,Stubberupvej,4140,11,11.929624,55.521391
1264045,Stubberupvej,4140,13,11.9293977,55.5216597
1264050,Stubberupvej,4140,15,11.9293924,55.5233868
1264051,Stubberupvej,4140,17,11.9299332,55.523804
1264055,Stubberupvej,4140,19,11.9296274,55.5243249
1264058,Stubberupvej,4140,21,11.9284013,55.5251857
1264061,Stubberupvej,4140,23A,11.9282004,55.5254995
1264063,Stubberupvej,4140,23B,11.929688,55.525414
1266717,Lille Dalbyvej,4140,1,12.0230001,55.4797349
1266719,Lille Dalbyvej,4140,2,12.0219031,55.4783629
1266721,Lille Dalbyvej,4140,2A,12.0200133,55.4803415
1266723,Lille Dalbyvej,4140,2B,12.0219071,55.4783647
1266725,Lille Dalbyvej,4140,3,12.0234688,55.475994
1266727,Lille Dalbyvej,4140,4,12.0182722,55.4758371
1266729,Lille Dalbyvej,4140,5,12.01498,55.4718187
1266731,Lille Dalbyvej,4140,6,12.0105416,55.4705791
1266733,Lille Dalbyvej,4140,8,12.0026783,55.4688491
1266734,Lille Dalbyvej,4140,9,12.0213784,55.4695056
1266737,Lille Dalbyvej,4140,9A,12.013328,55.469889
1266738,Lille Dalbyvej,4140,10A,11.9928134,55.4654837
1266740,Lille Dalbyvej,4140,10B,11.9924395,55.4653591
1266741,Lille Dalbyvej,4140,10C,11.9926251,55.4650244
1266744,Lille Dalbyvej,4140,11,12.0118095,55.4699534
1266745,Lille Dalbyvej,4140,12,11.9918783,55.4647921
1266748,Lille Dalbyvej,4140,13,12.0137755,55.4682928
1266750,Lille Dalbyvej,4140,14,11.9919111,55.4651392
1266751,Lille Dalbyvej,4140,15,12.0095072,55.470046
1266754,Lille Dalbyvej,4140,17,12.0088994,55.4697378
1266756,Lille Dalbyvej,4140,19,12.0085422,55.4697567
1266758,Lille Dalbyvej,4140,21,12.0081275,55.4698584
1266761,Lille Dalbyvej,4140,23,12.0093144,55.4687436
1266762,Lille Dalbyvej,4140,23A,12.008756,55.468566
1266764,Lille Dalbyvej,4140,25,12.0064018,55.4694942
1266765,Lille Dalbyvej,4140,27,12.0060328,55.4694643
1266768,Lille Dalbyvej,4140,29,12.0049168,55.4691798
1266770,Lille Dalbyvej,4140,31,12.0040717,55.4690609
1266771,Lille Dalbyvej,4140,33,12.0029312,55.466137
1266773,Lille Dalbyvej,4140,35,12.0038626,55.46618
1266775,Lille Dalbyvej,4140,37,12.0045815,55.4663176
1266778,Lille Dalbyvej,4140,39,12.002534,55.4684523
1266782,Lille Dalbyvej,4140,41,11.9929757,55.4646727
1266783,Lille Dalbyvej,4140,43,11.991401,55.4644462
1266968,Toftevej,4140,1,12.0037951,55.4809121
1266969,Toftevej,4140,2,12.0038707,55.4806285
1266970,Toftevej,4140,3,12.0042721,55.480958
1266971,Toftevej,4140,4,12.0043884,55.480791
1266973,Mølleparken,4140,1,11.9809723,55.5065657
1266975,Mølleparken,4140,2,11.9804869,55.5065712
1266976,Mølleparken,4140,3,11.9814823,55.5063569
1266979,Mølleparken,4140,4,11.9800528,55.5063477
1266980,Mølleparken,4140,5,11.9821681,55.5062879
1266982,Mølleparken,4140,6,11.9804234,55.5062893
1266984,Mølleparken,4140,7,11.982037,55.506548
1266986,Mølleparken,4140,8,11.9808566,55.5062108
1266987,Mølleparken,4140,9,11.9817959,55.5067788
1266989,Mølleparken,4140,10,11.9812456,55.506161
1266991,Mølleparken,4140,11,11.9813986,55.5067454
1266993,Mølleparken,4140,12,11.9816591,55.5060158
1266995,Mølleparken,4140,14,11.9821168,55.5060364
1266998,Mølleparken,4140,16,11.9824981,55.5055678
1267001,Mølleparken,4140,18,11.9829922,55.5055102
1267004,Mølleparken,4140,20,11.9828942,55.5057232
1267008,Mølleparken,4140,22,11.9828183,55.5059876
1267010,Mølleparken,4140,24,11.9825819,55.5062801
1267014,Mølleparken,4140,26,11.982477,55.5064936
1267016,Mølleparken,4140,28,11.9822944,55.5067478
1267022,Mølleparken,4140,30,11.9822592,55.5071109
1267025,Mølleparken,4140,32,11.9819176,55.5070408
1267030,Mølleparken,4140,34,11.981388,55.506967
1267084,Ryeskovvej,4140,1,11.9792984,55.5069448
1267085,Ryeskovvej,4140,4,11.9795724,55.5065919
1267086,Ryeskovvej,4140,5A,11.97538,55.5104999
1267087,Ryeskovvej,4140,5B,11.9753854,55.51052
1267088,Ryeskovvej,4140,6,11.9798278,55.5075341
1267089,Ryeskovvej,4140,7,11.9721181,55.5164919
1267090,Ryeskovvej,4140,8,11.9797136,55.5080008
1267091,Ryeskovvej,4140,9,11.9718129,55.5180269
1267092,Ryeskovvej,4140,10A,11.9797142,55.5083444
1267093,Ryeskovvej,4140,10B,11.9798683,55.5085558
1267095,Ryeskovvej,4140,16,11.9798857,55.5094841
1267096,Ryeskovvej,4140,18,11.9798123,55.5099718
1267097,Ryeskovvej,4140,20,11.979725,55.5103046
1267098,Ryeskovvej,4140,22,11.9731221,55.5163468
1267099,Ryeskovvej,4140,26,11.9701722,55.526558
1267122,Parkvej,4140,2,11.9804816,55.5002203
1267123,Parkvej,4140,4,11.9804327,55.500534
1267125,Parkvej,4140,8,11.9806075,55.5009126
1267126,Parkvej,4140,13,11.978633,55.501208
1267128,Parkvej,4140,39,11.9788513,55.5022774
1267129,Parkvej,4140,41,11.9790373,55.502328
1267131,Parkvej,4140,43,11.9792129,55.5023759
1267133,Parkvej,4140,45,11.9793784,55.5024203
1267134,Parkvej,4140,47,11.9795666,55.5024722
1267136,Parkvej,4140,49,11.9783706,55.5025877
1267137,Parkvej,4140,51,11.9785766,55.5026439
1267138,Parkvej,4140,53,11.978784,55.5027
1267140,Parkvej,4140,55,11.9789932,55.5027574
1267142,Parkvej,4140,57,11.9798482,55.5026928
1267143,Parkvej,4140,59,11.9799048,55.5028047
1267145,Parkvej,4140,61,11.9799719,55.502919
1267147,Parkvej,4140,63,11.9800336,55.5030193
1267150,Parkvej,4140,65,11.9793168,55.503276
1267151,Parkvej,4140,67,11.9792178,55.5033938
1267153,Parkvej,4140,69,11.9791196,55.5035097
1267156,Parkvej,4140,71,11.9790203,55.5036273
1267158,Parkvej,4140,75,11.9801041,55.5032758
1267159,Parkvej,4140,77,11.9800146,55.5033812
1267162,Parkvej,4140,79,11.9799314,55.5034792
1267165,Parkvej,4140,81,11.979851,55.503573
1267167,Parkvej,4140,83,11.9797586,55.5036829
1267169,Parkvej,4140,87,11.9804266,55.5035923
1267329,Korsmosevej,4140,1,12.0006853,55.5027548
1267330,Korsmosevej,4140,2,12.0058137,55.5014017
1267331,Korsmosevej,4140,3,12.0136037,55.5025429
1267334,Korsmosevej,4140,4,12.00739,55.5013482
1267336,Korsmosevej,4140,6,12.00979,55.5014512
1267432,Udløbsvejen,4140,5,11.9412013,55.4671012
1267434,Udløbsvejen,4140,7,11.9415522,55.4672478
1267563,Humleorevej,4140,23,11.9031139,55.4783502
1267564,Humleorevej,4140,27,11.910393,55.4755056
1267567,Humleorevej,4140,29,11.9107837,55.4754918
1267921,Nøddeparken,4140,1,11.9780679,55.5024873
1267923,Nøddeparken,4140,2,11.9776029,55.5022172
1267925,Nøddeparken,4140,3,11.9780407,55.5024461
1267926,Nøddeparken,4140,4,11.9775578,55.5022265
1267927,Nøddeparken,4140,5,11.9780149,55.5024066
1267928,Nøddeparken,4140,6,11.9774985,55.5022396
1267929,Nøddeparken,4140,7,11.9779889,55.5023668
1267930,Nøddeparken,4140,8,11.9774321,55.5022541
1267931,Nøddeparken,4140,9,11.9779622,55.5023257
1267932,Nøddeparken,4140,10,11.9773647,55.50227
1267933,Nøddeparken,4140,11,11.977933,55.502281
1267934,Nøddeparken,4140,12,11.9772584,55.5022886
1267935,Nøddeparken,4140,13,11.977993,55.502187
1267936,Nøddeparken,4140,14,11.9771374,55.5023145
1267937,Nøddeparken,4140,15,11.9779511,55.5021237
1267938,Nøddeparken,4140,16,11.9775777,55.5021742
1267939,Nøddeparken,4140,17,11.9779041,55.502053
1267940,Nøddeparken,4140,18,11.9775203,55.5021861
1267941,Nøddeparken,4140,19,11.9778758,55.5019999
1267942,Nøddeparken,4140,20,11.9774666,55.5021974
1267943,Nøddeparken,4140,21,11.9778424,55.5019267
1267944,Nøddeparken,4140,22,11.9774148,55.5022084
1267945,Nøddeparken,4140,23,11.9777625,55.5018737
1267946,Nøddeparken,4140,24,11.9773395,55.5022241
1267947,Nøddeparken,4140,25,11.9777311,55.5018151
1267948,Nøddeparken,4140,26,11.9772343,55.502246
1267949,Nøddeparken,4140,27,11.9776967,55.5017626
1267950,Nøddeparken,4140,28,11.9771251,55.502269
1267951,Nøddeparken,4140,29,11.9776661,55.5017065
1267952,Nøddeparken,4140,30,11.9770585,55.5020975
1267953,Nøddeparken,4140,31,11.9778792,55.5021992
1267954,Nøddeparken,4140,32,11.9770197,55.5020369
1267955,Nøddeparken,4140,33,11.9778542,55.5021614
1267956,Nøddeparken,4140,34,11.9769809,55.5019764
1267957,Nøddeparken,4140,35,11.9778243,55.5021227
1267959,Nøddeparken,4140,36,11.9769414,55.5019146
1267960,Nøddeparken,4140,37,11.9778007,55.5020761
1267963,Nøddeparken,4140,38,11.976903,55.5018546
1267965,Nøddeparken,4140,39,11.9777714,55.5020379
1267967,Nøddeparken,4140,40,11.976864,55.501794
1267968,Nøddeparken,4140,41,11.9777505,55.5020025
1267970,Nøddeparken,4140,42,11.9771303,55.5018629
1267972,Nøddeparken,4140,43,11.9777246,55.501956
1267974,Nøddeparken,4140,44,11.9771995,55.5018479
1267976,Nøddeparken,4140,45,11.9776675,55.501915
1267978,Nøddeparken,4140,46,11.9772744,55.5018318
1267980,Nøddeparken,4140,47,11.9776337,55.5018757
1267982,Nøddeparken,4140,49,11.9776156,55.5018343
1267984,Nøddeparken,4140,51,11.9775893,55.5017983
1267986,Nøddeparken,4140,53,11.9775693,55.5017591
1267988,Nøddeparken,4140,55,11.9775486,55.501718
1267989,Nøddeparken,4140,57,11.9782,55.502031
1267992,Nøddeparken,4140,59,11.9785339,55.5022494
1267993,Nøddeparken,4140,61,11.9784972,55.5021889
1267995,Nøddeparken,4140,63,11.9784588,55.5021256
1267996,Nøddeparken,4140,65,11.978479,55.5020233
1267999,Nøddeparken,4140,67,11.978459,55.5019917
1268001,Nøddeparken,4140,69,11.978433,55.5019515
1268004,Nøddeparken,4140,71,11.9783999,55.5018982
1268005,Nøddeparken,4140,73,11.9783297,55.5018774
1268008,Nøddeparken,4140,75,11.9783049,55.5018386
1268009,Nøddeparken,4140,77,11.9782214,55.5018075
1268011,Nøddeparken,4140,79,11.9781888,55.501756
1268014,Nøddeparken,4140,81,11.9785636,55.5017909
1268015,Nøddeparken,4140,83,11.9786568,55.5017719
1268018,Nøddeparken,4140,85,11.9788014,55.5017432
1268020,Nøddeparken,4140,87,11.9788615,55.50175
1268022,Nøddeparken,4140,89,11.9789926,55.5017236
1268024,Nøddeparken,4140,91,11.979083,55.501856
1268027,Nøddeparken,4140,93,11.9791075,55.5018983
1268029,Nøddeparken,4140,95,11.979132,55.5019396
1268030,Nøddeparken,4140,97,11.9791848,55.5020228
1268033,Nøddeparken,4140,99,11.9792278,55.5020642
1268036,Nøddeparken,4140,101,11.9789348,55.5020599
1268037,Nøddeparken,4140,103,11.9788676,55.502073
1268039,Nøddeparken,4140,105,11.9788038,55.5020855
1268040,Nøddeparken,4140,107,11.9787417,55.5020978
1268043,Nøddeparken,4140,109,11.9792417,55.5021489
1268119,Vestre Ringvej,4140,21,11.9950379,55.4784647
1268120,Vestre Ringvej,4140,22,11.9903025,55.4704866
1268121,Vestre Ringvej,4140,23,11.9959109,55.4753063
1268122,Vestre Ringvej,4140,24,11.9794075,55.4660136
1268123,Vestre Ringvej,4140,25,11.991206,55.4708
1268227,Thorsvej,4140,1,11.9400696,55.4668242
1268228,Thorsvej,4140,2,11.9407567,55.4669707
1268229,Thorsvej,4140,3,11.940065,55.4671376
1268230,Thorsvej,4140,4,11.9405786,55.4672574
1268231,Thorsvej,4140,5,11.9400308,55.467406
1268232,Thorsvej,4140,6,11.9404933,55.4675882
1268233,Thorsvej,4140,7,11.9400725,55.4676272
1268234,Thorsvej,4140,8,11.9411778,55.4674931
1268235,Thorsvej,4140,9,11.939994,55.4679797
1268236,Thorsvej,4140,10,11.9404117,55.4678381
1268237,Thorsvej,4140,11,11.9400195,55.4681714
1268238,Thorsvej,4140,12,11.9403796,55.4682587
2143829,Bakkegårds Alle,4140,1,11.9924136,55.498407
2143842,Bakkegårds Alle,4140,2,11.9918061,55.4982482
2143853,Bakkegårds Alle,4140,3,11.9924199,55.498282
2143858,Bakkegårds Alle,4140,4,11.9918115,55.4981482
2143870,Bakkegårds Alle,4140,5,11.9924264,55.4981507
2143876,Bakkegårds Alle,4140,6,11.9919167,55.4978067
2143888,Bakkegårds Alle,4140,7,11.9925528,55.4978918
2143894,Bakkegårds Alle,4140,8,11.9919799,55.4976805
2143905,Bakkegårds Alle,4140,9,11.9925933,55.4977679
2143913,Bakkegårds Alle,4140,10,11.9920215,55.4975556
2143918,Bakkegårds Alle,4140,11,11.9926346,55.497641
2143926,Bakkegårds Alle,4140,12,11.9920892,55.4974132
2143930,Bakkegårds Alle,4140,13,11.9927007,55.4975124
2143944,Bakkegårds Alle,4140,14,11.9921321,55.4972841
2143948,Bakkegårds Alle,4140,15,11.9927478,55.4973681
2143961,Bakkegårds Alle,4140,16,11.992176,55.497151
2143978,Bakkegårds Alle,4140,17,11.9927947,55.4972246
2143983,Bakkegårds Alle,4140,19,11.9928412,55.4970818
2143993,Bakkegårds Alle,4140,48,11.99105,55.495074
2143996,Bakkegårds Alle,4140,50,11.990943,55.494992
2144006,Bakkegårds Alle,4140,52,11.99087,55.494921
2144008,Bakkegårds Alle,4140,54,11.990789,55.494835
2144021,Bakkegårds Alle,4140,56,11.990685,55.494747
2144031,Bakkegårds Alle,4140,57,11.991669,55.494869
2144034,Bakkegårds Alle,4140,58,11.990595,55.494651
2144041,Bakkegårds Alle,4140,59,11.991579,55.494796
2144043,Bakkegårds Alle,4140,60,11.990505,55.494559
2144049,Bakkegårds Alle,4140,61,11.991484,55.494708
2144052,Bakkegårds Alle,4140,62,11.99042,55.494464
2144058,Bakkegårds Alle,4140,63,11.991379,55.494618
2144064,Bakkegårds Alle,4140,64,11.99034,55.494393
2144068,Bakkegårds Alle,4140,65,11.991276,55.494524
2144080,Bakkegårds Alle,4140,67,11.991176,55.494435
2144084,Bakkegårds Alle,4140,69,11.991083,55.49435
2144095,Bakkegårds Alle,4140,70,11.9901126,55.4941384
2144101,Bakkegårds Alle,4140,71,11.991007,55.494275
2144112,Bakkegårds Alle,4140,72,11.9900776,55.4940944
2144403,Bygmarken,4140,1,11.9914399,55.4978533
2144413,Bygmarken,4140,2,11.9913501,55.498294
2144415,Bygmarken,4140,3,11.9910774,55.4978873
2144421,Bygmarken,4140,4,11.9909997,55.4981187
2144422,Bygmarken,4140,5,11.9908153,55.4978877
2144430,Bygmarken,4140,6,11.990675,55.498177
2144432,Bygmarken,4140,7,11.9904842,55.497841
2144438,Bygmarken,4140,8,11.9903194,55.4982102
2144441,Bygmarken,4140,9,11.9900836,55.4978868
2144449,Bygmarken,4140,10,11.9899624,55.4981543
2144451,Bygmarken,4140,11,11.9897236,55.4978172
2144458,Bygmarken,4140,12,11.9896776,55.4980943
2144459,Bygmarken,4140,13,11.9895293,55.4977512
2144897,Græsmarken,4140,1,11.9921754,55.4927284
2144912,Græsmarken,4140,2,11.9918953,55.4925426
2144914,Græsmarken,4140,3,11.992444,55.49272
2144929,Græsmarken,4140,4,11.992164,55.492535
2144933,Græsmarken,4140,5,11.992713,55.4927159
2144941,Græsmarken,4140,6,11.992433,55.492527
2144945,Græsmarken,4140,7,11.9929817,55.4927079
2144957,Græsmarken,4140,8,11.9927017,55.4925229
2144959,Græsmarken,4140,9,11.993324,55.4927502
2144970,Græsmarken,4140,10,11.9929706,55.4925239
2144976,Græsmarken,4140,11,11.9937175,55.4927698
2144977,Græsmarken,4140,12,11.9932397,55.4925248
2144984,Græsmarken,4140,13,11.9939778,55.4928088
2144987,Græsmarken,4140,14,11.9935163,55.4925451
2144991,Græsmarken,4140,15,11.9942379,55.4928477
2144996,Græsmarken,4140,16,11.99378,55.4925752
2145006,Græsmarken,4140,17,11.9920191,55.4931609
2145010,Græsmarken,4140,18,11.9940438,55.4926054
2145022,Græsmarken,4140,19,11.9922883,55.4931619
2145033,Græsmarken,4140,20,11.9943058,55.49264
2145038,Græsmarken,4140,21,11.9925572,55.4931583
2145046,Græsmarken,4140,22,11.9921854,55.4929691
2145050,Græsmarken,4140,23,11.9928259,55.4931502
2145061,Græsmarken,4140,24,11.9924546,55.492971
2145063,Græsmarken,4140,26,11.9927234,55.4929674
2145074,Græsmarken,4140,28,11.9929925,55.4929683
2145125,Havremarken,4140,1,11.9929103,55.4983831
2145130,Havremarken,4140,2,11.9930534,55.4982627
2145133,Havremarken,4140,3,11.9931598,55.498427
2145136,Havremarken,4140,4,11.993306,55.498304
2145141,Havremarken,4140,5,11.9933794,55.4984562
2145143,Havremarken,4140,6,11.9935266,55.4983321
2145148,Havremarken,4140,7,11.9936352,55.4984851
2145149,Havremarken,4140,8,11.9937837,55.4983614
2145153,Havremarken,4140,9,11.993856,55.498509
2145158,Havremarken,4140,10,11.9939054,55.4979997
2145159,Havremarken,4140,11,11.9941132,55.4985359
2145163,Havremarken,4140,12,11.9936465,55.4979771
2145165,Havremarken,4140,13,11.9941552,55.4983634
2145168,Havremarken,4140,14,11.9934202,55.4979627
2145171,Havremarken,4140,15,11.994203,55.4982169
2145173,Havremarken,4140,16,11.9931581,55.4979561
2145177,Havremarken,4140,17,11.9942403,55.4980928
2145179,Havremarken,4140,19,11.9942867,55.497947
2145181,Havremarken,4140,21,11.9938149,55.4978442
2145183,Havremarken,4140,23,11.993557,55.4978221
2145185,Havremarken,4140,25,11.9933313,55.4978119
2145187,Havremarken,4140,27,11.9930689,55.4978085
2145229,Hirsemarken,4140,1,11.9933047,55.4963811
2145232,Hirsemarken,4140,2,11.9930736,55.4958772
2145236,Hirsemarken,4140,3,11.993618,55.496279
2145238,Hirsemarken,4140,4,11.9935223,55.4960256
2145246,Hirsemarken,4140,5,11.9939561,55.4964266
2145248,Hirsemarken,4140,6,11.9939733,55.4961246
2145255,Hirsemarken,4140,7,11.9942953,55.4964379
2145259,Hirsemarken,4140,8,11.9940715,55.4958426
2145261,Hirsemarken,4140,9,11.9945125,55.4963058
2145267,Hirsemarken,4140,11,11.9944405,55.4960827
2145269,Hirsemarken,4140,13,11.9946152,55.4959329
2145275,Hirsemarken,4140,15,11.9946784,55.495739
2145427,Hvedemarken,4140,1,11.9918061,55.4968934
2145433,Hvedemarken,4140,2,11.9917274,55.497149
2145442,Hvedemarken,4140,3,11.9915118,55.4968956
2145448,Hvedemarken,4140,4,11.9913572,55.4972189
2145460,Hvedemarken,4140,5,11.9910486,55.4969499
2145464,Hvedemarken,4140,6,11.9910258,55.4973117
2145475,Hvedemarken,4140,7,11.990837,55.4970196
2145480,Hvedemarken,4140,8,11.9906713,55.4973459
2145488,Hvedemarken,4140,9,11.9904427,55.4969572
2145499,Hvedemarken,4140,10,11.990353,55.4973002
2145504,Hvedemarken,4140,11,11.9901218,55.4969074
2145512,Hvedemarken,4140,12,11.9900409,55.4972374
2145519,Hvedemarken,4140,13,11.9898338,55.4968823
2145527,Hvedemarken,4140,14,11.9897308,55.4971572
2145536,Hvedemarken,4140,15,11.9895433,55.4968435
2145538,Hvedemarken,4140,16,11.9894003,55.4971185
2145548,Hvedemarken,4140,17,11.9892917,55.4966868
2145613,Hørmarken,4140,1,11.9915145,55.4937751
2145618,Hørmarken,4140,2,11.9917827,55.493566
2145624,Hørmarken,4140,3,11.9918666,55.4937921
2145628,Hørmarken,4140,4,11.9921885,55.4936132
2145633,Hørmarken,4140,5,11.9921023,55.4939012
2145638,Hørmarken,4140,6,11.9925774,55.4936037
2145643,Hørmarken,4140,7,11.9925049,55.4939464
2145650,Hørmarken,4140,8,11.9929926,55.4936077
2145653,Hørmarken,4140,9,11.9929039,55.4939273
2145660,Hørmarken,4140,10,11.9934516,55.4935391
2145662,Hørmarken,4140,11,11.9932987,55.4939043
2145671,Hørmarken,4140,12,11.9935681,55.4932914
2145678,Hørmarken,4140,13,11.9937407,55.4938503
2145679,Hørmarken,4140,14,11.9939756,55.4931866
2145687,Hørmarken,4140,15,11.9940933,55.4937001
2145688,Hørmarken,4140,16,11.994333,55.493289
2145694,Hørmarken,4140,17,11.9941842,55.4935546
2146055,Kløvermarken,4140,1,11.9904954,55.4951836
2146058,Kløvermarken,4140,2,11.9909546,55.4954125
2146060,Kløvermarken,4140,3,11.9902425,55.4951228
2146062,Kløvermarken,4140,4,11.9906778,55.4954454
2146065,Kløvermarken,4140,5,11.9897724,55.4950714
2146067,Kløvermarken,4140,6,11.99033,55.495506
2146072,Kløvermarken,4140,7,11.989552,55.495061
2146074,Kløvermarken,4140,8,11.9900793,55.4953537
2146082,Kløvermarken,4140,9,11.9892051,55.4950377
2146085,Kløvermarken,4140,10,11.9897449,55.4952577
2146087,Kløvermarken,4140,11,11.9888499,55.4950437
2146092,Kløvermarken,4140,12,11.9892663,55.4953383
2146095,Kløvermarken,4140,13,11.9885553,55.4950714
2146100,Kløvermarken,4140,14,11.9890053,55.4953173
2146105,Kløvermarken,4140,15,11.9882227,55.4950041
2146107,Kløvermarken,4140,16,11.9886498,55.4953659
2146114,Kløvermarken,4140,17,11.9879827,55.4951415
2146117,Kløvermarken,4140,18,11.9882712,55.4953982
2146173,Krohaven,4140,2,11.9736543,55.4938399
2146176,Krohaven,4140,4,11.9736993,55.4939019
2146189,Krohaven,4140,6,11.9737456,55.4939773
2146201,Krohaven,4140,8,11.9736237,55.493835
2146205,Krohaven,4140,10,11.9736692,55.4939027
2146214,Krohaven,4140,12,11.9737149,55.4939742
2146227,Krohaven,4140,14,11.9735925,55.4938243
2146239,Krohaven,4140,16,11.973645,55.4938956
2146255,Krohaven,4140,18,11.9736941,55.4939652
2146262,Krohaven,4140,20,11.9737939,55.4940832
2146272,Krohaven,4140,22,11.9738397,55.4941547
2146277,Krohaven,4140,24,11.9738934,55.4942414
2146298,Krohaven,4140,26,11.9737734,55.4940798
2146310,Krohaven,4140,28,11.9738092,55.4941516
2146315,Krohaven,4140,30,11.9738625,55.4942345
2146328,Krohaven,4140,32,11.9737493,55.4940728
2146332,Krohaven,4140,34,11.973785,55.494147
2146343,Krohaven,4140,36,11.9738351,55.4942275
2146349,Krohaven,4140,38,11.9739845,55.49439
2146354,Krohaven,4140,40,11.9738629,55.4944143
2146362,Krohaven,4140,42,11.9737435,55.4944376
2146365,Krohaven,4140,44,11.9739687,55.4943848
2146372,Krohaven,4140,46,11.9738416,55.4944072
2146379,Krohaven,4140,48,11.973724,55.4944306
2146382,Krohaven,4140,50,11.9739546,55.4943744
2146387,Krohaven,4140,52,11.9738297,55.4944001
2146389,Krohaven,4140,54,11.9737139,55.4944222
2146393,Krohaven,4140,56,11.9735661,55.494472
2146396,Krohaven,4140,58,11.9734279,55.494498
2146398,Krohaven,4140,60,11.9735521,55.4944627
2146400,Krohaven,4140,62,11.9734084,55.494492
2146401,Krohaven,4140,64,11.97354,55.494457
2146404,Krohaven,4140,66,11.9733893,55.4944882
2146405,Krohaven,4140,68,11.9729367,55.4946153
2146408,Krohaven,4140,68A,11.973316,55.494195
2146410,Krohaven,4140,70,11.9729267,55.4945586
2146411,Krohaven,4140,72,11.97292,55.4945157
2146414,Krohaven,4140,74,11.9729171,55.4944825
2146415,Krohaven,4140,76,11.9729099,55.4944374
2146418,Krohaven,4140,78,11.9729531,55.4946084
2146420,Krohaven,4140,80,11.9729448,55.4945484
2146422,Krohaven,4140,82,11.9729343,55.4945089
2146425,Krohaven,4140,84,11.972932,55.494474
2146427,Krohaven,4140,86,11.9729243,55.4944263
2146430,Krohaven,4140,88,11.9729752,55.4945993
2146434,Krohaven,4140,90,11.972961,55.494539
2146436,Krohaven,4140,92,11.9729489,55.4945021
2146440,Krohaven,4140,94,11.972946,55.494465
2146443,Krohaven,4140,96,11.9729387,55.4944174
2146446,Krohaven,4140,98,11.9728921,55.4943502
2146450,Krohaven,4140,100,11.9728801,55.4942919
2146454,Krohaven,4140,102,11.9728647,55.4942021
2146459,Krohaven,4140,104,11.9728491,55.4941212
2146462,Krohaven,4140,106,11.9728385,55.4940466
2146469,Krohaven,4140,108,11.9728242,55.4939716
2146474,Krohaven,4140,110,11.9728157,55.493926
2146478,Krohaven,4140,112,11.9728216,55.4938957
2146484,Krohaven,4140,114,11.9729102,55.4938835
2146488,Krohaven,4140,116,11.9729986,55.4938778
2146494,Krohaven,4140,118,11.973108,55.493872
2146502,Krohaven,4140,120,11.973212,55.493866
2146506,Krohaven,4140,122,11.9729033,55.4943413
2146512,Krohaven,4140,124,11.9728947,55.4942834
2146514,Krohaven,4140,126,11.9728775,55.4941857
2146524,Krohaven,4140,128,11.9728571,55.494102
2146536,Krohaven,4140,130,11.9728528,55.4940362
2146540,Krohaven,4140,132,11.9728355,55.4939564
2146553,Krohaven,4140,134,11.9728273,55.4939183
2146561,Krohaven,4140,136,11.9728411,55.4938919
2146571,Krohaven,4140,138,11.9729246,55.4938924
2146582,Krohaven,4140,140,11.9730155,55.4938859
2146587,Krohaven,4140,142,11.9731264,55.4938811
2146600,Krohaven,4140,144,11.9732371,55.4938706
2146671,Majsmarken,4140,1,11.9896144,55.4942306
2146675,Majsmarken,4140,2,11.9899125,55.4944106
2146677,Majsmarken,4140,3,11.9893272,55.4942375
2146681,Majsmarken,4140,4,11.9896451,55.4944469
2146685,Majsmarken,4140,5,11.9890165,55.4942056
2146688,Majsmarken,4140,6,11.9892925,55.4944754
2146698,Majsmarken,4140,7,11.9886317,55.4940912
2146699,Majsmarken,4140,8,11.9889377,55.4945427
2146702,Majsmarken,4140,9,11.988385,55.494238
2146706,Majsmarken,4140,10,11.9885951,55.4945522
2146709,Majsmarken,4140,11,11.9880736,55.4942053
2146712,Majsmarken,4140,12,11.988225,55.4945522
2146721,Majsmarken,4140,13,11.9877472,55.494234
2146725,Majsmarken,4140,14,11.9878098,55.4944336
2146728,Majsmarken,4140,15,11.9873882,55.4941832
2146731,Majsmarken,4140,16,11.9874418,55.4945969
2146735,Majsmarken,4140,17,11.9870584,55.4942011
2147067,Mølleskrænten,4140,2,11.9825271,55.4990487
2147069,Mølleskrænten,4140,4,11.9824278,55.4990637
2147084,Mølleskrænten,4140,6,11.9823286,55.4990788
2147094,Mølleskrænten,4140,8,11.9822291,55.4990939
2147095,Mølleskrænten,4140,10,11.9823727,55.4988202
2147101,Mølleskrænten,4140,12,11.982294,55.4988378
2147102,Mølleskrænten,4140,14,11.9821867,55.4988716
2147110,Mølleskrænten,4140,16,11.9820834,55.498894
2147118,Mølleskrænten,4140,18,11.9823031,55.4985768
2147121,Mølleskrænten,4140,20,11.9822145,55.4985966
2147127,Mølleskrænten,4140,22,11.9823066,55.4985658
2147130,Mølleskrænten,4140,24,11.98222,55.498586
2147136,Mølleskrænten,4140,26,11.9820557,55.498564
2147142,Mølleskrænten,4140,28,11.9819496,55.4985927
2147147,Mølleskrænten,4140,30,11.9821455,55.4983209
2147151,Mølleskrænten,4140,32,11.9820544,55.4983493
2147154,Mølleskrænten,4140,34,11.982147,55.4983118
2147158,Mølleskrænten,4140,36,11.9820632,55.4983381
2147162,Mølleskrænten,4140,38,11.9819267,55.4983178
2147164,Mølleskrænten,4140,40,11.981823,55.4983501
2147168,Mølleskrænten,4140,42,11.9818797,55.4980561
2147170,Mølleskrænten,4140,44,11.9818142,55.4980801
2147175,Mølleskrænten,4140,46,11.9818843,55.4980478
2147180,Mølleskrænten,4140,48,11.9818187,55.4980712
2147182,Mølleskrænten,4140,50,11.9816691,55.49812
2147268,Møllevang,4140,2,11.9840237,55.4985001
2147270,Møllevang,4140,4,11.9841646,55.498478
2147282,Møllevang,4140,6,11.9841969,55.498636
2147294,Møllevang,4140,8,11.9842236,55.4987127
2147297,Møllevang,4140,10,11.9845227,55.4985918
2147306,Møllevang,4140,12,11.9845496,55.4986724
2147311,Møllevang,4140,14,11.9845031,55.4984336
2147321,Møllevang,4140,16,11.9846462,55.4984192
2147329,Møllevang,4140,18,11.9848078,55.4985659
2147332,Møllevang,4140,20,11.9848491,55.4986283
2147340,Møllevang,4140,22,11.9850718,55.4985299
2147343,Møllevang,4140,24,11.985143,55.4985971
2147347,Møllevang,4140,26,11.9849424,55.4983589
2147349,Møllevang,4140,28,11.9848726,55.498294
2147353,Møllevang,4140,30,11.9839163,55.49833
2147357,Møllevang,4140,32,11.9840342,55.4983117
2147359,Møllevang,4140,34,11.9843328,55.4981865
2147364,Møllevang,4140,36,11.985847,55.498553
2147366,Møllevang,4140,38,11.985737,55.498491
2147370,Møllevang,4140,40,11.9855189,55.4983636
2147375,Møllevang,4140,42,11.9854242,55.4983056
2147377,Møllevang,4140,44,11.9852188,55.4981663
2147381,Møllevang,4140,46,11.9851354,55.4981066
2147382,Møllevang,4140,48,11.9849499,55.4979628
2147386,Møllevang,4140,50,11.9848753,55.4978998
2147387,Møllevang,4140,52,11.9847056,55.4977474
2147389,Møllevang,4140,54,11.984639,55.497682
2147390,Møllevang,4140,56,11.9844895,55.4975224
2147391,Møllevang,4140,58,11.9844311,55.4974542
2147392,Møllevang,4140,60,11.9836684,55.4979174
2147393,Møllevang,4140,62,11.9836339,55.4978457
2147394,Møllevang,4140,64,11.9839693,55.4979289
2147397,Møllevang,4140,66,11.9840907,55.4979101
2147399,Møllevang,4140,68,11.9839014,55.4977477
2147403,Møllevang,4140,70,11.9840427,55.4977257
2147405,Møllevang,4140,72,11.9835651,55.4977074
2147408,Møllevang,4140,74,11.9835069,55.4975883
2147415,Møllevang,4140,76,11.9838086,55.4975699
2147418,Møllevang,4140,78,11.983942,55.4975493
2147519,Rapsmarken,4140,1,11.9916008,55.4961024
2147521,Rapsmarken,4140,2,11.991752,55.4963273
2147528,Rapsmarken,4140,3,11.9911211,55.4960983
2147541,Rapsmarken,4140,4,11.9913893,55.4963022
2147545,Rapsmarken,4140,5,11.9907715,55.4960677
2147556,Rapsmarken,4140,6,11.9910398,55.4963183
2147560,Rapsmarken,4140,7,11.9904282,55.4959635
2147572,Rapsmarken,4140,8,11.9906799,55.4962752
2147580,Rapsmarken,4140,9,11.9901253,55.4959475
2147583,Rapsmarken,4140,10,11.9902675,55.4962832
2147589,Rapsmarken,4140,11,11.9897099,55.4958706
2147590,Rapsmarken,4140,12,11.9899955,55.4961812
2147596,Rapsmarken,4140,13,11.9894087,55.4958746
2147600,Rapsmarken,4140,14,11.9896406,55.4962291
2147603,Rapsmarken,4140,15,11.9890638,55.4958683
2147608,Rapsmarken,4140,16,11.989306,55.4961552
2147610,Rapsmarken,4140,17,11.9886962,55.4958906
2147616,Rapsmarken,4140,18,11.9888959,55.496106
2147656,Rugmarken,4140,1,11.993192,55.497398
2147659,Rugmarken,4140,2,11.9933267,55.4972617
2147670,Rugmarken,4140,3,11.9934451,55.4974351
2147672,Rugmarken,4140,4,11.9935808,55.497298
2147680,Rugmarken,4140,5,11.993669,55.4974596
2147686,Rugmarken,4140,6,11.9938097,55.4973147
2147695,Rugmarken,4140,7,11.9939302,55.4974753
2147709,Rugmarken,4140,8,11.9940703,55.4973281
2147712,Rugmarken,4140,9,11.9943949,55.4975484
2147722,Rugmarken,4140,10,11.9941344,55.4969711
2147726,Rugmarken,4140,11,11.994375,55.497274
2147733,Rugmarken,4140,12,11.9938747,55.4969487
2147738,Rugmarken,4140,13,11.9944031,55.4971257
2147741,Rugmarken,4140,14,11.9936479,55.496934
2147747,Rugmarken,4140,15,11.9944255,55.4969994
2147749,Rugmarken,4140,16,11.9933874,55.4969279
2147754,Rugmarken,4140,17,11.9944612,55.4968521
2147757,Rugmarken,4140,19,11.9940521,55.4968158
2147763,Rugmarken,4140,21,11.9937935,55.4967933
2147770,Rugmarken,4140,23,11.9935679,55.4967836
2147775,Rugmarken,4140,25,11.9933057,55.4967794
2147843,Solsikkemarken,4140,1,11.9891636,55.4933097
2147847,Solsikkemarken,4140,2,11.9892715,55.4936332
2147850,Solsikkemarken,4140,3,11.9887913,55.4931739
2147862,Solsikkemarken,4140,4,11.9889343,55.4936311
2147866,Solsikkemarken,4140,5,11.9884052,55.4931353
2147877,Solsikkemarken,4140,6,11.9886281,55.4935689
2147883,Solsikkemarken,4140,7,11.9880733,55.4931688
2147885,Solsikkemarken,4140,8,11.988245,55.4936031
2147892,Solsikkemarken,4140,9,11.9878148,55.493326
2147897,Solsikkemarken,4140,10,11.9879196,55.4936746
2147901,Solsikkemarken,4140,11,11.9874078,55.4931922
2147908,Solsikkemarken,4140,12,11.98758,55.493645
2147910,Solsikkemarken,4140,13,11.9871255,55.4931814
2147915,Solsikkemarken,4140,14,11.9871973,55.4935719
2147917,Solsikkemarken,4140,15,11.986759,55.493285
2147922,Solsikkemarken,4140,16,11.9868167,55.493563
2147927,Solsikkemarken,4140,17,11.9864581,55.4931611
2147928,Solsikkemarken,4140,18,11.9864719,55.4936458
2148276,Søparken,4140,2,11.9747908,55.4908466
2148277,Søparken,4140,4,11.9747258,55.4908438
2148280,Søparken,4140,6,11.9747704,55.4907778
2148285,Søparken,4140,8,11.9747055,55.4907751
2148288,Søparken,4140,10,11.9747642,55.4906957
2148292,Søparken,4140,12,11.974714,55.490691
2148293,Søparken,4140,14,11.9747552,55.4906267
2148296,Søparken,4140,16,11.9747016,55.4906237
2148299,Søparken,4140,18,11.9750758,55.4907855
2148301,Søparken,4140,20,11.97503,55.4907823
2148306,Søparken,4140,22,11.975058,55.4907
2148308,Søparken,4140,24,11.9750154,55.4906918
2148312,Søparken,4140,26,11.9750616,55.4905976
2148314,Søparken,4140,28,11.9750084,55.4905989
2148317,Søparken,4140,30,11.9750371,55.4905247
2148319,Søparken,4140,32,11.9749946,55.4905171
2148324,Søparken,4140,34,11.9754471,55.4907051
2148325,Søparken,4140,36,11.9754014,55.4907062
2148327,Søparken,4140,38,11.9754251,55.4906148
2148331,Søparken,4140,40,11.9753639,55.4906119
2148333,Søparken,4140,42,11.9754178,55.4904678
2148337,Søparken,4140,44,11.9753568,55.4904671
2148340,Søparken,4140,46,11.975385,55.4903864
2148346,Søparken,4140,48,11.9753418,55.4903701
2148350,Søparken,4140,50,11.9757877,55.4906211
2148353,Søparken,4140,52,11.9757444,55.4905529
2148357,Søparken,4140,54,11.9757206,55.4904388
2148359,Søparken,4140,56,11.9756919,55.4903637
2148362,Søparken,4140,58,11.9756647,55.4902541
2148404,Valmuemarken,4140,1,11.989549,55.492518
2148406,Valmuemarken,4140,2,11.989282,55.492803
2148415,Valmuemarken,4140,3,11.989125,55.4924515
2148420,Valmuemarken,4140,4,11.9888763,55.4927507
2148424,Valmuemarken,4140,5,11.9888846,55.4923286
2148430,Valmuemarken,4140,6,11.9885486,55.4926698
2148431,Valmuemarken,4140,7,11.9885237,55.4922752
2148439,Valmuemarken,4140,8,11.9880632,55.4926588
2148440,Valmuemarken,4140,9,11.9881653,55.4924564
2148447,Valmuemarken,4140,10,11.9876969,55.4926687
2148454,Valmuemarken,4140,11,11.9878058,55.4922701
2148457,Valmuemarken,4140,12,11.987275,55.492691
2148463,Valmuemarken,4140,13,11.9874986,55.4924548
2148464,Valmuemarken,4140,14,11.986897,55.492709
2148471,Valmuemarken,4140,15,11.987067,55.492407
2148478,Valmuemarken,4140,16,11.9865284,55.492688
2148480,Valmuemarken,4140,17,11.9867431,55.4924156
2148486,Valmuemarken,4140,19,11.9864461,55.4922445
2148554,Ærtemarken,4140,1,11.9924464,55.4949223
2148558,Ærtemarken,4140,2,11.9919809,55.4947694
2148563,Ærtemarken,4140,3,11.9925248,55.4951103
2148567,Ærtemarken,4140,4,11.992059,55.494747
2148574,Ærtemarken,4140,5,11.9924487,55.4951327
2148581,Ærtemarken,4140,6,11.991851,55.494539
2148584,Ærtemarken,4140,7,11.9927112,55.4952793
2148588,Ærtemarken,4140,8,11.9917576,55.4945658
2148590,Ærtemarken,4140,9,11.9926329,55.4953023
2148594,Ærtemarken,4140,10,11.9916692,55.4943347
2148597,Ærtemarken,4140,11,11.9928709,55.4954561
2148600,Ærtemarken,4140,12,11.9915752,55.494362
2148604,Ærtemarken,4140,13,11.992795,55.495478
2148608,Ærtemarken,4140,14,11.9920684,55.4943343
2148610,Ærtemarken,4140,15,11.9932402,55.4954439
2148613,Ærtemarken,4140,16,11.9921629,55.494307
2148620,Ærtemarken,4140,17,11.9933328,55.4954176
2148621,Ærtemarken,4140,18,11.9925259,55.4943294
2148625,Ærtemarken,4140,19,11.9932445,55.4951752
2148628,Ærtemarken,4140,20,11.9926188,55.494302
2148630,Ærtemarken,4140,21,11.993336,55.495149
2148634,Ærtemarken,4140,22,11.9925273,55.4946156
2148638,Ærtemarken,4140,23,11.993824,55.495433
2148639,Ærtemarken,4140,24,11.9926059,55.4945927
2148643,Ærtemarken,4140,25,11.9939186,55.4954051
2148645,Ærtemarken,4140,26,11.9929049,55.4945335
2148649,Ærtemarken,4140,27,11.9943003,55.4952918
2148656,Ærtemarken,4140,28,11.9929387,55.4944882
2148659,Ærtemarken,4140,29,11.9943815,55.4952534
2148666,Ærtemarken,4140,30,11.993074,55.4943057
2148669,Ærtemarken,4140,31,11.9941517,55.495114
2148680,Ærtemarken,4140,32,11.9931148,55.4942509
2148687,Ærtemarken,4140,33,11.9942341,55.4950761
2148692,Ærtemarken,4140,34,11.9935028,55.494513
2148700,Ærtemarken,4140,35,11.9937992,55.4949973
2148701,Ærtemarken,4140,36,11.993537,55.4944672
2148710,Ærtemarken,4140,37,11.9938674,55.4949654
2148719,Ærtemarken,4140,38,11.993613,55.494271
2148721,Ærtemarken,4140,39,11.9941283,55.494868
2148727,Ærtemarken,4140,40,11.9936547,55.4942153
2148729,Ærtemarken,4140,41,11.9942099,55.4948293
2148735,Ærtemarken,4140,42,11.993889,55.494519
2148740,Ærtemarken,4140,44,11.9939299,55.4944635
2148743,Ærtemarken,4140,46,11.9940042,55.4942569
2148749,Ærtemarken,4140,48,11.994045,55.4942022
2148752,Ærtemarken,4140,50,11.9943893,55.4942556
2148758,Ærtemarken,4140,52,11.9944305,55.4942007
2148762,Ærtemarken,4140,54,11.9947175,55.4943339
2148764,Ærtemarken,4140,56,11.994759,55.4942789
2148769,Ærtemarken,4140,58,11.9945002,55.4945248
2148773,Ærtemarken,4140,60,11.9944182,55.4945627
2199134,Hovedgaden,4140,15,11.9724895,55.494647
2229023,Ved Kildepladsen,4140,2C,11.941061,55.469241
2229024,Ved Kildepladsen,4140,2D,11.940922,55.469073
2229025,Ved Kildepladsen,4140,2E,11.94078,55.468916
2229026,Ved Kildepladsen,4140,2F,11.940509,55.468831
2229027,Ved Kildepladsen,4140,2G,11.940186,55.468741
2229076,Møllevej,4140,2B,11.977734,55.499713
2229077,Møllevej,4140,2C,11.977681,55.499563
2229078,Møllevej,4140,2D,11.977566,55.499434
2237421,Bakkegårds Alle,4140,18,11.99213,55.496841
2246903,Bakkegårds Alle,4140,20,11.9921347,55.4967861
2246904,Bakkegårds Alle,4140,21,11.992908,55.496833
2246905,Bakkegårds Alle,4140,22,11.992143,55.496681
2246906,Bakkegårds Alle,4140,23,11.992887,55.496769
2246907,Bakkegårds Alle,4140,24,11.9921174,55.4965909
2246908,Bakkegårds Alle,4140,25,11.9929072,55.4966809
2246909,Bakkegårds Alle,4140,26,11.992093,55.496483
2246910,Bakkegårds Alle,4140,27,11.992917,55.496605
2246911,Bakkegårds Alle,4140,28,11.992069,55.496374
2246912,Bakkegårds Alle,4140,29,11.99289,55.496521
2246913,Bakkegårds Alle,4140,30,11.992056,55.496278
2246914,Bakkegårds Alle,4140,31,11.9928897,55.4964512
2246915,Bakkegårds Alle,4140,32,11.991994,55.496024
2246916,Bakkegårds Alle,4140,33,11.992867,55.496367
2246917,Bakkegårds Alle,4140,34,11.991942,55.495935
2246918,Bakkegårds Alle,4140,35,11.99284,55.496289
2246919,Bakkegårds Alle,4140,36,11.99192,55.495888
2246920,Bakkegårds Alle,4140,37,11.992828,55.496202
2246921,Bakkegårds Alle,4140,38,11.991873,55.495822
2246922,Bakkegårds Alle,4140,39,11.9926794,55.4959328
2246923,Bakkegårds Alle,4140,40,11.991769,55.495723
2246924,Bakkegårds Alle,4140,41,11.992638,55.495877
2246925,Bakkegårds Alle,4140,42,11.991703,55.495634
2246926,Bakkegårds Alle,4140,43,11.9926019,55.4958138
2246927,Bakkegårds Alle,4140,44,11.991606,55.495569
2246928,Bakkegårds Alle,4140,45,11.9925537,55.495746
2246929,Bakkegårds Alle,4140,46A,11.99152,55.495461
2246930,Bakkegårds Alle,4140,46B,11.99146,55.495418
2246931,Bakkegårds Alle,4140,46C,11.991409,55.495367
2246932,Bakkegårds Alle,4140,46D,11.991327,55.495297
2246933,Bakkegårds Alle,4140,47,11.992506,55.495677
2246934,Bakkegårds Alle,4140,49,11.992459,55.495618
2246935,Bakkegårds Alle,4140,51,11.992427,55.495552
2246936,Bakkegårds Alle,4140,53,11.992352,55.495476
2246937,Bakkegårds Alle,4140,55A,11.992294,55.495414
2246938,Bakkegårds Alle,4140,55B,11.992236,55.495342
2246939,Bakkegårds Alle,4140,55C,11.99215,55.495263
2246940,Bakkegårds Alle,4140,55D,11.992069,55.495186
2246964,Hovedgaden,4140,25A,11.973896,55.497163
2246965,Hovedgaden,4140,25B,11.973982,55.497226
2246987,Lindevej,4140,33,11.98114,55.494283
2247001,Jernhøj,4140,1,11.991672,55.500355
2247028,Korsager,4140,1,11.992913,55.499881
2247029,Korsager,4140,3,11.993347,55.499979
2247030,Korsager,4140,7,11.993789,55.499783
2247110,Stetteager,4140,2,11.992718,55.500171
2247170,Ullehøj,4140,1,11.992342,55.499351
2247961,Lønager,4140,1,11.892842,55.485083
2247962,Lønager,4140,3,11.892409,55.485162
2247963,Lønager,4140,5,11.892086,55.48516
2247964,Lønager,4140,7,11.891672,55.485241
2247965,Lønager,4140,9,11.891271,55.485233
2247966,Lønager,4140,11,11.890919,55.485338
2247967,Lønager,4140,13,11.890941,55.485417
2247968,Lønager,4140,15,11.8913406,55.4854469
2247969,Lønager,4140,17,11.891786,55.485361
2247970,Lønager,4140,19,11.892252,55.485314
2247971,Lønager,4140,21,11.892812,55.485305
