idx,street,postcode,housenumber,lon,lat
1325280,Lyngsvinget,4480,1,11.1527649,55.5917798
1325282,Lyngsvinget,4480,2,11.1532818,55.591829
1325284,Lyngsvinget,4480,3,11.1523594,55.5920007
1325286,Lyngsvinget,4480,4,11.153367,55.5920783
1325288,Lyngsvinget,4480,5,11.1520523,55.5921844
1325290,Lyngsvinget,4480,6,11.1529783,55.5921445
1325292,Lyngsvinget,4480,7,11.1517215,55.5921307
1325294,Lyngsvinget,4480,8,11.1527861,55.5923013
1325296,Lyngsvinget,4480,9,11.151649,55.5923898
1325297,Lyngsvinget,4480,10,11.1524905,55.5924097
1325299,Lyngsvinget,4480,11,11.1513777,55.5925326
1325300,Lyngsvinget,4480,12,11.1523337,55.592552
1325301,Lyngsvinget,4480,13,11.1507804,55.5928223
1325302,Lyngsvinget,4480,14,11.1520007,55.5926184
1325303,Lyngsvinget,4480,15,11.1505077,55.5929258
1325304,Lyngsvinget,4480,16,11.1519284,55.5928197
1325305,Lyngsvinget,4480,17,11.1501317,55.5931373
1325306,Lyngsvinget,4480,18,11.1516489,55.5928866
1325307,Lyngsvinget,4480,20,11.1514062,55.5930368
1325308,Lyngsvinget,4480,21,11.1489619,55.5932352
1325309,Lyngsvinget,4480,22,11.151225,55.593189
1325310,Lyngsvinget,4480,23,11.148589,55.593238
1325311,Lyngsvinget,4480,24,11.150932,55.5933043
1325312,Lyngsvinget,4480,25,11.1481597,55.593231
1325313,Lyngsvinget,4480,26,11.1507213,55.5934976
1325314,Lyngsvinget,4480,27,11.1476082,55.5930956
1325315,Lyngsvinget,4480,28,11.150129,55.5934945
1325316,Lyngsvinget,4480,29,11.1471126,55.592972
1325317,Lyngsvinget,4480,30,11.1498792,55.5935295
1325318,Lyngsvinget,4480,31,11.1471775,55.5927769
1325319,Lyngsvinget,4480,32,11.1495285,55.5935392
1325320,Lyngsvinget,4480,34,11.1492158,55.5935978
1325321,Lyngsvinget,4480,36,11.148876,55.593585
1325322,Lyngsvinget,4480,38,11.1485624,55.5936332
1325323,Lyngsvinget,4480,40,11.1482328,55.5936846
1325324,Lyngsvinget,4480,42,11.14776,55.5937134
1325325,Lyngsvinget,4480,44,11.147282,55.5937414
1325326,Lyngsvinget,4480,46A,11.1463885,55.5937562
1325327,Lyngsvinget,4480,46B,11.1466277,55.5935859
1325328,Lyngsvinget,4480,48,11.1468938,55.5932184
1325329,Lyngsvinget,4480,52,11.1458685,55.592977
1325330,Lyngsvinget,4480,54,11.1461544,55.5926583
1326224,Frødammen,4480,1,11.1598202,55.5925027
1326225,Frødammen,4480,2,11.1598739,55.5929266
1326226,Frødammen,4480,3,11.1591705,55.5925285
1326227,Frødammen,4480,4,11.1594347,55.5929561
1326228,Frødammen,4480,5,11.1593205,55.5920935
1326229,Frødammen,4480,5A,11.1588019,55.5920893
1326230,Frødammen,4480,6,11.1589779,55.5930076
1326231,Frødammen,4480,7,11.1588219,55.5923518
1326232,Frødammen,4480,8,11.1584808,55.5929959
1326233,Frødammen,4480,9,11.1585814,55.5926167
1326234,Frødammen,4480,10,11.1580073,55.5929576
1326235,Frødammen,4480,11,11.158037,55.592642
1326236,Frødammen,4480,12,11.1575443,55.5930515
1326239,Frødammen,4480,13,11.1578758,55.5923749
1326240,Frødammen,4480,14,11.1570315,55.5929868
1326243,Frødammen,4480,15,11.157752,55.5920975
1326245,Frødammen,4480,16,11.1566696,55.5930955
1326247,Frødammen,4480,17,11.1572732,55.5920139
1326250,Frødammen,4480,18,11.156064,55.593109
1326253,Frødammen,4480,19,11.1569164,55.5922312
1326256,Frødammen,4480,20,11.1555326,55.5931803
1326258,Frødammen,4480,21,11.1568877,55.592431
1326260,Frødammen,4480,22,11.1550748,55.593156
1326262,Frødammen,4480,23,11.1572501,55.5926956
1326265,Frødammen,4480,24,11.1543317,55.5932554
1326266,Frødammen,4480,25,11.1564301,55.5927564
1326269,Frødammen,4480,26,11.153852,55.5931198
1326272,Frødammen,4480,28,11.1535369,55.5933228
1326273,Frødammen,4480,30,11.1530078,55.5933558
1326275,Frødammen,4480,31,11.1542658,55.5928259
1326278,Frødammen,4480,32,11.1524969,55.5933809
1326279,Frødammen,4480,33,11.1538629,55.5928584
1326281,Frødammen,4480,34,11.1517538,55.5933994
1326283,Frødammen,4480,35,11.153433,55.5929552
1326285,Frødammen,4480,37,11.1528588,55.5929241
1326287,Frødammen,4480,39,11.1523906,55.5929936
1326670,Holmevej,4480,1,11.1511939,55.593833
1326672,Holmevej,4480,2,11.1525813,55.593667
1326675,Holmevej,4480,3,11.1509462,55.5939343
1326678,Holmevej,4480,4,11.1521687,55.5938058
1326681,Holmevej,4480,5,11.1506789,55.5940163
1326684,Holmevej,4480,6,11.1518841,55.5938866
1326685,Holmevej,4480,7,11.150415,55.594152
1326689,Holmevej,4480,8,11.1517406,55.5940798
1326693,Holmevej,4480,9,11.1501467,55.5941894
1326694,Holmevej,4480,10,11.1514192,55.594109
1326699,Holmevej,4480,11,11.149843,55.594278
1326704,Holmevej,4480,12,11.1512437,55.5942897
1326705,Holmevej,4480,13,11.1496705,55.5944736
1326709,Holmevej,4480,14,11.150931,55.5943536
1326715,Holmevej,4480,15,11.1493073,55.5945167
1326716,Holmevej,4480,16,11.1505662,55.5943777
1326722,Holmevej,4480,17,11.1491974,55.5946628
1326728,Holmevej,4480,18,11.1504,55.594534
1326729,Holmevej,4480,19,11.1489112,55.5947536
1326737,Holmevej,4480,20,11.1502013,55.5947126
1326739,Holmevej,4480,21,11.148545,55.594887
1326745,Holmevej,4480,22,11.1498663,55.5947621
1326750,Holmevej,4480,23,11.1478482,55.5949997
1326751,Holmevej,4480,24,11.1495763,55.5948387
1326759,Holmevej,4480,26,11.1492706,55.5949303
1330882,Osvejen,4480,64,11.1624798,55.5574359
1330883,Osvejen,4480,70,11.162145,55.5564227
1330884,Osvejen,4480,71,11.162152,55.552724
1330885,Osvejen,4480,72,11.161912,55.5559846
1330886,Osvejen,4480,77,11.1617825,55.551612
1330887,Osvejen,4480,78,11.1615529,55.5549374
1330888,Osvejen,4480,79,11.1617147,55.5512748
1330889,Osvejen,4480,80,11.1614546,55.55456
1330890,Osvejen,4480,82,11.1582277,55.5543797
1330891,Osvejen,4480,86,11.1611507,55.5535561
1330892,Osvejen,4480,88,11.1610934,55.5532492
1330893,Osvejen,4480,90,11.1609393,55.5530906
1330895,Osvejen,4480,92,11.1608323,55.5528543
1330896,Osvejen,4480,98,11.1603561,55.5517403
1330897,Osvejen,4480,100,11.1602863,55.5513399
1331097,Holmekrogen,4480,1,11.1538821,55.5936232
1331099,Holmekrogen,4480,3,11.1534292,55.5938538
1331101,Holmekrogen,4480,5,11.153218,55.5939074
1331102,Holmekrogen,4480,7,11.1529308,55.5939749
1331103,Holmekrogen,4480,9,11.1526696,55.5941155
1331104,Holmekrogen,4480,11,11.1525116,55.5942261
1331105,Holmekrogen,4480,13,11.152215,55.594349
1331107,Holmekrogen,4480,15,11.1518423,55.5944301
1331261,Lyngparken,4480,1,11.1499768,55.5915604
1331263,Lyngparken,4480,2,11.1504768,55.5916574
1331265,Lyngparken,4480,3,11.149766,55.5919766
1331268,Lyngparken,4480,4,11.1502888,55.5919361
1331271,Lyngparken,4480,5,11.1497141,55.5921719
1331273,Lyngparken,4480,6,11.150208,55.5921732
1331276,Lyngparken,4480,7,11.1495364,55.5925202
1331278,Lyngparken,4480,8,11.1501731,55.5924527
1331280,Lyngparken,4480,9,11.1494223,55.5927761
1331283,Lyngparken,4480,10,11.1500005,55.5927151
1331286,Lyngparken,4480,11,11.1493412,55.5929599
1331289,Lyngparken,4480,12,11.1499071,55.5929629
1331293,Lyngparken,4480,13,11.149468,55.5932604
1331532,Søndervej,4480,8,11.14993,55.593875
1331534,Søndervej,4480,10,11.1495686,55.5938723
1331538,Fredskovens Engvej,4480,1,11.1615376,55.5508913
1331540,Søndervej,4480,12,11.1492007,55.5939201
1331541,Søndervej,4480,14,11.1489326,55.5939853
1331542,Fredskovens Engvej,4480,2,11.1610506,55.5504041
1331545,Søndervej,4480,16,11.1483455,55.5939741
1331547,Søndervej,4480,18,11.1480823,55.5939539
1331548,Fredskovens Engvej,4480,3,11.1621092,55.551035
1331551,Fredskovens Engvej,4480,4,11.1615828,55.5503889
1331552,Søndervej,4480,20,11.1477009,55.5939655
1331553,Søndervej,4480,22,11.1472217,55.5940508
1331555,Fredskovens Engvej,4480,5,11.162607,55.5507993
1331556,Søndervej,4480,24,11.1468826,55.5940802
1331560,Søndervej,4480,26,11.1464581,55.594092
1331561,Fredskovens Engvej,4480,6,11.1621974,55.5503441
1331563,Søndervej,4480,28,11.1460798,55.5940978
1331564,Fredskovens Engvej,4480,7,11.1625348,55.5512877
1331567,Søndervej,4480,30,11.1456947,55.5941895
1331569,Søndervej,4480,32,11.14542,55.5941267
1331570,Fredskovens Engvej,4480,8,11.162752,55.5502352
1331573,Fredskovens Engvej,4480,9,11.1628729,55.5515721
1331575,Fredskovens Engvej,4480,10,11.1633616,55.5501857
1331579,Fredskovens Engvej,4480,11,11.163545,55.5514345
1331581,Fredskovens Engvej,4480,12,11.1639258,55.5501029
1331585,Fredskovens Engvej,4480,13,11.1635203,55.5511263
1331589,Fredskovens Engvej,4480,14,11.164616,55.5500666
1331591,Fredskovens Engvej,4480,15,11.1633842,55.5508131
1331592,Fredskovens Engvej,4480,16,11.1648974,55.5505484
1331595,Fredskovens Engvej,4480,17,11.1640542,55.5506389
1331598,Fredskovens Engvej,4480,18,11.1651293,55.5508988
1331599,Fredskovens Engvej,4480,19,11.1642017,55.55107
1331601,Fredskovens Engvej,4480,20,11.1653036,55.5512574
1331604,Fredskovens Engvej,4480,21,11.1642564,55.5513621
1331607,Fredskovens Engvej,4480,22,11.1655343,55.5515672
1331609,Fredskovens Engvej,4480,23,11.1646443,55.551822
1331612,Fredskovens Engvej,4480,24,11.1657476,55.5520135
1331615,Fredskovens Engvej,4480,26,11.165842,55.552294
1331618,Fredskovens Engvej,4480,28,11.1661017,55.5525253
1331620,Fredskovens Engvej,4480,30,11.1663151,55.5528702
1331683,Lyngsandet,4480,1,11.1489991,55.5915267
1331687,Lyngsandet,4480,2,11.1494808,55.5916483
1331689,Lyngsandet,4480,3,11.148967,55.5918694
1331692,Lyngsandet,4480,4,11.1494797,55.5918677
1331699,Lyngsandet,4480,5,11.1488428,55.5920759
1331700,Lyngsandet,4480,6,11.1492504,55.5921989
1331704,Lyngsandet,4480,7,11.1485961,55.5923012
1331705,Lyngsandet,4480,8,11.1490643,55.5923915
1331708,Lyngsandet,4480,9,11.1483249,55.5925165
1331711,Lyngsandet,4480,10,11.148968,55.5926536
1331713,Lyngsandet,4480,11,11.1480489,55.5927612
1331715,Lyngsandet,4480,12,11.1485652,55.5928603
1331797,Lindevej,4480,1,11.1564205,55.5815002
1331798,Lindevej,4480,2,11.1569106,55.5815952
1331801,Lindevej,4480,3,11.1563745,55.5816548
1331805,Lindevej,4480,5,11.1563918,55.5819062
1331806,Lindevej,4480,6,11.1569123,55.582599
1331809,Lindevej,4480,7,11.1563734,55.5821414
1331810,Lindevej,4480,8,11.1569539,55.5829551
1331812,Lindevej,4480,8A,11.1569581,55.5833548
1331814,Lindevej,4480,9,11.1555921,55.5820247
1331816,Lindevej,4480,10,11.1575349,55.5830049
1331817,Lindevej,4480,11,11.1554648,55.5825316
1331820,Lindevej,4480,12,11.1576001,55.5833241
1331821,Lindevej,4480,13,11.1557978,55.5825443
1331824,Lindevej,4480,15,11.1562818,55.5825399
1331827,Lindevej,4480,16,11.1577869,55.5838136
1331828,Lindevej,4480,17,11.1558223,55.582812
1331830,Lindevej,4480,18,11.1574519,55.5836613
1331833,Lindevej,4480,19,11.1560864,55.5830478
1331834,Lindevej,4480,20,11.156846,55.5838
1331837,Lindevej,4480,21,11.1562628,55.5833652
1331838,Lindevej,4480,22,11.156971,55.584073
1331840,Lindevej,4480,23,11.1557268,55.5833617
1331842,Lindevej,4480,24,11.1569309,55.5846184
1331844,Lindevej,4480,25,11.1552178,55.5834148
1331848,Lindevej,4480,26,11.1569895,55.5848875
1331850,Lindevej,4480,27,11.1552373,55.5829797
1331854,Lindevej,4480,29,11.1547521,55.5831399
1331856,Lindevej,4480,31,11.154611,55.5833326
1331858,Lindevej,4480,32,11.1569933,55.5855682
1331859,Lindevej,4480,33,11.1553285,55.5837924
1331860,Lindevej,4480,34,11.1568711,55.5859406
1331863,Lindevej,4480,35,11.1557964,55.5837697
1331865,Lindevej,4480,36,11.1569878,55.5862741
1331867,Lindevej,4480,37,11.1561972,55.583809
1331870,Lindevej,4480,38,11.157338,55.5862737
1331872,Lindevej,4480,40,11.157619,55.586226
1331874,Lindevej,4480,42,11.157752,55.586608
1331877,Lindevej,4480,44,11.1573121,55.586614
1331881,Lindevej,4480,45,11.1563847,55.5853958
1331884,Lindevej,4480,46,11.1569887,55.5866358
1331887,Lindevej,4480,48,11.1569966,55.5868307
1331891,Lindevej,4480,50,11.1569941,55.5871996
1331893,Lindevej,4480,51,11.1564846,55.5861916
1331895,Lindevej,4480,52,11.156999,55.587495
1331897,Lindevej,4480,53,11.1563762,55.5864157
1331899,Lindevej,4480,54,11.157085,55.5877397
1331900,Lindevej,4480,55,11.156475,55.586654
1331902,Lindevej,4480,56,11.157025,55.587929
1331904,Lindevej,4480,57,11.1564237,55.5868481
1331905,Lindevej,4480,58,11.157053,55.588199
1331908,Lindevej,4480,59,11.1565314,55.5872702
1331911,Lindevej,4480,60,11.1570583,55.5884525
1331913,Lindevej,4480,61,11.1564557,55.5875264
1331915,Lindevej,4480,62,11.1570544,55.5886446
1331918,Lindevej,4480,63,11.1559868,55.5875921
1331920,Lindevej,4480,64,11.1569948,55.5889786
1331921,Lindevej,4480,65,11.1564602,55.5878294
1331923,Lindevej,4480,67,11.1558927,55.5877746
1331925,Lindevej,4480,69,11.1556203,55.5881204
1331927,Lindevej,4480,71,11.156018,55.588088
1331929,Lindevej,4480,73,11.1565604,55.5881027
1331931,Lindevej,4480,75,11.1565751,55.5883763
1331933,Lindevej,4480,77,11.15609,55.588356
1331935,Lindevej,4480,79,11.1558366,55.588363
1331943,Lindevej,4480,83,11.1552378,55.5886584
1331944,Lindevej,4480,85,11.1555876,55.5886171
1331946,Lindevej,4480,86,11.1548762,55.5919271
1331947,Lindevej,4480,87,11.1560738,55.5887013
1331952,Lindevej,4480,88,11.1549182,55.592199
1331955,Lindevej,4480,89,11.1565327,55.5887376
1331959,Lindevej,4480,91,11.1564984,55.5888984
1331961,Lindevej,4480,107,11.1542688,55.592037
1331964,Lindevej,4480,109,11.1535498,55.592368
1331966,Lindevej,4480,111,11.154279,55.5924147
1331967,Lindevej,4480,113,11.1532905,55.5926051
1332284,Ved Stranden,4480,4,11.1447611,55.5947248
1332286,Ved Stranden,4480,6,11.1445871,55.594886
1332299,Lyngvænget,4480,1,11.1508572,55.5916936
1332301,Lyngvænget,4480,2,11.1512432,55.591686
1332302,Lyngvænget,4480,3,11.1507559,55.5919299
1332303,Lyngvænget,4480,4,11.1512874,55.5919441
1332304,Lyngvænget,4480,5,11.1507551,55.592148
1332306,Lyngvænget,4480,6,11.151261,55.5923406
1332307,Lyngvænget,4480,7,11.1507493,55.5924045
1332309,Lyngvænget,4480,9,11.150514,55.5927012
1332346,Rønnevænget,4480,3,11.1461878,55.5948015
1332348,Rønnevænget,4480,4,11.1465737,55.5948599
1332349,Rønnevænget,4480,5,11.146019,55.594962
1332351,Rønnevænget,4480,6,11.1464305,55.5949941
1332354,Roskildevej,4480,1,11.1452084,55.5946019
1332355,Roskildevej,4480,2,11.1453671,55.5943726
1332356,Roskildevej,4480,3,11.1455771,55.5946131
1332357,Roskildevej,4480,4,11.145813,55.5943812
1332358,Roskildevej,4480,5,11.1459521,55.5946251
1332359,Roskildevej,4480,6,11.1462158,55.5943701
1332360,Roskildevej,4480,7,11.146352,55.5946584
1332361,Roskildevej,4480,8,11.1464623,55.5944337
1332362,Roskildevej,4480,9,11.146752,55.594673
1332363,Roskildevej,4480,10,11.1469136,55.5944862
1332364,Roskildevej,4480,11,11.1471099,55.5946808
1332365,Roskildevej,4480,12,11.1472352,55.5944996
1332366,Roskildevej,4480,13,11.1475228,55.5946442
1332367,Roskildevej,4480,14,11.1475622,55.5944741
1332368,Roskildevej,4480,15,11.1477413,55.5946544
1332369,Roskildevej,4480,16,11.1479145,55.594456
1332370,Roskildevej,4480,18,11.1484412,55.594525
1332440,Frøkær,4480,1,11.155725,55.591941
1332447,Frøkær,4480,2,11.1565003,55.591925
1332451,Frøkær,4480,3,11.155726,55.592259
1332454,Frøkær,4480,4,11.1564858,55.5921518
1332457,Frøkær,4480,5,11.1555676,55.5924619
1332460,Frøkær,4480,6,11.1564979,55.5924834
1332463,Frøkær,4480,7,11.1557569,55.5927986
1332484,Rypevej,4480,3,11.148337,55.594137
1332486,Rypevej,4480,4,11.1491098,55.5941779
1332487,Rypevej,4480,5,11.1481556,55.5943329
1332488,Rypevej,4480,6,11.1487457,55.5943727
1332489,Mågetoften,4480,3,11.1475507,55.5941274
1332490,Mågetoften,4480,4,11.1479686,55.5941448
1332491,Mågetoften,4480,5,11.1474277,55.594275
1332492,Mågetoften,4480,6,11.1477225,55.5943285
1332494,Pilestien,4480,3,11.1496947,55.5940546
1332511,Jagtvej,4480,3,11.1466924,55.59422
1332515,Jagtvej,4480,4,11.1471857,55.5941999
1332721,Piletoften,4480,3,11.1454829,55.5947922
1332724,Piletoften,4480,4,11.1457734,55.5948108
1332732,Piletoften,4480,5,11.1453781,55.5949719
1332739,Piletoften,4480,6,11.1457362,55.594979
1332801,Lykkevej,4480,3,11.1470096,55.5948586
1332804,Lykkevej,4480,4,11.1472751,55.5948578
1332811,Lykkevej,4480,5,11.1467977,55.5950762
1332814,Lykkevej,4480,6,11.1472627,55.5950396
1333911,Østre Egevej,4480,1,11.1642037,55.5564331
1333912,Østre Egevej,4480,2,11.163441,55.5565493
1333916,Østre Egevej,4480,3,11.1639772,55.5561519
1333920,Østre Egevej,4480,4,11.1633691,55.5562767
1333921,Østre Egevej,4480,5,11.1647662,55.5560394
1333926,Østre Egevej,4480,6,11.1628208,55.5558213
1333929,Østre Egevej,4480,7,11.165339,55.5559374
1333931,Østre Egevej,4480,8,11.163534,55.5558323
1333935,Østre Egevej,4480,9,11.1658659,55.5558527
1333937,Østre Egevej,4480,10,11.1639992,55.5557482
1333939,Østre Egevej,4480,11,11.1664506,55.5556966
1333941,Østre Egevej,4480,12,11.164566,55.55568
1333943,Østre Egevej,4480,13,11.1672088,55.5557026
1333946,Østre Egevej,4480,14,11.1650995,55.5555612
1333948,Østre Egevej,4480,15,11.1677823,55.5556338
1333949,Østre Egevej,4480,16,11.1655859,55.5555172
1333950,Østre Egevej,4480,18,11.1661745,55.5553952
1333951,Østre Egevej,4480,20,11.1666601,55.5553475
1333952,Østre Egevej,4480,22,11.1670509,55.5552107
1333953,Østre Egevej,4480,24,11.167634,55.5552449
1335770,Modinsvej Øst,4480,1,11.1629051,55.5553902
1335771,Modinsvej Øst,4480,2,11.1625833,55.5549009
1335772,Modinsvej Øst,4480,3,11.1636919,55.5551914
1335773,Modinsvej Øst,4480,4,11.1632907,55.554816
1335774,Modinsvej Øst,4480,5,11.164272,55.555274
1335775,Modinsvej Øst,4480,6,11.1639039,55.5547421
1335776,Modinsvej Øst,4480,7,11.1649016,55.5551257
1335777,Modinsvej Øst,4480,8,11.1645516,55.5546032
1335778,Modinsvej Øst,4480,9,11.1656097,55.5549984
1335779,Modinsvej Øst,4480,10,11.1651191,55.554574
1335780,Modinsvej Øst,4480,11,11.166216,55.55489
1335781,Modinsvej Øst,4480,12,11.165718,55.5545109
1335782,Modinsvej Øst,4480,13,11.166864,55.5548384
1335783,Modinsvej Øst,4480,14,11.166344,55.554371
1335784,Modinsvej Øst,4480,15,11.1673373,55.5548172
1335785,Modinsvej Øst,4480,16,11.1669386,55.5543406
1335801,Modinsvej Vest,4480,1,11.161525,55.555294
1335804,Modinsvej Vest,4480,2,11.1620211,55.5556439
1335805,Modinsvej Vest,4480,3,11.160822,55.555404
1335807,Modinsvej Vest,4480,4,11.1615594,55.5557033
1335808,Modinsvej Vest,4480,5,11.1605712,55.5549573
1335809,Modinsvej Vest,4480,6,11.1610308,55.5557335
1335810,Modinsvej Vest,4480,7,11.159984,55.5547523
1335811,Modinsvej Vest,4480,8,11.1604345,55.5558239
1335812,Modinsvej Vest,4480,9,11.1597998,55.5555437
1335813,Modinsvej Vest,4480,10,11.1598328,55.5558217
1335814,Modinsvej Vest,4480,11,11.1593261,55.5555058
1335815,Modinsvej Vest,4480,13,11.159039,55.555297
1335816,Modinsvej Vest,4480,15,11.1595933,55.5551154
1335817,Modinsvej Vest,4480,16,11.158365,55.556098
1335818,Modinsvej Vest,4480,17,11.1579895,55.5555152
1335819,Modinsvej Vest,4480,18,11.1584395,55.5558226
1336458,Østre Ågårdsvej,4480,1,11.163517,55.557109
1336459,Østre Ågårdsvej,4480,6,11.1648566,55.5564068
1336462,Østre Ågårdsvej,4480,7,11.1649733,55.5569647
1336463,Østre Ågårdsvej,4480,8,11.1655867,55.5563433
1336468,Østre Ågårdsvej,4480,9,11.1654095,55.5568927
1336470,Østre Ågårdsvej,4480,10,11.1660413,55.556234
1336474,Østre Ågårdsvej,4480,11,11.1657678,55.5566952
1336476,Østre Ågårdsvej,4480,12,11.1667601,55.5561417
1336479,Østre Ågårdsvej,4480,13,11.1662409,55.5566428
1336484,Østre Ågårdsvej,4480,14,11.1672885,55.5559872
1336485,Østre Ågårdsvej,4480,15,11.166626,55.556637
1336488,Østre Ågårdsvej,4480,16,11.1677302,55.5559192
1336490,Østre Ågårdsvej,4480,17,11.1671557,55.5566567
1336492,Østre Ågårdsvej,4480,19,11.1675066,55.5565533
1336494,Østre Ågårdsvej,4480,21,11.1682368,55.556337
1336586,Fredskovens Åvej,4480,1,11.162491,55.554326
1336587,Fredskovens Åvej,4480,2,11.1625673,55.5538078
1336588,Fredskovens Åvej,4480,3,11.1629381,55.5543148
1336589,Fredskovens Åvej,4480,4,11.163477,55.5535846
1336590,Fredskovens Åvej,4480,5,11.1635022,55.5542609
1336591,Fredskovens Åvej,4480,6,11.1642496,55.5534705
1336592,Fredskovens Åvej,4480,7,11.1640677,55.5541851
1336593,Fredskovens Åvej,4480,8,11.1648723,55.5534111
1336594,Fredskovens Åvej,4480,9,11.164538,55.5539697
1336595,Fredskovens Åvej,4480,10,11.1655218,55.5533708
1336596,Fredskovens Åvej,4480,11,11.1650583,55.5540187
1336597,Fredskovens Åvej,4480,12,11.1664578,55.5531993
1336598,Fredskovens Åvej,4480,13,11.165548,55.553842
1336599,Fredskovens Åvej,4480,15,11.166107,55.5537563
1336600,Fredskovens Åvej,4480,17,11.1667648,55.5537762
1336931,Kanalvej,4480,1,11.1639819,55.5570862
1336932,Kanalvej,4480,2,11.1646277,55.5569978
1336934,Kanalvej,4480,3,11.1642297,55.5576136
1336937,Kanalvej,4480,4,11.1648221,55.5574831
1336938,Kanalvej,4480,5,11.1636727,55.5576309
1336941,Kanalvej,4480,6,11.1651998,55.5573909
1336943,Kanalvej,4480,8,11.1656346,55.5572466
1336944,Kanalvej,4480,10,11.1660312,55.5573359
1336947,Kanalvej,4480,12,11.1664928,55.5572467
1336949,Kanalvej,4480,14,11.1669911,55.5572009
1336952,Kanalvej,4480,16,11.167386,55.557118
1336955,Kanalvej,4480,18,11.1678056,55.5571141
1336956,Kanalvej,4480,20,11.1685003,55.5568909
1336961,Kanalvej,4480,22,11.1682997,55.5566584
1337123,Frejasvej,4480,1,11.1646464,55.5590953
1337124,Frejasvej,4480,2,11.1644525,55.5585533
1337125,Frejasvej,4480,3,11.165393,55.559009
1337126,Frejasvej,4480,4,11.16473,55.558469
1337127,Frejasvej,4480,5,11.1659855,55.5589649
1337128,Frejasvej,4480,6,11.1653631,55.5584854
1337130,Frejasvej,4480,7,11.166403,55.5588729
1337131,Frejasvej,4480,8,11.1658802,55.5584008
1337134,Frejasvej,4480,9,11.166971,55.5588269
1337135,Frejasvej,4480,10,11.1663685,55.5583692
1337139,Frejasvej,4480,11,11.1673721,55.5587357
1337142,Frejasvej,4480,12,11.1668695,55.5583475
1337144,Frejasvej,4480,13,11.1682589,55.5585939
1337148,Frejasvej,4480,14,11.1672922,55.5582376
1337151,Frejasvej,4480,15,11.168828,55.558485
1337154,Frejasvej,4480,16,11.1677914,55.5581421
1337158,Frejasvej,4480,17,11.1692932,55.5584777
1337160,Frejasvej,4480,18,11.168078,55.5581263
1337162,Frejasvej,4480,20,11.1686592,55.5580623
1337163,Frejasvej,4480,22,11.1690833,55.5580177
1337203,Fredskovens Lyngvej,4480,1,11.1597465,55.5520203
1337204,Fredskovens Lyngvej,4480,2,11.1600776,55.5525991
1337205,Fredskovens Lyngvej,4480,3,11.1595514,55.5515827
1337206,Fredskovens Lyngvej,4480,4,11.1602705,55.5531994
1337207,Fredskovens Lyngvej,4480,5,11.1593834,55.5509943
1337208,Fredskovens Lyngvej,4480,6,11.1604042,55.5535576
1337209,Fredskovens Lyngvej,4480,7A,11.1592943,55.5507031
1337210,Fredskovens Lyngvej,4480,7B,11.1586942,55.550806
1337211,Fredskovens Lyngvej,4480,8,11.1599527,55.5536702
1337212,Fredskovens Lyngvej,4480,9,11.1588574,55.5510762
1337213,Fredskovens Lyngvej,4480,10,11.159629,55.553231
1337214,Fredskovens Lyngvej,4480,11,11.1590936,55.5517114
1337215,Fredskovens Lyngvej,4480,12,11.1593979,55.5527797
1337216,Fredskovens Lyngvej,4480,13,11.1592837,55.5522963
1338561,Bakkendrupvej,4480,18,11.2514293,55.5698061
1338568,Bakkendrupvej,4480,20,11.2515308,55.5700072
1338574,Bakkendrupvej,4480,22,11.2519848,55.5704871
1338575,Bakkendrupvej,4480,23,11.2506432,55.5734998
1338579,Bakkendrupvej,4480,24,11.261734,55.569239
1338580,Bakkendrupvej,4480,25,11.2505354,55.5748492
1338583,Bakkendrupvej,4480,26,11.251575,55.573438
1338585,Bakkendrupvej,4480,27,11.2509887,55.5776713
1338586,Bakkendrupvej,4480,28,11.252381,55.574787
1338588,Bakkendrupvej,4480,29,11.245327,55.5843164
1338590,Bakkendrupvej,4480,30,11.2513427,55.5764451
1338591,Bakkendrupvej,4480,32,11.251774,55.577934
1338594,Bakkendrupvej,4480,34,11.2519667,55.5789101
1338595,Bakkendrupvej,4480,36,11.2608837,55.5842119
1338597,Bakkendrupvej,4480,38,11.2575327,55.5827686
1338598,Bakkendrupvej,4480,40,11.2563241,55.5818953
1338601,Bakkendrupvej,4480,42,11.2518629,55.5793893
1338602,Bakkendrupvej,4480,44,11.245801,55.5844438
1338940,Fredskovvej Øst,4480,1,11.1619296,55.5522518
1338941,Fredskovvej Øst,4480,2,11.1616239,55.5519954
1338942,Fredskovvej Øst,4480,3,11.1625523,55.5526136
1338943,Fredskovvej Øst,4480,4,11.1626829,55.5519791
1338944,Fredskovvej Øst,4480,5,11.1631344,55.5523631
1338945,Fredskovvej Øst,4480,6,11.1632281,55.5519938
1338946,Fredskovvej Øst,4480,7,11.1636033,55.5524341
1338947,Fredskovvej Øst,4480,8,11.1637129,55.5519511
1338948,Fredskovvej Øst,4480,9,11.1642579,55.5523438
1338949,Fredskovvej Øst,4480,10,11.1642186,55.5518854
1338950,Fredskovvej Øst,4480,11,11.164912,55.552238
1339030,Fredskovens Gyvelvej,4480,1,11.1587432,55.5522631
1339031,Fredskovens Gyvelvej,4480,2,11.1591306,55.5528749
1339032,Fredskovens Gyvelvej,4480,3,11.1585659,55.5516395
1339033,Fredskovens Gyvelvej,4480,4,11.1592123,55.5533014
1339034,Fredskovens Gyvelvej,4480,5,11.1584248,55.5512128
1339035,Fredskovens Gyvelvej,4480,6,11.159408,55.553667
1339036,Fredskovens Gyvelvej,4480,7,11.158043,55.550816
1339037,Fredskovens Gyvelvej,4480,8,11.158951,55.553737
1339038,Fredskovens Gyvelvej,4480,9,11.15786,55.5512699
1339039,Fredskovens Gyvelvej,4480,10,11.1585095,55.5531931
1339040,Fredskovens Gyvelvej,4480,11,11.1580121,55.5517061
1339168,Fredskovens Birkevej,4480,1,11.1650961,55.5527539
1339169,Fredskovens Birkevej,4480,2,11.1653742,55.5530492
1339170,Fredskovens Birkevej,4480,3,11.1645937,55.552729
1339171,Fredskovens Birkevej,4480,4,11.1646496,55.5530552
1339172,Fredskovens Birkevej,4480,5,11.1639819,55.5528298
1339173,Fredskovens Birkevej,4480,6,11.163869,55.5531639
1339174,Fredskovens Birkevej,4480,7,11.1634718,55.552901
1339175,Fredskovens Birkevej,4480,8,11.1631492,55.553355
1339176,Fredskovens Birkevej,4480,9,11.1629911,55.552965
1339177,Fredskovens Birkevej,4480,10,11.1623012,55.5534315
1339178,Fredskovens Birkevej,4480,11,11.1622453,55.5530814
1339509,Fredskovvej Vest,4480,1,11.16053,55.552125
1339510,Fredskovvej Vest,4480,2,11.1607328,55.552509
1339511,Fredskovvej Vest,4480,9,11.158328,55.5524347
1339512,Fredskovvej Vest,4480,11,11.1578705,55.5524744
1339513,Fredskovvej Vest,4480,12,11.1582315,55.5527984
1339514,Fredskovvej Vest,4480,13,11.157789,55.5520584
1339515,Fredskovvej Vest,4480,15,11.1575204,55.5516326
1339516,Fredskovvej Vest,4480,17,11.1572462,55.5513094
1339517,Fredskovvej Vest,4480,19,11.1571467,55.5509463
1339518,Fredskovvej Vest,4480,21,11.15708,55.5507703
1339840,Vestre Ågårdsvej,4480,1,11.1622829,55.5567851
1339841,Vestre Ågårdsvej,4480,2,11.162244,55.5571736
1339842,Vestre Ågårdsvej,4480,3,11.1619019,55.55685
1339843,Vestre Ågårdsvej,4480,4,11.1618974,55.5571857
1339844,Vestre Ågårdsvej,4480,5,11.161109,55.556845
1339845,Vestre Ågårdsvej,4480,6,11.1608374,55.5573045
1339846,Vestre Ågårdsvej,4480,7,11.1604581,55.5569737
1339847,Vestre Ågårdsvej,4480,9,11.1598798,55.5571317
1339848,Træskostien,4480,3,11.1611378,55.5566188
1339849,Træskostien,4480,4,11.1600529,55.5567149
1339850,Træskostien,4480,5,11.1617812,55.5565372
1339851,Træskostien,4480,6,11.1598172,55.5564106
1339852,Træskostien,4480,8,11.1597223,55.556203
1339853,Træskostien,4480,10,11.1608268,55.5562481
1339854,Træskostien,4480,12,11.1613117,55.5561333
1339925,Voldstien,4480,1,11.1599924,55.5575407
1339926,Voldstien,4480,3,11.1600068,55.5578628
1339927,Voldstien,4480,4,11.1610651,55.5576656
1339928,Voldstien,4480,5,11.160227,55.558178
1339929,Voldstien,4480,6,11.161935,55.5575411
1339930,Voldstien,4480,7,11.1611281,55.5580344
1339931,Voldstien,4480,9,11.161635,55.557962
1339932,Voldstien,4480,11,11.1622413,55.5578609
1340837,Fredskovens Søvej,4480,1,11.1612284,55.553893
1340838,Fredskovens Søvej,4480,3,11.1605556,55.5540374
1340839,Fredskovens Søvej,4480,5,11.1600785,55.5541149
1340840,Fredskovens Søvej,4480,7,11.1595867,55.554157
1340841,Fredskovens Søvej,4480,9,11.1590307,55.5542718
1340842,Åengsvej,4480,3,11.1748028,55.5597494
1340843,Åengsvej,4480,4,11.1743137,55.5600327
1340844,Åengsvej,4480,6,11.1742119,55.5598286
1340845,Åengsvej,4480,8,11.1738307,55.5597281
1340846,Åengsvej,4480,10,11.173802,55.5595158
1341058,Kæruldsvej,4480,3,11.1688486,55.5600924
1341059,Kæruldsvej,4480,6,11.1685347,55.5597818
1341060,Kæruldsvej,4480,7,11.1691923,55.5594749
1341061,Kæruldsvej,4480,8,11.1686651,55.5595076
1341062,Kæruldsvej,4480,9,11.1694589,55.5592462
1341063,Kæruldsvej,4480,10,11.168896,55.5590173
1341064,Kæruldsvej,4480,12,11.1690619,55.5587658
1341065,Kæruldsvej,4480,13,11.1698427,55.5587287
1341066,Kæruldsvej,4480,15,11.1700259,55.5584361
1341067,Kæruldsvej,4480,17,11.1706799,55.558379
1341068,Kæruldsvej,4480,19,11.1710293,55.5582355
1341129,Åbrinken,4480,2,11.1727816,55.5592588
1341130,Åbrinken,4480,4,11.1724109,55.5590771
1341131,Åbrinken,4480,6,11.1724802,55.5588031
1341132,Åbrinken,4480,8,11.1723094,55.5585568
1341133,Åbrinken,4480,10,11.17211,55.558384
1341198,Havnemarken,4480,2,11.180555,55.5839916
1341199,Havnemarken,4480,3,11.164721,55.58362
1341200,Havnemarken,4480,4,11.177181,55.5849214
1341201,Havnemarken,4480,5,11.1575131,55.5841651
1341202,Havnemarken,4480,6,11.1727348,55.5841046
1341203,Havnemarken,4480,8,11.1699562,55.5850091
1341204,Havnemarken,4480,9,11.1562314,55.5841457
1341205,Havnemarken,4480,10,11.1655567,55.5844619
1341206,Havnemarken,4480,11,11.1557355,55.5841542
1341207,Havnemarken,4480,12,11.1654414,55.5847163
1341208,Havnemarken,4480,12A,11.164244,55.5856635
1341209,Havnemarken,4480,13,11.1553219,55.5841943
1341210,Havnemarken,4480,14,11.1580214,55.5845851
1341211,Havnemarken,4480,15,11.1546508,55.5842219
1341212,Havnemarken,4480,16,11.1574951,55.5846003
1341213,Havnemarken,4480,17,11.1540095,55.5842386
1341214,Havnemarken,4480,19,11.1533085,55.5841868
1341215,Havnemarken,4480,20,11.1561991,55.5845122
1341216,Havnemarken,4480,22,11.1558202,55.5846119
1341217,Havnemarken,4480,23,11.1532415,55.5835828
1341218,Havnemarken,4480,24,11.1553633,55.5845841
1341219,Havnemarken,4480,25,11.1525523,55.5830106
1341220,Havnemarken,4480,26,11.1550031,55.5845465
1341221,Havnemarken,4480,27,11.152501,55.5837987
1341222,Havnemarken,4480,28,11.1546263,55.5845159
1341223,Havnemarken,4480,29,11.1526834,55.5842204
1341224,Havnemarken,4480,30,11.1540883,55.5845204
1341225,Havnemarken,4480,31,11.1522115,55.5842619
1341226,Havnemarken,4480,32,11.1537403,55.5845963
1341227,Havnemarken,4480,34,11.1532795,55.5844484
1341228,Havnemarken,4480,36,11.1530512,55.5845622
1341229,Havnemarken,4480,38,11.1526093,55.584603
1341230,Havnemarken,4480,40,11.1520939,55.5845423
1341231,Filipsdalvej,4480,1,11.1940601,55.5694414
1341232,Filipsdalvej,4480,1B,11.1939097,55.5688235
1341233,Filipsdalvej,4480,2,11.1878727,55.5693531
1341234,Filipsdalvej,4480,3,11.1881869,55.569092
1341235,Filipsdalvej,4480,3A,11.1876212,55.5658505
1341236,Filipsdalvej,4480,4,11.1863492,55.5693081
1341237,Filipsdalvej,4480,4B,11.1873082,55.5693052
1341238,Filipsdalvej,4480,5,11.1751423,55.569088
1341239,Filipsdalvej,4480,5X,11.1725204,55.5639507
1341240,Filipsdalvej,4480,6,11.1841172,55.5694335
1341241,Filipsdalvej,4480,7,11.1672736,55.5661298
1341242,Filipsdalvej,4480,8,11.1835816,55.5697133
1341243,Filipsdalvej,4480,9,11.1670325,55.5659859
1341244,Filipsdalvej,4480,9B,11.1680633,55.5657329
1341245,Filipsdalvej,4480,10,11.1802867,55.5695774
1341246,Filipsdalvej,4480,11,11.1665694,55.5657899
1341247,Filipsdalvej,4480,12,11.1738754,55.5697559
1341248,Filipsdalvej,4480,14,11.1715019,55.5683744
1585344,Flinterupvej,4480,1,11.1860418,55.5889634
1585348,Flinterupvej,4480,2,11.1859765,55.5885732
1585351,Flinterupvej,4480,3,11.1873592,55.5891092
1585354,Flinterupvej,4480,4,11.1864288,55.58853
1585356,Flinterupvej,4480,5,11.1877408,55.5888786
1585358,Flinterupvej,4480,7,11.1878267,55.5887538
1585361,Flinterupvej,4480,9,11.1880634,55.5887609
1585362,Flinterupvej,4480,10,11.1879134,55.5884958
1585365,Flinterupvej,4480,11,11.188328,55.5888311
1585367,Flinterupvej,4480,13,11.1886072,55.5887457
1585371,Flinterupvej,4480,14,11.189076,55.58847
1585373,Flinterupvej,4480,15,11.1892581,55.5887817
1585375,Flinterupvej,4480,16,11.188964,55.588257
1585377,Flinterupvej,4480,17,11.189935,55.589066
1585379,Flinterupvej,4480,18,11.1889288,55.5880755
1585381,Flinterupvej,4480,19,11.1896133,55.5892614
1585383,Flinterupvej,4480,20,11.1900909,55.5885928
1585385,Flinterupvej,4480,20A,11.1901399,55.5885773
1585387,Flinterupvej,4480,20B,11.1901888,55.5885619
1585390,Flinterupvej,4480,20C,11.190238,55.5885464
1585391,Flinterupvej,4480,21,11.1891697,55.589326
1585394,Flinterupvej,4480,23,11.1895756,55.5894015
1585396,Flinterupvej,4480,24,11.1909266,55.5887748
1585398,Flinterupvej,4480,25,11.1897206,55.58947
1585401,Flinterupvej,4480,25A,11.1894741,55.589722
1585402,Flinterupvej,4480,25B,11.1900495,55.589388
1585405,Flinterupvej,4480,25C,11.1901854,55.589576
1585407,Flinterupvej,4480,26,11.1912042,55.5887661
1585410,Flinterupvej,4480,27,11.1906413,55.5889329
1585413,Flinterupvej,4480,29,11.1910373,55.5889983
1585414,Flinterupvej,4480,31,11.1921306,55.5898959
1585416,Flinterupvej,4480,32,11.193348,55.588578
1585419,Flinterupvej,4480,33,11.1925317,55.5892127
1585421,Flinterupvej,4480,35,11.1943222,55.5894976
1585424,Flinterupvej,4480,36,11.1952495,55.5879373
1585425,Flinterupvej,4480,37,11.1937024,55.5888448
1585428,Flinterupvej,4480,38,11.1958049,55.5878208
1585430,Flinterupvej,4480,39,11.194529,55.5885148
1585432,Flinterupvej,4480,40,11.2035464,55.5878047
1585436,Flinterupvej,4480,41,11.1963548,55.5880843
1585438,Flinterupvej,4480,42,11.2065758,55.5874582
1585441,Flinterupvej,4480,43,11.202603,55.588187
1585443,Flinterupvej,4480,44,11.2148885,55.5870538
1585446,Flinterupvej,4480,45,11.215189,55.5886327
1585447,Flinterupvej,4480,46,11.2149215,55.5872977
1585448,Flinterupvej,4480,47,11.2152506,55.587872
1585449,Flinterupvej,4480,48,11.215645,55.587428
1585450,Flinterupvej,4480,49,11.2154055,55.5879784
1585451,Flinterupvej,4480,50,11.217171,55.5870369
1585452,Flinterupvej,4480,51,11.2159564,55.5876567
1585453,Flinterupvej,4480,52,11.2164503,55.5868432
1585454,Flinterupvej,4480,53A,11.2162916,55.5875226
1585455,Flinterupvej,4480,53B,11.2164534,55.5878334
1585456,Flinterupvej,4480,54,11.2173464,55.5861023
1585457,Flinterupvej,4480,55,11.2178766,55.5871177
1585458,Flinterupvej,4480,56,11.2171719,55.586717
1585459,Flinterupvej,4480,57,11.218352,55.5872163
1585460,Flinterupvej,4480,58,11.2178336,55.5869236
1585461,Flinterupvej,4480,60,11.2186862,55.5867933
1585462,Flinterupvej,4480,61,11.2220491,55.5863754
1585463,Flinterupvej,4480,63,11.2223915,55.5862965
1585464,Flinterupvej,4480,64,11.2252865,55.5853233
1585465,Flinterupvej,4480,65,11.2237289,55.5860227
1585466,Flinterupvej,4480,66,11.2256888,55.5852928
1585467,Flinterupvej,4480,67A,11.2250277,55.5856623
1585468,Flinterupvej,4480,67B,11.2253932,55.5855927
1585469,Flinterupvej,4480,68,11.2258997,55.5851954
1585470,Flinterupvej,4480,69,11.2258458,55.5854236
1585471,Flinterupvej,4480,70,11.2265434,55.5850046
1585472,Flinterupvej,4480,71,11.2260787,55.585389
1585473,Flinterupvej,4480,72,11.2268887,55.5850118
1585474,Flinterupvej,4480,73,11.2266659,55.5854739
1585475,Flinterupvej,4480,74,11.2273429,55.584916
1585476,Flinterupvej,4480,75,11.2269305,55.5852534
1585477,Flinterupvej,4480,76,11.2276569,55.5847598
1585478,Flinterupvej,4480,77,11.2273642,55.5851577
1585479,Flinterupvej,4480,78,11.2280002,55.5847092
1585480,Flinterupvej,4480,79,11.2277395,55.5850737
1585481,Flinterupvej,4480,80,11.2283879,55.5845082
1585482,Flinterupvej,4480,81,11.2280191,55.58502
1585483,Flinterupvej,4480,82,11.2293756,55.584445
1585484,Flinterupvej,4480,83,11.2282253,55.584926
1585485,Flinterupvej,4480,84,11.2304329,55.5842861
1585486,Flinterupvej,4480,85,11.2285518,55.5849164
1585487,Flinterupvej,4480,86,11.2306844,55.5842326
1585488,Flinterupvej,4480,87A,11.2294006,55.5847966
1585489,Flinterupvej,4480,87B,11.2295278,55.5847692
1585490,Flinterupvej,4480,88,11.2309605,55.5841862
1585491,Flinterupvej,4480,89,11.2295914,55.5846468
1585492,Flinterupvej,4480,90,11.2312317,55.5841248
1585493,Flinterupvej,4480,91,11.2298419,55.5845929
1585494,Flinterupvej,4480,93,11.2319115,55.5856859
1585495,Flinterupvej,4480,94,11.2316796,55.5839508
1585496,Flinterupvej,4480,95,11.2301323,55.5845303
1585497,Flinterupvej,4480,96,11.2321605,55.5838517
1585498,Flinterupvej,4480,97,11.2304868,55.5844742
1585499,Flinterupvej,4480,98,11.2324967,55.583734
1585500,Flinterupvej,4480,99,11.2309061,55.5844903
1585501,Flinterupvej,4480,100,11.2328294,55.5837326
1585502,Flinterupvej,4480,101,11.2312412,55.5843873
1585503,Flinterupvej,4480,102,11.2333287,55.5837067
1585504,Flinterupvej,4480,103,11.2316955,55.5842926
1585505,Flinterupvej,4480,105A,11.2319855,55.5842574
1585506,Flinterupvej,4480,105B,11.2322236,55.5841922
1585507,Flinterupvej,4480,106,11.2406659,55.5848771
1585508,Flinterupvej,4480,107,11.2401366,55.5851622
1585509,Flinterupvej,4480,108,11.2419454,55.5846917
1585510,Flinterupvej,4480,109,11.2405365,55.5852348
1585511,Flinterupvej,4480,110,11.2422869,55.5850497
1585512,Flinterupvej,4480,111,11.240447,55.585578
1585513,Flinterupvej,4480,112,11.242571,55.5850628
1585514,Flinterupvej,4480,113,11.2413252,55.5854577
1585515,Flinterupvej,4480,114,11.2429595,55.5849903
1585516,Flinterupvej,4480,115A,11.2418455,55.5857274
1585517,Flinterupvej,4480,115B,11.2423751,55.5852728
1585518,Flinterupvej,4480,115C,11.2422497,55.5857113
1585519,Flinterupvej,4480,115D,11.2426329,55.5857501
1585520,Flinterupvej,4480,116,11.2443849,55.5850838
1585521,Flinterupvej,4480,117,11.2429692,55.5854614
1585522,Flinterupvej,4480,119,11.2432556,55.5855323
1585523,Flinterupvej,4480,121,11.2432302,55.5856997
1585524,Flinterupvej,4480,123,11.2435725,55.5855437
1585525,Flinterupvej,4480,125,11.2436238,55.5858968
1585526,Flinterupvej,4480,127,11.2439641,55.5858268
1585527,Flinterupvej,4480,129A,11.2447991,55.5855894
1585528,Flinterupvej,4480,129B,11.244955,55.585596
1587800,Fyrrestien Øst,4480,1,11.165458,55.5617167
1587803,Fyrrestien Øst,4480,2,11.1649063,55.5615302
1587805,Fyrrestien Øst,4480,3,11.1663917,55.5615435
1587807,Fyrrestien Øst,4480,4,11.1654077,55.5614321
1587809,Fyrrestien Øst,4480,6,11.1659636,55.561345
1587811,Fyrrestien Øst,4480,8,11.1664546,55.5612989
1587813,Fyrrestien Øst,4480,10,11.1670537,55.5612036
1588693,Ingeborgs Alle,4480,1,11.149523,55.588763
1588694,Ingeborgs Alle,4480,3,11.149682,55.588946
1588695,Ingeborgs Alle,4480,4,11.15044,55.588516
1588696,Ingeborgs Alle,4480,7,11.1507012,55.5888867
1588697,Ingeborgs Alle,4480,8,11.1509263,55.5885716
1588698,Ingeborgs Alle,4480,9,11.1518987,55.5890301
1588699,Ingeborgs Alle,4480,10,11.1511724,55.5885896
1588700,Ingeborgs Alle,4480,12,11.151522,55.588709
1588701,Ingeborgs Alle,4480,13,11.1521661,55.5885112
1589440,Bjergevang,4480,1,11.1562408,55.5857118
1589441,Bjergevang,4480,2,11.1585607,55.5857447
1589444,Bjergevang,4480,3,11.155614,55.58575
1589446,Bjergevang,4480,4,11.1585243,55.5859519
1589448,Bjergevang,4480,5,11.1551045,55.585728
1589450,Bjergevang,4480,6,11.1581183,55.5859072
1589453,Bjergevang,4480,7,11.1545267,55.5857535
1589455,Bjergevang,4480,8,11.1576644,55.5859179
1589456,Bjergevang,4480,9,11.1540041,55.5857333
1589459,Bjergevang,4480,10,11.1573783,55.5858492
1589461,Bjergevang,4480,11,11.1534108,55.5857537
1589463,Bjergevang,4480,13,11.1528215,55.5857855
1589464,Bjergevang,4480,14,11.1563496,55.5859659
1589465,Bjergevang,4480,15,11.1523931,55.5857788
1589466,Bjergevang,4480,16,11.1558585,55.5859457
1589467,Bjergevang,4480,17,11.1518355,55.5858108
1589468,Bjergevang,4480,18,11.1553776,55.5859849
1589469,Bjergevang,4480,19,11.151366,55.585828
1589470,Bjergevang,4480,20,11.1549079,55.5859631
1589471,Bjergevang,4480,22,11.1543442,55.5859818
1589472,Bjergevang,4480,24,11.153732,55.5860136
1589473,Bjergevang,4480,26,11.1529587,55.5859705
1589474,Bjergevang,4480,28,11.1524689,55.5860132
1589475,Bjergevang,4480,30,11.1519003,55.5859983
1589476,Bjergevang,4480,32,11.1511685,55.586056
1589951,Fyrrebakken,4480,1,11.1655186,55.5651293
1589954,Fyrrebakken,4480,3,11.1651624,55.5651728
1589958,Fyrrebakken,4480,4,11.165265,55.565349
1589959,Fyrrebakken,4480,5,11.1646031,55.565207
1589963,Fyrrebakken,4480,6,11.1649019,55.5654106
1589965,Fyrrebakken,4480,8,11.164537,55.5654436
1589966,Fyrrebakken,4480,9,11.1640395,55.5653186
1589970,Fyrrebakken,4480,10,11.164159,55.565504
1589972,Fyrrebakken,4480,11,11.1636706,55.5653727
1589976,Fyrrebakken,4480,12,11.1637258,55.5655689
1589979,Fyrrebakken,4480,13,11.1632773,55.5654286
1589981,Fyrrebakken,4480,14,11.163368,55.5656064
1589985,Fyrrebakken,4480,15,11.1628782,55.5654882
1589987,Fyrrebakken,4480,16,11.1629401,55.5656483
1589989,Fyrrebakken,4480,17,11.1625294,55.5655194
1589990,Fyrrebakken,4480,18,11.1624367,55.5657597
1589991,Fyrrebakken,4480,19,11.1620562,55.5655823
1589992,Fyrrebakken,4480,20,11.1621752,55.5657727
1589993,Fyrrebakken,4480,21,11.1617392,55.5656692
1589995,Fyrrebakken,4480,22,11.1617457,55.5658419
1589997,Fyrrebakken,4480,23,11.1612951,55.565704
1590000,Fyrrebakken,4480,24,11.161424,55.565887
1590002,Fyrrebakken,4480,25,11.160935,55.565743
1590006,Fyrrebakken,4480,26,11.1610303,55.5659247
1590009,Fyrrebakken,4480,27,11.1605457,55.5657874
1590010,Fyrrebakken,4480,28,11.1606287,55.5659822
1590011,Fyrrebakken,4480,29,11.159972,55.5658632
1590012,Fyrrebakken,4480,30,11.1599719,55.5660974
1590524,Birkeholmvænget,4480,1,11.1574192,55.5872426
1590525,Birkeholmvænget,4480,2,11.1579476,55.5872504
1590526,Birkeholmvænget,4480,3,11.1574577,55.587487
1590527,Birkeholmvænget,4480,4,11.1580486,55.5874527
1590528,Birkeholmvænget,4480,5,11.1574828,55.5877078
1590529,Birkeholmvænget,4480,6,11.1580431,55.5877152
1590530,Birkeholmvænget,4480,7,11.1575336,55.58799
1590531,Birkeholmvænget,4480,8,11.1580807,55.5879539
1590532,Birkeholmvænget,4480,9,11.1575336,55.5881878
1590533,Birkeholmvænget,4480,10,11.1580781,55.5882028
1590534,Birkeholmvænget,4480,11,11.1574724,55.5884427
1590535,Birkeholmvænget,4480,12,11.1580966,55.5884357
1590536,Birkeholmvænget,4480,13,11.157556,55.5886946
1590537,Birkeholmvænget,4480,14,11.15809,55.5886698
1590538,Birkeholmvænget,4480,15,11.157555,55.5889093
1590539,Birkeholmvænget,4480,16,11.1581103,55.5889613
1592260,Fugledevej,4480,20,11.240007,55.5978671
1592263,Fugledevej,4480,22,11.2359668,55.5949301
1592264,Fugledevej,4480,23,11.243685,55.5956017
1592265,Fugledevej,4480,24,11.2304087,55.5954925
1592266,Fugledevej,4480,25,11.245842,55.595091
1592268,Fugledevej,4480,26,11.2298875,55.595673
1592270,Fugledevej,4480,27,11.2460713,55.5942591
1592271,Fugledevej,4480,29,11.2443734,55.5937751
1592273,Fugledevej,4480,31A,11.2427266,55.5913015
1592274,Fugledevej,4480,33,11.2448923,55.5863132
1592276,Fugledevej,4480,35,11.2445384,55.5862883
1592278,Fugledevej,4480,37,11.2452117,55.5858489
1592279,Fugledevej,4480,40,11.2420587,55.5910213
1592282,Fugledevej,4480,42,11.2445033,55.5858073
1592670,Bøgelunden,4480,1,11.1540406,55.5874793
1592673,Bøgelunden,4480,2,11.1547018,55.5872641
1592676,Bøgelunden,4480,3,11.1538703,55.5877741
1592678,Bøgelunden,4480,4,11.1545345,55.5874558
1592681,Bøgelunden,4480,5,11.1537193,55.5880539
1592682,Bøgelunden,4480,6,11.1543384,55.5877154
1592685,Bøgelunden,4480,7,11.1535202,55.5882891
1592687,Bøgelunden,4480,8,11.1541479,55.5880733
1592688,Bøgelunden,4480,9,11.1532377,55.5885882
1592690,Bøgelunden,4480,10,11.1539868,55.5883337
1592693,Bøgelunden,4480,11,11.1531832,55.5888823
1592694,Bøgelunden,4480,12,11.1537558,55.5886156
1592699,Bøgelunden,4480,14,11.153625,55.588887
1592750,Tjørnelunden,4480,1,11.1583995,55.5872537
1592752,Tjørnelunden,4480,2,11.1594667,55.5871859
1592755,Tjørnelunden,4480,4,11.1590482,55.5874737
1592758,Tjørnelunden,4480,5,11.158456,55.5876734
1592761,Tjørnelunden,4480,6,11.158936,55.5878177
1592762,Tjørnelunden,4480,7,11.1585324,55.5879401
1592764,Tjørnelunden,4480,8,11.1589811,55.588054
1592765,Tjørnelunden,4480,9,11.1585535,55.5881987
1592766,Tjørnelunden,4480,10,11.1591481,55.588276
1592767,Tjørnelunden,4480,11,11.1585226,55.588444
1592768,Tjørnelunden,4480,12,11.1591073,55.5884811
1592769,Tjørnelunden,4480,13,11.1583869,55.5886431
1592770,Tjørnelunden,4480,15,11.1584939,55.5889167
1592771,Tjørnelunden,4480,22,11.1588737,55.5891618
1592772,Tjørnelunden,4480,24,11.1585006,55.5893149
1592773,Tjørnelunden,4480,26,11.1581164,55.5893514
1592774,Tjørnelunden,4480,28,11.1576785,55.5893161
1592775,Tjørnelunden,4480,30,11.1573307,55.5893189
1592776,Tjørnelunden,4480,32,11.1567832,55.5892858
1593117,Nyboderstien,4480,1,11.1657843,55.5640907
1593119,Nyboderstien,4480,2,11.1661462,55.5637009
1593121,Nyboderstien,4480,3,11.1660302,55.5640301
1593123,Nyboderstien,4480,5,11.1665416,55.5640071
1593126,Nyboderstien,4480,7,11.1668785,55.5639575
1593127,Nyboderstien,4480,9,11.167101,55.5637996
1593129,Nyboderstien,4480,11,11.1675333,55.5638553
1593135,Poppelhegnet,4480,2,11.1562661,55.5892617
1593136,Poppelhegnet,4480,3,11.155996,55.5889629
1593137,Poppelhegnet,4480,4,11.1556719,55.589203
1593138,Poppelhegnet,4480,5,11.1554392,55.5889538
1593139,Poppelhegnet,4480,6,11.1552412,55.5892283
1593140,Poppelhegnet,4480,7,11.1551067,55.5889416
1593141,Poppelhegnet,4480,8,11.1547852,55.5892166
1593142,Poppelhegnet,4480,10,11.154341,55.589182
1593143,Poppelhegnet,4480,12,11.153865,55.589151
1593144,Poppelhegnet,4480,14,11.1534193,55.5891655
1593145,Poppelhegnet,4480,16,11.153024,55.589114
1593146,Poppelhegnet,4480,18,11.152462,55.589103
1593260,Hasselstien,4480,2,11.1652668,55.5621583
1593261,Hasselstien,4480,4,11.1663599,55.5620463
1593262,Hasselstien,4480,6,11.166975,55.561956
1593263,Hasselstien,4480,8,11.1679558,55.5617603
1593264,Hasselstien,4480,10,11.168605,55.561717
1593279,Stubbevej,4480,2,11.1637654,55.5604076
1593282,Stubbevej,4480,4,11.1634259,55.5605152
1593283,Stubbevej,4480,6,11.1629684,55.5605194
1593287,Stubbevej,4480,8,11.1626476,55.560618
1593288,Stubbevej,4480,10,11.162298,55.5605547
1593292,Stubbevej,4480,12,11.1620376,55.5606527
1593295,Stubbevej,4480,14,11.1617296,55.560737
1593296,Stubbevej,4480,16,11.1612854,55.5607656
1593600,Bjerge Landevej,4480,2,11.1846372,55.5923332
1593601,Bjerge Landevej,4480,2A,11.1826619,55.5913312
1593602,Bjerge Landevej,4480,3,11.186389,55.589398
1593603,Bjerge Landevej,4480,5,11.1876415,55.5836989
1593604,Bjerge Landevej,4480,6,11.184962,55.590102
1593605,Bjerge Landevej,4480,7,11.1902063,55.5802956
1593606,Bjerge Landevej,4480,8,11.1907169,55.577957
1593607,Bjerge Landevej,4480,9,11.1907419,55.5795906
1593608,Bjerge Landevej,4480,10,11.1915814,55.5764305
1593609,Bjerge Landevej,4480,12,11.1921464,55.5745208
1593821,Skolelodden,4480,1,11.1875104,55.5883817
1593822,Skolelodden,4480,2,11.1867892,55.5884942
1593823,Skolelodden,4480,3,11.1870447,55.5880799
1593824,Skolelodden,4480,4,11.1867203,55.5882672
1593825,Skolelodden,4480,5,11.1869092,55.5878441
1593826,Skolelodden,4480,6,11.1861252,55.5883508
1593827,Skolelodden,4480,7,11.1867835,55.5876286
1593828,Skolelodden,4480,8,11.1859899,55.5880531
1593829,Skolelodden,4480,10,11.1864998,55.5879407
1593830,Skolelodden,4480,12,11.1863394,55.587748
1593831,Skolelodden,4480,14,11.1860581,55.5877998
1593832,Skolelodden,4480,16,11.186212,55.5875008
1593833,Skolelodden,4480,18,11.1861322,55.5872929
1593834,Skolelodden,4480,20,11.1862,55.587104
1593835,Skolelodden,4480,22,11.1863987,55.5869682
1594107,Askevej,4480,1,11.1586518,55.5868966
1594109,Askevej,4480,2,11.1582046,55.5868229
1594113,Askevej,4480,3,11.1588613,55.5866909
1594117,Askevej,4480,4,11.1582071,55.5866
1594119,Askevej,4480,5,11.1586437,55.5863807
1594122,Askevej,4480,6,11.1582742,55.5862648
1594325,Eckbohusvej,4480,2,11.1639728,55.5623494
1594327,Eckbohusvej,4480,4,11.1637845,55.5623675
1594328,Eckbohusvej,4480,6,11.1622954,55.5626139
1594329,Eckbohusvej,4480,8,11.1615172,55.5627256
1594330,Eckbohusvej,4480,10,11.160314,55.5628934
1594331,Eckbohusvej,4480,12,11.1592305,55.5630326
1594355,Risengen,4480,2,11.1698012,55.5588938
1594356,Risengen,4480,3,11.1701126,55.5592368
1594357,Risengen,4480,4,11.1703467,55.5587518
1594358,Risengen,4480,6,11.170715,55.5587473
1594359,Risengen,4480,7,11.170492,55.5592683
1594360,Risengen,4480,8,11.1711307,55.5587178
1594361,Risengen,4480,9,11.1707885,55.5591094
1594363,Risengen,4480,10,11.17161,55.558738
1594367,Risengen,4480,11,11.171224,55.5590687
1594369,Risengen,4480,12,11.1717231,55.5590101
1594410,Klokkevej,4480,2,11.1925219,55.588712
1594413,Klokkevej,4480,3,11.1928872,55.5885188
1594416,Klokkevej,4480,4,11.1924283,55.5885453
1594418,Klokkevej,4480,5,11.1926743,55.5883298
1594424,Klokkevej,4480,6,11.191942,55.5886929
1594429,Klokkevej,4480,7,11.1921452,55.5883208
1594431,Klokkevej,4480,9,11.1917545,55.5884609
1594434,Klokkevej,4480,11,11.191436,55.5885576
1594696,Hyrdehusvej,4480,1,11.165661,55.565398
1594700,Hyrdehusvej,4480,2,11.1659001,55.5656255
1594707,Hyrdehusvej,4480,4,11.1653328,55.5656039
1594714,Hyrdehusvej,4480,5,11.1645615,55.5655955
1594717,Hyrdehusvej,4480,6,11.164808,55.5657922
1594726,Hyrdehusvej,4480,7,11.1641731,55.5656647
1594733,Hyrdehusvej,4480,8,11.1645588,55.5658408
1594737,Hyrdehusvej,4480,9,11.1638924,55.565738
1594745,Hyrdehusvej,4480,10,11.1641882,55.5659155
1594747,Hyrdehusvej,4480,11,11.1634751,55.5657778
1594756,Hyrdehusvej,4480,12,11.1636708,55.5660227
1594768,Hyrdehusvej,4480,12A,11.1630275,55.5661606
1594771,Hyrdehusvej,4480,12B,11.1626216,55.5661139
1594782,Hyrdehusvej,4480,13,11.1627911,55.5658594
1594794,Hyrdehusvej,4480,14,11.162178,55.5661787
1594798,Hyrdehusvej,4480,15,11.1623733,55.5659434
1594805,Hyrdehusvej,4480,16,11.1616317,55.5662475
1594814,Hyrdehusvej,4480,17,11.162033,55.565997
1594816,Hyrdehusvej,4480,18,11.1613376,55.5662958
1594825,Hyrdehusvej,4480,19,11.1616407,55.5660473
1594834,Hyrdehusvej,4480,20,11.1609449,55.5664956
1594838,Hyrdehusvej,4480,21,11.161295,55.566111
1594844,Hyrdehusvej,4480,22,11.1606106,55.5664562
1594845,Hyrdehusvej,4480,23,11.160992,55.56612
1594850,Hyrdehusvej,4480,24,11.1603771,55.566437
1594854,Hyrdehusvej,4480,25,11.1606587,55.5661508
1594857,Hyrdehusvej,4480,26,11.1601625,55.5665002
1594861,Hyrdehusvej,4480,27,11.1603342,55.566205
1594866,Hyrdehusvej,4480,28,11.1599359,55.5665399
1594867,Hyrdehusvej,4480,29,11.1599111,55.5662959
1594871,Hyrdehusvej,4480,30,11.1596211,55.5665239
1594877,Hyrdehusvej,4480,31,11.159553,55.566312
1594878,Hyrdehusvej,4480,32,11.1595905,55.5666993
1594884,Hyrdehusvej,4480,34,11.1587138,55.5667673
1595652,Lyngbuen,4480,1,11.1577546,55.584983
1595656,Lyngbuen,4480,4,11.1582543,55.5854614
1595657,Lyngbuen,4480,5,11.1569158,55.5850897
1595662,Lyngbuen,4480,6,11.1577839,55.5854431
1595663,Lyngbuen,4480,8,11.157466,55.585486
1595666,Lyngbuen,4480,10,11.1570908,55.5853265
1595704,Keldsvej,4480,1,11.1766324,55.5717655
1595708,Keldsvej,4480,3,11.179075,55.5723725
1595711,Keldsvej,4480,4,11.1802158,55.5747522
1595716,Keldsvej,4480,5,11.1801439,55.5776545
1595721,Keldsvej,4480,6,11.1827162,55.5784344
1595722,Keldsvej,4480,7,11.1827454,55.5796146
1595726,Keldsvej,4480,8,11.1836712,55.579736
1595832,Odinsvej Øst,4480,1,11.1646332,55.5599856
1595834,Odinsvej Øst,4480,2,11.1644622,55.5595866
1595835,Odinsvej Øst,4480,3,11.165112,55.559969
1595838,Odinsvej Øst,4480,4,11.1648826,55.5594914
1595839,Odinsvej Øst,4480,5,11.1657297,55.5598565
1595842,Odinsvej Øst,4480,6,11.1655706,55.5594571
1595844,Odinsvej Øst,4480,7,11.1663027,55.5598316
1595845,Odinsvej Øst,4480,8,11.1660945,55.5593434
1595848,Odinsvej Øst,4480,9,11.1667534,55.5597529
1595849,Odinsvej Øst,4480,10,11.1666121,55.5592927
1595852,Odinsvej Øst,4480,11,11.1673689,55.5594687
1595854,Odinsvej Øst,4480,12,11.1669645,55.5591826
1595856,Odinsvej Øst,4480,13,11.1677617,55.5596077
1595858,Odinsvej Øst,4480,14,11.1676148,55.5591254
1595859,Odinsvej Øst,4480,15,11.1684007,55.5594073
1595863,Odinsvej Øst,4480,16,11.1682455,55.5590914
1596150,Solsiden,4480,1A,11.1925005,55.5866336
1596152,Solsiden,4480,1B,11.1923633,55.5863918
1596154,Solsiden,4480,1C,11.1920014,55.5866423
1596156,Solsiden,4480,1D,11.1917922,55.5864466
1596158,Solsiden,4480,3A,11.19145,55.58689
1596161,Solsiden,4480,3B,11.1915618,55.5868552
1596162,Solsiden,4480,3C,11.1916732,55.5868209
1596164,Solsiden,4480,3D,11.191785,55.586786
1596165,Solsiden,4480,3E,11.1915951,55.5866598
1596167,Solsiden,4480,3F,11.1915522,55.5866141
1596170,Solsiden,4480,3G,11.19151,55.5865682
1596173,Solsiden,4480,3H,11.191467,55.5865225
1596176,Solsiden,4480,3I,11.1909607,55.5866833
1596180,Solsiden,4480,3K,11.1911139,55.5866389
1596184,Solsiden,4480,3L,11.1911062,55.5868236
1596187,Solsiden,4480,3M,11.1911617,55.586885
1596190,Solsiden,4480,5A,11.1907214,55.5869576
1596194,Solsiden,4480,5B,11.1908064,55.5869334
1596198,Solsiden,4480,5C,11.190892,55.58691
1596205,Solsiden,4480,5D,11.1906662,55.5867731
1596207,Solsiden,4480,5E,11.190748,55.586749
1596212,Solsiden,4480,5F,11.1903405,55.5868494
1596216,Solsiden,4480,5G,11.1903859,55.5868996
1596218,Solsiden,4480,5H,11.190431,55.5869498
1596222,Solsiden,4480,5I,11.1905125,55.5870413
1596224,Solsiden,4480,5K,11.1905516,55.5870939
1596227,Solsiden,4480,5L,11.1906158,55.587131
1596230,Solsiden,4480,5M,11.1906654,55.5871601
1596233,Solsiden,4480,5N,11.1906956,55.5871928
1596490,Banevej,4480,1,11.2297517,55.584327
1596492,Banevej,4480,2,11.2293617,55.5836716
1596494,Banevej,4480,2B,11.2293456,55.5840832
1596496,Banevej,4480,3,11.2300389,55.5841701
1596498,Banevej,4480,4,11.2296141,55.5829697
1596500,Banevej,4480,5,11.2298072,55.5839377
1596502,Banevej,4480,6,11.2296377,55.5827783
1596504,Banevej,4480,7,11.229899,55.583735
1596506,Banevej,4480,9,11.2299148,55.5835859
1596511,Banevej,4480,11,11.2299215,55.5834133
1596514,Banevej,4480,13,11.2299387,55.5831448
1596517,Banevej,4480,15,11.2299538,55.5829301
1596520,Banevej,4480,17,11.2300079,55.5827813
1596522,Banevej,4480,19,11.2300338,55.5825089
1596526,Banevej,4480,21,11.2300891,55.5822162
1596527,Banevej,4480,23,11.2301085,55.5820523
1596531,Banevej,4480,25,11.2301373,55.5817316
1596534,Banevej,4480,27,11.2301199,55.581564
1596535,Banevej,4480,29,11.2302973,55.5814383
1596538,Banevej,4480,31,11.230235,55.581241
1596539,Banevej,4480,33,11.2303783,55.5810684
1596541,Banevej,4480,35,11.2304407,55.580882
1596543,Banevej,4480,37,11.2302558,55.5807022
1596581,Krokusvej,4480,2,11.1577446,55.5917339
1596582,Krokusvej,4480,3,11.1569341,55.5912637
1596583,Krokusvej,4480,4,11.1574486,55.5915609
1596584,Krokusvej,4480,5,11.1564002,55.5911122
1596585,Krokusvej,4480,6,11.1569098,55.5916267
1596586,Krokusvej,4480,8,11.1563097,55.591621
1596587,Krokusvej,4480,10,11.1558255,55.5914228
1596588,Krokusvej,4480,12,11.1552835,55.5915289
1596589,Krokusvej,4480,14,11.1555431,55.5911961
1596590,Krokusvej,4480,16,11.1556942,55.5910043
1596592,Krokusvej,4480,18,11.1558902,55.5908081
1596593,Krokusvej,4480,20,11.1562001,55.5906526
1596595,Krokusvej,4480,22,11.1564694,55.5903382
1596597,Krokusvej,4480,24,11.1566214,55.5901195
1596841,Mosevænget,4480,2,11.1569388,55.582164
1596842,Mosevænget,4480,3,11.1572897,55.5826202
1596843,Mosevænget,4480,4,11.1573436,55.5820324
1596844,Mosevænget,4480,5,11.1577465,55.5825619
1596845,Mosevænget,4480,6,11.1577746,55.5818372
1596849,Mosevænget,4480,7,11.1581508,55.5824817
1596852,Mosevænget,4480,8,11.1582981,55.5818725
1596855,Mosevænget,4480,9,11.1587202,55.5825219
1596861,Mosevænget,4480,10,11.1588468,55.582285
1596862,Mosevænget,4480,11,11.1592224,55.582561
1597358,Nyvej,4480,1,11.1641565,55.5609559
1597359,Nyvej,4480,2,11.1642265,55.5611806
1597362,Nyvej,4480,3,11.1637792,55.5610492
1597364,Nyvej,4480,4,11.1639199,55.5612594
1597366,Nyvej,4480,5,11.1634667,55.5610954
1597368,Nyvej,4480,6,11.1636239,55.5612553
1597370,Nyvej,4480,7,11.1630749,55.5611463
1597371,Nyvej,4480,8,11.1632683,55.5613594
1597372,Nyvej,4480,9,11.1627782,55.5611906
1597373,Nyvej,4480,10,11.1629343,55.5613931
1597374,Nyvej,4480,11,11.1624122,55.5612338
1597375,Nyvej,4480,12,11.1626187,55.5614392
1597376,Nyvej,4480,13,11.1621033,55.5612688
1597377,Nyvej,4480,14,11.162226,55.56148
1597378,Nyvej,4480,15,11.1617409,55.5612976
1597379,Nyvej,4480,16,11.1619311,55.5615438
1597380,Nyvej,4480,17,11.1613198,55.5613939
1597381,Nyvej,4480,18,11.1615395,55.5615573
1597382,Nyvej,4480,19,11.1610107,55.5613994
1597383,Nyvej,4480,20,11.1612334,55.5616167
1597384,Nyvej,4480,21,11.1606063,55.5614635
1597385,Nyvej,4480,22,11.1608639,55.5616413
1597386,Nyvej,4480,23,11.160252,55.5615236
1597387,Nyvej,4480,24,11.1605014,55.5617477
1597388,Nyvej,4480,25,11.1599046,55.5615795
1597389,Nyvej,4480,26,11.1601,55.5617806
1597390,Nyvej,4480,28,11.159355,55.56186
1597775,Gærdestien,4480,2,11.15406,55.5809336
1597776,Gærdestien,4480,4,11.1532109,55.5804459
1597778,Gærdestien,4480,6,11.1532915,55.5799728
1597779,Gærdestien,4480,8,11.1528796,55.5797187
1597788,Schousbovej,4480,1,11.1660779,55.5644615
1597790,Schousbovej,4480,2,11.1658473,55.5643391
1597791,Schousbovej,4480,3,11.1670503,55.5643383
1597792,Schousbovej,4480,4,11.1661281,55.5643049
1597794,Schousbovej,4480,6,11.1664733,55.5642484
1597795,Schousbovej,4480,8,11.1668349,55.5641763
1597814,Søndervang,4480,1,11.180712,55.588408
1597815,Søndervang,4480,2,11.1740302,55.5885869
1597817,Søndervang,4480,3,11.173575,55.587082
1597819,Søndervang,4480,4,11.164836,55.5880878
1597821,Søndervang,4480,5,11.1687883,55.5877682
1597823,Søndervang,4480,6,11.164059,55.587313
1597825,Søndervang,4480,7,11.1658978,55.5871227
1597827,Søndervang,4480,9,11.1642172,55.5867503
1597828,Søndervang,4480,15,11.1578198,55.5868552
1597831,Søndervang,4480,17,11.1574251,55.5868894
1597832,Søndervang,4480,20,11.1561214,55.5872502
1597835,Søndervang,4480,27,11.1542207,55.5866791
1597837,Søndervang,4480,28,11.154085,55.587239
1597838,Søndervang,4480,29,11.1511942,55.5866424
1597841,Søndervang,4480,31,11.1512073,55.5863509
1597842,Søndervang,4480,32,11.153039,55.587199
1597844,Søndervang,4480,33,11.1498489,55.5871693
1597845,Søndervang,4480,34,11.152685,55.5872054
1597846,Søndervang,4480,35,11.1495497,55.587743
1597847,Søndervang,4480,36,11.1523153,55.5871962
1597848,Søndervang,4480,40,11.1515827,55.5872252
1597849,Søndervang,4480,42,11.1512369,55.5871881
1597850,Søndervang,4480,44,11.150598,55.587415
1597851,Søndervang,4480,46,11.150478,55.587626
1597852,Søndervang,4480,48,11.1504001,55.5877539
1597853,Søndervang,4480,50,11.1503226,55.5878801
1597854,Søndervang,4480,52,11.150278,55.588005
1597855,Søndervang,4480,56,11.1501332,55.5883019
1597857,Søndervang,4480,58,11.1499018,55.588441
1598350,Rønnevej,4480,1,11.1544163,55.5813832
1598352,Rønnevej,4480,3,11.1543055,55.5816844
1598354,Rønnevej,4480,4,11.1549749,55.5816513
1598357,Rønnevej,4480,5,11.1541811,55.5819883
1598358,Rønnevej,4480,6,11.1547994,55.5818452
1598361,Rønnevej,4480,7,11.1541056,55.5821486
1598366,Rønnevej,4480,8,11.1549366,55.5821377
1598369,Rønnevej,4480,9,11.1541151,55.5825354
1598373,Rønnevej,4480,10,11.1548541,55.5823699
1598377,Rønnevej,4480,11,11.1540783,55.5828003
1598381,Rønnevej,4480,12,11.1547751,55.5825656
1598383,Rønnevej,4480,13,11.1539744,55.5832081
1598385,Rønnevej,4480,14,11.1548475,55.5827906
1598386,Rønnevej,4480,15,11.1539672,55.5835781
1598387,Rønnevej,4480,18,11.1544982,55.5836835
1598388,Rønnevej,4480,20,11.154756,55.5839457
1598896,Vedbyvej,4480,1,11.164916,55.563365
1598897,Vedbyvej,4480,2,11.1650367,55.5635166
1598898,Vedbyvej,4480,3,11.164065,55.5634897
1598900,Vedbyvej,4480,4,11.1645507,55.5635797
1598901,Vedbyvej,4480,6,11.1641572,55.5636488
1598902,Vedbyvej,4480,7,11.163246,55.563605
1598904,Vedbyvej,4480,8,11.1635973,55.5637513
1598905,Vedbyvej,4480,12,11.163234,55.5637669
1598906,Vedbyvej,4480,13,11.1623824,55.5636783
1598908,Vedbyvej,4480,14,11.1625983,55.5638706
1598910,Vedbyvej,4480,15,11.162212,55.5637494
1598911,Vedbyvej,4480,16,11.1622923,55.5639038
1598912,Vedbyvej,4480,18,11.1619528,55.5639474
1598914,Vedbyvej,4480,19,11.161324,55.563866
1598915,Vedbyvej,4480,20,11.1614624,55.5640102
1598916,Vedbyvej,4480,21,11.1609634,55.5639348
1598917,Vedbyvej,4480,22,11.1610318,55.5640684
1598919,Vedbyvej,4480,23,11.16066,55.563956
1598921,Vedbyvej,4480,24,11.1605562,55.564165
1598922,Vedbyvej,4480,25,11.1603013,55.5640086
1598923,Vedbyvej,4480,26,11.1602442,55.5641957
1598924,Vedbyvej,4480,27,11.1600094,55.5640502
1598926,Vedbyvej,4480,28,11.1597833,55.564222
1598927,Vedbyvej,4480,29,11.1598394,55.5640282
1598929,Vedbyvej,4480,30,11.1593646,55.5643119
1598930,Vedbyvej,4480,33,11.1593201,55.564073
1598931,Vedbyvej,4480,35,11.1591673,55.5641344
1599411,Urhøjvej,4480,1,11.1760475,55.5786379
1599415,Urhøjvej,4480,1A,11.1761022,55.5801608
1599416,Urhøjvej,4480,2,11.185091,55.5859332
1599421,Urhøjvej,4480,3,11.1740964,55.5780669
1599423,Urhøjvej,4480,3B,11.1740463,55.5780066
1599428,Urhøjvej,4480,3C,11.1742463,55.5772299
1599430,Urhøjvej,4480,4,11.1835353,55.5848851
1599433,Urhøjvej,4480,5,11.1705289,55.572314
1599436,Urhøjvej,4480,6,11.1824494,55.584043
1599440,Urhøjvej,4480,7,11.1708664,55.57162
1599442,Urhøjvej,4480,8,11.1819007,55.5837887
1599446,Urhøjvej,4480,9,11.1692472,55.5698881
1599450,Urhøjvej,4480,10,11.178809,55.5827407
1599451,Urhøjvej,4480,12,11.169816,55.578783
1599456,Urhøjvej,4480,14,11.1551708,55.5785182
1599458,Urhøjvej,4480,14A,11.1538827,55.5793568
1599461,Urhøjvej,4480,16,11.1721719,55.5775979
1599464,Urhøjvej,4480,18,11.171156,55.575497
1599467,Urhøjvej,4480,20,11.1684072,55.5747125
1599471,Urhøjvej,4480,22,11.1675976,55.574902
1599475,Urhøjvej,4480,24,11.1635866,55.5747917
1599477,Urhøjvej,4480,26,11.1698917,55.5730163
1599480,Urhøjvej,4480,28,11.163462,55.573058
1599483,Urhøjvej,4480,30,11.1693755,55.5710141
1599484,Urhøjvej,4480,32,11.1686698,55.5700059
1599488,Urhøjvej,4480,34,11.1631279,55.5679148
1599491,Urhøjvej,4480,36,11.1687524,55.5669798
1600269,Absalonsvej,4480,3,11.1509365,55.5875859
1600273,Absalonsvej,4480,4,11.1512273,55.5874365
1600276,Absalonsvej,4480,5,11.151217,55.5875689
1600278,Absalonsvej,4480,6,11.1516089,55.5874369
1600280,Absalonsvej,4480,7,11.151442,55.5877107
1600282,Absalonsvej,4480,8,11.1521707,55.5874185
1600284,Absalonsvej,4480,9,11.1517356,55.5877066
1600286,Absalonsvej,4480,10,11.1525444,55.5873918
1600287,Absalonsvej,4480,11,11.1521169,55.587652
1600289,Absalonsvej,4480,12,11.1529072,55.5874388
1600292,Absalonsvej,4480,13,11.1525135,55.5876757
1600527,Østvej,4480,2,11.1644716,55.5606568
1600528,Østvej,4480,4,11.1648918,55.560479
1600529,Østvej,4480,6,11.1648902,55.5602809
1600530,Østvej,4480,7,11.1654802,55.5605637
1600531,Østvej,4480,8,11.1653752,55.5602038
1600532,Østvej,4480,9,11.1657386,55.5604439
1600533,Østvej,4480,10,11.1657373,55.5601532
1600534,Østvej,4480,11,11.1664913,55.5604081
1600535,Østvej,4480,12,11.1660715,55.560163
1600537,Østvej,4480,14,11.1664599,55.5601336
1600538,Østvej,4480,15,11.1668748,55.5603559
1600541,Østvej,4480,16,11.1667572,55.5601314
1600542,Østvej,4480,17,11.1672634,55.5603398
1600544,Østvej,4480,18,11.1671294,55.5600182
1600547,Østvej,4480,19,11.167607,55.5602502
1600548,Østvej,4480,20,11.1674713,55.559989
1600551,Østvej,4480,21,11.16795,55.5602335
1600552,Østvej,4480,22,11.1678505,55.5599216
1600554,Østvej,4480,23,11.1683597,55.5600958
1600557,Østvej,4480,24,11.1681769,55.5598778
1600558,Østvej,4480,27,11.1693494,55.560047
1600561,Østvej,4480,28,11.1689394,55.5597578
1600563,Østvej,4480,29,11.1697849,55.5599698
1600565,Østvej,4480,30,11.169351,55.559712
1600567,Østvej,4480,31,11.1702445,55.5599211
1600569,Østvej,4480,32,11.169726,55.5596174
1600571,Østvej,4480,33,11.170656,55.5598173
1600573,Østvej,4480,34,11.1700992,55.5596364
1600574,Østvej,4480,35,11.1709623,55.5597763
1600575,Østvej,4480,36,11.1704295,55.5595598
1600576,Østvej,4480,37,11.1714274,55.5597254
1600577,Østvej,4480,38,11.170908,55.559453
1600579,Østvej,4480,39,11.171661,55.559662
1600581,Østvej,4480,40,11.1712853,55.5594149
1600583,Østvej,4480,42,11.1720281,55.5593324
1600585,Østvej,4480,46,11.1734105,55.5591445
1600645,Fyrrehegnet,4480,16,11.161717,55.565443
1600646,Fyrrehegnet,4480,18,11.160914,55.565566
1600647,Fyrrehegnet,4480,20,11.160521,55.565633
1600648,Fyrrehegnet,4480,22,11.16017,55.5656641
1600649,Fyrrehegnet,4480,23,11.1616343,55.5653149
1600650,Fyrrehegnet,4480,25,11.1613033,55.5653566
1600651,Fyrrehegnet,4480,27,11.1609935,55.5653845
1600677,Duevej,4480,1,11.1563223,55.5849076
1600679,Duevej,4480,3,11.1558631,55.5848892
1600681,Duevej,4480,4,11.1558668,55.5852213
1600683,Duevej,4480,5,11.155437,55.584886
1600686,Duevej,4480,6,11.1554194,55.5852143
1600688,Duevej,4480,7,11.154555,55.5849197
1600690,Duevej,4480,8,11.1550385,55.5851722
1600693,Duevej,4480,9,11.1541305,55.5849454
1600694,Duevej,4480,10,11.1545426,55.5852158
1600695,Duevej,4480,11,11.153688,55.5849191
1600696,Duevej,4480,12,11.1541932,55.5852248
1600697,Duevej,4480,13,11.1532959,55.5848925
1600698,Duevej,4480,14,11.1537531,55.5852401
1600699,Duevej,4480,15,11.1532323,55.585108
1600700,Duevej,4480,17A,11.1525663,55.5851338
1600701,Duevej,4480,17B,11.1526576,55.5852889
1600702,Duevej,4480,19,11.1531705,55.5853349
1600728,Nørrevang,4480,1,11.1848698,55.5905245
1600729,Nørrevang,4480,2,11.1731513,55.5920654
1600731,Nørrevang,4480,3,11.1771879,55.5906315
1600733,Nørrevang,4480,20,11.1538065,55.5918004
1600734,Nørrevang,4480,26,11.152317,55.5916694
1600736,Nørrevang,4480,28,11.1518103,55.59194
1600738,Nørrevang,4480,30,11.151802,55.5917163
1601145,Violvænget,4480,3,11.1586607,55.5912018
1601147,Violvænget,4480,4,11.1587179,55.5917323
1601148,Violvænget,4480,5,11.1582274,55.5911035
1601150,Violvænget,4480,6,11.1582269,55.5917272
1601153,Violvænget,4480,7,11.158028,55.590871
1601154,Violvænget,4480,8,11.157462,55.59121
1601156,Violvænget,4480,10,11.1570896,55.591003
1601157,Violvænget,4480,11,11.157466,55.590552
1601161,Violvænget,4480,12,11.1566811,55.5908466
1601162,Violvænget,4480,13,11.156986,55.5904858
1601363,Tystrupvej,4480,1,11.2308182,55.5804853
1601365,Tystrupvej,4480,2,11.233216,55.5834067
1601367,Tystrupvej,4480,2B,11.2326812,55.5833455
1601369,Tystrupvej,4480,3A,11.230474,55.580251
1601372,Tystrupvej,4480,3B,11.230308,55.579984
1601374,Tystrupvej,4480,3C,11.230486,55.578068
1601376,Tystrupvej,4480,4,11.232852,55.583122
1601379,Tystrupvej,4480,5,11.2292712,55.5791219
1601381,Tystrupvej,4480,7,11.229113,55.5789704
1601385,Tystrupvej,4480,8,11.2318528,55.5820008
1601388,Tystrupvej,4480,9,11.2270143,55.5766542
1601389,Tystrupvej,4480,10,11.231486,55.581658
1601392,Tystrupvej,4480,11,11.2251522,55.5731433
1601395,Tystrupvej,4480,12,11.2311554,55.581492
1601398,Tystrupvej,4480,13,11.225657,55.570773
1601400,Tystrupvej,4480,14,11.2309581,55.581234
1601403,Tystrupvej,4480,15,11.235583,55.572912
1601406,Tystrupvej,4480,16,11.2297481,55.5800621
1601407,Tystrupvej,4480,17,11.2239986,55.5685872
1601410,Tystrupvej,4480,18,11.2284518,55.5807
1601412,Tystrupvej,4480,19,11.2245143,55.5681303
1601414,Tystrupvej,4480,20,11.228857,55.579798
1601415,Tystrupvej,4480,21,11.2260694,55.568464
1601416,Tystrupvej,4480,22,11.2291024,55.5794333
1601417,Tystrupvej,4480,23,11.235186,55.5687525
1601418,Tystrupvej,4480,24,11.2289853,55.5793125
1601419,Tystrupvej,4480,25,11.2243996,55.567799
1601420,Tystrupvej,4480,26,11.2282101,55.5786834
1601421,Tystrupvej,4480,27,11.2235368,55.5678762
1601422,Tystrupvej,4480,28,11.2257409,55.5784731
1601423,Tystrupvej,4480,29,11.2227523,55.5677255
1601424,Tystrupvej,4480,30,11.2263079,55.5776764
1601425,Tystrupvej,4480,31,11.2215507,55.5674676
1601426,Tystrupvej,4480,32,11.2262331,55.5767979
1601427,Tystrupvej,4480,33,11.2216398,55.5680596
1601428,Tystrupvej,4480,34,11.225175,55.575056
1601429,Tystrupvej,4480,36,11.2248469,55.5746067
1601430,Tystrupvej,4480,37,11.2204513,55.5669784
1601431,Tystrupvej,4480,38,11.2240553,55.5736118
1601432,Tystrupvej,4480,39,11.2187763,55.5669136
1601433,Tystrupvej,4480,40,11.2240417,55.5717945
1601434,Tystrupvej,4480,41,11.2161281,55.5689782
1601435,Tystrupvej,4480,42,11.2202545,55.5686629
1601436,Tystrupvej,4480,43,11.2117993,55.5699243
1601437,Tystrupvej,4480,44,11.2142999,55.5698892
1601438,Tystrupvej,4480,45,11.2008728,55.5684377
1601439,Tystrupvej,4480,46,11.2049031,55.5704884
1601440,Tystrupvej,4480,48A,11.2009251,55.5688228
1601681,Bjerge Byvej,4480,2,11.18962,55.588461
1601682,Bjerge Byvej,4480,3,11.1908179,55.5883656
1601683,Bjerge Byvej,4480,4,11.189966,55.588393
1601684,Bjerge Byvej,4480,5,11.1910653,55.5882227
1601685,Bjerge Byvej,4480,6,11.189839,55.5879768
1601686,Bjerge Byvej,4480,7,11.1912646,55.5881566
1601687,Bjerge Byvej,4480,8,11.1904081,55.5881818
1601688,Bjerge Byvej,4480,9,11.1914551,55.5881032
1601689,Bjerge Byvej,4480,10,11.1906867,55.5880782
1601690,Bjerge Byvej,4480,11,11.1917057,55.5880466
1601691,Bjerge Byvej,4480,12,11.1911425,55.5879724
1601692,Bjerge Byvej,4480,13,11.1918295,55.5879439
1601693,Bjerge Byvej,4480,14,11.1915578,55.5875836
1601694,Bjerge Byvej,4480,15,11.192008,55.587886
1601695,Bjerge Byvej,4480,16,11.1923213,55.5874834
1601696,Bjerge Byvej,4480,17,11.192249,55.587835
1601697,Bjerge Byvej,4480,18,11.1925869,55.5870718
1601698,Bjerge Byvej,4480,19,11.1923703,55.5877112
1601699,Bjerge Byvej,4480,23,11.1928238,55.5874589
1601700,Bjerge Byvej,4480,25,11.1937381,55.5873492
1601701,Bjerge Byvej,4480,27,11.1947127,55.5868358
1601702,Bjerge Byvej,4480,29,11.1941147,55.5867073
1601703,Bjerge Byvej,4480,33,11.1930825,55.5870894
1601704,Bjerge Byvej,4480,35,11.1931605,55.5867389
1601705,Bjerge Byvej,4480,37,11.1930401,55.5865608
1601706,Bjerge Byvej,4480,39,11.1926232,55.584217
1601707,Bjerge Byvej,4480,41,11.1924285,55.5828401
1601710,Bjerge Byvej,4480,43,11.1912692,55.5805826
1602565,Kobjældevej,4480,1,11.1559536,55.5896543
1602566,Kobjældevej,4480,2,11.1556532,55.5900244
1602567,Kobjældevej,4480,3,11.1555192,55.5896277
1602568,Kobjældevej,4480,4,11.1552288,55.5899819
1602569,Kobjældevej,4480,5,11.1551449,55.5896087
1602570,Kobjældevej,4480,6,11.1548741,55.5899262
1602571,Kobjældevej,4480,7,11.1547492,55.5895838
1602572,Kobjældevej,4480,8,11.1544576,55.5899666
1602573,Kobjældevej,4480,9,11.1542941,55.5895454
1602574,Kobjældevej,4480,10,11.1540558,55.5899053
1602575,Kobjældevej,4480,11,11.1538363,55.5895456
1602576,Kobjældevej,4480,12,11.1535519,55.5898759
1602577,Kobjældevej,4480,13,11.1533778,55.5895262
1602578,Kobjældevej,4480,14,11.1530563,55.5898221
1602579,Kobjældevej,4480,15,11.1528151,55.589397
1602580,Kobjældevej,4480,16,11.1524562,55.5898532
1602581,Kobjældevej,4480,17,11.152364,55.5894704
1602582,Kobjældevej,4480,18,11.1519517,55.589778
1602583,Kobjældevej,4480,19,11.1519072,55.5894546
1602584,Kobjældevej,4480,20,11.1512508,55.5897992
1602585,Kobjældevej,4480,21,11.1514816,55.589388
1602586,Kobjældevej,4480,22,11.1506114,55.5897732
1602587,Kobjældevej,4480,23,11.1508717,55.5893913
1602588,Kobjældevej,4480,24,11.149888,55.589707
1602589,Kobjældevej,4480,25,11.1501439,55.5893719
1602590,Kobjældevej,4480,26,11.1494763,55.5896948
1602591,Kobjældevej,4480,27,11.1496686,55.589264
1603906,Odinsvej Vest,4480,1,11.1633648,55.5597188
1603907,Odinsvej Vest,4480,2,11.1634494,55.5601635
1603908,Odinsvej Vest,4480,3,11.1626446,55.5597749
1603909,Odinsvej Vest,4480,4,11.162903,55.5602546
1603910,Odinsvej Vest,4480,5,11.161859,55.559883
1603911,Odinsvej Vest,4480,6,11.1622337,55.5603206
1603914,Odinsvej Vest,4480,8,11.1614443,55.560421
1603916,Odinsvej Vest,4480,10,11.1607908,55.5604023
1604999,Elmelunden,4480,1,11.1551,55.587284
1605000,Elmelunden,4480,2,11.1555554,55.5872757
1605001,Elmelunden,4480,3,11.1549308,55.5875701
1605002,Elmelunden,4480,4,11.1554632,55.5875121
1605003,Elmelunden,4480,5,11.1546845,55.5878851
1605004,Elmelunden,4480,6,11.1552599,55.5877226
1605005,Elmelunden,4480,7,11.1545381,55.5881907
1605006,Elmelunden,4480,8,11.1551262,55.5879888
1605007,Elmelunden,4480,9,11.154359,55.588399
1605008,Elmelunden,4480,10,11.155025,55.5882243
1605010,Elmelunden,4480,11,11.154205,55.5886745
1605013,Elmelunden,4480,12,11.1548629,55.5884458
1605014,Elmelunden,4480,13,11.1540467,55.5888506
1605017,Elmelunden,4480,14,11.1546939,55.5886909
1605019,Elmelunden,4480,16,11.1545831,55.588882
1605111,Vestre Birkevej,4480,1,11.1649385,55.5636816
1605113,Vestre Birkevej,4480,2,11.1650943,55.5638439
1605116,Vestre Birkevej,4480,3,11.1646342,55.5637108
1605117,Vestre Birkevej,4480,4,11.1644977,55.5639424
1605120,Vestre Birkevej,4480,6,11.1642077,55.5639763
1605121,Vestre Birkevej,4480,7,11.163394,55.5639128
1605123,Vestre Birkevej,4480,8,11.1632986,55.5641021
1605126,Vestre Birkevej,4480,9,11.1630223,55.5639775
1605127,Vestre Birkevej,4480,10,11.1625228,55.5642104
1605128,Vestre Birkevej,4480,11,11.1625735,55.5640389
1605129,Vestre Birkevej,4480,12,11.1615608,55.5643561
1605130,Vestre Birkevej,4480,13,11.1618527,55.5641206
1605131,Vestre Birkevej,4480,14,11.161005,55.5644382
1605132,Vestre Birkevej,4480,15,11.1612852,55.5642212
1605133,Vestre Birkevej,4480,16,11.1605437,55.5644883
1605134,Vestre Birkevej,4480,17,11.1604982,55.5642848
1605135,Vestre Birkevej,4480,18,11.159995,55.564549
1605136,Vestre Birkevej,4480,19,11.1598399,55.5644262
1605168,Hjertegræsvej,4480,1,11.1554519,55.5903046
1605170,Hjertegræsvej,4480,2,11.155228,55.590637
1605172,Hjertegræsvej,4480,3,11.1550912,55.5902063
1605174,Hjertegræsvej,4480,4,11.154724,55.590642
1605176,Hjertegræsvej,4480,5,11.154621,55.590327
1605178,Hjertegræsvej,4480,6,11.154307,55.590594
1605180,Hjertegræsvej,4480,7,11.1542682,55.5902708
1605182,Hjertegræsvej,4480,8,11.1539582,55.5906119
1605184,Hjertegræsvej,4480,9,11.1537277,55.5902225
1605186,Hjertegræsvej,4480,10,11.1535251,55.5906238
1605188,Hjertegræsvej,4480,11,11.1533584,55.5902236
1605191,Hjertegræsvej,4480,12,11.1530097,55.590629
1605202,Hjertegræsvej,4480,13,11.1529194,55.5901124
1605206,Hjertegræsvej,4480,14,11.1526219,55.5905368
1605215,Hjertegræsvej,4480,15,11.1522918,55.5901928
1605222,Hjertegræsvej,4480,16,11.1520199,55.5905189
1605228,Hjertegræsvej,4480,17,11.1517382,55.5901314
1605236,Hjertegræsvej,4480,18,11.1515202,55.5905238
1605239,Hjertegræsvej,4480,19,11.1511341,55.5900772
1605243,Hjertegræsvej,4480,20,11.1510103,55.5904512
1605248,Hjertegræsvej,4480,21,11.1503576,55.5900671
1605250,Hjertegræsvej,4480,22,11.1504417,55.590376
1605255,Hjertegræsvej,4480,23,11.1497459,55.590043
1605258,Hjertegræsvej,4480,24,11.1500214,55.5902766
1605262,Hjertegræsvej,4480,25,11.1492324,55.58997
1605264,Hjertegræsvej,4480,26,11.149443,55.590388
1605269,Hjertegræsvej,4480,28,11.1490318,55.5904126
1605716,Egevej,4480,1,11.1533805,55.5872168
1605717,Egevej,4480,2,11.15377,55.587427
1605718,Egevej,4480,3,11.1533543,55.5874077
1605719,Egevej,4480,4,11.1535971,55.5877024
1605720,Egevej,4480,5,11.1531971,55.5876576
1605721,Egevej,4480,6,11.1533891,55.587987
1605722,Egevej,4480,7,11.153027,55.587893
1605723,Egevej,4480,9,11.1528277,55.5881627
1605724,Egevej,4480,11,11.152666,55.588419
1605725,Egevej,4480,12,11.1528966,55.5887812
1605727,Egevej,4480,13,11.1525052,55.5886731
1605728,Egevej,4480,15,11.1523511,55.5889456
1606128,Fyrrestien Vest,4480,1,11.1643381,55.5616114
1606129,Fyrrestien Vest,4480,2,11.164313,55.5618237
1606131,Fyrrestien Vest,4480,3,11.163967,55.5616578
1606132,Fyrrestien Vest,4480,4,11.1637789,55.5619439
1606133,Fyrrestien Vest,4480,5,11.163668,55.5616976
1606135,Fyrrestien Vest,4480,6,11.1631184,55.5620187
1606136,Fyrrestien Vest,4480,7,11.163248,55.561766
1606137,Fyrrestien Vest,4480,8,11.1624753,55.5620475
1606140,Fyrrestien Vest,4480,9,11.1628962,55.561814
1606141,Fyrrestien Vest,4480,10,11.1620818,55.5621278
1606142,Fyrrestien Vest,4480,11,11.1625517,55.561828
1606144,Fyrrestien Vest,4480,12,11.1615596,55.5622214
1606145,Fyrrestien Vest,4480,13,11.162089,55.561916
1606147,Fyrrestien Vest,4480,14,11.1613149,55.5622931
1606148,Fyrrestien Vest,4480,15,11.1616407,55.5619211
1606149,Fyrrestien Vest,4480,16,11.1607076,55.5623292
1606151,Fyrrestien Vest,4480,17,11.1611293,55.5620898
1606152,Fyrrestien Vest,4480,18,11.1600948,55.5624651
1606154,Fyrrestien Vest,4480,19,11.1602833,55.5620569
1606156,Fyrrestien Vest,4480,20,11.1597226,55.5625207
1606157,Fyrrestien Vest,4480,21,11.1593418,55.5624658
1606160,Fyrrestien Vest,4480,22,11.1594339,55.5626012
1606163,Fyrrestien Vest,4480,23,11.159893,55.562379
1606164,Fyrrestien Vest,4480,24,11.1591572,55.5625687
1606446,Åmarksvej,4480,5,11.166891,55.564932
1606448,Åmarksvej,4480,6,11.1668599,55.5645443
1606450,Åmarksvej,4480,7,11.1671233,55.5647088
1606451,Åmarksvej,4480,9,11.1674286,55.5644482
1606456,Åmarksvej,4480,10,11.1673326,55.5641261
1606457,Åmarksvej,4480,11B,11.1677827,55.5642009
1606458,Åmarksvej,4480,13,11.168183,55.5640886
1606462,Åmarksvej,4480,13A,11.1697605,55.5624377
1606463,Åmarksvej,4480,15,11.1704624,55.5619564
1606465,Åmarksvej,4480,17,11.1705796,55.5617588
1606467,Åmarksvej,4480,19,11.1706995,55.5615769
1606468,Åmarksvej,4480,20,11.1689546,55.5626069
1606471,Åmarksvej,4480,21,11.170929,55.561443
1606472,Åmarksvej,4480,22,11.1691874,55.5623837
1606473,Åmarksvej,4480,23,11.1716183,55.5612291
1606475,Åmarksvej,4480,24,11.1693758,55.5621651
1606476,Åmarksvej,4480,25,11.1718493,55.5611094
1606477,Åmarksvej,4480,27,11.1722535,55.5610026
1606480,Åmarksvej,4480,28,11.170201,55.5614814
1606481,Åmarksvej,4480,29,11.1731248,55.5611237
1606482,Åmarksvej,4480,30,11.1706424,55.561134
1606484,Åmarksvej,4480,31,11.1728486,55.5608987
1606485,Åmarksvej,4480,31A,11.173619,55.560945
1606486,Åmarksvej,4480,32,11.1714295,55.5607996
1606487,Åmarksvej,4480,33,11.1741316,55.5606053
1606488,Åmarksvej,4480,34,11.1718615,55.5607758
1606490,Åmarksvej,4480,35,11.1744291,55.5609219
1606491,Åmarksvej,4480,36,11.1722898,55.5606862
1606493,Åmarksvej,4480,37,11.1755789,55.5606674
1606494,Åmarksvej,4480,39,11.1750947,55.5607067
1606495,Åmarksvej,4480,40,11.1735529,55.5604299
1606497,Åmarksvej,4480,41,11.174962,55.560412
1606498,Åmarksvej,4480,42,11.1742176,55.5602682
1606499,Åmarksvej,4480,43,11.1753173,55.5603665
1606501,Åmarksvej,4480,45,11.1760497,55.5602617
1606502,Åmarksvej,4480,47,11.1763958,55.5604066
1606503,Åmarksvej,4480,49,11.1766604,55.5601801
1606667,Fyllavej,4480,1,11.1710868,55.5608252
1606669,Fyllavej,4480,3,11.1705724,55.5608779
1606673,Fyllavej,4480,5A,11.1700983,55.5609301
1606674,Fyllavej,4480,5B,11.169673,55.560906
1606675,Fyllavej,4480,6,11.1692624,55.5613402
1606677,Fyllavej,4480,7,11.1691885,55.5610961
1606678,Fyllavej,4480,8,11.1688756,55.5614584
1606680,Fyllavej,4480,9,11.1686808,55.561109
1606681,Fyllavej,4480,10,11.1682785,55.561538
1606682,Fyllavej,4480,11,11.1682367,55.5612452
1606683,Fyllavej,4480,12,11.1674806,55.5616534
1606684,Fyllavej,4480,13,11.167651,55.561322
1606685,Fyllavej,4480,20,11.1692627,55.5607322
1606686,Fyllavej,4480,22,11.1703508,55.5605253
1606687,Fyllavej,4480,24,11.172091,55.5603317
1606767,Vognmandsvej,4480,1,11.1927092,55.5877096
1606769,Vognmandsvej,4480,3,11.1928821,55.5878348
1606772,Vognmandsvej,4480,4,11.1930325,55.587619
1606773,Vognmandsvej,4480,5,11.1930065,55.5879037
1606776,Vognmandsvej,4480,5A,11.1932555,55.5881175
1606777,Vognmandsvej,4480,6,11.1933059,55.587778
1606779,Vognmandsvej,4480,7,11.193567,55.5883216
1607164,Søvang,4480,1,11.2456208,55.5856121
1607165,Søvang,4480,2,11.245414,55.585449
1607168,Søvang,4480,3,11.2460156,55.585681
1607170,Søvang,4480,4,11.2463732,55.5855713
1607172,Søvang,4480,5,11.2462158,55.5858718
1607174,Søvang,4480,6,11.2467717,55.5852717
1607175,Søvang,4480,7,11.2471054,55.5861663
1607179,Søvang,4480,8,11.252877,55.5867771
1607398,Maderne,4480,2,11.2446767,55.5795178
1607400,Maderne,4480,4,11.2414044,55.5777613
1607403,Maderne,4480,6,11.2429957,55.5772277
1607407,Maderne,4480,8,11.2388712,55.5762165
1607410,Maderne,4480,10,11.2423647,55.5760903
1607413,Maderne,4480,12,11.2422044,55.5755746
1607502,Nålestien,4480,2,11.1641165,55.5614008
1607506,Nålestien,4480,4,11.1638958,55.5614589
1607514,Nålestien,4480,6,11.1636583,55.5614866
1607516,Nålestien,4480,8,11.163405,55.5615232
1607524,Nålestien,4480,10,11.1632805,55.5615342
1607532,Nålestien,4480,12,11.162887,55.561615
1607535,Nålestien,4480,14,11.1626436,55.5616231
1607544,Nålestien,4480,16,11.1623483,55.5616431
1607553,Nålestien,4480,18,11.162016,55.561704
1607559,Nålestien,4480,20,11.1617606,55.5617459
1607565,Nålestien,4480,22,11.1614663,55.5617829
1607570,Nålestien,4480,24,11.1612369,55.561953
1607577,Nålestien,4480,26,11.1610254,55.5618608
1607583,Nålestien,4480,28,11.1607864,55.561962
1607585,Nålestien,4480,32,11.1599755,55.5619903
1607590,Nålestien,4480,34,11.1594858,55.5620518
1607867,Ådalen,4480,1,11.1755157,55.5599314
1607869,Ådalen,4480,3,11.1752503,55.5597
1608085,Stenlodsvej,4480,1,11.1647664,55.5626085
1608086,Stenlodsvej,4480,3,11.16453,55.562597
1608089,Stenlodsvej,4480,5,11.164255,55.562667
1608090,Stenlodsvej,4480,7,11.164019,55.562687
1608092,Stenlodsvej,4480,9,11.163746,55.562626
1608094,Stenlodsvej,4480,11,11.163304,55.562806
1608096,Stenlodsvej,4480,13,11.162991,55.562811
1608097,Stenlodsvej,4480,15,11.162731,55.562873
1608100,Stenlodsvej,4480,17,11.162468,55.562917
1608103,Stenlodsvej,4480,19,11.1621895,55.5629763
1608105,Stenlodsvej,4480,21,11.162123,55.562809
1608109,Stenlodsvej,4480,23,11.1617925,55.5629491
1608113,Stenlodsvej,4480,25,11.1615143,55.5629993
1608115,Stenlodsvej,4480,27,11.1612203,55.5630886
1608118,Stenlodsvej,4480,29,11.1611229,55.5629602
1608119,Stenlodsvej,4480,31,11.160876,55.5631081
1608123,Stenlodsvej,4480,35,11.1603066,55.563065
1608126,Stenlodsvej,4480,37,11.1601292,55.5631906
1608128,Stenlodsvej,4480,39,11.159816,55.5631623
1608131,Stenlodsvej,4480,41,11.159447,55.5633916
1608378,Vestervang,4480,1,11.1652454,55.563986
1608382,Vestervang,4480,2,11.1652645,55.5641833
1608388,Vestervang,4480,3,11.1649656,55.5640441
1608391,Vestervang,4480,4,11.1650397,55.5642316
1608395,Vestervang,4480,5,11.1646683,55.5641001
1608398,Vestervang,4480,6,11.1647482,55.5642728
1608401,Vestervang,4480,7,11.1643273,55.5641262
1608404,Vestervang,4480,8,11.1643593,55.5643448
1608407,Vestervang,4480,9,11.1641433,55.5641925
1608410,Vestervang,4480,10,11.1639852,55.5643645
1608417,Vestervang,4480,11,11.1637006,55.5642166
1608421,Vestervang,4480,12,11.1636249,55.5644258
1608427,Vestervang,4480,13,11.1632836,55.5642366
1608431,Vestervang,4480,14,11.1633098,55.5644591
1608432,Vestervang,4480,15,11.1628299,55.5643432
1608436,Vestervang,4480,16,11.1629642,55.5644989
1608440,Vestervang,4480,17,11.1625677,55.5643903
1608442,Vestervang,4480,18,11.1625472,55.5645848
1608448,Vestervang,4480,19,11.1622636,55.5644482
1608454,Vestervang,4480,20,11.1621404,55.5646547
1608455,Vestervang,4480,21,11.1619506,55.5644846
1608460,Vestervang,4480,22,11.1618747,55.5646746
1608463,Vestervang,4480,23,11.1615339,55.5645335
1608466,Vestervang,4480,24,11.1614434,55.5647357
1608468,Vestervang,4480,25,11.1611573,55.5645778
1608469,Vestervang,4480,26,11.16113,55.5648
1608472,Vestervang,4480,27,11.1607986,55.5646174
1608476,Vestervang,4480,28,11.16084,55.564807
1608477,Vestervang,4480,29,11.1604157,55.5646765
1608479,Vestervang,4480,30,11.160335,55.5648787
1608484,Vestervang,4480,31,11.1590857,55.5648908
1609360,Tjørnevænget,4480,1,11.1583262,55.5816329
1609361,Tjørnevænget,4480,2,11.1591296,55.5815928
1609365,Tjørnevænget,4480,4,11.1591097,55.5817734
1609370,Tjørnevænget,4480,6,11.1591002,55.5819882
1609717,Sandstien,4480,1,11.1535528,55.5812471
1609718,Sandstien,4480,2,11.1540019,55.5813066
1609719,Sandstien,4480,3,11.1534635,55.5814047
1609720,Sandstien,4480,4,11.153939,55.5816362
1609721,Sandstien,4480,5,11.1533954,55.5815844
1609722,Sandstien,4480,6,11.1538053,55.5819356
1609723,Sandstien,4480,7,11.1533892,55.5817693
1609724,Sandstien,4480,8,11.1538667,55.5820952
1609725,Sandstien,4480,9,11.1529826,55.582002
1609726,Sandstien,4480,10,11.1538042,55.5824483
1609727,Sandstien,4480,13,11.1532637,55.5821898
1610349,Egernvej,4480,3,11.1559306,55.5854701
1610352,Egernvej,4480,5,11.155488,55.5854723
1610356,Egernvej,4480,7,11.1549564,55.5854919
1610357,Egernvej,4480,9,11.1545473,55.5854901
1610360,Egernvej,4480,11,11.1541402,55.5855209
1610363,Egernvej,4480,13,11.1537501,55.585507
1610365,Egernvej,4480,15,11.1532617,55.5855106
1610951,Strandlodsvej,4480,1,11.165243,55.564494
1610955,Strandlodsvej,4480,2,11.1655573,55.564746
1610956,Strandlodsvej,4480,3,11.1647973,55.5645862
1610958,Strandlodsvej,4480,4,11.1652444,55.5648167
1610960,Strandlodsvej,4480,5,11.1642112,55.5646799
1610962,Strandlodsvej,4480,7,11.163636,55.5647503
1610964,Strandlodsvej,4480,9,11.1631313,55.56477
1610966,Strandlodsvej,4480,10,11.1647527,55.5648329
1610968,Strandlodsvej,4480,11,11.162637,55.564857
1610969,Strandlodsvej,4480,12,11.1638999,55.5650112
1610970,Strandlodsvej,4480,13,11.1620284,55.5648791
1610971,Strandlodsvej,4480,14,11.1633655,55.5650662
1610972,Strandlodsvej,4480,15,11.161602,55.564953
1610973,Strandlodsvej,4480,16,11.1630392,55.5650906
1610974,Strandlodsvej,4480,17,11.1610244,55.5650659
1610975,Strandlodsvej,4480,19,11.1603145,55.5651567
1610976,Strandlodsvej,4480,20,11.1622067,55.5652097
1610977,Strandlodsvej,4480,21,11.15997,55.5653144
1610978,Strandlodsvej,4480,22,11.1618868,55.5652087
1610980,Strandlodsvej,4480,23,11.1589566,55.5653328
1610982,Strandlodsvej,4480,30,11.1604422,55.5654396
1610984,Strandlodsvej,4480,32,11.1600063,55.565517
1610986,Strandlodsvej,4480,34,11.159351,55.5656043
1610998,Østre Birkevej,4480,5,11.1665907,55.5635995
1610999,Østre Birkevej,4480,7,11.1669779,55.5635141
1611000,Østre Birkevej,4480,9,11.1678174,55.5634081
1611001,Østre Birkevej,4480,11,11.1682471,55.5633718
1611002,Solkrogen,4480,2,11.1593263,55.5917373
1611003,Solkrogen,4480,3,11.159998,55.591531
1611004,Solkrogen,4480,4,11.1591782,55.5912857
1611005,Solkrogen,4480,5,11.1600142,55.5912182
1611006,Solkrogen,4480,6,11.159193,55.591082
1611007,Solkrogen,4480,7,11.1600689,55.5909802
1611008,Solkrogen,4480,9,11.1599772,55.5907267
1611009,Solkrogen,4480,10,11.1589772,55.5904771
1611010,Solkrogen,4480,12,11.1584751,55.5903751
1611011,Solkrogen,4480,14,11.1580962,55.5902713
1611012,Solkrogen,4480,15,11.159436,55.5899656
1611013,Solkrogen,4480,16,11.1577222,55.5902239
1611014,Solkrogen,4480,17,11.1597864,55.5897586
1611015,Solkrogen,4480,18,11.1571825,55.590083
1611016,Solkrogen,4480,19,11.1592343,55.5896649
1611017,Solkrogen,4480,20,11.1567981,55.589864
1611018,Solkrogen,4480,21,11.1589218,55.5899891
1611019,Solkrogen,4480,23,11.1584781,55.5896633
1611020,Solkrogen,4480,25,11.1581667,55.5899122
1611021,Solkrogen,4480,27,11.1576734,55.5898235
1611022,Solkrogen,4480,29,11.157306,55.5896993
1611023,Solkrogen,4480,31,11.1568605,55.5896304
1611082,Pilemosevej,4480,1,11.1559389,55.5869154
1611086,Pilemosevej,4480,2,11.1553085,55.5869105
1611088,Pilemosevej,4480,3,11.1559404,55.586688
1611090,Pilemosevej,4480,4,11.1552849,55.5866879
1611091,Pilemosevej,4480,5,11.1559616,55.5864468
1611092,Pilemosevej,4480,6,11.1554045,55.5864498
1611093,Pilemosevej,4480,7,11.1559393,55.5862153
1611094,Pilemosevej,4480,8,11.1553593,55.5862107
1611133,Enghavevej,4480,1,11.1648469,55.5611257
1611134,Enghavevej,4480,2,11.1646271,55.5609237
1611136,Enghavevej,4480,3,11.1653252,55.5610272
1611138,Enghavevej,4480,4,11.1650145,55.5608472
1611139,Enghavevej,4480,5,11.1657827,55.5609636
1611140,Enghavevej,4480,6,11.1654236,55.560789
1611142,Enghavevej,4480,7,11.1661499,55.5609078
1611144,Enghavevej,4480,8,11.1657296,55.5607512
1611145,Enghavevej,4480,9,11.1670293,55.5608352
1611147,Enghavevej,4480,10,11.1660437,55.5606779
1611148,Enghavevej,4480,11,11.1674586,55.5607548
1611150,Enghavevej,4480,12,11.166489,55.5606535
1611151,Enghavevej,4480,13,11.1681481,55.5606762
1611152,Enghavevej,4480,14,11.1668148,55.5605957
1611153,Enghavevej,4480,15,11.1689236,55.5605856
1611154,Enghavevej,4480,16,11.167561,55.560509
1611155,Enghavevej,4480,17,11.1697502,55.5604364
1611156,Enghavevej,4480,17A,11.1704408,55.5603401
1611157,Enghavevej,4480,18,11.1680356,55.5604278
1611158,Enghavevej,4480,19,11.1709342,55.5602694
1611159,Enghavevej,4480,20,11.1687275,55.5603269
1611160,Enghavevej,4480,21,11.171872,55.560156
1611161,Enghavevej,4480,22,11.1694801,55.5602832
1611162,Enghavevej,4480,24,11.170757,55.560044
2140695,Flinterup Mark,4480,1,11.2168711,55.5875596
2140697,Flinterup Mark,4480,2,11.2171406,55.5874232
2140700,Flinterup Mark,4480,3,11.2171236,55.5878776
2140701,Flinterup Mark,4480,4,11.2175197,55.587802
2140704,Flinterup Mark,4480,5,11.2161975,55.5883375
2140706,Flinterup Mark,4480,6,11.2126875,55.5914159
2140710,Flinterup Mark,4480,7,11.2114587,55.5918888
2140714,Flinterup Mark,4480,8,11.2120252,55.5919602
2140717,Flinterup Mark,4480,9A,11.2080976,55.5927596
2140721,Flinterup Mark,4480,9B,11.2057085,55.5936376
2140726,Flinterup Mark,4480,10,11.2115883,55.5924179
2140727,Flinterup Mark,4480,11,11.2040765,55.5941484
2140733,Flinterup Mark,4480,12,11.2114218,55.5925508
2140739,Flinterup Mark,4480,13,11.2101631,55.5919847
2140741,Flinterup Mark,4480,14,11.2109279,55.5930511
2140746,Flinterup Mark,4480,15,11.2086063,55.5954567
2140751,Flinterup Mark,4480,16,11.2105857,55.5935358
2140753,Flinterup Mark,4480,18,11.210266,55.598007
2140756,Flinterup Mark,4480,20,11.2092354,55.5962143
2140758,Flinterup Mark,4480,22,11.2072923,55.5986358
2140760,Flinterup Mark,4480,24,11.2062809,55.5986797
2140762,Flinterup Mark,4480,26,11.2049416,55.5990674
2217059,Bakkendrupvej,4480,28A,11.252264,55.574446
2227229,Osvejen,4480,1,11.166362,55.565404
2227230,Osvejen,4480,3,11.166364,55.565125
2227231,Osvejen,4480,7A,11.166433,55.564607
2227232,Osvejen,4480,7B,11.166204,55.564651
2227233,Osvejen,4480,15A,11.16559,55.563764
2227234,Osvejen,4480,19,11.165288,55.56286
2227235,Osvejen,4480,30,11.164801,55.562854
2227236,Osvejen,4480,32,11.1611911,55.5610381
2227237,Osvejen,4480,35,11.164394,55.560463
2227238,Osvejen,4480,37,11.164345,55.560303
2227239,Osvejen,4480,43,11.164308,55.559198
2227240,Osvejen,4480,45,11.163983,55.558628
2227241,Osvejen,4480,62,11.1626962,55.5579169
2229580,Lyngsvinget,4480,50,11.146354,55.592087
2231630,Flinterupvej,4480,59A,11.219558,55.586902
2231631,Flinterupvej,4480,59B,11.22018,55.586775
2231632,Flinterupvej,4480,59C,11.221856,55.586834
2231633,Flinterupvej,4480,62C,11.222589,55.585725
2231634,Flinterupvej,4480,62E,11.22484,55.585391
2231727,Søndervang,4480,5Y,11.1691112,55.58867
2231754,Tystrupvej,4480,11A,11.227985,55.574751
2231755,Tystrupvej,4480,46Y,11.217192,55.570508
2242686,Fugledevej,4480,33A,11.245153,55.58667
2247775,Egernvej,4480,19,11.152642,55.585579
2247776,Egernvej,4480,21,11.152317,55.585579
2247824,Lindevej,4480,90,11.1549086,55.5925215
2247825,Lindevej,4480,92,11.155087,55.592838
2247859,Nyboderstien,4480,4,11.166346,55.563776
2247877,Odinsvej Vest,4480,7,11.161028,55.559967
2247879,Osvejen,4480,15B,11.16557,55.563705
2247880,Osvejen,4480,15C,11.165552,55.563649
2247896,Rønnevej,4480,17,11.153985,55.583925
2247908,Stenlodsvej,4480,43,11.1602035,55.5632242
2247920,Åengsvej,4480,12,11.1738323,55.5591406
