idx,street,postcode,housenumber,lon,lat
1103803,Maribovej,4920,256,11.2469257,54.8449625
1103807,Maribovej,4920,258,11.2510981,54.8445002
1103812,Maribovej,4920,260,11.2519503,54.8443611
1103819,Maribovej,4920,264,11.2544333,54.8438334
1103822,Maribovej,4920,266,11.2563512,54.8434767
1103826,Maribovej,4920,268,11.2578451,54.843393
1103832,Maribovej,4920,270,11.2591655,54.8386463
1103839,Maribovej,4920,272,11.2583047,54.8432672
1103845,Maribovej,4920,274,11.2589211,54.8432316
1103849,Maribovej,4920,276,11.2632864,54.842477
1103859,Maribovej,4920,278,11.2647664,54.8431231
1103865,Maribovej,4920,280,11.265212,54.8431055
1103871,Maribovej,4920,282,11.2655044,54.8430968
1103878,Maribovej,4920,284,11.2659322,54.843106
1103883,Maribovej,4920,286,11.2662644,54.8431077
1103893,Maribovej,4920,288,11.2719567,54.8415863
1103898,Maribovej,4920,290,11.2724936,54.8429289
1103906,Maribovej,4920,292,11.2771385,54.8428208
1103912,Maribovej,4920,294,11.2776504,54.8428182
1103927,Maribovej,4920,299,11.2403655,54.8486836
1103931,Maribovej,4920,301,11.24631,54.8457983
1103933,Maribovej,4920,303,11.2524263,54.844572
1103934,Maribovej,4920,305,11.2534317,54.8460254
1103937,Maribovej,4920,307,11.2556329,54.845382
1103939,Maribovej,4920,309,11.2635231,54.8434923
1103940,Maribovej,4920,311,11.2638617,54.8434683
1103943,Maribovej,4920,313,11.2635428,54.8471348
1103944,Maribovej,4920,315,11.2650828,54.8475831
1103946,Maribovej,4920,317,11.2658073,54.8434222
1103948,Maribovej,4920,319,11.266076,54.8434207
1103950,Maribovej,4920,321,11.2737535,54.8431727
1157289,Højrebyvej,4920,32,11.3392155,54.8097113
1157291,Højrebyvej,4920,34,11.3275176,54.80803
1157292,Højrebyvej,4920,38,11.329412,54.809102
1157294,Højrebyvej,4920,40,11.295874,54.805454
1157295,Højrebyvej,4920,41,11.297228,54.8037817
1157296,Højrebyvej,4920,42,11.2799504,54.8037256
1157297,Højrebyvej,4920,43,11.2935777,54.8036687
1157298,Højrebyvej,4920,44,11.2778909,54.8036376
1157299,Højrebyvej,4920,45,11.280489,54.8033857
1157300,Højrebyvej,4920,45A,11.281194,54.803299
1157301,Højrebyvej,4920,46,11.2758339,54.8031609
1157302,Højrebyvej,4920,47,11.2795559,54.8033435
1157303,Højrebyvej,4920,48,11.2753042,54.8030594
1157304,Højrebyvej,4920,49,11.2792844,54.8033396
1157305,Højrebyvej,4920,50,11.2740605,54.8030097
1157306,Højrebyvej,4920,51,11.2772538,54.8031492
1157307,Højrebyvej,4920,52,11.271851,54.802931
1157308,Højrebyvej,4920,53,11.2753336,54.8028404
1157309,Højrebyvej,4920,54,11.2654133,54.8033117
1157310,Højrebyvej,4920,55,11.259869,54.802607
1157311,Højrebyvej,4920,56,11.260411,54.804326
1157312,Højrebyvej,4920,57,11.249846,54.802435
1157313,Højrebyvej,4920,58,11.2582105,54.8028459
1157314,Højrebyvej,4920,59,11.2432642,54.8017811
1157315,Højrebyvej,4920,60,11.2532431,54.803971
1157316,Højrebyvej,4920,61,11.2350966,54.8044682
1157317,Højrebyvej,4920,62,11.2450867,54.8036086
1157318,Højrebyvej,4920,63,11.2345484,54.804615
1157319,Højrebyvej,4920,64,11.233271,54.806747
1157320,Højrebyvej,4920,65,11.2339627,54.8046724
1157322,Højrebyvej,4920,67,11.2335656,54.8047519
1157324,Højrebyvej,4920,69,11.2335282,54.8045612
1157326,Højrebyvej,4920,71,11.2329158,54.8046189
1157328,Højrebyvej,4920,73,11.2301349,54.8054768
1157330,Højrebyvej,4920,75,11.228984,54.80225
1157332,Højrebyvej,4920,77,11.2225778,54.8078957
1249583,Skovlængevej,4920,1,11.2564389,54.8139117
1249584,Skovlængevej,4920,1A,11.256519,54.8130819
1249585,Skovlængevej,4920,2,11.2570393,54.8137138
1249586,Skovlængevej,4920,3,11.2565432,54.8144742
1249587,Skovlængevej,4920,4,11.2568743,54.8147717
1249588,Skovlængevej,4920,5,11.2567442,54.8172702
1249589,Skovlængevej,4920,6,11.2572259,54.8165378
1249590,Skovlængevej,4920,7,11.257174,54.81856
1249591,Skovlængevej,4920,9,11.257998,54.8190981
1249592,Skovlængevej,4920,11,11.258074,54.8197246
1249593,Skovlængevej,4920,12,11.2578596,54.818156
1249594,Skovlængevej,4920,13,11.257064,54.8244122
1249595,Skovlængevej,4920,14,11.25806,54.8184622
1249596,Skovlængevej,4920,15,11.252699,54.823643
1249597,Skovlængevej,4920,15A,11.253548,54.823282
1249598,Skovlængevej,4920,16,11.2586538,54.8216984
1249600,Skovlængevej,4920,17,11.2583837,54.8263276
1249602,Skovlængevej,4920,18,11.2607072,54.8237587
1249603,Skovlængevej,4920,19,11.2571643,54.8271145
1249604,Skovlængevej,4920,20,11.2589596,54.8239328
1249605,Skovlængevej,4920,21,11.256079,54.828723
1249606,Skovlængevej,4920,22,11.2589219,54.8242103
1249607,Skovlængevej,4920,23,11.257041,54.8330577
1249608,Skovlængevej,4920,24,11.2589263,54.8253009
1249609,Skovlængevej,4920,25,11.2567087,54.8359121
1249610,Skovlængevej,4920,26,11.2617851,54.825301
1249611,Skovlængevej,4920,27,11.2540823,54.835914
1249612,Skovlængevej,4920,28,11.2572916,54.8323618
1249613,Skovlængevej,4920,29,11.2529317,54.836121
1249614,Skovlængevej,4920,31,11.2518456,54.8369073
1249615,Skovlængevej,4920,32,11.2573255,54.8355621
1249616,Skovlængevej,4920,33,11.2502274,54.8377723
1249617,Skovlængevej,4920,34,11.257579,54.835906
1249618,Skovlængevej,4920,35,11.2492894,54.838281
1249619,Skovlængevej,4920,36,11.2641066,54.8357253
1249620,Skovlængevej,4920,37,11.248908,54.8384431
1249621,Skovlængevej,4920,38,11.2526947,54.8367039
1249622,Skovlængevej,4920,40,11.2519603,54.8373113
1249623,Skovlængevej,4920,42,11.2513481,54.837533
1249624,Skovlængevej,4920,44,11.2513752,54.8383336
1249625,Skovlængevej,4920,46,11.2491037,54.83893
1249626,Skovlængevej,4920,50,11.2457342,54.8403258
1249627,Skovlængevej,4920,52,11.2434383,54.8427997
1249628,Skovlængevej,4920,54,11.2439515,54.8431934
1252679,Abedvej,4920,5,11.3266071,54.8353367
1252681,Abedvej,4920,6,11.3263062,54.8359487
1252683,Abedvej,4920,7,11.326155,54.835196
1252686,Abedvej,4920,8,11.3258158,54.8348677
1252688,Abedvej,4920,9,11.3276253,54.8352196
1252690,Abedvej,4920,10,11.3261386,54.8347401
1252693,Abedvej,4920,11,11.3274502,54.8343443
1252694,Abedvej,4920,12,11.3267193,54.8344685
1252697,Abedvej,4920,13,11.327693,54.834137
1252699,Abedvej,4920,14,11.3270719,54.8343603
1252700,Abedvej,4920,15,11.3280566,54.833934
1252703,Abedvej,4920,16,11.3267962,54.8338527
1252704,Abedvej,4920,17,11.3278062,54.8339
1252707,Abedvej,4920,19,11.3286563,54.8334951
1252710,Abedvej,4920,20,11.3273298,54.8330401
1252712,Abedvej,4920,21,11.327525,54.833592
1252714,Abedvej,4920,22,11.3271653,54.832473
1252716,Abedvej,4920,23,11.3275697,54.8332292
1252717,Abedvej,4920,25,11.3280536,54.833043
1252718,Abedvej,4920,27,11.329267,54.833158
1252719,Abedvej,4920,29,11.3293023,54.8328327
1252720,Abedvej,4920,32,11.3225398,54.8178021
1252721,Abedvej,4920,35,11.3273965,54.8310718
1252722,Abedvej,4920,38,11.3309639,54.8161332
1252723,Abedvej,4920,39A,11.32465,54.828731
1252724,Abedvej,4920,39B,11.325009,54.829042
1252725,Abedvej,4920,40,11.3346981,54.8160926
1252726,Abedvej,4920,41,11.3242891,54.8265795
1252727,Abedvej,4920,43,11.3241925,54.8247768
1252729,Abedvej,4920,44,11.3372574,54.8159145
1252731,Abedvej,4920,47,11.3363852,54.8211932
1252733,Abedvej,4920,51A,11.332027,54.818437
1252735,Abedvej,4920,55,11.3331876,54.8164044
1254279,Vesterbyvej,4920,1,11.253195,54.826145
1254280,Vesterbyvej,4920,2,11.2557156,54.8274059
1254283,Vesterbyvej,4920,3,11.2503506,54.825304
1254284,Vesterbyvej,4920,4,11.2507212,54.8261934
1254287,Vesterbyvej,4920,5,11.249817,54.8255191
1254288,Vesterbyvej,4920,6,11.248524,54.825428
1254290,Vesterbyvej,4920,7,11.2495857,54.8252236
1254291,Vesterbyvej,4920,8,11.24775,54.825262
1254295,Vesterbyvej,4920,9,11.249083,54.825423
1254297,Vesterbyvej,4920,10,11.2468059,54.8250049
1254299,Vesterbyvej,4920,11,11.2483457,54.8250592
1254301,Vesterbyvej,4920,12,11.242899,54.8247182
1254303,Vesterbyvej,4920,13,11.2459455,54.8245669
1254305,Vesterbyvej,4920,14,11.239902,54.8243967
1254306,Vesterbyvej,4920,15,11.240763,54.824
1257277,Frisenlundvej,4920,1,11.2814657,54.8312772
1257279,Frisenlundvej,4920,2,11.2805305,54.8199866
1257281,Frisenlundvej,4920,3,11.2811132,54.8327029
1257284,Frisenlundvej,4920,4,11.285409,54.824687
1257285,Frisenlundvej,4920,5,11.2808856,54.8329479
1257286,Frisenlundvej,4920,6,11.2838729,54.8264488
1257287,Frisenlundvej,4920,7,11.280095,54.83577
1257289,Frisenlundvej,4920,9,11.2796504,54.8377166
1257290,Frisenlundvej,4920,10,11.291856,54.834757
1260802,Søllestedgårdvej,4920,1,11.2950743,54.8226169
1260803,Søllestedgårdvej,4920,2,11.284682,54.820864
1260804,Søllestedgårdvej,4920,3,11.295721,54.822675
1260805,Søllestedgårdvej,4920,4,11.285125,54.821296
1260806,Søllestedgårdvej,4920,5,11.295701,54.822743
1260807,Søllestedgårdvej,4920,8,11.2987019,54.8210778
1260808,Søllestedgårdvej,4920,10,11.310762,54.824459
1260809,Søllestedgårdvej,4920,26,11.316854,54.823188
1260810,Søllestedgårdvej,4920,27,11.316839,54.825623
1260811,Søllestedgårdvej,4920,28,11.317565,54.825428
1260812,Søllestedgårdvej,4920,29,11.3218834,54.8261886
1260813,Søllestedgårdvej,4920,30,11.319588,54.825649
1260814,Søllestedgårdvej,4920,31,11.323162,54.826281
1261737,Lyregårdsvej,4920,1,11.2723006,54.8287293
1261739,Lyregårdsvej,4920,2,11.267442,54.830167
1261741,Lyregårdsvej,4920,2A,11.267469,54.83057
1261743,Lyregårdsvej,4920,4,11.259769,54.8268
1261746,Lyregårdsvej,4920,5,11.2652769,54.8275674
1262019,Smedevejen,4920,1,11.2862083,54.7726087
1262020,Smedevejen,4920,3,11.2869978,54.7708719
1262023,Smedevejen,4920,4,11.291609,54.765389
1263096,Skyttevej,4920,4,11.326497,54.8278257
1263099,Skyttevej,4920,5,11.3341059,54.8268179
1263101,Skyttevej,4920,7,11.3344331,54.8249276
1263384,Holtevej,4920,2,11.3280992,54.831408
1263388,Holtevej,4920,3,11.3289201,54.83158
1263391,Holtevej,4920,3A,11.328466,54.831775
1263393,Holtevej,4920,5,11.3318747,54.8315609
1263396,Holtevej,4920,9,11.338485,54.828567
1263438,Hedestrædet,4920,2,11.2688779,54.8273658
1263442,Hedestrædet,4920,4,11.2706398,54.8244047
1263444,Hedestrædet,4920,6,11.2732734,54.8246607
1264010,Nørredalsvej,4920,1,11.2410074,54.8128253
1264012,Nørredalsvej,4920,2,11.242345,54.817421
1264153,Kåhavevej,4920,4,11.328053,54.834265
1264156,Kåhavevej,4920,8,11.3301063,54.8354161
1264194,Hellinge Sidevej,4920,1,11.2541006,54.8415434
1288578,Hovedgaden,4920,1,11.2722389,54.8107779
1288579,Hovedgaden,4920,3,11.2722185,54.8109333
1288580,Hovedgaden,4920,4,11.272565,54.81075
1288581,Hovedgaden,4920,5,11.2721678,54.811084
1288582,Hovedgaden,4920,5A,11.271657,54.8110158
1288583,Hovedgaden,4920,5B,11.2713508,54.8111079
1288584,Hovedgaden,4920,6,11.272523,54.8108823
1288585,Hovedgaden,4920,7,11.2721779,54.8112226
1288586,Hovedgaden,4920,8,11.2725072,54.8109936
1288587,Hovedgaden,4920,9,11.2721584,54.8113475
1288588,Hovedgaden,4920,10,11.2725144,54.8111471
1288589,Hovedgaden,4920,11,11.2721537,54.8114446
1288590,Hovedgaden,4920,12,11.2725239,54.8113636
1288591,Hovedgaden,4920,13,11.2721225,54.8115977
1288592,Hovedgaden,4920,14,11.2725066,54.8115053
1288594,Hovedgaden,4920,15,11.2721061,54.8117299
1288596,Hovedgaden,4920,16,11.2724288,54.8116279
1288598,Hovedgaden,4920,17,11.2721156,54.8118356
1288601,Hovedgaden,4920,18,11.2724206,54.8117908
1288602,Hovedgaden,4920,19,11.272107,54.8119548
1288604,Hovedgaden,4920,20,11.2723957,54.8119701
1288606,Hovedgaden,4920,21,11.2719914,54.8121197
1288609,Hovedgaden,4920,22,11.2723879,54.8120429
1288610,Hovedgaden,4920,22A,11.2723803,54.8121024
1288612,Hovedgaden,4920,23,11.2720754,54.8122347
1288613,Hovedgaden,4920,23A,11.2715072,54.8122328
1288614,Hovedgaden,4920,24,11.2723697,54.8122641
1288615,Hovedgaden,4920,25,11.2717976,54.8124434
1288616,Hovedgaden,4920,26,11.2723479,54.8123661
1288617,Hovedgaden,4920,27,11.2720683,54.8127005
1288618,Hovedgaden,4920,28,11.2723351,54.8124733
1288619,Hovedgaden,4920,29,11.2719243,54.8129947
1288620,Hovedgaden,4920,30,11.2723218,54.8125845
1288621,Hovedgaden,4920,31,11.2721133,54.8131757
1288622,Hovedgaden,4920,31A,11.2713104,54.8133125
1288623,Hovedgaden,4920,32,11.27235,54.8127038
1288624,Hovedgaden,4920,33,11.272333,54.8133144
1288625,Hovedgaden,4920,34,11.2724131,54.812861
1288626,Hovedgaden,4920,35,11.2724132,54.8134885
1288627,Hovedgaden,4920,35A,11.272405,54.81351
1288628,Hovedgaden,4920,35B,11.272435,54.813585
1288629,Hovedgaden,4920,35C,11.272361,54.813595
1288630,Hovedgaden,4920,35D,11.272212,54.81359
1288631,Hovedgaden,4920,35F,11.272035,54.813677
1288632,Hovedgaden,4920,35G,11.272136,54.813678
1288633,Hovedgaden,4920,36,11.272481,54.8130224
1288634,Hovedgaden,4920,37,11.2725638,54.8138377
1288635,Hovedgaden,4920,38,11.2725596,54.8131625
1288636,Hovedgaden,4920,39,11.272624,54.813992
1288637,Hovedgaden,4920,40,11.2726511,54.8133391
1288638,Hovedgaden,4920,41,11.272567,54.814162
1288639,Hovedgaden,4920,42,11.2727354,54.8134998
1288640,Hovedgaden,4920,43,11.2728861,54.8148539
1288641,Hovedgaden,4920,43A,11.2730642,54.815011
1288642,Hovedgaden,4920,44,11.2728763,54.8136403
1288643,Hovedgaden,4920,45,11.273277,54.815721
1288644,Hovedgaden,4920,46,11.2730036,54.8138549
1288645,Hovedgaden,4920,46A,11.2732252,54.8142334
1288646,Hovedgaden,4920,47,11.273508,54.815907
1288647,Hovedgaden,4920,48,11.2734138,54.8144841
1288648,Hovedgaden,4920,49,11.2735758,54.8160477
1288649,Hovedgaden,4920,50,11.2733995,54.8147174
1288650,Hovedgaden,4920,51,11.2736547,54.8162086
1288651,Hovedgaden,4920,52,11.2735379,54.814956
1288652,Hovedgaden,4920,53,11.2736988,54.8163398
1288653,Hovedgaden,4920,54,11.2736115,54.815087
1288654,Hovedgaden,4920,55,11.2737666,54.8165029
1288655,Hovedgaden,4920,56,11.273704,54.8152708
1288656,Hovedgaden,4920,57,11.2738451,54.8166991
1288657,Hovedgaden,4920,58,11.2738618,54.8156536
1288658,Hovedgaden,4920,59,11.2739809,54.8168979
1288659,Hovedgaden,4920,60,11.2739335,54.8158322
1288660,Hovedgaden,4920,61,11.2740159,54.8171301
1288661,Hovedgaden,4920,62,11.2739963,54.8159799
1288662,Hovedgaden,4920,63,11.2741187,54.8174022
1288663,Hovedgaden,4920,64,11.2740507,54.8161151
1288664,Hovedgaden,4920,65,11.274315,54.817609
1288665,Hovedgaden,4920,66,11.2750131,54.8175747
1288666,Hovedgaden,4920,67,11.2743271,54.8178317
1288667,Hovedgaden,4920,69,11.274339,54.817993
1288668,Hovedgaden,4920,71,11.2743567,54.8181347
1288669,Hovedgaden,4920,73,11.2744097,54.8183833
1288680,Præstevænget,4920,1,11.2620684,54.8155066
1288681,Præstevænget,4920,2A,11.2616804,54.8155132
1288682,Præstevænget,4920,2B,11.2615237,54.8155173
1288683,Præstevænget,4920,2C,11.2613669,54.8155213
1288684,Præstevænget,4920,2D,11.261118,54.815541
1288685,Præstevænget,4920,2E,11.2609616,54.8155446
1288686,Præstevænget,4920,2F,11.260805,54.8155487
1288687,Præstevænget,4920,2G,11.260396,54.8155344
1288688,Præstevænget,4920,2H,11.2603883,54.8154374
1288689,Præstevænget,4920,2K,11.2604225,54.8153459
1288690,Præstevænget,4920,2L,11.2604156,54.8152679
1288691,Præstevænget,4920,2M,11.2606601,54.8152085
1288692,Præstevænget,4920,2N,11.2608208,54.8152044
1288693,Præstevænget,4920,2P,11.2609817,54.8152002
1288694,Præstevænget,4920,2R,11.2612507,54.8151708
1288695,Præstevænget,4920,2S,11.261412,54.8151666
1288696,Præstevænget,4920,2T,11.2615736,54.8151624
1288697,Præstevænget,4920,3,11.2620511,54.8153037
1288698,Præstevænget,4920,4A,11.2617142,54.81494
1288699,Præstevænget,4920,4B,11.2617072,54.8148445
1288700,Præstevænget,4920,4C,11.2613237,54.814895
1288701,Præstevænget,4920,4D,11.2612015,54.8148984
1288702,Præstevænget,4920,4E,11.2610793,54.814902
1288703,Præstevænget,4920,4F,11.2608421,54.8149198
1288704,Præstevænget,4920,4G,11.2607171,54.8149231
1288705,Præstevænget,4920,4H,11.260592,54.8149264
1288706,Præstevænget,4920,4K,11.260467,54.8149297
1288707,Præstevænget,4920,5,11.2629459,54.8153319
1288708,Præstevænget,4920,6A,11.2616878,54.8146291
1288709,Præstevænget,4920,6B,11.2616826,54.8145579
1288710,Præstevænget,4920,6C,11.2616774,54.8144867
1288711,Præstevænget,4920,6D,11.2613182,54.8145897
1288712,Præstevænget,4920,6E,11.2611676,54.8145939
1288713,Præstevænget,4920,6F,11.2608878,54.8145896
1288714,Præstevænget,4920,6G,11.260737,54.814593
1288715,Præstevænget,4920,6H,11.2604051,54.8145228
1288716,Præstevænget,4920,6K,11.260254,54.8145272
1288717,Præstevænget,4920,6L,11.2603196,54.8142931
1288718,Præstevænget,4920,6M,11.2601688,54.8142971
1288719,Præstevænget,4920,6N,11.2604533,54.8140492
1288720,Præstevænget,4920,6P,11.2603089,54.814053
1288721,Præstevænget,4920,6R,11.2601646,54.8140568
1288722,Præstevænget,4920,11A,11.2622104,54.8148493
1288723,Præstevænget,4920,11B,11.2621884,54.814915
1288724,Præstevænget,4920,11C,11.2621813,54.8149947
1288725,Præstevænget,4920,11D,11.2621913,54.8150664
1288726,Præstevænget,4920,11E,11.2624762,54.8150131
1288727,Præstevænget,4920,11F,11.262578,54.814989
1288728,Præstevænget,4920,11G,11.2627161,54.8149831
1288729,Præstevænget,4920,11H,11.2629469,54.8149899
1288730,Præstevænget,4920,11K,11.2630554,54.8149673
1288731,Præstevænget,4920,11L,11.2632073,54.8149598
1288732,Præstevænget,4920,11M,11.2635798,54.8149813
1288733,Præstevænget,4920,11N,11.263571,54.814927
1288734,Præstevænget,4920,11P,11.2635595,54.8148589
1288735,Præstevænget,4920,11R,11.2635677,54.8147744
1288736,Præstevænget,4920,11S,11.2635594,54.8147151
1288737,Præstevænget,4920,13A,11.2621511,54.8146516
1288738,Præstevænget,4920,13B,11.2621415,54.8145799
1288739,Præstevænget,4920,13C,11.2621726,54.8144961
1288740,Præstevænget,4920,13D,11.2626416,54.8145202
1288741,Præstevænget,4920,13E,11.2627514,54.8145129
1288742,Præstevænget,4920,13F,11.2628841,54.8145083
1288743,Præstevænget,4920,13G,11.2630155,54.8144921
1288744,Præstevænget,4920,13H,11.2631503,54.8144859
1288745,Præstevænget,4920,13K,11.2635405,54.8144152
1288746,Præstevænget,4920,13L,11.2635456,54.8144688
1288747,Præstevænget,4920,13M,11.263538,54.8145514
1288748,Præstevænget,4920,13N,11.263546,54.8146116
1288749,Præstevænget,4920,15A,11.263156,54.8142013
1288750,Præstevænget,4920,15B,11.263291,54.814195
1288751,Præstevænget,4920,15C,11.2634272,54.8141879
1288752,Præstevænget,4920,15D,11.2635626,54.8141811
1288753,Præstevænget,4920,17A,11.2631384,54.8140189
1288754,Præstevænget,4920,17B,11.26329,54.8140116
1288755,Præstevænget,4920,17C,11.2634247,54.8139948
1288756,Præstevænget,4920,17D,11.2635454,54.813989
1288757,Præstevænget,4920,19A,11.263112,54.8138272
1288758,Præstevænget,4920,19B,11.2632641,54.8138196
1288759,Præstevænget,4920,19C,11.2633991,54.8138031
1288760,Præstevænget,4920,19D,11.2635198,54.8137971
1288761,Præstevænget,4920,19E,11.2636405,54.8137911
1288762,Præstevænget,4920,21A,11.2627434,54.8136505
1288763,Præstevænget,4920,21B,11.2629242,54.8136416
1288764,Præstevænget,4920,21C,11.263079,54.813624
1288765,Præstevænget,4920,21D,11.2632117,54.8136179
1288766,Præstevænget,4920,21E,11.263344,54.813611
1288767,Præstevænget,4920,21F,11.2634761,54.8136049
1288768,Præstevænget,4920,21G,11.2636084,54.8135984
1288769,Præstevænget,4920,23,11.262524,54.8137452
1288770,Præstevænget,4920,24A,11.2620923,54.814209
1288771,Præstevænget,4920,24B,11.2620809,54.8141292
1288772,Præstevænget,4920,25A,11.2626589,54.8141993
1288773,Præstevænget,4920,25B,11.2626474,54.8141155
1288774,Præstevænget,4920,25C,11.2626359,54.8140316
1288775,Præstevænget,4920,25D,11.2626244,54.8139478
1288776,Præstevænget,4920,25E,11.2626127,54.8138639
1288777,Præstevænget,4920,26A,11.262068,54.8140226
1288778,Præstevænget,4920,26B,11.2620561,54.8139418
1288779,Præstevænget,4920,28A,11.2621602,54.8137207
1288780,Præstevænget,4920,28B,11.2620259,54.8137446
1288781,Præstevænget,4920,28C,11.2619025,54.8137506
1288782,Præstevænget,4920,30A,11.2616353,54.8138167
1288783,Præstevænget,4920,30B,11.261486,54.813824
1288784,Præstevænget,4920,30C,11.2613559,54.8138636
1288785,Præstevænget,4920,30D,11.2612178,54.81387
1288786,Præstevænget,4920,32A,11.2610127,54.8139374
1288787,Præstevænget,4920,32B,11.2608664,54.813962
1288788,Præstevænget,4920,32C,11.2607304,54.8139861
1288789,Præstevænget,4920,34A,11.2610982,54.8142681
1288790,Præstevænget,4920,34B,11.2609747,54.8142742
1288791,Præstevænget,4920,34C,11.2608481,54.8142983
1288792,Præstevænget,4920,34D,11.2607131,54.814305
1288793,Præstevænget,4920,36A,11.2614335,54.814252
1288794,Præstevænget,4920,36B,11.2612812,54.8142592
1288795,Højrebygade,4920,1,11.2726184,54.8102798
1288796,Højrebygade,4920,2,11.2723271,54.8102557
1288797,Højrebygade,4920,3,11.2726279,54.8101811
1288798,Højrebygade,4920,3A,11.2729154,54.8100602
1288799,Højrebygade,4920,4,11.271977,54.810194
1288800,Højrebygade,4920,5,11.2726673,54.8097552
1288801,Højrebygade,4920,6,11.2723584,54.8100316
1288802,Højrebygade,4920,7,11.2728507,54.8096486
1288803,Højrebygade,4920,9,11.2728733,54.8094986
1288804,Højrebygade,4920,9A,11.2738892,54.8093641
1288805,Højrebygade,4920,10,11.2723522,54.8097378
1288806,Højrebygade,4920,11,11.2729093,54.8092967
1288807,Højrebygade,4920,12,11.2724031,54.8096093
1288808,Højrebygade,4920,12A,11.27215,54.809567
1288809,Højrebygade,4920,12B,11.271941,54.809559
1288810,Højrebygade,4920,13,11.2729289,54.8091401
1288811,Højrebygade,4920,14,11.272447,54.8093657
1288812,Højrebygade,4920,15,11.2731679,54.8088913
1288813,Højrebygade,4920,16,11.2723738,54.8092274
1288814,Højrebygade,4920,17,11.2730091,54.8086844
1288815,Højrebygade,4920,17A,11.2735389,54.8085159
1288816,Højrebygade,4920,18,11.2724115,54.8090122
1288817,Højrebygade,4920,19,11.2730502,54.8084466
1288818,Højrebygade,4920,20,11.2724215,54.8088234
1288819,Højrebygade,4920,21,11.2730882,54.8082702
1288820,Højrebygade,4920,22,11.2724709,54.8086818
1288821,Højrebygade,4920,23,11.2731832,54.8081194
1288822,Højrebygade,4920,24,11.2725007,54.8085009
1288823,Højrebygade,4920,25A,11.273393,54.807896
1288824,Højrebygade,4920,25B,11.273305,54.807803
1288825,Højrebygade,4920,25C,11.273208,54.8078
1288826,Højrebygade,4920,25D,11.273042,54.807789
1288827,Højrebygade,4920,26,11.2724495,54.8081657
1288828,Højrebygade,4920,28,11.2725629,54.8079665
1288829,Højrebygade,4920,29,11.2731818,54.8074458
1288830,Højrebygade,4920,30,11.2725997,54.8077629
1288831,Højrebygade,4920,31,11.2731336,54.8072218
1288832,Højrebygade,4920,32,11.2726126,54.8076078
1288833,Højrebygade,4920,33,11.2731629,54.8070304
1288834,Højrebygade,4920,34,11.2727373,54.8074391
1288835,Højrebygade,4920,35,11.2732788,54.8068688
1288836,Højrebygade,4920,36,11.272764,54.807298
1288837,Højrebygade,4920,37,11.2732105,54.8067222
1288838,Højrebygade,4920,38,11.2727716,54.8071213
1288840,Højrebygade,4920,39,11.2732388,54.8065651
1288841,Højrebygade,4920,40,11.2727743,54.8069305
1288843,Højrebygade,4920,41,11.2733956,54.8063907
1288845,Højrebygade,4920,42,11.2728026,54.8067603
1288847,Højrebygade,4920,43,11.2733319,54.8062019
1288849,Højrebygade,4920,44,11.2728392,54.8066033
1288851,Højrebygade,4920,45,11.2733516,54.8060675
1288852,Højrebygade,4920,46,11.2729018,54.8064049
1288854,Højrebygade,4920,47,11.2733811,54.8059091
1288857,Højrebygade,4920,48,11.2727438,54.8057649
1288858,Højrebygade,4920,49,11.2734072,54.8057723
1288860,Højrebygade,4920,50,11.2729055,54.8053627
1288861,Højrebygade,4920,51,11.2734558,54.805554
1288862,Højrebygade,4920,52,11.2729517,54.8051564
1288863,Højrebygade,4920,53,11.2734983,54.8054047
1288864,Højrebygade,4920,54,11.2731629,54.8047976
1288865,Højrebygade,4920,55,11.2735033,54.805274
1288866,Højrebygade,4920,57,11.2736084,54.805034
1288867,Højrebygade,4920,59,11.273715,54.804764
1288868,Højrebygade,4920,61,11.2737605,54.8045563
1288869,Højrebygade,4920,62,11.2730135,54.8044923
1288870,Højrebygade,4920,63,11.2736531,54.8042927
1288871,Højrebygade,4920,64,11.2730475,54.803798
1288872,Højrebygade,4920,64A,11.272593,54.8039537
1288873,Højrebygade,4920,65,11.2737111,54.8040656
1288874,Højrebygade,4920,67,11.2736571,54.8038101
1288875,Højrebygade,4920,68,11.273203,54.803175
1288876,Højrebygade,4920,70,11.2725682,54.802954
1288877,Højrebygade,4920,71,11.2735712,54.8035216
1288878,Højrebygade,4920,73,11.2735706,54.8033166
1288879,Højrebygade,4920,75,11.2735122,54.8031259
1288880,Højskolevej,4920,1,11.273219,54.8152789
1288881,Højskolevej,4920,2,11.2728976,54.8155292
1288882,Højskolevej,4920,4,11.2726703,54.8155416
1288883,Højskolevej,4920,5,11.2724293,54.8153029
1288884,Højskolevej,4920,6,11.2724826,54.8155553
1288885,Højskolevej,4920,7,11.2722527,54.8153066
1288886,Højskolevej,4920,8,11.2722729,54.8155761
1288887,Højskolevej,4920,9,11.2720751,54.8153115
1288888,Højskolevej,4920,10,11.271958,54.8155862
1288889,Højskolevej,4920,11,11.2719005,54.8153163
1288890,Højskolevej,4920,12,11.2716382,54.8155623
1288891,Højskolevej,4920,13,11.271724,54.815319
1288892,Højskolevej,4920,14,11.2714018,54.8155563
1288893,Højskolevej,4920,15,11.2715482,54.8153244
1288894,Højskolevej,4920,16,11.27107,54.815544
1288895,Højskolevej,4920,16B,11.270829,54.815535
1288896,Højskolevej,4920,17,11.2713784,54.8152597
1288897,Højskolevej,4920,22,11.2701184,54.8154872
1288898,Højskolevej,4920,28,11.2695411,54.8155008
1288899,Højskolevej,4920,30,11.2692303,54.8155854
1288900,Højskolevej,4920,31,11.2691374,54.8153027
1288901,Højskolevej,4920,32,11.2689134,54.815535
1288902,Højskolevej,4920,34,11.2687089,54.8155441
1288903,Højskolevej,4920,35,11.2686182,54.8153586
1288904,Højskolevej,4920,36,11.2685081,54.8155408
1288905,Højskolevej,4920,37,11.2682958,54.8153487
1288906,Højskolevej,4920,38,11.2683375,54.8155693
1288907,Højskolevej,4920,39,11.2680245,54.8153629
1288908,Højskolevej,4920,40,11.2680459,54.8155473
1288909,Højskolevej,4920,41,11.267768,54.815354
1288910,Højskolevej,4920,42,11.2676153,54.815568
1288911,Højskolevej,4920,43,11.2671901,54.8153666
1288912,Højskolevej,4920,44,11.267334,54.815579
1288913,Højskolevej,4920,48,11.2665932,54.8156562
1288914,Højskolevej,4920,50,11.2659095,54.8156199
1288915,Højskolevej,4920,51,11.2659617,54.8154181
1288916,Højskolevej,4920,52,11.265424,54.815713
1288917,Højskolevej,4920,53,11.2655805,54.8154549
1288918,Højskolevej,4920,54,11.2651549,54.8156723
1288919,Højskolevej,4920,55,11.2653261,54.8154616
1288920,Højskolevej,4920,56,11.2648157,54.8157053
1288921,Højskolevej,4920,57,11.2645692,54.8151609
1288922,Højskolevej,4920,58,11.2644888,54.8158109
1288923,Højskolevej,4920,60,11.2640881,54.8158943
1288924,Højskolevej,4920,61,11.2636622,54.815519
1288925,Højskolevej,4920,64,11.2634558,54.8159288
1288926,Højskolevej,4920,66,11.2621239,54.8157622
1288927,Højskolevej,4920,68,11.2609679,54.8158529
1288928,Højskolevej,4920,70,11.2604299,54.8158786
1288929,Højskolevej,4920,72,11.2601182,54.8159243
1288930,Højskolevej,4920,74,11.2598155,54.8160299
1288931,Højskolevej,4920,76,11.2594459,54.8160287
1288932,Højskolevej,4920,79,11.259629,54.814827
1288933,Højskolevej,4920,79A,11.2598238,54.8150807
1288934,Højskolevej,4920,79B,11.259349,54.815022
1288935,Højskolevej,4920,80,11.2588997,54.8159948
1288936,Højskolevej,4920,81,11.258932,54.8156716
1288937,Højskolevej,4920,82,11.258288,54.8159682
1288938,Højskolevej,4920,84,11.2580579,54.8159726
1288939,Højskolevej,4920,86,11.2577222,54.8160196
1288940,Højskolevej,4920,88,11.2571632,54.8160137
1288949,Vestervej,4920,1,11.2714434,54.8114397
1288950,Vestervej,4920,2,11.2716003,54.8117143
1288951,Vestervej,4920,3,11.2712034,54.8115439
1288952,Vestervej,4920,4,11.2713965,54.8117067
1288953,Vestervej,4920,5,11.2710165,54.8113559
1288954,Vestervej,4920,6,11.2711058,54.8116922
1288955,Vestervej,4920,8A,11.2709165,54.8121674
1288956,Vestervej,4920,9,11.270383,54.811506
1288957,Vestervej,4920,10,11.270605,54.8116762
1288958,Vestervej,4920,11,11.269977,54.811454
1288959,Vestervej,4920,12,11.2704312,54.8116682
1288960,Vestervej,4920,13,11.2695667,54.8115146
1288961,Vestervej,4920,14,11.2701448,54.8116667
1288962,Vestervej,4920,15,11.269141,54.8116433
1288963,Vestervej,4920,16,11.2699356,54.8116647
1288964,Vestervej,4920,17,11.2688522,54.8117887
1288965,Vestervej,4920,18,11.2691068,54.8119604
1288966,Vestervej,4920,19,11.2685582,54.8118998
1288967,Vestervej,4920,20,11.2689528,54.812098
1288968,Vestervej,4920,21,11.2681467,54.8120563
1288969,Vestervej,4920,22,11.2686667,54.8122
1288970,Vestervej,4920,23,11.2678187,54.8121802
1288971,Vestervej,4920,24,11.2682302,54.8123148
1288972,Vestervej,4920,25,11.2674953,54.8122774
1288973,Vestervej,4920,26,11.2673519,54.8126637
1288974,Vestervej,4920,27,11.267214,54.812338
1288975,Vestervej,4920,28,11.2667037,54.8127132
1288976,Vestervej,4920,29,11.2669405,54.8123776
1288977,Vestervej,4920,30,11.2663602,54.8127654
1288978,Vestervej,4920,31,11.2666595,54.8124054
1288979,Vestervej,4920,33,11.2663393,54.8124657
1288980,Vestervej,4920,35,11.26612,54.8124881
1288981,Vestervej,4920,37,11.2656577,54.8125726
1288982,Vestervej,4920,39,11.2653849,54.8126298
1288983,Vestervej,4920,41,11.265229,54.8127917
1342340,Troelsebyvej,4920,1,11.2736589,54.8141256
1342343,Troelsebyvej,4920,2,11.2734847,54.8139269
1342346,Troelsebyvej,4920,3,11.2745625,54.8141991
1342347,Troelsebyvej,4920,5,11.2748111,54.8141868
1342350,Troelsebyvej,4920,6,11.2738954,54.8139079
1342351,Troelsebyvej,4920,7,11.2750611,54.8142233
1342355,Troelsebyvej,4920,8,11.2741241,54.8139164
1342356,Troelsebyvej,4920,10,11.2743824,54.8139357
1342359,Troelsebyvej,4920,14,11.2749944,54.8139779
1342360,Troelsebyvej,4920,16,11.2753247,54.8139902
1342362,Troelsebyvej,4920,18,11.2754385,54.8139954
1342365,Troelsebyvej,4920,20,11.275757,54.8140109
1342367,Troelsebyvej,4920,22,11.27587,54.814016
1342369,Troelsebyvej,4920,33,11.2792563,54.8143854
1342371,Troelsebyvej,4920,35,11.2796048,54.8143804
1342374,Troelsebyvej,4920,37,11.2827132,54.8147818
1342376,Troelsebyvej,4920,39,11.283047,54.814793
1342379,Troelsebyvej,4920,40,11.280019,54.8141083
1342380,Troelsebyvej,4920,41,11.288498,54.814879
1342384,Troelsebyvej,4920,42,11.2809987,54.8141052
1342386,Troelsebyvej,4920,42A,11.280496,54.8141252
1342388,Troelsebyvej,4920,42B,11.281151,54.8135916
1342391,Troelsebyvej,4920,43,11.2922303,54.8159329
1342392,Troelsebyvej,4920,45,11.3004575,54.8153643
1342395,Troelsebyvej,4920,46,11.2811791,54.8142927
1342396,Troelsebyvej,4920,47,11.3050609,54.817994
1342398,Troelsebyvej,4920,48,11.281682,54.8145087
1342402,Troelsebyvej,4920,50,11.292238,54.813362
1342405,Troelsebyvej,4920,51,11.3120795,54.824357
1342407,Troelsebyvej,4920,52,11.2924847,54.8128014
1342411,Troelsebyvej,4920,54,11.2933186,54.8140702
1342412,Troelsebyvej,4920,56,11.2971452,54.8118164
1342415,Troelsebyvej,4920,58,11.3046901,54.8167661
1342417,Irisvej,4920,1,11.2707304,54.8078583
1342418,Irisvej,4920,2,11.2707492,54.8080737
1342419,Irisvej,4920,3,11.270291,54.807847
1342420,Irisvej,4920,4,11.2703398,54.8081093
1342421,Irisvej,4920,5A,11.2699575,54.8078624
1342422,Irisvej,4920,5B,11.2698339,54.8078643
1342423,Irisvej,4920,6,11.2698843,54.8081341
1342424,Irisvej,4920,7,11.2694993,54.8078637
1342427,Irisvej,4920,8,11.2694578,54.8080969
1342428,Irisvej,4920,9,11.2690313,54.8078676
1342430,Irisvej,4920,10,11.2689442,54.8081256
1342432,Irisvej,4920,11,11.2690653,54.8074885
1342434,Irisvej,4920,12,11.2684957,54.8080981
1342435,Irisvej,4920,13A,11.2693677,54.8075244
1342437,Irisvej,4920,13B,11.269496,54.8075216
1342439,Irisvej,4920,14A,11.2684814,54.8077914
1342440,Irisvej,4920,14B,11.2684835,54.8078566
1342443,Irisvej,4920,14C,11.2684858,54.8079218
1342445,Irisvej,4920,15,11.2699648,54.8074768
1342447,Irisvej,4920,16A,11.2684801,54.8075456
1342449,Irisvej,4920,16B,11.2684775,54.8074802
1342450,Irisvej,4920,16C,11.2684751,54.8074148
1342453,Irisvej,4920,17,11.2703499,54.8075519
1342454,Irisvej,4920,18,11.2684238,54.8072904
1342456,Irisvej,4920,19,11.2707058,54.8075514
1342458,Irisvej,4920,20,11.268882,54.8072295
1342459,Irisvej,4920,22,11.2693043,54.8072241
1342462,Irisvej,4920,24,11.2696651,54.8072207
1342464,Irisvej,4920,26,11.2701252,54.8072189
1342466,Irisvej,4920,28,11.270536,54.8072141
1342467,Irisvej,4920,30,11.270906,54.8072097
1342473,Grønningen,4920,1,11.2762577,54.8139699
1342475,Grønningen,4920,2,11.2737765,54.8135166
1342476,Grønningen,4920,3,11.2766256,54.8139852
1342479,Grønningen,4920,4,11.2737873,54.8133059
1342482,Grønningen,4920,5,11.2772144,54.8139623
1342483,Grønningen,4920,6,11.2737956,54.8130277
1342485,Grønningen,4920,7,11.2772382,54.8136816
1342487,Grønningen,4920,8,11.273668,54.812839
1342489,Grønningen,4920,9,11.2768039,54.8137105
1342492,Grønningen,4920,10,11.2741372,54.8128526
1342493,Grønningen,4920,11,11.2764055,54.8136839
1342496,Grønningen,4920,12,11.2741309,54.8130607
1342498,Grønningen,4920,13,11.276476,54.8132764
1342500,Grønningen,4920,14,11.2741368,54.8132902
1342502,Grønningen,4920,15,11.2768502,54.8133021
1342504,Grønningen,4920,16,11.2743421,54.813531
1342506,Grønningen,4920,17,11.2772326,54.8132042
1342508,Grønningen,4920,18,11.275085,54.813542
1342511,Grønningen,4920,19,11.2773053,54.8129827
1342512,Grønningen,4920,20,11.2751556,54.8132744
1342514,Grønningen,4920,21,11.2767902,54.812945
1342517,Grønningen,4920,22,11.2751083,54.8130288
1342518,Grønningen,4920,23,11.2764839,54.8130073
1342521,Grønningen,4920,24,11.2751469,54.8128083
1342522,Grønningen,4920,26,11.2754473,54.8124974
1342523,Grønningen,4920,28,11.2758216,54.8125722
1342524,Grønningen,4920,30,11.275558,54.812861
1342525,Grønningen,4920,32,11.2755859,54.8130618
1342526,Grønningen,4920,34,11.2755887,54.8132957
1342527,Grønningen,4920,36,11.2757765,54.8134536
1342542,Lindevej,4920,1,11.2690109,54.8132481
1342543,Lindevej,4920,2,11.2691856,54.813524
1342544,Lindevej,4920,4,11.2687446,54.8134637
1342545,Lindevej,4920,5,11.2682744,54.8132053
1342546,Lindevej,4920,6,11.2683349,54.8134931
1342547,Lindevej,4920,7,11.2679285,54.8131583
1342548,Lindevej,4920,8,11.2680397,54.8134471
1342549,Lindevej,4920,9,11.2675919,54.8131097
1342550,Lindevej,4920,10,11.2676125,54.8134106
1342551,Lindevej,4920,11,11.2672942,54.8131103
1342552,Lindevej,4920,12,11.267337,54.81338
1342553,Lindevej,4920,13,11.2670174,54.8130894
1342554,Lindevej,4920,15,11.2667081,54.8130669
1342555,Lindevej,4920,16,11.2663677,54.8133802
1342556,Lindevej,4920,18,11.2660039,54.8132727
1342557,Lindevej,4920,19,11.2663339,54.8130555
1342558,Lindevej,4920,20,11.2655742,54.8132266
1342559,Lindevej,4920,21,11.2659239,54.8129586
1342560,Lindevej,4920,22,11.2653421,54.8131889
1342561,Lindevej,4920,24,11.265222,54.812982
1342600,Mimosevej,4920,1,11.2710675,54.8052651
1342601,Mimosevej,4920,2,11.2710877,54.8056213
1342602,Mimosevej,4920,3,11.2706703,54.8052772
1342603,Mimosevej,4920,4,11.2707234,54.8055707
1342604,Mimosevej,4920,5,11.2702967,54.8052896
1342605,Mimosevej,4920,6,11.2702483,54.8055099
1342606,Mimosevej,4920,7,11.2698065,54.8052976
1342607,Mimosevej,4920,8,11.2698159,54.8055542
1342608,Mimosevej,4920,9,11.2694078,54.8052961
1342609,Mimosevej,4920,10A,11.2691925,54.8056011
1342610,Mimosevej,4920,10B,11.2693045,54.8055901
1342611,Mimosevej,4920,10C,11.2694201,54.8055791
1342612,Mimosevej,4920,11,11.2689391,54.8053089
1342613,Mimosevej,4920,12A,11.2689345,54.8055558
1342614,Mimosevej,4920,12B,11.2688212,54.8055636
1342615,Mimosevej,4920,12C,11.2687077,54.8055715
1342616,Mimosevej,4920,13,11.2689715,54.8049019
1342617,Mimosevej,4920,14,11.2683637,54.8055417
1342618,Mimosevej,4920,15,11.2693809,54.8048964
1342619,Mimosevej,4920,16,11.2684072,54.8052758
1342620,Mimosevej,4920,17,11.2697674,54.8049466
1342621,Mimosevej,4920,18,11.2684154,54.8050076
1342622,Mimosevej,4920,19,11.2702558,54.804898
1342623,Mimosevej,4920,20,11.2683881,54.8046447
1342624,Mimosevej,4920,21,11.2706743,54.804976
1342625,Mimosevej,4920,22,11.2688474,54.8046526
1342626,Mimosevej,4920,23,11.2710955,54.8048732
1342627,Mimosevej,4920,24,11.2692644,54.8046472
1342628,Mimosevej,4920,26,11.2697001,54.8046501
1342629,Mimosevej,4920,28,11.2701324,54.8046376
1342630,Mimosevej,4920,30,11.2706311,54.8046312
1342631,Mimosevej,4920,32,11.2709923,54.8046293
1342694,Violvej,4920,1,11.2702443,54.8092779
1342697,Violvej,4920,2,11.2698951,54.8095522
1342701,Violvej,4920,3,11.269928,54.809299
1342703,Violvej,4920,4,11.2695272,54.809522
1342708,Violvej,4920,5,11.2696467,54.8093039
1342709,Violvej,4920,6,11.2691676,54.8095239
1342714,Violvej,4920,6A,11.2686103,54.8092694
1342718,Violvej,4920,7,11.2693157,54.8092881
1342719,Violvej,4920,8,11.2687602,54.8086289
1342723,Violvej,4920,9,11.269345,54.808961
1342729,Violvej,4920,11,11.269777,54.8088264
1342733,Violvej,4920,12,11.2695684,54.8085948
1342734,Violvej,4920,13,11.2700165,54.8088803
1342737,Violvej,4920,14,11.269953,54.808591
1342739,Violvej,4920,15,11.2704799,54.8088635
1342740,Violvej,4920,16,11.2705285,54.8085831
1342784,Lykkesejevej,4920,1,11.2787218,54.8126968
1342785,Lykkesejevej,4920,2,11.2787255,54.8140468
1342786,Lykkesejevej,4920,4,11.2786482,54.8136863
1342787,Lykkesejevej,4920,6,11.2779423,54.8137014
1342788,Lykkesejevej,4920,8,11.2779139,54.8140287
1342789,Lykkesejevej,4920,10,11.2776121,54.8139109
1342790,Lykkesejevej,4920,12,11.2777498,54.8136915
1342791,Lykkesejevej,4920,14,11.2777155,54.8133303
1342792,Lykkesejevej,4920,16,11.2780451,54.8133855
1342793,Lykkesejevej,4920,18,11.2784053,54.8134292
1342794,Lykkesejevej,4920,20,11.2783058,54.8128892
1342795,Lykkesejevej,4920,22,11.2780144,54.8128629
1342796,Lykkesejevej,4920,24,11.277676,54.812845
1342797,Lykkesejevej,4920,26,11.2773339,54.8125869
1342798,Lykkesejevej,4920,28,11.2777582,54.8126381
1342799,Lykkesejevej,4920,30,11.278072,54.812648
1342800,Lykkesejevej,4920,32,11.2783753,54.8126928
1342827,Egevej,4920,1,11.2744951,54.8032376
1342830,Egevej,4920,2,11.2749087,54.8032579
1342832,Egevej,4920,3,11.274361,54.80351
1342833,Egevej,4920,4,11.2748971,54.8035242
1342834,Egevej,4920,5,11.2743599,54.8038366
1342836,Egevej,4920,6,11.2749257,54.8037581
1342838,Egevej,4920,7,11.2744683,54.8040571
1342839,Egevej,4920,8,11.274921,54.803991
1342840,Egevej,4920,9,11.274465,54.8042954
1342842,Egevej,4920,10,11.2748841,54.8042508
1342843,Egevej,4920,11,11.2744573,54.8045566
1342844,Egevej,4920,12,11.274836,54.804503
1342845,Egevej,4920,13,11.2744501,54.804839
1342848,Egevej,4920,14,11.2749015,54.8047842
1342849,Egevej,4920,15,11.2744229,54.8050971
1342850,Egevej,4920,16,11.274883,54.8050954
1342888,Rødbyvej,4920,1,11.273822,54.801695
1342890,Rødbyvej,4920,2,11.2728833,54.800319
1342893,Rødbyvej,4920,3,11.2737219,54.8010102
1342894,Rødbyvej,4920,4,11.2728559,54.7996657
1342897,Rødbyvej,4920,5,11.273938,54.800383
1342898,Rødbyvej,4920,6,11.272366,54.799043
1342900,Rødbyvej,4920,7,11.2735926,54.7994454
1342901,Rødbyvej,4920,9,11.273494,54.79908
1342904,Rødbyvej,4920,11,11.2737825,54.7983512
1342907,Rødbyvej,4920,12,11.2778259,54.792884
1342910,Rødbyvej,4920,13,11.2815586,54.7966362
1342911,Rødbyvej,4920,14,11.279357,54.7918864
1342913,Rødbyvej,4920,15,11.2768205,54.7953619
1342914,Rødbyvej,4920,16,11.2958252,54.7798982
1342917,Rødbyvej,4920,17,11.276996,54.7951344
1342918,Rødbyvej,4920,18,11.299636,54.775319
1342921,Rødbyvej,4920,19,11.2773988,54.7947037
1342922,Rødbyvej,4920,20,11.2993364,54.774219
1342925,Rødbyvej,4920,21,11.2775082,54.7945172
1342927,Rødbyvej,4920,22,11.2993509,54.7730035
1342929,Rødbyvej,4920,23,11.2790093,54.7927695
1342931,Rødbyvej,4920,24,11.2992392,54.7722529
1342933,Rødbyvej,4920,25,11.2795921,54.7923631
1342938,Rødbyvej,4920,26,11.2991805,54.7715467
1342940,Rødbyvej,4920,27,11.280311,54.792007
1342944,Rødbyvej,4920,28,11.299204,54.770377
1342946,Rødbyvej,4920,30,11.3062653,54.7656753
1342950,Rødbyvej,4920,31,11.2808911,54.791821
1342954,Rødbyvej,4920,32,11.3054743,54.7609815
1342957,Rødbyvej,4920,34,11.31005,54.765147
1342961,Rødbyvej,4920,36,11.312916,54.764648
1342963,Rødbyvej,4920,37,11.3022558,54.7772498
1342965,Rødbyvej,4920,38,11.3154518,54.7641869
1342966,Rødbyvej,4920,39,11.300441,54.777032
1342969,Rødbyvej,4920,40,11.3168265,54.763976
1342971,Rødbyvej,4920,41,11.3007441,54.7757231
1342974,Rødbyvej,4920,42,11.3186039,54.763518
1342977,Rødbyvej,4920,44,11.3197256,54.7632129
1342980,Rødbyvej,4920,45,11.30216,54.770453
1342981,Rødbyvej,4920,46,11.3201467,54.763075
1342984,Rødbyvej,4920,47,11.301012,54.768969
1342986,Rødbyvej,4920,48,11.3212739,54.762777
1342989,Rødbyvej,4920,49,11.3072311,54.7660836
1342990,Rødbyvej,4920,50,11.3222757,54.7625204
1342992,Rødbyvej,4920,51,11.309039,54.7657129
1342995,Rødbyvej,4920,52,11.3227791,54.7623638
1342997,Rødbyvej,4920,53,11.310566,54.7655118
1342999,Rødbyvej,4920,54,11.3232609,54.76226
1343001,Rødbyvej,4920,55,11.3111094,54.7654567
1343003,Rødbyvej,4920,57,11.3133173,54.7651749
1343005,Rødbyvej,4920,59,11.3151225,54.7646199
1343008,Rødbyvej,4920,61,11.3167288,54.7643518
1343010,Rødbyvej,4920,63,11.3206571,54.7633901
1343016,Rødbyvej,4920,65,11.321913,54.763122
1343022,Rødbyvej,4920,67,11.3244719,54.7623774
1343165,Strædet,4920,1,11.2830132,54.7947722
1343168,Strædet,4920,2,11.2980833,54.7992369
1343170,Strædet,4920,3,11.2904882,54.797958
1343173,Strædet,4920,4,11.2990571,54.799453
1343175,Strædet,4920,5,11.2924918,54.798523
1343176,Strædet,4920,6,11.2998993,54.7994925
1343177,Strædet,4920,7,11.2945692,54.7989493
1343178,Strædet,4920,8,11.3013373,54.7997019
1343179,Strædet,4920,9,11.2971604,54.7994459
1343180,Strædet,4920,10,11.3021821,54.7998942
1343181,Strædet,4920,11,11.3005317,54.8000635
1343182,Strædet,4920,12,11.3032241,54.7999658
1343183,Strædet,4920,13,11.3029274,54.8002908
1343184,Strædet,4920,15,11.3034383,54.8004398
1343185,Strædet,4920,17,11.3048037,54.8006436
1343186,Strædet,4920,19,11.3062,54.800786
1343208,Lavendelvej,4920,1,11.271027,54.8065749
1343211,Lavendelvej,4920,2,11.27097,54.806879
1343212,Lavendelvej,4920,3,11.2707126,54.8065688
1343213,Lavendelvej,4920,4,11.2706223,54.8068214
1343214,Lavendelvej,4920,5,11.27026,54.8065833
1343215,Lavendelvej,4920,6,11.2701651,54.8069169
1343216,Lavendelvej,4920,7,11.2698631,54.8065857
1343217,Lavendelvej,4920,8,11.2697682,54.8069039
1343218,Lavendelvej,4920,9,11.2693849,54.8065928
1343219,Lavendelvej,4920,10,11.2693494,54.806827
1343220,Lavendelvej,4920,11,11.2690241,54.8065962
1343221,Lavendelvej,4920,12,11.2689288,54.8068997
1343222,Lavendelvej,4920,13,11.268983,54.8062208
1343223,Lavendelvej,4920,14,11.2684669,54.8068999
1343224,Lavendelvej,4920,15,11.2694325,54.8062156
1343225,Lavendelvej,4920,16,11.2684299,54.8066064
1343226,Lavendelvej,4920,17,11.2698629,54.8062189
1343227,Lavendelvej,4920,18,11.268479,54.806227
1343228,Lavendelvej,4920,19,11.270255,54.8061644
1343229,Lavendelvej,4920,20,11.2684588,54.8059749
1343230,Lavendelvej,4920,21,11.2706617,54.8062108
1343231,Lavendelvej,4920,22,11.2689467,54.8059563
1343232,Lavendelvej,4920,23,11.2710881,54.8061815
1343233,Lavendelvej,4920,24,11.2693422,54.805952
1343234,Lavendelvej,4920,26,11.269791,54.8059453
1343235,Lavendelvej,4920,28,11.2702671,54.805941
1343236,Lavendelvej,4920,30,11.2707119,54.8059326
1343237,Lavendelvej,4920,32,11.271098,54.805925
1343243,Gurrebyvej,4920,1,11.257138,54.812366
1343244,Gurrebyvej,4920,2,11.2517087,54.8145923
1343245,Gurrebyvej,4920,2J,11.2503596,54.8125616
1343246,Gurrebyvej,4920,3,11.2570795,54.811669
1343247,Gurrebyvej,4920,4,11.2464581,54.8119429
1343249,Gurrebyvej,4920,5,11.2507433,54.8120042
1343251,Gurrebyvej,4920,6,11.2461475,54.8119131
1343252,Gurrebyvej,4920,7,11.249641,54.812009
1343253,Gurrebyvej,4920,8,11.2440382,54.811792
1343254,Gurrebyvej,4920,9,11.2505358,54.8095435
1343255,Gurrebyvej,4920,10A,11.240042,54.810518
1343256,Gurrebyvej,4920,10B,11.2407506,54.808444
1343257,Gurrebyvej,4920,11,11.2473978,54.8118231
1343258,Gurrebyvej,4920,12,11.240693,54.8075764
1343259,Gurrebyvej,4920,13,11.2411947,54.8091346
1343261,Gurrebyvej,4920,15,11.2410917,54.8073302
1343332,Birkevej,4920,1A,11.270039,54.814076
1343335,Birkevej,4920,1B,11.2704206,54.8129559
1343338,Birkevej,4920,2,11.2696642,54.8150641
1343342,Birkevej,4920,3,11.2703405,54.8125382
1343343,Birkevej,4920,3A,11.27013,54.812536
1343348,Birkevej,4920,5,11.2700369,54.8123318
1343350,Birkevej,4920,6,11.2694434,54.8147588
1343351,Birkevej,4920,7,11.2699901,54.8121006
1343355,Birkevej,4920,12,11.2696264,54.8142796
1343358,Birkevej,4920,20,11.2695906,54.813619
1343359,Birkevej,4920,22,11.2695263,54.8132776
1343361,Birkevej,4920,24,11.2695765,54.8130997
1343363,Birkevej,4920,26,11.269583,54.812881
1343367,Birkevej,4920,28,11.2695692,54.8125262
1343368,Birkevej,4920,30,11.269581,54.8122463
1343373,Birkevej,4920,32,11.269567,54.8120818
1343375,Birkevej,4920,34,11.2695839,54.8118441
1343417,Kildeparken,4920,1,11.271446,54.810508
1343422,Kildeparken,4920,2,11.270862,54.810096
1343423,Kildeparken,4920,3,11.27149,54.810508
1343425,Kildeparken,4920,4,11.270879,54.81008
1343428,Kildeparken,4920,5,11.271571,54.810489
1343429,Kildeparken,4920,6,11.270886,54.809993
1343430,Kildeparken,4920,7,11.271757,54.810435
1343431,Kildeparken,4920,8,11.271019,54.809907
1343432,Kildeparken,4920,9,11.271805,54.810435
1343433,Kildeparken,4920,10,11.270914,54.809905
1343434,Kildeparken,4920,11,11.271886,54.810416
1343435,Kildeparken,4920,12,11.270865,54.809886
1343436,Kildeparken,4920,13,11.271281,54.810392
1343437,Kildeparken,4920,15,11.271268,54.810352
1343438,Kildeparken,4920,17,11.271269,54.810303
1343439,Kildeparken,4920,19,11.2715446,54.8100952
1343440,Kildeparken,4920,21,11.2716833,54.8100973
1343441,Kildeparken,4920,23,11.2712864,54.8101676
1343442,Kildeparken,4920,25,11.2712886,54.8100923
1343443,Kildeparken,4920,27,11.271461,54.809906
1343444,Kildeparken,4920,29,11.271499,54.809916
1343445,Kildeparken,4920,31,11.271622,54.80992
1343468,Anlægsvej,4920,1,11.2728345,54.8124681
1343469,Anlægsvej,4920,2,11.2730653,54.8121104
1343473,Anlægsvej,4920,4,11.27629,54.812164
1343475,Anlægsvej,4920,4B,11.275802,54.811956
1343476,Anlægsvej,4920,4C,11.275437,54.811832
1343478,Anlægsvej,4920,4D,11.275499,54.811635
1343480,Anlægsvej,4920,4E,11.275813,54.811478
1343482,Anlægsvej,4920,4F,11.276191,54.811902
1343484,Anlægsvej,4920,4G,11.276224,54.811599
1343486,Anlægsvej,4920,4H,11.276385,54.811441
1343489,Anlægsvej,4920,4I,11.276753,54.811442
1343491,Anlægsvej,4920,4J,11.276712,54.811761
1343494,Anlægsvej,4920,4K,11.277229,54.811351
1343497,Anlægsvej,4920,4L,11.277279,54.811683
1343500,Anlægsvej,4920,4M,11.27733,54.812015
1343502,Anlægsvej,4920,4N,11.27791,54.812039
1343503,Anlægsvej,4920,5,11.2730732,54.8123643
1343506,Anlægsvej,4920,7,11.2733497,54.812375
1343507,Anlægsvej,4920,9,11.2735997,54.8123771
1343510,Anlægsvej,4920,11,11.2738092,54.8123817
1343512,Anlægsvej,4920,13,11.2740562,54.812392
1343513,Anlægsvej,4920,15,11.2744473,54.812397
1343516,Anlægsvej,4920,17,11.2746341,54.8123523
1343517,Anlægsvej,4920,19,11.2750047,54.8123783
1343520,Anlægsvej,4920,23,11.2764239,54.8126427
1343599,Brogårdsvej,4920,1,11.269607,54.8104229
1343602,Brogårdsvej,4920,2,11.268949,54.8106073
1343603,Brogårdsvej,4920,3,11.269945,54.810093
1343604,Brogårdsvej,4920,4,11.2690322,54.810526
1343609,Brogårdsvej,4920,6,11.2691142,54.8104427
1343610,Brogårdsvej,4920,8,11.2692124,54.8102715
1343612,Brogårdsvej,4920,10,11.2693222,54.8101985
1343614,Brogårdsvej,4920,12,11.2694289,54.8100304
1343617,Brogårdsvej,4920,14,11.269542,54.809961
1343621,Brogårdsvej,4920,16,11.2697109,54.8098713
1343632,Bækkevej,4920,1,11.2717653,54.809411
1343633,Bækkevej,4920,2,11.271895,54.809694
1343634,Bækkevej,4920,3,11.2714804,54.8093653
1343635,Bækkevej,4920,4,11.2713836,54.8095661
1343636,Bækkevej,4920,5,11.270939,54.8092998
1343637,Bækkevej,4920,6,11.2710202,54.8095051
1343638,Bækkevej,4920,8,11.2708905,54.8094992
1343639,Bækkevej,4920,10,11.2704601,54.8096457
1343659,Kraghgårdsvej,4920,1,11.2691365,54.8125533
1343662,Kraghgårdsvej,4920,2,11.2690871,54.812787
1343663,Kraghgårdsvej,4920,3,11.2687898,54.8125514
1343665,Kraghgårdsvej,4920,4,11.2687766,54.8128057
1343666,Kraghgårdsvej,4920,5,11.2684141,54.8125509
1343668,Kraghgårdsvej,4920,6,11.2684387,54.8127864
1343670,Kraghgårdsvej,4920,8,11.2681459,54.8128037
1343672,Kraghgårdsvej,4920,10,11.2678793,54.812716
1343739,Højrebylundvej,4920,1,11.314237,54.8076062
1343744,Højrebylundvej,4920,5,11.31513,54.808273
1343746,Højrebylundvej,4920,9,11.3169476,54.8079813
1343764,Stormgade,4920,1,11.2704989,54.8104669
1343766,Stormgade,4920,2,11.2702466,54.8107183
1343768,Stormgade,4920,2A,11.270184,54.810728
1343770,Stormgade,4920,3,11.270423,54.810359
1343773,Stormgade,4920,4,11.2702219,54.8102953
1343776,Stormgade,4920,5,11.270505,54.810226
1343777,Stormgade,4920,7,11.2703769,54.8100976
1343796,Sportsvej,4920,1,11.2725629,54.8143562
1343798,Sportsvej,4920,2,11.2726795,54.8145913
1343801,Sportsvej,4920,5,11.2716347,54.8141556
1343804,Sportsvej,4920,6,11.2719786,54.8146437
1343806,Sportsvej,4920,7,11.2714874,54.8145237
1343807,Sportsvej,4920,8,11.2718298,54.8146671
1343808,Sportsvej,4920,9,11.2712427,54.814563
1343809,Sportsvej,4920,10,11.2716708,54.8146924
1343810,Sportsvej,4920,12,11.2713168,54.8147439
1343829,Søndermarksvej,4920,1,11.2714791,54.7981587
1343831,Søndermarksvej,4920,2,11.2723177,54.798742
1343834,Søndermarksvej,4920,4,11.253943,54.798304
1343836,Søndermarksvej,4920,6,11.247955,54.797866
1343869,Jernbanegade,4920,2,11.2701976,54.8110092
1343871,Jernbanegade,4920,3,11.2710462,54.8105737
1343872,Jernbanegade,4920,5,11.2705183,54.8106617
1343875,Jernbanegade,4920,7,11.2699663,54.8107646
1343876,Jernbanegade,4920,9,11.269542,54.810707
1343878,Jernbanegade,4920,17,11.2685122,54.8106481
1343881,Jernbanegade,4920,18,11.268354,54.8109656
1343882,Jernbanegade,4920,19,11.2677542,54.8107372
1343885,Jernbanegade,4920,19A,11.26743,54.809803
1343886,Jernbanegade,4920,19B,11.268227,54.809974
1343888,Jernbanegade,4920,20,11.266997,54.811329
1343891,Jernbanegade,4920,21,11.2672846,54.81086
1343892,Jernbanegade,4920,22,11.2665466,54.8114502
1343895,Jernbanegade,4920,23,11.266627,54.811022
1343897,Jernbanegade,4920,24,11.2656783,54.8115437
1343899,Jernbanegade,4920,25,11.265658,54.81121
1343902,Jernbanegade,4920,28,11.26468,54.811846
1343903,Jernbanegade,4920,30,11.263745,54.812149
1343906,Jernbanegade,4920,32,11.2633458,54.8121508
1343907,Jernbanegade,4920,34,11.2626985,54.8123852
1343909,Jernbanegade,4920,36,11.2619351,54.8124563
1343910,Jernbanegade,4920,38,11.2611873,54.8127342
1343913,Jernbanegade,4920,40,11.2599166,54.8128466
1343990,Toldbodvej,4920,1,11.3111337,54.8045709
1343996,Toldbodvej,4920,2,11.3108502,54.8035715
1343999,Toldbodvej,4920,3,11.311211,54.803096
1344004,Toldbodvej,4920,4,11.3109594,54.8017209
1344007,Toldbodvej,4920,5,11.3096244,54.8011724
1344051,Åkandevej,4920,1,11.2717183,54.8051302
1344054,Åkandevej,4920,2,11.2717306,54.8048426
1344056,Åkandevej,4920,3,11.2721155,54.8051792
1344058,Åkandevej,4920,4,11.2723375,54.8048379
1344062,Åkandevej,4920,5,11.2723247,54.8049452
1344144,Græshavevej,4920,14,11.2177683,54.797138
1344146,Græshavevej,4920,16,11.218355,54.7961957
1344148,Græshavevej,4920,18,11.2186299,54.7956691
1344150,Græshavevej,4920,20,11.2183604,54.7953616
1344152,Græshavevej,4920,22,11.2182817,54.7948946
1344154,Græshavevej,4920,24,11.2183296,54.7946387
1344156,Græshavevej,4920,26,11.217742,54.793618
1344158,Græshavevej,4920,28,11.2177309,54.7927903
1344159,Græshavevej,4920,29,11.217819,54.798176
1344160,Græshavevej,4920,30,11.2174291,54.7917978
1344161,Græshavevej,4920,31,11.2175132,54.7908518
1344162,Græshavevej,4920,32,11.2168764,54.7905148
1344163,Græshavevej,4920,33,11.223029,54.783832
1344167,Græshavevej,4920,37,11.2247033,54.7835993
1344171,Græshavevej,4920,39,11.2238545,54.7833279
1344175,Græshavevej,4920,41,11.2222473,54.7827137
1344362,Kirkevej,4920,1,11.2737598,54.8182425
1344365,Kirkevej,4920,2,11.2749804,54.8187825
1344367,Kirkevej,4920,4,11.2711569,54.818045
1344373,Kirkevej,4920,6,11.2704139,54.8179268
1344374,Kirkevej,4920,7,11.2729327,54.8181262
1344377,Kirkevej,4920,17,11.2708802,54.8176805
1344394,Syrenvej,4920,1,11.2714707,54.8080752
1344395,Syrenvej,4920,2,11.2715056,54.8078383
1344396,Syrenvej,4920,3,11.271892,54.808066
1344397,Syrenvej,4920,4,11.2719331,54.807953
1344398,Bellisvej,4920,1,11.2715538,54.8075503
1344399,Bellisvej,4920,2,11.2715309,54.8072513
1344400,Bellisvej,4920,3,11.2718885,54.8075607
1344401,Bellisvej,4920,4,11.2719346,54.8073151
1344402,Rytterstrædet,4920,1,11.2757245,54.8022622
1344403,Rytterstrædet,4920,3,11.2758394,54.8018776
1344404,Rytterstrædet,4920,5,11.2756439,54.8015558
1344405,Tulipanvej,4920,1,11.271146,54.808922
1344406,Tulipanvej,4920,2,11.2712293,54.8086843
1344407,Tulipanvej,4920,3,11.2716347,54.8089364
1344418,Ryde Kirkevej,4920,1,11.2897748,54.7878618
1344420,Ryde Kirkevej,4920,2,11.3054377,54.7958385
1344421,Ryde Kirkevej,4920,3,11.2920077,54.7864469
1344423,Ryde Kirkevej,4920,4,11.305539,54.7963244
1344425,Ryde Kirkevej,4920,5,11.2994205,54.7886838
1344426,Ryde Kirkevej,4920,5A,11.299812,54.7884098
1344432,Ryde Kirkevej,4920,9,11.3046592,54.7954193
1344434,Ryde Kirkevej,4920,11,11.304851,54.7983171
1344501,Bøgevej,4920,1,11.2668354,54.8133803
1344504,Bøgevej,4920,2,11.267387,54.814056
1344508,Bøgevej,4920,3,11.2665488,54.8139192
1344594,Volshave Skovvej,4920,1,11.2353912,54.8013808
1344597,Volshave Skovvej,4920,2,11.2297934,54.8013436
1344599,Volshave Skovvej,4920,3,11.2322666,54.7984681
1344617,Liljevej,4920,1,11.271768,54.806262
1344618,Liljevej,4920,2,11.2717229,54.8059971
1344619,Liljevej,4920,3,11.2721673,54.8062753
1344620,Liljevej,4920,4,11.2721166,54.806062
1344623,Langsøgårdvej,4920,2,11.2721348,54.8044711
1344626,Langsøgårdvej,4920,4,11.2716702,54.8045188
1344628,Langsøgårdvej,4920,7,11.2699206,54.8041076
1344629,Langsøgårdvej,4920,9,11.268221,54.803197
1344673,Erantisvej,4920,1,11.2717526,54.8056413
1344674,Erantisvej,4920,2,11.2717898,54.8054159
1344678,Erantisvej,4920,3,11.2721986,54.805628
1344681,Erantisvej,4920,4,11.2722488,54.8054592
1345098,Stibankevejen,4920,1,11.3158362,54.8017707
1345099,Stibankevejen,4920,2,11.3279309,54.8000992
1345100,Stibankevejen,4920,3,11.3178035,54.8017218
1345101,Stibankevejen,4920,4,11.3288516,54.8002412
1345103,Stibankevejen,4920,6,11.3314926,54.7987642
1345105,Stibankevejen,4920,7,11.3290779,54.8020093
1345108,Stibankevejen,4920,8,11.3292427,54.8005801
1345109,Stibankevejen,4920,9,11.3296859,54.8030981
1345114,Stibankevejen,4920,10,11.3294795,54.8009937
1345115,Stibankevejen,4920,11,11.3494804,54.7947963
1345117,Stibankevejen,4920,12,11.3357077,54.8008195
1345121,Stibankevejen,4920,13,11.350197,54.7945827
1345126,Stibankevejen,4920,15,11.3526537,54.7940072
1345128,Stibankevejen,4920,16,11.3371848,54.8000412
1345134,Stibankevejen,4920,18,11.3377299,54.7998947
1345137,Stibankevejen,4920,19,11.3579384,54.7921428
1345138,Stibankevejen,4920,20,11.34024,54.7989263
1345143,Stibankevejen,4920,21,11.3601778,54.7917751
1345147,Stibankevejen,4920,22,11.3406632,54.7987519
1345150,Stibankevejen,4920,23,11.362016,54.790944
1345152,Stibankevejen,4920,24,11.3420638,54.798087
1345153,Stibankevejen,4920,25,11.3662777,54.7901471
1345157,Stibankevejen,4920,26,11.3424957,54.7979241
1345159,Stibankevejen,4920,28,11.3428426,54.7977465
1345163,Stibankevejen,4920,30,11.3463141,54.7957663
1345165,Stibankevejen,4920,32,11.3470207,54.7955681
1345168,Stibankevejen,4920,34,11.348361,54.7948651
1345169,Stibankevejen,4920,38,11.3545917,54.7929848
1345173,Stibankevejen,4920,40,11.3540028,54.7916962
1345177,Stibankevejen,4920,42,11.3561081,54.7924733
1345178,Stibankevejen,4920,44,11.3568939,54.7921231
1345179,Stibankevejen,4920,46,11.3580736,54.7919117
1345180,Stibankevejen,4920,48,11.358466,54.7917748
1345182,Stibankevejen,4920,50,11.3606399,54.7911449
1345184,Stibankevejen,4920,52,11.3619743,54.7877361
1345186,Stibankevejen,4920,54,11.3617467,54.787304
1345187,Stibankevejen,4920,56,11.372606,54.785089
1345426,Holmemarksvejen,4920,1,11.3133674,54.7949706
1345433,Holmemarksvejen,4920,3,11.3154944,54.7946471
1345437,Holmemarksvejen,4920,5,11.3169783,54.7955004
1345447,Holmemarksvejen,4920,11,11.3205692,54.7948696
1345453,Holmemarksvejen,4920,13,11.3212689,54.7956775
1345456,Holmemarksvejen,4920,15,11.3221887,54.7943723
1345461,Holmemarksvejen,4920,17,11.326458,54.793178
1345496,Sandhøjsvejen,4920,1,11.24853,54.818239
1345497,Sandhøjsvejen,4920,2,11.2549475,54.8176712
1345498,Sandhøjsvejen,4920,4,11.2534134,54.8181465
1345503,Centralvej,4920,2,11.2719513,54.8085223
1345506,Centralvej,4920,4,11.2715873,54.8084489
1345509,Anemonevej,4920,2,11.271685,54.806631
1345510,Anemonevej,4920,3,11.2719441,54.8069121
1345511,Anemonevej,4920,4,11.2720721,54.8066859
1345512,Højreby Husevej,4920,1,11.2498689,54.8016037
1345513,Højreby Husevej,4920,3,11.2498286,54.7997466
1345514,Højreby Husevej,4920,5,11.2498378,54.7983279
1348692,Skodsebøllevej,4920,1,11.2835889,54.7833353
1348695,Skodsebøllevej,4920,3,11.280707,54.7800872
1348697,Skodsebøllevej,4920,4,11.2823021,54.7833934
1348698,Skodsebøllevej,4920,5,11.2807311,54.7799753
1348699,Skodsebøllevej,4920,6,11.281064,54.783087
1348702,Skodsebøllevej,4920,7,11.2808069,54.7797538
1348705,Skodsebøllevej,4920,8,11.2798447,54.7818235
1348706,Skodsebøllevej,4920,9,11.2810107,54.779261
1348708,Skodsebøllevej,4920,10,11.2798845,54.7817027
1348710,Skodsebøllevej,4920,11,11.2806427,54.778617
1348713,Skodsebøllevej,4920,12,11.2802329,54.7802568
1348714,Skodsebøllevej,4920,13,11.2785531,54.7784702
1348715,Skodsebøllevej,4920,14,11.2803168,54.7799749
1348717,Skodsebøllevej,4920,15,11.2686822,54.7773043
1348719,Skodsebøllevej,4920,16,11.28038,54.7797988
1348721,Skodsebøllevej,4920,17,11.2680029,54.7772871
1348722,Skodsebøllevej,4920,18,11.2804606,54.7796258
1348724,Skodsebøllevej,4920,19,11.2674004,54.7771419
1348725,Skodsebøllevej,4920,20,11.2804666,54.7794362
1348726,Skodsebøllevej,4920,21,11.2656774,54.7766358
1348727,Skodsebøllevej,4920,22,11.2805747,54.7792191
1348728,Skodsebøllevej,4920,24,11.2786547,54.7787735
1348729,Skodsebøllevej,4920,25,11.2621059,54.7769729
1348730,Skodsebøllevej,4920,26,11.277514,54.7787157
1348731,Skodsebøllevej,4920,28,11.2659254,54.7777548
1348732,Skodsebøllevej,4920,29,11.255114,54.776723
1348733,Skodsebøllevej,4920,30,11.26372,54.777633
1348734,Skodsebøllevej,4920,31,11.251046,54.775076
1348735,Skodsebøllevej,4920,32,11.260166,54.777359
1348737,Skodsebøllevej,4920,33,11.2442975,54.7768027
1348739,Skodsebøllevej,4920,35,11.2394212,54.7766692
1351706,Almindevej,4920,1,11.2919423,54.7597227
1351708,Almindevej,4920,2,11.2899244,54.7599108
1351710,Almindevej,4920,4,11.2868782,54.7591537
1351712,Almindevej,4920,5,11.2878772,54.759104
1351714,Almindevej,4920,6,11.2866115,54.7591052
1351716,Almindevej,4920,7,11.2875859,54.7591009
1351718,Almindevej,4920,8,11.2859421,54.7589592
1351719,Almindevej,4920,9,11.2871963,54.7590061
1351722,Almindevej,4920,10,11.2855521,54.7589219
1351725,Almindevej,4920,11,11.286838,54.7588354
1351727,Almindevej,4920,12,11.2846043,54.7592284
1351730,Almindevej,4920,13,11.2864575,54.758781
1351732,Almindevej,4920,14,11.2844031,54.7597926
1351738,Almindevej,4920,15,11.2833013,54.7586648
1351739,Almindevej,4920,16,11.283948,54.759966
1351743,Almindevej,4920,17,11.2836032,54.7592916
1351746,Almindevej,4920,18,11.2845092,54.7601144
1351748,Almindevej,4920,19,11.2767213,54.7610186
1351753,Almindevej,4920,20,11.2847104,54.7602973
1351755,Almindevej,4920,21,11.2720505,54.7617239
1351758,Almindevej,4920,22,11.2841238,54.7593591
1351760,Almindevej,4920,23,11.261903,54.762969
1351762,Almindevej,4920,24,11.2837453,54.7595103
1351765,Almindevej,4920,25,11.2609165,54.7613319
1351769,Almindevej,4920,27,11.2601938,54.7599233
1351771,Almindevej,4920,28,11.2773523,54.7612159
1351775,Almindevej,4920,29,11.260145,54.758984
1351778,Almindevej,4920,30,11.2766573,54.7612229
1351781,Almindevej,4920,31,11.259753,54.758152
1351786,Almindevej,4920,32,11.2715564,54.7642919
1351791,Almindevej,4920,34,11.2650918,54.7631869
1351794,Almindevej,4920,35,11.25923,54.756768
1351795,Almindevej,4920,37,11.257525,54.756137
1351798,Almindevej,4920,38,11.2643239,54.7630855
1351800,Almindevej,4920,39,11.2566992,54.7562364
1351803,Almindevej,4920,40,11.263916,54.7632546
1351806,Almindevej,4920,41,11.256283,54.756307
1351807,Almindevej,4920,42,11.261356,54.763916
1351809,Almindevej,4920,43,11.255422,54.7560636
1351810,Almindevej,4920,44,11.2602496,54.7611338
1351813,Almindevej,4920,46,11.260175,54.760904
1351816,Almindevej,4920,48,11.2600759,54.7606324
1351817,Almindevej,4920,50,11.2599404,54.7604535
1351820,Almindevej,4920,54,11.2593977,54.7584921
1351821,Almindevej,4920,56,11.258705,54.756768
1351822,Almindevej,4920,58,11.2582392,54.7567054
1351823,Almindevej,4920,60,11.2570333,54.7567541
1351824,Almindevej,4920,62,11.2558943,54.7573403
1351825,Almindevej,4920,64,11.2552037,54.7567076
1351826,Almindevej,4920,66,11.2545295,54.7569007
1351827,Almindevej,4920,68,11.2542405,54.7568187
1351828,Almindevej,4920,70,11.2538453,54.7568611
1362115,Simonshovedvej,4920,1,11.2749514,54.7746659
1362122,Simonshovedvej,4920,2,11.2711789,54.7765272
1362130,Simonshovedvej,4920,3,11.2752345,54.7716216
1362138,Simonshovedvej,4920,4,11.2713147,54.7763237
1362144,Simonshovedvej,4920,5,11.2801376,54.7703027
1362151,Simonshovedvej,4920,6,11.271473,54.776101
1362155,Simonshovedvej,4920,7,11.2794227,54.7631169
1362164,Simonshovedvej,4920,8,11.2716096,54.7759228
1362170,Simonshovedvej,4920,10,11.271766,54.7757263
1362175,Simonshovedvej,4920,11,11.2795713,54.7610394
1362182,Simonshovedvej,4920,12,11.273654,54.770264
1362192,Simonshovedvej,4920,18,11.279136,54.761287
1362285,Torebyvej,4920,1,11.297232,54.7795572
1362287,Torebyvej,4920,2,11.3048991,54.779107
1362291,Torebyvej,4920,3,11.2971641,54.7797527
1362293,Torebyvej,4920,4,11.3131132,54.779604
1362297,Torebyvej,4920,5,11.2979674,54.7791601
1362299,Torebyvej,4920,6,11.3170376,54.7799113
1362303,Torebyvej,4920,7,11.2983268,54.7795303
1362304,Torebyvej,4920,8,11.3290464,54.7750934
1362309,Torebyvej,4920,9,11.3010603,54.7793283
1362310,Torebyvej,4920,10,11.3314683,54.7772421
1362314,Torebyvej,4920,11,11.3085033,54.7797328
1362316,Torebyvej,4920,13,11.3275685,54.7792856
1362320,Torebyvej,4920,15,11.3316532,54.7775757
1362323,Torebyvej,4920,17,11.3346983,54.7763099
1362370,Ryde Møllevej,4920,1,11.2986122,54.7817834
1362372,Ryde Møllevej,4920,2,11.297862,54.7833813
1362376,Ryde Møllevej,4920,3,11.2987374,54.7814206
1362378,Ryde Møllevej,4920,4,11.2979091,54.7830757
1362382,Ryde Møllevej,4920,6,11.2980115,54.7823943
1362386,Ryde Møllevej,4920,8,11.2981909,54.7817021
1362387,Ryde Møllevej,4920,10,11.2982612,54.7814092
1362390,Ryde Møllevej,4920,12,11.2983447,54.781144
1362393,Ryde Møllevej,4920,14,11.2983426,54.7807451
1362397,Ryde Møllevej,4920,16,11.2984206,54.780498
1362401,Ryde Møllevej,4920,18,11.2987122,54.7801942
1362476,Nøbbøllevej,4920,1,11.295602,54.778773
1362480,Nøbbøllevej,4920,2,11.2956102,54.779024
1362484,Nøbbøllevej,4920,3,11.29457,54.7787339
1362486,Nøbbøllevej,4920,4,11.2951482,54.779002
1362489,Nøbbøllevej,4920,5,11.2819117,54.7781571
1362490,Nøbbøllevej,4920,6,11.2946562,54.7789855
1362492,Nøbbøllevej,4920,8,11.2940627,54.7789478
1362493,Nøbbøllevej,4920,10,11.2938335,54.77895
1362494,Nøbbøllevej,4920,12,11.2936094,54.7789512
1362495,Nøbbøllevej,4920,14,11.2821748,54.7792167
1362496,Hvilested,4920,1,11.280611,54.790635
1362497,Hvilested,4920,1B,11.280364,54.790648
1362498,Hvilested,4920,1C,11.279836,54.79066
1362499,Hvilested,4920,9,11.280817,54.790606
1362511,Bjerreskovvej,4920,1,11.2812051,54.7897693
1362515,Bjerreskovvej,4920,2,11.2810842,54.7900336
1362518,Bjerreskovvej,4920,3,11.2800871,54.7894662
1362522,Bjerreskovvej,4920,4,11.2800646,54.7898352
1362523,Bjerreskovvej,4920,5,11.2794843,54.7894146
1362527,Bjerreskovvej,4920,6,11.2796121,54.789759
1362533,Bjerreskovvej,4920,7,11.2790095,54.7892797
1362536,Bjerreskovvej,4920,8,11.2774054,54.789265
1362540,Bjerreskovvej,4920,9,11.2784248,54.7891165
1362543,Bjerreskovvej,4920,10,11.2712133,54.7878126
1362550,Bjerreskovvej,4920,11,11.278179,54.7890886
1362554,Bjerreskovvej,4920,12,11.2703641,54.7879331
1362560,Bjerreskovvej,4920,13,11.27794,54.7890369
1362567,Bjerreskovvej,4920,14,11.2676054,54.7870187
1362570,Bjerreskovvej,4920,15,11.2777551,54.7889767
1362576,Bjerreskovvej,4920,16,11.267233,54.7865919
1362579,Bjerreskovvej,4920,17,11.2778743,54.7886719
1362584,Bjerreskovvej,4920,18,11.2622542,54.7878706
1362590,Bjerreskovvej,4920,19,11.2774795,54.7889488
1362593,Bjerreskovvej,4920,20,11.267081,54.786273
1362600,Bjerreskovvej,4920,21,11.2772748,54.7889016
1362602,Bjerreskovvej,4920,22,11.265998,54.783107
1362612,Bjerreskovvej,4920,23,11.2758433,54.7885293
1362615,Bjerreskovvej,4920,25,11.2730554,54.7879043
1362620,Bjerreskovvej,4920,27,11.271877,54.787536
1362621,Bjerreskovvej,4920,29,11.2701103,54.7873073
1362628,Bjerreskovvej,4920,31,11.269269,54.787158
1362721,Ålstrup Sidevej,4920,1,11.2998099,54.7687126
1362725,Ålstrup Sidevej,4920,2,11.2991142,54.7694529
1362727,Ålstrup Sidevej,4920,5,11.3006443,54.7675076
1362749,Korterupvej,4920,1,11.2981092,54.7649529
1362753,Korterupvej,4920,2,11.301281,54.766907
1362754,Korterupvej,4920,3,11.2923842,54.7624624
1362757,Korterupvej,4920,4,11.3013303,54.7653159
1362759,Korterupvej,4920,5,11.292361,54.7622353
1362764,Korterupvej,4920,6,11.2969723,54.7653077
1362767,Korterupvej,4920,7,11.294575,54.759197
1362769,Korterupvej,4920,8,11.291129,54.763915
1362770,Korterupvej,4920,10,11.2920289,54.7630543
1362775,Korterupvej,4920,12,11.292369,54.758202
1362779,Korterupvej,4920,13,11.2931983,54.7576197
1362781,Korterupvej,4920,14,11.2937719,54.7540647
1362783,Korterupvej,4920,15,11.2940728,54.7543078
1362784,Korterupvej,4920,16,11.295527,54.7538717
1362788,Korterupvej,4920,17,11.2944813,54.7541663
1362792,Korterupvej,4920,18,11.2959638,54.7538177
1362794,Korterupvej,4920,19,11.295197,54.7541048
1362797,Korterupvej,4920,20,11.2973387,54.7515172
1362799,Korterupvej,4920,21,11.3025828,54.752843
1362803,Korterupvej,4920,22,11.3019102,54.7510424
1362807,Korterupvej,4920,23,11.3044746,54.7508472
1362927,Nøbbølle Bækvej,4920,2,11.2813554,54.7896652
1362931,Nøbbølle Bækvej,4920,3,11.2829113,54.7846834
1362934,Nøbbølle Bækvej,4920,4,11.281354,54.789342
1362937,Nøbbølle Bækvej,4920,6,11.2812921,54.7889563
1362939,Nøbbølle Bækvej,4920,8,11.2813126,54.7886906
1362942,Nøbbølle Bækvej,4920,10,11.2823059,54.7852816
1362973,Stensgårdsvej,4920,1,11.2611811,54.7684643
1362976,Stensgårdsvej,4920,1A,11.2611216,54.7685007
1362977,Stensgårdsvej,4920,1B,11.2611079,54.7686234
1362980,Stensgårdsvej,4920,2,11.25791,54.769579
1362981,Stensgårdsvej,4920,3,11.259107,54.763642
1362984,Stensgårdsvej,4920,4,11.2583051,54.7642593
1362985,Stensgårdsvej,4920,6,11.2583777,54.763858
1362988,Stensgårdsvej,4920,8,11.2562202,54.7637198
1486822,Løjetvej,4920,7,11.3686822,54.8050394
1486824,Løjetvej,4920,10,11.3686485,54.804198
1486829,Løjetvej,4920,11,11.3689649,54.8000556
1486830,Løjetvej,4920,13,11.3700864,54.7989393
1486833,Løjetvej,4920,15,11.3596548,54.7991994
1486837,Løjetvej,4920,16,11.3487548,54.8038756
1486838,Løjetvej,4920,18,11.34673,54.8044798
1486840,Løjetvej,4920,19,11.3511885,54.8025163
1486841,Løjetvej,4920,21,11.3482451,54.8034123
1486844,Løjetvej,4920,22,11.3461015,54.8064874
1486847,Løjetvej,4920,23,11.3459259,54.8023112
1486848,Løjetvej,4920,27,11.3449487,54.8045084
1486853,Løjetvej,4920,29,11.339958,54.805132
1486854,Løjetvej,4920,31,11.3387761,54.8054931
1486859,Løjetvej,4920,35,11.3365516,54.8063661
1497528,Vejlebyvej,4920,60,11.3061669,54.7500185
1497712,Askøvej,4920,2A,11.2850137,54.758713
1497713,Askøvej,4920,3,11.2856857,54.7574284
1497714,Askøvej,4920,4,11.285291,54.758165
1497715,Askøvej,4920,5,11.2854753,54.7570528
1497716,Askøvej,4920,6,11.285223,54.7577345
1497717,Askøvej,4920,7,11.2849326,54.7563871
1497718,Askøvej,4920,8,11.2851015,54.7575162
1497719,Askøvej,4920,9,11.283437,54.754473
1497720,Askøvej,4920,10,11.2850539,54.7573256
1497721,Askøvej,4920,11,11.2830176,54.7546503
1497722,Askøvej,4920,12,11.2845029,54.7565939
1497723,Askøvej,4920,13,11.2777084,54.7541993
1497725,Askøvej,4920,14,11.2841198,54.7559498
1497728,Askøvej,4920,18,11.275064,54.754952
1497731,Askøvej,4920,18A,11.273048,54.753034
1497733,Askøvej,4920,19,11.275055,54.746841
1497737,Askøvej,4920,20,11.272847,54.752848
1497742,Askøvej,4920,22,11.2722841,54.749674
1497744,Askøvej,4920,24,11.27341,54.748183
1497746,Askøvej,4920,26,11.274104,54.747205
1499897,Haubøllevej,4920,2,11.321277,54.7811044
1499898,Haubøllevej,4920,3,11.312614,54.7852943
1499901,Haubøllevej,4920,5,11.3148529,54.7839404
1499905,Haubøllevej,4920,7,11.3170334,54.7832318
1499907,Haubøllevej,4920,9,11.3211553,54.7830237
1499910,Haubøllevej,4920,11,11.3216592,54.7812189
1499959,Kaj Munks Vej,4920,9,11.3213579,54.7593608
1499966,Kaj Munks Vej,4920,11,11.322348,54.760577
1499999,Landet Kirkevej,4920,1,11.2798239,54.760076
1500000,Landet Kirkevej,4920,2,11.2795147,54.7604989
1500001,Landet Kirkevej,4920,3,11.2797754,54.7593442
1500002,Landet Kirkevej,4920,4,11.2791907,54.7597878
1500003,Landet Kirkevej,4920,6A,11.279122,54.7592507
1500319,Skovlyvej,4920,2,11.3340032,54.7799041
1500320,Skovlyvej,4920,4,11.3320824,54.781272
1500321,Skovlyvej,4920,6,11.3318561,54.7818667
1500420,Toreby Sidevej,4920,1,11.3179086,54.7744642
1500422,Toreby Sidevej,4920,2,11.3149681,54.7759702
1500426,Toreby Sidevej,4920,3,11.3223079,54.7750074
1500428,Toreby Sidevej,4920,4,11.3156527,54.7738554
1500448,Korterup Sidevej,4920,1,11.2967293,54.7519904
1500450,Korterup Sidevej,4920,3,11.296088,54.751329
1500452,Korterup Sidevej,4920,5,11.2950048,54.7517789
1500456,Korterup Sidevej,4920,7,11.2918634,54.7513294
1501623,Løjet Skovvej,4920,2,11.3564236,54.7931456
1568569,Lundegårdsvej,4920,3,11.344768,54.809402
1568572,Lundegårdsvej,4920,6,11.3417208,54.8086961
1568577,Lundegårdsvej,4920,7,11.3411452,54.8074856
1568643,Fællesenggårdsvej,4920,8,11.3268877,54.8142919
1568644,Nymarksvej,4920,3,11.3438245,54.8116934
1568663,Husrækken,4920,4,11.3375512,54.8151704
1568664,Husrækken,4920,8,11.337783,54.814573
2116605,Abed Smedevej,4920,3,11.3249893,54.8356168
2116614,Abed Smedevej,4920,5,11.3248429,54.8357
2116632,Abed Smedevej,4920,6,11.3237567,54.8361286
2116645,Abed Smedevej,4920,7,11.3245109,54.8358606
2116651,Abed Smedevej,4920,9,11.3214469,54.8341206
2216907,Smedevejen,4920,2,11.291481,54.765875
2229670,Søndermarksvej,4920,5,11.246771,54.791825
2229671,Jernbanegade,4920,26,11.26486,54.811808
2229672,Græshavevej,4920,20B,11.217994,54.79589
2229696,Skodsebøllevej,4920,22A,11.28075,54.77904
2229721,Almindevej,4920,3A,11.29099,54.759793
2230619,Askøvej,4920,2,11.28548,54.758453
2248225,Anlægsvej,4920,2A,11.2740812,54.810245
2248297,Langsøgårdvej,4920,5,11.271211,54.804204
2248333,Rødbyvej,4920,32A,11.305972,54.76176
2248351,Stadionvej,4920,2,11.268423,54.81379
