idx,street,postcode,housenumber,lon,lat
339972,Bøllemosegyden,5491,2,10.265238,55.378308
339973,Bøllemosegyden,5491,6,10.26459,55.377894
339974,Bøllemosegyden,5491,8,10.263813,55.378596
339975,Bøllemosegyden,5491,9,10.260905,55.37895
339976,Bøllemosegyden,5491,10,10.263513,55.378593
339977,Bøllemosegyden,5491,12A,10.263209,55.378569
339978,Bøllemosegyden,5491,12B,10.262983,55.378544
339979,Bøllemosegyden,5491,20,10.25968,55.378589
339980,Bøllemosegyden,5491,34,10.251846,55.380202
339981,Bøllemosegyden,5491,38,10.249057,55.38103
339982,Bøllemosegyden,5491,50,10.239398,55.380007
339983,Bøllemosegyden,5491,58,10.235139,55.379116
339984,Bøllemosegyden,5491,60,10.232701,55.37831
339985,Bøllemosegyden,5491,61,10.233476,55.381712
339986,Bøllemosegyden,5491,71,10.228321,55.37929
339987,Bøllemosegyden,5491,72,10.226782,55.378146
339988,Bøllemosegyden,5491,73,10.227566,55.379099
339989,Bøllemosegyden,5491,74,10.226524,55.377271
339990,Bøllemosegyden,5491,75,10.226773,55.379015
339991,Bøllemosegyden,5491,76,10.228504,55.376979
339992,Bøllemosegyden,5491,77,10.224679,55.379587
339993,Bøllemosegyden,5491,78,10.226623,55.376877
339994,Bøllemosegyden,5491,79,10.225953,55.379302
339995,Bøllemosegyden,5491,81,10.225097,55.379344
339996,Bøllemosegyden,5491,83,10.224365,55.379264
339997,Bøllemosegyden,5491,87,10.221715,55.37859
339998,Bøllemosegyden,5491,89,10.219862,55.377935
339999,Bøllemosegyden,5491,91,10.217972,55.377635
340000,Bøllemosegyden,5491,100,10.211154,55.380145
340001,Bøllemosegyden,5491,100T,10.211329,55.380658
340002,Bøllemosegyden,5491,101,10.211735,55.380154
340003,Bøllemosegyden,5491,130,10.211859,55.382735
340004,Bøllemosegyden,5491,131,10.212457,55.382948
340005,Bøllemosegyden,5491,135,10.212411,55.383232
340006,Bøllemosegyden,5491,143,10.212673,55.383716
340007,Bøllemosegyden,5491,144,10.208119,55.384711
340008,Bøllemosegyden,5491,151,10.213246,55.384758
340009,Bøllemosegyden,5491,154,10.212803,55.38516
340010,Bøllemosegyden,5491,170,10.214667,55.386328
340011,Bøllemosegyden,5491,172,10.214273,55.38652
340012,Bøllemosegyden,5491,174,10.214932,55.386597
343250,Dyredvej,5491,7,10.210871,55.382547
343251,Dyredvej,5491,11,10.210396,55.382389
343252,Dyredvej,5491,25,10.208539,55.381523
343253,Dyredvej,5491,30,10.20785,55.379918
343254,Dyredvej,5491,60,10.204497,55.37763
343255,Dyredvej,5491,70,10.202856,55.376959
343256,Dyredvej,5491,101,10.199491,55.375376
343257,Dyredvej,5491,125,10.196577,55.375061
343258,Dyredvej,5491,135,10.194825,55.372874
343259,Dyredvej,5491,155,10.190037,55.371338
343260,Dyredvej,5491,160,10.188514,55.370625
343261,Dyredvej,5491,180,10.185585,55.371525
343262,Dyregrav Væde Vej,5491,35,10.227627,55.393206
343263,Dyregrav Væde Vej,5491,36,10.228378,55.392073
343264,Dyregrav Væde Vej,5491,40,10.227832,55.392708
343265,Dyregrav Væde Vej,5491,44,10.227013,55.393123
343266,Dyregrav Væde Vej,5491,52,10.224124,55.394434
343267,Dyregrav Væde Vej,5491,95,10.22241,55.398866
343268,Dyregrav Væde Vej,5491,96,10.221296,55.399021
343269,Dyregrav Væde Vej,5491,100,10.219351,55.398502
343270,Dyregrav Væde Vej,5491,115,10.219137,55.400911
343271,Dyregrav Væde Vej,5491,183,10.210967,55.402921
343272,Dyregrav Væde Vej,5491,185,10.207525,55.404435
343273,Dyregrav Væde Vej,5491,185E,10.206184,55.404171
343274,Dyregrav Væde Vej,5491,195,10.20362,55.40893
348145,Fårebjergvej,5491,51,10.288402,55.385294
348146,Fårebjergvej,5491,61,10.28601,55.386003
348147,Fårebjergvej,5491,91,10.290484,55.387299
350101,Gundersøvej,5491,20,10.227915,55.395516
350102,Gundersøvej,5491,40,10.230023,55.397752
352464,Hesbjerg Skovvej,5491,1,10.227661,55.354542
352465,Hesbjerg Skovvej,5491,5,10.230165,55.355798
352466,Hesbjerg Skovvej,5491,6,10.226892,55.35546
352467,Hesbjerg Skovvej,5491,11,10.227492,55.355684
352468,Hesbjerg Skovvej,5491,15,10.231546,55.356455
352469,Hesbjerg Skovvej,5491,16,10.225918,55.355872
352470,Hesbjerg Skovvej,5491,24,10.225233,55.356513
352471,Hesbjerg Skovvej,5491,25,10.229492,55.356549
352472,Hesbjerg Skovvej,5491,41,10.226057,55.35695
352473,Hesbjerg Skovvej,5491,50,10.219032,55.360266
352474,Hesbjerg Skovvej,5491,101,10.217075,55.367286
352475,Hesbjergvej,5491,10,10.214053,55.377351
352476,Hesbjergvej,5491,11,10.213087,55.376924
352477,Hesbjergvej,5491,50,10.209279,55.373422
354358,Hovhavevej,5491,4,10.255425,55.397408
354359,Hovhavevej,5491,6,10.255002,55.397418
354360,Hovhavevej,5491,8,10.254902,55.397665
354361,Hovhavevej,5491,10,10.254602,55.397796
354362,Hovhavevej,5491,11,10.25387,55.398439
354363,Hovhavevej,5491,12,10.254346,55.39791
354364,Hovhavevej,5491,18,10.252852,55.398065
354365,Hovhavevej,5491,19,10.253685,55.399264
354366,Hovhavevej,5491,22,10.252233,55.398134
354367,Hovhavevej,5491,26,10.2475,55.397829
354368,Hovhavevej,5491,27,10.253812,55.400128
354369,Hovhavevej,5491,27B,10.254028,55.399986
354747,Husemosevej,5491,5,10.227385,55.389087
354748,Husemosevej,5491,6,10.226787,55.389451
354749,Husemosevej,5491,10,10.226406,55.389652
354750,Husemosevej,5491,11,10.228584,55.389148
354751,Husemosevej,5491,13,10.22886,55.389094
354752,Husemosevej,5491,15,10.229522,55.389449
354753,Husemosevej,5491,16,10.225168,55.389977
354754,Husemosevej,5491,17,10.229903,55.389425
354755,Husemosevej,5491,20,10.224398,55.390252
354756,Husemosevej,5491,23,10.22919,55.389717
354757,Husemosevej,5491,24,10.223431,55.390294
354758,Husemosevej,5491,25,10.228399,55.389543
354759,Husemosevej,5491,29,10.227779,55.389534
354760,Husemosevej,5491,31,10.227759,55.389903
354761,Husemosevej,5491,35,10.227408,55.389421
354762,Husemosevej,5491,65,10.216504,55.393009
354763,Husemosevej,5491,80,10.21345,55.394945
354764,Husemosevej,5491,81,10.214175,55.395291
354765,Husemosevej,5491,85,10.207517,55.394688
356162,Højmarken,5491,1,10.274961,55.387141
356163,Højmarken,5491,2,10.275526,55.387143
356164,Højmarken,5491,4,10.275408,55.386892
356165,Højmarken,5491,5,10.274908,55.386877
356166,Højmarken,5491,6,10.275336,55.386731
356167,Højmarken,5491,7,10.27488,55.386633
356168,Højmarken,5491,8,10.275252,55.386527
356169,Højmarken,5491,9,10.274824,55.386456
356170,Højmarken,5491,10,10.275951,55.386377
356171,Højmarken,5491,11,10.274733,55.386283
356172,Højmarken,5491,12,10.275975,55.386059
356173,Højmarken,5491,13,10.274511,55.386157
356174,Højmarken,5491,14,10.27632,55.38597
356175,Højmarken,5491,15,10.275067,55.38608
356176,Højmarken,5491,16,10.276603,55.385829
356177,Højmarken,5491,17,10.275389,55.385984
356178,Højmarken,5491,18,10.277064,55.385678
356179,Højmarken,5491,19,10.275757,55.38586
356180,Højmarken,5491,20,10.277542,55.385561
356181,Højmarken,5491,21,10.276017,55.385711
356182,Højmarken,5491,22,10.278146,55.385606
356183,Højmarken,5491,23,10.27637,55.385569
356184,Højmarken,5491,24,10.278454,55.385695
356185,Højmarken,5491,25,10.276584,55.385433
356186,Højmarken,5491,26,10.278824,55.385744
356187,Højmarken,5491,27,10.277074,55.385271
356188,Højmarken,5491,29,10.277545,55.38529
356189,Højmarken,5491,31,10.277976,55.385315
356190,Højmarken,5491,33,10.27835,55.385367
356191,Højmarken,5491,35,10.278794,55.385465
358443,Kalørvej,5491,11,10.262146,55.393586
358444,Kalørvej,5491,13,10.262251,55.393752
358445,Kalørvej,5491,17,10.261507,55.393632
358446,Kalørvej,5491,19,10.26142,55.393843
358447,Kalørvej,5491,21,10.261909,55.393806
358448,Kalørvej,5491,25,10.261264,55.394162
360861,Kongsbjergvej,5491,10,10.224404,55.363458
360862,Kongsbjergvej,5491,15,10.225747,55.366154
360944,Korsebjergvej,5491,6,10.220895,55.38892
360945,Korsebjergvej,5491,10,10.219371,55.388787
360946,Korsebjergvej,5491,14,10.2188,55.388807
360947,Korsebjergvej,5491,17,10.217487,55.38951
360948,Korsebjergvej,5491,30,10.213371,55.388668
360949,Korsebjergvej,5491,32,10.213012,55.389
360950,Korsebjergvej,5491,37,10.213715,55.392159
360951,Korsebjergvej,5491,73,10.205901,55.390725
360952,Korsebjergvej,5491,101,10.201914,55.392394
360953,Korsebjergvej,5491,111,10.199877,55.392371
360954,Korsebjergvej,5491,131,10.197988,55.392816
366572,Middelfartvej,5491,302,10.292406,55.39121
366574,Middelfartvej,5491,306,10.291701,55.391228
366575,Middelfartvej,5491,308,10.288729,55.391075
366576,Middelfartvej,5491,310,10.28784,55.390886
366577,Middelfartvej,5491,312,10.282913,55.390712
366579,Middelfartvej,5491,314,10.282342,55.390773
366583,Middelfartvej,5491,320,10.280867,55.390816
366587,Middelfartvej,5491,329,10.292141,55.391637
366588,Middelfartvej,5491,330,10.278647,55.390732
366589,Middelfartvej,5491,332,10.278335,55.39072
366590,Middelfartvej,5491,333,10.289876,55.391569
366591,Middelfartvej,5491,334,10.277967,55.390725
366592,Middelfartvej,5491,335,10.288344,55.391525
366593,Middelfartvej,5491,336,10.277562,55.390657
366594,Middelfartvej,5491,340,10.277314,55.390656
366595,Middelfartvej,5491,347,10.286326,55.392183
366596,Middelfartvej,5491,348,10.275342,55.390601
366597,Middelfartvej,5491,350,10.274815,55.390586
366598,Middelfartvej,5491,352,10.274539,55.390612
366599,Middelfartvej,5491,358,10.273431,55.390513
366600,Middelfartvej,5491,360,10.273194,55.39051
366601,Middelfartvej,5491,361,10.283285,55.391527
366602,Middelfartvej,5491,362,10.27289,55.3905
366603,Middelfartvej,5491,363,10.282991,55.391435
366604,Middelfartvej,5491,364,10.272346,55.39033
366605,Middelfartvej,5491,367,10.282217,55.391607
366606,Middelfartvej,5491,368,10.271982,55.390476
366607,Middelfartvej,5491,369,10.281477,55.392502
366608,Middelfartvej,5491,370,10.271712,55.390469
366609,Middelfartvej,5491,372,10.271265,55.390476
366610,Middelfartvej,5491,375,10.280925,55.3925
366611,Middelfartvej,5491,379,10.28111,55.392078
366612,Middelfartvej,5491,381,10.281876,55.391376
366613,Middelfartvej,5491,385,10.281447,55.391285
366614,Middelfartvej,5491,389,10.279983,55.391092
366615,Middelfartvej,5491,393,10.279333,55.391089
366616,Middelfartvej,5491,396,10.26749,55.39021
366617,Middelfartvej,5491,398,10.266764,55.390282
366618,Middelfartvej,5491,399,10.278434,55.391118
366619,Middelfartvej,5491,401,10.278124,55.391105
366620,Middelfartvej,5491,402,10.26617,55.390215
366621,Middelfartvej,5491,403,10.277471,55.391011
366622,Middelfartvej,5491,405,10.277365,55.391118
366623,Middelfartvej,5491,406,10.265341,55.39023
366624,Middelfartvej,5491,407,10.277149,55.391088
366625,Middelfartvej,5491,410,10.264807,55.390186
366626,Middelfartvej,5491,411,10.276503,55.391013
366627,Middelfartvej,5491,414,10.263877,55.390182
366628,Middelfartvej,5491,415,10.276136,55.391098
366629,Middelfartvej,5491,420,10.262672,55.39015
366630,Middelfartvej,5491,420B,10.26328,55.390139
366631,Middelfartvej,5491,421,10.274527,55.390933
366632,Middelfartvej,5491,423,10.274092,55.39093
366633,Middelfartvej,5491,425,10.2738,55.390916
366634,Middelfartvej,5491,427,10.273427,55.390899
366635,Middelfartvej,5491,428,10.261207,55.389959
366636,Middelfartvej,5491,429,10.273023,55.390897
366637,Middelfartvej,5491,430,10.260946,55.389935
366638,Middelfartvej,5491,431A,10.272204,55.391416
366639,Middelfartvej,5491,431B,10.271578,55.391183
366640,Middelfartvej,5491,433,10.272233,55.390945
366641,Middelfartvej,5491,435,10.271426,55.390778
366642,Middelfartvej,5491,435B,10.27173,55.390755
366643,Middelfartvej,5491,439,10.271024,55.390771
366644,Middelfartvej,5491,441,10.270516,55.391056
366645,Middelfartvej,5491,443,10.270953,55.391156
366646,Middelfartvej,5491,444,10.257671,55.389789
366647,Middelfartvej,5491,445,10.270465,55.391594
366648,Middelfartvej,5491,447,10.270179,55.391668
366649,Middelfartvej,5491,448,10.257501,55.389891
366650,Middelfartvej,5491,449,10.269481,55.39154
366651,Middelfartvej,5491,450,10.255816,55.389686
366652,Middelfartvej,5491,451,10.269634,55.391278
366653,Middelfartvej,5491,452,10.256483,55.389425
366654,Middelfartvej,5491,454,10.256747,55.389857
366655,Middelfartvej,5491,455,10.270206,55.390805
366656,Middelfartvej,5491,459,10.269025,55.390646
366657,Middelfartvej,5491,460,10.254989,55.389647
366658,Middelfartvej,5491,463,10.268649,55.390641
366659,Middelfartvej,5491,465,10.267528,55.391051
366660,Middelfartvej,5491,469,10.267176,55.391523
366661,Middelfartvej,5491,470,10.2529,55.389637
366662,Middelfartvej,5491,474,10.252063,55.389601
366663,Middelfartvej,5491,475,10.267255,55.390631
366664,Middelfartvej,5491,477,10.2669,55.390739
366665,Middelfartvej,5491,479,10.266659,55.390624
366666,Middelfartvej,5491,481,10.266446,55.39063
366667,Middelfartvej,5491,483,10.266252,55.390641
366668,Middelfartvej,5491,484,10.250786,55.389316
366669,Middelfartvej,5491,485,10.266007,55.390565
366670,Middelfartvej,5491,487,10.265725,55.39054
366671,Middelfartvej,5491,491,10.265147,55.390515
366672,Middelfartvej,5491,494,10.24785,55.389359
366673,Middelfartvej,5491,495,10.264168,55.39048
366674,Middelfartvej,5491,497,10.263977,55.390477
366675,Middelfartvej,5491,499,10.263669,55.390587
366676,Middelfartvej,5491,501,10.263441,55.390552
366677,Middelfartvej,5491,503,10.263003,55.39049
366678,Middelfartvej,5491,509,10.261231,55.390413
366679,Middelfartvej,5491,510,10.245903,55.387554
366680,Middelfartvej,5491,515,10.260541,55.390426
366681,Middelfartvej,5491,517,10.260168,55.390363
366682,Middelfartvej,5491,519,10.259847,55.390351
366683,Middelfartvej,5491,521,10.259496,55.39038
366684,Middelfartvej,5491,531,10.25758,55.390246
366685,Middelfartvej,5491,550,10.23898,55.389063
366686,Middelfartvej,5491,557,10.251977,55.389955
366687,Middelfartvej,5491,561,10.251366,55.390031
366688,Middelfartvej,5491,562,10.23693,55.388836
366689,Middelfartvej,5491,563,10.250949,55.390012
366690,Middelfartvej,5491,565,10.250583,55.389998
366691,Middelfartvej,5491,569,10.249769,55.389937
366692,Middelfartvej,5491,574,10.233296,55.3885
366693,Middelfartvej,5491,583,10.246918,55.389795
366694,Middelfartvej,5491,585,10.246382,55.389791
366695,Middelfartvej,5491,587,10.24574,55.389902
366696,Middelfartvej,5491,590,10.231079,55.388112
366697,Middelfartvej,5491,591,10.244683,55.389751
366698,Middelfartvej,5491,594,10.230103,55.388075
366699,Middelfartvej,5491,601A,10.242099,55.389685
366700,Middelfartvej,5491,601B,10.241686,55.389674
366701,Middelfartvej,5491,603,10.241634,55.389852
366702,Middelfartvej,5491,609,10.241203,55.389592
366703,Middelfartvej,5491,610,10.227108,55.388579
366704,Middelfartvej,5491,611,10.240721,55.389649
366705,Middelfartvej,5491,620,10.224952,55.388475
366706,Middelfartvej,5491,621,10.2381373,55.3901365
366707,Middelfartvej,5491,633,10.236161,55.389677
366708,Middelfartvej,5491,635,10.235648,55.391089
366709,Middelfartvej,5491,656,10.216152,55.38794
366710,Middelfartvej,5491,660,10.215571,55.387939
366711,Middelfartvej,5491,701,10.205365,55.387569
366712,Middelfartvej,5491,703,10.20517,55.388374
366713,Middelfartvej,5491,708,10.206536,55.386461
366714,Middelfartvej,5491,710,10.205633,55.386924
366715,Middelfartvej,5491,712,10.203844,55.387146
366716,Middelfartvej,5491,724,10.200276,55.386374
366717,Middelfartvej,5491,728,10.199682,55.387298
366718,Middelfartvej,5491,732,10.198807,55.387229
366719,Middelfartvej,5491,736,10.199062,55.3847
366720,Middelfartvej,5491,740,10.197061,55.387117
366721,Middelfartvej,5491,745,10.199137,55.387596
366722,Middelfartvej,5491,747,10.198884,55.387596
366723,Middelfartvej,5491,749,10.198629,55.387595
366724,Middelfartvej,5491,753,10.198044,55.387667
370215,Nymarken,5491,24,10.239872,55.392643
370216,Nymarken,5491,25,10.23972,55.393981
370217,Nymarken,5491,26,10.239927,55.393736
370218,Nymarken,5491,36,10.237262,55.393289
370219,Nymarken,5491,41,10.236843,55.394075
370220,Nymarken,5491,47,10.23449,55.395248
370221,Nymarken,5491,50,10.234169,55.393368
370222,Nymarken,5491,61,10.232948,55.393504
370223,Nymarken,5491,69,10.231628,55.392917
374346,Ravnebjerggyden,5491,3,10.258512,55.389299
374347,Ravnebjerggyden,5491,7,10.260334,55.388965
374348,Ravnebjerggyden,5491,19,10.262336,55.387076
374349,Ravnebjerggyden,5491,20,10.264223,55.386724
374350,Ravnebjerggyden,5491,23,10.261215,55.387145
374351,Ravnebjerggyden,5491,26,10.265788,55.386605
374352,Ravnebjerggyden,5491,27,10.259194,55.387333
374353,Ravnebjerggyden,5491,28,10.265992,55.386458
374354,Ravnebjerggyden,5491,29,10.258525,55.387064
374355,Ravnebjerggyden,5491,30,10.26318,55.386635
374356,Ravnebjerggyden,5491,31,10.259467,55.386811
374357,Ravnebjerggyden,5491,33,10.260126,55.387179
374358,Ravnebjerggyden,5491,37,10.262689,55.3867
374359,Ravnebjerggyden,5491,40,10.264389,55.385045
374360,Ravnebjerggyden,5491,43,10.26009,55.386389
374361,Ravnebjerggyden,5491,48,10.264527,55.383891
374362,Ravnebjerggyden,5491,52,10.264898,55.382987
374363,Ravnebjerggyden,5491,54,10.264692,55.381801
374364,Ravnebjerggyden,5491,60,10.265113,55.380903
374365,Ravnebjerggyden,5491,65,10.264798,55.380428
374366,Ravnebjerggyden,5491,66,10.265605,55.379973
374367,Ravnebjerggyden,5491,67,10.265086,55.380125
374368,Ravnebjerggyden,5491,70A,10.265784,55.379467
374369,Ravnebjerggyden,5491,70B,10.265932,55.379454
374370,Ravnebjerggyden,5491,70C,10.266024,55.379519
374371,Ravnebjerggyden,5491,74,10.265844,55.378853
374372,Ravnebjerggyden,5491,75,10.265075,55.379439
374373,Ravnebjerggyden,5491,76,10.265838,55.378043
374374,Ravnebjerggyden,5491,76B,10.26586,55.3778
374375,Ravnebjerggyden,5491,78A,10.266755,55.377646
374376,Ravnebjerggyden,5491,78B,10.266461,55.377542
374377,Ravnebjerggyden,5491,78C,10.26677,55.377427
374378,Ravnebjerggyden,5491,79,10.265196,55.379051
374379,Ravnebjerggyden,5491,80,10.265822,55.377708
374380,Ravnebjerggyden,5491,81,10.265296,55.378693
374381,Ravnebjerggyden,5491,82,10.265781,55.377465
374382,Ravnebjerggyden,5491,84,10.265931,55.377057
374383,Ravnebjerggyden,5491,86,10.265517,55.376844
374384,Ravnebjerggyden,5491,87,10.2652131,55.3778389
374385,Ravnebjerggyden,5491,90,10.265148,55.375916
374386,Ravnebjerggyden,5491,91A,10.264808,55.376781
374387,Ravnebjerggyden,5491,91B,10.26487,55.376933
374388,Ravnebjerggyden,5491,92,10.265019,55.375708
374389,Ravnebjerggyden,5491,93,10.264683,55.377077
374390,Ravnebjerggyden,5491,94,10.264924,55.375367
374391,Ravnebjerggyden,5491,95,10.264734,55.376237
374392,Ravnebjerggyden,5491,96,10.265088,55.374587
374393,Ravnebjerggyden,5491,96B,10.26486,55.374582
374394,Ravnebjerggyden,5491,98,10.264957,55.374395
374395,Ravnebjerggyden,5491,101,10.264361,55.375512
374397,Ravnebjerggyden,5491,103,10.264204,55.374841
374398,Ravnebjerggyden,5491,107,10.2643979,55.3744482
378137,Sanderumvej,5491,322,10.266295,55.37855
380136,Skovmarken,5491,25,10.222487,55.402476
380137,Skovmarken,5491,31,10.222183,55.403224
380138,Skovmarken,5491,35,10.224577,55.402667
380139,Skovmarken,5491,40,10.216978,55.407374
380140,Skovmarken,5491,40B,10.216796,55.407863
380141,Skovmarken,5491,43,10.222078,55.403747
380142,Skovmarken,5491,51,10.223924,55.405114
380143,Skovmarken,5491,60,10.224071,55.405873
380144,Skovmarken,5491,70,10.225168,55.406767
382422,Spedsbjergvej,5491,1,10.225774,55.388437
382423,Spedsbjergvej,5491,2,10.226584,55.388489
382424,Spedsbjergvej,5491,5,10.226028,55.387572
382425,Spedsbjergvej,5491,80,10.217247,55.383086
382426,Spedsbjergvej,5491,81,10.21603,55.384922
382427,Spedsbjergvænget,5491,14,10.22682,55.387957
382428,Spedsbjergvænget,5491,15,10.227572,55.388164
382429,Spedsbjergvænget,5491,16,10.226852,55.38819
382430,Spedsbjergvænget,5491,17,10.22796,55.38826
382431,Spedsbjergvænget,5491,19,10.228373,55.388359
382432,Spedsbjergvænget,5491,21,10.228321,55.388528
382433,Spedsbjergvænget,5491,23,10.228056,55.388516
382434,Spedsbjergvænget,5491,25,10.227672,55.388489
382435,Spedsbjergvænget,5491,27,10.227413,55.388456
383204,Stenkistevej,5491,1,10.226927,55.357903
383205,Stenkistevej,5491,6,10.22647,55.358284
383206,Stenkistevej,5491,10,10.225119,55.359923
383207,Stenkistevej,5491,11,10.227525,55.360252
383208,Stenkistevej,5491,21,10.228316,55.36068
383718,Store Ernebjerg Vej,5491,35,10.197149,55.369453
383719,Store Ernebjerg Vej,5491,35A,10.202945,55.372481
383720,Store Ernebjerg Vej,5491,35B,10.197665,55.368765
384383,Stærmosevej,5491,129,10.233375,55.353802
384384,Stærmosevej,5491,148,10.231415,55.35338
384385,Stærmosevej,5491,150,10.232875,55.352396
387961,Tommerupvej,5491,115,10.183281,55.368113
387962,Tommerupvej,5491,119,10.183193,55.367438
387963,Tommerupvej,5491,149,10.187148,55.362956
387964,Tommerupvej,5491,220,10.191062,55.364629
387965,Tommerupvej,5491,222,10.19084,55.364291
387966,Tommerupvej,5491,224,10.190077,55.364921
387967,Tommerupvej,5491,228,10.188852,55.365593
388023,Tornmarksvej,5491,2,10.274008,55.391225
388024,Tornmarksvej,5491,6,10.273694,55.391482
388025,Tornmarksvej,5491,10,10.273286,55.39186
388026,Tornmarksvej,5491,16,10.273646,55.392349
388027,Tornmarksvej,5491,18,10.273279,55.392566
388028,Tornmarksvej,5491,19,10.275403,55.392388
388029,Tornmarksvej,5491,21,10.275321,55.392579
388030,Tornmarksvej,5491,23,10.275267,55.392757
388031,Tornmarksvej,5491,25,10.275307,55.392929
388032,Tornmarksvej,5491,26,10.269373,55.392984
388033,Tornmarksvej,5491,27,10.274771,55.392885
388034,Tornmarksvej,5491,29,10.274827,55.392657
388035,Tornmarksvej,5491,30,10.271926,55.39388
388036,Tornmarksvej,5491,31,10.274883,55.392484
388037,Tornmarksvej,5491,33,10.274874,55.392288
388038,Tornmarksvej,5491,35,10.274193,55.392168
388039,Tornmarksvej,5491,37,10.27433,55.392329
388040,Tornmarksvej,5491,39,10.274235,55.39251
388041,Tornmarksvej,5491,41,10.27435,55.392728
388042,Tornmarksvej,5491,43,10.273842,55.392835
388043,Tornmarksvej,5491,60,10.266988,55.393492
388044,Tornmarksvej,5491,64,10.266157,55.393264
388045,Tornmarksvej,5491,66,10.265573,55.39327
388046,Tornmarksvej,5491,71,10.271689,55.394893
388047,Tornmarksvej,5491,74,10.265163,55.392891
388048,Tornmarksvej,5491,84,10.263875,55.391891
388049,Tornmarksvej,5491,85,10.270539,55.398112
388050,Tornmarksvej,5491,86,10.263751,55.391671
388051,Tornmarksvej,5491,88,10.263684,55.391543
388052,Tornmarksvej,5491,89,10.271149,55.399121
388053,Tornmarksvej,5491,90,10.263538,55.391382
388054,Tornmarksvej,5491,94,10.263263,55.391075
388055,Tornmarksvej,5491,95,10.272459,55.399114
388056,Tornmarksvej,5491,98,10.26315,55.390855
388057,Tornmarksvej,5491,100,10.26229,55.390521
388058,Tornmarksvej,5491,101,10.270906,55.394486
388059,Tornmarksvej,5491,105,10.27019,55.394444
388060,Tornmarksvej,5491,115,10.268559,55.394746
388061,Tornmarksvej,5491,121,10.267186,55.39433
388062,Tornmarksvej,5491,133,10.265007,55.39382
388063,Tornmarksvej,5491,141,10.265139,55.393231
388064,Tornmarksvej,5491,145,10.264442,55.392723
388065,Tornmarksvej,5491,149,10.264249,55.392574
388066,Tornmarksvej,5491,151,10.263476,55.392535
388067,Tornmarksvej,5491,153,10.263184,55.392668
388068,Tornmarksvej,5491,159,10.262968,55.39232
388069,Tornmarksvej,5491,165,10.262895,55.391818
388070,Tornmarksvej,5491,171,10.262829,55.390899
388368,Troelsevej,5491,4,10.259951,55.394471
388369,Troelsevej,5491,10,10.258987,55.394803
388370,Troelsevej,5491,14,10.258173,55.394944
388371,Troelsevej,5491,25,10.255342,55.394816
388372,Troelsevej,5491,34,10.25414,55.394376
388373,Troelsevej,5491,38,10.253779,55.393941
388374,Troelsevej,5491,39,10.253304,55.394309
388375,Troelsevej,5491,41,10.252782,55.393985
388376,Troelsevej,5491,44,10.252901,55.393803
388377,Troelsevej,5491,45,10.252341,55.394015
388378,Troelsevej,5491,60,10.249016,55.394359
388379,Troelsevej,5491,64,10.248118,55.394307
388380,Troelsevej,5491,96,10.242024,55.396413
388381,Troelsevej,5491,96B,10.24508,55.395657
388382,Troelsevej,5491,150,10.235671,55.401695
388383,Troelsevej,5491,155,10.23819,55.404455
388384,Troelsevej,5491,164,10.234631,55.40344
388385,Troelsevej,5491,165,10.235531,55.403326
388386,Troelsevej,5491,170,10.232474,55.403055
388387,Troelsevej,5491,171,10.234567,55.403866
388388,Troelsevej,5491,181,10.235581,55.40713
388389,Troelsevej,5491,211,10.230025,55.407043
388390,Troelsevej,5491,217,10.231917,55.407253
388391,Troelsevej,5491,221,10.234173,55.408035
388392,Troelsevej,5491,275,10.225472,55.412625
388393,Troelsevej,5491,277,10.226342,55.412789
388394,Troelsevej,5491,280,10.223228,55.41255
388395,Troelsevej,5491,295,10.221687,55.414523
388396,Troelsevej,5491,295B,10.221885,55.414143
388804,Ubberudgårdvej,5491,6B,10.258067,55.395622
388805,Ubberudgårdvej,5491,6C,10.258069,55.395698
388806,Ubberudgårdvej,5491,6D,10.258069,55.395791
388807,Ubberudgårdvej,5491,15,10.257959,55.396402
388808,Ubberudgårdvej,5491,17,10.257591,55.396731
388809,Ubberudgårdvej,5491,18,10.256734,55.396546
388810,Ubberudgårdvej,5491,19,10.257412,55.396946
388811,Ubberudgårdvej,5491,20,10.256573,55.396636
388812,Ubberudvej,5491,1,10.259706,55.398786
388813,Ubberudvej,5491,12,10.257195,55.397669
388814,Ubberudvej,5491,14,10.257375,55.397114
388815,Ubberudvej,5491,20,10.256453,55.397167
388816,Ubberudvej,5491,21,10.255897,55.397384
388817,Ubberudvej,5491,25,10.255659,55.39721
388818,Ubberudvej,5491,26,10.255918,55.396741
388819,Ubberudvej,5491,28,10.255028,55.396367
388820,Ubberudvej,5491,30,10.254125,55.395896
388821,Ubberudvej,5491,30T,10.255182,55.396473
388822,Ubberudvej,5491,31,10.254646,55.396586
388823,Ubberudvej,5491,33,10.254315,55.396456
388824,Ubberudvej,5491,34A,10.254626,55.396155
388825,Ubberudvej,5491,35,10.25373,55.396301
388826,Ubberudvej,5491,37,10.253304,55.396177
388827,Ubberudvej,5491,39,10.253021,55.396131
388828,Ubberudvej,5491,41,10.252772,55.39605
388829,Ubberudvej,5491,43,10.252489,55.396036
388830,Ubberudvej,5491,47,10.251037,55.395952
388831,Ubberudvej,5491,53,10.251034,55.395369
388832,Ubberudvej,5491,55,10.250795,55.39529
388833,Ubberudvej,5491,65,10.2495,55.394627
388834,Ubberudvej,5491,71,10.248972,55.394145
388835,Ubberudvej,5491,76,10.248594,55.393248
388836,Ubberudvej,5491,82,10.247501,55.392622
388837,Ubberudvej,5491,91,10.246555,55.392279
388838,Ubberudvej,5491,93,10.246302,55.392118
388839,Ubberudvej,5491,99,10.24554,55.391683
388840,Ubberudvej,5491,100,10.245635,55.391294
388841,Ubberudvej,5491,107,10.244221,55.390946
388842,Ubberudvej,5491,111,10.243732,55.390317
388843,Ubberudvej,5491,117,10.24284,55.39016
388844,Ubberudvej,5491,119,10.243075,55.390409
388845,Ubberudvej,5491,121,10.243732,55.389736
389842,Ved Lunden,5491,2,10.27971,55.386868
389843,Ved Lunden,5491,4,10.279709,55.386545
389844,Ved Lunden,5491,6,10.279778,55.386118
389845,Ved Lunden,5491,8,10.27964,55.385858
389846,Ved Lunden,5491,10,10.279641,55.385637
389847,Ved Lunden,5491,12,10.279435,55.38542
389848,Ved Lunden,5491,14,10.279291,55.385239
389946,Vejrmøllevej,5491,2,10.230456,55.389116
389947,Vejrmøllevej,5491,18,10.231935,55.390765
389948,Vejrmøllevej,5491,19,10.232055,55.390973
389949,Vejrmøllevej,5491,20,10.231496,55.390936
389950,Vejrmøllevej,5491,28,10.230857,55.391168
389951,Vejrup-Vej,5491,2,10.280336,55.387057
389952,Vejrup-Vej,5491,3,10.279794,55.387525
389953,Vejrup-Vej,5491,5,10.279595,55.387367
389954,Vejrup-Vej,5491,9,10.279464,55.387906
389955,Vejrup-Vej,5491,15,10.278806,55.388224
389956,Vejrup-Vej,5491,21,10.27892,55.387315
389957,Vejrup-Vej,5491,30,10.274422,55.387439
389958,Vejrup-Vej,5491,40,10.272722,55.387118
389959,Vejrup-Vej,5491,63,10.27157,55.3893
389960,Vejrup-Vej,5491,67,10.270204,55.389182
389961,Vejrup-Vej,5491,68,10.267546,55.389989
389962,Vejrup-Vej,5491,69,10.269964,55.389383
389963,Vejrup-Vej,5491,70,10.26784,55.390227
389964,Vejrup-Vej,5491,71,10.269823,55.389559
389965,Vejrup-Vej,5491,73,10.269536,55.389602
389966,Vejrup-Vej,5491,75,10.269241,55.389748
389967,Vejrup-Vej,5491,77,10.268952,55.389899
389968,Vejrup-Vej,5491,79,10.268848,55.390001
389969,Vejrup-Vej,5491,81,10.268571,55.390106
389970,Vejruplundvej,5491,2,10.280076,55.390655
389971,Vejruplundvej,5491,2T,10.280061,55.390294
389972,Vejruplundvej,5491,19,10.280192,55.388651
389973,Vejruplundvej,5491,20,10.280985,55.388854
389974,Vejruplundvej,5491,21,10.280279,55.388388
389975,Vejruplundvej,5491,25,10.280648,55.388057
389976,Vejruplundvej,5491,29,10.280201,55.387835
389977,Vejruplundvej,5491,33,10.280526,55.387489
389978,Vejruplundvej,5491,39,10.280207,55.386452
389979,Vejruplundvej,5491,40,10.280922,55.386834
389980,Vejruplundvej,5491,41,10.280487,55.386498
389981,Vejruplundvej,5491,42,10.282171,55.387398
389982,Vejruplundvej,5491,45,10.280685,55.385913
389983,Vejrupvænge,5491,1,10.279174,55.386859
389984,Vejrupvænge,5491,2,10.279008,55.386489
389985,Vejrupvænge,5491,3,10.278667,55.38691
389986,Vejrupvænge,5491,4,10.278692,55.386499
389987,Vejrupvænge,5491,5,10.278138,55.386742
389988,Vejrupvænge,5491,6,10.278162,55.386435
389989,Vejrupvænge,5491,7,10.277565,55.38671
389990,Vejrupvænge,5491,8,10.277843,55.386334
389991,Vejrupvænge,5491,9,10.277152,55.386799
389992,Vejrupvænge,5491,10,10.277291,55.386321
389993,Vejrupvænge,5491,11,10.276754,55.386807
389994,Vejrupvænge,5491,12,10.276771,55.38643
389995,Vejrupvænge,5491,13,10.276335,55.386791
389996,Vejrupvænge,5491,14,10.276162,55.386689
393433,Øghavehusvej,5491,10,10.232296,55.373419
800664,Middelfartvej,5491,494P,10.247817,55.389216
800665,Middelfartvej,5491,594X,10.227346,55.387949
800666,Middelfartvej,5491,594Z,10.2275582,55.3879948
800667,Middelfartvej,5491,609P,10.2410845,55.3897731
1010380,Tornmarksvej,5491,115B,10.26845,55.394858
1010381,Vejrup-Vej,5491,17,10.278982,55.387893
1010382,Vejrup-Vej,5491,19,10.278977,55.38752
1010383,Ubberudvej,5491,19,10.2563,55.39774
1010384,Ubberudvej,5491,45,10.252314,55.395791
1010385,Hovhavevej,5491,5,10.255523,55.397723
1010386,Troelsevej,5491,46,10.253149,55.39391
1010387,Troelsevej,5491,231,10.230041,55.408474
1010388,Ravnebjerggyden,5491,31B,10.259374,55.386876
1010389,Ravnebjerggyden,5491,49Z,10.262858,55.382761
1010390,Ravnebjerggyden,5491,97,10.264511,55.375717
1010391,Ubberudgårdvej,5491,6A,10.257877,55.395453
1010392,Ubberudgårdvej,5491,10,10.25763,55.396385
1010393,Ubberudgårdvej,5491,12,10.257272,55.396523
1788548,Blæsbjergvej,5491,60,10.2156996,55.4128109
1930128,Troelsevej,5491,304,10.2169043,55.4115673
1930129,Troelsevej,5491,308,10.2183252,55.4138037
1956316,Hesbjerg Skovvej,5491,21,10.23226,55.35663
1961478,Dyredvej,5491,45A,10.205438,55.37948
1961528,Korsebjergvej,5491,100,10.197766,55.392554
1961529,Korsebjergvej,5491,111T,10.199006,55.392429
1961577,Gundersøvej,5491,20T,10.228412,55.39567
1961602,Hesbjergvej,5491,52,10.209819,55.374486
1961603,Hesbjergvej,5491,54,10.210157,55.374196
1961604,Hesbjergvej,5491,56,10.209723,55.373915
1961605,Hesbjergvej,5491,58,10.209179,55.374021
1961606,Hesbjergvej,5491,60,10.211121,55.373021
1961607,Hesbjergvej,5491,62,10.211369,55.373347
1961608,Hesbjergvej,5491,64,10.211647,55.373583
1961609,Hesbjergvej,5491,66,10.21122,55.373684
1961610,Hesbjergvej,5491,68,10.212025,55.373742
1961611,Hesbjergvej,5491,70,10.211837,55.373976
1961612,Hesbjergvej,5491,72,10.212247,55.373949
1961613,Hesbjergvej,5491,74,10.211717,55.374098
1961614,Hesbjergvej,5491,76,10.211332,55.374336
1961615,Hesbjergvej,5491,78,10.212126,55.374244
1961616,Hesbjergvej,5491,80,10.211689,55.374383
1961617,Hesbjergvej,5491,82,10.210803,55.374617
1961618,Hesbjergvej,5491,84,10.212141,55.374791
1961619,Hesbjergvej,5491,86,10.212367,55.375087
2225760,Middelfartvej,5491,577A,10.247574,55.389999
2225761,Middelfartvej,5491,577B,10.24766,55.390002
2225762,Middelfartvej,5491,577C,10.247745,55.390006
2225763,Middelfartvej,5491,577D,10.2478313,55.3900092
2225764,Middelfartvej,5491,577E,10.247917,55.390012
2225765,Middelfartvej,5491,577F,10.247969,55.390045
2225766,Middelfartvej,5491,577G,10.248092,55.390033
2225767,Middelfartvej,5491,577H,10.248096,55.389917
2235373,Spedsbjergvænget,5491,12,10.2267544,55.3876631
2235374,Vejrmøllevej,5491,22,10.231177,55.390856
2242761,Langebjergvej,5491,1,10.25288,55.390275
2242762,Langebjergvej,5491,3,10.253214,55.391765
2249750,Vejrup-Vej,5491,83,10.268206,55.390306
