idx,street,postcode,housenumber,lon,lat
586073,Aagyden,6091,13,9.5340109,55.4353019
586074,Aagyden,6091,15,9.5370092,55.4364963
586129,Aalryvej,6091,10,9.5882127,55.4641328
586131,Abildgården,6091,1,9.5610692,55.4587942
586132,Abildgården,6091,2,9.561097,55.458726
586133,Abildgården,6091,3,9.5611768,55.458672
586134,Abildgården,6091,4,9.5612397,55.4585678
586135,Abildgården,6091,5,9.5611166,55.4584532
586136,Abildgården,6091,6,9.5609876,55.4584362
586137,Abildgården,6091,7,9.5608914,55.4583873
586138,Abildgården,6091,8,9.5607627,55.4583611
586139,Abildgården,6091,9,9.5605614,55.4584069
586140,Abildgården,6091,10,9.560515,55.4584963
586141,Abildgården,6091,11,9.5604182,55.4585818
586142,Abildgården,6091,12,9.5603615,55.4586837
586143,Abildgården,6091,13,9.560463,55.4587568
586144,Abildgården,6091,14,9.560586,55.4587818
586145,Abildgården,6091,15,9.5606866,55.458802
586146,Abildgården,6091,16,9.5608433,55.4588548
586147,Abildvej,6091,1,9.5617108,55.4598303
586165,Agerland,6091,1,9.5630931,55.460797
586166,Agerland,6091,2,9.5626721,55.460786
586167,Agerland,6091,3,9.5634379,55.4606951
586168,Agerland,6091,4,9.562673,55.4606803
586169,Agerland,6091,5,9.5634432,55.460558
586170,Agerland,6091,6,9.5626754,55.4605679
586171,Agerland,6091,7,9.5636134,55.4604987
586172,Agerland,6091,8,9.562735,55.460486
586173,Agerland,6091,9,9.563614,55.4603582
586174,Agerland,6091,10,9.562726,55.460405
586175,Agerland,6091,11,9.5638388,55.4602367
586176,Agerland,6091,12,9.5627344,55.4603153
586177,Agerland,6091,13,9.5636541,55.4602372
586178,Agerland,6091,14,9.5627334,55.4602199
586179,Agerland,6091,15,9.5634851,55.4602378
586180,Agerland,6091,17,9.5632989,55.4602366
586181,Agerland,6091,19,9.5631422,55.4602372
586254,Agtrup Midtskovvej,6091,2,9.588706,55.4763829
586255,Agtrup Midtskovvej,6091,12,9.586854,55.4821752
586256,Agtrup Midtskovvej,6091,14,9.5869404,55.4855129
586257,Agtrup Midtskovvej,6091,16A,9.5863653,55.4852028
586258,Agtrup Midtskovvej,6091,16B,9.5859288,55.4854056
586259,Agtrup Midtskovvej,6091,16C,9.5858227,55.4849746
586260,Agtrup Midtskovvej,6091,18,9.585581,55.485371
586261,Agtrup Midtskovvej,6091,20,9.5853371,55.4854299
586262,Agtrup Midtskovvej,6091,22,9.5842004,55.4793973
586263,Agtrup Midtskovvej,6091,24,9.5819251,55.476364
586264,Agtrup Midtskovvej,6091,25,9.5756178,55.4766471
586265,Agtrup Midtskovvej,6091,26,9.5777658,55.4785091
586266,Agtrup Midtskovvej,6091,28,9.5846768,55.4855683
586267,Agtrup Midtskovvej,6091,30,9.5837408,55.4856375
586268,Agtrup Midtskovvej,6091,31,9.5743495,55.476929
586269,Agtrup Midtskovvej,6091,32,9.5819576,55.4850856
586270,Agtrup Midtskovvej,6091,36,9.5740277,55.4776336
586271,Agtrup Midtskovvej,6091,38,9.570626,55.478832
586272,Agtrup Midtskovvej,6091,39,9.5731023,55.4776194
586273,Agtrup Midtskovvej,6091,41,9.5723455,55.4778104
586274,Agtrup Midtskovvej,6091,45,9.5718821,55.4779124
586275,Agtrup Midtskovvej,6091,46,9.5687395,55.4805851
586276,Agtrup Midtskovvej,6091,47,9.5715213,55.4780476
586277,Agtrup Midtskovvej,6091,50,9.5713268,55.4823055
586278,Agtrup Midtskovvej,6091,52,9.5771912,55.4850892
586279,Agtrup Midtskovvej,6091,54,9.5784693,55.4863028
586280,Agtrup Midtskovvej,6091,56,9.5737,55.484576
586281,Agtrup Midtskovvej,6091,57,9.569399,55.4797833
586282,Agtrup Midtskovvej,6091,60,9.5669899,55.4813695
586283,Agtrup Midtskovvej,6091,69,9.567699,55.4808389
586284,Agtrup Midtskovvej,6091,70,9.566524,55.4826058
586285,Agtrup Midtskovvej,6091,74,9.56495,55.482485
586286,Agtrup Midtskovvej,6091,75,9.566599,55.481416
586287,Agtrup Midtskovvej,6091,79,9.5664834,55.481668
586288,Agtrup Midtskovvej,6091,82,9.5612088,55.483703
586289,Agtrup Midtskovvej,6091,83,9.5641969,55.4820231
586290,Agtrup Midtskovvej,6091,91,9.5620654,55.4828644
586291,Agtrup Midtskovvej,6091,100,9.5597765,55.4857738
586292,Agtrup Midtskovvej,6091,108,9.558465,55.4900151
586293,Agtrup Midtskovvej,6091,110,9.556484,55.4895396
586294,Agtrup Midtskovvej,6091,112,9.557016,55.48786
586295,Agtrup Midtskovvej,6091,115,9.5536567,55.4842855
586296,Agtrup Midtskovvej,6091,116,9.5562251,55.4905989
586297,Agtrup Midtskovvej,6091,118,9.551952,55.4851595
586298,Agtrup Midtskovvej,6091,122,9.5506591,55.4897696
586299,Agtrup Midtskovvej,6091,125,9.5461866,55.4833095
586300,Agtrup Midtskovvej,6091,127,9.5506301,55.4846974
586301,Agtrupvang,6091,1,9.5545216,55.4641499
586302,Agtrupvang,6091,2,9.55415,55.4639041
586303,Agtrupvang,6091,3,9.5545104,55.4639151
586304,Agtrupvang,6091,4,9.554025,55.4635995
586305,Agtrupvang,6091,5,9.5545103,55.4636942
587531,Binderup Strandpark,6091,2,9.5887694,55.4217494
587532,Binderup Strandpark,6091,4,9.589016,55.4217061
587533,Binderup Strandpark,6091,6,9.5892349,55.4216583
587534,Binderup Strandpark,6091,8,9.5894668,55.4216271
587535,Binderup Strandpark,6091,10,9.5897078,55.4215777
587536,Binderup Strandpark,6091,12,9.5899141,55.4215302
587537,Binderup Strandpark,6091,14,9.5901422,55.4214961
587538,Binderup Strandpark,6091,16,9.5903692,55.421458
587539,Binderup Strandpark,6091,18,9.5906001,55.4214114
587540,Binderup Strandpark,6091,20,9.5908236,55.4213546
587541,Binderup Strandpark,6091,22,9.589002,55.422057
587542,Binderup Strandpark,6091,24,9.5892435,55.4220163
587543,Binderup Strandpark,6091,26,9.589465,55.4219681
587544,Binderup Strandpark,6091,28,9.5896662,55.4219352
587545,Binderup Strandpark,6091,30,9.5899368,55.4218763
587546,Binderup Strandpark,6091,32,9.5901678,55.4218254
587547,Binderup Strandpark,6091,34,9.5903808,55.4217916
587548,Binderup Strandpark,6091,36,9.5905801,55.4217433
587549,Binderup Strandpark,6091,38,9.5908299,55.4217021
587550,Binderup Strandpark,6091,40,9.591063,55.421671
587551,Binderup Strandpark,6091,42,9.589298,55.4223359
587552,Binderup Strandpark,6091,44,9.5895341,55.4222995
587553,Binderup Strandpark,6091,46,9.5897592,55.4222586
587554,Binderup Strandpark,6091,48,9.5899817,55.4222212
587555,Binderup Strandpark,6091,50,9.5902018,55.4221774
587556,Binderup Strandpark,6091,52,9.5904334,55.4221272
587557,Binderup Strandpark,6091,54,9.5906652,55.4221019
587558,Binderup Strandpark,6091,56,9.5908692,55.4220793
587559,Binderup Strandpark,6091,58,9.5910726,55.4220106
587560,Binderup Strandpark,6091,60,9.5893964,55.4226748
587561,Binderup Strandpark,6091,62,9.5896219,55.4226466
587562,Binderup Strandpark,6091,64,9.5898346,55.4225844
587563,Binderup Strandpark,6091,66,9.5900939,55.4225464
587564,Binderup Strandpark,6091,68,9.5903316,55.4225081
587565,Binderup Strandpark,6091,70,9.5905096,55.4224801
587566,Binderup Strandpark,6091,72,9.5907724,55.4224237
587567,Binderup Strandpark,6091,74,9.5909712,55.4223711
587568,Binderup Strandpark,6091,76,9.5893465,55.4230344
587569,Binderup Strandpark,6091,78,9.5895966,55.4229895
587570,Binderup Strandpark,6091,80,9.5898314,55.4229407
587571,Binderup Strandpark,6091,82,9.5900447,55.4229198
587572,Binderup Strandpark,6091,84,9.5902533,55.4228848
587573,Binderup Strandpark,6091,86,9.590496,55.422822
587574,Binderup Strandpark,6091,88,9.5907203,55.4227837
587575,Binderup Strandpark,6091,90,9.5909505,55.4227403
587576,Binderup Strandpark,6091,92,9.5911669,55.4226961
587577,Binderup Strandvej,6091,4,9.5639157,55.4285563
587578,Binderup Strandvej,6091,6,9.5634675,55.4290969
587579,Binderup Strandvej,6091,8,9.5627421,55.430218
587580,Binderup Strandvej,6091,25,9.5685789,55.4290362
587581,Binderup Strandvej,6091,33,9.5726688,55.4277925
587582,Binderup Strandvej,6091,45,9.576011,55.427328
587583,Binderup Strandvej,6091,66,9.5733339,55.4254369
587584,Binderup Strandvej,6091,77,9.5850483,55.4224021
587585,Binderup Strandvej,6091,89,9.5881682,55.4216083
587586,Binderup Strandvej,6091,90,9.5860019,55.4215047
587587,Binderup Strandvej,6091,92,9.5907853,55.4209831
587588,Binderup Strandvej,6091,94,9.5907297,55.420631
587589,Binderup Strandvej,6091,96,9.5891784,55.4204826
587590,Binderup Strandvej,6091,98,9.59038,55.420471
587591,Binderup Strandvej,6091,99,9.592155,55.421062
587592,Binderup Strandvej,6091,100,9.5912843,55.4207971
587593,Binderup Søndergade,6091,1,9.5591997,55.43375
587594,Binderup Søndergade,6091,3,9.5581177,55.434323
587595,Binderup Søndergade,6091,5,9.55746,55.434437
587596,Binderup Søndergade,6091,7,9.5570617,55.434654
587597,Binderup Søndergade,6091,11,9.5550062,55.434368
587598,Binderup Søndergade,6091,20,9.5567244,55.434946
587599,Binderup Søndergade,6091,22,9.5564069,55.4350804
587600,Binderup Søndergade,6091,24,9.5527906,55.4357432
587601,Binderup Søndergade,6091,25,9.5467175,55.4362306
587602,Binderup Villavej,6091,1,9.5619268,55.433864
587603,Binderup Villavej,6091,2,9.5615496,55.4335542
587604,Binderup Villavej,6091,3,9.5625029,55.4337835
587605,Binderup Villavej,6091,4,9.5620616,55.4333374
587606,Binderupvej,6091,2,9.5587717,55.4530003
587607,Binderupvej,6091,3,9.5589519,55.4523471
587608,Binderupvej,6091,3A,9.5593579,55.4521839
587609,Binderupvej,6091,4A,9.5584722,55.4528126
587610,Binderupvej,6091,4B,9.5585855,55.4524122
587611,Binderupvej,6091,5,9.5590267,55.4520109
587612,Binderupvej,6091,6,9.5578141,55.4525035
587613,Binderupvej,6091,8,9.5584542,55.4521902
587614,Binderupvej,6091,10,9.5582467,55.4516687
587615,Binderupvej,6091,12,9.5581187,55.4512305
587616,Binderupvej,6091,14,9.5573717,55.4510401
587617,Binderupvej,6091,16,9.5578429,55.4507266
587618,Binderupvej,6091,25,9.5586144,55.4505854
587857,Bjert Kirkealle,6091,2,9.5605571,55.453151
587858,Bjert Kirkesti,6091,4,9.5648653,55.453624
587859,Bjert Kirkesti,6091,6,9.5645663,55.4535109
587860,Bjert Kirkevej,6091,1,9.5577077,55.4550667
587861,Bjert Kirkevej,6091,2,9.5575659,55.4548483
587862,Bjert Kirkevej,6091,3,9.558018,55.4550144
587863,Bjert Kirkevej,6091,4,9.5578554,55.454764
587864,Bjert Kirkevej,6091,5,9.5580627,55.4552422
587865,Bjert Kirkevej,6091,6,9.5590053,55.4544582
587866,Bjert Kirkevej,6091,7,9.5581317,55.4554396
587867,Bjert Kirkevej,6091,8,9.5593505,55.4543633
587868,Bjert Kirkevej,6091,9,9.5583544,55.4556944
587869,Bjert Kirkevej,6091,11,9.558748,55.4555595
587870,Bjert Kirkevej,6091,13,9.5591312,55.4555943
587871,Bjert Kirkevej,6091,15,9.5594907,55.455475
587872,Bjert Kirkevej,6091,17,9.5598924,55.4554738
587873,Bjert Kirkevej,6091,19,9.5598042,55.4551257
587874,Bjert Kirkevej,6091,21,9.5593674,55.455223
587875,Bjert Kirkevej,6091,23,9.5585991,55.4553262
587876,Bjert Kirkevej,6091,25,9.5584464,55.4548267
587877,Bjert Kirkevej,6091,27,9.5589185,55.4551247
587878,Bjert Kirkevej,6091,29,9.5588333,55.4547269
587879,Bjert Kirkevej,6091,31,9.5591004,55.454683
587880,Bjert Kirkevej,6091,33,9.5594921,55.4546604
587881,Bjert Kirkevej,6091,35,9.5598903,55.4544235
587882,Bjert Kirkevej,6091,37,9.5604325,55.4542794
587883,Bjert Kirkevej,6091,43,9.5612174,55.4543739
587884,Bjert Stationsvej,6091,1,9.557051,55.457677
587885,Bjert Stationsvej,6091,2,9.5570184,55.4578991
587886,Bjert Stationsvej,6091,3,9.556727,55.4576977
587887,Bjert Stationsvej,6091,5,9.5563993,55.4577174
587888,Bjert Stationsvej,6091,6,9.556111,55.4580708
587889,Bjert Stationsvej,6091,7,9.5558512,55.4578481
587890,Bjert Stationsvej,6091,8,9.5560882,55.4580006
587891,Bjert Stationsvej,6091,9,9.555397,55.457742
587892,Bjert Stationsvej,6091,10,9.555785,55.458175
587893,Bjert Stationsvej,6091,11,9.555265,55.457754
587894,Bjert Stationsvej,6091,12,9.555761,55.458098
587895,Bjert Stationsvej,6091,13,9.555138,55.457764
587896,Bjert Stationsvej,6091,14,9.555751,55.458036
587897,Bjert Stationsvej,6091,15,9.554916,55.457738
587898,Bjert Stationsvej,6091,17,9.554806,55.457746
587899,Bjert Stationsvej,6091,19,9.554681,55.457759
587900,Bjert Strandvej,6091,1,9.5846644,55.4507778
587901,Bjert Strandvej,6091,2,9.580864,55.441722
587902,Bjert Strandvej,6091,3,9.5847043,55.4471513
587903,Bjert Strandvej,6091,4,9.5881926,55.4365221
587904,Bjert Strandvej,6091,5,9.5845483,55.4449631
587905,Bjert Strandvej,6091,6,9.5941681,55.4350628
587906,Bjert Strandvej,6091,7,9.5902572,55.4363117
587907,Bjert Strandvej,6091,8,9.597478,55.4332542
587908,Bjert Strandvej,6091,9,9.593213,55.435712
587909,Bjert Strandvej,6091,10,9.6001442,55.4327746
587910,Bjert Strandvej,6091,11,9.5954316,55.4348856
587911,Bjert Strandvej,6091,12,9.601541,55.4328247
587912,Bjert Strandvej,6091,13,9.6011346,55.4332766
587913,Bjert Strandvej,6091,14,9.6016998,55.4327348
587914,Bjert Strandvej,6091,15,9.6016599,55.4330782
587915,Bjert Strandvej,6091,16,9.6019233,55.4326824
587916,Bjert Strandvej,6091,17,9.6030192,55.4324933
587917,Bjert Strandvej,6091,18,9.6022977,55.432497
587918,Bjert Strandvej,6091,19,9.6031962,55.4323238
587919,Bjert Strandvej,6091,20,9.6028722,55.4321685
587920,Bjert Strandvej,6091,21,9.6039514,55.4320953
587921,Bjert Strandvej,6091,22,9.6054999,55.4313975
587922,Bjert Strandvej,6091,23,9.6042027,55.4320374
587923,Bjert Strandvej,6091,24,9.6083781,55.430694
587924,Bjert Strandvej,6091,25,9.6052154,55.4320712
587925,Bjert Strandvej,6091,29,9.6076679,55.4311202
587926,Bjert Strandvej,6091,31,9.6095057,55.4302438
587927,Bjert Vestervang,6091,1,9.556061,55.4537698
587928,Bjert Vestervang,6091,2,9.5556972,55.4543812
587929,Bjert Vestervang,6091,3,9.5556382,55.4538361
587930,Bjert Vestervang,6091,4,9.5555501,55.4545637
587931,Bjert Vestervang,6091,5,9.5555138,55.4539907
587932,Bjert Vestervang,6091,6,9.5555502,55.4548023
587933,Bjert Vestervang,6091,7,9.555272,55.454184
587934,Bjert Vestervang,6091,8,9.5553674,55.4549934
587935,Bjert Vestervang,6091,9,9.5552516,55.454311
587936,Bjert Vestervang,6091,10,9.5558082,55.4549603
587937,Bjert Vestervang,6091,11,9.5550427,55.4546403
587938,Bjert Vestervang,6091,12,9.5559287,55.4551354
587939,Bjert Vestervang,6091,13,9.5548272,55.4548599
587940,Bjert Vestervang,6091,14,9.5558393,55.4553944
587941,Bjert Vestervang,6091,15,9.5547302,55.4550666
587942,Bjert Vestervang,6091,16,9.5555516,55.4553918
587943,Bjert Vestervang,6091,17,9.554596,55.4552531
587944,Bjert Vestervang,6091,18,9.555192,55.4551334
587945,Bjert Vestervang,6091,19,9.5544309,55.4553788
587946,Bjert Vestervang,6091,20,9.5549764,55.4554233
587947,Bjert Vestervang,6091,21,9.5545112,55.4555581
587948,Bjert Vestervang,6091,22,9.5550002,55.4555989
587949,Bjert Vestervang,6091,23,9.5546062,55.4557859
587950,Bjert Vestervang,6091,24,9.5551234,55.4558229
587951,Bjert Vestervang,6091,25,9.5544847,55.4558014
587952,Bjert Vestervang,6091,26,9.5552531,55.4560065
587953,Bjert Vestervang,6091,27,9.5543695,55.4558163
589013,Buskvej,6091,1,9.5901048,55.4200693
589014,Buskvej,6091,2,9.5922949,55.4201729
589015,Buskvej,6091,3,9.5897013,55.4200821
589016,Buskvej,6091,4,9.591757,55.4201852
589017,Buskvej,6091,5,9.5893592,55.4201317
589018,Buskvej,6091,6,9.5914273,55.4201967
589019,Buskvej,6091,7,9.589015,55.420115
589020,Buskvej,6091,8,9.5910531,55.420199
589021,Buskvej,6091,10,9.5906807,55.4202066
589022,Buskvej,6091,12,9.590306,55.4202266
589023,Buskvej,6091,14,9.5899563,55.4202652
589024,Buskvej,6091,16,9.5896679,55.420322
589025,Buskvej,6091,18,9.5893186,55.4203024
589026,Buskvej,6091,20,9.5890125,55.4203221
589104,Bæklandsvej,6091,3,9.5565692,55.4616804
589105,Bæklandsvej,6091,6,9.5567788,55.4615753
589106,Bæklandsvej,6091,7,9.5575374,55.4619986
589107,Bæklandsvej,6091,8,9.5573729,55.4615408
589108,Bæklandsvej,6091,9,9.5578729,55.4620476
589109,Bæklandsvej,6091,11,9.558356,55.462046
590438,Eegsvej,6091,7,9.5523844,55.4624787
590439,Eegsvej,6091,14,9.5517289,55.4612576
590440,Eegsvej,6091,16,9.5518118,55.4616222
590441,Eegsvej,6091,20,9.5514142,55.4608057
590442,Eegsvej,6091,22,9.5518217,55.4609003
590817,Elbjerggyde,6091,10,9.5508409,55.4763182
590818,Elbjerggyde,6091,15,9.5483225,55.4800969
590886,Elkærgyde,6091,8,9.5579786,55.4332114
590887,Elkærgyde,6091,10,9.5573594,55.4334763
590888,Elkærgyde,6091,12,9.5566495,55.4336666
591263,Engdraget,6091,2,9.5550653,55.4589673
591264,Engdraget,6091,3,9.5519229,55.4582061
591265,Engdraget,6091,5,9.5516148,55.4582329
591266,Engdraget,6091,6,9.5517842,55.4585268
591267,Engdraget,6091,7,9.551117,55.458261
591268,Engdraget,6091,8,9.5518438,55.4587454
591269,Engdraget,6091,9,9.5507937,55.4582992
591270,Engdraget,6091,10,9.5517502,55.4589477
591271,Engdraget,6091,11,9.550356,55.45833
591272,Engdraget,6091,12,9.5519327,55.4590957
591273,Engdraget,6091,13,9.549889,55.4583703
591274,Engdraget,6091,14,9.5512652,55.4591327
591275,Engdraget,6091,15,9.5495784,55.4583984
591276,Engdraget,6091,16,9.5513076,55.4589539
591277,Engdraget,6091,17,9.5492211,55.458433
591278,Engdraget,6091,18,9.5512992,55.4587523
591279,Engdraget,6091,19,9.5488781,55.4584584
591280,Engdraget,6091,20,9.5512436,55.4585723
591281,Engdraget,6091,21,9.5481471,55.4585829
591282,Engdraget,6091,22,9.5502347,55.4586409
591283,Engdraget,6091,24,9.5502863,55.4588513
591284,Engdraget,6091,26,9.550341,55.458978
591285,Engdraget,6091,28,9.5497947,55.4590415
591286,Engdraget,6091,30,9.549809,55.4589023
591287,Engdraget,6091,32,9.5497563,55.4586905
591288,Engdraget,6091,34,9.5488823,55.4587808
591289,Engdraget,6091,36,9.548841,55.4589848
591290,Engdraget,6091,38,9.5488554,55.459172
591291,Engdraget,6091,40,9.5483438,55.4591767
591292,Engdraget,6091,42,9.5483645,55.4590068
591293,Engdraget,6091,44,9.5483704,55.4588257
591345,Engløkke,6091,1,9.5561903,55.4586079
591346,Engløkke,6091,2,9.5584638,55.4588489
591347,Engløkke,6091,3,9.5557728,55.4590646
591348,Engløkke,6091,5,9.5554627,55.4593589
591349,Engløkke,6091,5A,9.5550797,55.459349
591350,Engløkke,6091,5B,9.554609,55.459318
591351,Engløkke,6091,5C,9.554789,55.459707
591352,Engløkke,6091,6,9.555973,55.459433
591353,Engløkke,6091,7,9.555049,55.460311
591354,Engløkke,6091,7A,9.554233,55.460071
591355,Engløkke,6091,8,9.5559068,55.4596216
591356,Engløkke,6091,8A,9.555699,55.460047
591357,Engløkke,6091,9,9.5550571,55.4616133
591358,Engløkke,6091,10,9.5557203,55.4602301
591359,Engløkke,6091,11,9.5552586,55.4618206
591360,Engløkke,6091,12,9.5556722,55.4604028
591361,Engløkke,6091,13,9.5552806,55.4620507
591362,Engløkke,6091,14,9.55561,55.460688
591363,Engløkke,6091,15,9.5552983,55.4622683
591364,Engløkke,6091,16,9.5555925,55.4608252
591365,Engløkke,6091,17,9.5553291,55.4624367
591366,Engløkke,6091,18,9.5557157,55.4615333
591367,Engløkke,6091,19,9.55531,55.462624
591368,Engløkke,6091,20A,9.5558817,55.4617434
591369,Engløkke,6091,20B,9.555775,55.4619429
591370,Engløkke,6091,21,9.5553001,55.4628079
591371,Engløkke,6091,22,9.5563476,55.4620626
591372,Engløkke,6091,23,9.5553927,55.4629499
591373,Engløkke,6091,24,9.5559007,55.4622303
591374,Engløkke,6091,25,9.5554083,55.4631215
591375,Engløkke,6091,26,9.5560539,55.4624777
591376,Engløkke,6091,27,9.5554323,55.4632817
591377,Engløkke,6091,28,9.5559487,55.4627356
591378,Engløkke,6091,29,9.5554915,55.4636089
591379,Engløkke,6091,31,9.5555485,55.4638659
592577,Fælleshavegyde,6091,5,9.5678402,55.4733249
592689,Gammelgårdsvej,6091,2,9.5549926,55.4639394
592690,Gammelgårdsvej,6091,3,9.5544604,55.4634096
592691,Gammelgårdsvej,6091,4,9.5549948,55.4638269
592692,Gammelgårdsvej,6091,5,9.5537387,55.462933
592693,Gammelgårdsvej,6091,6,9.553758,55.463207
592694,Gammeltoft,6091,2,9.524678,55.4599382
592695,Gammeltoft,6091,3,9.5234658,55.458719
592696,Gartnervænget,6091,1,9.570995,55.454176
592697,Gartnervænget,6091,2A,9.5716398,55.4539504
592698,Gartnervænget,6091,2B,9.5716953,55.4542766
592699,Gartnervænget,6091,4,9.5720842,55.454037
592700,Gartnervænget,6091,6,9.5722502,55.4543194
592751,Gl. Binderup,6091,2A,9.5603736,55.4340354
592752,Gl. Binderup,6091,2B,9.5596424,55.433463
592753,Gl. Binderup,6091,4,9.5597097,55.4332889
592754,Gl. Binderup,6091,6,9.5597769,55.4331362
592755,Gl. Binderup,6091,8,9.559871,55.432778
592756,Gl. Binderup,6091,18,9.5595372,55.4313617
592757,Gl. Binderup,6091,20,9.559493,55.4311181
592758,Gammel Bjært,6091,1,9.5565122,55.4533094
592759,Gammel Bjært,6091,2A,9.5564972,55.4526424
592760,Gammel Bjært,6091,2B,9.5570771,55.4526857
592761,Gammel Bjært,6091,2C,9.5565336,55.4529815
592762,Gammel Bjært,6091,3,9.556895,55.453266
592763,Gammel Bjært,6091,4,9.5569778,55.4529967
592764,Gammel Bjært,6091,5,9.5573267,55.453254
592765,Gammel Bjært,6091,7,9.5574784,55.4532475
592766,Gammel Bjært,6091,8,9.557564,55.452985
592767,Gammel Bjært,6091,9,9.5578806,55.4532457
592768,Gammel Bjært,6091,10,9.5579439,55.4529751
592769,Gammel Bjært,6091,11,9.5582098,55.4532672
592770,Gammel Bjært,6091,13,9.558492,55.4532314
592771,Gammel Bjært,6091,15,9.5601231,55.4531377
592772,Gammel Bjært,6091,16,9.5593288,55.452963
592773,Gammel Bjært,6091,18,9.559883,55.4528857
592774,Gammel Bjært,6091,19,9.5611438,55.453041
592775,Gammel Bjært,6091,20,9.560616,55.4527961
592776,Gammel Bjært,6091,21,9.5616628,55.4530213
592777,Gammel Bjært,6091,22,9.5610702,55.4527135
592778,Gammel Bjært,6091,23,9.5619702,55.453158
592779,Gammel Bjært,6091,25,9.5623197,55.4530068
592780,Gammel Bjært,6091,26,9.5621097,55.4526972
592781,Gammel Bjært,6091,27,9.5646105,55.4529215
592782,Gammel Bjært,6091,31,9.5655329,55.4528943
592783,Gammel Bjært,6091,32,9.5635254,55.452754
592784,Gammel Bjært,6091,34,9.563535,55.45223
592785,Gammel Bjært,6091,35,9.5663482,55.4530343
592786,Gammel Bjært,6091,36,9.5636791,55.4512063
592787,Gammel Bjært,6091,37,9.5666064,55.4531308
592788,Gammel Bjært,6091,39A,9.566473,55.45348
592789,Gammel Bjært,6091,39B,9.5664469,55.4536549
592790,Gammel Bjært,6091,40,9.56556,55.452126
592791,Gammel Bjært,6091,40A,9.5652847,55.4522973
592792,Gammel Bjært,6091,40B,9.5658546,55.4523062
592793,Gammel Bjært,6091,41,9.5670768,55.45356
592794,Gammel Bjært,6091,42A,9.5667938,55.4523018
592795,Gammel Bjært,6091,42B,9.5668973,55.4523359
592796,Gammel Bjært,6091,43,9.5672895,55.4532657
592797,Gammel Bjært,6091,45,9.5673851,55.4537138
592798,Gammel Bjært,6091,46,9.5680797,55.4533713
592799,Gammel Bjært,6091,47,9.5678544,55.4540222
592800,Gammel Bjært,6091,48,9.5686388,55.4533687
592801,Gammel Bjært,6091,49,9.56847,55.453586
592802,Gammel Bjært,6091,50,9.5688553,55.4534252
592803,Gammel Bjært,6091,51,9.56867,55.453812
592804,Gammel Bjært,6091,51A,9.568565,55.4539959
592805,Gammel Bjært,6091,51B,9.569027,55.454009
592806,Gammel Bjært,6091,51C,9.569337,55.453974
592807,Gammel Bjært,6091,52,9.5693425,55.4533999
592808,Gammel Bjært,6091,53,9.569058,55.453707
592809,Gammel Bjært,6091,54,9.569711,55.4534672
592810,Gammel Bjært,6091,55,9.569792,55.453606
592811,Gammel Bjært,6091,56,9.5700002,55.4534831
592812,Gammel Bjært,6091,57,9.5705787,55.45386
592813,Gammel Bjært,6091,58,9.57046,55.453175
592814,Gammel Bjært,6091,59,9.5710018,55.4536798
592815,Gammel Bjært,6091,60A,9.571766,55.453464
592816,Gammel Bjært,6091,60B,9.5719018,55.4534628
592817,Gammel Bjært,6091,60C,9.5720193,55.4534507
592818,Gammel Bjært,6091,60D,9.572138,55.4534387
592819,Gammel Bjært,6091,60E,9.57223,55.453287
592820,Gammel Bjært,6091,60F,9.572286,55.4531332
592821,Gammel Bjært,6091,60G,9.5721248,55.4531397
592822,Gammel Bjært,6091,60H,9.5720385,55.4531631
592823,Gammel Bjært,6091,60K,9.5719355,55.4531693
592824,Gammel Bjært,6091,60L,9.571808,55.453179
592825,Gammel Bjært,6091,60M,9.5716752,55.4531878
592826,Gammel Bjært,6091,60N,9.5715622,55.4532918
592827,Gammel Bjært,6091,60P,9.5715831,55.453378
592828,Gammel Bjært,6091,60R,9.5715943,55.4534585
592829,Gammel Bjært,6091,63,9.5715147,55.4536774
592830,Gammel Bjært,6091,65,9.5718867,55.4536871
592831,Gammel Bjært,6091,66,9.5763689,55.4527689
592832,Gammel Bjært,6091,67,9.5721856,55.4536685
592833,Gammel Bjært,6091,87,9.5778628,55.4528079
592913,Gammel Skartved,6091,1,9.5281463,55.4648795
592914,Gammel Skartved,6091,2,9.5254593,55.4678183
592915,Gammel Skartved,6091,3,9.528592,55.4646188
592916,Gammel Skartved,6091,4,9.5246286,55.4669592
592917,Gammel Skartved,6091,5,9.5293479,55.46442
592918,Gammel Skartved,6091,6,9.520844,55.463028
592919,Gammel Skartved,6091,9,9.5305601,55.4639029
592920,Gammel Skartved,6091,11,9.5321487,55.4646149
592921,Gammel Skartved,6091,22,9.533314,55.462468
592922,Gammel Skartved,6091,24,9.5321766,55.4618486
592923,Gammel Skartved,6091,26,9.5305956,55.460803
592924,Gammel Skartved,6091,30,9.533375,55.461638
592925,Gammel Skartved,6091,31,9.5358879,55.4615966
592926,Gammel Skartved,6091,34,9.5367451,55.4608107
592927,Gammel Skartved,6091,36,9.5377017,55.4604499
592928,Gammel Skartved,6091,40,9.5390771,55.4596215
592929,Gammel Skartved,6091,44,9.5398087,55.4594687
592930,Gammel Skartved,6091,48A,9.541191,55.458782
592931,Gammel Skartved,6091,48B,9.541359,55.458717
592932,Gammel Skartved,6091,55,9.5437163,55.4587958
592933,Gammel Skartved,6091,57,9.5445718,55.458539
592934,Gammel Skartved,6091,60,9.5452067,55.4577943
592935,Gammel Skartved,6091,70,9.5479301,55.4570863
593505,Guldager,6091,1,9.5589816,55.451229
593506,Guldager,6091,2,9.5585133,55.4509929
593507,Guldager,6091,3,9.5590153,55.4514303
593508,Guldager,6091,4,9.5588755,55.4509497
593509,Guldager,6091,5,9.5591116,55.4516159
593510,Guldager,6091,6,9.559249,55.4509664
593511,Guldager,6091,7,9.5591177,55.4517469
593512,Guldager,6091,8,9.5594039,55.4511863
593513,Guldager,6091,10,9.5594337,55.4513911
593514,Guldager,6091,12,9.5595556,55.4515776
593515,Guldager,6091,14,9.5595679,55.4516884
593516,Gydeledvej,6091,31,9.560153,55.4695757
593517,Gydeledvej,6091,33,9.5603289,55.4696582
593518,Gydeledvej,6091,55,9.5650304,55.4758702
593519,Gydeledvej,6091,60,9.5669821,55.4770373
593544,Gyndbjerg,6091,1,9.5549981,55.4608329
593545,Gyndbjerg,6091,2,9.5549109,55.4613446
593546,Gyndbjerg,6091,3,9.5530471,55.4608469
593547,Gyndbjerg,6091,5,9.5533705,55.460838
593548,Gyndbjerg,6091,7,9.5537203,55.4608472
593549,Gyndbjerg,6091,9,9.5540513,55.4608834
593550,Gyndbjerg,6091,11,9.5543994,55.4609339
593551,Gyndbjerg,6091,13,9.5547453,55.4609649
593552,Gyndbjerg,6091,15,9.554636,55.4608349
593553,Gyndbjerg,6091,17,9.5541912,55.4607696
593554,Gyndbjerg,6091,19,9.5539195,55.4607304
593555,Gyndbjerg,6091,21,9.5535721,55.4607097
593556,Gyndbjerg,6091,23,9.5532225,55.4607109
593557,Gyndbjerg,6091,25,9.552898,55.46072
593558,Gyndbjerg,6091,27,9.5525182,55.460816
594135,Hasselvænget,6091,1,9.5677583,55.4530263
594136,Hasselvænget,6091,2,9.5679496,55.4527601
594137,Hasselvænget,6091,3,9.5682459,55.4529856
594138,Hasselvænget,6091,4,9.5679944,55.4525259
594139,Hasselvænget,6091,5,9.5686128,55.453051
594140,Hasselvænget,6091,6,9.5679951,55.4523029
594141,Hasselvænget,6091,7,9.569038,55.4530606
594142,Hasselvænget,6091,8,9.5679484,55.4521133
594143,Hasselvænget,6091,9,9.569432,55.453017
594144,Hasselvænget,6091,10,9.568098,55.451884
594145,Hasselvænget,6091,12,9.5684667,55.4518031
594146,Hasselvænget,6091,13,9.5698388,55.4527816
594147,Hasselvænget,6091,14,9.5684275,55.4521221
594148,Hasselvænget,6091,15,9.569794,55.452534
594149,Hasselvænget,6091,16,9.5684022,55.4523216
594150,Hasselvænget,6091,17,9.5697057,55.4522479
594151,Hasselvænget,6091,18,9.5684258,55.452553
594152,Hasselvænget,6091,19,9.569681,55.4520024
594153,Hasselvænget,6091,20,9.5683623,55.4527682
594154,Hasselvænget,6091,21,9.5697232,55.4517223
594155,Hasselvænget,6091,22,9.56899,55.452771
594156,Hasselvænget,6091,23,9.569546,55.4514489
594157,Hasselvænget,6091,24,9.5694788,55.4527178
594158,Hasselvænget,6091,26,9.5690523,55.4524433
594159,Hasselvænget,6091,28,9.5694014,55.4523954
594160,Hasselvænget,6091,30,9.569011,55.4521488
594161,Hasselvænget,6091,32,9.5693378,55.452093
594162,Hasselvænget,6091,34,9.5689333,55.4518371
594163,Hasselvænget,6091,36,9.5692802,55.4517894
594164,Hasselvænget,6091,38,9.568848,55.4516203
594165,Hasselvænget,6091,40,9.5691791,55.4515246
594215,Havevej,6091,2,9.5581333,55.4544948
594216,Havevej,6091,3A,9.5589399,55.4541238
594217,Havevej,6091,3B,9.5590521,55.453909
594218,Havevej,6091,4,9.5582478,55.4543624
594219,Havevej,6091,5,9.5591604,55.4535438
594220,Havevej,6091,6,9.5583814,55.4541499
594221,Havevej,6091,8,9.5578999,55.4540368
594222,Havevej,6091,10,9.5578172,55.4541068
594223,Havevej,6091,12,9.5578024,55.4541848
594224,Havevej,6091,14,9.5574102,55.454201
594225,Havevej,6091,16,9.5573831,55.454131
594226,Havevej,6091,18,9.5573285,55.4539894
594227,Havevej,6091,20,9.5573236,55.4539161
594228,Havevej,6091,22,9.5574219,55.4537723
594229,Havevej,6091,24,9.5575917,55.4537643
594230,Havevej,6091,26,9.5578441,55.4537747
594231,Havevej,6091,28,9.5580125,55.4538067
594232,Havevej,6091,30,9.5585389,55.4539206
594233,Havevej,6091,32,9.5586819,55.4536345
596419,Kausvej,6091,1,9.5919221,55.4194749
596420,Kausvej,6091,2,9.5919697,55.4197767
596421,Kausvej,6091,3,9.5917367,55.4195201
596422,Kausvej,6091,4,9.5917918,55.4197669
596423,Kausvej,6091,5,9.5915571,55.419562
596424,Kausvej,6091,6,9.5915761,55.4197824
596425,Kausvej,6091,7,9.5913583,55.4195973
596426,Kausvej,6091,8,9.5914273,55.4197991
596427,Kausvej,6091,9,9.5911714,55.4195933
596428,Kausvej,6091,10,9.5912069,55.4197628
596429,Kausvej,6091,11,9.5908779,55.4196302
596430,Kausvej,6091,12,9.5908604,55.4198083
596431,Kausvej,6091,13,9.5905958,55.4196776
596432,Kausvej,6091,14,9.5906006,55.4198135
596693,Kjellerupvej,6091,1,9.559954,55.434688
596694,Kjellerupvej,6091,7,9.5582492,55.435075
596695,Kjellerupvej,6091,9,9.5582187,55.4349971
596696,Kjellerupvej,6091,11,9.5581917,55.4349019
596697,Kjellerupvej,6091,13,9.5580055,55.4348628
596698,Kjellerupvej,6091,15,9.5577421,55.4348911
596699,Kjellerupvej,6091,21,9.5570902,55.4354336
596700,Kjellerupvej,6091,22,9.5570903,55.4359787
596701,Kjellerupvej,6091,23,9.5567963,55.4355859
596702,Kjellerupvej,6091,31,9.5556507,55.4353144
596801,Klokkehøj,6091,1,9.5659431,55.4533132
596802,Klokkehøj,6091,3,9.5658951,55.4534633
596803,Klokkehøj,6091,5,9.5658965,55.4536946
596804,Klokkehøj,6091,7,9.5647035,55.4538163
596805,Klokkehøj,6091,9,9.5651637,55.4538738
596806,Klokkehøj,6091,11,9.5655684,55.4538874
596807,Klokkehøj,6091,13,9.5660802,55.4539811
597537,Kurupvej,6091,1,9.539038,55.432276
597538,Kurupvej,6091,2,9.5369836,55.4307144
597539,Kurupvej,6091,3,9.5342346,55.4301122
597540,Kurupvej,6091,4,9.5333053,55.4290648
597541,Kystvej,6091,1,9.6091055,55.4301019
597542,Kystvej,6091,2,9.608448,55.429967
597543,Kystvej,6091,3,9.608934,55.4299643
597544,Kystvej,6091,4,9.6082621,55.4298687
597545,Kystvej,6091,5,9.6087961,55.4299028
597546,Kystvej,6091,5A,9.6082297,55.4296567
597547,Kystvej,6091,7,9.6079648,55.4295843
597548,Kystvej,6091,9,9.6075714,55.4295473
597549,Kystvej,6091,11,9.607061,55.429419
597550,Kystvej,6091,15,9.6067003,55.4292515
597551,Kystvej,6091,17,9.6063293,55.429136
597552,Kystvej,6091,19A,9.6059711,55.4290273
597553,Kystvej,6091,19B,9.6057172,55.4288173
597554,Kystvej,6091,21,9.6053488,55.4287441
597555,Kystvej,6091,22,9.5994637,55.4271285
597556,Kystvej,6091,23,9.6048628,55.4287024
597557,Kystvej,6091,24,9.5991217,55.4270871
597558,Kystvej,6091,25A,9.6045215,55.4285862
597559,Kystvej,6091,25B,9.604217,55.428496
597560,Kystvej,6091,26,9.5988229,55.4270712
597561,Kystvej,6091,27A,9.6039614,55.4283956
597562,Kystvej,6091,27B,9.603668,55.4283211
597563,Kystvej,6091,28,9.5983814,55.4270274
597564,Kystvej,6091,28A,9.5984192,55.4272089
597565,Kystvej,6091,29A,9.603384,55.4281452
597566,Kystvej,6091,29B,9.6031969,55.4279951
597567,Kystvej,6091,30,9.5979655,55.4270984
597568,Kystvej,6091,31,9.6030404,55.4278888
597569,Kystvej,6091,32,9.5977112,55.4270206
597570,Kystvej,6091,33,9.6025579,55.4278194
597571,Kystvej,6091,34,9.597448,55.4269107
597572,Kystvej,6091,35,9.6022034,55.4277506
597573,Kystvej,6091,36,9.5971685,55.4267634
597574,Kystvej,6091,37,9.6016874,55.4276704
597575,Kystvej,6091,38,9.5968202,55.4265517
597576,Kystvej,6091,39,9.6012444,55.4275894
597577,Kystvej,6091,41,9.600983,55.4274964
597578,Kystvej,6091,42,9.5960734,55.4261681
597579,Kystvej,6091,45A,9.6004552,55.427328
597580,Kystvej,6091,46,9.5953702,55.4257579
597581,Kystvej,6091,47,9.5993909,55.4268823
597582,Kystvej,6091,47A,9.5987743,55.4267756
597583,Kystvej,6091,48,9.595401,55.4253466
597584,Kystvej,6091,49,9.5984164,55.4267301
597585,Kystvej,6091,50,9.5948905,55.4252912
597586,Kystvej,6091,51,9.5981824,55.4266144
597587,Kystvej,6091,52,9.5947177,55.4251468
597588,Kystvej,6091,53,9.597765,55.426572
597589,Kystvej,6091,54,9.5944612,55.4250538
597590,Kystvej,6091,55,9.597509,55.426376
597591,Kystvej,6091,56,9.5943892,55.424892
597592,Kystvej,6091,57,9.597358,55.426255
597593,Kystvej,6091,58,9.5940589,55.4247493
597594,Kystvej,6091,59,9.5962114,55.4256167
597595,Kystvej,6091,60,9.5938424,55.4246201
597596,Kystvej,6091,61,9.5961233,55.4254728
597597,Kystvej,6091,61A,9.5957132,55.4252615
597598,Kystvej,6091,62,9.5937704,55.4244342
597599,Kystvej,6091,63,9.5953843,55.4250983
597600,Kystvej,6091,64A,9.5935831,55.4243042
597601,Kystvej,6091,64B,9.5939087,55.4241511
597602,Kystvej,6091,64C,9.5933144,55.4241089
597603,Kystvej,6091,65,9.5952344,55.4249788
597604,Kystvej,6091,66B,9.5932029,55.4239964
597605,Kystvej,6091,67,9.5952695,55.4247896
597606,Kystvej,6091,68,9.5933788,55.4235773
597607,Kystvej,6091,69,9.5950373,55.4246968
597608,Kystvej,6091,70A,9.5929225,55.4234106
597609,Kystvej,6091,70B,9.5928325,55.4232118
597610,Kystvej,6091,70C,9.5926527,55.4229374
597611,Kystvej,6091,70D,9.592561,55.422708
597612,Kystvej,6091,70E,9.5928634,55.4226452
597613,Kystvej,6091,70F,9.5930802,55.4228928
597614,Kystvej,6091,70G,9.5935432,55.4229858
597615,Kystvej,6091,70H,9.5933632,55.423256
597616,Kystvej,6091,71,9.5948395,55.4244616
597617,Kystvej,6091,71A,9.5946436,55.4242422
597618,Kystvej,6091,72,9.5934487,55.4228391
597619,Kystvej,6091,73,9.5942991,55.4239633
597620,Kystvej,6091,73A,9.5940726,55.4237588
597621,Kystvej,6091,74,9.5932765,55.4225344
597622,Kystvej,6091,75,9.593899,55.4235324
597623,Kystvej,6091,76,9.5931618,55.4223359
597624,Kystvej,6091,77,9.5937372,55.423375
597625,Kystvej,6091,80,9.5929281,55.4222325
597626,Kystvej,6091,82,9.5929099,55.4220671
597627,Kystvej,6091,84,9.5928517,55.4219371
597628,Kystvej,6091,86,9.5928391,55.4217889
597629,Kystvej,6091,88,9.5927737,55.4216461
597630,Kystvej,6091,90,9.5926357,55.4215335
597631,Kystvej,6091,92,9.5926278,55.4213922
597632,Kystvej,6091,94,9.592545,55.421245
597633,Kystvej,6091,96,9.5924909,55.421109
597634,Kystvej,6091,98,9.5923701,55.4208221
597635,Kystvej,6091,102,9.591372,55.4204796
597636,Kystvej,6091,108,9.5922146,55.4199836
597637,Kystvej,6091,110,9.5922143,55.4198542
597638,Kystvej,6091,112,9.5921874,55.419758
597639,Kystvej,6091,114,9.5921276,55.4195622
597640,Kystvej,6091,116,9.5920892,55.4194107
597641,Kystvej,6091,118,9.5921096,55.4193506
597642,Kystvej,6091,120,9.5920888,55.4191789
597643,Kystvej,6091,122,9.5920924,55.4189222
598536,Løgervej,6091,2,9.5561328,55.4643453
598537,Løgervej,6091,4A,9.5562827,55.4649377
598538,Løgervej,6091,6,9.5556391,55.4646947
598539,Løgervej,6091,8,9.555585,55.464807
598540,Løgervej,6091,9,9.5537548,55.4653094
598541,Løgervej,6091,10,9.5555113,55.4650118
598542,Løgervej,6091,11,9.5551473,55.4653968
598543,Løgervej,6091,12,9.555589,55.4652185
598544,Løgervej,6091,13,9.5553521,55.4656265
598545,Løgervej,6091,14,9.555673,55.4654928
598546,Løgervej,6091,15,9.555188,55.4657978
598547,Løgervej,6091,16,9.555661,55.465878
598548,Løgervej,6091,17,9.5548121,55.4659643
598549,Løgervej,6091,18,9.555255,55.4661073
598550,Løgervej,6091,19,9.5543903,55.4660919
598551,Løgervej,6091,20,9.5546219,55.4662577
598552,Løgervej,6091,21,9.5541374,55.4661993
598553,Løgervej,6091,23,9.5536391,55.4664867
598554,Løgervej,6091,25,9.5533112,55.4665353
598555,Løgervej,6091,27,9.5529557,55.4665985
598556,Løgervej,6091,29,9.5527123,55.4667079
598557,Løgervej,6091,31,9.5522402,55.4667999
598558,Løgervej,6091,33,9.552439,55.466908
598559,Løgervej,6091,35,9.552063,55.467167
598560,Løgervej,6091,37,9.5517764,55.4673938
598561,Løgervej,6091,39,9.5517915,55.4676203
598562,Løgervej,6091,40,9.552033,55.468769
598563,Løgervej,6091,41,9.5515914,55.4679178
598564,Løgervej,6091,43,9.5514715,55.468112
598565,Løgervej,6091,45,9.5515073,55.4682818
598566,Løgervej,6091,47,9.5514833,55.4684301
598567,Løgervej,6091,49,9.5514606,55.4686441
598568,Løgervej,6091,51,9.5515037,55.4688483
598569,Løgervej,6091,53A,9.5516293,55.469055
598570,Løgervej,6091,53B,9.5519311,55.4693512
598571,Løgervej,6091,55,9.5524,55.472236
598572,Løgervej,6091,57,9.5535174,55.4786717
598573,Løgervej,6091,59,9.5574219,55.4812069
598820,Mads Kehlets Vej,6091,1,9.5632218,55.4858562
598821,Mads Kehlets Vej,6091,3,9.5674025,55.4913739
598822,Mads Kehlets Vej,6091,7,9.5700472,55.4903997
598823,Mads Kehlets Vej,6091,10,9.5651191,55.4855054
598824,Mads Kehlets Vej,6091,11,9.565347,55.4859903
598825,Mads Kehlets Vej,6091,14,9.5649335,55.4849167
598826,Mads Kehlets Vej,6091,15,9.5674261,55.4860969
598827,Mads Kehlets Vej,6091,18,9.5682899,55.4860539
598828,Mads Kehlets Vej,6091,26,9.5731217,55.4878593
598829,Mads Kehlets Vej,6091,29,9.5691112,55.4885496
598830,Mads Kehlets Vej,6091,30,9.5739986,55.4882999
598831,Mads Kehlets Vej,6091,32,9.574353,55.487934
598832,Mads Kehlets Vej,6091,33,9.572219,55.4879334
598833,Mads Kehlets Vej,6091,35,9.5728581,55.4880893
598834,Mads Kehlets Vej,6091,37,9.5735151,55.4884217
598955,Mariavej,6091,1,9.5615487,55.4525129
598956,Mariavej,6091,2,9.5610338,55.4523143
598957,Mariavej,6091,3,9.5614108,55.452214
598958,Mariavej,6091,4,9.5605512,55.4522976
598959,Mariavej,6091,5,9.5612398,55.4518178
598960,Mariavej,6091,6,9.5601089,55.4523071
598961,Mariavej,6091,7,9.5611162,55.4515226
598962,Mariavej,6091,8,9.559841,55.4524204
598963,Mariavej,6091,9,9.5607764,55.4510858
598964,Mariavej,6091,10,9.5597041,55.4521651
598965,Mariavej,6091,12,9.5600291,55.4521033
598966,Mariavej,6091,14,9.5605174,55.4520548
598967,Mariavej,6091,16,9.5609187,55.4519391
598968,Mariavej,6091,18,9.5605509,55.4517395
598969,Mariavej,6091,20,9.560524,55.4515219
598970,Mariavej,6091,22,9.5604428,55.4513519
598971,Mariavej,6091,24,9.5603084,55.4511438
599619,Møllebakken,6091,1,9.5494952,55.4604776
599620,Møllebakken,6091,2,9.550835,55.4606906
599621,Møllebakken,6091,2A,9.5504512,55.4607107
599622,Møllebakken,6091,3,9.5491306,55.4604393
599623,Møllebakken,6091,4,9.550294,55.460989
599624,Møllebakken,6091,5,9.5491021,55.4602269
599625,Møllebakken,6091,7,9.5485117,55.4602142
599626,Møllebakken,6091,8,9.5497386,55.4607506
599627,Møllebakken,6091,9,9.5486769,55.4604991
599628,Møllebakken,6091,10,9.5491201,55.4608628
599629,Møllebakken,6091,12,9.549501,55.4610167
599630,Møllebakken,6091,14,9.5493422,55.4614447
599631,Møllebakken,6091,16,9.5490224,55.461786
599632,Møllebakken,6091,18,9.5481503,55.4617258
599633,Møllebakken,6091,20,9.5484422,55.4610389
599711,Møllevang,6091,1,9.550565,55.460355
599712,Møllevang,6091,2,9.5501729,55.4604207
599713,Møllevang,6091,3,9.5504995,55.4601098
599714,Møllevang,6091,4,9.5500817,55.4602084
599715,Møllevang,6091,5,9.550447,55.4599159
599716,Møllevang,6091,6,9.5500314,55.4600087
599717,Møllevang,6091,7,9.5504093,55.4596714
599718,Møllevang,6091,8,9.549759,55.459703
599719,Møllevang,6091,9,9.5510904,55.4593846
599720,Møllevang,6091,10,9.549337,55.4597729
599721,Møllevang,6091,11,9.550712,55.459374
599722,Møllevang,6091,12,9.549074,55.459849
599723,Møllevang,6091,13,9.5502393,55.45942
599724,Møllevang,6091,14,9.5486501,55.4599076
599725,Møllevang,6091,15,9.5497732,55.4594677
599726,Møllevang,6091,16,9.5486447,55.4597566
599727,Møllevang,6091,17,9.5493508,55.4595029
599728,Møllevang,6091,19,9.5489735,55.4595343
599729,Møllevang,6091,21,9.5484047,55.4595931
599993,Niels Uldals Vej,6091,1,9.5564518,55.4626935
599994,Niels Uldals Vej,6091,3,9.556384,55.462486
599995,Niels Uldals Vej,6091,5,9.5564738,55.4622901
599996,Niels Uldals Vej,6091,7,9.556707,55.4621033
600501,Nørrevænget,6091,1,9.5585969,55.4642381
600502,Nørrevænget,6091,2,9.5585779,55.4644186
600503,Nørrevænget,6091,4,9.557872,55.465302
600504,Nørrevænget,6091,5,9.5577176,55.4648942
600505,Nørrevænget,6091,7,9.5576309,55.4650233
600506,Nørrevænget,6091,9,9.5575521,55.4653206
600507,Nørrevænget,6091,9A,9.5570312,55.4649089
600508,Nørrevænget,6091,11,9.5571943,55.4654856
600509,Nørrevænget,6091,13,9.556859,55.465501
600510,Nørrevænget,6091,14,9.5573762,55.4656928
600511,Nørrevænget,6091,15,9.5563865,55.4655426
600512,Nørrevænget,6091,16,9.5567239,55.4658018
600513,Nørrevænget,6091,18,9.5562355,55.465768
600514,Nørrevænget,6091,21,9.5560478,55.4653816
600834,Oluf Ravns Vej,6091,3,9.5882977,55.4207897
600835,Oluf Ravns Vej,6091,5,9.5881301,55.420384
600836,Oluf Ravns Vej,6091,13,9.5879199,55.4199072
600837,Oluf Ravns Vej,6091,14,9.5875909,55.4198747
600838,Oluf Ravns Vej,6091,15,9.5882427,55.419899
600839,Oluf Ravns Vej,6091,16,9.5872595,55.419767
600840,Oluf Ravns Vej,6091,17,9.5885761,55.4198889
600841,Oluf Ravns Vej,6091,19,9.5889431,55.4198603
600842,Oluf Ravns Vej,6091,21,9.5892876,55.4198347
600843,Oluf Ravns Vej,6091,23,9.5896976,55.4198381
600844,Oluf Ravns Vej,6091,25,9.5899756,55.4198265
600845,Oluf Ravns Vej,6091,27,9.589931,55.419603
600846,Oluf Ravns Vej,6091,29,9.589938,55.41936
600847,Oluf Ravns Vej,6091,31,9.5895861,55.4193589
600848,Oluf Ravns Vej,6091,33,9.5896001,55.4195645
600849,Oluf Ravns Vej,6091,35,9.5892831,55.4195978
600850,Oluf Ravns Vej,6091,37,9.5892583,55.4193713
600851,Oluf Ravns Vej,6091,39,9.5888857,55.4193723
600852,Oluf Ravns Vej,6091,41,9.5889667,55.4195818
600853,Oluf Ravns Vej,6091,43,9.588581,55.419634
600854,Oluf Ravns Vej,6091,45,9.5885819,55.4193919
600855,Oluf Ravns Vej,6091,47,9.5882055,55.4194092
600856,Oluf Ravns Vej,6091,49,9.5883053,55.4196137
600857,Oluf Ravns Vej,6091,51,9.5879178,55.419673
600858,Oluf Ravns Vej,6091,53,9.5878698,55.4194821
600859,Oluf Ravns Vej,6091,55,9.5878084,55.4192956
601810,Rosenvænget,6091,1,9.5597179,55.4537283
601811,Rosenvænget,6091,2,9.5600083,55.4533907
601812,Rosenvænget,6091,3,9.5597674,55.4539468
601813,Rosenvænget,6091,5,9.559857,55.4541975
602361,Schultzvej,6091,1,9.558248,55.451869
602362,Schultzvej,6091,2,9.5579621,55.4521036
602363,Schultzvej,6091,3,9.5577249,55.4518883
602364,Schultzvej,6091,4,9.5576146,55.4521387
602365,Schultzvej,6091,5,9.5574556,55.4518746
602366,Schultzvej,6091,6,9.5572462,55.4521946
602367,Schultzvej,6091,7,9.5571132,55.4517449
602368,Schultzvej,6091,8,9.5568893,55.4521254
602369,Schultzvej,6091,9,9.556923,55.4519053
602951,Skamlingvejen,6091,85,9.5362705,55.466291
602952,Skamlingvejen,6091,95,9.5539357,55.4557961
602953,Skamlingvejen,6091,105,9.557293,55.4479877
602964,Skarre Strandvej,6091,9,9.5960904,55.4859522
602965,Skarre Strandvej,6091,10,9.5941063,55.4863403
602966,Skarre Strandvej,6091,11,9.589373,55.486245
602967,Skarre Strandvej,6091,12,9.5936613,55.4864698
602968,Skarre Strandvej,6091,13,9.5899052,55.4864683
602969,Skarre Strandvej,6091,14,9.5939991,55.4867617
602970,Skarre Strandvej,6091,15,9.5917793,55.4867477
602971,Skarre Strandvej,6091,18,9.592198,55.487569
602972,Skarre Strandvej,6091,19,9.5913792,55.4873352
602973,Skarre Strandvej,6091,20,9.5929699,55.4881498
602974,Skarre Strandvej,6091,23,9.5907658,55.4861214
602975,Skartved Overgade,6091,3,9.5394476,55.4582747
602976,Skartved Overgade,6091,4,9.539385,55.4586579
602977,Skartved Overgade,6091,6,9.539124,55.458462
602978,Skartved Overgade,6091,9,9.538123,55.4569356
602979,Skartved Overgade,6091,10,9.5381951,55.4580974
602980,Skartved Overgade,6091,11,9.537977,55.456568
602981,Skartved Overgade,6091,13,9.537633,55.456462
602982,Skartved Vestervej,6091,1,9.5302082,55.4669935
602983,Skartved Vestervej,6091,3,9.5292683,55.4655567
602984,Skartvedvej,6091,1A,9.556116,55.455615
602985,Skartvedvej,6091,3,9.556313,55.455943
602986,Skartvedvej,6091,5,9.556163,55.456003
602987,Skartvedvej,6091,7,9.555714,55.455715
602988,Skartvedvej,6091,9,9.5557385,55.4561396
602989,Skartvedvej,6091,10,9.5551789,55.4565062
602990,Skartvedvej,6091,11,9.5553336,55.4562313
602991,Skartvedvej,6091,12,9.5546768,55.456546
602992,Skartvedvej,6091,13,9.5547693,55.456207
602993,Skartvedvej,6091,15,9.554156,55.456082
603241,Skovhavevej,6091,6,9.5825717,55.4684354
603242,Skovhavevej,6091,10,9.5836324,55.4694614
603243,Skovhavevej,6091,14,9.585406,55.4706477
603244,Skovhavevej,6091,15,9.5859053,55.4713865
603245,Skovhavevej,6091,16,9.5866684,55.4715938
603246,Skovhavevej,6091,18,9.5876316,55.4708847
603247,Skovhavevej,6091,29,9.58984,55.478034
603248,Skovhavevej,6091,33,9.5910654,55.4789441
603249,Skovhavevej,6091,39,9.5895467,55.4801483
603250,Skovhavevej,6091,40,9.5945024,55.4799431
603251,Skovhavevej,6091,41,9.592549,55.4800482
603252,Skovhavevej,6091,42,9.5946555,55.47977
603253,Skovhavevej,6091,45,9.5943116,55.4828528
603254,Skovhavevej,6091,47,9.595074,55.4836696
603255,Skovhavevej,6091,51,9.594713,55.4839718
603256,Skovhavevej,6091,53,9.5989655,55.4830526
603257,Skovhavevej,6091,55,9.5991724,55.4838739
603258,Skovhavevej,6091,58,9.6062102,55.4907996
603259,Skovhavevej,6091,60,9.6021616,55.4888929
603260,Skovhavevej,6091,62,9.593347,55.488305
603791,Skrænten,6091,1,9.5543574,55.4666921
603792,Skrænten,6091,2,9.5548339,55.4665672
603793,Skrænten,6091,2A,9.5551434,55.4663234
603794,Skrænten,6091,3,9.5541098,55.4667808
603795,Skrænten,6091,4,9.5555505,55.4664044
603796,Skrænten,6091,5,9.5538313,55.4668812
603797,Skrænten,6091,6,9.5558825,55.466295
603798,Skrænten,6091,7,9.5535956,55.4670513
603799,Skrænten,6091,9,9.5531014,55.4670067
603800,Skrænten,6091,10,9.5564255,55.4660227
603801,Skrænten,6091,11,9.5539421,55.4671695
603802,Skrænten,6091,12,9.5564739,55.4662592
603803,Skrænten,6091,13,9.5542146,55.4670381
603804,Skrænten,6091,14,9.5569382,55.4662804
603805,Skrænten,6091,15,9.5545347,55.4669209
603806,Skrænten,6091,16,9.5569756,55.4660612
603807,Skrænten,6091,17,9.5549285,55.4672284
603808,Skrænten,6091,18,9.5573343,55.4660838
603809,Skrænten,6091,20,9.5576421,55.4661047
603810,Skrænten,6091,22,9.55744,55.4663509
603811,Skrænten,6091,24,9.5574817,55.4666722
603812,Skrænten,6091,26,9.5570851,55.4665836
603813,Skrænten,6091,28,9.5567667,55.4665321
603814,Skrænten,6091,30,9.5563622,55.4664586
603815,Skrænten,6091,32,9.5559453,55.4665249
603816,Skrænten,6091,34,9.5554458,55.4667216
603817,Skrænten,6091,36,9.5551849,55.4668473
603818,Skrænten,6091,38,9.555405,55.4671173
603819,Skrænten,6091,40,9.55526,55.467267
604275,Solkær,6091,1,9.5589939,55.4613548
604276,Solkær,6091,2,9.558975,55.461548
604277,Solkær,6091,3,9.5589989,55.4612895
604278,Solkær,6091,4,9.558964,55.4616393
604279,Solkær,6091,5,9.558986,55.4611552
604280,Solkær,6091,6,9.5589546,55.4617294
604281,Solkær,6091,7,9.5590009,55.4610696
604282,Solkær,6091,8,9.5589488,55.4617987
604283,Solkær,6091,9,9.5585469,55.4611453
604284,Solkær,6091,10,9.5586047,55.4616307
604285,Solkær,6091,11,9.5585769,55.461064
604286,Solkær,6091,12,9.5585848,55.4617054
604287,Solkær,6091,13,9.5581306,55.4610998
604288,Solkær,6091,14,9.5585833,55.461776
604289,Solkær,6091,15,9.5581674,55.4610204
604290,Solkær,6091,16,9.5582569,55.4616506
604291,Solkær,6091,17,9.5577299,55.4610374
604292,Solkær,6091,18,9.5582338,55.4617338
604293,Solkær,6091,19,9.5577681,55.4609618
604294,Solkær,6091,20,9.557866,55.4617014
604295,Solkær,6091,22,9.5578853,55.4616312
604296,Solkær,6091,24,9.5579145,55.4615603
604297,Solkær,6091,26,9.5579343,55.4614893
604298,Solkær,6091,28,9.5579883,55.4613741
604299,Solkær,6091,30,9.5580269,55.461281
604300,Solkær,6091,32,9.5576755,55.4611816
604301,Solkær,6091,34,9.557646,55.4612733
604726,Stenderupvej,6091,4,9.53641,55.469124
604727,Stenderupvej,6091,30,9.5487145,55.4653239
604728,Stenderupvej,6091,32,9.549704,55.464954
604729,Stenderupvej,6091,34,9.550002,55.4648992
604730,Stenderupvej,6091,36,9.5505295,55.4647339
604731,Stenderupvej,6091,38,9.5510393,55.4645704
604732,Stenderupvej,6091,39,9.552399,55.465102
604733,Stenderupvej,6091,40,9.5513161,55.464496
604734,Stenderupvej,6091,41,9.552286,55.464696
604735,Stenderupvej,6091,43,9.5526935,55.464747
604736,Stenderupvej,6091,45,9.5530708,55.4646181
604737,Stenderupvej,6091,47,9.5535051,55.4645334
604738,Stenderupvej,6091,48,9.5536057,55.4642877
604739,Stenderupvej,6091,50,9.5541262,55.4641612
604740,Stenderupvej,6091,53,9.5567264,55.4643335
604741,Stenderupvej,6091,54,9.5554062,55.4641807
604742,Stenderupvej,6091,55A,9.5569753,55.4642241
604743,Stenderupvej,6091,55B,9.5570791,55.4641999
604744,Stenderupvej,6091,56,9.5567133,55.4632133
604745,Stenderupvej,6091,56A,9.5562947,55.4634255
604746,Stenderupvej,6091,57,9.5574077,55.4641867
604747,Stenderupvej,6091,58,9.5574929,55.4640108
604748,Stenderupvej,6091,59,9.557894,55.464268
604749,Stenderupvej,6091,60,9.5585928,55.4635167
604750,Stenderupvej,6091,61,9.559468,55.4644317
604751,Stenderupvej,6091,63,9.5596071,55.4645065
604752,Stenderupvej,6091,64,9.5596882,55.4643177
604753,Stenderupvej,6091,65,9.5600896,55.4648739
604754,Stenderupvej,6091,66,9.5599543,55.4644102
604755,Stenderupvej,6091,68,9.560452,55.464677
604756,Stenderupvej,6091,91,9.5665397,55.4663948
604757,Stenderupvej,6091,95,9.5742221,55.4721109
604758,Stenderupvej,6091,100,9.5679342,55.4662767
604759,Stenderupvej,6091,101,9.575068,55.4690343
604760,Stenderupvej,6091,102,9.5691606,55.4663441
604761,Stenderupvej,6091,103,9.5787125,55.4676403
604762,Stenderupvej,6091,104,9.5709816,55.4663705
604763,Stenderupvej,6091,124,9.5775227,55.4649257
604769,Stenderupvej,6091,132,9.5815217,55.4646484
604921,Stormgaardsvej,6091,1,9.5518818,55.4602677
604922,Stormgaardsvej,6091,2,9.551504,55.4602689
604923,Stormgaardsvej,6091,3,9.551775,55.4600287
604924,Stormgaardsvej,6091,4,9.5514384,55.4600373
604925,Stormgaardsvej,6091,5,9.5518058,55.4597943
604926,Stormgaardsvej,6091,6,9.5513444,55.4598169
604927,Stormgaardsvej,6091,7,9.5516783,55.4595616
604928,Stormgaardsvej,6091,8,9.5513445,55.4596287
604929,Stormgaardsvej,6091,9,9.5519742,55.4593533
605130,Strømholtgårdvej,6091,1,9.6015404,55.4828243
605131,Strårupmarkvej,6091,11,9.5443741,55.4705918
605132,Strårupmarkvej,6091,13,9.5444898,55.470211
605133,Strårupmarkvej,6091,15,9.544707,55.4704877
605134,Strårupmarkvej,6091,17,9.5447938,55.4732423
605135,Strårupmarkvej,6091,19,9.5468806,55.4733712
605136,Strårupmarkvej,6091,20,9.5487688,55.4736156
605137,Strårupmarkvej,6091,21,9.5486608,55.4755437
605514,Sønderbyvej,6091,1,9.5592722,55.4639191
605515,Sønderbyvej,6091,2,9.5585892,55.4638943
605516,Sønderbyvej,6091,3,9.5594062,55.4637111
605517,Sønderbyvej,6091,4,9.5585613,55.4630882
605518,Sønderbyvej,6091,5,9.5595512,55.4631692
605519,Sønderbyvej,6091,8,9.559021,55.462301
605520,Sønderbyvej,6091,10,9.5590225,55.462081
605521,Sønderbyvej,6091,13,9.5601148,55.4627023
605522,Sønderbyvej,6091,15,9.5595259,55.4624417
605523,Sønderbyvej,6091,16,9.5590131,55.4607546
605524,Sønderbyvej,6091,16A,9.558843,55.460719
605525,Sønderbyvej,6091,18,9.5587177,55.4602576
605526,Sønderbyvej,6091,19,9.5594231,55.4621276
605527,Sønderbyvej,6091,20A,9.5585127,55.4599767
605528,Sønderbyvej,6091,20B,9.5587277,55.4599026
605529,Sønderbyvej,6091,21,9.5594767,55.461882
605530,Sønderbyvej,6091,22,9.5588635,55.4596362
605531,Sønderbyvej,6091,23,9.5592774,55.4617367
605532,Sønderbyvej,6091,23A,9.5594153,55.4615398
605533,Sønderbyvej,6091,24,9.5592877,55.4598011
605534,Sønderbyvej,6091,25,9.5593656,55.4612858
605535,Sønderbyvej,6091,26,9.5598101,55.4598138
605536,Sønderbyvej,6091,27,9.5594963,55.4609855
605537,Sønderbyvej,6091,28,9.5598835,55.4595628
605538,Sønderbyvej,6091,29,9.5596606,55.4606717
605539,Sønderbyvej,6091,30,9.5592861,55.4594577
605540,Sønderbyvej,6091,31,9.5594459,55.4604247
605541,Sønderbyvej,6091,32,9.5594516,55.4592169
605542,Sønderbyvej,6091,33,9.5593962,55.4601808
605543,Sønderbyvej,6091,34,9.5596334,55.4590642
605544,Sønderbyvej,6091,35,9.5601531,55.4603108
605545,Sønderbyvej,6091,37,9.5604565,55.4598348
605546,Sønderbyvej,6091,39,9.5605701,55.4596869
605547,Sønderbyvej,6091,41,9.5605772,55.4593672
605548,Sønderbyvej,6091,43,9.5600136,55.4592844
605707,Søren Krogs Vej,6091,1,9.5922551,55.4237201
605708,Søren Krogs Vej,6091,2,9.5932318,55.4236919
605709,Søren Krogs Vej,6091,3,9.592249,55.4235334
605710,Søren Krogs Vej,6091,4,9.5930117,55.4239521
605711,Søren Krogs Vej,6091,5,9.5922107,55.4232265
605712,Søren Krogs Vej,6091,6,9.5928676,55.4238275
605713,Søren Krogs Vej,6091,7,9.5921306,55.4230297
605714,Søren Krogs Vej,6091,9,9.5921363,55.4228098
605715,Søren Krogs Vej,6091,10,9.5914908,55.4237737
605716,Søren Krogs Vej,6091,12,9.590993,55.423804
605717,Søren Krogs Vej,6091,13,9.5919021,55.4233976
605718,Søren Krogs Vej,6091,14,9.591371,55.4234477
605719,Søren Krogs Vej,6091,15,9.5917426,55.4230972
605720,Søren Krogs Vej,6091,16,9.5911761,55.423556
605721,Søren Krogs Vej,6091,17,9.5916277,55.4229343
605722,Søren Krogs Vej,6091,18,9.5907649,55.4235494
605723,Søren Krogs Vej,6091,19,9.591221,55.4229875
605724,Søren Krogs Vej,6091,20,9.5904243,55.4235551
605725,Søren Krogs Vej,6091,21,9.5909706,55.4231853
605726,Søren Krogs Vej,6091,22,9.5901769,55.4236659
605727,Søren Krogs Vej,6091,23,9.5906407,55.4232486
605728,Søren Krogs Vej,6091,24,9.5898395,55.4237004
605729,Søren Krogs Vej,6091,25,9.5903715,55.4233128
605730,Søren Krogs Vej,6091,27,9.590073,55.423379
605731,Søren Krogs Vej,6091,29,9.589782,55.42343
605732,Søren Krogs Vej,6091,31,9.5895118,55.4234356
605984,Thorsvej,6091,1,9.5542973,55.4363736
605985,Thorsvej,6091,2,9.555209,55.436786
605986,Thorsvej,6091,8,9.5551718,55.4370596
605987,Thorsvej,6091,10,9.5549878,55.4373769
606123,Toftegårdsvej,6091,1,9.5584584,55.4628399
606124,Toftegårdsvej,6091,2,9.5571389,55.4626882
606125,Toftegårdsvej,6091,3,9.5585054,55.4627615
606126,Toftegårdsvej,6091,4,9.5571723,55.4626224
606127,Toftegårdsvej,6091,5,9.5581653,55.4626712
606128,Toftegårdsvej,6091,6,9.5572404,55.4624615
606129,Toftegårdsvej,6091,7,9.5580877,55.4628302
606130,Toftegårdsvej,6091,8,9.5573128,55.4622347
606131,Toftegårdsvej,6091,9,9.5578175,55.4627823
606132,Toftegårdsvej,6091,10,9.5575571,55.462273
606133,Toftegårdsvej,6091,11,9.5574665,55.4627599
606134,Toftegårdsvej,6091,12,9.5576767,55.4622684
606135,Toftegårdsvej,6091,13,9.5575343,55.4625991
606136,Toftegårdsvej,6091,15,9.557544,55.4624507
606137,Toftegårdsvej,6091,17,9.5578989,55.462598
606320,Trekanten,6091,1,9.5580498,55.4514567
606321,Trekanten,6091,3,9.5576309,55.451241
606322,Trekanten,6091,5,9.5573651,55.4514227
606323,Trekanten,6091,7,9.5572157,55.4515848
606567,Tårnmosevej,6091,1,9.561765,55.4361364
606568,Tårnmosevej,6091,2,9.563731,55.4355341
606569,Tårnmosevej,6091,4,9.5630782,55.4361417
606570,Tårnmosevej,6091,16,9.581084,55.4335001
606571,Tårnmosevej,6091,17,9.5731311,55.4418032
606572,Tårnmosevej,6091,20,9.5774183,55.4445516
607140,Vesterløkke,6091,1,9.557083,55.4582178
607141,Vesterløkke,6091,2,9.5566311,55.4583117
607142,Vesterløkke,6091,5,9.5576142,55.4579819
607143,Vesterløkke,6091,6,9.5570401,55.4573528
607144,Vesterløkke,6091,7A,9.5582827,55.4576748
607145,Vesterløkke,6091,8,9.557031,55.4571537
607146,Vesterløkke,6091,9A,9.5576055,55.4574293
607147,Vesterløkke,6091,9B,9.5582612,55.4574022
607148,Vesterløkke,6091,10,9.5568488,55.4568095
607149,Vesterløkke,6091,11,9.557558,55.45721
607150,Vesterløkke,6091,12,9.5571929,55.4564918
607151,Vesterløkke,6091,13,9.5575716,55.4570204
607152,Vesterløkke,6091,14,9.5571668,55.4561839
607153,Vesterløkke,6091,15,9.5580535,55.4569033
607154,Vesterløkke,6091,16,9.557138,55.4560462
607155,Vesterløkke,6091,17,9.5575725,55.4565721
607156,Vesterløkke,6091,18,9.5569754,55.4556666
607157,Vesterløkke,6091,19,9.5579624,55.455951
607158,Vesterløkke,6091,19A,9.5580741,55.456222
607159,Vesterløkke,6091,19F,9.557633,55.4562926
607160,Vesterløkke,6091,19H,9.5576187,55.4561074
607161,Vesterløkke,6091,19K,9.5576053,55.4560624
607162,Vesterløkke,6091,20,9.5569329,55.4555519
607163,Vesterløkke,6091,21,9.5574234,55.4559518
607164,Vesterløkke,6091,23,9.5572713,55.4556084
607165,Vesterløkke,6091,24,9.556714,55.455101
607166,Vesterløkke,6091,25,9.5572247,55.455464
607167,Vesterløkke,6091,26,9.5565032,55.4548697
607168,Vesterløkke,6091,27,9.5571801,55.4552043
607169,Vesterløkke,6091,28A,9.5564723,55.4547328
607170,Vesterløkke,6091,28B,9.5563612,55.4547452
607171,Vesterløkke,6091,28C,9.5562336,55.4547633
607172,Vesterløkke,6091,29,9.557081,55.4549604
607173,Vesterløkke,6091,30,9.556452,55.4544797
607174,Vesterløkke,6091,31,9.5569687,55.4547957
607175,Vesterløkke,6091,32,9.5563522,55.4542342
607176,Vesterløkke,6091,33,9.5568984,55.4546163
607177,Vesterløkke,6091,34,9.5562883,55.454045
607178,Vesterløkke,6091,35,9.5568588,55.4544823
607179,Vesterløkke,6091,37,9.5567057,55.4541482
607180,Vesterløkke,6091,38,9.5560049,55.4533903
607181,Vesterløkke,6091,39,9.5566601,55.4540169
607182,Vesterløkke,6091,41,9.5565694,55.4537741
607183,Vesterløkke,6091,43,9.556513,55.4535858
607187,Vesterskovvej,6091,1,9.551385,55.445394
607188,Vesterskovvej,6091,2,9.5499406,55.4466614
607189,Vesterskovvej,6091,12,9.5463442,55.443954
607190,Vesterskovvej,6091,19,9.5448309,55.4410498
607191,Vesterskovvej,6091,20,9.5427137,55.4418226
607192,Vesterskovvej,6091,29,9.54188,55.4408793
607193,Vesterskovvej,6091,34,9.5407486,55.4407892
607194,Vesterskovvej,6091,50,9.5304455,55.4411057
607195,Vesterskovvej,6091,54,9.531604,55.440253
607997,Østerløkke,6091,1,9.5610087,55.4620147
607998,Østerløkke,6091,2,9.5600588,55.4621732
607999,Østerløkke,6091,3,9.5614681,55.4619871
608000,Østerløkke,6091,4,9.5600815,55.4619281
608001,Østerløkke,6091,5,9.5622128,55.4618919
608002,Østerløkke,6091,6,9.5601255,55.4617522
608003,Østerløkke,6091,7,9.56223,55.461663
608004,Østerløkke,6091,8,9.560109,55.4615811
608005,Østerløkke,6091,9,9.5623699,55.4614734
608006,Østerløkke,6091,10,9.5601348,55.4613064
608007,Østerløkke,6091,11,9.5624303,55.4612675
608008,Østerløkke,6091,12,9.5602216,55.4611188
608009,Østerløkke,6091,13,9.5625271,55.4610809
608010,Østerløkke,6091,14,9.5603214,55.4609114
608011,Østerløkke,6091,16,9.5603959,55.4607185
608012,Østerløkke,6091,18,9.5605193,55.460467
608013,Østerløkke,6091,19,9.5621251,55.4608156
608014,Østerløkke,6091,20,9.5606002,55.4602433
608015,Østerløkke,6091,21,9.5618266,55.4607994
608016,Østerløkke,6091,23,9.5615254,55.4607923
608017,Østerløkke,6091,25,9.5612352,55.460836
608018,Østerløkke,6091,27,9.5608783,55.4608028
608019,Østerløkke,6091,29,9.5607997,55.4610202
608020,Østerløkke,6091,31,9.5611399,55.4610144
608021,Østerløkke,6091,33,9.5614449,55.4610215
608022,Østerløkke,6091,35,9.5620935,55.461131
608023,Østerløkke,6091,37,9.5620464,55.4613727
608024,Østerløkke,6091,39,9.5618805,55.4615676
608025,Østerløkke,6091,40,9.565087,55.4562423
608026,Østerløkke,6091,41,9.5618207,55.4617896
608027,Østerløkke,6091,43A,9.5613452,55.4617253
608028,Østerløkke,6091,43B,9.5610444,55.4617256
608029,Østerløkke,6091,43C,9.5607955,55.4616779
608030,Østerløkke,6091,43D,9.5606103,55.4616793
608031,Østerløkke,6091,45,9.5609081,55.4605421
608032,Østerløkke,6091,47,9.5610211,55.4603058
608033,Østerløkke,6091,49,9.5614659,55.4605235
608034,Østerløkke,6091,50,9.5660874,55.4596046
608035,Østerløkke,6091,51,9.561562,55.4602528
608036,Østerløkke,6091,53,9.5619947,55.4605204
608037,Østerløkke,6091,55,9.5620815,55.4603359
608222,Åvænget,6091,1,9.5545872,55.4566129
608223,Åvænget,6091,2,9.555198,55.4566281
608224,Åvænget,6091,3,9.5541309,55.4566581
608225,Åvænget,6091,4,9.5556826,55.4565281
608226,Åvænget,6091,5,9.55373,55.4566428
608227,Åvænget,6091,6,9.5557624,55.4567779
608228,Åvænget,6091,7,9.5539903,55.4568828
608229,Åvænget,6091,8,9.5552923,55.4568289
608230,Åvænget,6091,9,9.5544022,55.4568461
608231,Åvænget,6091,10,9.55539,55.4571586
608232,Åvænget,6091,11,9.5547522,55.4567988
608233,Åvænget,6091,13,9.554863,55.4572148
608234,Åvænget,6091,15,9.554493,55.4572482
608235,Åvænget,6091,17,9.5540132,55.457241
608236,Åvænget,6091,19,9.554109,55.457505
608237,Åvænget,6091,21,9.554528,55.457461
608238,Åvænget,6091,23,9.554988,55.457417
608239,Åvænget,6091,25,9.555449,55.457368
788424,Skamlingvejen,6091,107,9.560679,55.4471877
827743,Skamlingvejen,6091,111,9.5621861,55.4254291
827744,Skamlingvejen,6091,113,9.5627128,55.4244987
827745,Skamlingvejen,6091,115,9.5622271,55.4215845
827746,Skamlingvejen,6091,117,9.5627725,55.4213574
827747,Skamlingvejen,6091,118,9.560381,55.432698
827748,Skamlingvejen,6091,119,9.5634365,55.4211677
827749,Skamlingvejen,6091,120,9.5605364,55.4316912
827752,Skamlingvejen,6091,124,9.5606877,55.424387
827754,Skamlingvejen,6091,128,9.561067,55.421812
832805,Engdraget,6091,1,9.5524831,55.4581234
832806,Engløkke,6091,30,9.5561021,55.462925
832807,Østerløkke,6091,1A,9.5615217,55.4624568
832808,Eegsvej,6091,2,9.55169,55.464094
832809,Eegsvej,6091,4,9.551811,55.46258
832810,Bjert Vestervang,6091,29,9.5546631,55.4559968
832811,Gammel Bjært,6091,33,9.5659621,55.4531396
832812,Bjert Strandvej,6091,27,9.6063003,55.4316003
832813,Binderupvej,6091,1,9.5590772,55.4528848
832814,Vesterløkke,6091,7B,9.5582413,55.4579099
832815,Vesterløkke,6091,7C,9.5575858,55.4576377
832816,Vesterløkke,6091,22A,9.556679,55.455334
832817,Vesterløkke,6091,22B,9.556504,55.455319
832818,Stenderupvej,6091,106,9.571127,55.464989
832827,Strømholtgårdvej,6091,3,9.6066641,55.4839447
832828,Skarre Strandvej,6091,17,9.5917718,55.4872006
832831,Abildvej,6091,3,9.5621156,55.4592993
832832,Abildvej,6091,5,9.562321,55.4593354
832833,Abildvej,6091,7,9.5625106,55.4593724
832834,Abildvej,6091,9,9.5626794,55.4594043
832835,Abildvej,6091,11,9.5622535,55.4590489
832836,Abildvej,6091,13,9.5624279,55.459063
832837,Abildvej,6091,15,9.562604,55.459076
832838,Abildvej,6091,17,9.5627698,55.4590881
832839,Abildvej,6091,19,9.5622944,55.45876
832840,Abildvej,6091,21,9.5624882,55.4587722
832841,Abildvej,6091,23,9.5626643,55.4587873
832842,Abildvej,6091,25,9.5628194,55.4588012
832843,Abildvej,6091,27,9.5624278,55.4584837
832844,Abildvej,6091,29,9.5626075,55.4584928
832845,Abildvej,6091,31,9.5627593,55.4584987
832846,Abildvej,6091,33,9.562892,55.4585016
832847,Abildvej,6091,35,9.5624232,55.4581944
832848,Abildvej,6091,37,9.5625761,55.4581503
832849,Abildvej,6091,39,9.5627801,55.4580941
832850,Abildvej,6091,41,9.5629674,55.4580471
832851,Abildvej,6091,43,9.562113,55.4579266
832852,Abildvej,6091,45,9.56222,55.457829
832853,Abildvej,6091,47,9.5623233,55.4577233
832854,Abildvej,6091,49,9.5624233,55.4576312
832855,Abildvej,6091,51,9.561627,55.457874
832856,Abildvej,6091,53,9.5615993,55.4577779
832857,Abildvej,6091,55,9.5615721,55.4576719
832858,Abildvej,6091,57,9.5615419,55.457551
832859,Abildvej,6091,59,9.5619072,55.4581585
832860,Nørrevænget,6091,3A,9.5576077,55.4644786
832861,Nørrevænget,6091,3B,9.557468,55.4646852
832862,Bjert Stationsvej,6091,4A,9.556088,55.458241
832863,Bjert Stationsvej,6091,4B,9.556076,55.458167
832864,Skrænten,6091,8,9.5559955,55.4660493
832865,Skartvedvej,6091,1B,9.556082,55.455707
832866,Skartvedvej,6091,1C,9.55605,55.455818
845702,Mads Kehlets Vej,6091,21,9.5696478,55.4871383
967442,Kystvej,6091,44A,9.5961715,55.425896
967443,Kystvej,6091,44B,9.5956494,55.4259111
967444,Kystvej,6091,100,9.5917846,55.420658
967445,Kystvej,6091,104A,9.591605,55.420499
967446,Kystvej,6091,104B,9.59193,55.4204048
967447,Kystvej,6091,104C,9.5923264,55.4203489
971564,Søren Krogs Vej,6091,8A,9.5930359,55.4243303
971565,Søren Krogs Vej,6091,8B,9.592593,55.424424
971566,Søren Krogs Vej,6091,8C,9.5921402,55.4245008
971567,Søren Krogs Vej,6091,8D,9.5927695,55.4240542
971568,Søren Krogs Vej,6091,8E,9.5926231,55.4239176
971569,Søren Krogs Vej,6091,8F,9.5918063,55.4240846
971581,Vesterskovvej,6091,46,9.534467,55.440614
971582,Kjellerupvej,6091,3,9.5593593,55.4347379
971584,Bjert Kirkesti,6091,2A,9.5654252,55.4531343
971585,Bjert Kirkesti,6091,2B,9.5652309,55.4534068
2109565,Abildvænget,6091,1,9.5636141,55.4599122
2109579,Abildvænget,6091,2,9.5632952,55.4597829
2109582,Abildvænget,6091,3,9.5639561,55.4596725
2109596,Abildvænget,6091,4,9.5635515,55.4595854
2109610,Abildvænget,6091,5,9.564124,55.459409
2109614,Abildvænget,6091,6,9.563522,55.459336
2109631,Abildvænget,6091,7,9.564433,55.459573
2109636,Abildvænget,6091,8,9.563668,55.459188
2109649,Abildvænget,6091,9,9.564331,55.459836
2109662,Abildvænget,6091,10,9.563959,55.458983
2109665,Abildvænget,6091,11,9.565291,55.459563
2109676,Abildvænget,6091,12,9.563678,55.458781
2109690,Abildvænget,6091,13,9.564968,55.459393
2109695,Abildvænget,6091,14,9.563507,55.458428
2109706,Abildvænget,6091,15,9.564669,55.459157
2109716,Abildvænget,6091,16,9.5638314,55.4585234
2109718,Abildvænget,6091,18,9.564141,55.458625
2109724,Abildvænget,6091,20,9.5643519,55.4587633
2109731,Abildvænget,6091,22,9.5644902,55.4589667
2114619,Engdalen,6091,1,9.552989,55.458054
2114621,Engdalen,6091,2,9.5524338,55.4578691
2114629,Engdalen,6091,3,9.553152,55.4580584
2114641,Engdalen,6091,4,9.5524356,55.4577824
2114646,Engdalen,6091,5,9.5531619,55.4578775
2114654,Engdalen,6091,6,9.5523998,55.4575628
2114664,Engdalen,6091,7,9.5531597,55.4577941
2114668,Engdalen,6091,8,9.5522329,55.4575629
2114679,Engdalen,6091,9,9.5531462,55.4576667
2114683,Engdalen,6091,10,9.5522767,55.4573941
2114690,Engdalen,6091,11,9.5530115,55.4576657
2114699,Engdalen,6091,12,9.5522783,55.4573199
2114702,Engdalen,6091,13,9.5528163,55.4576622
2114708,Engdalen,6091,14,9.5524971,55.4572438
2114719,Engdalen,6091,15,9.5530476,55.4574759
2114727,Engdalen,6091,16,9.552652,55.4572471
2114733,Engdalen,6091,17,9.5530515,55.4573857
2114747,Engdalen,6091,19,9.5530341,55.4572531
2114752,Engdalen,6091,21,9.5528873,55.4572499
2189192,Oluf Ravns Vej,6091,18,9.587267,55.419554
2197882,Sønderbyvej,6091,16B,9.558565,55.460903
2197883,Sønderbyvej,6091,16C,9.558251,55.460783
2197884,Sønderbyvej,6091,16D,9.558058,55.460762
2197885,Sønderbyvej,6091,16E,9.557763,55.460686
2197886,Sønderbyvej,6091,16F,9.557573,55.460661
2197887,Sønderbyvej,6091,16G,9.557744,55.460425
2197888,Sønderbyvej,6091,16H,9.557937,55.460442
2197889,Sønderbyvej,6091,16K,9.558229,55.460455
2197890,Sønderbyvej,6091,16L,9.558438,55.46048
2197891,Gammel Bjært,6091,26A,9.562041,55.4527091
2197892,Gammel Bjært,6091,26B,9.5623479,55.4527249
2197893,Stenderupvej,6091,54A,9.555328,55.464199
2197894,Stenderupvej,6091,54B,9.555519,55.464165
2197895,Stenderupvej,6091,54C,9.555421,55.464158
2197896,Stenderupvej,6091,54D,9.555262,55.464073
2197897,Agtrup Midtskovvej,6091,38A,9.5705381,55.4787791
2213118,Gammel Bjært,6091,2,9.5563711,55.4530288
2223343,Abildvej,6091,3A,9.5619823,55.4591734
2223344,Abildvej,6091,11A,9.562172,55.458927
2223345,Abildvej,6091,27A,9.5622632,55.4584648
2224754,Vesterskovvej,6091,46A,9.530593,55.441357
2239035,Tårnmosevej,6091,14,9.570045,55.439242
2251558,Kjellerupvej,6091,20,9.557811,55.435517
2251602,Skamlingvejen,6091,119A,9.56877,55.420813
2251644,Østerløkke,6091,1C,9.560518,55.462343
