idx,street,postcode,housenumber,lon,lat
1485558,Tøndervej,6280,1,8.7045,54.9631343
1485559,Tøndervej,6280,2,8.7038951,54.9625666
1485560,Tøndervej,6280,3,8.7054539,54.9629748
1485561,Tøndervej,6280,4,8.704239,54.962568
1485562,Tøndervej,6280,5,8.7091856,54.9631276
1485564,Tøndervej,6280,6,8.70466,54.96256
1485567,Tøndervej,6280,7,8.7296613,54.9631299
1485568,Tøndervej,6280,8,8.7049882,54.9625873
1485569,Tøndervej,6280,10,8.7053942,54.9625883
1485571,Tøndervej,6280,11,8.7326917,54.9630737
1485573,Tøndervej,6280,12,8.7057534,54.9625981
1485575,Tøndervej,6280,13,8.7489352,54.9630184
1485577,Tøndervej,6280,14,8.706253,54.9626263
1485580,Tøndervej,6280,15,8.7710854,54.9569334
1485582,Tøndervej,6280,17,8.7733981,54.9566591
1534993,Stampemøllevej,6280,1,8.6642637,54.9878596
1534994,Stampemøllevej,6280,2,8.6604515,55.0043931
1534995,Stampemøllevej,6280,3,8.6637794,54.9878403
1534996,Stampemøllevej,6280,4,8.6587669,55.0168257
1534997,Stampemøllevej,6280,5,8.6646214,54.9880673
1534998,Stampemøllevej,6280,7,8.6643998,54.9884081
1534999,Stampemøllevej,6280,9,8.6642568,54.9886863
1535000,Stampemøllevej,6280,11A,8.6642068,54.9890546
1535001,Stampemøllevej,6280,11B,8.658714,55.000902
1535002,Stampemøllevej,6280,13,8.6573622,55.014665
1535003,Rudbølkogvej,6280,1,8.747701,54.9057266
1535004,Rudbølkogvej,6280,2,8.7368906,54.9012823
1535005,Nygade,6280,1,8.69335,54.9649759
1535006,Nygade,6280,2,8.6936937,54.9649677
1535007,Nygade,6280,3A,8.6936579,54.9655697
1535008,Nygade,6280,5,8.693704,54.9656687
1535009,Sønderhedevej,6280,1,8.7725004,54.9690588
1535010,Sønderhedevej,6280,2,8.7726125,54.9685648
1535011,Sønderhedevej,6280,3,8.7735476,54.9689529
1535012,Sønderhedevej,6280,4,8.7733777,54.9686111
1535013,Sønderhedevej,6280,5,8.7743284,54.9689903
1535014,Sønderhedevej,6280,6,8.7737848,54.9684411
1535015,Sønderhedevej,6280,7,8.7752663,54.9688752
1535016,Sønderhedevej,6280,8,8.7772705,54.9680072
1535017,Sønderhedevej,6280,9,8.7764854,54.9687427
1535018,Sønderhedevej,6280,10,8.7836672,54.966518
1535019,Sønderhedevej,6280,11,8.7769542,54.9687166
1535020,Sønderhedevej,6280,13,8.7830533,54.9673976
1535021,Sønderhedevej,6280,15,8.7927335,54.9651948
1535022,Sønderhedevej,6280,17,8.7950783,54.9648124
1535023,Sønderhedevej,6280,19,8.7960475,54.9646433
1535024,Toldgade,6280,1,8.6940362,54.9651214
1535025,Toldgade,6280,2,8.6940817,54.9653012
1535026,Toldgade,6280,3,8.6938798,54.9651479
1535027,Toldgade,6280,4,8.6942057,54.9654184
1535028,Toldgade,6280,5,8.6934261,54.9652367
1535029,Toldgade,6280,6,8.6938006,54.9652825
1535030,Toldgade,6280,8,8.693441,54.965354
1535031,Tværmarksvej,6280,2,8.7032894,54.9620979
1535032,Tværmarksvej,6280,2B,8.7032571,54.9622416
1535033,Stationsvej,6280,1,8.7538084,54.9578522
1535034,Stationsvej,6280,4,8.7514485,54.9581529
1535035,Kirkegårdsgade,6280,1,8.6981114,54.9632264
1535036,Kirkegårdsgade,6280,3,8.6981921,54.9628761
1535037,Kirkegårdsgade,6280,5,8.6977892,54.9624528
1535038,Margrethevej,6280,1,8.6919683,54.963876
1535039,Margrethevej,6280,3,8.6920759,54.9641099
1535040,Margrethevej,6280,5,8.6922928,54.9643352
1535041,Torvegade,6280,1,8.6969086,54.9632414
1535042,Torvegade,6280,3,8.6969545,54.9633673
1535043,Højer Dige,6280,1,8.7026308,54.9561112
1535044,Højer Dige,6280,2,8.6988684,54.958061
1535045,Højer Dige,6280,3,8.7153673,54.9370633
1535048,Kannikhusvej,6280,3,8.7101536,54.9458129
1535051,Kannikhusvej,6280,8,8.7470413,54.9462547
1535052,Kannikhusvej,6280,10,8.7394246,54.945969
1535053,Kannikhusvej,6280,12,8.7280654,54.9450455
1535054,Kannikhusvej,6280,14,8.7282916,54.9439226
1535055,Banegårdsgade,6280,1,8.6988306,54.9610355
1535056,Banegårdsgade,6280,2,8.6996232,54.9615587
1535057,Banegårdsgade,6280,4,8.6996081,54.9614867
1535058,Banegårdsgade,6280,6,8.699593,54.9614148
1535059,Banegårdsgade,6280,8,8.697854,54.961445
1535060,Banegårdsgade,6280,10,8.6979998,54.9614378
1535061,Banegårdsgade,6280,12,8.6981718,54.9614113
1535062,Banegårdsgade,6280,14,8.6983125,54.9614027
1535063,Banegårdsgade,6280,16,8.6984531,54.961385
1535064,Banegårdsgade,6280,18,8.698625,54.961376
1535065,Banegårdsgade,6280,20,8.6988126,54.96135
1535066,Banegårdsgade,6280,22,8.6989376,54.9613413
1535067,Banegårdsgade,6280,24,8.6990782,54.9613327
1535068,Banegårdsgade,6280,26,8.6992189,54.961324
1535069,Banegårdsgade,6280,28,8.6993752,54.9613064
1535070,Banegårdsgade,6280,30,8.6995318,54.9612529
1535071,Banegårdsgade,6280,32,8.6995013,54.961145
1535072,Klostervej,6280,2,8.7536723,54.900949
1535073,Klostervej,6280,4,8.753968,54.901031
1535074,Klostervej,6280,6,8.7544825,54.9010675
1535075,Lyst,6280,2,8.7678739,54.8990718
1535076,Lyst,6280,4,8.7685457,54.8988485
1535077,Lyst,6280,6,8.7696706,54.8984821
1535078,Skippergade,6280,1,8.6953985,54.9625996
1535079,Skippergade,6280,2,8.695444,54.962717
1535080,Skippergade,6280,3,8.6950076,54.9626615
1535081,Skippergade,6280,4,8.695632,54.962699
1535082,Kogsgade,6280,2,8.694792,54.962275
1535083,Kogsgade,6280,3,8.6952636,54.9618534
1535084,Kogsgade,6280,4,8.694626,54.9614833
1535085,Kogsgade,6280,6,8.6952195,54.9614848
1535086,Ternholm,6280,1,8.7031418,54.9609383
1535087,Ternholm,6280,3,8.7025949,54.9609729
1535088,Ternholm,6280,5,8.7020636,54.9610075
1535089,Ternholm,6280,7A,8.700486,54.961085
1535090,Ternholm,6280,7B,8.700486,54.9610486
1535091,Ternholm,6280,7C,8.7009066,54.9611934
1535092,Poppenbølvej,6280,1,8.7373367,54.9189869
1535093,Poppenbølvej,6280,2,8.7383274,54.9153764
1535094,Poppenbølvej,6280,4,8.738527,54.918271
1535095,Herbergsgade,6280,1,8.6990192,54.9629681
1535096,Herbergsgade,6280,3,8.6990044,54.9628512
1535097,Herbergsgade,6280,5,8.6989588,54.9626803
1535098,Herbergsgade,6280,7,8.6989285,54.9625634
1535099,Herbergsgade,6280,9,8.698883,54.9623836
1535100,Herbergsgade,6280,11,8.6987917,54.9620599
1535101,Strandmeden,6280,1,8.6911494,54.9647636
1535102,Strandmeden,6280,2,8.6909194,54.9641969
1535103,Strandmeden,6280,3,8.6910583,54.9644129
1535104,Strandmeden,6280,4,8.6912792,54.9641259
1535105,Strandmeden,6280,5,8.6914808,54.9643151
1535106,Peter Focksvej,6280,1,8.6919388,54.9616113
1535107,Peter Focksvej,6280,2A,8.692438,54.9616935
1535108,Peter Focksvej,6280,2B,8.693157,54.961587
1535109,Peter Focksvej,6280,2C,8.6923582,54.961909
1535110,Peter Focksvej,6280,3,8.6924011,54.9624303
1535111,A.R. Kjærbys Vej,6280,1,8.6939731,54.9610949
1535112,A.R. Kjærbys Vej,6280,2,8.6920361,54.9611418
1535113,A.R. Kjærbys Vej,6280,4,8.6916819,54.9604852
1535114,A.R. Kjærbys Vej,6280,4A,8.6919761,54.9608138
1535115,A.R. Kjærbys Vej,6280,6,8.69159,54.9602549
1535116,A.R. Kjærbys Vej,6280,7,8.692047,54.959653
1535117,A.R. Kjærbys Vej,6280,8,8.691313,54.9597136
1535118,A.R. Kjærbys Vej,6280,11,8.693559,54.95978
1535119,Ved Gamle Dige,6280,1,8.6972493,54.9615528
1535120,Ved Gamle Dige,6280,2,8.6971845,54.9618582
1535121,Ved Gamle Dige,6280,3,8.6967354,54.9613628
1535122,Ved Gamle Dige,6280,6,8.6962489,54.9616671
1535123,Ved Gamle Dige,6280,8,8.696015,54.961676
1535124,Ved Gamle Dige,6280,10,8.695578,54.961603
1535125,Ballumvej,6280,1,8.6944142,54.9647089
1535126,Ballumvej,6280,2,8.6946957,54.9646557
1535127,Ballumvej,6280,3,8.6944911,54.9648619
1535128,Ballumvej,6280,4,8.6948035,54.9648537
1535129,Ballumvej,6280,5,8.6945682,54.9649879
1535130,Ballumvej,6280,6,8.6948965,54.9649528
1535131,Ballumvej,6280,7,8.6946608,54.9651409
1535132,Ballumvej,6280,8,8.6949426,54.9650518
1535133,Ballumvej,6280,9,8.694707,54.9652219
1535134,Ballumvej,6280,10,8.6950352,54.9652048
1535135,Ballumvej,6280,11,8.6947531,54.9653209
1535136,Ballumvej,6280,12,8.695112,54.9653667
1535137,Ballumvej,6280,13,8.6948458,54.9654559
1535138,Ballumvej,6280,14,8.6952825,54.9655469
1535139,Ballumvej,6280,16,8.6953907,54.9656909
1535140,Ballumvej,6280,17,8.694359,54.9657962
1535141,Ballumvej,6280,18,8.6954677,54.9658439
1535142,Ballumvej,6280,19,8.6943264,54.9659758
1535143,Ballumvej,6280,20,8.6955604,54.9659699
1535144,Ballumvej,6280,21,8.6946227,54.9660395
1535145,Ballumvej,6280,22,8.6957314,54.9660872
1535146,Ballumvej,6280,23,8.6948734,54.9659413
1535147,Ballumvej,6280,25,8.695106,54.9661575
1535148,Ballumvej,6280,26,8.695838,54.9664379
1535149,Ballumvej,6280,27,8.695214,54.966373
1535150,Ballumvej,6280,28,8.6959462,54.9666
1535151,Ballumvej,6280,29,8.6952438,54.9665263
1535152,Ballumvej,6280,30,8.6960856,54.9667531
1535153,Ballumvej,6280,31,8.6955382,54.9668416
1535154,Ballumvej,6280,32,8.6962095,54.9668882
1535155,Ballumvej,6280,33,8.695288,54.9668859
1535156,Ballumvej,6280,35,8.6950221,54.9669301
1535157,Ballumvej,6280,36,8.6963633,54.9672121
1535158,Ballumvej,6280,37,8.6957242,54.9670397
1535159,Ballumvej,6280,38,8.6964711,54.9674101
1535160,Ballumvej,6280,39,8.6958168,54.9671838
1535161,Ballumvej,6280,40,8.6965947,54.9675991
1535162,Ballumvej,6280,41,8.6958938,54.9673277
1535163,Ballumvej,6280,42,8.6967026,54.9677881
1535164,Ballumvej,6280,43,8.6960925,54.9679034
1535165,Ballumvej,6280,44,8.6968106,54.9679681
1535166,Ballumvej,6280,45,8.6957641,54.9679565
1535167,Ballumvej,6280,46,8.6969186,54.9681481
1535168,Ballumvej,6280,47,8.6963411,54.9680747
1535169,Ballumvej,6280,48,8.697011,54.968319
1535170,Ballumvej,6280,49,8.6964338,54.9682187
1535171,Ballumvej,6280,50,8.6971345,54.9685081
1535172,Ballumvej,6280,51,8.6965108,54.9683627
1535173,Ballumvej,6280,52,8.6971498,54.968553
1535174,Ballumvej,6280,53,8.6965399,54.9686414
1535175,Ballumvej,6280,54,8.6972732,54.968769
1535176,Ballumvej,6280,55,8.696227,54.968695
1535177,Ballumvej,6280,56,8.697304,54.968823
1535178,Ballumvej,6280,57,8.696773,54.9688127
1535179,Ballumvej,6280,58,8.6974274,54.96903
1535180,Ballumvej,6280,59,8.69685,54.9689567
1535181,Ballumvej,6280,60,8.6974582,54.969084
1535182,Ballumvej,6280,61,8.6969426,54.9691007
1535183,Ballumvej,6280,62,8.6975817,54.969282
1535184,Ballumvej,6280,63,8.6970186,54.9693884
1535185,Ballumvej,6280,64,8.6976125,54.969336
1535186,Ballumvej,6280,65,8.6967527,54.9694237
1535187,Ballumvej,6280,66,8.6977516,54.9695341
1535188,Ballumvej,6280,67,8.6972358,54.9695777
1535189,Ballumvej,6280,68,8.6977669,54.969588
1535190,Ballumvej,6280,69,8.6973127,54.9697397
1535191,Ballumvej,6280,70,8.6978906,54.9697501
1535192,Ballumvej,6280,71,8.6974054,54.9698837
1535193,Ballumvej,6280,72,8.6979214,54.9698131
1535194,Ballumvej,6280,73,8.6975904,54.9702076
1535195,Ballumvej,6280,74,8.6980138,54.969993
1535196,Ballumvej,6280,75,8.6976827,54.9703966
1535197,Ballumvej,6280,76,8.6980445,54.970056
1535198,Ballumvej,6280,77,8.6981887,54.9716649
1535199,Ballumvej,6280,78,8.6981527,54.970218
1535200,Ballumvej,6280,79,8.698202,54.971962
1535201,Ballumvej,6280,80,8.6981991,54.970281
1535202,Ballumvej,6280,81,8.6987698,54.9733379
1535203,Ballumvej,6280,82,8.698689,54.9716123
1535204,Ballumvej,6280,83,8.6988309,54.9735267
1535205,Ballumvej,6280,84,8.6986709,54.9719357
1535206,Lystvej,6280,1,8.7543917,54.900609
1535207,Lystvej,6280,2,8.7542374,54.9003301
1535208,Lystvej,6280,3,8.7545014,54.9005194
1535209,Lystvej,6280,4,8.7546747,54.9002321
1535210,Lystvej,6280,5,8.7547664,54.9005379
1535211,Lystvej,6280,7,8.7549223,54.9005472
1535212,Østerbyvej,6280,1,8.7661243,54.964176
1535213,Østerbyvej,6280,2,8.7663524,54.9625409
1535214,Østerbyvej,6280,3,8.7667991,54.9663071
1535215,Østerbyvej,6280,4,8.7673947,54.9632529
1535216,Østerbyvej,6280,5,8.7672977,54.9665327
1535217,Østerbyvej,6280,6,8.766425,54.963548
1535218,Østerbyvej,6280,7,8.7677102,54.9681241
1535219,Østerbyvej,6280,8,8.7667497,54.9640514
1535220,Østerbyvej,6280,9,8.7681111,54.9690415
1535221,Østerbyvej,6280,10,8.767203,54.9639984
1535222,Østerbyvej,6280,11,8.7685317,54.971945
1535223,Østerbyvej,6280,12,8.767279,54.964367
1535224,Østerbyvej,6280,13,8.7677331,54.9749899
1535225,Østerbyvej,6280,14,8.7672448,54.9648791
1535226,Østerbyvej,6280,15,8.7677462,54.9754302
1535227,Østerbyvej,6280,16,8.7676933,54.9656438
1535228,Østerbyvej,6280,17,8.7676283,54.9768948
1535229,Østerbyvej,6280,18,8.768033,54.966283
1535230,Østerbyvej,6280,19,8.767136,54.978197
1535231,Østerbyvej,6280,19A,8.767083,54.979825
1535232,Østerbyvej,6280,20,8.767919,54.967154
1535233,Østerbyvej,6280,21,8.7667889,54.9869401
1535234,Østerbyvej,6280,22,8.7682899,54.9678197
1535235,Østerbyvej,6280,24,8.768696,54.967803
1535236,Østerbyvej,6280,26,8.7685531,54.9682336
1535237,Østerbyvej,6280,28,8.7685671,54.9685122
1535238,Østerbyvej,6280,30,8.7685774,54.9694378
1535239,Østerbyvej,6280,32,8.7686541,54.9696806
1535240,Østerbyvej,6280,34,8.7688395,54.9700404
1535241,Østerbyvej,6280,34A,8.7694184,54.9698887
1535242,Østerbyvej,6280,36,8.7696653,54.9704104
1535243,Østerbyvej,6280,38,8.769019,54.971506
1535244,Østerbyvej,6280,40,8.7693566,54.9724947
1535245,Østerbyvej,6280,42,8.7684402,54.9770042
1535246,Østerbyvej,6280,44,8.7682449,54.9783608
1535247,Østerbyvej,6280,46,8.7677535,54.979582
1535248,Østerbyvej,6280,48,8.7678749,54.9802023
1535249,Østerbyvej,6280,50,8.767186,54.985845
1535250,Østerbyvej,6280,52,8.768433,54.987678
1535251,Østerbyvej,6280,54,8.7683762,54.9881113
1535252,Østerbyvej,6280,56,8.7687616,54.9890377
1535253,Østerbyvej,6280,56B,8.7684678,54.9884979
1535254,Møgeltøndervej,6280,1,8.753177,54.902907
1535255,Møgeltøndervej,6280,1A,8.752028,54.902366
1535256,Møgeltøndervej,6280,2,8.752168,54.90215
1535257,Møgeltøndervej,6280,3,8.7534256,54.9030334
1535258,Møgeltøndervej,6280,4,8.7523699,54.9022584
1535259,Møgeltøndervej,6280,7,8.7539389,54.9032591
1535260,Møgeltøndervej,6280,9,8.7541094,54.9034212
1535261,Møgeltøndervej,6280,11,8.7543112,54.9035834
1535262,Møgeltøndervej,6280,13,8.7546224,54.9036919
1535263,Østergade,6280,2,8.6992888,54.9624116
1535264,Østergade,6280,3,8.6995372,54.9626189
1535265,Østergade,6280,4,8.699491,54.9625289
1535266,Østergade,6280,5,8.6997091,54.9626013
1535267,Østergade,6280,7,8.6998967,54.9625838
1535268,Østergade,6280,9,8.7002708,54.9626746
1535269,Østergade,6280,10,8.6998505,54.9624938
1535270,Østergade,6280,18,8.700617,54.962334
1535271,Havnevej,6280,2,8.6912853,54.9551843
1535272,Havnevej,6280,4,8.6916759,54.9551583
1535273,Havnevej,6280,6,8.6908787,54.9552642
1535274,Havnevej,6280,8A,8.6902391,54.9551727
1535275,Havnevej,6280,8B,8.6904247,54.9554068
1535276,Havnevej,6280,10,8.6889868,54.9555739
1535277,Havnevej,6280,12,8.6882682,54.955608
1535278,Mellemgade,6280,1,8.696279,54.962761
1535279,Mellemgade,6280,1A,8.695866,54.962727
1535280,Mellemgade,6280,1B,8.695881,54.962808
1535281,Mellemgade,6280,1C,8.695896,54.962888
1535282,Mellemgade,6280,2,8.696098,54.963087
1535283,Mellemgade,6280,4,8.6961889,54.9634103
1535284,Mellemgade,6280,5,8.6959863,54.9633559
1535285,Mellemgade,6280,6,8.6962035,54.9635452
1535286,Mellemgade,6280,7,8.6960001,54.9635986
1535287,Mellemgade,6280,8,8.6962337,54.963689
1535288,Klostergade,6280,1,8.699227,54.96234
1535289,Klostergade,6280,2,8.6990704,54.9623841
1535290,Klostergade,6280,3,8.699149,54.962249
1535291,Klostergade,6280,5,8.6990882,54.9620876
1535292,Klostergade,6280,7,8.699042,54.9619976
1535293,Klostergade,6280,9,8.6989806,54.9618536
1535294,Buen,6280,2,8.7008242,54.9638712
1535295,Buen,6280,4,8.7009789,54.9640692
1535296,Buen,6280,5,8.7005252,54.964176
1535297,Buen,6280,6,8.7011174,54.9643482
1535298,Buen,6280,7,8.7006798,54.964392
1535299,Buen,6280,8,8.7012411,54.9645192
1535300,Buen,6280,9,8.7007253,54.9645719
1535301,Buen,6280,11,8.7009116,54.9647251
1535302,Buen,6280,13,8.7010508,54.9649052
1535303,Agertoften,6280,1,8.7071508,54.961577
1535304,Agertoften,6280,2,8.7071215,54.9613163
1535305,Agertoften,6280,3,8.7075564,54.9616499
1535306,Agertoften,6280,4,8.7075899,54.9613354
1535307,Agertoften,6280,5,8.7079935,54.9616689
1535308,Agertoften,6280,6,8.707996,54.9613274
1535309,Agertoften,6280,7,8.7084625,54.9616071
1535310,Agertoften,6280,8,8.7084176,54.9613464
1535311,Agertoften,6280,9,8.7088994,54.9616711
1535312,Agertoften,6280,10,8.7088235,54.9613564
1535313,Postgade,6280,1,8.6958767,54.9633826
1535314,Postgade,6280,3,8.6955641,54.9634178
1535315,Postgade,6280,4A,8.6955945,54.9635257
1535316,Postgade,6280,4B,8.6954539,54.9635343
1535317,Postgade,6280,5,8.6953922,54.9634353
1535318,Postgade,6280,6,8.6953288,54.963552
1535319,Postgade,6280,7,8.695142,54.9634706
1535320,Postgade,6280,8,8.695141,54.96357
1535321,Postgade,6280,9,8.6946887,54.9635234
1535322,Postgade,6280,10,8.6948755,54.9635958
1535323,Postgade,6280,11,8.6945636,54.9635411
1535324,Postgade,6280,12,8.6946254,54.9636221
1535325,Postgade,6280,14,8.6944691,54.9636487
1535326,Torvet,6280,1,8.6973787,54.9630359
1535327,Torvet,6280,3,8.6972128,54.9622536
1535328,Torvet,6280,4,8.6970566,54.9622622
1535329,Torvet,6280,5,8.6969003,54.9622708
1535330,Torvet,6280,6A,8.6968514,54.9625403
1535331,Torvet,6280,6B,8.6968208,54.9624594
1535332,Torvet,6280,6C,8.6966335,54.9624499
1535333,Torvet,6280,6D,8.6966019,54.9624948
1535334,Torvet,6280,7,8.6968508,54.9626302
1535335,Torvet,6280,8,8.6968031,54.9627379
1535336,Torvet,6280,9,8.6968022,54.9628547
1535337,Prilen,6280,1,8.7019999,54.9632899
1535338,Prilen,6280,2,8.7025289,54.9635698
1535339,Prilen,6280,3,8.702013,54.9636314
1535340,Prilen,6280,4,8.7024652,54.9637314
1535341,Prilen,6280,5,8.7019647,54.963829
1535342,Prilen,6280,6,8.7024016,54.963884
1535343,Prilen,6280,7,8.701901,54.9639906
1535344,Prilen,6280,8,8.7023379,54.9640456
1535345,Prilen,6280,9,8.7016967,54.9641609
1535346,Prilen,6280,10,8.7022587,54.9641982
1535347,Prilen,6280,11,8.7017264,54.9643676
1535348,Prilen,6280,12,8.702195,54.9643598
1535349,Prilen,6280,13,8.7016149,54.9646549
1535350,Prilen,6280,14,8.7021314,54.9645124
1535351,Prilen,6280,15,8.7014248,54.9650229
1535352,Prilen,6280,16,8.7022083,54.9646744
1535353,Prilen,6280,17,8.7012829,54.9651933
1535354,Prilen,6280,18,8.7019885,54.9648266
1535355,Prilen,6280,19,8.7012504,54.965373
1535356,Prilen,6280,20,8.702081,54.9649886
1535357,Prilen,6280,21,8.7012331,54.9655976
1535358,Prilen,6280,22,8.7018458,54.9651228
1535359,Prilen,6280,23,8.7011375,54.965849
1535360,Prilen,6280,24,8.70186,54.9653026
1535361,Prilen,6280,25,8.7009641,54.9660642
1535362,Prilen,6280,26,8.7017029,54.965437
1535363,Prilen,6280,27,8.7007586,54.9663872
1535364,Prilen,6280,28,8.7017173,54.9655898
1535365,Prilen,6280,29,8.70118,54.9664332
1535366,Prilen,6280,30,8.701638,54.9657603
1535367,Prilen,6280,31,8.7014764,54.9664878
1535368,Prilen,6280,32,8.7015744,54.965904
1535369,Prilen,6280,34,8.7015109,54.9660476
1535370,Prilen,6280,36,8.7015564,54.9662274
1535371,Møllegade,6280,1,8.6925229,54.962844
1535372,Møllegade,6280,2A,8.6927568,54.9628895
1535373,Møllegade,6280,2B,8.6927404,54.9629883
1535374,Møllegade,6280,3,8.6925845,54.962952
1535375,Møllegade,6280,4,8.692863,54.9633031
1535376,Møllegade,6280,5,8.692584,54.9630149
1535377,Møllegade,6280,6,8.6929091,54.9634021
1535378,Møllegade,6280,7,8.6925988,54.9631227
1535379,Møllegade,6280,8,8.6929394,54.963519
1535380,Møllegade,6280,9,8.6928754,54.9637166
1535381,Møllegade,6280,10,8.6931721,54.9637263
1535382,Møllegade,6280,11,8.6928273,54.9638872
1535383,Møllegade,6280,12,8.693139,54.9639688
1535384,Møllegade,6280,13,8.6929974,54.9641033
1535385,Nørremølle,6280,1,8.7152998,54.9267286
1535386,Nørremølle,6280,2,8.7121181,54.9265144
1535387,Nørremølle,6280,3,8.71112,54.92554
1535388,Nørremølle,6280,4,8.7085887,54.9225789
1535389,Nørremølle,6280,5,8.7083929,54.9237646
1535390,Nørremølle,6280,6,8.7087483,54.922085
1535391,Nørremølle,6280,7,8.7091421,54.9215737
1535392,Nørremølle,6280,8,8.7087432,54.9206292
1535393,Nørremølle,6280,9,8.7093334,54.921008
1535394,Nørremølle,6280,10,8.7078367,54.9208606
1535395,Nørremølle,6280,11,8.7098061,54.9203621
1535396,Nørremølle,6280,12,8.7091363,54.9202077
1535397,Nørremølle,6280,14,8.7094663,54.919885
1535398,Kovej,6280,1,8.6979335,54.9619589
1535399,Kovej,6280,2,8.6986692,54.961736
1535400,Kovej,6280,3,8.6981209,54.9619504
1535401,Kovej,6280,4,8.699606,54.961491
1535402,Kovej,6280,4A,8.6989664,54.9616739
1535403,Kovej,6280,4B,8.699107,54.9616652
1535404,Kovej,6280,5,8.6983711,54.961915
1535405,Kovej,6280,5A,8.6990901,54.9618359
1535406,Kovej,6280,6,8.699594,54.961416
1535407,Kovej,6280,6A,8.6992945,54.9616567
1535408,Kovej,6280,6B,8.6994195,54.961648
1535409,Kovej,6280,7,8.6992619,54.9618364
1535410,Kovej,6280,8,8.6999818,54.9616404
1535411,Kovej,6280,9,8.6994645,54.9618908
1535412,Kovej,6280,11,8.6996833,54.9618733
1535413,Kovej,6280,15,8.7000105,54.961973
1535414,Kovej,6280,17,8.700229,54.961974
1535415,Kovej,6280,19,8.7000248,54.9621618
1535416,Ved Gaden,6280,1,8.7259356,54.9253691
1535417,Ved Gaden,6280,2,8.7203699,54.9291667
1535418,Ved Gaden,6280,3,8.7264453,54.9238336
1535419,Ved Gaden,6280,4,8.7280029,54.9196223
1535420,Ved Gaden,6280,5,8.7273759,54.9223618
1535421,Ved Gaden,6280,6,8.7421369,54.9124549
1535422,Ved Gaden,6280,7,8.7351721,54.9160166
1535423,Ved Gaden,6280,9,8.7373282,54.915509
1535424,Ved Gaden,6280,11,8.7388462,54.9147664
1535425,Ved Gaden,6280,13,8.7398153,54.9144719
1535426,Ved Gaden,6280,15,8.7413178,54.9136933
1535427,Ved Gaden,6280,17,8.7431797,54.9128256
1535428,Østerende,6280,1,8.7011016,54.9622722
1535429,Østerende,6280,2,8.7005373,54.9625494
1535430,Østerende,6280,3,8.7011374,54.9616523
1535431,Østerende,6280,4,8.7006192,54.9620374
1535432,Østerende,6280,5,8.7016047,54.9618152
1535433,Østerende,6280,7,8.7017945,54.9615011
1535434,Østerende,6280,9,8.7020113,54.9617443
1535435,Østerende,6280,10,8.7020459,54.961295
1535436,Østerende,6280,11,8.7019965,54.9616364
1535437,Østerende,6280,12,8.7022962,54.9612327
1535438,Østerende,6280,13,8.7022635,54.9614304
1535439,Østerende,6280,13B,8.7025442,54.961494
1535440,Østerende,6280,14,8.70264,54.9612066
1535441,Østerende,6280,15,8.7028381,54.9618721
1535442,Østerende,6280,16,8.7042193,54.9609499
1535443,Østerende,6280,18,8.7053489,54.9602517
1535444,Østerende,6280,19,8.703295,54.961343
1535445,Klintvej,6280,1,8.7056157,54.9622114
1535446,Klintvej,6280,2,8.7039453,54.9621085
1535447,Klintvej,6280,3,8.7056642,54.9619868
1535448,Klintvej,6280,4,8.7043823,54.9621455
1535449,Klintvej,6280,5,8.7057446,54.9616635
1535450,Klintvej,6280,6,8.7050226,54.962156
1535451,Klintvej,6280,9,8.7056378,54.9613128
1535452,Klintvej,6280,10,8.705182,54.9617071
1535453,Klintvej,6280,11,8.7056392,54.9611241
1535454,Klintvej,6280,12,8.7047761,54.9616881
1535455,Klintvej,6280,13,8.7056096,54.9609083
1535456,Klintvej,6280,14,8.7044016,54.9616423
1535457,Klintvej,6280,15,8.705187,54.9610241
1535458,Klintvej,6280,16,8.7039955,54.9616503
1535459,Klintvej,6280,17,8.7051373,54.9614194
1535460,Klintvej,6280,19,8.704747,54.961392
1535461,Klintvej,6280,21,8.704341,54.9614
1535462,Klintvej,6280,23,8.7039506,54.9613806
1535463,Slusevej,6280,1,8.6951638,54.960595
1535464,Slusevej,6280,3,8.6949007,54.9602708
1535465,Slusevej,6280,3B,8.6957938,54.9598956
1535466,Slusevej,6280,4,8.6941987,54.9601792
1535467,Slusevej,6280,5,8.6949811,54.9599745
1535468,Slusevej,6280,7,8.6947954,54.9597493
1535469,Slusevej,6280,8,8.6829577,54.957751
1535470,Slusevej,6280,9,8.694859,54.9595967
1535471,Slusevej,6280,10,8.6627334,54.9634749
1535472,Slusevej,6280,11,8.694767,54.9593718
1535473,Slusevej,6280,12,8.6624997,54.9634024
1535474,Slusevej,6280,13,8.6953765,54.9593194
1535475,Slusevej,6280,14,8.6625298,54.9635463
1535476,Slusevej,6280,15,8.6946597,54.959102
1535477,Slusevej,6280,17,8.6951149,54.9587976
1535478,Slusevej,6280,19,8.6945527,54.9588051
1535479,Slusevej,6280,21,8.6943679,54.9584632
1535480,Slusevej,6280,23,8.6942444,54.9582652
1535481,Slusevej,6280,25,8.6832135,54.9569968
1535482,Slusevej,6280,25B,8.680985,54.9524708
1535483,Slusevej,6280,27,8.6625823,54.9628724
1535484,Nørregade,6280,1A,8.7029112,54.9625553
1535485,Nørregade,6280,1B,8.7023177,54.9625538
1535486,Nørregade,6280,1C,8.7020678,54.9625532
1535487,Nørregade,6280,2,8.7020348,54.9627958
1535488,Nørregade,6280,3,8.7012708,54.9626231
1535489,Nørregade,6280,4,8.7019245,54.9629213
1535490,Nørregade,6280,5,8.7003629,54.9628905
1535491,Nørregade,6280,6,8.7017681,54.9629569
1535492,Nørregade,6280,7,8.700018,54.963007
1535493,Nørregade,6280,8,8.7015342,54.9629024
1535494,Nørregade,6280,9,8.6997995,54.9630509
1535495,Nørregade,6280,10,8.701236,54.9630993
1535496,Nørregade,6280,11,8.6995491,54.9631132
1535497,Nørregade,6280,12,8.700814,54.9631432
1535498,Nørregade,6280,13,8.6992518,54.9631843
1535499,Nørregade,6280,14,8.7006727,54.9632417
1535500,Nørregade,6280,15,8.6991111,54.9632019
1535501,Nørregade,6280,16,8.7004086,54.9630524
1535502,Nørregade,6280,17,8.6987671,54.963255
1535503,Nørregade,6280,18,8.7003287,54.9632858
1535504,Nørregade,6280,20,8.7000944,54.9632942
1535505,Nørregade,6280,22,8.6999067,54.9633297
1535506,Nørregade,6280,23,8.6975006,54.9634496
1535507,Nørregade,6280,24,8.6996562,54.96341
1535508,Nørregade,6280,25,8.696953,54.963574
1535509,Nørregade,6280,26,8.6991715,54.9634897
1535510,Nørregade,6280,27,8.6964836,54.9636807
1535511,Nørregade,6280,28,8.6985626,54.9634522
1535512,Nørregade,6280,29,8.6959831,54.9637783
1535513,Nørregade,6280,30,8.6984676,54.9636227
1535514,Nørregade,6280,32,8.698327,54.963649
1535515,Nørregade,6280,33,8.69553,54.96384
1535516,Nørregade,6280,34,8.698078,54.963514
1535517,Nørregade,6280,35,8.695248,54.963902
1535518,Nørregade,6280,36,8.697546,54.963611
1535519,Nørregade,6280,37,8.69495,54.964018
1535520,Nørregade,6280,38,8.696295,54.963896
1535521,Nørregade,6280,38A,8.69674,54.964061
1535522,Nørregade,6280,38B,8.69674,54.964042
1535523,Nørregade,6280,39,8.694591,54.96408
1535524,Nørregade,6280,40,8.696889,54.963736
1535525,Nørregade,6280,41,8.69434,54.96407
1535526,Nørregade,6280,41A,8.694403,54.964098
1535527,Nørregade,6280,41B,8.694278,54.96408
1535528,Nørregade,6280,42,8.695263,54.964055
1535529,Nørregade,6280,46,8.6951217,54.9640907
1535530,Nørregade,6280,48,8.6949651,54.9641442
1535531,Nørregade,6280,50,8.6948556,54.9641709
1535532,Nørregade,6280,52,8.69473,54.964189
1535533,Siltoftvej,6280,1A,8.6928596,54.9555567
1535534,Siltoftvej,6280,1B,8.6907437,54.950465
1535535,Siltoftvej,6280,2,8.6824944,54.9551167
1535536,Siltoftvej,6280,3,8.6924165,54.9501907
1535537,Siltoftvej,6280,4,8.6856342,54.9549631
1535538,Siltoftvej,6280,5,8.689225,54.946902
1535539,Siltoftvej,6280,6,8.6860561,54.9549373
1535540,Siltoftvej,6280,7,8.6792732,54.9262525
1535541,Siltoftvej,6280,8,8.6913883,54.9539624
1535542,Siltoftvej,6280,9,8.6752445,54.9169137
1535543,Siltoftvej,6280,10,8.6912982,54.9534949
1535544,Siltoftvej,6280,12,8.6912057,54.9533419
1535545,Siltoftvej,6280,14,8.6911446,54.953171
1535546,Siltoftvej,6280,16,8.6910365,54.9530089
1535547,Siltoftvej,6280,18,8.6909127,54.9528648
1535548,Siltoftvej,6280,20,8.6908515,54.9527029
1535549,Siltoftvej,6280,22,8.6908529,54.9525232
1535550,Siltoftvej,6280,24,8.690682,54.9524059
1535551,Siltoftvej,6280,26,8.6906678,54.9522262
1535552,Siltoftvej,6280,28,8.6905442,54.9520461
1535553,Siltoftvej,6280,30,8.6905611,54.9518844
1535554,Siltoftvej,6280,32,8.6904532,54.9517044
1535555,Siltoftvej,6280,34,8.689656,54.9518192
1535556,Siltoftvej,6280,36,8.6900966,54.951371
1535557,Siltoftvej,6280,38,8.6896544,54.9500039
1535558,Siltoftvej,6280,40,8.672323,54.9327941
1535559,Siltoftvej,6280,42,8.6840646,54.9380823
1535560,Siltoftvej,6280,44,8.6810268,54.9314154
1535561,Siltoftvej,6280,46,8.6762704,54.9212659
1535562,Siltoftvej,6280,48,8.6753945,54.9196011
1535563,Siltoftvej,6280,48A,8.6748755,54.9201119
1535564,Siltoftvej,6280,50,8.669266,54.911578
1535565,Storegade,6280,1,8.6965207,54.9629079
1535566,Storegade,6280,2,8.6967389,54.9629714
1535567,Storegade,6280,3,8.696364,54.962926
1535568,Storegade,6280,4,8.6964575,54.9629976
1535569,Storegade,6280,6,8.6963012,54.9630152
1535570,Storegade,6280,7,8.696133,54.962891
1535571,Storegade,6280,7A,8.6961924,54.9629431
1535572,Storegade,6280,7B,8.6960987,54.9629428
1535573,Storegade,6280,8,8.6961449,54.9630328
1535574,Storegade,6280,9,8.6955993,54.9628966
1535575,Storegade,6280,10,8.695899,54.963057
1535576,Storegade,6280,11,8.6954276,54.9628782
1535577,Storegade,6280,12,8.6955359,54.9630133
1535578,Storegade,6280,13,8.6952245,54.9628957
1535579,Storegade,6280,14,8.6954111,54.963004
1535580,Storegade,6280,15,8.6951001,54.9628145
1535581,Storegade,6280,16,8.6953018,54.9629947
1535582,Storegade,6280,17,8.6948498,54.9628678
1535583,Storegade,6280,18A,8.6952237,54.9629946
1535584,Storegade,6280,18B,8.69513,54.9629943
1535585,Storegade,6280,20,8.6950052,54.962976
1535586,Storegade,6280,21,8.694631,54.9628942
1535587,Storegade,6280,22,8.6948333,54.9629936
1535588,Storegade,6280,23,8.6944121,54.9629206
1535589,Storegade,6280,24,8.6946144,54.96302
1535590,Storegade,6280,26,8.6943327,54.9630912
1535591,Storegade,6280,27,8.6935212,54.9630082
1535592,Storegade,6280,28,8.6937079,54.9631076
1535593,Storegade,6280,29,8.6933177,54.9630706
1535594,Storegade,6280,30B,8.6933947,54.9632056
1535595,Storegade,6280,31,8.6931144,54.9631061
1535596,Storegade,6280,32,8.692988,54.963277
1535597,Storegade,6280,33,8.6928328,54.9631593
1535598,Storegade,6280,35,8.6924259,54.9632661
1535599,Storegade,6280,37,8.6922695,54.9632927
1535600,Rudbølvej,6280,1,8.7485552,54.9087928
1535601,Rudbølvej,6280,2,8.7479705,54.9075245
1535602,Rudbølvej,6280,3,8.7487526,54.9071577
1535603,Rudbølvej,6280,4,8.748269,54.9071657
1535604,Rudbølvej,6280,4B,8.7483177,54.9068602
1535605,Rudbølvej,6280,5,8.7494983,54.9051103
1535606,Rudbølvej,6280,6,8.7485842,54.9066451
1535607,Rudbølvej,6280,7,8.7499046,54.9049853
1535608,Rudbølvej,6280,8,8.7491584,54.9045973
1535609,Rudbølvej,6280,9,8.7502941,54.905049
1535610,Rudbølvej,6280,10,8.7501941,54.903575
1535611,Rudbølvej,6280,11,8.7500651,54.9042577
1535612,Rudbølvej,6280,13,8.7523575,54.9017372
1535613,Rudbølvej,6280,14,8.7509812,54.9023904
1535614,Rudbølvej,6280,15,8.7525764,54.9016388
1535615,Rudbølvej,6280,15B,8.75292,54.901613
1535616,Rudbølvej,6280,16,8.7512009,54.9021572
1535617,Rudbølvej,6280,17,8.7535923,54.9012814
1535618,Rudbølvej,6280,18,8.7515763,54.9019782
1535619,Rudbølvej,6280,19,8.7537208,54.9006706
1535620,Rudbølvej,6280,20,8.7521867,54.901611
1535621,Rudbølvej,6280,21,8.753893,54.9005541
1535622,Rudbølvej,6280,22,8.7525002,54.9013511
1535623,Rudbølvej,6280,23,8.7536757,54.9003829
1535624,Rudbølvej,6280,24,8.7526897,54.900974
1535625,Rudbølvej,6280,26,8.752815,54.900822
1535626,Rudbølvej,6280,27,8.7535359,54.9003017
1535627,Rudbølvej,6280,28,8.753519,54.900454
1535628,Rudbølvej,6280,29,8.7528369,54.899851
1535629,Rudbølvej,6280,30,8.7533639,54.9003733
1535630,Rudbølvej,6280,32,8.7531925,54.900346
1535631,Rudbølvej,6280,34,8.7530055,54.9003276
1535632,Rudbølvej,6280,36,8.7527875,54.9002732
1535633,Rudbølvej,6280,40,8.7517798,54.8993186
1535634,Rudbølvej,6280,42,8.7515938,54.8991295
1535635,Rudbølvej,6280,44,8.7500005,54.8970683
1535636,Rudbølvej,6280,46,8.7492557,54.8964737
1535637,Rudbølvej,6280,48,8.7498194,54.8960884
1535638,Rudbølvej,6280,50,8.749915,54.8957651
1535639,Rudbølvej,6280,52,8.7501443,54.8965025
1535640,Skolegade,6280,1,8.694031,54.962846
1535641,Skolegade,6280,2,8.6944251,54.9632711
1535642,Skolegade,6280,3,8.6940664,54.9631983
1535643,Skolegade,6280,4,8.6942059,54.9633425
1535644,Skolegade,6280,5,8.6939716,54.9633419
1535645,Skolegade,6280,6,8.6941418,54.963549
1535646,Skolegade,6280,7A,8.6934874,54.9633407
1535647,Skolegade,6280,7B,8.6935026,54.9633946
1535648,Skolegade,6280,7C,8.6935178,54.9634486
1535649,Skolegade,6280,7D,8.693517,54.963503
1535650,Skolegade,6280,8,8.694297,54.963887
1535651,Skolegade,6280,8A,8.6941241,54.9638275
1535652,Skolegade,6280,8B,8.694155,54.963882
1535653,Skolegade,6280,8C,8.694186,54.963936
1535654,Skolegade,6280,8D,8.6942165,54.9639985
1535655,Skolegade,6280,10,8.694518,54.964305
1535656,Skolegade,6280,10A,8.6944797,54.9643047
1535657,Skolegade,6280,10B,8.6945254,54.9644576
1535658,Skolegade,6280,10C,8.6945572,54.9643858
1535659,Skolegade,6280,13,8.69386,54.9636382
1535660,Skolegade,6280,15,8.6938551,54.9642852
1535661,Skolegade,6280,17,8.6942911,54.964457
1535662,Hvedemarken,6280,1,8.7064694,54.9607936
1535663,Hvedemarken,6280,2,8.7070306,54.9609297
1535664,Hvedemarken,6280,3,8.7065454,54.9610813
1535665,Hvedemarken,6280,4,8.7070064,54.9621069
1535666,Hvedemarken,6280,5,8.706591,54.9612522
1535667,Hvedemarken,6280,6,8.7074748,54.962126
1535668,Hvedemarken,6280,7,8.7065892,54.9614948
1535669,Hvedemarken,6280,8,8.7078963,54.962154
1535670,Hvedemarken,6280,9,8.7065403,54.9617822
1535671,Hvedemarken,6280,10,8.7084274,54.9621462
1535672,Hvedemarken,6280,11,8.7065387,54.9619889
1535673,Hvedemarken,6280,12,8.7087552,54.962174
1535674,Hvedemarken,6280,13,8.7064435,54.9621954
1535675,Hvedemarken,6280,15,8.7069724,54.9624842
1535676,Hvedemarken,6280,17,8.7072695,54.96244
1535677,Hvedemarken,6280,19,8.7075656,54.9625306
1535678,Hvedemarken,6280,21,8.7079881,54.9624238
1535679,Hvedemarken,6280,23,8.7083785,54.9624247
1535680,Hvedemarken,6280,25,8.7086905,54.9624794
1535681,Nørrevej,6280,1,8.6961831,54.9641832
1535682,Nørrevej,6280,3,8.6953073,54.9643248
1535683,Nørrevej,6280,4,8.7024068,54.9631831
1535684,Nørrevej,6280,6,8.7017028,54.9633341
1535685,Nørrevej,6280,7,8.6950881,54.9644051
1535686,Nørrevej,6280,8,8.7014366,54.9634233
1535687,Nørrevej,6280,9,8.6949162,54.9644137
1535688,Nørrevej,6280,10,8.7011551,54.9634766
1535689,Nørrevej,6280,11,8.6947128,54.9644671
1535690,Nørrevej,6280,12,8.7008893,54.9635209
1535691,Nørrevej,6280,13,8.694572,54.9644847
1535692,Nørrevej,6280,14,8.700561,54.963556
1535693,Nørrevej,6280,15,8.6938996,54.9645998
1535694,Nørrevej,6280,17,8.6935717,54.964581
1535695,Nørrevej,6280,19,8.6933214,54.9646343
1535696,Nørrevej,6280,20,8.7000761,54.9636536
1535697,Nørrevej,6280,20A,8.6999955,54.9639859
1535698,Nørrevej,6280,21,8.6926956,54.9647675
1535699,Nørrevej,6280,23,8.6922427,54.9647664
1535700,Nørrevej,6280,24,8.6995755,54.9637602
1535701,Nørrevej,6280,26,8.6992627,54.9638224
1535702,Nørrevej,6280,28,8.6987434,54.9643423
1535703,Nørrevej,6280,29,8.6916639,54.9648727
1535704,Nørrevej,6280,30,8.6985906,54.9638836
1535705,Nørrevej,6280,31,8.6913346,54.9650427
1535706,Nørrevej,6280,32,8.6983563,54.963892
1535707,Nørrevej,6280,34B,8.6980273,54.964017
1535708,Nørrevej,6280,35,8.6907561,54.9651311
1535709,Nørrevej,6280,36,8.6977615,54.9640613
1535710,Nørrevej,6280,37,8.6904587,54.9652112
1535711,Nørrevej,6280,39,8.690119,54.9646981
1535712,Nørrevej,6280,40,8.6973391,54.9641591
1535713,Nørrevej,6280,41,8.6901772,54.9652554
1535714,Nørrevej,6280,43,8.689443,54.965245
1535715,Nørrevej,6280,44,8.696933,54.9641581
1535716,Nørrevej,6280,45,8.6889575,54.965432
1535717,Nørrevej,6280,47,8.6888012,54.9654496
1535718,Nørrevej,6280,49,8.6886917,54.9654673
1535719,Nørrevej,6280,50,8.6957432,54.9645146
1535720,Nørrevej,6280,51,8.6885197,54.9654938
1535721,Nørrevej,6280,52,8.6955532,54.9648556
1535722,Nørrevej,6280,53,8.6887897,54.9649193
1535723,Nørrevej,6280,54,8.6940705,54.9647171
1535724,Nørrevej,6280,55,8.6886333,54.9649459
1535725,Nørrevej,6280,56,8.693867,54.964744
1535726,Nørrevej,6280,57,8.6884765,54.9650264
1535727,Nørrevej,6280,58,8.6934607,54.9648054
1535728,Nørrevej,6280,59,8.6883821,54.965107
1535729,Nørrevej,6280,60,8.6931949,54.9648407
1535730,Nørrevej,6280,61,8.6883348,54.9651698
1535731,Nørrevej,6280,62,8.6929759,54.9648851
1535732,Nørrevej,6280,63,8.6882405,54.9652415
1535733,Nørrevej,6280,64A,8.692865,54.9650825
1535734,Nørrevej,6280,64B,8.6926467,54.965037
1535735,Nørrevej,6280,64C,8.692719,54.965801
1535736,Nørrevej,6280,65,8.6882086,54.9653312
1535737,Nørrevej,6280,66,8.6922864,54.9651799
1535738,Nørrevej,6280,67,8.6882392,54.9654122
1535739,Nørrevej,6280,68,8.691534,54.9655194
1535740,Nørrevej,6280,69,8.6882856,54.9654752
1535741,Nørrevej,6280,70,8.6911764,54.9653119
1535742,Nørrevej,6280,71,8.6883317,54.9655652
1535743,Nørrevej,6280,73,8.6878937,54.9656539
1535744,Nørrevej,6280,75,8.6875338,54.9657339
1535745,Nørrevej,6280,76,8.6901588,54.9656148
1535746,Nørrevej,6280,78,8.6895966,54.9656044
1535747,Nørrevej,6280,80,8.6887028,54.9660514
1535748,Nørrevej,6280,98,8.687061,54.9662809
1535749,Nørrevej,6280,100,8.6854129,54.9673101
1535750,Søndergade,6280,1,8.6963062,54.9623592
1535751,Søndergade,6280,2,8.6950245,54.9624818
1535752,Søndergade,6280,2A,8.6962743,54.962449
1535753,Søndergade,6280,4A,8.6946001,54.9628492
1535754,Søndergade,6280,4B,8.6936792,54.962766
1535755,Søndergade,6280,6,8.6932729,54.9628009
1535756,Søndergade,6280,7,8.6955565,54.9623573
1535757,Søndergade,6280,9,8.6953378,54.9623658
1535758,Søndergade,6280,10,8.6929287,54.9628809
1535759,Søndergade,6280,11,8.6951035,54.9623742
1535760,Søndergade,6280,12,8.6918038,54.962932
1535761,Søndergade,6280,15,8.69454,54.962526
1535762,Søndergade,6280,17,8.6942742,54.9625698
1535763,Søndergade,6280,19,8.694338,54.9623902
1535764,Søndergade,6280,21,8.6940592,54.962084
1535765,Søndergade,6280,23,8.6939459,54.9626139
1535766,Søndergade,6280,25,8.6937896,54.9626315
1535767,Søndergade,6280,27,8.69382,54.962389
1535768,Søndergade,6280,51,8.6929942,54.9624857
1535769,Søndergade,6280,61,8.6936488,54.9626581
1535770,Søndergade,6280,63,8.6935081,54.9626757
1535771,Søndergade,6280,65,8.6933517,54.9627023
1535772,Søndergade,6280,67,8.6931642,54.9627198
1535773,Søndergade,6280,69,8.6929922,54.9627373
1535774,Søndergade,6280,71,8.6927734,54.9627637
1535775,Strandvej,6280,2,8.6914713,54.9635153
1535776,Strandvej,6280,4,8.6910799,54.9636311
1535777,Strandvej,6280,5,8.6909097,54.963433
1535778,Strandvej,6280,6,8.6908136,54.9637383
1535779,Strandvej,6280,7,8.6905967,54.9635041
1535780,Strandvej,6280,8,8.6904996,54.9639532
1535781,Strandvej,6280,9,8.6903489,54.9632428
1535782,Strandvej,6280,10,8.690249,54.963989
1535783,Strandvej,6280,11,8.6903152,54.9635573
1535784,Strandvej,6280,12,8.6899992,54.9640328
1535785,Strandvej,6280,15,8.6899546,54.9637361
1535786,Strandvej,6280,16,8.6894506,54.964274
1535787,Strandvej,6280,17,8.6897194,54.9638523
1535788,Strandvej,6280,18,8.689607,54.9642564
1535789,Strandvej,6280,19,8.6892648,54.9640668
1535790,Strandvej,6280,20A,8.6895272,54.9644719
1535791,Strandvej,6280,20B,8.6896835,54.9644543
1535792,Strandvej,6280,21,8.6889825,54.9642189
1535793,Strandvej,6280,22,8.68999,54.965031
1535794,Strandvej,6280,22A,8.68998,54.9645
1535795,Strandvej,6280,22B,8.6899182,54.964401
1535796,Strandvej,6280,22C,8.6898566,54.964293
1535797,Strandvej,6280,22D,8.690106,54.964375
1535798,Strandvej,6280,22E,8.6902466,54.9643569
1535799,Strandvej,6280,22F,8.6903717,54.9643393
1535800,Strandvej,6280,22G,8.6905124,54.9643216
1535801,Strandvej,6280,22H,8.6906375,54.964304
1535802,Strandvej,6280,23,8.6887943,54.9643173
1535803,Strandvej,6280,24,8.6896038,54.9646698
1535804,Strandvej,6280,25,8.6881263,54.9638483
1535805,Strandvej,6280,25A,8.6885276,54.9644694
1535806,Strandvej,6280,26,8.6897446,54.9646432
1535807,Strandvej,6280,27,8.6882453,54.9646214
1535808,Strandvej,6280,28,8.689213,54.9647137
1535809,Strandvej,6280,29,8.6880413,54.9647467
1535810,Strandvej,6280,30,8.6890879,54.9647314
1535811,Strandvej,6280,31,8.6876966,54.9648896
1535812,Strandvej,6280,32,8.689042,54.964552
1535813,Strandvej,6280,33,8.6869746,54.9653371
1535814,Strandvej,6280,34,8.6889017,54.9645692
1535815,Strandvej,6280,36,8.689262,54.9644353
1535816,Strandvej,6280,38,8.6891213,54.9644439
1535817,Strandvej,6280,40,8.6886665,54.9646854
1734533,Sejerslevvej,6280,1,8.6988507,54.9959301
1734534,Sejerslevvej,6280,2A,8.69821,54.9959016
1734535,Sejerslevvej,6280,2B,8.6985864,54.9957317
1734536,Sejerslevvej,6280,3,8.6993038,54.9959582
1734537,Sejerslevvej,6280,4,8.6998563,54.9952227
1734538,Sejerslevvej,6280,5A,8.6994302,54.9957698
1734539,Sejerslevvej,6280,5B,8.7001164,54.9959871
1734540,Sejerslevvej,6280,6,8.7001851,54.9951606
1734541,Sejerslevvej,6280,7,8.6996495,54.9957074
1734542,Sejerslevvej,6280,8,8.6999216,54.9948544
1734543,Sejerslevvej,6280,9,8.6998845,54.9956451
1734544,Sejerslevvej,6280,10,8.699454,54.994691
1734545,Sejerslevvej,6280,11,8.7003223,54.9956282
1734546,Sejerslevvej,6280,12,8.7008119,54.9949464
1734547,Sejerslevvej,6280,13,8.7007448,54.9955573
1734549,Sejerslevvej,6280,14,8.7005483,54.9946582
1734550,Sejerslevvej,6280,15,8.7009328,54.9955039
1734551,Sejerslevvej,6280,16,8.7011097,54.9948303
1734552,Sejerslevvej,6280,17,8.7012309,54.9953519
1734553,Sejerslevvej,6280,18,8.7014551,54.9946245
1734556,Sejerslevvej,6280,19,8.7013263,54.9951364
1734557,Sejerslevvej,6280,20,8.70166,54.9944003
1734560,Sejerslevvej,6280,21,8.7016395,54.9950563
1734561,Sejerslevvej,6280,22,8.701989,54.9942933
1734563,Sejerslevvej,6280,23,8.7017815,54.9948769
1734564,Sejerslevvej,6280,24,8.7023336,54.9942043
1734566,Sejerslevvej,6280,25,8.7025313,54.9949417
1734569,Sejerslevvej,6280,27,8.7028142,54.9947357
1734571,Sejerslevvej,6280,28,8.7027258,54.9940075
1734572,Sejerslevvej,6280,29,8.7031585,54.9946736
1734574,Sejerslevvej,6280,30,8.7031781,54.9941434
1734576,Sejerslevvej,6280,31,8.7039858,54.9948284
1734578,Sejerslevvej,6280,32A,8.7033836,54.9938204
1734579,Sejerslevvej,6280,32B,8.7034134,54.9940182
1734582,Sejerslevvej,6280,33,8.7048655,54.9942284
1734583,Sejerslevvej,6280,34,8.703713,54.993633
1734586,Sejerslevvej,6280,35,8.705474,54.9943827
1734587,Sejerslevvej,6280,36,8.7049246,54.9925751
1734589,Sejerslevvej,6280,37,8.7055692,54.9941942
1734590,Sejerslevvej,6280,38,8.7216748,55.0023199
1734591,Sejerslevvej,6280,39,8.707181,54.993902
1734593,Sejerslevvej,6280,40,8.7305268,55.008828
1734595,Sejerslevvej,6280,41,8.7076979,54.9937859
1734596,Sejerslevvej,6280,42,8.731816,55.010696
1734598,Sejerslevvej,6280,43,8.7079326,54.9937506
1734599,Sejerslevvej,6280,43B,8.708308,54.993734
1734602,Sejerslevvej,6280,44,8.7312396,55.0121366
1734603,Sejerslevvej,6280,45,8.7128105,54.9957662
1734605,Sejerslevvej,6280,46,8.7310183,55.0124776
1734606,Sejerslevvej,6280,46B,8.7308766,55.0126301
1734609,Sejerslevvej,6280,47,8.7154023,54.9961766
1734610,Sejerslevvej,6280,48,8.7305526,55.0143098
1734612,Sejerslevvej,6280,49,8.7150829,54.9971374
1734614,Sejerslevvej,6280,50,8.7305662,55.0146154
1734615,Sejerslevvej,6280,51,8.7151271,54.997515
1734618,Sejerslevvej,6280,52,8.7304549,55.0148758
1734619,Sejerslevvej,6280,53,8.7177545,54.9973414
1734620,Sejerslevvej,6280,54,8.730781,55.015227
1734621,Sejerslevvej,6280,55,8.7170501,54.9974835
1734622,Sejerslevvej,6280,56,8.7309292,55.0164494
1734623,Sejerslevvej,6280,57,8.7184801,54.9986371
1734624,Sejerslevvej,6280,59,8.7195065,54.9994033
1734625,Sejerslevvej,6280,61,8.719862,54.9999793
1734626,Sejerslevvej,6280,63,8.720281,55.0004206
1734627,Sejerslevvej,6280,65,8.7196355,55.0010751
1734628,Sejerslevvej,6280,67,8.7204007,55.0011937
1734629,Sejerslevvej,6280,69,8.7207332,55.002848
1734630,Sejerslevvej,6280,71,8.7212937,55.0031727
1734631,Sejerslevvej,6280,73,8.7213966,55.0041166
1734632,Sejerslevvej,6280,75,8.7269999,55.0078047
1734633,Sejerslevvej,6280,77,8.7276079,55.0080757
1734634,Sejerslevvej,6280,79,8.729602,55.00915
1734635,Sejerslevvej,6280,81,8.7301961,55.0091778
1734636,Sejerslevvej,6280,85,8.729763,55.010749
1734637,Sejerslevvej,6280,87,8.7304612,55.0116137
1734638,Sejerslevvej,6280,89,8.7295051,55.0119441
1734639,Sejerslevvej,6280,91,8.7303796,55.0121168
1734640,Sejerslevvej,6280,93,8.7296719,55.0127173
1734641,Sejerslevvej,6280,95,8.7303113,55.0129703
1734642,Sejerslevvej,6280,97,8.729075,55.013039
1734643,Sejerslevvej,6280,99,8.7302157,55.0132397
1734644,Sejerslevvej,6280,101,8.7298784,55.0145689
1734645,Sejerslevvej,6280,103,8.7298428,55.0152159
1734646,Sejerslevvej,6280,105,8.7294974,55.0154128
1734647,Sejerslevvej,6280,107,8.7292453,55.0156819
1746980,Nørrebyen,6280,1,8.7431546,54.9706359
1746981,Nørrebyen,6280,2,8.7423317,54.9722967
1746983,Nørrebyen,6280,3,8.741964,54.9711726
1746984,Nørrebyen,6280,4,8.7417389,54.9721696
1746988,Nørrebyen,6280,6,8.743024,54.973952
1746990,Nørrebyen,6280,7,8.7409792,54.9712604
1746992,Nørrebyen,6280,11,8.7395026,54.9725243
1746994,Nørrebyen,6280,13,8.7392322,54.9732786
1746996,Nørrebyen,6280,15,8.7390404,54.9739342
1746999,Nørrebyen,6280,17,8.7388476,54.9747695
1748025,Østermarkvej,6280,1,8.6994954,54.9744989
1748028,Østermarkvej,6280,2,8.7004516,54.9740699
1748032,Østermarkvej,6280,3,8.7001059,54.9743297
1748035,Østermarkvej,6280,5,8.703076,54.9740943
1748037,Østermarkvej,6280,10,8.7017073,54.9732732
1748041,Østermarkvej,6280,14,8.7038145,54.973521
1748044,Østermarkvej,6280,16,8.7049104,54.9732002
1748046,Østermarkvej,6280,18,8.7045695,54.9728219
1748048,Østermarkvej,6280,20,8.7051209,54.9721942
1748051,Østermarkvej,6280,22,8.7055119,54.9721322
1748053,Østermarkvej,6280,24,8.7058925,54.9734901
1748646,Kærgårdvej,6280,1,8.7015642,54.9820347
1748647,Kærgårdvej,6280,2,8.7007212,54.979822
1748648,Kærgårdvej,6280,3,8.7022177,54.9824048
1748649,Kærgårdvej,6280,4,8.7025329,54.9820461
1748650,Kærgårdvej,6280,5,8.7072194,54.984358
1748651,Kærgårdvej,6280,6,8.711949,54.9829224
1748652,Kærgårdvej,6280,7,8.7078961,54.9837126
1748653,Kærgårdvej,6280,8,8.7125428,54.9829149
1748654,Kærgårdvej,6280,9,8.7119077,54.9843152
1748655,Kærgårdvej,6280,10,8.7147957,54.9825248
1748656,Kærgårdvej,6280,11,8.716354,54.983113
1748894,Duborgvej,6280,1,8.702113,55.021864
1748895,Duborgvej,6280,2,8.702225,55.023698
1748898,Duborgvej,6280,3,8.6983252,55.0284597
1748899,Duborgvej,6280,4,8.7033998,55.0297663
1748902,Duborgvej,6280,5A,8.6980659,55.0296543
1748904,Duborgvej,6280,5B,8.6969259,55.0314577
1748905,Duborgvej,6280,6,8.6986535,55.0305813
1748908,Duborgvej,6280,7,8.6956982,55.0345011
1748909,Duborgvej,6280,9,8.69286,55.0373696
1748912,Duborgvej,6280,11A,8.6824042,55.0378011
1748914,Duborgvej,6280,11B,8.6822166,55.0377736
1750531,Nørreled,6280,1,8.6879273,54.9693744
1750534,Nørreled,6280,2,8.6885531,54.9692502
1750539,Nørreled,6280,3,8.688035,54.969528
1750544,Nørreled,6280,4,8.6886769,54.9694033
1750546,Nørreled,6280,5,8.6882215,54.9697077
1750550,Nørreled,6280,6,8.6887853,54.9695204
1750551,Nørreled,6280,7,8.6883605,54.9699237
1750554,Nørreled,6280,8,8.6889402,54.9696916
1750559,Nørreled,6280,9,8.6888273,54.9701496
1752692,Kanalvej,6280,2,8.7309855,55.0080383
1752693,Kanalvej,6280,4,8.7316608,55.0075904
1752694,Kanalvej,6280,6,8.7330552,55.0071711
1752695,Kanalvej,6280,8,8.7336375,55.0065973
1752696,Kanalvej,6280,12,8.7328323,55.0054183
1752697,Kanalvej,6280,14,8.7344335,55.0068057
1752698,Kanalvej,6280,16,8.7350908,55.0067263
1752699,Kanalvej,6280,18,8.7358893,55.0065572
1753058,Vestkystvej,6280,1,8.6378985,55.0382609
1753062,Vestkystvej,6280,2,8.6396182,55.0366934
1753063,Vestkystvej,6280,2A,8.6389772,55.0366376
1753066,Vestkystvej,6280,3,8.6381901,55.0388998
1753069,Vestkystvej,6280,4,8.6395305,55.0377446
1753070,Vestkystvej,6280,5,8.6382495,55.0392505
1753073,Vestkystvej,6280,6,8.6392182,55.0394151
1753075,Vestkystvej,6280,7,8.6381945,55.040149
1753077,Vestkystvej,6280,9,8.6385019,55.0407609
1753116,Vesterkær,6280,1,8.6882747,54.9688901
1753119,Vesterkær,6280,2,8.687681,54.969049
1753123,Vesterkær,6280,4,8.687581,54.968881
1753125,Vesterkær,6280,5,8.688063,54.968571
1753126,Vesterkær,6280,6,8.687466,54.968706
1753127,Vesterkær,6280,7,8.687845,54.968424
1753128,Vesterkær,6280,8,8.687443,54.968492
1753129,Vesterende,6280,1,8.6898077,54.9686154
1753130,Vesterende,6280,2,8.6893849,54.9687491
1753131,Vesterende,6280,3,8.6903079,54.9685628
1753132,Vesterende,6280,4,8.6892463,54.9684882
1753133,Vesterende,6280,5,8.6899662,54.9683103
1753134,Vesterende,6280,6,8.6890608,54.9682361
1753135,Vesterende,6280,7,8.689967,54.968149
1753136,Vesterende,6280,9,8.6895926,54.9681476
1753159,Vesterkobbel,6280,1,8.6914499,54.96835
1753160,Vesterkobbel,6280,2,8.6910588,54.9684209
1753161,Vesterkobbel,6280,3,8.6920441,54.9682706
1753162,Vesterkobbel,6280,4,8.6909204,54.968142
1753163,Vesterkobbel,6280,5,8.6917024,54.9680091
1753164,Vesterkobbel,6280,6,8.6907658,54.9679349
1753165,Vesterkobbel,6280,7,8.6916418,54.9677664
1753166,Vesterkobbel,6280,9,8.6912664,54.9678373
1754137,Kirstine Svendsdattervej,6280,1,8.7707569,54.970745
1754140,Kirstine Svendsdattervej,6280,2,8.771937,54.969238
1754145,Kirstine Svendsdattervej,6280,3,8.7707375,54.97141
1754146,Kirstine Svendsdattervej,6280,4,8.7722633,54.9695526
1754147,Kirstine Svendsdattervej,6280,5,8.7704225,54.9718497
1754148,Kirstine Svendsdattervej,6280,6,8.7719194,54.9695879
1754149,Kirstine Svendsdattervej,6280,8,8.7717156,54.9697223
1754150,Kirstine Svendsdattervej,6280,10,8.7711143,54.9710782
1754443,Gærupvej,6280,1,8.7406037,54.9665147
1754444,Gærupvej,6280,1A,8.7402749,54.9666308
1754445,Gærupvej,6280,2,8.7444785,54.9712498
1754446,Gærupvej,6280,3,8.74263,54.9696103
1754447,Gærupvej,6280,4,8.7475893,54.9759023
1754448,Gærupvej,6280,4A,8.7478359,54.976442
1754449,Gærupvej,6280,5,8.741921,54.970499
1754450,Gærupvej,6280,5A,8.7460038,54.9746139
1754451,Gærupvej,6280,6,8.7585938,54.9879845
1754452,Gærupvej,6280,7A,8.74809,54.9782847
1754453,Gærupvej,6280,7B,8.7482757,54.9785637
1754455,Gærupvej,6280,8,8.7596268,54.9877259
1754456,Gærupvej,6280,9,8.749101,54.9790147
1754459,Gærupvej,6280,10,8.7617049,54.9877929
1754461,Gærupvej,6280,11,8.7565489,54.987585
1754463,Gærupvej,6280,12,8.76289,54.988254
1754466,Gærupvej,6280,13,8.7577641,54.9882165
1754468,Gærupvej,6280,14,8.7623293,54.987911
1754470,Gærupvej,6280,15,8.7630916,54.9885056
1754473,Gærupvej,6280,16,8.7621899,54.987704
1754475,Gærupvej,6280,17,8.7654522,54.9883753
1754476,Gærupvej,6280,19,8.7671285,54.9876776
1754480,Gærupvej,6280,22,8.7899587,54.9880966
1754481,Gærupvej,6280,23,8.776723,54.987776
1754482,Gærupvej,6280,24,8.8213063,54.9886319
1754483,Gærupvej,6280,25,8.7948584,54.9895697
1754485,Gærupvej,6280,27,8.8189293,54.9889609
1754487,Gærupvej,6280,29,8.822178,54.9894061
1754489,Gærupvej,6280,31,8.8245062,54.9895263
1754869,Frifelt,6280,1,8.699924,54.97352
1754871,Frifelt,6280,2,8.7000354,54.973314
1754873,Frifelt,6280,3,8.7004091,54.9734767
1754876,Frifelt,6280,4,8.7004422,54.9732252
1754877,Frifelt,6280,5,8.7010802,54.9735682
1754879,Frifelt,6280,6,8.7008332,54.9731722
1754880,Frifelt,6280,8,8.7013941,54.9733713
1754882,Frifelt,6280,10,8.7016873,54.9738573
1754994,Vesterled,6280,2,8.6573254,55.0244781
1754997,Vesterled,6280,4,8.6566368,55.0245211
1754999,Vesterled,6280,6,8.6553722,55.0242389
1755000,Vesterled,6280,8,8.6549853,55.0237525
1755003,Vesterled,6280,10,8.656446,55.0230467
1755006,Vesterled,6280,12,8.6570235,55.0231921
1755007,Vesterled,6280,14,8.6572268,55.0232017
1755009,Sønderbygade,6280,1,8.6572774,55.019104
1755010,Sønderbygade,6280,2,8.6556013,55.0194048
1755013,Sønderbygade,6280,3,8.6563074,55.0191372
1755014,Sønderbygade,6280,5,8.6557447,55.0190997
1755017,Sønderbygade,6280,7,8.6548523,55.019205
1755018,Sønderbygade,6280,9,8.6543047,55.0192214
1755024,Sønderbygade,6280,11,8.6527684,55.0196394
1756760,Vestertoft,6280,1,8.693061,54.9680575
1756762,Vestertoft,6280,2,8.6926857,54.9681105
1756763,Vestertoft,6280,3,8.6928601,54.9677784
1756764,Vestertoft,6280,4,8.6925157,54.9678674
1756765,Vestertoft,6280,5,8.6930191,54.9674104
1756766,Vestertoft,6280,6,8.6922834,54.9676152
1757605,Kogsbølvej,6280,1,8.7276089,55.017152
1757606,Kogsbølvej,6280,2,8.7286279,55.0191133
1757607,Kogsbølvej,6280,3,8.7272161,55.0174297
1757608,Kogsbølvej,6280,4,8.7278415,55.0197586
1757609,Kogsbølvej,6280,5,8.7271821,55.017825
1757610,Kogsbølvej,6280,7,8.727202,55.018248
1757611,Kogsbølvej,6280,9,8.7273639,55.0186881
1757612,Kolkvej,6280,1,8.6435736,55.0405962
1757615,Kolkvej,6280,2,8.6394029,55.0397571
1757617,Kolkvej,6280,3,8.6450973,55.0399356
1757618,Kolkvej,6280,4,8.640904,55.039833
1757620,Kolkvej,6280,5,8.6468329,55.0400934
1757622,Kolkvej,6280,6,8.6432038,55.0399391
1757666,Hemvej,6280,2,8.7092239,54.9924147
1757669,Hemvej,6280,4,8.7096151,54.9923617
1757671,Hemvej,6280,6,8.7097879,54.9922363
1757672,Hemvej,6280,8,8.7101315,54.9922641
1757673,Hemvej,6280,10,8.7107893,54.9920859
1757674,Hemvej,6280,12,8.7116816,54.9918813
1757831,Galgevej,6280,1,8.6796879,54.9977593
1757832,Galgevej,6280,2,8.6841586,54.997762
1757833,Galgevej,6280,3,8.6648541,54.9995346
1757834,Galgevej,6280,4,8.6800585,54.9983354
1757835,Galgevej,6280,6,8.670685,54.999596
1757836,Galgevej,6280,8,8.6701057,54.9996479
1758052,Digevej,6280,1,8.6772968,54.9820986
1758053,Digevej,6280,2,8.6770132,54.9823944
1758054,Digevej,6280,3,8.6770957,54.9818554
1758055,Digevej,6280,5,8.6769272,54.9814326
1758056,Digevej,6280,7,8.6761958,54.9810532
1758057,Digevej,6280,9,8.6753274,54.9802331
1758197,Vestervang,6280,1,8.6946416,54.9676661
1758198,Vestervang,6280,2,8.6940635,54.9676916
1758199,Vestervang,6280,3,8.6950329,54.9675682
1758200,Vestervang,6280,4,8.6937181,54.9679154
1758201,Vestervang,6280,6,8.6934866,54.9675553
1758714,Ny Møllevej,6280,2,8.695077,54.9926766
1758715,Ny Møllevej,6280,4,8.6940888,54.9931324
1758718,Ny Møllevej,6280,6,8.6927237,54.9938299
1758719,Ny Møllevej,6280,8,8.692379,54.9939279
1758721,Ny Møllevej,6280,10,8.6919524,54.9945379
1758880,Kathale,6280,1,8.7358481,54.9652284
1758881,Kathale,6280,2,8.7361593,54.9653998
1758882,Kathale,6280,3,8.7344419,54.9652882
1758883,Kathale,6280,4,8.7355815,54.9653895
1758884,Kathale,6280,6,8.7338786,54.9654487
1758911,Kastanievej,6280,1,8.738667,54.9664926
1758914,Kastanievej,6280,2,8.7398055,54.9667466
1758916,Kastanievej,6280,3,8.740158,54.9678078
1758918,Kastanievej,6280,5,8.7403274,54.9681766
1758927,Hvidstrengvej,6280,1,8.7446919,54.9671704
1758930,Hvidstrengvej,6280,2,8.7457376,54.9672984
1758932,Hvidstrengvej,6280,3,8.7443721,54.9683379
1758934,Hvidstrengvej,6280,4,8.7456095,54.9677924
1758936,Hvidstrengvej,6280,6,8.745434,54.9683761
1759578,Vrågård,6280,1,8.7221476,55.0040374
1759579,Vrågård,6280,3,8.7233064,55.0037704
1759580,Vrågård,6280,5,8.724607,55.003342
1759581,Vrågård,6280,7,8.7256885,55.0029311
1759813,Syrenvej,6280,1,8.6578048,55.021451
1759815,Syrenvej,6280,1A,8.6587422,55.0215794
1759816,Syrenvej,6280,2,8.6580718,55.0213169
1759817,Syrenvej,6280,3,8.6594632,55.0214017
1759929,Skytvej,6280,2,8.7052475,54.9826278
1759930,Skytvej,6280,4,8.7044871,54.981907
1759932,Skytvej,6280,6,8.7082597,54.9809726
1759934,Skytvej,6280,8,8.7095676,54.9816227
1760015,Rosenborgvej,6280,1,8.7052299,55.0148802
1760016,Rosenborgvej,6280,2,8.7039493,55.0146434
1760017,Rosenborgvej,6280,4,8.7029262,55.0134278
1760018,Rosenborgvej,6280,6,8.702693,55.013194
1760478,Kirkevej,6280,1,8.7477503,54.9701603
1760479,Kirkevej,6280,2,8.7456129,54.9697245
1760480,Kirkevej,6280,2B,8.745616,54.970314
1760481,Kirkevej,6280,4,8.76786,54.9692298
1760569,Højmarksvej,6280,1,8.6955896,54.9868996
1760570,Højmarksvej,6280,1A,8.6961884,54.986245
1760571,Højmarksvej,6280,2,8.6969676,54.9865256
1760572,Højmarksvej,6280,3,8.7035673,54.9858678
1761748,Svinget,6280,1,8.7699666,54.9696202
1761749,Svinget,6280,3,8.7699648,54.9699437
1761751,Svinget,6280,5,8.7702127,54.9702946
1761880,Kærengvej,6280,1,8.7566249,54.9905237
1761881,Kærengvej,6280,2,8.7614473,54.9890595
1761882,Kærengvej,6280,4,8.7578907,54.9905442
1761907,Kobbervold,6280,1,8.7524076,54.9875677
1761909,Kobbervold,6280,2,8.754566,54.9872934
1761914,Kobbervold,6280,4,8.7534012,54.9886481
1761925,Højvej,6280,1,8.7254718,55.0117733
1761928,Højvej,6280,2,8.729742,55.013994
1761932,Højvej,6280,4,8.7288352,55.0138926
1762371,Engsvinget,6280,1,8.7102488,54.9955085
1762372,Engsvinget,6280,2,8.7105518,54.9946824
1762373,Engsvinget,6280,3,8.7117951,54.9956829
1762591,Østervej,6280,1,8.7128964,54.9859172
1762592,Østervej,6280,3,8.7140903,54.987241
1762648,Østerhedevej,6280,1,8.6624565,55.0262897
1762649,Østerhedevej,6280,2,8.6619969,55.0251381
1762799,Vestervej,6280,1,8.6562372,55.0218599
1762802,Vestervej,6280,3,8.6561768,55.0216081
1762939,Peter Jessensvej,6280,1,8.7440666,54.9696943
1762940,Peter Jessensvej,6280,3,8.7451156,54.969319
1763249,Kogsbøl-Ladegårdvej,6280,1,8.7225531,55.0177696
1763250,Kogsbøl-Ladegårdvej,6280,2,8.7181811,55.023448
1763287,Halvej,6280,1,8.6910712,54.9668033
1763288,Halvej,6280,1A,8.6886676,54.9685855
1763438,Gammelbyvej,6280,1,8.7604696,54.9905403
1763440,Gammelbyvej,6280,3,8.7613098,54.991171
1763807,Tværvej,6280,1,8.8156065,54.9842291
1763813,Traneborgvej,6280,1,8.6909119,54.97942
1763915,Skydebanevej,6280,1,8.6568773,55.0091819
1763955,Smedevej,6280,2,8.6733447,54.9838763
1763984,Nyhedevej,6280,1,8.6953527,55.0202387
1764044,Låningen,6280,1,8.695548,54.967552
1764050,Lille Møllevej,6280,2,8.7053615,54.9841378
1764052,Lille Møllevej,6280,4,8.7095813,54.9905463
1764061,Linesvej,6280,2,8.7690835,54.9710833
1764129,Langagervej,6280,2,8.6713271,54.9917431
1764273,Aalbækvej,6280,1,8.6540524,55.0067475
1792279,Emmerlevvej,6280,1,8.6969107,54.9795609
1792280,Emmerlevvej,6280,2,8.6944219,54.9801478
1792281,Emmerlevvej,6280,3,8.6963939,54.9797214
1792282,Emmerlevvej,6280,4,8.6884816,54.9805101
1792283,Emmerlevvej,6280,5,8.6914074,54.9799964
1792284,Emmerlevvej,6280,6,8.687666,54.980859
1792285,Emmerlevvej,6280,7,8.6912354,54.9800229
1792286,Emmerlevvej,6280,8,8.6854744,54.981419
1792287,Emmerlevvej,6280,9,8.689688,54.9800819
1792288,Emmerlevvej,6280,10,8.685082,54.9816517
1792289,Emmerlevvej,6280,11,8.6891881,54.9800716
1792290,Emmerlevvej,6280,12,8.684569,54.9813089
1792291,Emmerlevvej,6280,13,8.6867186,54.9801731
1792292,Emmerlevvej,6280,14,8.684331,54.981767
1792293,Emmerlevvej,6280,14A,8.6811415,54.9820098
1792294,Emmerlevvej,6280,15,8.6849814,54.9805281
1792295,Emmerlevvej,6280,16,8.679968,54.982187
1792296,Emmerlevvej,6280,17,8.6815829,54.9815167
1792297,Emmerlevvej,6280,18,8.6796862,54.9822666
1792298,Emmerlevvej,6280,19,8.6801441,54.9816747
1792299,Emmerlevvej,6280,20A,8.677953,54.982742
1792300,Emmerlevvej,6280,21,8.6794711,54.9818167
1792301,Emmerlevvej,6280,22,8.6771648,54.9829789
1792302,Emmerlevvej,6280,23,8.6791259,54.9819866
1792303,Emmerlevvej,6280,24,8.6766482,54.9830943
1792304,Emmerlevvej,6280,25,8.6786282,54.9817067
1792305,Emmerlevvej,6280,26,8.676237,54.9837043
1792306,Emmerlevvej,6280,27,8.6781873,54.9821279
1792307,Emmerlevvej,6280,28,8.6710932,54.9859461
1792308,Emmerlevvej,6280,31,8.6776078,54.9822881
1792310,Emmerlevvej,6280,32,8.6695679,54.9870923
1792312,Emmerlevvej,6280,33,8.6760124,54.9824906
1792314,Emmerlevvej,6280,34,8.6689576,54.9871895
1792316,Emmerlevvej,6280,35,8.6728414,54.9842704
1792319,Emmerlevvej,6280,36,8.6673071,54.9883532
1792320,Emmerlevvej,6280,37A,8.6689139,54.9868119
1792324,Emmerlevvej,6280,37B,8.6687414,54.9868744
1792327,Emmerlevvej,6280,37C,8.6687106,54.9868204
1792328,Emmerlevvej,6280,39,8.6669284,54.9869053
1793292,Præstevænget,6280,1,8.697453,54.994705
1793295,Præstevænget,6280,2,8.6972996,54.9943356
1793296,Præstevænget,6280,3,8.697813,54.994598
1793299,Præstevænget,6280,4,8.6977693,54.99422
1793303,Præstevænget,6280,5,8.6982516,54.9945267
1793305,Præstevænget,6280,6,8.6975211,54.9939767
1793309,Præstevænget,6280,7,8.6986743,54.9944379
1793312,Præstevænget,6280,8,8.697146,54.9939668
1793317,Præstevænget,6280,10,8.6970229,54.9937059
1793321,Præstevænget,6280,11,8.6990357,54.9941872
1793324,Præstevænget,6280,12,8.6974929,54.9935633
1793327,Præstevænget,6280,13,8.6994585,54.9940714
1793330,Præstevænget,6280,14,8.698117,54.993781
1793335,Præstevænget,6280,15,8.6997224,54.9943147
1793338,Præstevænget,6280,16,8.698396,54.9940328
1793340,Præstevænget,6280,17,8.7002236,54.9941901
1793342,Præstevænget,6280,18,8.6987719,54.9939259
1793345,Præstevænget,6280,19,8.7000225,54.9939021
1793347,Præstevænget,6280,20,8.6985705,54.9936918
1793349,Præstevænget,6280,21,8.700585,54.993894
1793352,Præstevænget,6280,22,8.6990405,54.9935402
1793354,Præstevænget,6280,23,8.7008649,54.9941288
1793356,Præstevænget,6280,24,8.6992734,54.9937474
1793359,Præstevænget,6280,26,8.6996964,54.9936137
1793360,Præstevænget,6280,28,8.6996515,54.993353
1793363,Præstevænget,6280,30,8.7001996,54.9932105
1793365,Præstevænget,6280,32,8.7002604,54.9934443
1793367,Præstevænget,6280,50,8.7011489,54.993761
1793369,Præstevænget,6280,52,8.7012274,54.9937253
1793371,Præstevænget,6280,54,8.7014156,54.9936359
1793373,Præstevænget,6280,56,8.7015252,54.9936092
1793375,Præstevænget,6280,58,8.7013034,54.9940041
1793376,Præstevænget,6280,60,8.7013818,54.9939773
1793377,Præstevænget,6280,62,8.7015857,54.9938789
1793378,Præstevænget,6280,64,8.7016954,54.9938433
1794847,Højervej,6280,1,8.6946576,54.9882093
1794851,Højervej,6280,1A,8.702193,54.9667412
1794854,Højervej,6280,2,8.6954553,54.9860545
1794856,Højervej,6280,3,8.6954459,54.9893615
1794860,Højervej,6280,3B,8.6945068,54.9895479
1794864,Højervej,6280,5,8.695766,54.9925076
1794865,Højervej,6280,6,8.6958054,54.9893534
1794869,Højervej,6280,7,8.6960296,54.9927868
1794872,Højervej,6280,8,8.6962621,54.9909631
1794876,Højervej,6280,9,8.697428,54.995954
1794879,Højervej,6280,10,8.6969934,54.9934812
1794881,Højervej,6280,11,8.6982058,54.9964677
1794886,Højervej,6280,12,8.6984014,54.9953988
1794889,Højervej,6280,13,8.7038226,55.0084964
1794891,Højervej,6280,14,8.698287,54.996073
1794895,Højervej,6280,15,8.7040065,55.0090001
1794898,Højervej,6280,16,8.6985821,54.9963069
1794900,Højervej,6280,16A,8.698364,54.996163
1794904,Højervej,6280,17,8.7023224,55.0104877
1794909,Højervej,6280,19,8.7049933,55.0109076
1794910,Højervej,6280,20,8.6987683,54.996496
1794914,Højervej,6280,21,8.7050208,55.0114199
1794915,Højervej,6280,22,8.6992343,54.9968836
1794917,Højervej,6280,24,8.6993427,54.9970277
1794918,Højervej,6280,26,8.6994352,54.9971897
1794919,Højervej,6280,28,8.6995592,54.9973337
1794920,Højervej,6280,30,8.6996832,54.9974778
1794921,Højervej,6280,32,8.6997758,54.9976308
1794922,Højervej,6280,34,8.7001644,54.9979283
1794923,Højervej,6280,36,8.7025292,55.0015647
1794924,Højervej,6280,38,8.7051352,55.0086074
1794925,Højervej,6280,40,8.7063074,55.0129597
1794926,Højervej,6280,42,8.7064526,55.0144877
1794927,Højervej,6280,44,8.7060548,55.0154214
1794928,Højervej,6280,46,8.706053,55.015673
1797552,Nørremarken,6280,1,8.6905865,54.968896
1797557,Nørremarken,6280,2,8.69129,54.9688259
1797562,Nørremarken,6280,3,8.6901954,54.9689759
1797574,Nørremarken,6280,4,8.6917437,54.9687372
1797579,Nørremarken,6280,5,8.6898041,54.9690737
1797594,Nørremarken,6280,6,8.6922757,54.9686127
1797599,Nørremarken,6280,7,8.6893977,54.9691086
1797608,Nørremarken,6280,8,8.6922894,54.9688733
1797612,Nørremarken,6280,9,8.6895986,54.9693877
1797618,Nørremarken,6280,10,8.6925692,54.9690448
1797623,Nørremarken,6280,11,8.6898003,54.969568
1797625,Nørremarken,6280,12,8.692085,54.96908
1797631,Nørremarken,6280,13,8.6901763,54.9694251
1797635,Nørremarken,6280,14,8.691569,54.9691052
1797644,Nørremarken,6280,15,8.6904438,54.9691742
1797646,Nørremarken,6280,16,8.6918627,54.9695193
1797654,Nørremarken,6280,17,8.6908351,54.9690763
1797657,Nørremarken,6280,18,8.6922539,54.9694304
1797664,Nørremarken,6280,19,8.691144,54.9695354
1797666,Nørremarken,6280,20,8.6926921,54.9693237
1797669,Nørremarken,6280,21,8.6907213,54.9696512
1797675,Nørremarken,6280,22,8.6928464,54.9695667
1797679,Nørremarken,6280,23,8.6903614,54.9697311
1797687,Nørremarken,6280,24,8.693147,54.969751
1797689,Nørremarken,6280,24A,8.692875,54.969765
1797695,Nørremarken,6280,24B,8.693109,54.969715
1797700,Nørremarken,6280,25,8.689876,54.969847
1797707,Nørremarken,6280,26,8.6924695,54.9698353
1797711,Nørremarken,6280,27,8.6900778,54.9700539
1797713,Nørremarken,6280,28,8.6919227,54.9698429
1797718,Nørremarken,6280,29,8.6901703,54.9702069
1797720,Nørremarken,6280,31,8.6904516,54.9701987
1797726,Nørremarken,6280,33,8.690921,54.970092
1797730,Nørremarken,6280,35,8.6913435,54.9699942
1803939,Nørreager,6280,1,8.6939642,54.9684282
1803941,Nørreager,6280,2,8.6944346,54.9681868
1803942,Nørreager,6280,3,8.6934489,54.9684
1803945,Nørreager,6280,4,8.6947789,54.9680978
1803946,Nørreager,6280,5,8.6929482,54.9685155
1803948,Nørreager,6280,6,8.6951544,54.9680178
1803950,Nørreager,6280,7,8.6931499,54.9686958
1803952,Nørreager,6280,8,8.6944953,54.9684296
1803954,Nørreager,6280,9,8.6932892,54.9688579
1803956,Nørreager,6280,10,8.6945416,54.9684926
1803957,Nørreager,6280,11,8.6937584,54.9687872
1803959,Nørreager,6280,12,8.694588,54.9685556
1803961,Nørreager,6280,13,8.6941646,54.9687792
1803963,Nørreager,6280,14,8.6946344,54.9686186
1803965,Nørreager,6280,15,8.6943959,54.9691752
1803966,Nørreager,6280,16,8.6946652,54.9686726
1803967,Nørreager,6280,17,8.6939119,54.969138
1803969,Nørreager,6280,18,8.6947116,54.9687357
1803971,Nørreager,6280,19,8.6934582,54.9692268
1803973,Nørreager,6280,20,8.694758,54.9687987
1803977,Nørreager,6280,21,8.6935974,54.9694068
1803979,Nørreager,6280,22,8.6948044,54.9688617
1803983,Nørreager,6280,23,8.6935644,54.9696404
1803986,Nørreager,6280,24,8.6949279,54.9690507
1803987,Nørreager,6280,25,8.6936262,54.9697304
1803990,Nørreager,6280,26,8.6949588,54.9691047
1803992,Nørreager,6280,27,8.6939397,54.9695874
1803995,Nørreager,6280,28,8.6950208,54.9691678
1803998,Nørreager,6280,29,8.6941431,54.969543
1803999,Nørreager,6280,30,8.6950671,54.9692308
1804002,Nørreager,6280,31,8.6944561,54.9694719
1804004,Nørreager,6280,32,8.6953798,54.9692046
1804006,Nørreager,6280,33,8.6946125,54.9694453
1804009,Nørreager,6280,34,8.6955049,54.969178
1804011,Nørreager,6280,36,8.6956614,54.9691424
1804014,Nørreager,6280,38,8.6958179,54.9691069
1804015,Nørreager,6280,40,8.6959744,54.9690713
1804018,Nørreager,6280,42,8.6961151,54.9690447
1804022,Nørreager,6280,44,8.695929,54.968862
1804024,Nørreager,6280,46,8.695889,54.968782
1804027,Nørreager,6280,48,8.69582,54.968693
1804028,Nørreager,6280,50,8.695771,54.968611
1804031,Nørreager,6280,52,8.695714,54.968533
1804033,Nørreager,6280,54,8.695685,54.968458
1804035,Nørreager,6280,56,8.695629,54.968385
1804037,Nørreager,6280,58,8.69557,54.968298
1804038,Nørreager,6280,60,8.695514,54.968224
1804039,Nørreager,6280,62,8.695466,54.968143
1804040,Nørreager,6280,64,8.6951043,54.9684491
1804041,Nørreager,6280,66,8.695166,54.9685571
1804042,Nørreager,6280,68,8.6952123,54.9686291
1804043,Nørreager,6280,70,8.6952739,54.968746
1808646,Nørrehedevej,6280,1,8.7713856,54.972822
1808650,Nørrehedevej,6280,2,8.7793676,54.9729806
1808652,Nørrehedevej,6280,3,8.7721041,54.9728414
1808654,Nørrehedevej,6280,4,8.78612,54.9723007
1808657,Nørrehedevej,6280,5,8.7726503,54.9729412
1808661,Nørrehedevej,6280,6,8.7990188,54.9733022
1808665,Nørrehedevej,6280,7,8.773043,54.9725556
1808667,Nørrehedevej,6280,8,8.8143967,54.9788803
1808670,Nørrehedevej,6280,9,8.7735269,54.9726284
1808672,Nørrehedevej,6280,10,8.8167214,54.9796027
1808678,Nørrehedevej,6280,11,8.7740424,54.9726383
1808683,Nørrehedevej,6280,13,8.7745417,54.9727471
1808686,Nørrehedevej,6280,15,8.7752442,54.9728292
1808691,Nørrehedevej,6280,17,8.776586,54.9731283
1808693,Nørrehedevej,6280,19,8.7820364,54.9734617
1808698,Nørrehedevej,6280,21,8.7861312,54.9731364
1808702,Nørrehedevej,6280,23,8.7964589,54.9728756
1808705,Nørrehedevej,6280,25,8.7998093,54.9745436
1808711,Nørrehedevej,6280,27,8.8016021,54.9753284
1808714,Nørrehedevej,6280,29,8.8025688,54.9757164
1808718,Nørrehedevej,6280,31,8.8043156,54.9763393
1808720,Nørrehedevej,6280,33,8.8064998,54.9769808
1808722,Nørrehedevej,6280,35,8.8106492,54.9783713
1808724,Nørrehedevej,6280,37,8.8114617,54.9783635
1810509,Hjerpstedvej,6280,1,8.7273645,55.0162977
1810510,Hjerpstedvej,6280,2,8.7368589,55.0184574
1810511,Hjerpstedvej,6280,3,8.7271754,55.016504
1810512,Hjerpstedvej,6280,4,8.7354839,55.0182657
1810513,Hjerpstedvej,6280,6,8.7264069,55.0168258
1810514,Hjerpstedvej,6280,7,8.7231938,55.0155784
1810515,Hjerpstedvej,6280,8,8.7244043,55.0169381
1810516,Hjerpstedvej,6280,9,8.694536,55.0165612
1810517,Hjerpstedvej,6280,10,8.7240146,55.0167575
1810519,Hjerpstedvej,6280,11,8.6566145,55.0198031
1810521,Hjerpstedvej,6280,12,8.723592,55.016783
1810523,Hjerpstedvej,6280,13,8.6560661,55.0199184
1810525,Hjerpstedvej,6280,14,8.6943585,55.0172797
1810528,Hjerpstedvej,6280,15,8.6556118,55.020007
1810530,Hjerpstedvej,6280,16,8.6614179,55.0195919
1810531,Hjerpstedvej,6280,17,8.6552381,55.0198082
1810535,Hjerpstedvej,6280,18,8.6608239,55.0195543
1810537,Hjerpstedvej,6280,19,8.654072,55.01913
1810540,Hjerpstedvej,6280,20,8.6604016,55.0195621
1810543,Hjerpstedvej,6280,21,8.6491832,55.0200425
1810546,Hjerpstedvej,6280,22,8.6586787,55.0198449
1810549,Hjerpstedvej,6280,24,8.6556247,55.0203305
1810552,Hjerpstedvej,6280,26,8.6544053,55.0202552
1810555,Hjerpstedvej,6280,28,8.6537009,55.0203251
1814426,Byvej,6280,1,8.656383,55.020466
1814428,Byvej,6280,2,8.657689,55.0203543
1814429,Byvej,6280,3,8.6562958,55.0204942
1814430,Byvej,6280,4,8.657497,55.020857
1814431,Byvej,6280,6,8.6579388,55.0222511
1814433,Byvej,6280,7,8.6567154,55.0208099
1814434,Byvej,6280,8,8.6583143,55.0222342
1814435,Byvej,6280,9,8.6569773,55.0212779
1814437,Byvej,6280,10,8.6589006,55.0231884
1814438,Byvej,6280,11,8.656942,55.0217541
1814440,Byvej,6280,12,8.6583172,55.023735
1814441,Byvej,6280,13,8.6569556,55.0219878
1814442,Byvej,6280,14,8.6579047,55.0244168
1814443,Byvej,6280,16,8.658143,55.0258193
1814445,Byvej,6280,17,8.6572655,55.0223301
1814447,Byvej,6280,19,8.657201,55.0226
1814448,Byvej,6280,21,8.6572092,55.0234353
1814450,Byvej,6280,23,8.6570793,55.0239921
1814451,Byvej,6280,25,8.6557985,55.0255971
1814453,Byvej,6280,27,8.6552666,55.0256045
1819035,Emmerlev Klev,6280,1,8.6630838,54.9869217
1819037,Emmerlev Klev,6280,2,8.664704,54.9875373
1819038,Emmerlev Klev,6280,3,8.6597262,54.988494
1819039,Emmerlev Klev,6280,4,8.6640489,54.9873827
1819041,Emmerlev Klev,6280,5,8.6595673,54.9887991
1819042,Emmerlev Klev,6280,6,8.6629072,54.9874874
1819044,Emmerlev Klev,6280,6A,8.6626739,54.9873519
1819045,Emmerlev Klev,6280,6B,8.6626737,54.9873789
1819046,Emmerlev Klev,6280,6C,8.6626734,54.9874059
1819048,Emmerlev Klev,6280,6D,8.6626732,54.9874328
1819050,Emmerlev Klev,6280,6E,8.662673,54.9874598
1819051,Emmerlev Klev,6280,6F,8.6626571,54.9874867
1819052,Emmerlev Klev,6280,6G,8.6626569,54.9875136
1819055,Emmerlev Klev,6280,6H,8.6626567,54.9875406
1819056,Emmerlev Klev,6280,6I,8.662641,54.987568
1819057,Emmerlev Klev,6280,6J,8.6626406,54.9875945
1819059,Emmerlev Klev,6280,7,8.6595038,54.9889157
1819060,Emmerlev Klev,6280,8,8.66111,54.987428
1819061,Emmerlev Klev,6280,8B,8.6616905,54.9872144
1819062,Emmerlev Klev,6280,9,8.6594404,54.9890234
1819065,Emmerlev Klev,6280,10,8.660715,54.987976
1819066,Emmerlev Klev,6280,11,8.6593457,54.989131
1819067,Emmerlev Klev,6280,13,8.6592824,54.9892296
1819068,Emmerlev Klev,6280,15,8.6591562,54.9893641
1819069,Emmerlev Klev,6280,16,8.6604172,54.9880915
1819071,Emmerlev Klev,6280,17,8.6589048,54.9895251
1819072,Emmerlev Klev,6280,18,8.660165,54.988325
1823212,Søndervej,6280,1,8.6746518,54.9826217
1823215,Søndervej,6280,2,8.6734911,54.9831668
1823217,Søndervej,6280,3,8.6740577,54.9826651
1823219,Søndervej,6280,4,8.6730823,54.9834712
1823221,Søndervej,6280,5,8.6721204,54.9826239
1823223,Søndervej,6280,6,8.6728319,54.9835245
1823227,Søndervej,6280,7,8.6650751,54.9861364
1823231,Søndervej,6280,8,8.672472,54.9835774
1823233,Søndervej,6280,9,8.6637345,54.9857373
1823236,Søndervej,6280,10,8.671971,54.9837019
1823239,Søndervej,6280,12,8.6706193,54.9846508
1823241,Søndervej,6280,14,8.6691156,54.9850871
1823245,Søndervej,6280,16,8.667376,54.98564
1823247,Søndervej,6280,18,8.6656492,54.9866322
1823252,Søndervej,6280,20,8.6653956,54.9870629
1823600,Nylandsvej,6280,1,8.6963014,54.9961125
1823603,Nylandsvej,6280,2,8.697407,54.996636
1823604,Nylandsvej,6280,3,8.6949497,54.9970976
1823607,Nylandsvej,6280,4,8.6959507,54.9970192
1823611,Nylandsvej,6280,5,8.6943546,54.9972399
1823613,Nylandsvej,6280,7,8.6939628,54.9973647
1823614,Nylandsvej,6280,8,8.6949793,54.9973044
1823618,Nylandsvej,6280,9,8.6935711,54.9974896
1823621,Nylandsvej,6280,10,8.6924707,54.9982956
1823622,Nylandsvej,6280,12,8.6942037,55.0006364
1823624,Nylandsvej,6280,13,8.693278,55.0031233
1823629,Nylandsvej,6280,14,8.6940116,55.00122
1823631,Nylandsvej,6280,15,8.6942341,55.0028022
1823633,Nylandsvej,6280,16,8.6940648,55.0024513
1826145,Sønderbyvej,6280,1,8.7363761,54.9656878
1826146,Sønderbyvej,6280,2,8.737045,54.966184
1826147,Sønderbyvej,6280,3,8.7361093,54.9658849
1826148,Sønderbyvej,6280,5,8.7366984,54.9665602
1826150,Sønderbyvej,6280,7,8.7371014,54.9670464
1826152,Sønderbyvej,6280,9,8.7373802,54.9674064
1826153,Sønderbyvej,6280,11,8.737488,54.9676403
1826154,Sønderbyvej,6280,13,8.7378295,54.9679645
1826155,Sønderbyvej,6280,15,8.7382775,54.9687294
1826157,Sønderbyvej,6280,17,8.7385269,54.9688198
1826158,Sønderbyvej,6280,19,8.7390264,54.9688658
1826159,Sønderbyvej,6280,21,8.7412875,54.9694727
1826160,Sønderbyvej,6280,23,8.7420368,54.9695642
2108480,Christian Ohlsen Vænget,6280,1,8.7026579,54.9630201
2108497,Christian Ohlsen Vænget,6280,2,8.7028309,54.9628538
2108502,Christian Ohlsen Vænget,6280,3,8.7027658,54.9632045
2108504,Christian Ohlsen Vænget,6280,4,8.7031433,54.962843
2108507,Christian Ohlsen Vænget,6280,6,8.7031422,54.9629983
2108511,Christian Ohlsen Vænget,6280,8,8.7031099,54.9631478
2108515,Christian Ohlsen Vænget,6280,10,8.7030617,54.963326
2108964,Digevang,6280,2,8.686776,54.966711
2108979,Digevang,6280,4,8.6867444,54.9668192
2108984,Digevang,6280,5,8.6864494,54.9665848
2108995,Digevang,6280,6,8.686665,54.9669808
2109001,Digevang,6280,7,8.6863548,54.9667014
2109013,Digevang,6280,8,8.6864927,54.9670522
2109017,Digevang,6280,9,8.6861661,54.9668627
2109027,Digevang,6280,10,8.6862576,54.9671505
2109030,Digevang,6280,11,8.6859935,54.9669701
2109039,Digevang,6280,12,8.6860699,54.9671859
2117477,Vadehavsvej,6280,2,8.662723,54.987056
2117482,Vadehavsvej,6280,4,8.662708,54.987011
2117488,Vadehavsvej,6280,6,8.6627084,54.9869656
2117493,Vadehavsvej,6280,8,8.6626931,54.9869296
2117502,Vadehavsvej,6280,10,8.6626934,54.9868847
2117509,Vadehavsvej,6280,12,8.6626626,54.9868307
2117514,Vadehavsvej,6280,14,8.662663,54.9867858
2117525,Vadehavsvej,6280,16,8.6626633,54.9867498
2117529,Vadehavsvej,6280,18,8.662648,54.9867138
2117534,Vadehavsvej,6280,20,8.6626327,54.9866688
2117540,Vadehavsvej,6280,22,8.6626331,54.9866239
2117548,Vadehavsvej,6280,24,8.6626179,54.9865789
2117555,Vadehavsvej,6280,26,8.6626026,54.986534
2117561,Vadehavsvej,6280,28,8.6625872,54.986507
2117571,Vadehavsvej,6280,30,8.662572,54.986453
2117581,Vadehavsvej,6280,32,8.6625724,54.9864081
2117589,Vadehavsvej,6280,34,8.6625728,54.9863631
2117603,Vadehavsvej,6280,36,8.6625575,54.9863272
2231071,Nørregade,6280,31A,8.695786,54.963818
2231072,Nørregade,6280,31B,8.695705,54.963823
2231073,Storegade,6280,10A,8.695808,54.96304
2231074,Storegade,6280,10B,8.695689,54.963029
2233040,Nørrebyen,6280,5A,8.741782,54.971163
2233041,Nørrebyen,6280,5B,8.741527,54.971156
2250521,Østerbyvej,6280,22A,8.768283,54.967787
