idx,street,postcode,housenumber,lon,lat
1502692,Bolderslevskovvej,6392,1,9.292763,54.992874
1502693,Bolderslevskovvej,6392,2,9.292449,54.992467
1502694,Bolderslevskovvej,6392,3,9.293083,54.992862
1502695,Bolderslevskovvej,6392,4,9.292771,54.992631
1502696,Bolderslevskovvej,6392,5,9.293476,54.99289
1502697,Bolderslevskovvej,6392,5B,9.294166,54.993
1502698,Bolderslevskovvej,6392,6,9.29321,54.992709
1502699,Bolderslevskovvej,6392,7,9.294314,54.992776
1502700,Bolderslevskovvej,6392,8,9.293385,54.992414
1502701,Bolderslevskovvej,6392,9,9.294623,54.992838
1502702,Bolderslevskovvej,6392,11,9.294811,54.99311
1502703,Bolderslevskovvej,6392,12,9.293819,54.992544
1502704,Bolderslevskovvej,6392,14,9.294233,54.992583
1502705,Bolderslevskovvej,6392,16,9.294338,54.992333
1502706,Bolderslevskovvej,6392,18,9.294374,54.992228
1502707,Bolderslevskovvej,6392,20,9.294428,54.992127
1502708,Bolderslevskovvej,6392,21,9.300089,54.992544
1502709,Bolderslevskovvej,6392,22,9.29449,54.99203
1502710,Bolderslevskovvej,6392,23,9.300675,54.992779
1502711,Bolderslevskovvej,6392,24,9.328658,54.999255
1502712,Bolderslevskovvej,6392,30,9.336955,55.001575
1502713,Bolderslevskovvej,6392,36,9.340174,55.002741
1502714,Bolderslevskovvej,6392,45,9.344994,55.00445
1502715,Bolderslevskovvej,6392,46,9.346877,55.004045
1502716,Bolderslevskovvej,6392,55,9.347299,55.00554
1502717,Bolderslevskovvej,6392,61,9.347541,55.006993
1502906,Mellerup Bygade,6392,1,9.301778,55.005488
1502907,Mellerup Bygade,6392,2,9.301638,55.006015
1502909,Mellerup Bygade,6392,3,9.301321,55.005492
1502910,Mellerup Bygade,6392,5,9.297942,55.005615
1502913,Mellerup Bygade,6392,7,9.298444,55.005782
1502915,Mellerup Bygade,6392,9,9.29997,55.0057
1502916,Mellerup Bygade,6392,10,9.300931,55.008128
1502918,Mellerup Bygade,6392,11,9.30051,55.007903
1502920,Mellerup Bygade,6392,16,9.301193,55.009412
1502922,Mellerup Bygade,6392,17,9.300636,55.009024
1502923,Mellerup Bygade,6392,20,9.300717,55.010186
1502925,Mellerup Bygade,6392,21,9.300245,55.009604
1502960,Hjordkærvej,6392,3,9.281558,55.011046
1502961,Hjordkærvej,6392,4,9.27813,55.010924
1502962,Hjordkærvej,6392,10,9.265096,55.009654
1502963,Hjordkærvej,6392,11,9.262924,55.008625
1502964,Hjordkærvej,6392,16,9.254279,55.008186
1502965,Hjordkærvej,6392,17,9.253286,55.007316
1502966,Hjordkærvej,6392,18,9.253461,55.007892
1502967,Hjordkærvej,6392,20,9.252343,55.007499
1502968,Hjordkærvej,6392,21,9.252811,55.00645
1502969,Hjordkærvej,6392,23,9.252487,55.005986
1502970,Hjordkærvej,6392,24,9.251021,55.00709
1502971,Hjordkærvej,6392,25,9.252325,55.006434
1502972,Hjordkærvej,6392,26,9.249948,55.007308
1502973,Hjordkærvej,6392,28,9.249603,55.006331
1502974,Hjordkærvej,6392,40,9.230992,54.997607
1718801,Urnehovedvej,6392,1,9.29036,54.986909
1718803,Urnehovedvej,6392,2,9.290845,54.987507
1718806,Urnehovedvej,6392,3,9.290815,54.986942
1718808,Urnehovedvej,6392,4,9.290671,54.98772
1718810,Urnehovedvej,6392,5,9.291094,54.986919
1718811,Urnehovedvej,6392,6,9.290701,54.988042
1718814,Urnehovedvej,6392,8,9.290558,54.988256
1718816,Urnehovedvej,6392,9,9.291066,54.986793
1718818,Urnehovedvej,6392,10,9.29056,54.988551
1718820,Urnehovedvej,6392,11,9.290678,54.986695
1718822,Urnehovedvej,6392,12,9.290094,54.988469
1718825,Urnehovedvej,6392,14,9.290097,54.988131
1718827,Urnehovedvej,6392,15,9.290798,54.986164
1718829,Urnehovedvej,6392,16,9.289682,54.988045
1718831,Urnehovedvej,6392,17,9.290711,54.986116
1718832,Urnehovedvej,6392,18,9.289343,54.98792
1718834,Urnehovedvej,6392,19,9.290421,54.986284
1718836,Urnehovedvej,6392,20,9.288823,54.987704
1718838,Urnehovedvej,6392,21,9.28991,54.986689
1718840,Urnehovedvej,6392,22,9.288889,54.98747
1718842,Urnehovedvej,6392,23,9.289894,54.986938
1718844,Urnehovedvej,6392,24,9.28947,54.987569
1718845,Urnehovedvej,6392,25,9.287397,54.986835
1718846,Urnehovedvej,6392,26,9.289784,54.987632
1718847,Urnehovedvej,6392,27,9.287035,54.986758
1718848,Urnehovedvej,6392,28,9.28813,54.987404
1718849,Urnehovedvej,6392,29,9.286568,54.986739
1718850,Urnehovedvej,6392,30,9.288034,54.987652
1718851,Urnehovedvej,6392,31,9.2861,54.986719
1718852,Urnehovedvej,6392,32,9.288035,54.987955
1718853,Urnehovedvej,6392,33,9.285643,54.986684
1718854,Urnehovedvej,6392,34,9.287938,54.988246
1718855,Urnehovedvej,6392,35,9.285163,54.986662
1718856,Urnehovedvej,6392,36,9.287759,54.98849
1718857,Urnehovedvej,6392,37,9.285475,54.986496
1718858,Urnehovedvej,6392,38,9.287641,54.988742
1718859,Urnehovedvej,6392,39,9.285771,54.98634
1718860,Urnehovedvej,6392,40,9.287397,54.988711
1718861,Urnehovedvej,6392,41,9.286072,54.986212
1718862,Urnehovedvej,6392,42,9.287377,54.988462
1718863,Urnehovedvej,6392,43,9.286325,54.986505
1718864,Urnehovedvej,6392,44,9.287329,54.988202
1718865,Urnehovedvej,6392,45,9.28673,54.986575
1718866,Urnehovedvej,6392,46,9.287361,54.987858
1718867,Urnehovedvej,6392,47,9.287127,54.986544
1718868,Urnehovedvej,6392,48,9.28745,54.987628
1718869,Urnehovedvej,6392,49,9.287545,54.986573
1718871,Urnehovedvej,6392,50,9.287558,54.987398
1718873,Urnehovedvej,6392,51,9.287714,54.986312
1718875,Urnehovedvej,6392,52,9.286712,54.987355
1718876,Urnehovedvej,6392,53,9.287822,54.986016
1718877,Urnehovedvej,6392,54,9.286605,54.987614
1718880,Urnehovedvej,6392,55,9.287669,54.985721
1718881,Urnehovedvej,6392,56,9.286664,54.987865
1718883,Urnehovedvej,6392,57,9.287219,54.985885
1718885,Urnehovedvej,6392,58,9.286622,54.988191
1718887,Urnehovedvej,6392,59,9.286963,54.986032
1718890,Urnehovedvej,6392,60,9.286526,54.988452
1718891,Urnehovedvej,6392,61,9.286765,54.986024
1718893,Urnehovedvej,6392,62,9.286476,54.988683
1718894,Urnehovedvej,6392,63,9.286554,54.985977
1718896,Urnehovedvej,6392,64,9.286166,54.988621
1718897,Urnehovedvej,6392,65,9.28665,54.985822
1718898,Urnehovedvej,6392,66,9.2861,54.988419
1718899,Urnehovedvej,6392,67,9.286932,54.98567
1718900,Urnehovedvej,6392,68,9.286004,54.988165
1718901,Urnehovedvej,6392,69,9.287275,54.985537
1718902,Urnehovedvej,6392,70,9.285977,54.987824
1718903,Urnehovedvej,6392,71,9.287776,54.985257
1718904,Urnehovedvej,6392,72,9.286051,54.987535
1718905,Urnehovedvej,6392,73,9.28809,54.985078
1718906,Urnehovedvej,6392,74,9.286068,54.98731
1718907,Urnehovedvej,6392,76,9.285114,54.987335
1718908,Urnehovedvej,6392,77,9.28863,54.984648
1718909,Urnehovedvej,6392,78,9.285121,54.98765
1718910,Urnehovedvej,6392,79,9.288774,54.984896
1718911,Urnehovedvej,6392,80,9.285288,54.987888
1718912,Urnehovedvej,6392,81,9.289353,54.985134
1718913,Urnehovedvej,6392,82,9.285381,54.988217
1718914,Urnehovedvej,6392,83,9.28913,54.985278
1718915,Urnehovedvej,6392,84,9.285366,54.988462
1718916,Urnehovedvej,6392,85,9.288749,54.985541
1718917,Urnehovedvej,6392,86,9.285431,54.988783
1718918,Urnehovedvej,6392,87,9.288423,54.985236
1718919,Urnehovedvej,6392,88,9.28511,54.988727
1718920,Urnehovedvej,6392,89,9.287904,54.985336
1718921,Urnehovedvej,6392,90,9.284949,54.988532
1718922,Urnehovedvej,6392,91,9.288448,54.986086
1718923,Urnehovedvej,6392,92,9.284761,54.988295
1718924,Urnehovedvej,6392,93,9.288223,54.986334
1718925,Urnehovedvej,6392,94,9.284606,54.987985
1718926,Urnehovedvej,6392,95,9.288056,54.986881
1718927,Urnehovedvej,6392,96,9.284549,54.987765
1718928,Urnehovedvej,6392,97,9.288544,54.986879
1718929,Urnehovedvej,6392,98,9.284477,54.987539
1718930,Urnehovedvej,6392,99,9.288965,54.986871
1718931,Urnehovedvej,6392,100,9.283827,54.987675
1718932,Urnehovedvej,6392,101,9.28912,54.986659
1718933,Urnehovedvej,6392,102,9.283945,54.987874
1718934,Urnehovedvej,6392,103,9.289258,54.986371
1718935,Urnehovedvej,6392,104,9.284097,54.988129
1718936,Urnehovedvej,6392,105,9.289849,54.985987
1718938,Urnehovedvej,6392,106,9.284286,54.988492
1718940,Urnehovedvej,6392,107,9.29015,54.985903
1718942,Urnehovedvej,6392,108,9.284468,54.988784
1718944,Urnehovedvej,6392,109,9.290227,54.985715
1718945,Urnehovedvej,6392,110,9.284113,54.98882
1718948,Urnehovedvej,6392,111,9.29015,54.985568
1718950,Urnehovedvej,6392,112,9.283852,54.988573
1718951,Urnehovedvej,6392,113,9.289732,54.985436
1718953,Urnehovedvej,6392,114,9.283413,54.988394
1718955,Urnehovedvej,6392,115,9.289438,54.985447
1718957,Urnehovedvej,6392,116,9.283174,54.988169
1718958,Urnehovedvej,6392,117,9.289139,54.985701
1718960,Urnehovedvej,6392,118,9.283197,54.98791
1718962,Urnehovedvej,6392,119,9.289502,54.985907
1718964,Urnehovedvej,6392,121,9.289008,54.986258
1718965,Urnehovedvej,6392,123,9.288683,54.986489
1718966,Urnehovedvej,6392,125,9.288115,54.986578
1718967,Urnehovedvej,6392,127,9.284238,54.987048
1719125,Bolderslev Nørregade,6392,2A,9.282266,54.992711
1719127,Bolderslev Nørregade,6392,2B,9.282264,54.99285
1719130,Bolderslev Nørregade,6392,3,9.281933,54.992888
1719132,Bolderslev Nørregade,6392,4,9.282315,54.992989
1719135,Bolderslev Nørregade,6392,5,9.281956,54.99307
1719137,Bolderslev Nørregade,6392,6,9.282365,54.993217
1719139,Bolderslev Nørregade,6392,7,9.281862,54.993364
1719140,Bolderslev Nørregade,6392,8,9.282263,54.993375
1719141,Bolderslev Nørregade,6392,9,9.281696,54.993685
1719142,Bolderslev Nørregade,6392,10,9.282265,54.993536
1719143,Bolderslev Nørregade,6392,11,9.281801,54.994094
1719144,Bolderslev Nørregade,6392,12,9.282353,54.993705
1719145,Bolderslev Nørregade,6392,14,9.282861,54.99377
1719146,Bolderslev Nørregade,6392,16,9.283122,54.994033
1719147,Bolderslev Nørregade,6392,18,9.282718,54.994004
1719148,Bolderslev Nørregade,6392,20,9.282401,54.993988
1719149,Bolderslev Nørregade,6392,22,9.282521,54.994256
1719150,Bolderslev Nørregade,6392,24,9.282669,54.994265
1719151,Bolderslev Nørregade,6392,26,9.282952,54.994346
1719154,Bolderslev Nørregade,6392,28,9.28306,54.994318
1719156,Bolderslev Nørregade,6392,30,9.283073,54.994514
1719157,Bolderslev Nørregade,6392,32,9.283192,54.994491
1719158,Bolderslev Nørregade,6392,34,9.283176,54.994684
1719159,Bolderslev Nørregade,6392,36,9.283308,54.994658
1719160,Bolderslev Nørregade,6392,38,9.282997,54.994816
1719161,Bolderslev Nørregade,6392,40,9.282824,54.994856
1719162,Bolderslev Nørregade,6392,42,9.282864,54.994662
1719163,Bolderslev Nørregade,6392,44,9.282713,54.994685
1719164,Bolderslev Nørregade,6392,46,9.282281,54.995015
1719165,Bolderslev Nørregade,6392,48,9.282112,54.995013
1719166,Bolderslev Nørregade,6392,50,9.282316,54.994873
1719168,Bolderslev Nørregade,6392,52,9.282118,54.994869
1719169,Bolderslev Nørregade,6392,54,9.282277,54.994532
1719170,Bolderslev Nørregade,6392,56,9.282133,54.99452
1719174,Bolderslev Nørregade,6392,58,9.281939,54.99456
1719176,Bolderslev Nørregade,6392,60,9.281803,54.994556
1719180,Bolderslev Nørregade,6392,62,9.281819,54.99472
1719185,Bolderslev Nørregade,6392,64,9.281826,54.994797
1719187,Bolderslev Nørregade,6392,66,9.281813,54.994917
1719191,Bolderslev Nørregade,6392,68,9.281816,54.994996
1719192,Bolderslev Nørregade,6392,70,9.28185,54.995118
1719420,Søndergade,6392,1,9.285748,54.990498
1719422,Søndergade,6392,2,9.286149,54.991193
1719424,Søndergade,6392,3A,9.283791,54.989427
1719425,Søndergade,6392,3B,9.284189,54.989339
1719427,Søndergade,6392,3C,9.284324,54.989126
1719429,Søndergade,6392,3D,9.283827,54.989158
1719431,Søndergade,6392,4,9.28537,54.991097
1719433,Søndergade,6392,5,9.283371,54.989262
1719435,Søndergade,6392,6,9.285069,54.990679
1719437,Søndergade,6392,7,9.283197,54.989149
1719439,Søndergade,6392,8,9.284835,54.990571
1719441,Søndergade,6392,9,9.283025,54.988893
1719443,Søndergade,6392,10,9.284563,54.990499
1719445,Søndergade,6392,11,9.282827,54.988765
1719447,Søndergade,6392,12,9.28425,54.990409
1719449,Søndergade,6392,14,9.283983,54.990175
1719451,Søndergade,6392,16,9.283712,54.989975
1719453,Søndergade,6392,18,9.283258,54.98994
1719455,Søndergade,6392,20,9.28281,54.989821
1719457,Søndergade,6392,22,9.282975,54.989315
1719459,Søndergade,6392,24,9.282566,54.989097
1720301,Uge Teglgård,6392,1,9.307153,54.978778
1721505,Hellevad-Bovvej,6392,10,9.27114,54.992745
1721506,Hellevad-Bovvej,6392,11,9.266675,54.998356
1721507,Hellevad-Bovvej,6392,15,9.288743,54.984013
1721753,Vollerup Møllevej,6392,5,9.207765,54.994983
1721756,Vollerup Møllevej,6392,7,9.207207,54.995183
1721757,Vollerup Møllevej,6392,9,9.205353,54.995007
1722255,Gåskær Overdrev,6392,1,9.226225,54.975588
1723110,Randerstoftvej,6392,4,9.254095,54.990414
1723111,Randerstoftvej,6392,5,9.254774,54.990315
1723587,Porsbølvej,6392,11,9.292108,54.975159
1724209,Bredhøjvej,6392,1,9.288372,54.983469
1724211,Bredhøjvej,6392,6,9.283268,54.982375
1724212,Bredhøjvej,6392,8,9.281168,54.981446
1724215,Bredhøjvej,6392,12,9.277686,54.980131
1724352,Trekroner,6392,2A,9.294713,54.989241
1724354,Trekroner,6392,2B,9.294976,54.989235
1724356,Trekroner,6392,7,9.294267,54.989561
1724357,Trekroner,6392,9,9.29495,54.989569
1724359,Trekroner,6392,11,9.29537,54.98957
1724361,Trekroner,6392,12,9.302011,54.987205
1724363,Trekroner,6392,16,9.301555,54.989081
1724365,Trekroner,6392,24,9.314248,54.989936
1724684,Bag Volden,6392,1,9.2955733,54.9928364
1724685,Bag Volden,6392,2,9.296138,54.992794
1724686,Bag Volden,6392,3,9.295491,54.993046
1724687,Bag Volden,6392,4,9.296585,54.992826
1724688,Bag Volden,6392,5,9.295425,54.993248
1724689,Bag Volden,6392,6,9.297007,54.992847
1724690,Bag Volden,6392,7,9.295267,54.993574
1724691,Bag Volden,6392,8,9.296779,54.993128
1724692,Bag Volden,6392,9,9.294918,54.993588
1724693,Bag Volden,6392,10,9.29652,54.993089
1724694,Bag Volden,6392,11,9.294536,54.993554
1724695,Bag Volden,6392,12,9.296059,54.993068
1724696,Bag Volden,6392,13A,9.294117,54.993536
1724697,Bag Volden,6392,13B,9.294079,54.993186
1724699,Bag Volden,6392,14,9.295925,54.993478
1724701,Bag Volden,6392,15A,9.293535,54.9932
1724703,Bag Volden,6392,15B,9.293402,54.993456
1724705,Bag Volden,6392,16,9.296264,54.99347
1724707,Bag Volden,6392,17,9.293742,54.993682
1724709,Bag Volden,6392,18,9.29662,54.993531
1724711,Bag Volden,6392,19,9.294063,54.993776
1724713,Bag Volden,6392,20,9.296619,54.993731
1724714,Bag Volden,6392,21,9.294413,54.99385
1724715,Bag Volden,6392,22,9.296069,54.993845
1724716,Bag Volden,6392,23,9.294808,54.993841
1724717,Bag Volden,6392,24,9.295807,54.993758
1724718,Bag Volden,6392,25,9.295226,54.993996
1724719,Bag Volden,6392,26,9.295661,54.994154
1724720,Bag Volden,6392,27,9.29504,54.99433
1724721,Bag Volden,6392,28,9.296041,54.994184
1724722,Bag Volden,6392,29,9.294701,54.994289
1724723,Bag Volden,6392,30,9.29632,54.994219
1724724,Bag Volden,6392,31,9.294337,54.994326
1724725,Bag Volden,6392,32,9.296277,54.994493
1724726,Bag Volden,6392,33,9.294651,54.994578
1724727,Bag Volden,6392,34,9.295941,54.994461
1724728,Bag Volden,6392,35,9.295014,54.994679
1724729,Bag Volden,6392,36,9.295589,54.994438
1724730,Bag Volden,6392,38,9.295433,54.994874
1724731,Bag Volden,6392,40,9.295907,54.994917
1724732,Bag Volden,6392,42,9.295921,54.995149
1724733,Bag Volden,6392,44,9.295456,54.995127
1724945,Brogade,6392,1,9.279445,54.988724
1724946,Brogade,6392,2,9.279701,54.988455
1724947,Brogade,6392,3,9.279746,54.988799
1725087,Æ Stajsvej,6392,5,9.293655,54.994738
1725088,Æ Stajsvej,6392,20,9.300755,54.997959
1725089,Æ Stajsvej,6392,25,9.305835,55.002162
1725090,Æ Stajsvej,6392,31,9.305885,55.002794
1725399,Drejervej,6392,1,9.268282,54.991203
1725400,Drejervej,6392,2,9.267983,54.991673
1725403,Drejervej,6392,3,9.26774,54.991155
1725404,Drejervej,6392,4,9.267482,54.991497
1725974,Ringvej,6392,1,9.2692,54.994156
1725975,Ringvej,6392,1A,9.271038,54.994664
1725976,Ringvej,6392,2,9.288451,54.992873
1725977,Ringvej,6392,6,9.268642,54.987319
1726203,Smedefod,6392,1,9.290139,54.991415
1726204,Smedefod,6392,2,9.28892,54.991605
1726205,Smedefod,6392,4,9.289245,54.991525
1726206,Smedefod,6392,4A,9.288896,54.991254
1726207,Smedefod,6392,4B,9.289084,54.990938
1726208,Smedefod,6392,6,9.289473,54.991331
1726209,Smedefod,6392,8,9.289561,54.991148
1726210,Smedefod,6392,10,9.289594,54.990851
1726211,Smedefod,6392,10A,9.288377,54.990291
1726212,Smedefod,6392,12,9.289788,54.990445
1726213,Smedefod,6392,14,9.289915,54.990142
1726214,Smedefod,6392,16,9.290062,54.98985
1726215,Smedefod,6392,20,9.29038,54.989162
1726216,Smedefod,6392,51,9.291976,54.985882
1726333,Ravedvej,6392,3,9.251248,55.005374
1726334,Ravedvej,6392,25,9.255385,54.996069
1743523,Egevænget,6392,1A,9.279334,54.994495
1743525,Egevænget,6392,1B,9.27933,54.994577
1743528,Egevænget,6392,2,9.280023,54.994449
1743531,Egevænget,6392,3A,9.279407,54.994727
1743533,Egevænget,6392,3B,9.279405,54.994829
1743535,Egevænget,6392,4,9.280168,54.994446
1743539,Egevænget,6392,5,9.279656,54.995059
1743542,Egevænget,6392,6,9.280288,54.994445
1743543,Egevænget,6392,8,9.280471,54.994444
1743548,Egevænget,6392,9,9.280215,54.99508
1743549,Egevænget,6392,10,9.280626,54.994455
1743552,Egevænget,6392,11,9.280209,54.994777
1743554,Egevænget,6392,12,9.280751,54.994455
1743556,Egevænget,6392,13,9.280556,54.994778
1743559,Egevænget,6392,14,9.280699,54.994278
1743560,Egevænget,6392,15,9.28056,54.995083
1743562,Egevænget,6392,16,9.280701,54.994212
1743564,Egevænget,6392,17,9.28091,54.995088
1743566,Egevænget,6392,18,9.28073,54.994136
1743568,Egevænget,6392,19,9.281326,54.995069
1743570,Egevænget,6392,20,9.280731,54.994054
1743571,Egevænget,6392,21,9.281315,54.994777
1743573,Egevænget,6392,22,9.280461,54.994072
1743575,Egevænget,6392,23,9.281171,54.994503
1743576,Egevænget,6392,24,9.280288,54.994068
1743578,Egevænget,6392,25,9.281179,54.994299
1743580,Egevænget,6392,26,9.280127,54.994078
1743581,Egevænget,6392,27,9.2812,54.994043
1743584,Egevænget,6392,28,9.280003,54.994076
1743585,Egevænget,6392,29,9.28122,54.993755
1743587,Egevænget,6392,30,9.279801,54.994056
1743588,Egevænget,6392,31,9.281227,54.993442
1743590,Egevænget,6392,32,9.279753,54.994199
1743591,Egevænget,6392,34,9.279764,54.99427
1743593,Egevænget,6392,36,9.279775,54.994366
1743595,Egevænget,6392,38,9.279781,54.994445
1743596,Egevænget,6392,40,9.280092,54.993803
1743597,Egevænget,6392,42,9.280095,54.993705
1743599,Egevænget,6392,44,9.280098,54.993605
1743600,Egevænget,6392,45A,9.279416,54.993291
1743602,Egevænget,6392,45B,9.279414,54.993362
1743603,Egevænget,6392,45C,9.279416,54.993442
1743606,Egevænget,6392,46,9.2801,54.993514
1743607,Egevænget,6392,47A,9.279341,54.993553
1743609,Egevænget,6392,47B,9.279335,54.993623
1743611,Egevænget,6392,47C,9.279331,54.993706
1743613,Egevænget,6392,48,9.279693,54.993391
1743615,Egevænget,6392,49A,9.27931,54.993887
1743617,Egevænget,6392,49B,9.279307,54.99399
1743619,Egevænget,6392,50,9.279941,54.993394
1743622,Egevænget,6392,51A,9.279268,54.994142
1743623,Egevænget,6392,51B,9.279268,54.994223
1743625,Egevænget,6392,52,9.28015,54.993395
1743627,Egevænget,6392,54,9.2804,54.993396
1743629,Egevænget,6392,56,9.2806,54.9934
1743631,Egevænget,6392,58,9.280839,54.9934
1743632,Egevænget,6392,60,9.280524,54.993518
1743635,Egevænget,6392,62,9.280516,54.993608
1743636,Egevænget,6392,64,9.280517,54.993711
1743638,Egevænget,6392,66,9.280513,54.9938
1745459,Vollerup Byvej,6392,2,9.227169,54.99747
1745460,Vollerup Byvej,6392,8,9.221153,54.997432
1745461,Vollerup Byvej,6392,10,9.220687,54.997337
1745462,Vollerup Byvej,6392,11,9.217428,54.996699
1745463,Vollerup Byvej,6392,12,9.214585,54.996778
1745464,Vollerup Byvej,6392,16,9.205315,54.996434
1745465,Vollerup Byvej,6392,18,9.205488,54.996815
1745466,Vollerup Byvej,6392,20,9.204649,54.996718
1745467,Vollerup Byvej,6392,22,9.203784,54.996706
1745468,Vollerup Byvej,6392,24,9.203242,54.996558
1745469,Vollerup Byvej,6392,25,9.2038,54.996157
1745470,Vollerup Byvej,6392,28,9.20223,54.99661
1745471,Vollerup Byvej,6392,29,9.202523,54.995995
1745472,Vollerup Byvej,6392,30A,9.20128,54.996821
1745473,Vollerup Byvej,6392,30B,9.20146,54.996542
1745474,Vollerup Byvej,6392,31,9.20164,54.995992
1745475,Vollerup Byvej,6392,32,9.200665,54.996521
1745476,Vollerup Byvej,6392,33,9.201105,54.996063
1745477,Vollerup Byvej,6392,34,9.200259,54.9964
1745478,Vollerup Byvej,6392,35,9.200457,54.995957
1745479,Vollerup Byvej,6392,36,9.199662,54.996339
1745480,Vollerup Byvej,6392,37,9.199941,54.99591
1745481,Vollerup Byvej,6392,38,9.199247,54.996223
1745482,Vollerup Byvej,6392,39,9.199477,54.995839
1745483,Vollerup Byvej,6392,40,9.198661,54.996166
1745484,Vollerup Byvej,6392,41,9.199159,54.995777
1745485,Vollerup Byvej,6392,43,9.198861,54.995576
1745486,Vollerup Byvej,6392,44,9.197974,54.995827
1745487,Vollerup Byvej,6392,45,9.198636,54.995362
1745488,Vollerup Byvej,6392,46,9.197601,54.99569
1745489,Vollerup Byvej,6392,47,9.198255,54.995633
1745490,Vollerup Byvej,6392,48,9.196568,54.995468
1745491,Vollerup Byvej,6392,49,9.197638,54.995401
1745492,Vollerup Byvej,6392,50,9.195557,54.995381
1745493,Vollerup Byvej,6392,51,9.197028,54.995065
1745494,Vollerup Byvej,6392,60,9.186507,54.991588
1745495,Vollerup Byvej,6392,64,9.185061,54.990962
1745496,Vollerup Byvej,6392,68,9.182405,54.989468
1745497,Vollerup Byvej,6392,72,9.180938,54.989024
1745498,Vollerup Byvej,6392,76,9.176643,54.987376
1747367,Industrivej,6392,1,9.271879,54.991989
1747372,Industrivej,6392,2,9.271161,54.991699
1747374,Industrivej,6392,3,9.271661,54.991249
1747375,Industrivej,6392,4,9.271088,54.991401
1747379,Industrivej,6392,6,9.271061,54.990891
1747380,Industrivej,6392,8,9.270515,54.99088
1747382,Industrivej,6392,11,9.271855,54.990446
1747385,Industrivej,6392,13,9.270515,54.990254
1747387,Industrivej,6392,14,9.269251,54.990864
1747389,Industrivej,6392,21,9.269302,54.990264
1748173,Stormsgårdevej,6392,9,9.233114,55.011415
1748174,Stormsgårdevej,6392,11,9.231396,55.011338
1748175,Stormsgårdevej,6392,15,9.228975,55.012757
1748176,Stormsgårdevej,6392,16,9.227877,55.01548
1748408,Skansevej,6392,1,9.281785,54.988637
1748410,Skansevej,6392,2,9.282207,54.989072
1748414,Skansevej,6392,3,9.281371,54.988482
1748415,Skansevej,6392,4,9.281878,54.989013
1748416,Skansevej,6392,5,9.2811059,54.98852
1748417,Skansevej,6392,6,9.28118,54.989272
1748418,Skansevej,6392,7,9.281153,54.988337
1748419,Skansevej,6392,8,9.28145,54.988936
1748420,Skansevej,6392,9,9.280682,54.988053
1748421,Skansevej,6392,10,9.281132,54.988905
1748422,Skansevej,6392,12,9.280773,54.988891
1748797,Nygade,6392,1,9.276657,54.991497
1748798,Nygade,6392,2,9.276534,54.99177
1748801,Nygade,6392,3,9.276346,54.991491
1748803,Nygade,6392,4,9.276148,54.991769
1748804,Nygade,6392,5,9.27592,54.991486
1748806,Nygade,6392,6,9.275633,54.991816
1748808,Nygade,6392,7,9.275565,54.991479
1748809,Nygade,6392,8,9.275367,54.991763
1748811,Nygade,6392,9,9.275216,54.991453
1748813,Nygade,6392,10,9.274997,54.991752
1748816,Nygade,6392,11,9.274804,54.991438
1751096,Jernbanesvinget,6392,2,9.281269,54.991825
1751098,Jernbanesvinget,6392,2A,9.280997,54.991526
1751100,Jernbanesvinget,6392,3,9.280732,54.99124
1751102,Jernbanesvinget,6392,4,9.280447,54.991708
1751104,Jernbanesvinget,6392,5,9.280337,54.991285
1751107,Jernbanesvinget,6392,6,9.280331,54.99149
1751108,Jernbanesvinget,6392,7,9.279942,54.991284
1751111,Jernbanesvinget,6392,8,9.279882,54.991514
1751113,Jernbanesvinget,6392,9,9.279672,54.991308
1751116,Jernbanesvinget,6392,11,9.279422,54.99132
1751768,Tunnelvej,6392,1,9.277943,54.98765
1751770,Tunnelvej,6392,2,9.277598,54.987847
1751772,Tunnelvej,6392,3,9.279207,54.987542
1751773,Tunnelvej,6392,4,9.2773,54.987634
1751776,Tunnelvej,6392,5,9.277692,54.987201
1751778,Tunnelvej,6392,6,9.277153,54.987468
1751780,Tunnelvej,6392,7,9.277535,54.987003
1751782,Tunnelvej,6392,8,9.276975,54.98726
1751783,Tunnelvej,6392,10,9.276814,54.987073
1752396,Hjolderupvej,6392,4,9.247436,55.017081
1752398,Hjolderupvej,6392,6,9.24828,55.016577
1752399,Hjolderupvej,6392,8,9.249011,55.017204
1752401,Hjolderupvej,6392,11,9.248689,55.017495
1752402,Hjolderupvej,6392,12,9.25007,55.017607
1752403,Hjolderupvej,6392,14,9.250609,55.017711
1752404,Hjolderupvej,6392,15,9.24797,55.018401
1752405,Hjolderupvej,6392,20,9.247422,55.019222
1752407,Hjolderupvej,6392,24,9.245867,55.018343
1752410,Hjolderupvej,6392,26,9.244996,55.018305
1753636,Rolighedsvej,6392,1,9.291394,54.993052
1753637,Rolighedsvej,6392,2,9.292217,54.993042
1753638,Rolighedsvej,6392,4,9.292234,54.993276
1753639,Rolighedsvej,6392,6,9.292316,54.993679
1753640,Rolighedsvej,6392,8,9.292334,54.99385
1753641,Rolighedsvej,6392,10,9.292691,54.993666
1753642,Rolighedsvej,6392,20,9.293094,54.99459
1755857,Ingebølvej,6392,4,9.240947,54.987823
1755858,Ingebølvej,6392,10,9.239956,54.984251
1755859,Ingebølvej,6392,14,9.238755,54.982838
1755860,Ingebølvej,6392,15,9.238737,54.98193
1755861,Ingebølvej,6392,18,9.236194,54.98089
1755862,Ingebølvej,6392,53,9.236854,54.978707
1755863,Ingebølvej,6392,57,9.236423,54.976598
1756676,Vollerupvej,6392,35,9.215868,54.97739
1756680,Vollerupvej,6392,44,9.210574,54.98815
1756682,Vollerupvej,6392,45A,9.208001,54.986801
1756685,Vollerupvej,6392,45B,9.207611,54.986679
1757546,Oksevejen,6392,55,9.320308,54.995704
1758679,Lysegvej,6392,4,9.337747,54.994994
1758680,Lysegvej,6392,10,9.341116,54.996196
1758681,Lysegvej,6392,16,9.344311,54.997343
1758682,Lysegvej,6392,18,9.346158,54.99773
1759595,Vollerup Søndermark,6392,5,9.221666,54.99392
1759596,Vollerup Søndermark,6392,9,9.220002,54.993878
1759598,Vollerup Søndermark,6392,15,9.216726,54.993564
1759600,Vollerup Søndermark,6392,19,9.213545,54.993329
1760072,Obbehusvej,6392,2,9.175813,54.986096
1760074,Obbehusvej,6392,6,9.175866,54.985049
1760077,Obbehusvej,6392,20,9.181039,54.977668
1760078,Obbehusvej,6392,22,9.181729,54.976977
1761323,Vollerup Nørrevej,6392,3,9.203335,54.997875
1761328,Vollerup Nørrevej,6392,7,9.203824,54.998302
1761331,Vollerup Nørrevej,6392,9,9.204651,54.998399
1761797,Nygårdvej,6392,9,9.340319,55.005967
1761798,Nygårdvej,6392,11,9.338518,55.005706
1761799,Nygårdvej,6392,12,9.3331,55.004757
1762050,Hjolderupmarkvej,6392,6,9.231909,55.018825
1762053,Hjolderupmarkvej,6392,10,9.228238,55.018166
1762111,Hjolderup Klintvej,6392,3,9.249199,55.019112
1762112,Hjolderup Klintvej,6392,4,9.249742,55.018901
1762114,Hjolderup Klintvej,6392,5,9.249719,55.019426
1762645,Vindmøllevej,6392,1,9.268424,54.989952
1762646,Vindmøllevej,6392,1A,9.267918,54.989761
1762647,Vindmøllevej,6392,2,9.268307,54.99051
1762928,Porskær,6392,3,9.30226,54.978157
1762930,Porskær,6392,4,9.302392,54.977798
1762971,Nyborgvej,6392,4,9.328564,55.000867
1763222,Højagervej,6392,3,9.315732,55.004036
1763224,Højagervej,6392,5,9.315523,55.00482
1763760,Vollerupmarkvej,6392,5,9.212739,55.004933
1763832,Uge Hulvej,6392,1,9.295552,54.968972
1763853,Øgeløkke,6392,3,9.313198,54.981467
1763986,Ny Porsbølvej,6392,4,9.28921,54.974249
1764011,Mølhøjvej,6392,2,9.304371,55.005873
1764049,Mellerup Toftevej,6392,2,9.30108,55.008738
1764451,Hjolderup Genvej,6392,3,9.246592,55.017919
1790320,Gammel Søndergade,6392,2,9.284075,54.98967
1790321,Gammel Søndergade,6392,3,9.285068,54.990142
1790322,Gammel Søndergade,6392,3A,9.284784,54.990066
1790323,Gammel Søndergade,6392,4,9.284699,54.989754
1790324,Gammel Søndergade,6392,5,9.28549,54.990252
1790326,Gammel Søndergade,6392,6,9.284844,54.989548
1790327,Gammel Søndergade,6392,7,9.285975,54.990316
1790329,Gammel Søndergade,6392,8,9.285049,54.98931
1790330,Gammel Søndergade,6392,9,9.286301,54.990657
1790331,Gammel Søndergade,6392,10,9.28514,54.98911
1790333,Gammel Søndergade,6392,12,9.285592,54.989
1790335,Gammel Søndergade,6392,14,9.286035,54.989069
1790336,Gammel Søndergade,6392,16,9.285784,54.98946
1790337,Gammel Søndergade,6392,18A,9.285115,54.98987
1790338,Gammel Søndergade,6392,18B,9.285164,54.989794
1790340,Gammel Søndergade,6392,18C,9.285217,54.989717
1790341,Gammel Søndergade,6392,18D,9.285289,54.989667
1790343,Gammel Søndergade,6392,18E,9.28541,54.989637
1790344,Gammel Søndergade,6392,18F,9.285546,54.989641
1790346,Gammel Søndergade,6392,18G,9.285675,54.989671
1790347,Gammel Søndergade,6392,18H,9.285775,54.989719
1790349,Gammel Søndergade,6392,20,9.285965,54.989937
1790350,Gammel Søndergade,6392,20A,9.286247,54.989939
1790352,Gammel Søndergade,6392,20B,9.286294,54.989841
1790353,Gammel Søndergade,6392,20C,9.286342,54.989743
1790354,Gammel Søndergade,6392,20D,9.286382,54.989638
1790356,Gammel Søndergade,6392,20E,9.286419,54.98954
1790358,Gammel Søndergade,6392,20F,9.286593,54.989578
1790359,Gammel Søndergade,6392,20G,9.286553,54.98968
1790361,Gammel Søndergade,6392,20H,9.286506,54.989782
1790363,Gammel Søndergade,6392,20J,9.286443,54.989865
1790364,Gammel Søndergade,6392,20K,9.286392,54.989965
1790365,Gammel Søndergade,6392,20L,9.286542,54.990131
1790367,Gammel Søndergade,6392,20M,9.286497,54.990194
1790368,Gammel Søndergade,6392,20N,9.286633,54.990228
1790370,Gammel Søndergade,6392,20O,9.286677,54.990165
1790371,Gammel Søndergade,6392,20P,9.286716,54.99011
1790373,Gammel Søndergade,6392,20R,9.286755,54.990058
1790374,Gammel Søndergade,6392,20S,9.28662,54.990025
1792552,Bolderslev Hovedgade,6392,1,9.279484,54.992507
1792554,Bolderslev Hovedgade,6392,3,9.280064,54.992505
1792556,Bolderslev Hovedgade,6392,4,9.279844,54.992321
1792558,Bolderslev Hovedgade,6392,5,9.280434,54.992503
1792559,Bolderslev Hovedgade,6392,6A,9.280152,54.992317
1792561,Bolderslev Hovedgade,6392,6B,9.280151,54.992238
1792563,Bolderslev Hovedgade,6392,7A,9.28077,54.99249
1792565,Bolderslev Hovedgade,6392,7B,9.280845,54.992481
1792567,Bolderslev Hovedgade,6392,7C,9.28076,54.99253
1792569,Bolderslev Hovedgade,6392,8,9.280521,54.992323
1792571,Bolderslev Hovedgade,6392,10,9.281004,54.9923
1792573,Bolderslev Hovedgade,6392,11,9.283405,54.992741
1792575,Bolderslev Hovedgade,6392,12,9.281228,54.992263
1792577,Bolderslev Hovedgade,6392,14,9.281487,54.992232
1792579,Bolderslev Hovedgade,6392,15,9.283476,54.992417
1792580,Bolderslev Hovedgade,6392,16,9.281625,54.992213
1792583,Bolderslev Hovedgade,6392,19,9.283954,54.991966
1792585,Bolderslev Hovedgade,6392,20,9.282508,54.991271
1792587,Bolderslev Hovedgade,6392,21,9.28427,54.991953
1792588,Bolderslev Hovedgade,6392,22,9.283167,54.991733
1792590,Bolderslev Hovedgade,6392,23,9.284545,54.991941
1792591,Bolderslev Hovedgade,6392,24C,9.28371,54.991499
1792592,Bolderslev Hovedgade,6392,25,9.284847,54.991878
1792593,Bolderslev Hovedgade,6392,26A,9.2842,54.99161
1792594,Bolderslev Hovedgade,6392,26B,9.284453,54.991624
1792595,Bolderslev Hovedgade,6392,27,9.2856,54.991837
1792596,Bolderslev Hovedgade,6392,29,9.286992,54.991625
1792597,Bolderslev Hovedgade,6392,30,9.285159,54.991627
1792598,Bolderslev Hovedgade,6392,32A,9.285563,54.991531
1792599,Bolderslev Hovedgade,6392,32B,9.285679,54.991514
1792600,Bolderslev Hovedgade,6392,34,9.286692,54.991433
1792601,Bolderslev Hovedgade,6392,36,9.287157,54.991409
1794670,Vestergade,6392,1,9.278548,54.992298
1794673,Vestergade,6392,2A,9.278866,54.992522
1794676,Vestergade,6392,2B,9.278864,54.992598
1794678,Vestergade,6392,2C,9.278918,54.992694
1794682,Vestergade,6392,2D,9.278958,54.992521
1794684,Vestergade,6392,3A,9.278064,54.992267
1794687,Vestergade,6392,3B,9.277944,54.992191
1794691,Vestergade,6392,3C,9.27797,54.99211
1794694,Vestergade,6392,3D,9.277972,54.992028
1794698,Vestergade,6392,4,9.278196,54.992567
1794700,Vestergade,6392,5,9.277531,54.992234
1794704,Vestergade,6392,6,9.277653,54.992569
1794708,Vestergade,6392,7,9.276953,54.992276
1794710,Vestergade,6392,8,9.277309,54.99256
1794714,Vestergade,6392,9,9.276572,54.992263
1794716,Vestergade,6392,10,9.277003,54.992557
1794720,Vestergade,6392,11,9.276329,54.992246
1794724,Vestergade,6392,12,9.278078,54.993402
1794726,Vestergade,6392,13,9.276044,54.992243
1794731,Vestergade,6392,14,9.276558,54.992541
1794732,Vestergade,6392,15,9.275623,54.992228
1794736,Vestergade,6392,16,9.276203,54.992532
1794741,Vestergade,6392,17,9.27532,54.992219
1794743,Vestergade,6392,18,9.275869,54.992527
1794747,Vestergade,6392,19,9.274952,54.992252
1794749,Vestergade,6392,20,9.275476,54.992518
1794752,Vestergade,6392,21,9.27401,54.992254
1794757,Vestergade,6392,22,9.274846,54.992425
1794759,Vestergade,6392,23,9.273696,54.992171
1794763,Vestergade,6392,24,9.274329,54.992499
1794765,Vestergade,6392,25,9.273404,54.992168
1794769,Vestergade,6392,26,9.273582,54.992467
1794772,Vestergade,6392,27,9.272956,54.992147
1794774,Vestergade,6392,28,9.273293,54.992455
1794779,Vestergade,6392,30,9.272941,54.992451
1797199,Stadionvej,6392,1A,9.279305,54.992288
1797201,Stadionvej,6392,1B,9.279274,54.99218
1797202,Stadionvej,6392,1C,9.279347,54.992213
1797204,Stadionvej,6392,2,9.278992,54.992281
1797205,Stadionvej,6392,3A,9.280173,54.991974
1797206,Stadionvej,6392,4,9.279098,54.992062
1797207,Stadionvej,6392,5,9.279437,54.991907
1797209,Stadionvej,6392,6,9.279011,54.991871
1797210,Stadionvej,6392,7,9.279419,54.991598
1797211,Stadionvej,6392,8,9.278995,54.991705
1797212,Stadionvej,6392,9,9.279414,54.990908
1797214,Stadionvej,6392,10,9.278993,54.991513
1797215,Stadionvej,6392,11,9.279411,54.990707
1797216,Stadionvej,6392,12,9.279007,54.99133
1797219,Stadionvej,6392,13A,9.279501,54.989846
1797220,Stadionvej,6392,13B,9.279719,54.989879
1797221,Stadionvej,6392,13C,9.279969,54.989875
1797223,Stadionvej,6392,13D,9.279815,54.990187
1797225,Stadionvej,6392,13E,9.279782,54.990371
1797226,Stadionvej,6392,13F,9.279508,54.990363
1797227,Stadionvej,6392,13G,9.279596,54.990202
1797228,Stadionvej,6392,13H,9.279546,54.990058
1797229,Stadionvej,6392,14,9.279008,54.991138
1797230,Stadionvej,6392,15,9.27945,54.989618
1797231,Stadionvej,6392,16,9.279012,54.991007
1797232,Stadionvej,6392,17,9.279448,54.98946
1797233,Stadionvej,6392,18,9.279014,54.990859
1797234,Stadionvej,6392,19,9.279319,54.989279
1797235,Stadionvej,6392,20,9.27902,54.990686
1797236,Stadionvej,6392,21,9.279326,54.98914
1797237,Stadionvej,6392,22,9.279022,54.99052
1797238,Stadionvej,6392,23,9.279319,54.988999
1797239,Stadionvej,6392,24,9.27901,54.990282
1797240,Stadionvej,6392,26,9.279003,54.990069
1797241,Stadionvej,6392,28,9.278977,54.98987
1797242,Stadionvej,6392,30,9.279082,54.989699
1797243,Stadionvej,6392,32,9.278947,54.989555
1797244,Stadionvej,6392,34A,9.278693,54.989305
1797245,Stadionvej,6392,34B,9.278666,54.989166
1797246,Stadionvej,6392,36,9.278357,54.989018
1798511,Myrkærvej,6392,1A,9.278133,54.991693
1798517,Myrkærvej,6392,1B,9.278102,54.991513
1798523,Myrkærvej,6392,1C,9.278031,54.991321
1798525,Myrkærvej,6392,1D,9.277546,54.991721
1798529,Myrkærvej,6392,2,9.27707,54.991877
1798530,Myrkærvej,6392,3,9.277551,54.991394
1798535,Myrkærvej,6392,4,9.277101,54.991452
1798537,Myrkærvej,6392,5,9.277579,54.991144
1798542,Myrkærvej,6392,6,9.277087,54.991157
1798543,Myrkærvej,6392,7,9.278157,54.991113
1798548,Myrkærvej,6392,8,9.276551,54.991115
1798554,Myrkærvej,6392,9,9.278125,54.990862
1798557,Myrkærvej,6392,10,9.276098,54.991057
1798562,Myrkærvej,6392,11A,9.277625,54.990815
1798566,Myrkærvej,6392,11B,9.27745,54.990811
1798569,Myrkærvej,6392,12,9.27572,54.991139
1798572,Myrkærvej,6392,13,9.27706,54.990835
1798577,Myrkærvej,6392,14,9.275348,54.991103
1798582,Myrkærvej,6392,15,9.27668,54.990836
1798584,Myrkærvej,6392,16,9.275018,54.991041
1798590,Myrkærvej,6392,17,9.27635,54.990817
1798593,Myrkærvej,6392,18,9.274632,54.99178
1798598,Myrkærvej,6392,19,9.276018,54.990816
1798601,Myrkærvej,6392,20,9.274599,54.992059
1798609,Myrkærvej,6392,21,9.275693,54.990823
1798618,Myrkærvej,6392,23,9.275194,54.990794
1798621,Myrkærvej,6392,27,9.27479,54.990592
1798625,Myrkærvej,6392,29,9.274558,54.990838
1798629,Myrkærvej,6392,31,9.274308,54.990961
1798637,Myrkærvej,6392,33,9.274204,54.991208
1798642,Myrkærvej,6392,35,9.274066,54.991514
1798647,Myrkærvej,6392,37,9.27372,54.99155
1798650,Myrkærvej,6392,39,9.273962,54.991723
1798657,Myrkærvej,6392,41,9.274176,54.992009
1801867,Bjolderupvej,6392,1,9.270843,54.992113
1801869,Bjolderupvej,6392,3,9.269663,54.992013
1801870,Bjolderupvej,6392,5,9.26887,54.991693
1801873,Bjolderupvej,6392,15,9.266665,54.992303
1801874,Bjolderupvej,6392,19,9.265905,54.99238
1801875,Bjolderupvej,6392,21,9.26525,54.992475
1801877,Bjolderupvej,6392,23,9.264868,54.992529
1801878,Bjolderupvej,6392,25,9.264393,54.992598
1801880,Bjolderupvej,6392,27,9.264011,54.992622
1801882,Bjolderupvej,6392,29,9.263627,54.992688
1801883,Bjolderupvej,6392,30,9.264294,54.992892
1801885,Bjolderupvej,6392,31,9.263189,54.992743
1801888,Bjolderupvej,6392,33,9.263907,54.989963
1801890,Bjolderupvej,6392,44A,9.262332,54.993573
1801892,Bjolderupvej,6392,44B,9.262045,54.993433
1801893,Bjolderupvej,6392,64,9.254811,54.995666
1801895,Bjolderupvej,6392,65,9.254133,54.99445
1801897,Bjolderupvej,6392,66,9.253969,54.995409
1801899,Bjolderupvej,6392,67,9.253517,54.994973
1801901,Bjolderupvej,6392,68,9.252691,54.995271
1801902,Bjolderupvej,6392,69,9.25315,54.994736
1801904,Bjolderupvej,6392,70,9.251454,54.99469
1801905,Bjolderupvej,6392,71,9.252128,54.994591
1801907,Bjolderupvej,6392,72,9.24976,54.994486
1801909,Bjolderupvej,6392,81,9.244342,54.994756
1801911,Bjolderupvej,6392,82,9.240637,54.995304
1801912,Bjolderupvej,6392,85,9.236273,54.995004
1801914,Bjolderupvej,6392,89,9.235815,54.99381
1815012,Rebbølvej,6392,3,9.242015,54.990998
1815015,Rebbølvej,6392,14,9.220534,54.985367
1815016,Rebbølvej,6392,15,9.216447,54.983387
1815021,Rebbølvej,6392,22,9.21032,54.982914
1815023,Rebbølvej,6392,25,9.209084,54.982323
1815026,Rebbølvej,6392,28,9.207309,54.982535
1815030,Rebbølvej,6392,29,9.207862,54.981907
1815032,Rebbølvej,6392,32,9.206127,54.982003
1815035,Rebbølvej,6392,34,9.205629,54.981823
1815039,Rebbølvej,6392,35,9.19634,54.978314
1815040,Rebbølvej,6392,36,9.204561,54.981762
1815044,Rebbølvej,6392,41,9.203103,54.975299
1815047,Rebbølvej,6392,42,9.197816,54.982923
1815049,Rebbølvej,6392,45A,9.192184,54.978285
1815052,Rebbølvej,6392,45B,9.192028,54.978141
1815056,Rebbølvej,6392,46,9.196276,54.979413
1815059,Rebbølvej,6392,49,9.188116,54.977908
1815061,Rebbølvej,6392,50,9.194322,54.978919
1815063,Rebbølvej,6392,53,9.185048,54.977258
1817322,Smedagervej,6392,32,9.179726,54.974252
1817326,Smedagervej,6392,33,9.178219,54.974601
1817332,Smedagervej,6392,37,9.178246,54.974986
1817339,Smedagervej,6392,39,9.17726,54.975261
1817342,Smedagervej,6392,40,9.178819,54.975352
1817345,Smedagervej,6392,41,9.177773,54.975919
1817349,Smedagervej,6392,43,9.1789,54.975639
1817354,Smedagervej,6392,44,9.184274,54.97301
1817359,Smedagervej,6392,45,9.178832,54.975861
1817361,Smedagervej,6392,46,9.179746,54.975735
1817367,Smedagervej,6392,47,9.178606,54.976992
1817371,Smedagervej,6392,49,9.17995,54.976286
1820912,Østergade,6392,1A,9.287328,54.991779
1820913,Østergade,6392,1B,9.287925,54.991786
1820916,Østergade,6392,2,9.287157,54.99114
1820918,Østergade,6392,3,9.288462,54.991855
1820920,Østergade,6392,4,9.287714,54.991435
1820921,Østergade,6392,6,9.288405,54.991159
1820923,Østergade,6392,8,9.28825,54.991502
1820925,Østergade,6392,9,9.289195,54.99229
1820927,Østergade,6392,10,9.288519,54.991668
1820929,Østergade,6392,11,9.28946,54.992342
1820931,Østergade,6392,12,9.28969,54.991988
1820933,Østergade,6392,13,9.289682,54.992387
1820935,Østergade,6392,14,9.290217,54.99213
1820937,Østergade,6392,15,9.290094,54.992472
1820938,Østergade,6392,16,9.290678,54.992236
1820941,Østergade,6392,17,9.290581,54.992705
1820943,Østergade,6392,18,9.290957,54.992397
1820945,Østergade,6392,19,9.291729,54.992777
1820946,Østergade,6392,20,9.291858,54.992353
1822115,Gåskær Byvej,6392,1,9.227129,54.971108
1822119,Gåskær Byvej,6392,1A,9.227171,54.971582
1822122,Gåskær Byvej,6392,3,9.226549,54.971038
1822125,Gåskær Byvej,6392,4,9.225415,54.970897
1822128,Gåskær Byvej,6392,5,9.226019,54.970704
1822130,Gåskær Byvej,6392,6,9.224861,54.970702
1822136,Gåskær Byvej,6392,7,9.224708,54.9703
1822138,Gåskær Byvej,6392,8,9.223212,54.970289
1822142,Gåskær Byvej,6392,9,9.223805,54.969987
1822144,Gåskær Byvej,6392,10,9.222295,54.970059
1822148,Gåskær Byvej,6392,13,9.222265,54.969562
1822152,Gåskær Byvej,6392,14,9.221432,54.969758
1822155,Gåskær Byvej,6392,15,9.221136,54.969247
1822158,Gåskær Byvej,6392,16,9.220899,54.969489
1822161,Gåskær Byvej,6392,20,9.219781,54.969406
1822166,Gåskær Byvej,6392,21,9.217957,54.968502
1822169,Gåskær Byvej,6392,22,9.218633,54.969162
1824528,Toften,6392,1,9.290175,54.9895
1824530,Toften,6392,3,9.289787,54.989451
1824532,Toften,6392,4,9.289545,54.989759
1824534,Toften,6392,5,9.289863,54.989082
1824535,Toften,6392,6,9.289184,54.98957
1824538,Toften,6392,7,9.289749,54.988762
1824539,Toften,6392,8,9.289289,54.989395
1824541,Toften,6392,9,9.289185,54.988529
1824542,Toften,6392,10,9.28943,54.989088
1824544,Toften,6392,11,9.288843,54.988394
1824546,Toften,6392,12,9.28904,54.988851
1824548,Toften,6392,13,9.288522,54.9882
1824550,Toften,6392,14,9.288781,54.988763
1824552,Toften,6392,16,9.288353,54.988612
1826749,Perbølvej,6392,2,9.25545,54.995746
1826750,Perbølvej,6392,3,9.256148,54.99648
1826751,Perbølvej,6392,4,9.256298,54.996156
1826752,Perbølvej,6392,5,9.256352,54.996677
1826753,Perbølvej,6392,25,9.263192,54.998855
1826754,Perbølvej,6392,26,9.26569,54.999233
1826755,Perbølvej,6392,28,9.267638,54.999659
1826756,Perbølvej,6392,29,9.264224,54.999198
1826757,Perbølvej,6392,31,9.267379,54.999919
1826758,Perbølvej,6392,33,9.267679,55.000046
1826759,Perbølvej,6392,35,9.267701,55.000864
1826760,Perbølvej,6392,36,9.272266,54.99975
1826761,Perbølvej,6392,37,9.268727,55.000451
1826762,Perbølvej,6392,57,9.292556,55.005244
2151121,Bøgevænget,6392,2,9.279818,54.993
2151126,Bøgevænget,6392,4,9.27982,54.992921
2151128,Bøgevænget,6392,6,9.280074,54.992864
2151131,Bøgevænget,6392,8,9.280255,54.992865
2151133,Bøgevænget,6392,10,9.280502,54.992922
2151134,Bøgevænget,6392,12,9.280498,54.993002
2151137,Bøgevænget,6392,14,9.281169,54.993076
2151139,Bøgevænget,6392,16,9.28117,54.993013
2151141,Bøgevænget,6392,18,9.281171,54.99295
2151145,Bøgevænget,6392,20,9.281154,54.992843
2151146,Bøgevænget,6392,22,9.28126,54.992843
2151150,Bøgevænget,6392,24,9.281365,54.992845
2151151,Bøgevænget,6392,26,9.281477,54.992845
2151152,Bøgevænget,6392,28,9.281431,54.99297
2151156,Bøgevænget,6392,30,9.281427,54.99303
2151158,Bøgevænget,6392,32,9.281428,54.99309
2152272,Kernesvinget,6392,1,9.273611,54.988309
2232823,Søndergade,6392,1A,9.284406,54.98996
2233145,Vollerupvej,6392,55,9.199322,54.988473
2233724,Bolderslev Hovedgade,6392,24,9.283434,54.991772
2251204,Porsbølvej,6392,11M,9.291357,54.975449
