idx,street,postcode,housenumber,lon,lat
846730,Kettingvej,6440,1a,9.8724911,54.9466425
1292361,Midtkobbel,6440,1,9.877307,54.951077
1292362,Midtkobbel,6440,2A,9.877766,54.950664
1292363,Midtkobbel,6440,2B,9.877661,54.950839
1292364,Midtkobbel,6440,3,9.877269,54.951099
1292365,Midtkobbel,6440,4,9.877983,54.950809
1292366,Midtkobbel,6440,5,9.877026,54.95119
1292367,Midtkobbel,6440,6,9.878113,54.951083
1292368,Midtkobbel,6440,7,9.876843,54.951308
1292369,Midtkobbel,6440,8,9.878359,54.951223
1292370,Midtkobbel,6440,9,9.876598,54.951484
1292371,Midtkobbel,6440,10,9.878558,54.951342
1292372,Midtkobbel,6440,11,9.876378,54.951609
1292373,Midtkobbel,6440,12,9.878805,54.951479
1292374,Midtkobbel,6440,13,9.876143,54.951741
1292375,Midtkobbel,6440,14,9.878919,54.951661
1292376,Midtkobbel,6440,15,9.875921,54.951892
1292377,Midtkobbel,6440,16,9.879242,54.95181
1292378,Midtkobbel,6440,17,9.875696,54.951985
1292379,Midtkobbel,6440,18,9.8795,54.951917
1292380,Midtkobbel,6440,19,9.875457,54.952132
1292381,Midtkobbel,6440,20,9.879698,54.952051
1292382,Midtkobbel,6440,21,9.875228,54.952241
1292383,Midtkobbel,6440,22,9.880299,54.952199
1292384,Midtkobbel,6440,23,9.874586,54.952338
1292385,Midtkobbel,6440,24A,9.877588,54.95126
1292386,Midtkobbel,6440,24B,9.877624,54.95128
1292387,Midtkobbel,6440,25,9.874351,54.952343
1292388,Midtkobbel,6440,26A,9.877364,54.951386
1292389,Midtkobbel,6440,26B,9.877486,54.951475
1292390,Midtkobbel,6440,27,9.873981,54.95235
1292391,Midtkobbel,6440,28,9.877169,54.951513
1292392,Midtkobbel,6440,29,9.873711,54.952336
1292393,Midtkobbel,6440,30,9.876945,54.951638
1292394,Midtkobbel,6440,31,9.873287,54.952361
1292395,Midtkobbel,6440,32,9.876724,54.951767
1292396,Midtkobbel,6440,33,9.872998,54.952367
1292397,Midtkobbel,6440,34,9.876499,54.951893
1292398,Midtkobbel,6440,35,9.872667,54.952321
1292399,Midtkobbel,6440,36,9.876279,54.952018
1292400,Midtkobbel,6440,37,9.872295,54.952385
1292401,Midtkobbel,6440,38,9.87606,54.952146
1292402,Midtkobbel,6440,39,9.878058,54.951624
1292403,Midtkobbel,6440,40,9.875835,54.952273
1292404,Midtkobbel,6440,41,9.878502,54.951815
1292405,Midtkobbel,6440,42,9.875601,54.952396
1292407,Midtkobbel,6440,43,9.87827,54.951926
1292408,Midtkobbel,6440,44,9.875353,54.952525
1292412,Midtkobbel,6440,45,9.878129,54.952102
1292414,Midtkobbel,6440,46,9.875044,54.952629
1292415,Midtkobbel,6440,47,9.87791,54.952276
1292417,Midtkobbel,6440,48,9.874716,54.952576
1292421,Midtkobbel,6440,49,9.87747,54.952072
1292423,Midtkobbel,6440,50,9.874409,54.952581
1292425,Midtkobbel,6440,51,9.877087,54.952272
1292428,Midtkobbel,6440,52,9.874092,54.952585
1292429,Midtkobbel,6440,53,9.877687,54.952434
1292433,Midtkobbel,6440,54,9.873778,54.952594
1292435,Midtkobbel,6440,55,9.877408,54.952583
1292437,Midtkobbel,6440,56,9.873469,54.952597
1292439,Midtkobbel,6440,57,9.877193,54.952746
1292443,Midtkobbel,6440,58,9.873157,54.9526
1292444,Midtkobbel,6440,59,9.877062,54.952926
1292446,Midtkobbel,6440,60,9.872814,54.95261
1292449,Midtkobbel,6440,61,9.87662,54.952688
1292451,Midtkobbel,6440,62,9.872348,54.952639
1292453,Midtkobbel,6440,63,9.876159,54.952753
1292454,Midtkobbel,6440,64,9.87888,54.952062
1292458,Midtkobbel,6440,65,9.876408,54.952912
1292459,Midtkobbel,6440,66,9.878606,54.952199
1292461,Midtkobbel,6440,67,9.87681,54.953136
1292465,Midtkobbel,6440,68,9.878451,54.952389
1292467,Midtkobbel,6440,69,9.8766,54.953282
1292468,Midtkobbel,6440,70,9.878245,54.952506
1292470,Midtkobbel,6440,71,9.879419,54.952306
1292473,Midtkobbel,6440,72,9.877991,54.952739
1292475,Midtkobbel,6440,73,9.879228,54.952455
1292476,Midtkobbel,6440,74,9.877755,54.952883
1292478,Midtkobbel,6440,75,9.879012,54.952623
1292482,Midtkobbel,6440,76,9.877418,54.953053
1292483,Midtkobbel,6440,77,9.878783,54.952798
1292484,Midtkobbel,6440,78,9.87723,54.953194
1292487,Midtkobbel,6440,79,9.878566,54.95296
1292489,Midtkobbel,6440,80,9.877104,54.953418
1292491,Midtkobbel,6440,81,9.878433,54.95312
1292492,Midtkobbel,6440,82,9.876969,54.953542
1292493,Midtkobbel,6440,83,9.878135,54.953331
1292494,Midtkobbel,6440,84,9.88,54.952335
1292495,Midtkobbel,6440,86,9.879792,54.952493
1292496,Midtkobbel,6440,88,9.879555,54.952673
1292497,Midtkobbel,6440,90,9.879359,54.952822
1292498,Midtkobbel,6440,92,9.879106,54.953018
1292499,Midtkobbel,6440,94,9.87889,54.953181
1292500,Midtkobbel,6440,96,9.878682,54.953379
1292501,Midtkobbel,6440,98,9.878424,54.953548
1293610,Stavensbølgade,6440,1,9.872959,54.946276
1293614,Stavensbølgade,6440,2,9.87295,54.946059
1293617,Stavensbølgade,6440,2A,9.873116,54.946105
1293619,Stavensbølgade,6440,4,9.873436,54.946221
1293622,Stavensbølgade,6440,5,9.873261,54.946342
1293628,Stavensbølgade,6440,6,9.873685,54.946262
1293630,Stavensbølgade,6440,7,9.873635,54.946414
1293635,Stavensbølgade,6440,7A,9.873854,54.946459
1293637,Stavensbølgade,6440,8,9.873916,54.946297
1293641,Stavensbølgade,6440,9,9.873976,54.946479
1293643,Stavensbølgade,6440,10,9.874199,54.946366
1293646,Stavensbølgade,6440,10A,9.874312,54.946163
1293647,Stavensbølgade,6440,11,9.87411,54.946505
1293651,Stavensbølgade,6440,12,9.874411,54.946401
1293652,Stavensbølgade,6440,13,9.874247,54.94653
1293655,Stavensbølgade,6440,14,9.874601,54.946436
1293658,Stavensbølgade,6440,15,9.87439,54.946559
1293659,Stavensbølgade,6440,16,9.874825,54.94648
1293663,Stavensbølgade,6440,17,9.874616,54.946599
1293664,Stavensbølgade,6440,18,9.875038,54.94652
1293666,Stavensbølgade,6440,19,9.874813,54.946647
1293668,Stavensbølgade,6440,19A,9.875027,54.946677
1293671,Stavensbølgade,6440,19B,9.875001,54.946704
1293673,Stavensbølgade,6440,20,9.876486,54.946789
1293676,Stavensbølgade,6440,21,9.875288,54.946724
1293677,Stavensbølgade,6440,22A,9.876748,54.946838
1293679,Stavensbølgade,6440,22B,9.876875,54.946858
1293682,Stavensbølgade,6440,23,9.875684,54.946799
1293683,Stavensbølgade,6440,23A,9.875967,54.946843
1293687,Stavensbølgade,6440,24,9.877061,54.946896
1293689,Stavensbølgade,6440,25,9.876931,54.94703
1293691,Stavensbølgade,6440,26,9.877423,54.946963
1293693,Stavensbølgade,6440,27,9.877155,54.947072
1293695,Stavensbølgade,6440,28,9.877611,54.946999
1293697,Stavensbølgade,6440,29,9.877325,54.947106
1293700,Stavensbølgade,6440,30,9.877837,54.947042
1293702,Stavensbølgade,6440,31,9.877784,54.947189
1293704,Stavensbølgade,6440,32,9.878052,54.947078
1293707,Stavensbølgade,6440,33,9.878024,54.94723
1293708,Stavensbølgade,6440,34,9.878264,54.947119
1293712,Stavensbølgade,6440,35,9.878664,54.947349
1293713,Stavensbølgade,6440,35A,9.878585,54.947542
1293714,Stavensbølgade,6440,36,9.878454,54.947155
1293716,Stavensbølgade,6440,37,9.879335,54.947691
1293719,Stavensbølgade,6440,37A,9.879669,54.94823
1293722,Stavensbølgade,6440,38,9.878633,54.947189
1293724,Stavensbølgade,6440,39,9.882347,54.948085
1293726,Stavensbølgade,6440,40,9.878803,54.947218
1293728,Stavensbølgade,6440,41,9.882509,54.948116
1293731,Stavensbølgade,6440,42,9.879047,54.947253
1293732,Stavensbølgade,6440,43,9.88275,54.948161
1293734,Stavensbølgade,6440,44,9.879239,54.947295
1293736,Stavensbølgade,6440,44A,9.879546,54.947319
1293738,Stavensbølgade,6440,44B,9.879796,54.947399
1293740,Stavensbølgade,6440,45,9.883006,54.94821
1293743,Stavensbølgade,6440,46,9.880238,54.947418
1293744,Stavensbølgade,6440,47,9.883384,54.948279
1293745,Stavensbølgade,6440,48,9.880466,54.947525
1293746,Stavensbølgade,6440,49,9.883657,54.94833
1293747,Stavensbølgade,6440,50,9.881124,54.947575
1293748,Stavensbølgade,6440,51,9.88413,54.948576
1293749,Stavensbølgade,6440,51A,9.884063,54.948411
1293750,Stavensbølgade,6440,52,9.881472,54.947713
1293751,Stavensbølgade,6440,52A,9.881887,54.947734
1293752,Stavensbølgade,6440,53,9.884432,54.948485
1293753,Stavensbølgade,6440,54,9.882109,54.947779
1293754,Stavensbølgade,6440,55,9.885408,54.948803
1293755,Stavensbølgade,6440,56,9.882315,54.947819
1293756,Stavensbølgade,6440,58,9.882526,54.947858
1293757,Stavensbølgade,6440,60,9.88322,54.948032
1293758,Stavensbølgade,6440,62,9.883594,54.948101
1293759,Stavensbølgade,6440,64,9.884163,54.948238
1293760,Stavensbølgade,6440,66,9.885259,54.948352
1293761,Stavensbølgade,6440,78,9.8867963,54.9487122
1293762,Stavensbølgade,6440,80,9.8868466,54.9485898
1293763,Stavensbølgade,6440,82,9.886891,54.9484903
1293764,Stavensbølgade,6440,84,9.8869547,54.948377
1293765,Stavensbølgade,6440,86,9.8870055,54.9482652
1293766,Stavensbølgade,6440,88,9.887265,54.948848
1293767,Stavensbølgade,6440,90,9.887316,54.948756
1293768,Stavensbølgade,6440,92,9.887426,54.948661
1293769,Stavensbølgade,6440,94,9.8875188,54.9484924
1293770,Stavensbølgade,6440,96,9.887508,54.948962
1293771,Stavensbølgade,6440,98,9.887642,54.948862
1293772,Stavensbølgade,6440,100,9.887733,54.948772
1293773,Stavensbølgade,6440,102,9.887832,54.948666
1293774,Stavensbølgade,6440,104,9.8876104,54.9483182
1293775,Stavensbølgade,6440,106,9.8878732,54.9484889
1293776,Stavensbølgade,6440,108,9.8879581,54.9483523
1293777,Stavensbølgade,6440,110,9.8884923,54.9484623
1293778,Stavensbølgade,6440,112,9.8882346,54.948607
1294214,Kettingvej,6440,1A,9.872624,54.946614
1294215,Kettingvej,6440,1B,9.872396,54.947067
1294216,Kettingvej,6440,2,9.873434,54.946852
1294217,Kettingvej,6440,3,9.873125,54.94691
1294218,Kettingvej,6440,4,9.873754,54.947128
1294219,Kettingvej,6440,5,9.872991,54.947205
1294220,Kettingvej,6440,6,9.873888,54.947249
1294221,Kettingvej,6440,8,9.873982,54.94733
1294222,Kettingvej,6440,9,9.873638,54.947396
1294223,Kettingvej,6440,10,9.874359,54.947649
1294224,Kettingvej,6440,11,9.87378,54.947523
1294225,Kettingvej,6440,12,9.87464,54.947883
1294226,Kettingvej,6440,13,9.87396,54.947645
1294227,Kettingvej,6440,14,9.874747,54.947958
1294228,Kettingvej,6440,15,9.874053,54.947771
1294229,Kettingvej,6440,16,9.874902,54.948114
1294230,Kettingvej,6440,17,9.874226,54.947919
1294231,Kettingvej,6440,18,9.87522,54.94836
1294232,Kettingvej,6440,19,9.87439,54.948048
1294233,Kettingvej,6440,19A,9.874148,54.948609
1294234,Kettingvej,6440,19B,9.874511,54.948933
1294235,Kettingvej,6440,20,9.875539,54.948648
1294236,Kettingvej,6440,21,9.874602,54.948244
1294237,Kettingvej,6440,22,9.875833,54.948903
1294238,Kettingvej,6440,24,9.877725,54.949615
1294239,Kettingvej,6440,24A,9.876819,54.94935
1294240,Kettingvej,6440,24B,9.876856,54.949374
1294241,Kettingvej,6440,24C,9.876937,54.949409
1294242,Kettingvej,6440,24D,9.877018,54.949444
1294243,Kettingvej,6440,24E,9.8771,54.949479
1294244,Kettingvej,6440,25,9.874888,54.948519
1294245,Kettingvej,6440,27,9.875141,54.948745
1294246,Kettingvej,6440,28,9.878397,54.950142
1294247,Kettingvej,6440,29,9.875306,54.948871
1294248,Kettingvej,6440,30,9.878521,54.950229
1294249,Kettingvej,6440,31,9.87544,54.949008
1294250,Kettingvej,6440,32,9.878687,54.950336
1294251,Kettingvej,6440,33,9.875578,54.949104
1294252,Kettingvej,6440,34,9.878811,54.95042
1294253,Kettingvej,6440,35,9.875743,54.949199
1294254,Kettingvej,6440,36,9.878968,54.950526
1294255,Kettingvej,6440,37,9.875944,54.949303
1294256,Kettingvej,6440,38,9.879092,54.950611
1294257,Kettingvej,6440,39,9.876159,54.949409
1294258,Kettingvej,6440,40,9.879376,54.950781
1294259,Kettingvej,6440,41,9.876639,54.949699
1294260,Kettingvej,6440,42,9.879554,54.950887
1294261,Kettingvej,6440,44,9.879748,54.950986
1294262,Kettingvej,6440,45,9.876916,54.949801
1294263,Kettingvej,6440,46A,9.879938,54.95109
1294264,Kettingvej,6440,46B,9.880146,54.951201
1294265,Kettingvej,6440,47,9.87718,54.949912
1294266,Kettingvej,6440,48,9.880358,54.951331
1294267,Kettingvej,6440,49,9.8779,54.95024
1294268,Kettingvej,6440,50,9.880704,54.951515
1294269,Kettingvej,6440,52,9.880895,54.951617
1294270,Kettingvej,6440,54,9.881417,54.951901
1294271,Kettingvej,6440,55,9.87823,54.950407
1294272,Kettingvej,6440,56,9.881744,54.952205
1294273,Kettingvej,6440,57,9.878459,54.950559
1294274,Kettingvej,6440,58,9.881897,54.95236
1294275,Kettingvej,6440,59,9.878653,54.950746
1294277,Kettingvej,6440,60,9.882331,54.952183
1294278,Kettingvej,6440,61,9.878836,54.950857
1294280,Kettingvej,6440,62,9.885385,54.955098
1294281,Kettingvej,6440,63,9.879025,54.950968
1294283,Kettingvej,6440,64,9.885462,54.955306
1294285,Kettingvej,6440,65,9.879208,54.951076
1294287,Kettingvej,6440,66,9.885719,54.955626
1294289,Kettingvej,6440,67,9.879397,54.951185
1294291,Kettingvej,6440,68,9.885997,54.955471
1294293,Kettingvej,6440,69,9.879588,54.95129
1294295,Kettingvej,6440,71,9.87978,54.951397
1294298,Kettingvej,6440,73,9.879972,54.951502
1294300,Kettingvej,6440,75,9.880164,54.951609
1294302,Kettingvej,6440,77,9.880387,54.9517
1294303,Kettingvej,6440,79,9.880558,54.951935
1294305,Kettingvej,6440,79B,9.880616,54.951961
1294307,Kettingvej,6440,81,9.881185,54.95216
1294309,Kettingvej,6440,83,9.881851,54.952772
1294311,Kettingvej,6440,85,9.881929,54.953026
1294313,Kettingvej,6440,87,9.882254,54.953461
1294315,Kettingvej,6440,89,9.882318,54.959509
1294316,Kettingvej,6440,91,9.889007,54.961178
1295519,Blæsborg,6440,1,9.885405,54.954397
1295522,Blæsborg,6440,2,9.884775,54.954401
1295524,Blæsborg,6440,3,9.885119,54.954214
1295528,Blæsborg,6440,4,9.884413,54.954164
1295531,Blæsborg,6440,5,9.88485,54.953974
1295534,Blæsborg,6440,6,9.884229,54.954002
1295537,Blæsborg,6440,7,9.884717,54.953773
1295540,Blæsborg,6440,8,9.883996,54.953814
1295543,Blæsborg,6440,9,9.884354,54.953601
1295545,Blæsborg,6440,10,9.883832,54.953643
1295548,Blæsborg,6440,11,9.884167,54.953353
1295551,Blæsborg,6440,12,9.883663,54.953439
1295553,Blæsborg,6440,13,9.886441,54.954328
1295555,Blæsborg,6440,14,9.885871,54.954363
1295558,Blæsborg,6440,15,9.886257,54.95411
1295560,Blæsborg,6440,16,9.885698,54.954059
1295563,Blæsborg,6440,17,9.886047,54.953837
1295566,Blæsborg,6440,18,9.885488,54.953793
1295569,Blæsborg,6440,19,9.885933,54.953575
1295572,Blæsborg,6440,20,9.885324,54.953597
1295574,Blæsborg,6440,21,9.885655,54.953309
1295578,Blæsborg,6440,22,9.885051,54.953356
1295580,Blæsborg,6440,23,9.885391,54.95307
1295583,Blæsborg,6440,24,9.885059,54.953128
1295585,Blæsborg,6440,25,9.887569,54.954312
1295586,Blæsborg,6440,26,9.88701,54.954228
1295590,Blæsborg,6440,27,9.887308,54.954006
1295591,Blæsborg,6440,28,9.886853,54.953944
1295596,Blæsborg,6440,29,9.88717,54.953786
1295599,Blæsborg,6440,30,9.886645,54.95364
1295601,Blæsborg,6440,31,9.88702,54.953558
1295605,Blæsborg,6440,32,9.886516,54.953447
1295606,Blæsborg,6440,33,9.886964,54.953273
1295609,Blæsborg,6440,34,9.886262,54.953147
1295612,Blæsborg,6440,35,9.886735,54.953
1295615,Blæsborg,6440,36,9.88627,54.952866
1295618,Blæsborg,6440,37,9.886581,54.952807
1295620,Blæsborg,6440,39,9.887459,54.954515
1295623,Blæsborg,6440,41,9.88671,54.954648
1295625,Blæsborg,6440,43,9.886211,54.95463
1295627,Blæsborg,6440,45,9.885387,54.954675
1295825,Bækkegården,6440,1,9.956783,54.945285
1296296,Dejerhøj,6440,1,9.895322,54.965853
1296297,Dejerhøj,6440,2,9.896533,54.964803
1296300,Dejerhøj,6440,2A,9.896537,54.965273
1296304,Dejerhøj,6440,3,9.895299,54.9661
1296305,Dejerhøj,6440,4,9.896701,54.965461
1296309,Dejerhøj,6440,5,9.8956,54.965884
1296313,Dejerhøj,6440,7,9.895477,54.966243
1296315,Dejerhøj,6440,9,9.896016,54.9658
1296663,Skakkenborg,6440,1,9.911775,54.958435
1296664,Skakkenborg,6440,1A,9.916143,54.959988
1296666,Skakkenborg,6440,2,9.916872,54.959719
1296668,Skakkenborg,6440,3,9.917539,54.960656
1296670,Skakkenborg,6440,5,9.917538,54.960976
1296672,Skakkenborg,6440,6,9.917546,54.959634
1296674,Skakkenborg,6440,7,9.917977,54.961067
1296676,Skakkenborg,6440,8,9.917349,54.959877
1296678,Skakkenborg,6440,9,9.918396,54.961045
1296680,Skakkenborg,6440,11,9.918942,54.961423
1296723,Lyøvej,6440,1,9.9876273,54.9850681
1296724,Baggesens Vej,6440,1,9.881489,54.949949
1296728,Lyøvej,6440,2,9.9878878,54.9852776
1296729,Baggesens Vej,6440,2,9.881462,54.950182
1296733,Baggesens Vej,6440,3,9.880852,54.949835
1296734,Lyøvej,6440,3,9.987256,54.9852909
1296737,Lyøvej,6440,4,9.9875061,54.9854166
1296738,Baggesens Vej,6440,4,9.881054,54.95012
1296739,Lyøvej,6440,5,9.986877,54.98547
1296741,Baggesens Vej,6440,5,9.880319,54.949742
1296742,Lyøvej,6440,6,9.9871195,54.9856769
1296743,Lyøvej,6440,7,9.9865928,54.9856999
1296746,Lyøvej,6440,8,9.9868928,54.9857964
1296747,Lyøvej,6440,9,9.9861867,54.9859537
1296748,Lyøvej,6440,10,9.98662,54.986096
1296749,Lyøvej,6440,12,9.9861998,54.9862002
1296775,Jægerpladsen,6440,1,9.867103,54.945877
1296776,Jægerpladsen,6440,2,9.867181,54.945891
1296780,Jægerpladsen,6440,3,9.867335,54.945915
1296781,Jægerpladsen,6440,5,9.867163,54.945783
1297291,Enghaven,6440,1,9.869729,54.946464
1297293,Enghaven,6440,1A,9.869731,54.94658
1297296,Enghaven,6440,3,9.869864,54.946466
1297298,Enghaven,6440,5,9.869993,54.946507
1297301,Enghaven,6440,7,9.870136,54.946511
1297303,Enghaven,6440,9,9.870144,54.946623
1297305,Enghaven,6440,11,9.870133,54.946673
1297308,Enghaven,6440,13,9.870034,54.946713
1297311,Enghaven,6440,15,9.870025,54.946759
1297312,Enghaven,6440,17,9.870025,54.946815
1297316,Enghaven,6440,19,9.870244,54.94684
1297317,Enghaven,6440,21,9.870232,54.946917
1297320,Enghaven,6440,23,9.870215,54.946971
1297323,Enghaven,6440,25,9.870539,54.94686
1297324,Enghaven,6440,27,9.870555,54.946823
1297328,Enghaven,6440,29,9.870587,54.946485
1297329,Enghaven,6440,31,9.87059,54.946537
1297333,Enghaven,6440,33,9.870634,54.946605
1297334,Enghaven,6440,35,9.870623,54.946659
1297338,Enghaven,6440,37,9.870596,54.946762
1297340,Enghaven,6440,39,9.870864,54.94673
1297343,Enghaven,6440,39A,9.870294,54.946519
1297345,Enghaven,6440,41,9.870888,54.946636
1297347,Enghaven,6440,43,9.870838,54.946516
1297348,Enghaven,6440,45,9.870945,54.946515
1297351,Enghaven,6440,47,9.871043,54.946509
1297352,Enghaven,6440,49,9.871151,54.946512
1297452,Mejerivej,6440,2,9.898797,54.967356
1297455,Mejerivej,6440,3,9.89863,54.967239
1297458,Mejerivej,6440,4,9.898533,54.967705
1297460,Mejerivej,6440,4A,9.898767,54.967991
1297463,Mejerivej,6440,5,9.898287,54.967424
1297464,Mejerivej,6440,6,9.89821,54.968348
1297467,Mejerivej,6440,7,9.898027,54.967652
1297468,Mejerivej,6440,8,9.898258,54.968481
1297470,Mejerivej,6440,9,9.897856,54.967803
1297474,Mejerivej,6440,11,9.89796,54.968101
1297476,Mejerivej,6440,13,9.897864,54.968404
1297478,Mejerivej,6440,15,9.897867,54.968695
1297481,Mejerivej,6440,17,9.898028,54.968982
1297567,Landevejen,6440,1,9.898949,54.96696
1297571,Landevejen,6440,1A,9.898816,54.967633
1297574,Landevejen,6440,2,9.899452,54.967452
1297578,Landevejen,6440,2A,9.899971,54.964734
1297580,Landevejen,6440,4,9.899424,54.967888
1297585,Landevejen,6440,5,9.898685,54.968223
1297588,Landevejen,6440,6,9.899329,54.968243
1297592,Landevejen,6440,7,9.897836,54.969917
1297596,Landevejen,6440,8,9.899315,54.968667
1297598,Landevejen,6440,9,9.895243,54.97188
1297601,Landevejen,6440,10,9.899099,54.96898
1297605,Landevejen,6440,11,9.893772,54.972828
1297609,Landevejen,6440,12,9.898384,54.970325
1297613,Landevejen,6440,13,9.891991,54.973945
1297619,Landevejen,6440,14,9.896904,54.971618
1297622,Landevejen,6440,15,9.889456,54.974752
1297626,Landevejen,6440,16,9.893247,54.974081
1297630,Landevejen,6440,18,9.892146,54.974473
1297632,Landevejen,6440,20,9.889929,54.97526
1297635,Landevejen,6440,22,9.889421,54.975464
1297746,Engvej,6440,1,9.920478,54.983231
1297749,Engvej,6440,2,9.921324,54.983521
1297752,Engvej,6440,3,9.92024,54.983291
1297756,Engvej,6440,4,9.920888,54.983528
1297758,Engvej,6440,5,9.920022,54.983382
1297762,Engvej,6440,6,9.920534,54.983667
1297764,Engvej,6440,6A,9.920421,54.983669
1297767,Engvej,6440,7,9.914449,54.984729
1297771,Engvej,6440,8,9.919296,54.983706
1297774,Engvej,6440,9,9.914058,54.985016
1297776,Engvej,6440,10,9.918936,54.983777
1297778,Engvej,6440,11,9.913618,54.984259
1297781,Engvej,6440,12,9.917688,54.9842
1297784,Engvej,6440,12A,9.916648,54.984123
1297788,Engvej,6440,16,9.9167499,54.9849764
1297789,Engvej,6440,20,9.915949,54.984872
1297794,Engvej,6440,22,9.915548,54.984986
1297796,Engvej,6440,24,9.914966,54.985151
1298072,Damvej,6440,1,9.867607,54.946609
1298073,Damvej,6440,2,9.867032,54.946271
1298074,Damvej,6440,4,9.86708,54.94628
1298075,Damvej,6440,5,9.867642,54.946542
1298076,Damvej,6440,6,9.867139,54.946287
1298077,Damvej,6440,7,9.867658,54.946513
1298078,Damvej,6440,9,9.867669,54.946479
1298079,Damvej,6440,10,9.867261,54.946284
1298080,Damvej,6440,12,9.86732,54.946291
1298081,Damvej,6440,14,9.867377,54.9463
1298082,Damvej,6440,16,9.867433,54.946308
1298083,Damvej,6440,18,9.867529,54.94631
1298084,Damvej,6440,24,9.867669,54.946332
1298085,Damvej,6440,26,9.86773,54.946332
1298086,Damvej,6440,28,9.867801,54.946342
1298956,Nedergade,6440,1,9.981248,54.990668
1298960,Nedergade,6440,2,9.982756,54.989857
1298962,Nedergade,6440,4,9.983211,54.989812
1298964,Nedergade,6440,4A,9.983914,54.98829
1298966,Nedergade,6440,5,9.982008,54.990348
1298968,Nedergade,6440,6,9.985875,54.987234
1298969,Nedergade,6440,6A,9.984744,54.98752
1298972,Nedergade,6440,8,9.98714,54.986497
1298973,Nedergade,6440,8A,9.987343,54.98635
1298976,Nedergade,6440,8B,9.987602,54.986162
1298978,Nedergade,6440,9A,9.982486,54.990189
1298982,Nedergade,6440,10,9.987625,54.985918
1298984,Nedergade,6440,10A,9.987905,54.985701
1298986,Nedergade,6440,12,9.988748,54.985674
1298987,Nedergade,6440,13,9.98449,54.988664
1298990,Nedergade,6440,15,9.984328,54.988313
1298994,Nedergade,6440,21,9.985433,54.988115
1298995,Nedergade,6440,23,9.985318,54.987635
1298997,Nedergade,6440,25,9.987505,54.986682
1298999,Nedergade,6440,27,9.987862,54.98691
1299001,Nedergade,6440,29,9.988657,54.987715
1299004,Nedergade,6440,31,9.989535,54.9872
1299008,Nedergade,6440,33,9.987906,54.986413
1299011,Nedergade,6440,35,9.988599,54.985982
1299314,Gammel Brovej,6440,1,9.884064,54.944718
1299315,Gammel Brovej,6440,2,9.885093,54.944798
1299316,Gammel Brovej,6440,2A,9.884844,54.944714
1299317,Gammel Brovej,6440,3,9.885929,54.945484
1299318,Gammel Brovej,6440,4,9.887751,54.946005
1299319,Gammel Brovej,6440,5,9.893461,54.948395
1299320,Gammel Brovej,6440,5A,9.8936151,54.9484173
1299321,Gammel Brovej,6440,6,9.895366,54.949294
1299322,Gammel Brovej,6440,7,9.895316,54.949806
1299323,Gammel Brovej,6440,8,9.895812,54.950107
1299324,Gammel Brovej,6440,9,9.895319,54.950404
1299325,Gammel Brovej,6440,10,9.895867,54.950318
1299326,Gammel Brovej,6440,11,9.895823,54.951205
1299327,Gammel Brovej,6440,12,9.89609,54.950415
1299328,Gammel Brovej,6440,13,9.895379,54.951108
1299329,Gammel Brovej,6440,15,9.895216,54.951556
1299330,Gammel Brovej,6440,16,9.896344,54.951399
1299331,Gammel Brovej,6440,17,9.89608,54.951481
1299332,Gammel Brovej,6440,18,9.896535,54.951485
1299380,Søndergade,6440,1,9.92032,54.981884
1299381,Søndergade,6440,2,9.918954,54.982107
1299384,Søndergade,6440,3,9.919677,54.981886
1299385,Søndergade,6440,4,9.918431,54.982078
1299386,Søndergade,6440,5,9.918199,54.981891
1299388,Søndergade,6440,6,9.916679,54.982149
1299390,Søndergade,6440,7,9.916924,54.981809
1299392,Søndergade,6440,8,9.916314,54.982288
1299393,Søndergade,6440,9,9.916475,54.981748
1299394,Søndergade,6440,10,9.915761,54.982036
1299397,Søndergade,6440,11,9.915191,54.981865
1299399,Søndergade,6440,12,9.91536,54.9821
1299401,Søndergade,6440,13,9.914648,54.981947
1299403,Søndergade,6440,14,9.914856,54.98214
1299408,Søndergade,6440,15,9.913398,54.982366
1299410,Søndergade,6440,16,9.914401,54.982445
1299411,Søndergade,6440,16A,9.914547,54.982421
1299412,Søndergade,6440,17,9.912976,54.982403
1299416,Søndergade,6440,18,9.913325,54.9826
1299417,Søndergade,6440,19,9.912721,54.982652
1299418,Søndergade,6440,20,9.913262,54.983035
1299420,Søndergade,6440,21,9.912751,54.982886
1299422,Søndergade,6440,22,9.913305,54.983196
1299424,Søndergade,6440,23,9.912312,54.982907
1299426,Søndergade,6440,24,9.913353,54.983378
1299427,Søndergade,6440,25,9.911803,54.982921
1299430,Søndergade,6440,26,9.913832,54.983329
1299433,Søndergade,6440,27,9.911537,54.982931
1299434,Søndergade,6440,28,9.914109,54.983293
1299435,Søndergade,6440,29,9.911553,54.983188
1299439,Søndergade,6440,30,9.914316,54.983321
1299440,Søndergade,6440,32,9.914263,54.983475
1299441,Søndergade,6440,34,9.913944,54.983513
1299444,Søndergade,6440,36,9.913415,54.983527
1299446,Søndergade,6440,38,9.913464,54.983747
1299537,Tulipanvej,6440,1,9.875513,54.954637
1299538,Tulipanvej,6440,2,9.874987,54.954437
1299539,Tulipanvej,6440,3,9.875685,54.954484
1299540,Tulipanvej,6440,4,9.875093,54.954272
1299541,Tulipanvej,6440,5,9.875803,54.954319
1299542,Tulipanvej,6440,6,9.875234,54.954
1299543,Tulipanvej,6440,7,9.876202,54.954133
1299545,Græskobbel,6440,1,9.988826,54.978394
1299548,Græskobbel,6440,2,9.993755,54.978655
1299553,Græskobbel,6440,2A,9.993788,54.978447
1299555,Græskobbel,6440,3,9.989649,54.978575
1299559,Græskobbel,6440,4,9.9975919,54.9788377
1299563,Græskobbel,6440,4A,9.997362,54.979251
1299565,Græskobbel,6440,4B,9.9979629,54.9788618
1299568,Græskobbel,6440,5,9.992506,54.979894
1299571,Græskobbel,6440,5A,9.992426,54.979989
1299573,Græskobbel,6440,6,9.9971917,54.9786303
1299576,Græskobbel,6440,7,9.99387,54.980901
1299579,Græskobbel,6440,8,9.995847,54.978682
1299580,Græskobbel,6440,8A,9.995787,54.978495
1299583,Græskobbel,6440,9,9.995199,54.981558
1299586,Græskobbel,6440,10,9.996449,54.978224
1299587,Græskobbel,6440,11,9.99572,54.981136
1299590,Græskobbel,6440,12,9.996463,54.978316
1299592,Græskobbel,6440,13,9.995586,54.981261
1299595,Græskobbel,6440,13A,9.995603,54.981694
1299597,Græskobbel,6440,14,9.996011,54.977924
1299599,Græskobbel,6440,15,9.995804,54.980924
1299601,Græskobbel,6440,15A,9.996083,54.980447
1299604,Græskobbel,6440,15B,9.996386,54.98033
1299606,Græskobbel,6440,16,9.9899463,54.9734794
1299608,Græskobbel,6440,17,9.997433,54.979749
1299610,Græskobbel,6440,18,9.9894559,54.9730809
1299612,Græskobbel,6440,19,9.999552,54.978261
1299615,Græskobbel,6440,20,9.9891897,54.9730418
1299617,Græskobbel,6440,21,10.001116,54.97821
1299619,Græskobbel,6440,21A,10.001226,54.978075
1299621,Græskobbel,6440,23,9.997213,54.977494
1299623,Græskobbel,6440,25,9.989628,54.972788
1299752,Herredam,6440,3,9.97904,54.98735
1299755,Herredam,6440,5,9.978784,54.987499
1299763,Herredam,6440,7,9.978394,54.987627
1299768,Herredam,6440,9,9.977905,54.987774
1299998,Inderhave,6440,1,9.980371,54.990761
1299999,Inderhave,6440,2,9.980906,54.990822
1300001,Inderhave,6440,3,9.980475,54.99096
1300003,Inderhave,6440,4,9.981209,54.99113
1300006,Inderhave,6440,5,9.980766,54.991176
1300009,Inderhave,6440,6,9.981438,54.990907
1300012,Inderhave,6440,7,9.980978,54.991396
1300015,Inderhave,6440,8,9.981429,54.991295
1300018,Inderhave,6440,9,9.981273,54.991612
1300021,Padholm,6440,2,9.962705,54.980368
1300025,Padholm,6440,4,9.962731,54.980535
1300029,Padholm,6440,6,9.964778,54.983397
1300030,Padholm,6440,8,9.962471,54.982948
1300034,Padholm,6440,10,9.961798,54.983064
1300036,Padholm,6440,12,9.961169,54.983221
1300041,Padholm,6440,14,9.963955,54.9849
1300239,Solsortevej,6440,1,10.011412,54.959149
1300240,Solsortevej,6440,2,10.011972,54.959292
1300242,Solsortevej,6440,3,10.010968,54.959217
1300245,Solsortevej,6440,4,10.011633,54.959414
1300246,Solsortevej,6440,5,10.010664,54.959077
1300249,Solsortevej,6440,6,10.010725,54.959587
1300251,Solsortevej,6440,7,10.010273,54.958909
1300252,Solsortevej,6440,8,10.010535,54.959379
1300255,Solsortevej,6440,10,10.01022,54.959283
1300257,Solsortevej,6440,12,10.009971,54.959171
1300316,Egevej,6440,1,9.871359,54.949563
1300318,Egevej,6440,2,9.871039,54.949363
1300320,Egevej,6440,3,9.871617,54.949462
1300324,Egevej,6440,4,9.871332,54.949282
1300327,Egevej,6440,5,9.871841,54.949397
1300328,Egevej,6440,6,9.871475,54.949159
1300333,Egevej,6440,7,9.872084,54.949284
1300337,Egevej,6440,8,9.871818,54.94907
1300339,Egevej,6440,9,9.872333,54.949193
1300342,Egevej,6440,10,9.872142,54.949033
1300407,Tjørnebakken,6440,1,9.878704,54.955741
1300409,Tjørnebakken,6440,2,9.878348,54.955589
1300411,Tjørnebakken,6440,3,9.87881,54.955742
1300413,Tjørnebakken,6440,4,9.878214,54.955545
1300414,Tjørnebakken,6440,5,9.878946,54.955835
1300415,Tjørnebakken,6440,6,9.878459,54.955437
1300416,Tjørnebakken,6440,7,9.879111,54.955597
1300417,Tjørnebakken,6440,8,9.878507,54.955355
1300418,Tjørnebakken,6440,9,9.879181,54.955547
1300419,Tjørnebakken,6440,10,9.878594,54.955303
1300420,Tjørnebakken,6440,11,9.879273,54.955496
1300421,Tjørnebakken,6440,12,9.878737,54.955196
1300422,Tjørnebakken,6440,13,9.879406,54.955397
1300423,Tjørnebakken,6440,14,9.878836,54.955124
1300424,Tjørnebakken,6440,15,9.879502,54.955331
1300425,Tjørnebakken,6440,16,9.878886,54.95494
1300426,Tjørnebakken,6440,17,9.87975,54.955236
1300427,Tjørnebakken,6440,18,9.879038,54.955014
1300428,Tjørnebakken,6440,19,9.879661,54.95518
1300429,Tjørnebakken,6440,20,9.879226,54.955046
1300430,Tjørnebakken,6440,21,9.879433,54.955142
1300431,Tjørnebakken,6440,22,9.879353,54.955098
1300557,Smedegade,6440,1,9.898871,54.963253
1300560,Smedegade,6440,2,9.899007,54.964217
1300561,Smedegade,6440,3,9.898716,54.9634
1300566,Smedegade,6440,4,9.898931,54.964346
1300568,Smedegade,6440,5,9.898357,54.963485
1300571,Smedegade,6440,6,9.898838,54.964406
1300573,Smedegade,6440,7,9.898758,54.963609
1300574,Smedegade,6440,8,9.898767,54.964557
1300577,Smedegade,6440,9,9.898595,54.963967
1300581,Smedegade,6440,9A,9.898375,54.964195
1300583,Smedegade,6440,9B,9.898289,54.964359
1300585,Smedegade,6440,10,9.898562,54.964628
1300588,Smedegade,6440,11,9.898077,54.964587
1300589,Smedegade,6440,12,9.898312,54.96478
1300591,Smedegade,6440,13,9.897825,54.964865
1300593,Smedegade,6440,14,9.898142,54.964982
1300595,Smedegade,6440,14A,9.898465,54.965175
1300597,Smedegade,6440,15,9.897694,54.965013
1300600,Smedegade,6440,16,9.898915,54.965715
1300601,Smedegade,6440,18,9.898227,54.965571
1300602,Smedegade,6440,19,9.897114,54.965056
1300605,Smedegade,6440,20,9.89858,54.965481
1300607,Smedegade,6440,21,9.897319,54.965286
1300609,Smedegade,6440,22,9.898016,54.96523
1300611,Smedegade,6440,23,9.897032,54.96546
1300612,Smedegade,6440,24,9.897831,54.965383
1300613,Smedegade,6440,25,9.897062,54.965749
1300616,Smedegade,6440,26,9.897729,54.965537
1300618,Smedegade,6440,32,9.898613,54.965963
1300620,Smedegade,6440,34,9.898892,54.965989
1300621,Smedegade,6440,36,9.89826,54.96628
1300625,Smedegade,6440,38,9.898453,54.966348
1300902,Hundslevvej,6440,2,9.898856,54.9697
1300903,Hundslevvej,6440,3,9.899212,54.976334
1300905,Hundslevvej,6440,4,9.898951,54.969955
1300908,Hundslevvej,6440,5,9.898274,54.977162
1300909,Hundslevvej,6440,6,9.899078,54.970202
1300912,Hundslevvej,6440,7,9.898845,54.98024
1300913,Hundslevvej,6440,8,9.899207,54.970449
1300916,Hundslevvej,6440,9,9.898464,54.981428
1300918,Hundslevvej,6440,10,9.899593,54.971073
1300919,Hundslevvej,6440,11,9.898108,54.981529
1300922,Hundslevvej,6440,12,9.900045,54.972403
1300923,Hundslevvej,6440,12A,9.900189,54.970884
1300924,Hundslevvej,6440,13,9.9114,54.982645
1300925,Hundslevvej,6440,14,9.900408,54.97419
1300927,Hundslevvej,6440,14A,9.900221,54.97328
1300930,Hundslevvej,6440,15,9.91184,54.982644
1300934,Hundslevvej,6440,16,9.900029,54.976296
1300937,Hundslevvej,6440,17,9.912275,54.98264
1300940,Hundslevvej,6440,20,9.907606,54.977044
1300943,Hundslevvej,6440,22,9.899376,54.976736
1300945,Hundslevvej,6440,24,9.899109,54.9805
1300950,Hundslevvej,6440,26,9.903993,54.98206
1300953,Hundslevvej,6440,28,9.910277,54.982465
1301211,Bøgevej,6440,1,9.870618,54.94896
1301212,Bøgevej,6440,2,9.870225,54.948713
1301213,Bøgevej,6440,3,9.87083,54.948838
1301214,Bøgevej,6440,4,9.870582,54.94867
1301215,Bøgevej,6440,5,9.871077,54.948815
1301216,Bøgevej,6440,6,9.870822,54.948569
1301217,Bøgevej,6440,7,9.871375,54.948693
1301218,Bøgevej,6440,8,9.871029,54.948425
1301219,Bøgevej,6440,9,9.871533,54.948548
1301220,Bøgevej,6440,10,9.871346,54.948325
1301223,Sønder Kettingskov,6440,1,10.007272,54.94966
1301225,Sønder Kettingskov,6440,3,10.007119,54.94989
1301227,Sønder Kettingskov,6440,4,10.0043957,54.9494822
1301230,Sønder Kettingskov,6440,5,10.007587,54.94969
1301233,Sønder Kettingskov,6440,6,10.007197,54.949387
1301236,Sønder Kettingskov,6440,8,10.008558,54.94955
1301241,Sønder Kettingskov,6440,9,10.009152,54.949751
1301242,Sønder Kettingskov,6440,10,10.021299,54.949952
1301247,Sønder Kettingskov,6440,11,10.010217,54.950234
1301250,Sønder Kettingskov,6440,13,10.010508,54.950142
1301255,Sønder Kettingskov,6440,15,10.009399,54.952374
1301259,Sønder Kettingskov,6440,17,10.009934,54.952334
1301260,Sønder Kettingskov,6440,17A,10.011085,54.952458
1301263,Sønder Kettingskov,6440,19,10.013848,54.951539
1301264,Sønder Kettingskov,6440,21,10.017541,54.9515
1301267,Sønder Kettingskov,6440,23,10.017664,54.952009
1301269,Sønder Kettingskov,6440,25,10.017127,54.951973
1301272,Sønder Kettingskov,6440,27,10.016816,54.95003
1301275,Sønder Kettingskov,6440,29,10.017407,54.949897
1301278,Sønder Kettingskov,6440,29A,10.022804,54.950262
1301280,Sønder Kettingskov,6440,29B,10.023769,54.950215
1301284,Sønder Kettingskov,6440,31A,10.020896,54.951717
1301373,Helved,6440,1,9.9529628,55.0016101
1301374,Helved,6440,2,9.9532404,55.0021167
1301375,Helved,6440,3,9.952742,55.000779
1301376,Helved,6440,4,9.9530166,55.0019362
1301377,Helved,6440,4B,9.9530477,55.002014
1301378,Helved,6440,5,9.952508,55.00005
1301379,Helved,6440,6,9.951673,55.000232
1301380,Helved,6440,6A,9.953629,54.999529
1301381,Helved,6440,7,9.953526,54.999847
1301382,Helved,6440,8,9.953429,54.999248
1301383,Helved,6440,9,9.95419,55.000086
1301384,Helved,6440,10,9.95539,54.999557
1301385,Helved,6440,11,9.954622,55.000071
1301386,Helved,6440,12,9.955173,54.999427
1301387,Helved,6440,13,9.954528,54.999804
1301388,Helved,6440,14,9.954854,54.998517
1301389,Helved,6440,15,9.954959,54.999794
1301390,Helved,6440,16,9.955948,54.999358
1301391,Helved,6440,17,9.955465,55.000082
1301393,Helved,6440,18,9.956867,54.998633
1301395,Helved,6440,18A,9.957121,54.99842
1301397,Helved,6440,18B,9.957246,54.999926
1301399,Helved,6440,19,9.955376,54.999715
1301400,Helved,6440,19A,9.955465,54.999828
1301402,Helved,6440,20,9.957593,54.999869
1301405,Helved,6440,21,9.956151,54.999728
1301406,Helved,6440,22,9.9588,54.999339
1301408,Helved,6440,23,9.956488,55.000019
1301409,Helved,6440,24,9.961395,54.998973
1301414,Helved,6440,25,9.957073,55.00003
1301416,Helved,6440,26,9.961738,54.998661
1301418,Helved,6440,27,9.957282,55.000698
1301421,Helved,6440,28,9.963708,54.994908
1301424,Helved,6440,29,9.957782,55.000432
1301427,Helved,6440,30,9.963169,54.994869
1301430,Helved,6440,31,9.958291,55.000056
1301433,Helved,6440,35,9.958687,54.999731
1301437,Helved,6440,37,9.958801,54.999615
1301438,Helved,6440,37A,9.959404,54.999421
1301442,Helved,6440,39,9.960464,54.999861
1301444,Helved,6440,41,9.961195,54.999445
1301521,Primulavej,6440,1,9.880967,54.952397
1301522,Primulavej,6440,1A,9.880755,54.952614
1301523,Primulavej,6440,2,9.8811122,54.9529218
1301525,Primulavej,6440,3,9.880526,54.952767
1301527,Primulavej,6440,5,9.880327,54.952926
1301531,Primulavej,6440,7,9.880143,54.953085
1301536,Primulavej,6440,9,9.879886,54.953291
1301537,Primulavej,6440,10,9.880405,54.953308
1301541,Primulavej,6440,12,9.88022,54.953455
1301542,Primulavej,6440,13,9.879498,54.953502
1301547,Primulavej,6440,14,9.879976,54.953642
1301548,Primulavej,6440,15,9.879343,54.953704
1301553,Primulavej,6440,16,9.87983,54.953805
1301556,Primulavej,6440,17,9.879107,54.953854
1301558,Primulavej,6440,18,9.879636,54.953984
1301561,Primulavej,6440,19,9.87894,54.954005
1301564,Primulavej,6440,20,9.879386,54.954168
1301568,Primulavej,6440,21,9.878764,54.95414
1301570,Primulavej,6440,22,9.87911,54.954323
1301574,Primulavej,6440,23,9.878561,54.954295
1301577,Primulavej,6440,25,9.878334,54.954456
1301579,Primulavej,6440,26,9.878504,54.95484
1301582,Primulavej,6440,27,9.877953,54.954628
1301583,Primulavej,6440,28,9.878304,54.955039
1301588,Primulavej,6440,29,9.877805,54.954834
1301591,Primulavej,6440,30,9.878075,54.955198
1301594,Primulavej,6440,31,9.877559,54.955013
1301597,Primulavej,6440,32,9.877925,54.955353
1301599,Primulavej,6440,33,9.87731,54.955205
1301605,Primulavej,6440,34,9.877761,54.955507
1301606,Primulavej,6440,35,9.87698,54.9553
1302401,Stenkobbel,6440,1,9.9645209,55.0066191
1302402,Stenkobbel,6440,2,9.96288,55.006781
1302403,Stenkobbel,6440,2A,9.964505,55.00662
1302404,Stenkobbel,6440,3,9.958828,55.008413
1302405,Stenkobbel,6440,4,9.957234,55.009216
1302406,Stenkobbel,6440,4A,9.956933,55.009293
1302407,Stenkobbel,6440,5,9.946822,55.003226
1302408,Stenkobbel,6440,6,9.945823,55.006016
1302468,Østkystvejen,6440,1,9.977049,54.987161
1302478,Østkystvejen,6440,3,9.978022,54.986691
1302483,Østkystvejen,6440,5,9.978338,54.986638
1302487,Østkystvejen,6440,6,9.978016,54.985893
1302489,Østkystvejen,6440,6A,9.978351,54.98586
1302498,Østkystvejen,6440,10,9.978552,54.986075
1302500,Østkystvejen,6440,12,9.978901,54.985808
1302504,Østkystvejen,6440,13,9.980791,54.985391
1302508,Østkystvejen,6440,14,9.985806,54.977175
1302511,Østkystvejen,6440,15,9.982635,54.983613
1302517,Østkystvejen,6440,16,9.985802,54.976437
1302519,Østkystvejen,6440,16A,9.985264,54.976509
1302523,Østkystvejen,6440,17,9.985519,54.981414
1302529,Østkystvejen,6440,18,9.985904,54.976052
1302534,Østkystvejen,6440,20,9.9866,54.975113
1302540,Østkystvejen,6440,22,9.987186,54.973653
1302545,Østkystvejen,6440,24,9.990209,54.97101
1302548,Østkystvejen,6440,26,9.990281,54.970763
1302550,Østkystvejen,6440,27,9.98649,54.976501
1302556,Østkystvejen,6440,28,9.990171,54.970506
1302558,Østkystvejen,6440,29,9.990046,54.972453
1302559,Østkystvejen,6440,30,9.990792,54.970274
1302560,Østkystvejen,6440,31,9.989898,54.971946
1302561,Østkystvejen,6440,32,9.990946,54.970086
1302562,Østkystvejen,6440,33,9.9902328,54.971649
1302563,Østkystvejen,6440,34,9.991405,54.969211
1302564,Østkystvejen,6440,35,9.990381,54.971237
1302565,Østkystvejen,6440,36,9.991265,54.9692
1302566,Østkystvejen,6440,38,9.992525,54.968571
1302567,Østkystvejen,6440,40,9.992937,54.968244
1302568,Østkystvejen,6440,42,9.99415,54.967118
1302569,Østkystvejen,6440,43,10.002673,54.956431
1302576,Østkystvejen,6440,50,10.000842,54.960545
1302582,Østkystvejen,6440,54,10.002074,54.952341
1302583,Østkystvejen,6440,59,10.002434,54.954512
1302714,H.C. Andersens Vej,6440,1,9.8812141,54.9506663
1302717,H.C. Andersens Vej,6440,2,9.8813376,54.9511428
1302719,H.C. Andersens Vej,6440,4,9.8811516,54.9510349
1302720,H.C. Andersens Vej,6440,6,9.8809611,54.9509212
1302723,H.C. Andersens Vej,6440,8,9.880772,54.9508133
1302725,H.C. Andersens Vej,6440,10,9.8805286,54.950677
1303216,Langdel,6440,2,9.873569,54.942092
1303218,Langdel,6440,4,9.873049,54.941988
1303225,Langdel,6440,6A,9.8705224,54.9415115
1303226,Langdel,6440,6B,9.870691,54.941548
1303235,Langdel,6440,6C,9.870561,54.941519
1303238,Langdel,6440,6D,9.869552,54.941601
1303241,Langdel,6440,6E,9.870688,54.941255
1303245,Langdel,6440,6F,9.871006,54.941268
1303246,Langdel,6440,10,9.874565,54.941227
1303251,Langdel,6440,12A,9.876441,54.939826
1303256,Langdel,6440,12B,9.876488,54.939781
1303258,Langdel,6440,14,9.876194,54.939478
1303263,Langdel,6440,16,9.875518,54.938947
1303465,Svinget,6440,1,9.980045,54.98672
1303466,Svinget,6440,2A,9.979868,54.986152
1303469,Svinget,6440,2B,9.979476,54.986109
1303470,Svinget,6440,2C,9.97996,54.985897
1303473,Svinget,6440,3,9.9808328,54.9865402
1303476,Svinget,6440,4,9.981119,54.986056
1303478,Svinget,6440,4A,9.98036,54.985944
1303480,Svinget,6440,5,9.981567,54.986396
1303481,Svinget,6440,6,9.981891,54.986048
1303484,Svinget,6440,7,9.982658,54.985854
1303486,Svinget,6440,8,9.982071,54.984875
1303487,Svinget,6440,9,9.982994,54.985726
1303489,Svinget,6440,11,9.984758,54.985261
1303491,Svinget,6440,13,9.984771,54.985158
1303493,Svinget,6440,15,9.985039,54.985111
1303495,Svinget,6440,17,9.985028,54.985003
1303497,Svinget,6440,18,9.9848096,54.9848187
1303499,Svinget,6440,19,9.985284,54.984924
1303501,Svinget,6440,20,9.985082,54.9846552
1303504,Svinget,6440,21,9.985288,54.98484
1303506,Svinget,6440,21A,9.9855072,54.9848024
1303509,Svinget,6440,22,9.9853463,54.9844322
1303513,Svinget,6440,23,9.985662,54.984685
1303516,Svinget,6440,24,9.9854367,54.984203
1303518,Svinget,6440,25,9.985671,54.984604
1303523,Svinget,6440,27,9.985759,54.984548
1303526,Svinget,6440,29,9.985753,54.984465
1303527,Svinget,6440,31,9.985838,54.984405
1303531,Svinget,6440,33,9.985857,54.984322
1303721,Birkevej,6440,1,9.869772,54.948371
1303727,Birkevej,6440,2,9.86941,54.948207
1303728,Birkevej,6440,3,9.869932,54.948326
1303732,Birkevej,6440,4,9.869651,54.948052
1303738,Birkevej,6440,5,9.870152,54.94815
1303740,Birkevej,6440,6,9.869857,54.947923
1303746,Birkevej,6440,7,9.870534,54.948045
1303747,Birkevej,6440,8,9.870007,54.947816
1303751,Birkevej,6440,9,9.870784,54.948021
1303756,Birkevej,6440,10,9.870192,54.94769
1303768,Palævej,6440,2,9.865489,54.946017
1303830,Rypevej,6440,1,9.870605,54.951487
1303832,Rypevej,6440,2,9.87003,54.951361
1303834,Rypevej,6440,3,9.870664,54.951307
1303836,Rypevej,6440,4,9.870224,54.951208
1303838,Rypevej,6440,5,9.870665,54.951138
1303840,Rypevej,6440,6,9.870302,54.95102
1303842,Rypevej,6440,7,9.870725,54.950946
1303843,Rypevej,6440,8,9.870311,54.950832
1303846,Rypevej,6440,9,9.870768,54.950749
1303847,Rypevej,6440,10,9.870312,54.950531
1303850,Rypevej,6440,11,9.870777,54.950539
1303851,Rypevej,6440,12,9.870355,54.950327
1303852,Rypevej,6440,13,9.870716,54.950334
1303853,Rypevej,6440,14,9.870529,54.950058
1303868,Lykkevej,6440,1,9.92153,54.982853
1303869,Lykkevej,6440,1A,9.921618,54.982814
1303872,Lykkevej,6440,1B,9.921692,54.982795
1303874,Lykkevej,6440,2,9.921724,54.982497
1303875,Lykkevej,6440,3,9.921954,54.9827
1303878,Lykkevej,6440,4,9.922058,54.982493
1303879,Lykkevej,6440,5,9.922287,54.982582
1303881,Lykkevej,6440,6,9.922297,54.982379
1303883,Lykkevej,6440,7,9.922765,54.982414
1303885,Lykkevej,6440,8,9.922235,54.982117
1303886,Lykkevej,6440,9,9.9230301,54.9822977
1303889,Lykkevej,6440,10,9.921683,54.981959
1303890,Lykkevej,6440,11,9.9235817,54.9822157
1303893,Lykkevej,6440,13,9.924561,54.981874
1303895,Lykkevej,6440,14,9.922604,54.98166
1303896,Lykkevej,6440,15,9.924678,54.981888
1303898,Lykkevej,6440,17,9.925038,54.981708
1303900,Lykkevej,6440,18,9.922789,54.982096
1303902,Lykkevej,6440,18A,9.922917,54.982091
1303904,Lykkevej,6440,18B,9.9230303,54.9820811
1303906,Lykkevej,6440,18C,9.9231498,54.9820626
1303908,Lykkevej,6440,19,9.92533,54.981561
1303910,Lykkevej,6440,20,9.9237456,54.9819454
1303911,Lykkevej,6440,21,9.925642,54.98147
1303914,Lykkevej,6440,22,9.923956,54.9818
1303917,Lykkevej,6440,23,9.9263,54.981204
1303918,Lykkevej,6440,24,9.924175,54.981751
1303920,Lykkevej,6440,25,9.926783,54.980889
1303921,Lykkevej,6440,26,9.924389,54.981685
1303924,Lykkevej,6440,27,9.927166,54.980491
1303927,Lykkevej,6440,28,9.924712,54.981441
1303928,Lykkevej,6440,28A,9.92471,54.981346
1303930,Lykkevej,6440,30,9.92507,54.98142
1303931,Lykkevej,6440,32A,9.925683,54.981168
1303932,Lykkevej,6440,34,9.926202,54.98092
1303934,Lykkevej,6440,36,9.926344,54.980736
1303937,Lykkevej,6440,38,9.926537,54.980569
1303938,Lykkevej,6440,40,9.926874,54.980418
1304050,Slotsallé,6440,1,9.8690734,54.9451747
1304053,Slotsallé,6440,1A,9.8687286,54.9451714
1304056,Slotsallé,6440,3,9.8693584,54.9452474
1304058,Slotsallé,6440,4,9.8700483,54.9450929
1304061,Slotsallé,6440,4A,9.8698937,54.9449905
1304063,Slotsallé,6440,5,9.869838,54.94528
1304065,Slotsallé,6440,6,9.8704961,54.9451242
1304067,Slotsallé,6440,8,9.8708195,54.9451794
1304070,Slotsallé,6440,9,9.8713939,54.9455492
1304072,Slotsallé,6440,10A,9.8710059,54.9452529
1304074,Slotsallé,6440,10B,9.871103,54.9452637
1304076,Slotsallé,6440,10C,9.8711901,54.9452803
1304078,Slotsallé,6440,10D,9.8712878,54.9452911
1304080,Slotsallé,6440,10E,9.871392,54.945311
1304082,Slotsallé,6440,12,9.8716181,54.945375
1304084,Slotsallé,6440,13,9.872344,54.94567
1304086,Slotsallé,6440,14,9.8720259,54.9454353
1304088,Slotsallé,6440,14A,9.8721368,54.9454518
1304089,Slotsallé,6440,15,9.8724691,54.9456852
1304092,Slotsallé,6440,16,9.8727004,54.9455513
1304109,Blegebæk,6440,1,9.921075,54.962096
1304110,Blegebæk,6440,2,9.92091,54.961953
1304111,Blegebæk,6440,3,9.925243,54.961865
1304112,Blegebæk,6440,4,9.920303,54.961214
1304122,Bjørnøvej,6440,1,9.986829,54.986741
1304123,Bjørnøvej,6440,2,9.986482,54.986948
1304124,Bjørnøvej,6440,3,9.986671,54.986666
1304125,Bjørnøvej,6440,4,9.986294,54.986826
1304126,Bjørnøvej,6440,5,9.986522,54.986579
1304127,Bjørnøvej,6440,6,9.986028,54.986705
1304128,Bjørnøvej,6440,7,9.986334,54.986487
1304129,Bjørnøvej,6440,9,9.986215,54.986482
1304130,Bjørnøvej,6440,10,9.985422,54.986573
1304131,Bjørnøvej,6440,11,9.986023,54.986477
1304132,Bjørnøvej,6440,12,9.985,54.986392
1304133,Bjørnøvej,6440,13,9.985887,54.986473
1304134,Bjørnøvej,6440,15,9.985652,54.986379
1304135,Bjørnøvej,6440,17,9.98557,54.986323
1304136,Bjørnøvej,6440,18,9.98488,54.985952
1304137,Bjørnøvej,6440,19,9.985444,54.986241
1304138,Bjørnøvej,6440,20,9.984856,54.985823
1304139,Bjørnøvej,6440,21,9.985354,54.986181
1304140,Bjørnøvej,6440,23,9.985258,54.986052
1304141,Bjørnøvej,6440,25,9.985244,54.985974
1304142,Bjørnøvej,6440,27,9.985218,54.985868
1304143,Bjørnøvej,6440,29,9.985202,54.98579
1304183,Storegade,6440,1,9.866534,54.945567
1304184,Storegade,6440,1A,9.86662,54.945567
1304194,Storegade,6440,5,9.867239,54.945615
1304195,Storegade,6440,5A,9.86739,54.945646
1304196,Storegade,6440,6A,9.868784,54.945735
1304197,Storegade,6440,7,9.867615,54.945687
1304198,Storegade,6440,8,9.869058,54.945729
1304199,Storegade,6440,9,9.867841,54.945753
1304200,Storegade,6440,10,9.869303,54.945805
1304201,Storegade,6440,11,9.868124,54.945817
1304202,Storegade,6440,11A,9.86831,54.946027
1304203,Storegade,6440,12,9.869568,54.945821
1304204,Storegade,6440,13,9.86859,54.945893
1304205,Storegade,6440,14,9.869867,54.945841
1304206,Storegade,6440,15,9.868866,54.945915
1304207,Storegade,6440,16,9.869964,54.945453
1304208,Storegade,6440,17,9.869032,54.945929
1304209,Storegade,6440,19,9.869282,54.945942
1304210,Storegade,6440,20,9.870583,54.945872
1304211,Storegade,6440,21,9.869361,54.945946
1304212,Storegade,6440,22,9.870992,54.945845
1304213,Storegade,6440,23,9.869937,54.945985
1304214,Storegade,6440,24,9.871127,54.945904
1304215,Storegade,6440,24A,9.871202,54.945908
1304216,Storegade,6440,25,9.870112,54.945984
1304217,Storegade,6440,26,9.871624,54.94574
1304218,Storegade,6440,27,9.870229,54.945995
1304219,Storegade,6440,28,9.871758,54.945904
1304220,Storegade,6440,29,9.870327,54.94601
1304223,Storegade,6440,30,9.871957,54.945931
1304224,Storegade,6440,31,9.870442,54.946014
1304227,Storegade,6440,32,9.872157,54.945965
1304229,Storegade,6440,33,9.870556,54.946021
1304230,Storegade,6440,34,9.872345,54.945998
1304233,Storegade,6440,35,9.870779,54.946016
1304234,Storegade,6440,36,9.872632,54.946005
1304237,Storegade,6440,36A,9.87245,54.946001
1304239,Storegade,6440,39,9.87108,54.94603
1304240,Storegade,6440,39A,9.871081,54.94609
1304241,Storegade,6440,41,9.871386,54.946037
1304242,Storegade,6440,43,9.871687,54.946099
1304243,Storegade,6440,45,9.871899,54.94607
1304244,Storegade,6440,45A,9.871972,54.946084
1304245,Storegade,6440,45B,9.87205,54.946099
1304246,Storegade,6440,47A,9.872226,54.946139
1304247,Storegade,6440,47B,9.872386,54.946178
1304248,Storegade,6440,49,9.872584,54.946217
1304544,Asserballe Station,6440,1,9.922562,54.964336
1304546,Asserballe Station,6440,1A,9.9224372,54.9643427
1304547,Asserballe Station,6440,2,9.924328,54.96468
1304550,Asserballe Station,6440,4,9.9244948,54.9648677
1304553,Asserballe Station,6440,5,9.9234522,54.9647146
1304554,Asserballe Station,6440,6,9.924701,54.9649812
1304556,Asserballe Station,6440,7,9.922641,54.965092
1304557,Asserballe Station,6440,8,9.9248995,54.965135
1304560,Asserballe Station,6440,9,9.9242675,54.9652031
1304562,Asserballe Station,6440,10,9.9251194,54.9652713
1304565,Asserballe Station,6440,11A,9.924951,54.965726
1304568,Asserballe Station,6440,11C,9.9249907,54.965951
1304570,Asserballe Station,6440,11D,9.9250073,54.9660199
1304571,Asserballe Station,6440,12,9.9255207,54.9654121
1304574,Asserballe Station,6440,13,9.9253469,54.9660058
1304575,Asserballe Station,6440,14,9.9262486,54.9658494
1304577,Asserballe Station,6440,15A,9.9245169,54.9661847
1304580,Asserballe Station,6440,16,9.926955,54.96603
1304581,Asserballe Station,6440,17,9.9245846,54.9670929
1304583,Asserballe Station,6440,19,9.924927,54.968234
1304584,Asserballe Station,6440,21,9.9248238,54.9693457
1304587,Asserballe Station,6440,23,9.9256429,54.9661646
1304588,Asserballe Station,6440,25,9.9270914,54.9664987
1304590,Asserballe Station,6440,27,9.9286336,54.9673439
1304591,Asserballe Station,6440,29,9.9295473,54.9673254
1304630,Frederiksgård,6440,1,9.959879,54.992468
1304633,Frederiksgård,6440,2,9.960378,54.992598
1304634,Frederiksgård,6440,2A,9.959989,54.992692
1304637,Frederiksgård,6440,3,9.958609,54.992925
1304639,Frederiksgård,6440,3A,9.957845,54.993038
1304641,Frederiksgård,6440,3B,9.958124,54.992972
1304642,Frederiksgård,6440,4,9.959516,54.992933
1304644,Frederiksgård,6440,5,9.957459,54.993083
1304646,Frederiksgård,6440,6,9.959294,54.993015
1304648,Frederiksgård,6440,7,9.956995,54.993146
1304649,Frederiksgård,6440,8,9.958874,54.993088
1304651,Frederiksgård,6440,9,9.955878,54.993412
1304652,Frederiksgård,6440,11,9.956055,54.993713
1304653,Frederiksgård,6440,11A,9.955378,54.993863
1304654,Frederiksgård,6440,11B,9.955079,54.994041
1304655,Frederiksgård,6440,12,9.956847,54.99368
1304656,Frederiksgård,6440,13,9.954947,54.99428
1304657,Frederiksgård,6440,14,9.956494,54.994017
1304658,Frederiksgård,6440,15,9.95478,54.994546
1304659,Frederiksgård,6440,16,9.956937,54.994025
1304660,Frederiksgård,6440,17,9.953853,54.995562
1304661,Frederiksgård,6440,18,9.956395,54.993862
1304662,Frederiksgård,6440,19,9.953299,54.996868
1304663,Frederiksgård,6440,20,9.955883,54.99405
1304664,Frederiksgård,6440,21,9.953299,54.997017
1304665,Frederiksgård,6440,22,9.955789,54.99428
1304666,Frederiksgård,6440,23,9.953393,54.99738
1304667,Frederiksgård,6440,24,9.957148,54.994341
1304668,Frederiksgård,6440,25,9.953677,54.997724
1304669,Frederiksgård,6440,26,9.957543,54.994684
1304670,Frederiksgård,6440,27,9.959181,54.997982
1304671,Frederiksgård,6440,28,9.957191,54.994685
1304672,Frederiksgård,6440,29,9.958714,54.997545
1304673,Frederiksgård,6440,30,9.956745,54.994639
1304674,Frederiksgård,6440,32,9.956216,54.994692
1304675,Frederiksgård,6440,34,9.955884,54.99458
1304676,Frederiksgård,6440,36,9.955572,54.994476
1304677,Frederiksgård,6440,38,9.955486,54.994615
1304678,Frederiksgård,6440,40,9.955281,54.994756
1304679,Frederiksgård,6440,42,9.954536,54.995463
1304680,Frederiksgård,6440,44,9.953948,54.997249
1304683,Frederiksgård,6440,46,9.954114,54.997188
1304737,Skærtoft,6440,2,9.943236,55.001711
1304742,Skærtoft,6440,4,9.943416,55.001718
1304743,Skærtoft,6440,6,9.938157,55.003099
1304744,Skærtoft,6440,10,9.937645,55.003303
1304767,Møllegade,6440,1,9.87492,54.947678
1304768,Møllegade,6440,2,9.87434,54.947407
1304769,Møllegade,6440,3,9.875126,54.947712
1304770,Møllegade,6440,4,9.874578,54.947452
1304771,Møllegade,6440,6,9.874835,54.947497
1304772,Møllegade,6440,6A,9.874909,54.947253
1304773,Møllegade,6440,7,9.875534,54.947785
1304774,Møllegade,6440,7A,9.875613,54.9478
1304775,Møllegade,6440,8,9.875006,54.947528
1304776,Møllegade,6440,9,9.876358,54.948056
1304777,Møllegade,6440,10,9.875333,54.947526
1304778,Møllegade,6440,10A,9.87569,54.947652
1304779,Møllegade,6440,12,9.876832,54.947838
1304780,Møllegade,6440,12A,9.876556,54.947786
1304781,Møllegade,6440,14,9.877121,54.947894
1304782,Møllegade,6440,15,9.877746,54.94822
1304783,Møllegade,6440,16,9.877366,54.947934
1304784,Møllegade,6440,17,9.877997,54.948265
1304785,Møllegade,6440,18,9.877851,54.947766
1304786,Møllegade,6440,19,9.878243,54.94831
1304788,Møllegade,6440,20,9.878168,54.948077
1304789,Møllegade,6440,21,9.878479,54.948353
1304792,Møllegade,6440,22,9.878409,54.94811
1304793,Møllegade,6440,24,9.878675,54.948169
1304795,Møllegade,6440,26,9.878942,54.948214
1304796,Møllegade,6440,28,9.879176,54.948225
1304799,Møllegade,6440,32,9.881619,54.948647
1304801,Møllegade,6440,34,9.88191,54.948737
1304802,Møllegade,6440,36,9.882182,54.948718
1304805,Møllegade,6440,38,9.882609,54.948875
1304848,Brombærhegnet,6440,1,9.891073,54.956431
1304851,Brombærhegnet,6440,2,9.891468,54.956139
1304853,Brombærhegnet,6440,3,9.890753,54.956541
1304855,Brombærhegnet,6440,4,9.891746,54.956258
1304872,Lupinvej,6440,1,9.871726,54.953917
1304873,Lupinvej,6440,2,9.871909,54.95428
1304874,Lupinvej,6440,3,9.871312,54.953927
1304875,Lupinvej,6440,4,9.871004,54.954235
1305045,Tandsletvej,6440,1,9.951949,54.964956
1305075,Almsted,6440,1,9.938743,54.975173
1305076,Almsted,6440,2,9.937953,54.975157
1305077,Almsted,6440,3,9.938864,54.974972
1305078,Almsted,6440,4,9.93933,54.974517
1305079,Almsted,6440,5,9.938996,54.974769
1305082,Almsted,6440,6,9.939809,54.974311
1305083,Almsted,6440,6A,9.940648,54.974144
1305084,Almsted,6440,7,9.939661,54.974527
1305085,Almsted,6440,8,9.940759,54.973719
1305086,Almsted,6440,8A,9.940439,54.973842
1305089,Almsted,6440,9,9.940139,54.974432
1305090,Almsted,6440,10,9.940046,54.973835
1305096,Almsted,6440,11,9.940289,54.974409
1305097,Almsted,6440,12,9.939324,54.973981
1305099,Almsted,6440,13,9.9406,54.974363
1305101,Almsted,6440,14,9.939139,54.973889
1305103,Almsted,6440,15,9.941491,54.973899
1305105,Almsted,6440,16,9.939531,54.973605
1305107,Almsted,6440,16A,9.939514,54.971664
1305109,Almsted,6440,18,9.94026,54.97361
1305111,Almsted,6440,20,9.940621,54.973528
1305113,Almsted,6440,21,9.94206,54.973689
1305115,Almsted,6440,22,9.941189,54.973472
1305117,Almsted,6440,23,9.943343,54.974624
1305119,Almsted,6440,24,9.941468,54.973561
1305121,Almsted,6440,24A,9.941972,54.973306
1305125,Almsted,6440,25,9.94355,54.975263
1305127,Almsted,6440,26,9.943613,54.973214
1305130,Almsted,6440,27,9.943857,54.975113
1305135,Almsted,6440,31,9.943704,54.974762
1305137,Almsted,6440,33,9.943643,54.974605
1305139,Almsted,6440,35,9.943611,54.974402
1305141,Almsted,6440,39,9.943607,54.974067
1305142,Almsted,6440,41,9.943557,54.973743
1305143,Almsted,6440,45,9.943456,54.973589
1305144,Almsted,6440,47,9.943732,54.973333
1305145,Almsted,6440,49,9.947017,54.97338
1305217,Ramserl,6440,1,9.899552,54.967184
1305218,Ramserl,6440,2,9.899716,54.967061
1305219,Ramserl,6440,3,9.901161,54.967489
1305220,Ramserl,6440,5,9.901281,54.967629
1305221,Ramserl,6440,6,9.900012,54.967067
1305222,Ramserl,6440,7,9.901397,54.967435
1305223,Ramserl,6440,10,9.900549,54.966969
1305224,Ramserl,6440,12,9.900802,54.967248
1305225,Ramserl,6440,14,9.900971,54.967296
1305226,Ramserl,6440,16,9.901218,54.967298
1305227,Ramserl,6440,20,9.90567,54.969112
1305311,Katry,6440,1,9.967892,54.988725
1305312,Katry,6440,1A,9.9694498,54.9885225
1305313,Katry,6440,2,9.9657391,54.989835
1305314,Katry,6440,3,9.967902,54.988926
1305315,Katry,6440,4,9.9650771,54.9900034
1305316,Katry,6440,5,9.967398,54.988883
1305318,Katry,6440,6,9.964627,54.990439
1305320,Katry,6440,7,9.966752,54.988464
1305322,Katry,6440,8,9.9642527,54.9905249
1305324,Katry,6440,9,9.965191,54.989721
1305326,Katry,6440,9A,9.964807,54.989712
1305328,Katry,6440,10,9.96372,54.991103
1305330,Katry,6440,10A,9.963801,54.991033
1305332,Katry,6440,10B,9.9640759,54.9907533
1305334,Katry,6440,11,9.964318,54.989965
1305336,Katry,6440,12,9.963221,54.992179
1305571,Storemarksvej,6440,1,9.92108,54.982612
1305572,Storemarksvej,6440,2,9.921235,54.982317
1305573,Storemarksvej,6440,3,9.921166,54.982873
1305574,Storemarksvej,6440,4,9.921292,54.98257
1305575,Storemarksvej,6440,5,9.921219,54.98303
1305576,Storemarksvej,6440,6,9.921563,54.983194
1305577,Storemarksvej,6440,6A,9.921703,54.983304
1305578,Storemarksvej,6440,6B,9.921823,54.983359
1305579,Storemarksvej,6440,6C,9.922367,54.9832
1305580,Storemarksvej,6440,8,9.922603,54.983428
1305581,Storemarksvej,6440,9,9.923466,54.98542
1305582,Storemarksvej,6440,10,9.922909,54.983351
1305583,Storemarksvej,6440,11,9.924136,54.985445
1305584,Storemarksvej,6440,12,9.922526,54.984538
1305585,Storemarksvej,6440,16,9.923689,54.98506
1305586,Storemarksvej,6440,18,9.925764,54.985861
1305643,Snurom,6440,1,9.931266,54.964074
1305645,Snurom,6440,1A,9.9322009,54.9645352
1305647,Snurom,6440,3,9.932153,54.963819
1305696,Anholt,6440,1,9.957069,54.988187
1305698,Anholt,6440,2,9.954306,54.987236
1305793,Fryndeshave,6440,2,9.980072,54.990468
1305794,Fryndeshave,6440,4,9.979916,54.99032
1305795,Fryndeshave,6440,5B,9.979945,54.989953
1305796,Fryndeshave,6440,5C,9.979864,54.989859
1305797,Fryndeshave,6440,6,9.97952,54.989911
1305798,Fryndeshave,6440,7,9.979811,54.989724
1305799,Fryndeshave,6440,8,9.979361,54.989764
1305800,Fryndeshave,6440,9,9.979674,54.989553
1305801,Fryndeshave,6440,10,9.979143,54.989518
1305802,Fryndeshave,6440,11,9.97953,54.98939
1305803,Fryndeshave,6440,12,9.978958,54.989276
1305804,Fryndeshave,6440,13,9.979451,54.989233
1305805,Fryndeshave,6440,14,9.978705,54.989088
1305806,Fryndeshave,6440,15,9.979263,54.989095
1305808,Fryndeshave,6440,16,9.978526,54.988846
1305810,Fryndeshave,6440,17,9.979135,54.988912
1305812,Fryndeshave,6440,18,9.978248,54.988614
1305814,Fryndeshave,6440,19,9.978903,54.988719
1305816,Fryndeshave,6440,20,9.977989,54.988392
1305818,Fryndeshave,6440,21,9.9789,54.988559
1305820,Fryndeshave,6440,22,9.977833,54.988252
1305821,Fryndeshave,6440,23,9.978508,54.988342
1305822,Fryndeshave,6440,24,9.977613,54.988067
1305823,Fryndeshave,6440,25,9.978429,54.988192
1305824,Fryndeshave,6440,27,9.978239,54.988054
1305997,Drejøvej,6440,19,9.9832671,54.9839384
1305998,Drejøvej,6440,21,9.9832755,54.9837423
1305999,Drejøvej,6440,23,9.983478,54.983545
1306000,Drejøvej,6440,25,9.983399,54.983214
1306001,Drejøvej,6440,27,9.983478,54.982969
1306470,Kettingmark,6440,1,9.906519,54.965221
1306473,Kettingmark,6440,2,9.911775,54.962352
1306474,Kettingmark,6440,3,9.913756,54.966183
1306476,Kettingmark,6440,5,9.910733,54.963245
1306585,Korshøj,6440,1,9.95759,54.962961
1306586,Korshøj,6440,1A,9.958232,54.96289
1306587,Korshøj,6440,2,9.957808,54.963316
1306588,Korshøj,6440,3,9.95711,54.962894
1306589,Korshøj,6440,5,9.95677,54.962834
1306590,Korshøj,6440,6,9.955104,54.96271
1306591,Korshøj,6440,7,9.956198,54.962765
1306592,Korshøj,6440,9,9.954536,54.962385
1306593,Korshøj,6440,11,9.953848,54.962364
1306594,Korshøj,6440,13,9.953479,54.962292
1306595,Korshøj,6440,15,9.952816,54.962226
1306596,Korshøj,6440,17,9.952548,54.962322
1306597,Korshøj,6440,17A,9.951532,54.96209
1306608,Blommeskobbel,6440,1,10.006339,54.951586
1306609,Blommeskobbel,6440,3,10.006997,54.951471
1306610,Blommeskobbel,6440,5,10.007357,54.951262
1306611,Blommeskobbel,6440,7,10.008774,54.950622
1307001,Højbo,6440,1,9.984267,54.985349
1307002,Højbo,6440,2,9.984542,54.985509
1307003,Højbo,6440,3,9.984149,54.985311
1307004,Højbo,6440,4,9.984585,54.985585
1307006,Højbo,6440,5,9.984015,54.985445
1307007,Højbo,6440,6,9.984652,54.98563
1307008,Højbo,6440,7,9.983886,54.985505
1307009,Højbo,6440,8,9.984218,54.985737
1307010,Højbo,6440,9,9.983758,54.985524
1307011,Højbo,6440,10,9.984307,54.985797
1307012,Højbo,6440,11,9.983673,54.985565
1307013,Højbo,6440,12,9.984224,54.985947
1307014,Højbo,6440,13,9.983619,54.98569
1307015,Højbo,6440,14,9.984272,54.986005
1307016,Højbo,6440,15,9.983557,54.985717
1307017,Højbo,6440,16,9.984341,54.986054
1307018,Højbo,6440,17,9.983456,54.985762
1307019,Højbo,6440,18,9.984017,54.986042
1307020,Højbo,6440,19,9.983375,54.985798
1307021,Højbo,6440,20,9.983974,54.985976
1307023,Højbo,6440,22,9.983776,54.985868
1307025,Højbo,6440,24,9.983687,54.985906
1307026,Højbo,6440,26,9.983596,54.985948
1307132,Kastanieallé,6440,2,9.8763223,54.9470379
1307133,Kastanieallé,6440,2A,9.8762453,54.9471765
1307136,Kastanieallé,6440,2B,9.876451,54.9469852
1307137,Kastanieallé,6440,2C,9.8763903,54.9470087
1307140,Kastanieallé,6440,2D,9.8763511,54.9471872
1307142,Kastanieallé,6440,3,9.8759589,54.9472418
1307143,Kastanieallé,6440,4,9.8761509,54.947344
1307144,Kastanieallé,6440,5,9.875898,54.947338
1307145,Kastanieallé,6440,6,9.8760555,54.947523
1307146,Kastanieallé,6440,8,9.8759363,54.9476964
1307147,Kastanieallé,6440,9,9.8754735,54.9480966
1307148,Kastanieallé,6440,10,9.8758542,54.9478868
1307149,Kastanieallé,6440,12,9.875737,54.948093
1307150,Kastanieallé,6440,14,9.875634,54.948279
1307151,Kastanieallé,6440,16,9.8755519,54.9484296
1307327,Bleshøj Mølle,6440,1,9.88787,54.956838
1307330,Bleshøj Mølle,6440,2,9.888318,54.956717
1307332,Bleshøj Mølle,6440,3,9.887487,54.956874
1307335,Bleshøj Mølle,6440,4,9.888472,54.956918
1307337,Bleshøj Mølle,6440,5,9.887138,54.956883
1307339,Bleshøj Mølle,6440,6,9.88843,54.957128
1307341,Bleshøj Mølle,6440,7,9.886748,54.956934
1307343,Bleshøj Mølle,6440,9,9.886925,54.95727
1307345,Bleshøj Mølle,6440,10,9.889125,54.957476
1307347,Bleshøj Mølle,6440,11,9.887341,54.957216
1307348,Bleshøj Mølle,6440,12,9.888679,54.957474
1307349,Bleshøj Mølle,6440,13,9.887788,54.957203
1307352,Bleshøj Mølle,6440,14,9.888277,54.957417
1307353,Bleshøj Mølle,6440,15,9.887636,54.95747
1307354,Bleshøj Mølle,6440,16,9.888137,54.957715
1307355,Bleshøj Mølle,6440,17,9.887091,54.957468
1307356,Bleshøj Mølle,6440,19,9.88721,54.957822
1307357,Bleshøj Mølle,6440,21,9.887548,54.95779
1307467,Æblehegnet,6440,1,9.890605,54.954073
1307468,Æblehegnet,6440,2,9.890727,54.954318
1307469,Æblehegnet,6440,3,9.890412,54.954084
1307470,Æblehegnet,6440,4,9.890746,54.954416
1307471,Æblehegnet,6440,5,9.890198,54.954163
1307472,Æblehegnet,6440,6,9.890775,54.95451
1307473,Æblehegnet,6440,7,9.890017,54.954163
1307474,Æblehegnet,6440,8,9.890831,54.954622
1307475,Æblehegnet,6440,9,9.889845,54.954182
1307476,Æblehegnet,6440,10,9.89086,54.95472
1307477,Æblehegnet,6440,11,9.88968,54.954184
1307478,Æblehegnet,6440,12,9.890889,54.954835
1307479,Æblehegnet,6440,13,9.889433,54.954182
1307480,Æblehegnet,6440,14,9.890346,54.954882
1307481,Æblehegnet,6440,15,9.889255,54.954184
1307482,Æblehegnet,6440,16,9.890317,54.954805
1307483,Æblehegnet,6440,17,9.889076,54.954202
1307484,Æblehegnet,6440,18,9.890293,54.954705
1307485,Æblehegnet,6440,19,9.888891,54.95421
1307486,Æblehegnet,6440,20,9.890249,54.954599
1307487,Æblehegnet,6440,21,9.888715,54.954234
1307489,Æblehegnet,6440,22,9.89021,54.954514
1307491,Æblehegnet,6440,23,9.888544,54.954263
1307493,Æblehegnet,6440,24,9.89019,54.954429
1307495,Æblehegnet,6440,26,9.889839,54.954464
1307496,Æblehegnet,6440,28,9.889875,54.954561
1307497,Æblehegnet,6440,30,9.889914,54.954671
1307498,Æblehegnet,6440,32,9.889955,54.954766
1307499,Æblehegnet,6440,34,9.889977,54.954873
1307500,Æblehegnet,6440,36,9.890014,54.954971
1307501,Æblehegnet,6440,38,9.889438,54.954959
1307502,Æblehegnet,6440,40,9.889426,54.954879
1307503,Æblehegnet,6440,42,9.889404,54.9548
1307504,Æblehegnet,6440,44,9.889376,54.954667
1307505,Æblehegnet,6440,46,9.889341,54.954589
1307506,Æblehegnet,6440,48,9.889311,54.9545
1307507,Æblehegnet,6440,50,9.888957,54.954487
1307508,Æblehegnet,6440,52,9.888973,54.954567
1307509,Æblehegnet,6440,54,9.889007,54.954674
1307510,Æblehegnet,6440,56,9.889044,54.954775
1307511,Æblehegnet,6440,58,9.889078,54.954884
1307512,Æblehegnet,6440,60,9.889106,54.955002
1307513,Æblehegnet,6440,62,9.888511,54.954912
1307514,Æblehegnet,6440,64,9.888489,54.954832
1307515,Æblehegnet,6440,66,9.888454,54.954731
1307517,Æblehegnet,6440,68,9.888427,54.954645
1307519,Æblehegnet,6440,70,9.888402,54.954544
1307521,Æblehegnet,6440,72,9.888378,54.954437
1307632,Ærøvej,6440,1,9.986411,54.984515
1307633,Ærøvej,6440,2,9.9869597,54.9847271
1307634,Ærøvej,6440,3,9.986354,54.984582
1307635,Ærøvej,6440,4,9.9873309,54.9848418
1307636,Ærøvej,6440,5,9.986246,54.98463
1307637,Ærøvej,6440,6,9.9868007,54.9850016
1307638,Ærøvej,6440,7,9.986189,54.984678
1307639,Ærøvej,6440,8,9.9861924,54.9850371
1307640,Ærøvej,6440,9,9.986098,54.984729
1307641,Ærøvej,6440,10,9.9858693,54.9852136
1307642,Ærøvej,6440,11,9.98604,54.984781
1307643,Ærøvej,6440,12,9.9861349,54.9853876
1307644,Ærøvej,6440,13,9.985838,54.984894
1307645,Ærøvej,6440,14,9.986062,54.9854866
1307646,Ærøvej,6440,15,9.985753,54.984975
1307647,Ærøvej,6440,16,9.9858938,54.9855831
1307648,Ærøvej,6440,17,9.985629,54.985055
1307649,Ærøvej,6440,18,9.9857046,54.9855066
1307650,Ærøvej,6440,19,9.985564,54.985161
1307651,Ærøvej,6440,21,9.985462,54.985273
1307652,Ærøvej,6440,23,9.985436,54.985354
1307858,Skovvænget,6440,1,9.889254,54.9527
1307859,Skovvænget,6440,2,9.889824,54.952921
1307862,Skovvænget,6440,4,9.890144,54.952883
1307863,Skovvænget,6440,5,9.889651,54.952653
1307865,Skovvænget,6440,6,9.890155,54.953144
1307866,Skovvænget,6440,7,9.890017,54.952573
1307868,Skovvænget,6440,8,9.890278,54.953419
1307870,Skovvænget,6440,9,9.88981,54.952378
1307871,Skovvænget,6440,10,9.890547,54.953724
1307874,Skovvænget,6440,11,9.889709,54.952137
1307875,Skovvænget,6440,12,9.890084,54.953788
1307877,Skovvænget,6440,13,9.88958,54.951925
1307879,Skovvænget,6440,14,9.889737,54.953833
1307880,Skovvænget,6440,15,9.889268,54.951941
1307884,Skovvænget,6440,16,9.889385,54.95378
1307885,Skovvænget,6440,17,9.888983,54.95197
1307889,Skovvænget,6440,18,9.889341,54.953588
1307890,Skovvænget,6440,19,9.888734,54.952024
1307892,Skovvænget,6440,20,9.889159,54.953395
1307894,Skovvænget,6440,21,9.888745,54.95218
1307895,Skovvænget,6440,22,9.889093,54.9532
1307897,Skovvænget,6440,23,9.888791,54.952328
1307898,Skovvænget,6440,24,9.889127,54.952985
1307900,Skovvænget,6440,25,9.888822,54.952505
1307902,Skovvænget,6440,26,9.889456,54.952948
1307903,Skovvænget,6440,27,9.888868,54.952692
1307906,Skovvænget,6440,29,9.888388,54.952775
1307907,Skovvænget,6440,31,9.888432,54.952584
1307909,Skovvænget,6440,32,9.88875,54.953066
1307910,Skovvænget,6440,33,9.888392,54.952421
1307913,Skovvænget,6440,34,9.88879,54.953238
1307914,Skovvænget,6440,35,9.888345,54.952245
1307916,Skovvænget,6440,36,9.888837,54.953424
1307918,Skovvænget,6440,37,9.888251,54.952078
1307920,Skovvænget,6440,38,9.888907,54.953608
1307922,Skovvænget,6440,39,9.887916,54.95208
1307923,Skovvænget,6440,40,9.888959,54.953805
1307924,Skovvænget,6440,41,9.887619,54.952106
1307925,Skovvænget,6440,42,9.888546,54.953896
1307926,Skovvænget,6440,43,9.887305,54.952109
1307927,Skovvænget,6440,44,9.888229,54.953886
1307928,Skovvænget,6440,45,9.887332,54.952367
1307929,Skovvænget,6440,46,9.887958,54.953924
1307930,Skovvænget,6440,48,9.88795,54.953686
1307931,Skovvænget,6440,49,9.887439,54.952617
1307932,Skovvænget,6440,50,9.88779,54.953398
1307933,Skovvænget,6440,51,9.887511,54.952867
1307934,Skovvænget,6440,52,9.887668,54.953204
1307935,Skovvænget,6440,53,9.887869,54.952802
1307936,Skovvænget,6440,54,9.887612,54.953065
1307937,Skovvænget,6440,56,9.887918,54.953127
1307938,Skovvænget,6440,58,9.888295,54.953111
1308316,Nørregade,6440,1,9.877395,54.950065
1308317,Nørregade,6440,2,9.877608,54.950323
1308318,Nørregade,6440,3,9.877029,54.950273
1308320,Nørregade,6440,4,9.877395,54.950438
1308323,Nørregade,6440,6,9.877149,54.950572
1308324,Nørregade,6440,8,9.876645,54.950812
1308326,Nørregade,6440,10,9.876484,54.950965
1308328,Nørregade,6440,11,9.875812,54.950938
1308330,Nørregade,6440,12,9.876248,54.95113
1308333,Nørregade,6440,13,9.875586,54.951059
1308335,Nørregade,6440,14,9.875967,54.951219
1308337,Nørregade,6440,15,9.875283,54.951213
1308339,Nørregade,6440,16,9.875784,54.951392
1308341,Nørregade,6440,17,9.875079,54.951344
1308343,Nørregade,6440,18,9.875597,54.951485
1308345,Nørregade,6440,19,9.874766,54.951446
1308347,Nørregade,6440,20,9.875369,54.951612
1308349,Nørregade,6440,21,9.874458,54.951556
1308352,Nørregade,6440,22,9.875121,54.951715
1308354,Nørregade,6440,23,9.874154,54.95167
1308355,Nørregade,6440,24,9.87481,54.951828
1308356,Nørregade,6440,25,9.873714,54.951703
1308359,Nørregade,6440,26,9.87456,54.951853
1308360,Nørregade,6440,27,9.873345,54.951723
1308363,Nørregade,6440,28,9.874249,54.951912
1308364,Nørregade,6440,30,9.874035,54.951963
1308366,Nørregade,6440,32,9.873725,54.951996
1308369,Nørregade,6440,34,9.8734,54.952011
1308370,Nørregade,6440,36,9.873117,54.951978
1308371,Nørregade,6440,38,9.872821,54.951957
1308372,Nørregade,6440,40,9.872529,54.951924
1308801,Falkevej,6440,1,9.869807,54.953479
1308802,Falkevej,6440,2,9.869555,54.95369
1308803,Falkevej,6440,3,9.869328,54.953347
1308804,Falkevej,6440,4,9.869045,54.953593
1308805,Falkevej,6440,5,9.868966,54.953237
1308806,Falkevej,6440,6,9.868522,54.953475
1308807,Falkevej,6440,7,9.868564,54.95313
1308808,Falkevej,6440,8,9.868037,54.953388
1308809,Falkevej,6440,9,9.868049,54.953167
1308875,Mågevej,6440,1,9.869021,54.951467
1308876,Mågevej,6440,2,9.869523,54.951646
1308877,Mågevej,6440,3,9.869021,54.951699
1308878,Mågevej,6440,4,9.869412,54.951785
1308879,Mågevej,6440,5,9.868891,54.951915
1308880,Mågevej,6440,6,9.86931,54.951974
1308881,Mågevej,6440,7,9.868758,54.952056
1308882,Mågevej,6440,8,9.869288,54.952201
1308922,Thomhavevej,6440,5,9.8831849,54.9409073
1308924,Thomhavevej,6440,7,9.883091,54.941182
1309088,Industrivej,6440,1,9.886456,54.949958
1309089,Industrivej,6440,2,9.88636,54.949553
1309092,Industrivej,6440,3,9.886117,54.950297
1309093,Industrivej,6440,4,9.886758,54.949733
1309096,Industrivej,6440,5,9.887616,54.950378
1309097,Industrivej,6440,6,9.888401,54.950336
1309100,Industrivej,6440,7,9.887883,54.950501
1309101,Industrivej,6440,7A,9.8880146,54.9505526
1309102,Industrivej,6440,8,9.888912,54.950284
1309103,Industrivej,6440,9,9.888639,54.950827
1309104,Industrivej,6440,10,9.888943,54.95057
1309105,Industrivej,6440,12,9.889192,54.950646
1309106,Gammelgaard,6440,1,9.925277,54.959383
1309107,Gammelgaard,6440,2,9.924537,54.959127
1309108,Gammelgaard,6440,3,9.925766,54.959333
1309109,Gammelgaard,6440,5,9.932411,54.957796
1309110,Gammelgaard,6440,6,9.933305,54.957386
1309111,Gammelgaard,6440,10,9.936557,54.954562
1309112,Gammelgaard,6440,11,9.932891,54.957737
1309113,Gammelgaard,6440,13,9.932817,54.959514
1309114,Gammelgaard,6440,15,9.933052,54.959494
1309116,Gammelgaard,6440,17,9.933946,54.957737
1309118,Gammelgaard,6440,19,9.93589,54.957003
1309121,Gammelgaard,6440,21,9.936199,54.956865
1309123,Gammelgaard,6440,23,9.936557,54.956651
1309126,Gammelgaard,6440,25,9.937067,54.956296
1309129,Gammelgaard,6440,27,9.945328,54.954304
1309256,Hasselhegnet,6440,1,9.887536,54.956484
1309260,Hasselhegnet,6440,2,9.886896,54.956562
1309267,Hasselhegnet,6440,4,9.886153,54.956557
1309274,Hasselhegnet,6440,5,9.886044,54.956321
1309276,Hasselhegnet,6440,6,9.886756,54.956307
1309284,Hasselhegnet,6440,7,9.887223,54.956287
1309286,Hasselhegnet,6440,8,9.887449,54.956107
1309293,Hasselhegnet,6440,9,9.886798,54.95603
1309295,Hasselhegnet,6440,10,9.885943,54.955837
1309300,Hasselhegnet,6440,12,9.886732,54.955736
1309303,Hasselhegnet,6440,14,9.887464,54.955853
1309419,Kanalvej,6440,1,9.918946,54.985051
1309421,Kanalvej,6440,1A,9.920618,54.983964
1309424,Kanalvej,6440,2,9.921973,54.98401
1309425,Kanalvej,6440,3,9.92307,54.996997
1309429,Kanalvej,6440,4,9.921542,54.98398
1309435,Kanalvej,6440,6,9.919283,54.984964
1309436,Kanalvej,6440,8,9.92335,54.996606
1309439,Kanalvej,6440,10,9.926241,54.995745
1309447,Nøddehegnet,6440,1B,9.888108,54.956056
1309448,Nøddehegnet,6440,1C,9.888136,54.955809
1309451,Nøddehegnet,6440,2,9.887764,54.955722
1309452,Nøddehegnet,6440,3,9.888262,54.955589
1309453,Nøddehegnet,6440,4,9.887523,54.955644
1309454,Nøddehegnet,6440,5,9.888371,54.955346
1309455,Nøddehegnet,6440,6,9.887213,54.955597
1309456,Nøddehegnet,6440,7,9.888179,54.955116
1309457,Nøddehegnet,6440,8,9.886856,54.95556
1309458,Nøddehegnet,6440,9,9.888013,54.954823
1309459,Nøddehegnet,6440,10,9.886802,54.955349
1309460,Nøddehegnet,6440,11,9.887636,54.954853
1309461,Nøddehegnet,6440,12,9.88709,54.955357
1309462,Nøddehegnet,6440,14,9.887457,54.955438
1309463,Nøddehegnet,6440,15,9.887092,54.954934
1309464,Nøddehegnet,6440,16,9.88781,54.95552
1309465,Nøddehegnet,6440,17,9.886736,54.954953
1309466,Nøddehegnet,6440,19,9.886433,54.954949
1309467,Nøddehegnet,6440,20,9.887661,54.955123
1309468,Nøddehegnet,6440,22,9.887301,54.955145
1309469,Nøddehegnet,6440,24,9.887014,54.955162
1309470,Nøddehegnet,6440,26,9.886498,54.955194
1309805,Gundstrup,6440,2,9.915111,54.955157
1310392,Drosselvej,6440,1,9.870461,54.952931
1310393,Drosselvej,6440,2,9.870085,54.953235
1310396,Drosselvej,6440,3,9.87004,54.95282
1310398,Drosselvej,6440,4,9.869715,54.953026
1310399,Drosselvej,6440,5,9.869547,54.952684
1310402,Drosselvej,6440,6,9.869126,54.952997
1310403,Drosselvej,6440,7,9.869087,54.952545
1310405,Drosselvej,6440,8,9.868837,54.952772
1310408,Drosselvej,6440,9,9.868675,54.952419
1310409,Drosselvej,6440,10,9.868384,54.952786
1310411,Drosselvej,6440,11,9.868282,54.952434
1310541,Lillebæltvej,6440,1,9.988589,54.985472
1310542,Lillebæltvej,6440,2,9.989066,54.985393
1310544,Lillebæltvej,6440,3,9.989403,54.985848
1310545,Lillebæltvej,6440,4,9.990062,54.98578
1310546,Lillebæltvej,6440,5,9.989895,54.986164
1310547,Lillebæltvej,6440,6,9.991272,54.984205
1310548,Lillebæltvej,6440,9,9.992423,54.985059
1310549,Lillebæltvej,6440,11,9.993283,54.984998
1310649,Nørre Kettingskov,6440,1,10.005146,54.957454
1310650,Nørre Kettingskov,6440,2,10.005492,54.957227
1310651,Nørre Kettingskov,6440,3,10.005527,54.957495
1310652,Nørre Kettingskov,6440,4,10.006334,54.956705
1310653,Nørre Kettingskov,6440,5,10.006148,54.957368
1310655,Nørre Kettingskov,6440,6,10.007183,54.957007
1310657,Nørre Kettingskov,6440,7,10.009257,54.95856
1310659,Nørre Kettingskov,6440,8,10.007369,54.95713
1310661,Nørre Kettingskov,6440,9,10.010508,54.957844
1310662,Nørre Kettingskov,6440,9A,10.010758,54.9580788
1310665,Nørre Kettingskov,6440,9B,10.011121,54.958417
1310667,Nørre Kettingskov,6440,9C,10.011406,54.958634
1310668,Nørre Kettingskov,6440,9D,10.01169,54.958853
1310670,Nørre Kettingskov,6440,10,10.008869,54.957352
1310675,Nørre Kettingskov,6440,12A,10.010641,54.957663
1310676,Nørre Kettingskov,6440,13,10.013365,54.959638
1310678,Nørre Kettingskov,6440,15,10.014778,54.96044
1310680,Nørre Kettingskov,6440,17,10.014762,54.960683
1310683,Nørre Kettingskov,6440,19,10.016582,54.960763
1310684,Almstedskov,6440,1,9.98544,54.975896
1310685,Almstedskov,6440,2,9.984719,54.975709
1310687,Almstedskov,6440,3,9.985258,54.975766
1310689,Almstedskov,6440,4,9.984552,54.975387
1310690,Almstedskov,6440,5,9.985115,54.975551
1310692,Almstedskov,6440,6,9.968391,54.973456
1310694,Almstedskov,6440,7,9.984553,54.974447
1310696,Almstedskov,6440,9,9.984161,54.974057
1310697,Almstedskov,6440,11,9.96589,54.972793
1310700,Almstedskov,6440,13,9.965139,54.972865
1310710,Lindevej,6440,1,9.872254,54.950241
1310711,Lindevej,6440,2,9.871674,54.950003
1310712,Lindevej,6440,3,9.872416,54.950164
1310713,Lindevej,6440,4,9.872088,54.949911
1310714,Lindevej,6440,5,9.872569,54.950005
1310715,Lindevej,6440,6,9.872296,54.949775
1310716,Lindevej,6440,7,9.872907,54.949962
1310717,Lindevej,6440,8,9.872561,54.949711
1310718,Lindevej,6440,9,9.873065,54.949841
1310719,Lindevej,6440,10,9.872881,54.949649
1310767,Blommehegnet,6440,1,9.891027,54.955187
1310768,Blommehegnet,6440,2,9.890804,54.955414
1310769,Blommehegnet,6440,3,9.890725,54.955206
1310770,Blommehegnet,6440,4,9.890443,54.955476
1310771,Blommehegnet,6440,5,9.890399,54.955221
1310772,Blommehegnet,6440,6,9.890162,54.955575
1310773,Blommehegnet,6440,7,9.890111,54.955271
1310774,Blommehegnet,6440,8,9.889711,54.955607
1310775,Blommehegnet,6440,9,9.889831,54.955319
1310776,Blommehegnet,6440,10,9.889411,54.955623
1310777,Blommehegnet,6440,11,9.889446,54.955316
1310778,Blommehegnet,6440,12,9.888991,54.955612
1310779,Blommehegnet,6440,13,9.889162,54.955313
1310780,Blommehegnet,6440,15,9.888796,54.955318
1310932,Hybenhegnet,6440,1,9.888798,54.95664
1310933,Hybenhegnet,6440,2,9.889281,54.956656
1310934,Hybenhegnet,6440,3,9.888912,54.956928
1310935,Hybenhegnet,6440,5,9.88898,54.957204
1310951,Lillehave,6440,3,9.982148,54.991245
1310952,Lillehave,6440,5,9.981152,54.989681
1310953,Lillehave,6440,6,9.980638,54.989789
1310954,Lillehave,6440,7,9.981004,54.989485
1310955,Lillehave,6440,8,9.980557,54.989506
1310956,Lillehave,6440,9,9.980848,54.989318
1310957,Lillehave,6440,10,9.98034,54.989369
1310958,Lillehave,6440,11,9.980761,54.989086
1310959,Lillehave,6440,12,9.980193,54.989214
1310960,Lillehave,6440,13,9.980547,54.988918
1310961,Lillehave,6440,14,9.980044,54.989055
1310962,Lillehave,6440,15,9.980356,54.988723
1310963,Lillehave,6440,16,9.979981,54.988867
1310964,Lillehave,6440,17,9.980246,54.988544
1310965,Lillehave,6440,18,9.979798,54.988709
1310966,Lillehave,6440,19,9.980012,54.988377
1310967,Lillehave,6440,20,9.979586,54.988545
1310968,Lillehave,6440,21,9.979932,54.988255
1310969,Lillehave,6440,22,9.979434,54.988374
1310970,Lillehave,6440,23,9.9797,54.988095
1310971,Lillehave,6440,24,9.979238,54.988202
1310972,Lillehave,6440,25,9.979598,54.9879
1310973,Lillehave,6440,26,9.979075,54.988021
1310974,Lillehave,6440,27,9.979325,54.98773
1310975,Lillehave,6440,28,9.978898,54.987833
1310995,Vibevej,6440,1,9.869433,54.951271
1310997,Vibevej,6440,2,9.868989,54.951158
1310998,Vibevej,6440,3,9.86949,54.95109
1311001,Vibevej,6440,4,9.869089,54.950964
1311002,Vibevej,6440,5,9.869518,54.950845
1311005,Vibevej,6440,6,9.868965,54.950761
1311007,Vibevej,6440,7,9.869631,54.950709
1311010,Vibevej,6440,8,9.869189,54.950591
1311011,Vibevej,6440,9,9.869649,54.950473
1311013,Vibevej,6440,10,9.869244,54.95041
1311014,Vibevej,6440,11,9.869865,54.950303
1311017,Vibevej,6440,12,9.869325,54.950199
1311020,Vibevej,6440,13,9.869775,54.950043
1311021,Vibevej,6440,14,9.869377,54.950012
1311024,Vibevej,6440,15,9.869807,54.949915
1311026,Vibevej,6440,16,9.869349,54.949806
1311028,Vibevej,6440,17,9.869925,54.949745
1311030,Vibevej,6440,18,9.869277,54.949604
1311032,Vibevej,6440,19,9.86974,54.949596
1311033,Vibevej,6440,21,9.869619,54.949418
1311036,Vibevej,6440,23,9.869441,54.949253
1311040,Bytoften,6440,2,9.954675,54.96614
1311041,Bytoften,6440,3,9.954728,54.965559
1311042,Bytoften,6440,4,9.954347,54.965798
1311043,Bytoften,6440,5,9.954364,54.964729
1311044,Bytoften,6440,6,9.953898,54.964792
1311045,Bytoften,6440,7,9.954373,54.964552
1311046,Bytoften,6440,8,9.953856,54.96459
1311047,Bytoften,6440,9,9.954252,54.964394
1311048,Bytoften,6440,10,9.953886,54.964456
1311049,Bytoften,6440,11,9.954321,54.964228
1311050,Bytoften,6440,12,9.95379,54.964249
1311052,Bytoften,6440,13,9.954448,54.964048
1311053,Bytoften,6440,14,9.953844,54.964
1311056,Bytoften,6440,15,9.95449,54.963879
1311058,Bytoften,6440,16,9.953908,54.963841
1311059,Bytoften,6440,17,9.954472,54.963703
1311062,Bytoften,6440,18,9.953951,54.963656
1311063,Bytoften,6440,19,9.954505,54.963523
1311067,Bytoften,6440,20,9.954009,54.963488
1311069,Bytoften,6440,21,9.954676,54.963336
1311071,Bytoften,6440,22,9.954059,54.963298
1311073,Bytoften,6440,23,9.95459,54.963173
1311075,Bytoften,6440,24,9.954059,54.96314
1311077,Bytoften,6440,25,9.954722,54.962985
1311078,Bytoften,6440,26,9.954155,54.962957
1311079,Bytoften,6440,27,9.954592,54.962799
1311080,Bytoften,6440,28,9.954201,54.962791
1311081,Bytoften,6440,30,9.954182,54.962625
1311101,Toftevej,6440,1,9.978585,54.98698
1311102,Toftevej,6440,1A,9.9794,54.987103
1311103,Toftevej,6440,1B,9.978566,54.986577
1311105,Toftevej,6440,1C,9.978764,54.98707
1311107,Toftevej,6440,2,9.97914,54.986463
1311109,Toftevej,6440,2A,9.979309,54.986557
1311111,Toftevej,6440,3,9.979762,54.98748
1311113,Toftevej,6440,4,9.979745,54.986995
1311114,Toftevej,6440,5,9.980026,54.987774
1311117,Toftevej,6440,6,9.980191,54.987219
1311119,Toftevej,6440,7,9.980307,54.987682
1311121,Toftevej,6440,8,9.98058,54.987086
1311123,Toftevej,6440,9,9.980735,54.987867
1311124,Toftevej,6440,10,9.981042,54.987265
1311127,Toftevej,6440,11,9.980475,54.98807
1311129,Toftevej,6440,12,9.980584,54.987456
1311131,Toftevej,6440,13,9.980904,54.9883
1311132,Toftevej,6440,14,9.980977,54.987648
1311133,Toftevej,6440,15,9.981127,54.988153
1311134,Toftevej,6440,16,9.981402,54.98755
1311135,Toftevej,6440,17,9.981567,54.988326
1311136,Toftevej,6440,18,9.981844,54.987708
1311137,Toftevej,6440,19,9.981177,54.988453
1311138,Toftevej,6440,20,9.981535,54.987995
1311139,Toftevej,6440,21,9.981601,54.988676
1311140,Toftevej,6440,22,9.98183,54.988161
1311141,Toftevej,6440,23,9.981906,54.988517
1311142,Toftevej,6440,24,9.982252,54.988
1311143,Toftevej,6440,25,9.982291,54.988751
1311144,Toftevej,6440,26,9.982507,54.988145
1311145,Toftevej,6440,27,9.982092,54.98897
1311146,Toftevej,6440,28,9.982365,54.988414
1311147,Toftevej,6440,29,9.98231,54.989185
1311148,Toftevej,6440,30,9.982603,54.988605
1311149,Toftevej,6440,31,9.982621,54.989028
1311150,Toftevej,6440,32,9.982993,54.98843
1311151,Toftevej,6440,33,9.983229,54.989267
1311152,Toftevej,6440,34,9.983403,54.988674
1311153,Toftevej,6440,35A,9.982897,54.989491
1311154,Toftevej,6440,35B,9.982512,54.989584
1311155,Toftevej,6440,36,9.98316,54.988869
1311156,Toftevej,6440,37,9.983866,54.989528
1311157,Toftevej,6440,38,9.983555,54.989071
1311158,Toftevej,6440,40,9.983842,54.988895
1311159,Toftevej,6440,42,9.98398,54.989475
1311205,Notmark,6440,1,9.932064,54.978705
1311206,Notmark,6440,2,9.928328,54.979555
1311207,Notmark,6440,3,9.93344,54.978852
1311208,Notmark,6440,4,9.929288,54.979025
1311209,Notmark,6440,5,9.933943,54.978813
1311210,Notmark,6440,6,9.930986,54.978636
1311211,Notmark,6440,7,9.934446,54.978985
1311212,Notmark,6440,8,9.934103,54.977939
1311213,Notmark,6440,9A,9.934833,54.979256
1311214,Notmark,6440,9B,9.935385,54.979329
1311215,Notmark,6440,9C,9.935738,54.979398
1311216,Notmark,6440,9E,9.936373,54.979543
1311217,Notmark,6440,9F,9.936922,54.979624
1311218,Notmark,6440,9G,9.937152,54.979751
1311219,Notmark,6440,11,9.937585,54.97981
1311220,Notmark,6440,12,9.933749,54.9782
1311221,Notmark,6440,13,9.93784,54.97982
1311222,Notmark,6440,14,9.934952,54.978896
1311223,Notmark,6440,15,9.93815,54.979889
1311224,Notmark,6440,16,9.93581,54.979097
1311225,Notmark,6440,17,9.939226,54.980199
1311226,Notmark,6440,18,9.936367,54.97923
1311227,Notmark,6440,20,9.936937,54.978972
1311228,Notmark,6440,21,9.939646,54.98142
1311229,Notmark,6440,21A,9.939762,54.981788
1311230,Notmark,6440,22,9.937798,54.978926
1311231,Notmark,6440,23,9.934953,54.978349
1311232,Notmark,6440,24,9.938315,54.979626
1311233,Notmark,6440,25,9.935244,54.978284
1311234,Notmark,6440,27,9.935416,54.978126
1311235,Notmark,6440,28,9.939944,54.980491
1311236,Notmark,6440,29,9.935904,54.97778
1311237,Notmark,6440,29A,9.936233,54.977464
1311238,Notmark,6440,30,9.940227,54.981011
1311239,Notmark,6440,32,9.940238,54.981176
1311240,Notmark,6440,34,9.94061,54.981126
1311241,Notmark,6440,36,9.940276,54.981965
1311242,Notmark,6440,38,9.935033,54.978046
1311243,Notmark,6440,38A,9.934572,54.978301
1311244,Notmark,6440,40,9.935303,54.977915
1311245,Notmark,6440,42,9.935691,54.977476
1311246,Notmark,6440,44,9.935998,54.977364
1311247,Notmark,6440,46,9.934434,54.977155
1311248,Notmark,6440,48,9.935331,54.97711
1311249,Notmark,6440,48A,9.935851,54.976961
1311250,Notmark,6440,50,9.936297,54.976783
1311281,Gyden,6440,1,9.979148,54.985475
1311282,Gyden,6440,2,9.978001,54.984761
1311283,Gyden,6440,2A,9.978829,54.985525
1311284,Gyden,6440,2B,9.9785758,54.9852965
1311285,Gyden,6440,2C,9.9782846,54.9850081
1311286,Gyden,6440,3,9.978931,54.98523
1311287,Gyden,6440,4,9.977479,54.984488
1311288,Gyden,6440,5,9.978748,54.985043
1311289,Gyden,6440,6,9.977277,54.984671
1311290,Gyden,6440,7,9.978553,54.984738
1311291,Gyden,6440,7A,9.97823,54.98456
1311292,Gyden,6440,8,9.977106,54.984824
1311293,Gyden,6440,9,9.975983,54.982772
1311294,Gyden,6440,10,9.976701,54.984713
1311295,Gyden,6440,11,9.975903,54.982399
1311296,Gyden,6440,12,9.976295,54.984547
1311297,Gyden,6440,13,9.974542,54.981694
1311298,Gyden,6440,14,9.975864,54.984371
1311299,Gyden,6440,15,9.974084,54.981432
1311300,Gyden,6440,16,9.975508,54.984204
1311301,Gyden,6440,17,9.973775,54.981257
1311302,Gyden,6440,17A,9.973705,54.981218
1311303,Gyden,6440,18,9.97514,54.983949
1311304,Gyden,6440,19,9.973353,54.981128
1311305,Gyden,6440,20,9.975333,54.983859
1311306,Gyden,6440,21,9.971914,54.980133
1311307,Gyden,6440,22,9.975683,54.983986
1311308,Gyden,6440,23,9.971487,54.979836
1311309,Gyden,6440,24,9.976137,54.984216
1311310,Gyden,6440,25,9.973881,54.977642
1311311,Gyden,6440,26,9.976775,54.984466
1311312,Gyden,6440,28,9.976474,54.984308
1311313,Gyden,6440,30,9.976435,54.98401
1311314,Gyden,6440,32,9.976099,54.983813
1311315,Gyden,6440,34,9.975676,54.98364
1311316,Gyden,6440,36,9.975986,54.983461
1311317,Gyden,6440,38,9.976413,54.98367
1311319,Gyden,6440,40,9.976752,54.983962
1311321,Gyden,6440,42,9.977072,54.984163
1311323,Gyden,6440,44,9.97546,54.983051
1311325,Gyden,6440,46,9.975138,54.983268
1311327,Gyden,6440,48,9.974823,54.983498
1311329,Gyden,6440,50,9.974559,54.983691
1311330,Gyden,6440,52,9.974193,54.983568
1311333,Gyden,6440,54,9.973935,54.983437
1311335,Gyden,6440,56,9.973658,54.983307
1311337,Gyden,6440,58,9.973306,54.983181
1311338,Gyden,6440,60,9.973048,54.98306
1311340,Gyden,6440,62,9.972772,54.982904
1311343,Gyden,6440,64,9.973074,54.982739
1311344,Gyden,6440,66,9.973377,54.982852
1311345,Gyden,6440,68,9.973794,54.983024
1311347,Gyden,6440,70,9.973962,54.983177
1311348,Gyden,6440,72,9.974303,54.98333
1311350,Gyden,6440,74,9.974826,54.983047
1311351,Gyden,6440,76,9.974575,54.98289
1311352,Gyden,6440,78,9.974279,54.982653
1311353,Gyden,6440,80,9.974027,54.982513
1311354,Gyden,6440,82,9.973789,54.982304
1311355,Gyden,6440,84,9.974148,54.982118
1311356,Gyden,6440,86,9.974308,54.982274
1311357,Gyden,6440,88,9.974644,54.982487
1311358,Gyden,6440,90,9.974891,54.982654
1311359,Gyden,6440,92,9.975111,54.982801
1311360,Gyden,6440,94,9.973763,54.981812
1311361,Gyden,6440,96,9.972601,54.981742
1311362,Gyden,6440,96A,9.973115,54.982008
1311363,Gyden,6440,96B,9.971155,54.981891
1311364,Gyden,6440,98,9.972322,54.980933
1311365,Gyden,6440,100,9.971867,54.981026
1311481,Gramsmosevej,6440,1,9.98888,54.970258
1311482,Gramsmosevej,6440,2,9.990319,54.965768
1311483,Gramsmosevej,6440,3,9.989195,54.9702828
1311484,Gramsmosevej,6440,4,9.983828,54.960935
1311485,Gramsmosevej,6440,5,9.9895362,54.9703088
1311486,Gramsmosevej,6440,7,9.990324,54.970151
1311487,Gramsmosevej,6440,8,9.984124,54.964357
1311488,Gramsmosevej,6440,9,9.989934,54.970088
1311489,Gramsmosevej,6440,10,9.992914,54.961687
1311490,Gramsmosevej,6440,11,9.989464,54.970038
1311491,Gramsmosevej,6440,12,9.994157,54.961193
1311492,Gramsmosevej,6440,13,9.988925,54.970002
1311493,Gramsmosevej,6440,14,9.995101,54.961376
1311494,Gramsmosevej,6440,15,9.991057,54.965857
1311495,Gramsmosevej,6440,16,9.995348,54.961242
1311496,Gramsmosevej,6440,17,9.992877,54.962088
1311497,Gramsmosevej,6440,19,9.99245,54.961793
1311500,Gramsmosevej,6440,21,9.993281,54.961803
1311501,Gramsmosevej,6440,23,9.995397,54.961649
1311503,Gramsmosevej,6440,27,9.995622,54.962238
1311532,Stadionvej,6440,1,9.876162,54.950192
1311533,Stadionvej,6440,2,9.876013,54.950698
1311534,Stadionvej,6440,6,9.875758,54.950373
1311535,Stadionvej,6440,8,9.875471,54.949726
1311559,Solsikkevej,6440,1,9.874232,54.954291
1311560,Solsikkevej,6440,2,9.873788,54.954145
1311561,Solsikkevej,6440,3,9.87443,54.954103
1311562,Solsikkevej,6440,4,9.873979,54.953956
1311563,Solsikkevej,6440,5,9.874481,54.953925
1311564,Solsikkevej,6440,6,9.873975,54.953733
1311744,Kastanieparken,6440,1,9.977441,54.987143
1311746,Kastanieparken,6440,2,9.97765,54.987286
1311747,Kastanieparken,6440,3,9.97788,54.987412
1311749,Kastanieparken,6440,4,9.978102,54.987318
1311751,Kastanieparken,6440,5,9.977992,54.987179
1311753,Kastanieparken,6440,6,9.978083,54.987018
1311754,Kastanieparken,6440,7,9.977817,54.987007
1311757,Kastanieparken,6440,8,9.977578,54.987014
1311775,Solbakken,6440,1,9.860813,54.956283
1311776,Solbakken,6440,2,9.861453,54.9563
1311777,Solbakken,6440,3,9.861501,54.956074
1311778,Solbakken,6440,4,9.862028,54.956256
1311779,Solbakken,6440,5,9.861906,54.956036
1311780,Solbakken,6440,6,9.862005,54.955799
1311781,Solbakken,6440,7,9.862409,54.956255
1311812,Færgevej,6440,1,9.982026,54.991943
1311813,Færgevej,6440,2,9.980526,54.992195
1311814,Færgevej,6440,2A,9.984519,54.994045
1311815,Færgevej,6440,4,9.980359,54.992012
1311816,Færgevej,6440,5,9.977204,54.986632
1311817,Færgevej,6440,6,9.975686,54.987366
1311818,Færgevej,6440,7,9.974592,54.985755
1311819,Færgevej,6440,8,9.974878,54.986604
1311820,Færgevej,6440,9,9.974785,54.985515
1311821,Færgevej,6440,10,9.974577,54.986539
1311824,Færgevej,6440,12,9.974335,54.986279
1311826,Færgevej,6440,14,9.97387,54.986396
1311837,Nydam,6440,1,9.884783,54.947594
1311838,Nydam,6440,4,9.884714,54.947121
1311839,Nydam,6440,5,9.8851451,54.9476239
1311840,Nydam,6440,6,9.884854,54.94734
1311841,Nydam,6440,7,9.885469,54.947763
1311842,Nydam,6440,8,9.8851899,54.9471635
1311843,Nydam,6440,9,9.885795,54.947809
1311844,Nydam,6440,10,9.885519,54.947148
1311845,Nydam,6440,11,9.886097,54.947794
1311846,Nydam,6440,12,9.885799,54.947224
1311847,Nydam,6440,13,9.886146,54.947349
1311848,Nydam,6440,13A,9.885902,54.947515
1311875,Banegårdsgade,6440,3A,9.87332,54.945653
1311876,Banegårdsgade,6440,5,9.873098,54.945577
1311877,Banegårdsgade,6440,7,9.873142,54.945431
1311878,Banegårdsgade,6440,9,9.873585,54.945207
1311879,Banegårdsgade,6440,9A,9.873881,54.945505
1311880,Banegårdsgade,6440,11,9.874025,54.945691
1311895,Trekanten,6440,1,9.951182,54.963589
1311896,Trekanten,6440,1A,9.951284,54.963515
1311897,Trekanten,6440,2,9.95007,54.964912
1311898,Trekanten,6440,3,9.951404,54.963427
1311899,Trekanten,6440,4,9.950131,54.963562
1311900,Trekanten,6440,4A,9.950884,54.963825
1311901,Trekanten,6440,6,9.951306,54.963251
1311902,Trekanten,6440,8,9.951532,54.963016
1312466,Toften,6440,1,9.954627,54.96526
1312467,Toften,6440,2,9.954548,54.964877
1312468,Toften,6440,3,9.954954,54.965064
1312469,Toften,6440,4,9.954873,54.964737
1312470,Toften,6440,5,9.955301,54.964974
1312471,Toften,6440,6,9.955164,54.964632
1312472,Toften,6440,7,9.95565,54.964802
1312473,Toften,6440,8,9.955706,54.964457
1312474,Toften,6440,9,9.955948,54.964623
1312475,Toften,6440,10,9.956106,54.96429
1312476,Toften,6440,11,9.956305,54.964551
1312477,Toften,6440,12,9.956226,54.963954
1312478,Toften,6440,13,9.956544,54.964418
1312479,Toften,6440,14,9.956406,54.964179
1312480,Toften,6440,15,9.955545,54.96424
1312481,Toften,6440,16,9.955108,54.964356
1312482,Toften,6440,17,9.955562,54.963974
1312483,Toften,6440,18,9.95508,54.964162
1312484,Toften,6440,19,9.955603,54.963807
1312485,Toften,6440,20,9.955073,54.963971
1312486,Toften,6440,21,9.955607,54.963572
1312487,Toften,6440,22,9.955142,54.963771
1312488,Toften,6440,23,9.955666,54.963326
1312489,Toften,6440,24,9.955184,54.963531
1312490,Toften,6440,25,9.955568,54.96309
1312491,Toften,6440,26,9.955243,54.963285
1312492,Toften,6440,28,9.955306,54.963092
1312508,Majhave,6440,1,9.981614,54.990144
1312509,Majhave,6440,2,9.981381,54.989885
1312512,Majhave,6440,3,9.98202,54.990051
1312513,Majhave,6440,4,9.981846,54.989776
1312516,Majhave,6440,5,9.982454,54.989939
1312517,Majhave,6440,6,9.982326,54.989725
1312542,Erbæk,6440,1,9.94889,55.002336
1312563,Osbæk,6440,19,9.85992,54.953927
1312564,Osbæk,6440,21,9.860797,54.954581
1312565,Osbæk,6440,22,9.861155,54.954498
1312566,Osbæk,6440,23,9.860609,54.954972
1312567,Osbæk,6440,24,9.862517,54.954917
1312568,Osbæk,6440,25,9.860593,54.955145
1312569,Osbæk,6440,26,9.86096,54.95497
1312570,Osbæk,6440,28,9.861364,54.95499
1312571,Osbæk,6440,30,9.860896,54.955202
1312572,Osbæk,6440,32,9.860804,54.955369
1312573,Osbæk,6440,34,9.86099,54.95556
1312574,Osbæk,6440,36,9.860961,54.955734
1312587,Elmevej,6440,1,9.869398,54.946385
1312588,Elmevej,6440,3,9.869277,54.946567
1312589,Elmevej,6440,4,9.869621,54.946725
1312590,Elmevej,6440,5,9.86877,54.946944
1312591,Elmevej,6440,6,9.869623,54.946956
1312592,Elmevej,6440,7,9.868837,54.947286
1312593,Elmevej,6440,8,9.869859,54.947161
1312594,Elmevej,6440,9,9.868626,54.947449
1312595,Elmevej,6440,10,9.869277,54.947322
1312596,Elmevej,6440,12,9.869188,54.947449
1312597,Elmevej,6440,14,9.86904,54.947611
1312598,Elmevej,6440,16,9.869161,54.947846
1312601,Elmevej,6440,18,9.868901,54.948035
1312668,Pomosevej,6440,1,9.989814,54.970979
1312669,Pomosevej,6440,2,9.986522,54.970988
1312670,Pomosevej,6440,3,9.989506,54.970848
1312671,Pomosevej,6440,3A,9.989145,54.970667
1312672,Pomosevej,6440,3B,9.988868,54.970618
1312673,Pomosevej,6440,4,9.984271,54.971006
1312674,Pomosevej,6440,5,9.983634,54.970758
1312676,Pomosevej,6440,6,9.973811,54.970566
1312677,Pomosevej,6440,6A,9.973917,54.970568
1312729,Pilehavevej,6440,1,9.954622,54.966969
1312730,Pilehavevej,6440,2,9.954743,54.966644
1312731,Pilehavevej,6440,3,9.954934,54.967118
1312732,Pilehavevej,6440,4,9.954832,54.966776
1312733,Pilehavevej,6440,5,9.955183,54.967245
1312735,Pilehavevej,6440,6,9.955329,54.966963
1312737,Pilehavevej,6440,6A,9.955581,54.966623
1312739,Pilehavevej,6440,7,9.955506,54.967244
1312741,Pilehavevej,6440,8,9.955728,54.96697
1312742,Pilehavevej,6440,9,9.955326,54.967571
1312744,Pilehavevej,6440,10,9.97,54.966627
1312746,Pilehavevej,6440,11,9.95585,54.967357
1312805,Myrbjergvej,6440,1,10.001698,54.953875
1312807,Myrbjergvej,6440,2,10.001882,54.954296
1312809,Myrbjergvej,6440,4,10.001227,54.954087
1312811,Myrbjergvej,6440,5,9.996822,54.950053
1312815,Myrbjergvej,6440,8,10.000591,54.953749
1312817,Myrbjergvej,6440,8A,10.00041,54.953623
1312818,Myrbjergvej,6440,10,10.000119,54.953408
1312821,Myrbjergvej,6440,12,9.999898,54.953288
1312823,Myrbjergvej,6440,12A,9.999452,54.953128
1312824,Myrbjergvej,6440,14,9.999287,54.952841
1312825,Myrbjergvej,6440,16,9.99681,54.950962
1312826,Myrbjergvej,6440,16A,9.997251,54.950998
1312836,Hofgården,6440,1,9.868101,54.945346
1312838,Hofgården,6440,2,9.867988,54.945327
1312840,Hofgården,6440,3,9.867854,54.945308
1312841,Hofgården,6440,4,9.86771,54.945499
1312842,Hofgården,6440,5,9.867831,54.945523
1312843,Hofgården,6440,6,9.867959,54.945548
1312844,Hofgården,6440,7,9.868143,54.945547
1312845,Hofgården,6440,8,9.86813,54.945569
1312846,Hofgården,6440,9,9.868118,54.945588
1312847,Hofgården,6440,10,9.868107,54.945606
1312848,Hofgården,6440,11,9.868172,54.945506
1312849,Hofgården,6440,12,9.868245,54.945627
1312850,Hofgården,6440,13,9.86837,54.945651
1312851,Hofgården,6440,14,9.868485,54.945674
1312852,Hofgården,6440,15,9.868605,54.945697
1312853,Hofgården,6440,16,9.868723,54.945457
1312854,Hofgården,6440,17,9.868624,54.945439
1312855,Hofgården,6440,18,9.868504,54.945418
1312856,Hofgården,6440,19,9.868379,54.945397
1312949,Parkgade,6440,1,9.879071,54.948478
1312950,Parkgade,6440,2,9.879518,54.948569
1312951,Parkgade,6440,3,9.878999,54.948609
1312952,Parkgade,6440,4,9.879433,54.948718
1312953,Parkgade,6440,5,9.878934,54.948723
1312954,Parkgade,6440,6,9.87936,54.948848
1312955,Parkgade,6440,7,9.878862,54.948851
1312956,Parkgade,6440,8,9.879257,54.948965
1312957,Parkgade,6440,9,9.878796,54.94897
1312958,Parkgade,6440,10,9.879161,54.949097
1312959,Parkgade,6440,11,9.878723,54.9491
1312960,Parkgade,6440,12,9.879091,54.949224
1312961,Parkgade,6440,13,9.878636,54.949265
1312962,Parkgade,6440,14,9.879027,54.949336
1312963,Parkgade,6440,15,9.878364,54.949674
1312964,Parkgade,6440,16,9.878952,54.949465
1312965,Parkgade,6440,17,9.878127,54.949792
1312966,Parkgade,6440,18,9.878891,54.949579
1312967,Parkgade,6440,19,9.878203,54.949733
1312968,Parkgade,6440,20,9.878821,54.949707
1312969,Parkgade,6440,21,9.878218,54.949645
1312970,Parkgade,6440,22,9.878757,54.949821
1312971,Parkgade,6440,24,9.878685,54.949949
1312972,Christian Bachsvej,6440,1,9.9982193,54.9642044
1312973,Christian Bachsvej,6440,3,9.9980432,54.9643841
1312974,Christian Bachsvej,6440,5,9.9980859,54.9645448
1312975,Christian Bachsvej,6440,7,9.9977285,54.9646916
1312976,Christian Bachsvej,6440,9,9.9987567,54.964384
1312977,Christian Bachsvej,6440,9A,9.999231,54.964583
1312978,Christian Bachsvej,6440,9B,9.9990775,54.964646
1312979,Christian Bachsvej,6440,9C,9.9989788,54.9647216
1312980,Christian Bachsvej,6440,9D,9.9992075,54.9648232
1312981,Christian Bachsvej,6440,9E,9.9993256,54.9647475
1312982,Christian Bachsvej,6440,9F,9.99943,54.9646776
1312983,Christian Bachsvej,6440,11,9.9998875,54.9648579
1312984,Christian Bachsvej,6440,11B,10.0007997,54.9653853
1312985,Christian Bachsvej,6440,13,10.0014781,54.9657305
1312986,Christian Bachsvej,6440,15,10.0011644,54.9658539
1312987,Christian Bachsvej,6440,17,10.0016643,54.9659591
1312998,Bokmosedam,6440,1,9.95031,54.991289
1312999,Bokmosedam,6440,1A,9.949764,54.990708
1313071,Bakken,6440,1,9.981912,54.986571
1313072,Bakken,6440,2,9.982764,54.986677
1313075,Bakken,6440,3,9.981752,54.986799
1313078,Bakken,6440,4,9.983049,54.986518
1313079,Bakken,6440,5,9.981501,54.986904
1313081,Bakken,6440,6,9.983505,54.986709
1313082,Bakken,6440,7,9.981846,54.987164
1313085,Bakken,6440,8,9.983548,54.986463
1313087,Bakken,6440,9,9.982102,54.98706
1313088,Bakken,6440,10,9.983148,54.986952
1313091,Bakken,6440,11,9.982402,54.986887
1313093,Bakken,6440,12,9.98335,54.987093
1313095,Bakken,6440,13,9.982731,54.98711
1313096,Bakken,6440,14,9.983689,54.986905
1313097,Bakken,6440,15,9.982479,54.987293
1313098,Bakken,6440,16,9.983988,54.986702
1313099,Bakken,6440,17,9.982279,54.987437
1313100,Bakken,6440,19,9.982652,54.987649
1313101,Bakken,6440,20,9.983863,54.986282
1313102,Bakken,6440,21,9.982925,54.987542
1313103,Bakken,6440,22,9.984421,54.986376
1313104,Bakken,6440,23,9.983151,54.987325
1313105,Bakken,6440,24,9.984487,54.986693
1313106,Bakken,6440,25,9.983514,54.987574
1313107,Bakken,6440,26,9.984548,54.986904
1313108,Bakken,6440,27,9.983223,54.987772
1313109,Bakken,6440,28,9.984074,54.987125
1313110,Bakken,6440,29,9.983034,54.987903
1313111,Bakken,6440,31,9.983365,54.988081
1313112,Bakken,6440,32,9.983743,54.987285
1313113,Bakken,6440,33,9.983651,54.987913
1313114,Bakken,6440,35,9.98391,54.987792
1313115,Bakken,6440,36,9.984142,54.987507
1313116,Bakken,6440,37,9.983979,54.988075
1313117,Bakken,6440,38,9.984313,54.987364
1313118,Bakken,6440,40,9.984521,54.987269
1313119,Bakken,6440,42,9.98473,54.987168
1313120,Bakken,6440,44,9.98494,54.987111
1313121,Bakken,6440,46,9.985223,54.987287
1313122,Bakken,6440,48,9.985012,54.987385
1313123,Bakken,6440,50,9.984376,54.987621
1313348,Asserballemark,6440,1,9.975129,54.960027
1313349,Asserballemark,6440,2,9.978697,54.958404
1313350,Asserballemark,6440,3,9.974163,54.959208
1313351,Asserballemark,6440,4,9.973754,54.956304
1313451,Osbæk Ege,6440,1,9.8652079,54.9463978
1313452,Osbæk Ege,6440,2,9.8655574,54.9463368
1313453,Osbæk Ege,6440,3,9.8651455,54.946546
1313454,Osbæk Ege,6440,4,9.8654947,54.946485
1313455,Osbæk Ege,6440,5,9.8650804,54.946694
1313456,Osbæk Ege,6440,6,9.8654492,54.9466361
1313457,Osbæk Ege,6440,7,9.8650169,54.9468423
1313458,Osbæk Ege,6440,8,9.8653856,54.9467843
1313459,Osbæk Ege,6440,9,9.8649536,54.9469915
1313460,Osbæk Ege,6440,10,9.8653194,54.9469326
1313461,Osbæk Ege,6440,11,9.8648895,54.9471386
1313462,Osbæk Ege,6440,12,9.8652575,54.9470806
1313463,Osbæk Ege,6440,14,9.8651945,54.9472291
1313464,Osbæk Ege,6440,16,9.8651835,54.9474393
1313465,Osbæk Ege,6440,18,9.8649477,54.9473846
1313466,Osbæk Ege,6440,20,9.8647012,54.9473272
1313502,Østergade,6440,1,9.876811,54.948121
1313505,Østergade,6440,2,9.877244,54.948152
1313506,Østergade,6440,3,9.876717,54.948285
1313507,Østergade,6440,4,9.877188,54.948377
1313508,Østergade,6440,5,9.876622,54.948462
1313509,Østergade,6440,6,9.877022,54.948668
1313510,Østergade,6440,7,9.876553,54.948595
1313511,Østergade,6440,8,9.877828,54.949057
1313512,Østergade,6440,9,9.876454,54.948785
1313513,Østergade,6440,10,9.877287,54.948987
1313514,Østergade,6440,11,9.876189,54.949047
1313515,Østergade,6440,12,9.877374,54.949032
1313516,Østergade,6440,14,9.877439,54.94906
1313517,Østergade,6440,16,9.877504,54.949088
1313518,Østergade,6440,18,9.87757,54.949116
1313519,Østergade,6440,20,9.877052,54.949169
1313520,Østergade,6440,22,9.877139,54.949214
1313521,Østergade,6440,24,9.877204,54.949242
1313522,Østergade,6440,26,9.877269,54.949269
1313523,Østergade,6440,28,9.877334,54.949297
1313532,Louisegade,6440,1,9.881852,54.9482228
1313533,Louisegade,6440,1A,9.882066,54.948027
1313534,Louisegade,6440,1B,9.882032,54.94807
1313535,Louisegade,6440,1C,9.882014,54.948106
1313536,Louisegade,6440,1D,9.881983,54.948154
1313537,Louisegade,6440,1E,9.881957,54.948212
1313538,Louisegade,6440,1F,9.88193,54.948271
1313539,Louisegade,6440,1G,9.881897,54.948322
1313540,Louisegade,6440,1H,9.881857,54.94837
1313541,Louisegade,6440,1K,9.881837,54.94841
1313542,Louisegade,6440,2,9.883296,54.948704
1313543,Louisegade,6440,3,9.88265,54.948701
1313544,Louisegade,6440,4,9.883213,54.948845
1313545,Louisegade,6440,5,9.882529,54.949125
1313546,Louisegade,6440,6,9.883233,54.948971
1313547,Louisegade,6440,7,9.882384,54.949266
1313548,Louisegade,6440,8,9.883157,54.949117
1313549,Louisegade,6440,9,9.882327,54.949405
1313550,Louisegade,6440,10,9.883349,54.949375
1313551,Louisegade,6440,11,9.88231,54.949573
1313552,Louisegade,6440,12,9.883277,54.949511
1313553,Louisegade,6440,13,9.882172,54.949705
1313554,Louisegade,6440,14,9.883286,54.949645
1313555,Louisegade,6440,15,9.882156,54.949866
1313556,Louisegade,6440,16,9.883211,54.949792
1313557,Louisegade,6440,17,9.882019,54.949993
1313558,Louisegade,6440,18,9.883059,54.949918
1313559,Louisegade,6440,19,9.881902,54.950208
1313560,Louisegade,6440,20,9.882989,54.950051
1313561,Louisegade,6440,21,9.881889,54.950381
1313563,Louisegade,6440,22,9.882581,54.950175
1313564,Louisegade,6440,23,9.881773,54.950528
1313566,Louisegade,6440,24,9.882503,54.950324
1313568,Louisegade,6440,25,9.881756,54.950693
1313571,Louisegade,6440,26,9.882382,54.950409
1313572,Louisegade,6440,27,9.881567,54.950854
1313573,Louisegade,6440,28,9.882308,54.950553
1313575,Louisegade,6440,29,9.8813,54.951341
1313577,Louisegade,6440,30,9.882169,54.950673
1313578,Louisegade,6440,32,9.882088,54.950825
1313581,Louisegade,6440,34,9.882258,54.951157
1313583,Louisegade,6440,36,9.88208,54.951301
1313585,Louisegade,6440,38,9.882005,54.951468
1313586,Louisegade,6440,40,9.881857,54.951631
1313588,Louisegade,6440,42,9.882301,54.951876
1313644,Alsvej,6440,2,10.00942,54.957975
1313645,Alsvej,6440,3,10.009839,54.958539
1313648,Alsvej,6440,5,10.009622,54.958687
1313649,Alsvej,6440,6,10.009839,54.958124
1313652,Alsvej,6440,8,10.010157,54.958277
1313653,Alsvej,6440,10,10.010467,54.958421
1313658,Ahornvej,6440,2,9.868228,54.947133
1313659,Ahornvej,6440,3,9.867581,54.94684
1313661,Ahornvej,6440,4,9.86796,54.947115
1313663,Ahornvej,6440,4A,9.867416,54.947208
1313665,Ahornvej,6440,5,9.867154,54.946749
1313667,Ahornvej,6440,6,9.86721,54.946999
1313668,Ahornvej,6440,7,9.866851,54.946721
1313771,Bagergyden,6440,1,9.86856,54.946705
1313772,Bagergyden,6440,2,9.868764,54.946654
1313773,Bagergyden,6440,3,9.868799,54.946587
1313774,Bagergyden,6440,4,9.868592,54.946314
1313775,Bagergyden,6440,5,9.868904,54.946435
1314183,Bryggerhaven,6440,1,9.874232,54.946987
1314185,Bryggerhaven,6440,2,9.874354,54.94701
1314187,Bryggerhaven,6440,3,9.8744838,54.9470326
1314188,Bryggerhaven,6440,4,9.8746005,54.9470583
1314189,Bryggerhaven,6440,5,9.874722,54.9470776
1314191,Bryggerhaven,6440,6,9.8748574,54.9471025
1314193,Bryggerhaven,6440,7,9.874996,54.9471291
1314194,Bryggerhaven,6440,8,9.8751283,54.9471557
1314231,Harbokobbel,6440,1,10.01242,54.959889
1314232,Harbokobbel,6440,2,10.012907,54.960188
1314234,Harbokobbel,6440,3,10.0123866,54.9600899
1314235,Harbokobbel,6440,4,10.012827,54.960475
1314238,Harbokobbel,6440,5,10.012349,54.960284
1314240,Harbokobbel,6440,6,10.012813,54.960794
1314241,Harbokobbel,6440,7,10.012333,54.96053
1314243,Harbokobbel,6440,8,10.012882,54.961002
1314244,Harbokobbel,6440,9,10.012371,54.960901
1314245,Harbokobbel,6440,10,10.013278,54.961211
1314246,Harbokobbel,6440,11,10.0125166,54.9611356
1314247,Harbokobbel,6440,12,10.01369,54.961332
1314248,Harbokobbel,6440,13,10.0131325,54.9614813
1314249,Harbokobbel,6440,15,10.013501,54.961583
1314265,Kløvermarken,6440,1,9.880878,54.953509
1314266,Kløvermarken,6440,2,9.881182,54.953298
1314267,Kløvermarken,6440,3,9.880803,54.953569
1314268,Kløvermarken,6440,4,9.881373,54.953481
1314269,Kløvermarken,6440,5,9.881039,54.953641
1314270,Kløvermarken,6440,6,9.881517,54.953636
1314271,Kløvermarken,6440,7,9.880927,54.953728
1314272,Kløvermarken,6440,8,9.881987,54.953964
1314273,Kløvermarken,6440,9,9.881215,54.953775
1314276,Kløvermarken,6440,10,9.882344,54.954151
1314278,Kløvermarken,6440,11,9.881105,54.953867
1314281,Kløvermarken,6440,12,9.882709,54.954288
1314282,Kløvermarken,6440,13,9.881392,54.953914
1314285,Kløvermarken,6440,14,9.883079,54.954425
1314287,Kløvermarken,6440,15,9.881314,54.953972
1314288,Kløvermarken,6440,16,9.883502,54.954545
1314289,Kløvermarken,6440,17,9.881091,54.954011
1314290,Kløvermarken,6440,18,9.883973,54.954713
1314291,Kløvermarken,6440,19,9.88098,54.9541
1314292,Kløvermarken,6440,20,9.884179,54.954797
1314293,Kløvermarken,6440,21,9.88085,54.953933
1314294,Kløvermarken,6440,22,9.88485,54.955143
1314295,Kløvermarken,6440,23,9.880691,54.95375
1314296,Kløvermarken,6440,25,9.880575,54.953821
1314297,Kløvermarken,6440,26,9.885178,54.955683
1314298,Kløvermarken,6440,27,9.880427,54.954115
1314299,Kløvermarken,6440,29,9.880602,54.954249
1314300,Kløvermarken,6440,31,9.880964,54.95423
1314301,Kløvermarken,6440,33,9.880821,54.954343
1314302,Kløvermarken,6440,35,9.880596,54.954381
1314303,Kløvermarken,6440,37,9.880458,54.954498
1314304,Kløvermarken,6440,39,9.880303,54.954337
1314305,Kløvermarken,6440,41,9.880209,54.954144
1314306,Kløvermarken,6440,43,9.880114,54.954224
1314307,Kløvermarken,6440,45,9.879696,54.954399
1314308,Kløvermarken,6440,47,9.879877,54.954532
1314310,Kløvermarken,6440,49,9.880137,54.954595
1314313,Kløvermarken,6440,51,9.880446,54.954629
1314314,Kløvermarken,6440,53,9.880301,54.954743
1314317,Kløvermarken,6440,55,9.880066,54.954776
1314318,Kløvermarken,6440,57,9.879817,54.954701
1314320,Kløvermarken,6440,59,9.879568,54.954631
1314322,Kløvermarken,6440,61,9.879314,54.954556
1314324,Kløvermarken,6440,63,9.879065,54.954485
1314325,Kløvermarken,6440,65,9.882072,54.954402
1314326,Kløvermarken,6440,67,9.881829,54.954632
1314327,Kløvermarken,6440,69,9.881586,54.954813
1314328,Kløvermarken,6440,71,9.881328,54.95499
1314329,Kløvermarken,6440,73,9.881806,54.955181
1314330,Kløvermarken,6440,75,9.882048,54.95496
1314331,Kløvermarken,6440,77,9.882256,54.95478
1314332,Kløvermarken,6440,79,9.88245,54.954605
1314333,Kløvermarken,6440,81,9.882967,54.954804
1314334,Kløvermarken,6440,83,9.882779,54.954928
1314335,Kløvermarken,6440,85,9.882426,54.955155
1314336,Kløvermarken,6440,87,9.882258,54.955419
1314337,Kløvermarken,6440,89,9.882554,54.955505
1314338,Kløvermarken,6440,91,9.882946,54.955301
1314339,Kløvermarken,6440,93,9.883112,54.955149
1314340,Kløvermarken,6440,95,9.88339,54.954942
1314341,Kløvermarken,6440,97,9.883922,54.955115
1314342,Kløvermarken,6440,99,9.883648,54.955306
1314343,Kløvermarken,6440,101,9.883278,54.955556
1314344,Kløvermarken,6440,103,9.883109,54.955723
1314346,Kløvermarken,6440,105,9.883493,54.95587
1314349,Kløvermarken,6440,107,9.883788,54.955752
1314350,Kløvermarken,6440,109,9.884011,54.955532
1314352,Kløvermarken,6440,111,9.884294,54.955332
1314354,Kløvermarken,6440,113,9.884546,54.95573
1314358,Kløvermarken,6440,115,9.884339,54.95583
1314359,Kløvermarken,6440,117,9.88374,54.956096
1314360,Kløvermarken,6440,119,9.884035,54.956215
1314361,Kløvermarken,6440,121,9.884529,54.956118
1314362,Kløvermarken,6440,123,9.884821,54.956011
1314408,Lilleskovvej,6440,1,9.889894,54.949606
1314409,Lilleskovvej,6440,2,9.890328,54.949518
1314410,Lilleskovvej,6440,3,9.890666,54.94942
1314411,Lilleskovvej,6440,4,9.890927,54.949497
1314412,Lilleskovvej,6440,5,9.891289,54.949433
1314413,Lilleskovvej,6440,6,9.890552,54.949762
1314414,Lilleskovvej,6440,7,9.890864,54.949737
1314415,Lilleskovvej,6440,8,9.891275,54.949635
1314416,Lilleskovvej,6440,9,9.89156,54.949602
1314417,Lilleskovvej,6440,10,9.890383,54.95006
1314418,Lilleskovvej,6440,11,9.890344,54.949933
1314419,Lilleskovvej,6440,12,9.89011,54.950087
1314422,Lilleskovvej,6440,13,9.890078,54.949955
1314425,Lilleskovvej,6440,14,9.89106,54.949907
1314426,Lilleskovvej,6440,15,9.891377,54.949905
1314428,Lilleskovvej,6440,16,9.891102,54.95025
1314429,Lilleskovvej,6440,17,9.891085,54.950118
1314432,Lilleskovvej,6440,18,9.890803,54.950284
1314434,Lilleskovvej,6440,19,9.890841,54.950159
1314435,Lilleskovvej,6440,20,9.889484,54.949628
1314436,Lilleskovvej,6440,20A,9.8893605,54.9496402
1314437,Lilleskovvej,6440,21,9.889434,54.949509
1314438,Lilleskovvej,6440,22,9.889236,54.949652
1314439,Lilleskovvej,6440,23,9.889179,54.949527
1314440,Lilleskovvej,6440,24,9.888911,54.949353
1314441,Lilleskovvej,6440,25,9.888886,54.94922
1314442,Lilleskovvej,6440,26,9.888636,54.949381
1314443,Lilleskovvej,6440,27,9.888618,54.949261
1314444,Lilleskovvej,6440,28,9.889181,54.949082
1314445,Lilleskovvej,6440,29,9.889528,54.949119
1314446,Lilleskovvej,6440,30,9.888697,54.948851
1314447,Lilleskovvej,6440,31,9.889067,54.94888
1314448,Lilleskovvej,6440,32,9.88945,54.948825
1314449,Lilleskovvej,6440,33,9.889751,54.948845
1314450,Lilleskovvej,6440,34,9.888323,54.949043
1314451,Lilleskovvej,6440,35,9.888294,54.94891
1314452,Lilleskovvej,6440,36,9.888045,54.949069
1314453,Lilleskovvej,6440,37,9.888031,54.94896
1314454,Lilleskovvej,6440,38,9.888805,54.948661
1314455,Lilleskovvej,6440,39,9.889076,54.94867
1314456,Lilleskovvej,6440,40,9.889523,54.948641
1314457,Lilleskovvej,6440,41,9.889859,54.948662
1314458,Lilleskovvej,6440,42,9.888808,54.948438
1314459,Lilleskovvej,6440,43,9.889148,54.948452
1314765,Krumom,6440,2,9.884044,54.948152
1314766,Krumom,6440,4,9.884163,54.948043
1314767,Krumom,6440,6,9.884262,54.947195
1314776,Havnen,6440,2,9.8726809,54.9447548
1314777,Havnen,6440,4,9.872206,54.94454
1314778,Havnen,6440,6,9.87128,54.944219
1314779,Havnen,6440,8,9.870887,54.944339
1314780,Havnen,6440,10,9.870734,54.944297
1314781,Havnen,6440,12,9.870505,54.944401
1314847,Ny Stavensbøl,6440,1,9.854608,54.946844
1314850,Ny Stavensbøl,6440,2,9.850902,54.947904
1314852,Ny Stavensbøl,6440,3,9.851543,54.947129
1314855,Ny Stavensbøl,6440,4,9.849874,54.948002
1314857,Ny Stavensbøl,6440,5,9.849217,54.947761
1314862,Ny Stavensbøl,6440,6,9.848292,54.948522
1314863,Ny Stavensbøl,6440,7,9.846817,54.94831
1314926,Lærkevænget,6440,1,10.010392,54.960215
1314927,Lærkevænget,6440,2,10.010149,54.960521
1314928,Lærkevænget,6440,4,10.009838,54.9604
1314929,Lærkevænget,6440,5,10.0096048,54.960021
1314930,Lærkevænget,6440,6,10.00943,54.960302
1314931,Lærkevænget,6440,7,10.010101,54.959819
1314932,Lærkevænget,6440,10,10.009346,54.959855
1314933,Lærkevænget,6440,12,10.009381,54.959595
1315011,Bakkebo,6440,1,9.982957,54.98628
1315013,Bakkebo,6440,2,9.982656,54.98632
1315015,Bakkebo,6440,3,9.982881,54.986232
1315017,Bakkebo,6440,4,9.982589,54.986353
1315019,Bakkebo,6440,5,9.98277,54.9862
1315020,Bakkebo,6440,6,9.982464,54.986378
1315021,Bakkebo,6440,7,9.982497,54.986186
1315022,Bakkebo,6440,8,9.98236,54.986427
1315023,Bakkebo,6440,9,9.982436,54.986145
1315024,Bakkebo,6440,10,9.982207,54.98631
1315025,Bakkebo,6440,11,9.982315,54.98611
1315026,Bakkebo,6440,12,9.982281,54.986241
1315239,Brovej,6440,1,9.892424,54.951333
1315240,Brovej,6440,2,9.893724,54.950537
1315243,Brovej,6440,2A,9.894491,54.950604
1315245,Brovej,6440,3,9.892366,54.951585
1315247,Brovej,6440,5,9.894288,54.951665
1315248,Brovej,6440,7,9.892954,54.951482
1315249,Brovej,6440,9,9.893231,54.951778
1315250,Brovej,6440,11,9.893901,54.951239
1315251,Brovej,6440,13A,9.894571,54.95098
1315252,Brovej,6440,13B,9.894451,54.950993
1315253,Brovej,6440,13C,9.894318,54.951008
1315254,Brovej,6440,15,9.894777,54.951002
1315255,Brovej,6440,17,9.894716,54.950876
1315256,Brovej,6440,19,9.895988,54.951003
1315306,Høgebjerg,6440,1,9.971351,54.967595
1315326,Dyssevænget,6440,1,10.011056,54.960184
1315327,Dyssevænget,6440,2,10.011743,54.960055
1315330,Dyssevænget,6440,3,10.010961,54.960648
1315333,Dyssevænget,6440,4,10.011593,54.96027
1315334,Dyssevænget,6440,5,10.0109,54.960847
1315336,Dyssevænget,6440,6,10.011587,54.9606142
1315338,Dyssevænget,6440,7,10.010812,54.961269
1315341,Dyssevænget,6440,8,10.011599,54.960854
1315345,Dyssevænget,6440,9,10.011162,54.961378
1315348,Dyssevænget,6440,10,10.0118,54.961048
1315352,Dyssevænget,6440,11,10.011579,54.961485
1315353,Dyssevænget,6440,12,10.011918,54.961319
1315356,Dyssevænget,6440,13,10.011869,54.961746
1315358,Dyssevænget,6440,14,10.012289,54.961521
1315360,Dyssevænget,6440,15,10.011993,54.961924
1315361,Dyssevænget,6440,16,10.012636,54.961676
1315363,Dyssevænget,6440,17,10.012386,54.962133
1315365,Dyssevænget,6440,18,10.012969,54.96183
1315367,Dyssevænget,6440,19,10.012868,54.962223
1315369,Dyssevænget,6440,20,10.013154,54.961913
1315402,Naldmose,6440,1,9.968212,54.990025
1315403,Naldmose,6440,2,9.968895,54.990207
1315404,Naldmose,6440,3,9.967632,54.991314
1315405,Naldmose,6440,5,9.970939,54.991441
1315406,Naldmose,6440,6,9.972225,54.991568
1315407,Naldmose,6440,7,9.975383,54.993684
1315408,Naldmose,6440,8,9.973423,54.992414
1315409,Naldmose,6440,9,9.975681,54.993997
1315410,Naldmose,6440,10,9.976438,54.993635
1315411,Naldmose,6440,11,9.976053,54.994177
1315412,Naldmose,6440,12,9.976958,54.99503
1315413,Naldmose,6440,12A,9.9771642,54.9949251
1315414,Naldmose,6440,13,9.976246,54.994419
1315415,Naldmose,6440,15,9.976544,54.995686
1315416,Naldmose,6440,19,9.977771,54.994693
1315417,Naldmose,6440,21,9.977957,54.994218
1315785,Fjordparken,6440,1,9.868784,54.944882
1315787,Fjordparken,6440,2,9.868881,54.944888
1315789,Fjordparken,6440,3,9.869074,54.944919
1315790,Fjordparken,6440,4,9.869162,54.944934
1315793,Fjordparken,6440,5,9.869349,54.944965
1315796,Fjordparken,6440,6,9.869443,54.944981
1315797,Fjordparken,6440,7,9.869627,54.945006
1315799,Fjordparken,6440,8,9.869722,54.945024
1315801,Fjordparken,6440,9,9.869019,54.944657
1315803,Fjordparken,6440,10,9.869152,54.944679
1315805,Fjordparken,6440,11,9.869368,54.944717
1315808,Fjordparken,6440,12,9.869471,54.944735
1315810,Fjordparken,6440,13,9.869683,54.94478
1315811,Fjordparken,6440,14,9.869837,54.944803
1315813,Fjordparken,6440,15,9.868864,54.944335
1315815,Fjordparken,6440,16,9.869,54.944357
1315817,Fjordparken,6440,17,9.869214,54.944346
1315819,Fjordparken,6440,18,9.869354,54.94437
1315821,Fjordparken,6440,19,9.869591,54.944388
1315823,Fjordparken,6440,20,9.869661,54.944399
1315826,Fjordparken,6440,21,9.869893,54.944435
1315828,Fjordparken,6440,22,9.870058,54.944454
1315860,Bygaden,6440,1,9.9493635,54.9681941
1315861,Bygaden,6440,1A,9.950588,54.968375
1315862,Bygaden,6440,2,9.950549,54.967616
1315863,Bygaden,6440,3,9.950343,54.967927
1315864,Bygaden,6440,4,9.9507823,54.9670405
1315865,Bygaden,6440,4A,9.950565,54.966984
1315866,Bygaden,6440,5,9.950776,54.967808
1315867,Bygaden,6440,9,9.951367,54.967946
1315868,Bygaden,6440,10,9.952066,54.966936
1315869,Bygaden,6440,10B,9.952848,54.966972
1315870,Bygaden,6440,11,9.951299,54.968597
1315871,Bygaden,6440,12,9.953078,54.966826
1315872,Bygaden,6440,13,9.95202,54.968457
1315875,Bygaden,6440,14,9.953542,54.966778
1315877,Bygaden,6440,15,9.952817,54.967219
1315879,Bygaden,6440,16,9.953321,54.966444
1315881,Bygaden,6440,16A,9.953562,54.966405
1315882,Bygaden,6440,16B,9.954092,54.965898
1315884,Bygaden,6440,17,9.953818,54.966948
1315885,Bygaden,6440,18,9.954186,54.966423
1315886,Bygaden,6440,19,9.954102,54.968445
1315887,Bygaden,6440,20,9.955096,54.965899
1315888,Bygaden,6440,20A,9.954968,54.966068
1315889,Bygaden,6440,21,9.954133,54.968304
1315890,Bygaden,6440,21A,9.954784,54.967871
1315891,Bygaden,6440,22,9.955444,54.965906
1315892,Bygaden,6440,23,9.954272,54.9669
1315893,Bygaden,6440,24,9.955682,54.965746
1315894,Bygaden,6440,25,9.95478,54.966399
1315895,Bygaden,6440,26,9.956058,54.965573
1315896,Bygaden,6440,26A,9.955733,54.965154
1315897,Bygaden,6440,26B,9.955407,54.965258
1315898,Bygaden,6440,26C,9.955294,54.965493
1315899,Bygaden,6440,28,9.95627,54.965433
1315900,Bygaden,6440,29,9.955083,54.966246
1315901,Bygaden,6440,30,9.956533,54.965371
1315902,Bygaden,6440,31,9.955703,54.966032
1315903,Bygaden,6440,32,9.957018,54.965036
1315904,Bygaden,6440,32A,9.957281,54.964717
1315906,Bygaden,6440,33,9.956319,54.965704
1315908,Bygaden,6440,34,9.95766,54.964694
1315909,Bygaden,6440,35,9.956597,54.96559
1315912,Bygaden,6440,36,9.958403,54.964403
1315914,Bygaden,6440,37,9.956848,54.965443
1315915,Bygaden,6440,38,9.960746,54.963631
1315917,Bygaden,6440,39,9.957221,54.965183
1315918,Bygaden,6440,40,9.961916,54.963724
1315919,Bygaden,6440,41,9.958723,54.964464
1315920,Bygaden,6440,43,9.958853,54.964409
1316114,Østerkobbel,6440,1,9.872312,54.954222
1316116,Østerkobbel,6440,2,9.879655,54.956219
1316121,Østerkobbel,6440,3,9.87263,54.954234
1316125,Østerkobbel,6440,4,9.879921,54.956026
1316127,Østerkobbel,6440,5,9.872934,54.954284
1316131,Østerkobbel,6440,6,9.880168,54.955824
1316133,Østerkobbel,6440,7,9.873306,54.954348
1316137,Østerkobbel,6440,8,9.880454,54.955598
1316139,Østerkobbel,6440,9,9.873597,54.954438
1316142,Østerkobbel,6440,10,9.880743,54.955448
1316145,Østerkobbel,6440,11,9.873968,54.954501
1316148,Østerkobbel,6440,12,9.881155,54.955594
1316152,Østerkobbel,6440,13,9.874275,54.954549
1316154,Østerkobbel,6440,14,9.88097,54.955862
1316157,Østerkobbel,6440,15,9.874551,54.954644
1316159,Østerkobbel,6440,16,9.880801,54.956004
1316162,Østerkobbel,6440,17,9.874882,54.954755
1316165,Østerkobbel,6440,18,9.88041,54.956223
1316168,Østerkobbel,6440,19,9.875142,54.954833
1316171,Østerkobbel,6440,20,9.880055,54.956413
1316173,Østerkobbel,6440,21,9.875351,54.954978
1316176,Østerkobbel,6440,22,9.880753,54.956625
1316179,Østerkobbel,6440,23,9.875593,54.955112
1316183,Østerkobbel,6440,24,9.880926,54.956403
1316186,Østerkobbel,6440,25,9.875866,54.955254
1316191,Østerkobbel,6440,26,9.881248,54.956226
1316194,Østerkobbel,6440,27,9.876092,54.955408
1316200,Østerkobbel,6440,28,9.88148,54.95604
1316204,Østerkobbel,6440,29,9.876592,54.955562
1316206,Østerkobbel,6440,30,9.881759,54.955861
1316209,Østerkobbel,6440,31,9.877045,54.955632
1316212,Østerkobbel,6440,32,9.882189,54.956012
1316216,Østerkobbel,6440,33,9.877354,54.955724
1316217,Østerkobbel,6440,34,9.881933,54.956177
1316221,Østerkobbel,6440,36,9.88166,54.956364
1316224,Østerkobbel,6440,38,9.881437,54.956643
1316226,Østerkobbel,6440,40,9.881153,54.956853
1316230,Østerkobbel,6440,42,9.881786,54.957052
1316231,Østerkobbel,6440,44,9.881998,54.956814
1316236,Østerkobbel,6440,46,9.882109,54.956636
1316237,Østerkobbel,6440,48,9.882323,54.95641
1316240,Østerkobbel,6440,50,9.882657,54.956199
1316244,Østerkobbel,6440,52,9.88295,54.956359
1316245,Østerkobbel,6440,54,9.88284,54.956606
1316249,Østerkobbel,6440,56,9.882719,54.956797
1316250,Østerkobbel,6440,58,9.882369,54.957003
1316255,Østerkobbel,6440,60,9.882401,54.957256
1316257,Østerkobbel,6440,62,9.883102,54.957295
1316261,Østerkobbel,6440,64,9.883255,54.95704
1316263,Østerkobbel,6440,66,9.88336,54.956767
1316268,Østerkobbel,6440,68,9.883315,54.956569
1316270,Østerkobbel,6440,70,9.883975,54.956622
1316272,Østerkobbel,6440,72,9.884037,54.956883
1316274,Østerkobbel,6440,74,9.883726,54.95717
1316276,Østerkobbel,6440,76,9.883696,54.957367
1316277,Østerkobbel,6440,78,9.884599,54.95739
1316279,Østerkobbel,6440,80,9.884674,54.957178
1316281,Østerkobbel,6440,82,9.884687,54.956943
1316283,Østerkobbel,6440,84,9.884529,54.956741
1316284,Østerkobbel,6440,86,9.88464,54.956514
1316287,Østerkobbel,6440,88,9.885084,54.956483
1316288,Østerkobbel,6440,90,9.885134,54.956686
1316290,Østerkobbel,6440,92,9.885285,54.956936
1316291,Østerkobbel,6440,94,9.885353,54.957151
1316292,Østerkobbel,6440,96,9.885373,54.957395
1316358,Fasanvej,6440,1,9.869048,54.954001
1316360,Fasanvej,6440,3,9.868621,54.953937
1316361,Fasanvej,6440,5,9.868103,54.953816
1316363,Fasanvej,6440,7,9.86772,54.953791
1316502,Vestergade,6440,1,9.868837,54.948282
1316504,Vestergade,6440,2,9.871998,54.950474
1316505,Vestergade,6440,4,9.872005,54.950635
1316508,Vestergade,6440,5,9.869068,54.948414
1316509,Vestergade,6440,6,9.872058,54.950839
1316511,Vestergade,6440,7,9.869308,54.948549
1316513,Vestergade,6440,8,9.872033,54.951003
1316515,Vestergade,6440,9,9.869382,54.948696
1316517,Vestergade,6440,10,9.872017,54.951233
1316519,Vestergade,6440,11,9.869646,54.948819
1316523,Vestergade,6440,12,9.871968,54.951433
1316524,Vestergade,6440,13,9.869898,54.948999
1316528,Vestergade,6440,14,9.872073,54.951599
1316529,Vestergade,6440,15,9.870007,54.949113
1316531,Vestergade,6440,16,9.871861,54.95191
1316534,Vestergade,6440,17,9.87016,54.949345
1316535,Vestergade,6440,18,9.871871,54.952088
1316538,Vestergade,6440,19,9.870307,54.949462
1316540,Vestergade,6440,20,9.871632,54.952216
1316543,Vestergade,6440,21,9.870772,54.949574
1316545,Vestergade,6440,22,9.871521,54.952381
1316547,Vestergade,6440,23,9.870876,54.94973
1316549,Vestergade,6440,24,9.871411,54.95255
1316552,Vestergade,6440,25,9.87101,54.949866
1316554,Vestergade,6440,26,9.871199,54.95279
1316556,Vestergade,6440,27,9.871239,54.950021
1316558,Vestergade,6440,28,9.870443,54.953557
1316559,Vestergade,6440,29,9.871362,54.950225
1316562,Vestergade,6440,30,9.870169,54.953761
1316563,Vestergade,6440,31,9.871511,54.950423
1316566,Vestergade,6440,32,9.869904,54.953965
1316567,Vestergade,6440,33,9.87148,54.950608
1316569,Vestergade,6440,34,9.86955,54.954123
1316572,Vestergade,6440,35,9.871484,54.950761
1316574,Vestergade,6440,37,9.871543,54.950957
1316578,Vestergade,6440,39,9.871546,54.95118
1316579,Vestergade,6440,41,9.871526,54.951357
1316583,Vestergade,6440,43,9.871496,54.951537
1316588,Vestergade,6440,45,9.871334,54.951919
1316590,Vestergade,6440,47,9.871147,54.952109
1316595,Vestergade,6440,49,9.871121,54.952286
1316598,Vestergade,6440,51,9.870974,54.952442
1316603,Vestergade,6440,53,9.870713,54.952615
1316771,Grønvej,6440,1,10.014275,54.959819
1316773,Grønvej,6440,3,10.014214,54.959993
1316774,Grønvej,6440,5,10.013931,54.960139
1316776,Grønvej,6440,7,10.013846,54.960338
1316779,Grønvej,6440,9,10.013516,54.960664
1316780,Grønvej,6440,11,10.013793,54.9610387
1316783,Kirkevænget,6440,1,9.897824,54.966612
1316784,Kirkevænget,6440,2,9.89828,54.96697
1316785,Kirkevænget,6440,5,9.897647,54.966809
1316786,Kirkevænget,6440,7,9.897784,54.967166
1316787,Kirkevænget,6440,7A,9.897843,54.967211
1316789,Kirkevænget,6440,9,9.897532,54.967464
1316791,Kirkevænget,6440,11,9.898075,54.967405
1316808,Rosenvej,6440,1,9.873129,54.954033
1316811,Rosenvej,6440,2,9.872549,54.953903
1316814,Rosenvej,6440,3,9.873364,54.95388
1316817,Rosenvej,6440,4,9.872247,54.953845
1316819,Rosenvej,6440,5,9.87332,54.953648
1316821,Rosenvej,6440,6,9.872204,54.953619
1316823,Rosenvej,6440,8,9.872547,54.953616
1316855,Hertugtorvet,6440,1,9.870957,54.946251
1316857,Hertugtorvet,6440,2,9.871052,54.946255
1316859,Hertugtorvet,6440,3,9.871138,54.94626
1316861,Hertugtorvet,6440,4,9.870972,54.946196
1316863,Hertugtorvet,6440,5,9.870981,54.946128
1316865,Hertugtorvet,6440,6,9.871389,54.946397
1316868,Hertugtorvet,6440,7,9.871612,54.946407
1316870,Hertugtorvet,6440,8,9.871398,54.946347
1316872,Hertugtorvet,6440,9,9.871614,54.94636
1316874,Hertugtorvet,6440,10,9.871922,54.946469
1316876,Hertugtorvet,6440,11,9.872022,54.946556
1316878,Hertugtorvet,6440,12,9.871977,54.946442
1316880,Hertugtorvet,6440,13,9.872059,54.946525
1316883,Hertugtorvet,6440,14,9.871792,54.946376
1316884,Hertugtorvet,6440,15,9.872174,54.946309
1316886,Hertugtorvet,6440,16,9.872144,54.946235
1316891,Hertugtorvet,6440,19,9.872028,54.946138
1316903,Hertugtorvet,6440,26,9.871624,54.946184
1316910,Hertugtorvet,6440,29,9.871362,54.94609
1317325,Tinggården,6440,1,9.897405,54.965737
1317326,Tinggården,6440,2,9.897359,54.96568
1317327,Tinggården,6440,3,9.897334,54.965587
1317328,Tinggården,6440,4,9.897477,54.965881
1317329,Tinggården,6440,5,9.897523,54.965845
1317331,Tinggården,6440,6,9.897601,54.965938
1317333,Tinggården,6440,7,9.897641,54.965894
1317336,Tinggården,6440,8,9.897774,54.96598
1317338,Tinggården,6440,9,9.897842,54.965944
1317339,Tinggården,6440,10,9.897884,54.966027
1317340,Tinggården,6440,11,9.897939,54.965991
1317341,Tinggården,6440,12,9.89782,54.965878
1317342,Tinggården,6440,13,9.89775,54.965852
1317343,Tinggården,6440,14,9.897787,54.965822
1317344,Tinggården,6440,15,9.897829,54.96579
1317345,Tinggården,6440,16,9.897899,54.965825
1317346,Tinggården,6440,17,9.898082,54.965776
1317347,Tinggården,6440,18,9.898159,54.965808
1317348,Tinggården,6440,19,9.898227,54.965835
1317349,Tinggården,6440,20,9.89828,54.965853
1317882,Violvej,6440,1,9.876459,54.955105
1317886,Violvej,6440,2,9.875985,54.954903
1317887,Violvej,6440,3,9.876564,54.954952
1317890,Violvej,6440,4,9.876135,54.954735
1317892,Violvej,6440,5,9.876852,54.95482
1317894,Violvej,6440,6,9.876319,54.954569
1317896,Violvej,6440,7,9.876951,54.954633
1317897,Violvej,6440,8,9.876488,54.954436
1317900,Violvej,6440,9,9.877124,54.954473
1317901,Violvej,6440,10,9.87673,54.954317
1317903,Violvej,6440,11,9.877396,54.954346
1317905,Violvej,6440,12,9.876982,54.954167
1317906,Violvej,6440,13,9.877572,54.954178
1317908,Violvej,6440,14,9.877238,54.953991
1317910,Violvej,6440,15,9.877774,54.953986
1317912,Violvej,6440,16,9.877396,54.953861
1317914,Violvej,6440,17,9.877996,54.953847
1317916,Violvej,6440,18,9.877629,54.953684
1317918,Violvej,6440,19,9.878173,54.953742
1317920,Violvej,6440,20,9.877855,54.953515
1318155,Tovrup,6440,1,9.968357,54.953015
1318156,Tovrup,6440,2,9.966057,54.953765
1318157,Tovrup,6440,3,9.96212,54.953709
1318159,Tovrup,6440,4,9.965097,54.953963
1318160,Tovrup,6440,5,9.959421,54.953709
1318161,Tovrup,6440,6,9.96422,54.954026
1318162,Tovrup,6440,7,9.958427,54.95367
1318163,Tovrup,6440,8,9.961378,54.954347
1318164,Tovrup,6440,9,9.9559026,54.9535988
1318165,Tovrup,6440,10,9.959896,54.954265
1318166,Tovrup,6440,11,9.9545949,54.9536685
1318167,Tovrup,6440,12,9.9572751,54.9541134
1318168,Tovrup,6440,13,9.9530819,54.9536709
1318169,Tovrup,6440,14,9.9554349,54.95413
1318170,Tovrup,6440,15,9.952779,54.948533
1318171,Tovrup,6440,16,9.952398,54.954144
1318172,Tovrup,6440,17,9.953068,54.947821
1318173,Tovrup,6440,18,9.951705,54.954165
1318174,Tovrup,6440,20,9.947416,54.954257
1318175,Tovrup,6440,22,9.947087,54.954387
1318177,Tovrup,6440,24,9.949607,54.953724
1318178,Tovrup,6440,26,9.951071,54.951331
1318180,Tovrup,6440,28,9.95118,54.950078
1318182,Tovrup,6440,30,9.952412,54.946823
1318904,Sørens Møllevej,6440,2,9.993659,54.968374
1318906,Sørens Møllevej,6440,2A,9.99484,54.968362
1318909,Sørens Møllevej,6440,3,9.99335,54.968655
1318912,Sørens Møllevej,6440,4,9.997229,54.968347
1318916,Sørens Møllevej,6440,4A,9.997087,54.968356
1318919,Sørens Møllevej,6440,5,9.994592,54.968526
1318921,Sørens Møllevej,6440,7,9.995074,54.968748
1318923,Sørens Møllevej,6440,8,9.998209,54.968293
1318925,Sørens Møllevej,6440,9,9.995514,54.968669
1318927,Sørens Møllevej,6440,10,10.0002598,54.9678227
1318929,Sørens Møllevej,6440,11,9.995713,54.96867
1318931,Sørens Møllevej,6440,12,10.0022499,54.9664144
1318933,Sørens Møllevej,6440,13,9.996199,54.968588
1318935,Sørens Møllevej,6440,14,10.001167,54.964543
1318936,Sørens Møllevej,6440,15,9.996724,54.968535
1318939,Sørens Møllevej,6440,15A,9.997776,54.968523
1318942,Sørens Møllevej,6440,16,10.001524,54.962862
1318943,Sørens Møllevej,6440,16A,10.001017,54.962676
1318946,Sørens Møllevej,6440,16B,9.999896,54.962279
1318948,Sørens Møllevej,6440,17,9.9989801,54.9685004
1318952,Sørens Møllevej,6440,18,10.001832,54.962592
1318956,Sørens Møllevej,6440,19,9.999408,54.968481
1318958,Sørens Møllevej,6440,20,10.002314,54.962236
1318959,Sørens Møllevej,6440,21,10.0001383,54.9680882
1318960,Sørens Møllevej,6440,22,10.002001,54.961791
1318961,Sørens Møllevej,6440,23,10.00092,54.967762
1318962,Sørens Møllevej,6440,24,10.001415,54.961717
1318963,Sørens Møllevej,6440,25,10.003461,54.966723
1318964,Sørens Møllevej,6440,26,10.001605,54.961758
1318965,Sørens Møllevej,6440,28,10.001749,54.961372
1318966,Sørens Møllevej,6440,29,10.004654,54.967548
1318967,Sørens Møllevej,6440,31,10.006723,54.968175
1318968,Sørens Møllevej,6440,31A,10.007256,54.968929
1318969,Sørens Møllevej,6440,33,10.002969,54.964825
1318970,Sørens Møllevej,6440,35,10.00314,54.965226
1318971,Sørens Møllevej,6440,37A,10.00325,54.963713
1318973,Sørens Møllevej,6440,39,10.001433,54.963874
1318974,Sørens Møllevej,6440,39A,10.001537,54.963717
1318975,Sørens Møllevej,6440,39B,10.001665,54.963581
1318976,Sørens Møllevej,6440,39C,10.002631,54.963191
1318977,Sørens Møllevej,6440,39D,10.002317,54.962818
1318978,Sørens Møllevej,6440,41,10.003966,54.963485
1318979,Sørens Møllevej,6440,43,10.00228,54.961401
1318980,Sørens Møllevej,6440,43A,10.002301,54.961451
1318981,Sørens Møllevej,6440,45,10.002315,54.961119
1319089,Møllevej,6440,1,9.943214,54.96751
1319299,Krogen,6440,1,9.953958,54.96543
1319300,Krogen,6440,2,9.953576,54.965347
1319301,Krogen,6440,4,9.953421,54.96517
1319302,Krogen,6440,5,9.953759,54.965179
1319303,Krogen,6440,6,9.952406,54.96473
1319343,Bro,6440,22,9.90062,54.953603
1319344,Bro,6440,24,9.900582,54.953296
1319404,Lillehavstien,6440,2,9.883902,54.947817
1319405,Lillehavstien,6440,4,9.883245,54.947835
1319406,Lillehavstien,6440,6,9.882947,54.947803
1319426,Guderupvej,6440,1,9.921417,54.981965
1319429,Guderupvej,6440,1A,9.923103,54.981435
1319432,Guderupvej,6440,2,9.920929,54.981632
1319434,Guderupvej,6440,2A,9.921417,54.981492
1319435,Guderupvej,6440,3,9.923455,54.981352
1319436,Guderupvej,6440,4,9.927136,54.979823
1319437,Guderupvej,6440,5,9.925442,54.980782
1319438,Guderupvej,6440,7,9.92585,54.980664
1319452,Blommesvej,6440,1,10.012351,54.9595
1319455,Blommesvej,6440,2,10.010886,54.96039
1319460,Blommesvej,6440,3,10.011814,54.959621
1319461,Blommesvej,6440,4,10.010506,54.960661
1319464,Blommesvej,6440,5,10.011253,54.959648
1319466,Blommesvej,6440,6,10.010599,54.961059
1319469,Blommesvej,6440,8,10.010326,54.960925
1319470,Blommesvej,6440,9,10.010515,54.960003
1319472,Blommesvej,6440,10,10.009959,54.960772
1319474,Blommesvej,6440,12,10.009526,54.960656
1319516,Skovvej,6440,1,9.926099,54.979773
1319517,Skovvej,6440,1A,9.927157,54.979632
1319518,Skovvej,6440,3,9.925825,54.979601
1319519,Skovvej,6440,5,9.925639,54.97944
1319520,Skovvej,6440,7,9.925345,54.979209
1319521,Skovvej,6440,9,9.925032,54.978913
1319524,Skovvej,6440,11,9.925038,54.978337
1319530,Sebbelevmark,6440,1,9.883802,54.962626
1319531,Sebbelevmark,6440,2,9.888378,54.964301
1319532,Sebbelevmark,6440,4,9.887886,54.964182
1319533,Sebbelevmark,6440,6,9.881004,54.965904
1319534,Sebbelevmark,6440,8,9.88156,54.965638
1319535,Sebbelevmark,6440,10,9.877229,54.963489
1319536,Sebbelevmark,6440,12,9.876854,54.96365
1319598,Mosevænget,6440,1,9.881438,54.948931
1319600,Mosevænget,6440,2,9.88183,54.948962
1319602,Mosevænget,6440,3,9.881353,54.94906
1319604,Mosevænget,6440,4,9.881719,54.949149
1319608,Mosevænget,6440,5,9.881222,54.949195
1319610,Mosevænget,6440,6,9.881687,54.949319
1319612,Mosevænget,6440,7,9.881192,54.949372
1319613,Mosevænget,6440,8,9.881557,54.94945
1319615,Mosevænget,6440,9,9.88112,54.949502
1319617,Mosevænget,6440,10,9.881537,54.949611
1319619,Mosevænget,6440,11,9.881031,54.949656
1319620,Mosevænget,6440,12,9.881408,54.94975
1319640,Osbækvej,6440,1,9.866263,54.945871
1319641,Osbækvej,6440,3,9.866157,54.946015
1319642,Osbækvej,6440,5,9.866086,54.94626
1319643,Osbækvej,6440,7,9.866032,54.946384
1319644,Osbækvej,6440,9,9.865979,54.946498
1319645,Osbækvej,6440,11,9.865927,54.946606
1319646,Osbækvej,6440,15,9.865646,54.947477
1319647,Osbækvej,6440,16,9.861277,54.951876
1319648,Osbækvej,6440,17,9.861658,54.952955
1319649,Osbækvej,6440,18,9.860932,54.95229
1319650,Osbækvej,6440,20,9.860957,54.952964
1319954,Lærkevej,6440,1,9.870286,54.951742
1319956,Lærkevej,6440,2,9.870797,54.951795
1319957,Lærkevej,6440,3,9.870216,54.951879
1319960,Lærkevej,6440,4,9.870577,54.951961
1319961,Lærkevej,6440,5,9.870055,54.952087
1319966,Lærkevej,6440,6,9.870477,54.952109
1319969,Lærkevej,6440,7,9.86994,54.952251
1319970,Lærkevej,6440,8,9.870432,54.952321
1319975,Lærkevej,6440,9,9.869768,54.952379
1319976,Lærkevej,6440,10,9.870298,54.952543
1320322,Sejmosevej,6440,1,9.927458,54.980616
1320324,Sejmosevej,6440,2,9.92765,54.980439
1320327,Sejmosevej,6440,3,9.927827,54.98069
1320328,Sejmosevej,6440,4,9.928292,54.980462
1320331,Sejmosevej,6440,5,9.927943,54.98071
1320334,Sejmosevej,6440,6,9.928521,54.980658
1320336,Sejmosevej,6440,7,9.928553,54.980896
1320341,Sejmosevej,6440,8,9.928834,54.980759
1320342,Sejmosevej,6440,9,9.929079,54.981213
1320345,Sejmosevej,6440,10,9.929089,54.980862
1320346,Sejmosevej,6440,11,9.929043,54.981689
1320347,Sejmosevej,6440,12,9.929433,54.980978
1320348,Sejmosevej,6440,14,9.929479,54.981157
1320349,Sejmosevej,6440,16,9.929656,54.981391
1320350,Sejmosevej,6440,18,9.929839,54.981544
1320351,Sejmosevej,6440,20,9.930033,54.981906
1321617,Langgade,6440,18,9.890673,54.952631
1321618,Langgade,6440,20,9.891426,54.952592
1321619,Langgade,6440,22,9.891303,54.952862
1321620,Langgade,6440,24,9.89091,54.953027
1321621,Langgade,6440,26,9.8912546,54.9538445
1321622,Langgade,6440,32,9.8914665,54.9541929
1321623,Langgade,6440,34,9.892138,54.954747
1321624,Langgade,6440,36,9.891738,54.955558
2107256,Siøvej,6440,1,9.988644,54.984427
2107260,Siøvej,6440,2,9.9881475,54.9847739
2107266,Siøvej,6440,3,9.989007,54.984195
2107274,Siøvej,6440,4,9.988224,54.984501
2107277,Siøvej,6440,5,9.9883586,54.9842524
2107282,Siøvej,6440,6,9.9879695,54.9842274
2107291,Siøvej,6440,7,9.9880284,54.9841116
2107295,Siøvej,6440,8,9.987622,54.984459
2107300,Siøvej,6440,9,9.987922,54.983807
2107307,Siøvej,6440,10,9.987301,54.9842936
2107309,Siøvej,6440,11,9.987686,54.983739
2107311,Siøvej,6440,12,9.9872467,54.9840399
2107313,Siøvej,6440,13,9.9873945,54.9839512
2107315,Siøvej,6440,14,9.9868281,54.9838966
2107320,Siøvej,6440,15,9.9868682,54.9837738
2107321,Siøvej,6440,16,9.986413,54.984094
2107326,Siøvej,6440,17,9.9870067,54.9835703
2107328,Siøvej,6440,18,9.9862576,54.9839999
2107330,Siøvej,6440,19,9.986848,54.983493
2107335,Siøvej,6440,20,9.9864904,54.9838377
2107343,Siøvej,6440,21,9.9866312,54.9834947
2107345,Siøvej,6440,23,9.9866017,54.9836625
2173356,Bro Centervej,6440,2,9.896972,54.954681
2174467,Fredsskovvej,6440,1,9.883453,54.950913
2174468,Fredsskovvej,6440,2,9.882957,54.950993
2174471,Fredsskovvej,6440,3,9.88358,54.95079
2174473,Fredsskovvej,6440,4,9.883093,54.950883
2174475,Fredsskovvej,6440,5,9.883711,54.950694
2174477,Fredsskovvej,6440,6,9.88324,54.950756
2174479,Fredsskovvej,6440,7,9.883841,54.950569
2174481,Fredsskovvej,6440,8,9.883372,54.950654
2174482,Fredsskovvej,6440,9,9.883916,54.950495
2174483,Fredsskovvej,6440,10,9.883512,54.950525
2174487,Fredsskovvej,6440,11,9.884021,54.950376
2174488,Fredsskovvej,6440,12,9.883632,54.950432
2174713,Grønnehave,6440,1,9.980666,54.990461
2174717,Grønnehave,6440,2,9.98041,54.990157
2174724,Grønnehave,6440,3,9.981074,54.990316
2174733,Grønnehave,6440,4,9.980831,54.990034
2174812,Hjortøvej,6440,1,9.983952,54.983613
2174814,Hjortøvej,6440,2,9.984351,54.9833904
2174821,Hjortøvej,6440,3,9.983794,54.983756
2174824,Hjortøvej,6440,4,9.984601,54.983481
2174825,Hjortøvej,6440,5,9.983797,54.983918
2174830,Hjortøvej,6440,6,9.984692,54.983661
2174831,Hjortøvej,6440,7,9.984156,54.984
2174832,Hjortøvej,6440,8,9.984804,54.98381
2174837,Hjortøvej,6440,9,9.984075,54.983828
2174838,Hjortøvej,6440,10,9.984973,54.983961
2174840,Hjortøvej,6440,11,9.984241,54.98366
2174842,Hjortøvej,6440,12,9.984609,54.984083
2174844,Hjortøvej,6440,14,9.984414,54.983864
2175331,Keglen,6440,2,9.890402,54.950795
2175341,Keglen,6440,4,9.890628,54.951092
2175344,Keglen,6440,6,9.890205,54.951215
2175352,Keglen,6440,8,9.8901903,54.9514034
2176090,Lykkegård,6440,2,9.8858677,54.9598208
2176098,Lykkegård,6440,3,9.885836,54.9592268
2176100,Lykkegård,6440,4,9.8859076,54.9600658
2176107,Lykkegård,6440,5,9.8854405,54.959192
2176112,Lykkegård,6440,6,9.8859295,54.9602864
2176116,Lykkegård,6440,7,9.8854225,54.959439
2176120,Lykkegård,6440,8,9.8859431,54.9604941
2176125,Lykkegård,6440,10,9.8859719,54.9607437
2176131,Lykkegård,6440,12,9.8859361,54.9609857
2176133,Lykkegård,6440,14,9.8855045,54.9605693
2176140,Lykkegård,6440,16,9.8853738,54.9603705
2176141,Lykkegård,6440,18,9.8853886,54.9600952
2176146,Lykkegård,6440,20,9.8854353,54.9598117
2176148,Lykkegård,6440,22,9.8842856,54.9597401
2176154,Lykkegård,6440,24,9.8842617,54.9600212
2176159,Lykkegård,6440,26,9.8842638,54.960293
2176162,Lykkegård,6440,28,9.8844399,54.9605659
2176168,Lykkegård,6440,30,9.8838309,54.9602784
2176173,Lykkegård,6440,32,9.8838705,54.960006
2176178,Lykkegård,6440,34,9.8838722,54.9597219
2177274,Mirabellehegnet,6440,1,9.889714,54.956652
2177281,Mirabellehegnet,6440,2,9.890257,54.95652
2178430,Ringridervænget,6440,1,9.8840938,54.9489629
2178433,Ringridervænget,6440,3,9.8840904,54.9490426
2178434,Ringridervænget,6440,5,9.8840783,54.9492126
2178435,Ringridervænget,6440,7,9.8840656,54.9492932
2178436,Ringridervænget,6440,9,9.8840128,54.9494853
2178437,Ringridervænget,6440,11,9.8839919,54.949564
2178438,Ringridervænget,6440,12,9.8844214,54.9489817
2178440,Ringridervænget,6440,13,9.8839393,54.9497554
2178441,Ringridervænget,6440,14,9.8844155,54.9490606
2178444,Ringridervænget,6440,15,9.8839193,54.9498347
2178445,Ringridervænget,6440,16,9.8844055,54.9492311
2178448,Ringridervænget,6440,17,9.8838646,54.9500256
2178449,Ringridervænget,6440,18,9.8843926,54.949311
2178451,Ringridervænget,6440,19,9.8838428,54.9501058
2178454,Ringridervænget,6440,20,9.8843397,54.9495044
2178455,Ringridervænget,6440,22,9.8843175,54.9495823
2178459,Ringridervænget,6440,24,9.8842655,54.9497746
2178462,Ringridervænget,6440,26,9.8842438,54.9498527
2178470,Ringridervænget,6440,28,9.8841908,54.9500457
2178477,Ringridervænget,6440,30,9.8841697,54.9501231
2185941,Havmose,6440,8,10.006395,54.958687
2185943,Havmose,6440,10,10.0066179,54.9584928
2185944,Havmose,6440,12,10.006757,54.958327
2185945,Havmose,6440,14,10.006937,54.95815
2185946,Havmose,6440,15,10.0083037,54.9598535
2185947,Havmose,6440,16,10.007068,54.95798
2185948,Havmose,6440,17,10.007951,54.959777
2185949,Havmose,6440,18,10.00721,54.957807
2185950,Havmose,6440,19,10.007594,54.959697
2185951,Havmose,6440,20,10.00734,54.957609
2185952,Havmose,6440,21,10.007265,54.959625
2185953,Havmose,6440,22,10.007546,54.957464
2185954,Havmose,6440,23,10.006889,54.959527
2185955,Havmose,6440,24,10.0076726,54.9575753
2185956,Havmose,6440,25,10.006706,54.959379
2185957,Havmose,6440,26,10.007475,54.957711
2185958,Havmose,6440,28,10.00735,54.957884
2185959,Havmose,6440,30,10.007199,54.958077
2185960,Havmose,6440,32,10.0070541,54.9582476
2185961,Havmose,6440,34,10.0068948,54.9584215
2185962,Havmose,6440,36,10.006729,54.958597
2185963,Havmose,6440,38,10.006547,54.958762
2201009,Den Grønne Vej,6440,2,9.954513,55.011169
2201010,Danebod,6440,1,9.978165,54.986192
2201011,Danebod,6440,2,9.977456,54.986245
2201012,Danebod,6440,3,9.977752,54.986062
2201013,Danebod,6440,4,9.977327,54.986347
2201014,Danebod,6440,5,9.977281,54.985988
2201016,Kirkepladsen,6440,1,9.931454,54.979287
2201017,Kirkepladsen,6440,2,9.9308861,54.9798249
2212030,Christian Bachsvej,6440,11A,9.999833,54.9650021
2212031,Christian Bachsvej,6440,11C,10.000609,54.9655306
2229403,Stavensbølgade,6440,8A,9.873916,54.946298
2229404,Stavensbølgade,6440,8B,9.874022,54.946291
2229406,Kettingvej,6440,23A,9.874646,54.94841
2229429,Engvej,6440,5A,9.919428,54.983547
2229430,Engvej,6440,6B,9.920291,54.983678
2229434,Gammel Brovej,6440,14,9.896156,54.950552
2229451,Helved,6440,41A,9.960849,54.999484
2229469,Frederiksgård,6440,48,9.954378,54.997068
2229488,Gundstrup,6440,3,9.915215,54.956636
2229489,Gundstrup,6440,5,9.915586,54.95624
2229490,Gundstrup,6440,7,9.916109,54.956116
2229496,Almstedskov,6440,9A,9.984089,54.974019
2229497,Notmark,6440,19A,9.939688,54.981029
2229500,Færgevej,6440,5A,9.976516,54.986598
2229501,Færgevej,6440,5B,9.976643,54.986373
2229502,Færgevej,6440,16,9.973784,54.985899
2229516,Brovej,6440,10,9.898913,54.95057
2238034,Banegårdsgade,6440,4,9.872729,54.945472
2242673,Skovkobbel,6440,2,10.0129049,54.9571522
2242674,Skovkobbel,6440,4,10.0123027,54.9574506
2250203,Bro Centervej,6440,1,9.896056,54.954278
2250207,Bygaden,6440,15A,9.952371,54.967395
2250208,Bygaden,6440,45,9.961281,54.963949
2250219,Færgevej,6440,2B,9.980118,54.992933
2250222,Guderupvej,6440,2B,9.921708,54.981355
2250228,Kettingvej,6440,80,9.887486,54.957957
2250234,Kirkevænget,6440,7B,9.897561,54.967183
2250236,Langdel,6440,6G,9.870357,54.941111
2250255,Palævej,6440,9,9.860468,54.946294
2250256,Palævej,6440,10,9.861038,54.945159
2250257,Palævej,6440,12,9.86152,54.945086
2250258,Palævej,6440,14,9.861436,54.945278
2250280,Storemarksvej,6440,12A,9.9235876,54.9848039
2250291,Bækmade,6440,1,9.8611,54.961377
2250292,Bækmade,6440,2,9.861386,54.961091
2250293,Bækmade,6440,3,9.86112,54.961676
2250294,Bromose,6440,3,9.859721,54.961561
2250295,Bromose,6440,4,9.8597105,54.9618518
2250296,Bromose,6440,8,9.857656,54.962306
2250297,Bromose,6440,10,9.85665,54.962668
2250298,Bromose,6440,12,9.856238,54.962671
2250299,Bromose,6440,14,9.855928,54.962847
2250300,Bromose,6440,16,9.855336,54.963115
2250301,Bromose,6440,20,9.855288,54.962799
2250302,Bromose,6440,22,9.854395,54.961982
2250303,Bromose,6440,24,9.85393,54.96154
2250460,Svanehaven,6440,2,9.867086,54.951272
2250461,Sebbelev Bygade,6440,1,9.8591374,54.9586234
2250462,Sebbelev Bygade,6440,2,9.858989,54.959295
2250463,Sebbelev Bygade,6440,3,9.8581254,54.9593265
2250464,Sebbelev Bygade,6440,4,9.858834,54.959654
2250465,Sebbelev Bygade,6440,7,9.858355,54.960002
2250466,Sebbelev Bygade,6440,9,9.858847,54.960333
2250467,Sebbelev Bygade,6440,10,9.86077,54.960518
2250468,Sebbelev Bygade,6440,11,9.859207,54.960335
2250469,Sebbelev Bygade,6440,12,9.861171,54.960844
2250470,Sebbelev Bygade,6440,13,9.860088,54.961025
2250471,Sebbelev Bygade,6440,15,9.861516,54.961048
2250472,Sebbelev Skov,6440,1,9.857849,54.959499
2250473,Sebbelev Skov,6440,2,9.8571993,54.9597242
2250474,Sebbelev Skov,6440,3,9.857484,54.959379
2250475,Sebbelev Skov,6440,5,9.857243,54.959329
2250476,Sebbelev Skov,6440,7,9.856327,54.959354
2250477,Sebbelev Skov,6440,8,9.855165,54.959504
2250478,Sebbelev Skov,6440,9,9.855587,54.959231
2250479,Sebbelev Skov,6440,10,9.854686,54.959341
2250480,Sebbelev Skov,6440,50,9.837129,54.956852
2250481,Sebbelev Strand,6440,1,9.858068,54.960296
2250482,Sebbelev Strand,6440,2,9.85859,54.960402
2250483,Sebbelev Strand,6440,3,9.857614,54.960313
2250484,Sebbelev Strand,6440,4,9.8581,54.960495
2250485,Sebbelev Strand,6440,6,9.857842,54.9605651
2250486,Sebbelev Strand,6440,8,9.85812,54.960864
2250487,Sebbelev Strand,6440,10,9.85788,54.961086
2250488,Sebbelev Strand,6440,12,9.857916,54.961313
2250489,Sebbelev Strand,6440,14,9.857505,54.960538
2250490,Sebbelev Strand,6440,16,9.856605,54.960538
2250491,Sebbelev Strand,6440,20,9.855037,54.960875
2250492,Sebbelev Strand,6440,22,9.854714,54.960833
2250493,Sebbelev Strand,6440,42,9.842348,54.964752
2250494,Sebbelev Strand,6440,50,9.83887,54.963549
2250495,Sebbelev Strand,6440,51,9.8384,54.962818
2250496,Sebbelev Strand,6440,52,9.838851,54.963526
2250497,Sebbelev Strand,6440,53,9.8384104,54.9627712
2250498,Sebbelev Strand,6440,54,9.838532,54.962982
