idx,street,postcode,housenumber,lon,lat
1392904,Frydendahlsvej,6510,1,9.081745,55.265773
1392905,Frydendahlsvej,6510,1A,9.08125,55.265512
1397949,Skjoldagerbyvej,6510,1,9.089319,55.286809
1397955,Skjoldagerbyvej,6510,2,9.088129,55.285886
1398904,Hedevej,6510,1,9.101711,55.326319
1398907,Hedevej,6510,2,9.101637,55.324665
1398909,Hedevej,6510,3,9.102867,55.327674
1408306,Kærgårdvej,6510,1,9.101977,55.304197
1408308,Kærgårdvej,6510,2,9.100334,55.309502
1408311,Kærgårdvej,6510,3,9.098477,55.303632
1409006,Skelvej,6510,1,9.106875,55.27208
1411246,Nørremarksvej,6510,3,9.073868,55.275753
1411247,Nørremarksvej,6510,4,9.102565,55.266584
1411248,Nørremarksvej,6510,5,9.085037,55.274578
1411249,Nørremarksvej,6510,7,9.087664,55.274441
1411250,Nørremarksvej,6510,7A,9.087571,55.274227
1411252,Nørremarksvej,6510,9,9.087963,55.272628
1411254,Nørremarksvej,6510,11,9.091309,55.27093
1411256,Nørremarksvej,6510,13,9.096571,55.270736
1413111,Åbenråvej,6510,2,9.110445,55.317938
1413113,Åbenråvej,6510,4,9.094271,55.323215
1413114,Åbenråvej,6510,6,9.091857,55.323485
1413117,Åbenråvej,6510,6A,9.093102,55.322453
1419074,Kulsviervej,6510,14,9.114204,55.32475
1419075,Kulsviervej,6510,16,9.112573,55.323075
1419076,Kulsviervej,6510,18,9.108197,55.321343
1424276,Holtvej,6510,1,9.09114,55.313508
1424277,Holtvej,6510,2,9.087426,55.317294
1424280,Holtvej,6510,3,9.078304,55.315838
1424281,Holtvej,6510,4,9.088842,55.315574
1424284,Holtvej,6510,5,9.075573,55.318571
1424286,Holtvej,6510,6,9.079363,55.31841
1425866,Lykkegårdvej,6510,1,9.109325,55.306431
1425867,Lykkegårdvej,6510,2,9.110226,55.304739
1425871,Lykkegårdvej,6510,4,9.106346,55.301246
1426622,Vester Lindetvej,6510,1,9.075042,55.307835
1426623,Vester Lindetvej,6510,1A,9.071325,55.308084
1426626,Vester Lindetvej,6510,3,9.077451,55.309174
1426627,Vester Lindetvej,6510,4,9.092651,55.310642
1426628,Vester Lindetvej,6510,5,9.081197,55.309426
1426629,Vester Lindetvej,6510,6A,9.094408,55.311196
1426630,Vester Lindetvej,6510,6B,9.094634,55.311233
1426631,Vester Lindetvej,6510,6C,9.095608,55.31164
1426632,Vester Lindetvej,6510,6D,9.095084,55.311359
1426633,Vester Lindetvej,6510,7,9.085586,55.311249
1426634,Vester Lindetvej,6510,8,9.096407,55.311607
1426635,Vester Lindetvej,6510,9,9.090476,55.311696
1426636,Vester Lindetvej,6510,11,9.090952,55.311744
1426637,Vester Lindetvej,6510,12,9.09822,55.312231
1426638,Vester Lindetvej,6510,13,9.091243,55.311764
1426639,Vester Lindetvej,6510,15,9.091669,55.311822
1426640,Vester Lindetvej,6510,16,9.100716,55.311916
1426641,Vester Lindetvej,6510,17,9.092279,55.311807
1426642,Vester Lindetvej,6510,18,9.101819,55.313117
1426643,Vester Lindetvej,6510,19,9.095579,55.31192
1426644,Vester Lindetvej,6510,20,9.105966,55.313582
1426645,Vester Lindetvej,6510,21,9.096873,55.311985
1426646,Vester Lindetvej,6510,22,9.1065,55.313523
1426647,Vester Lindetvej,6510,23,9.097941,55.312338
1426650,Vester Lindetvej,6510,24,9.107492,55.313308
1426652,Vester Lindetvej,6510,25,9.098506,55.312689
1426655,Vester Lindetvej,6510,26,9.114163,55.311875
1426658,Vester Lindetvej,6510,27,9.099006,55.312803
1426659,Vester Lindetvej,6510,29,9.103074,55.314106
1426663,Vester Lindetvej,6510,31,9.10352,55.31433
1426938,Skjoldagervej,6510,1,9.063254,55.284447
1426939,Skjoldagervej,6510,1A,9.062443,55.284279
1426940,Skjoldagervej,6510,1B,9.06251,55.284786
1426941,Skjoldagervej,6510,2,9.064208,55.283984
1426942,Skjoldagervej,6510,4,9.068106,55.282376
1426943,Skjoldagervej,6510,4A,9.067798,55.282365
1426944,Skjoldagervej,6510,5,9.073969,55.284236
1426945,Skjoldagervej,6510,6,9.099127,55.278046
1426946,Skjoldagervej,6510,7,9.077908,55.287412
1426947,Skjoldagervej,6510,9,9.078946,55.288222
1426949,Skjoldagervej,6510,11,9.09319,55.281638
1426951,Skjoldagervej,6510,13,9.096565,55.280325
1426952,Skjoldagervej,6510,15,9.104331,55.278232
1428846,Gammel Brændstrupvej,6510,2,9.090759,55.321867
1428849,Gammel Brændstrupvej,6510,4,9.090216,55.32183
1428851,Gammel Brændstrupvej,6510,6,9.089246,55.321768
1430708,Birkvej,6510,1,9.096631,55.312739
1430714,Birkvej,6510,2,9.096804,55.313481
1430717,Birkvej,6510,3,9.095946,55.31394
1430721,Birkvej,6510,4,9.096659,55.313739
1430724,Birkvej,6510,5,9.096694,55.319976
1430728,Birkvej,6510,6,9.09646,55.314123
1430730,Birkvej,6510,6A,9.096132,55.314207
1430734,Birkvej,6510,7,9.096391,55.321575
1430737,Birkvej,6510,8,9.097803,55.317149
1430739,Birkvej,6510,10,9.097725,55.32011
1430742,Birkvej,6510,12,9.096395,55.330907
1430910,Skibelundbjergvej,6510,1,9.097603,55.262865
1430914,Skibelundbjergvej,6510,1A,9.093493,55.26416
1430918,Skibelundbjergvej,6510,1B,9.093554,55.264093
1430923,Skibelundbjergvej,6510,2,9.1023,55.262259
1430924,Skibelundbjergvej,6510,4,9.106055,55.262919
1749069,Kongevej,6510,1A,9.049686,55.287698
1749074,Kongevej,6510,1B,9.049333,55.287684
1749077,Kongevej,6510,1C,9.049312,55.287633
1749080,Kongevej,6510,1D,9.049335,55.287579
1749083,Kongevej,6510,1E,9.049371,55.287531
1749087,Kongevej,6510,1F,9.049406,55.28748
1749091,Kongevej,6510,2,9.049097,55.287976
1749092,Kongevej,6510,2A,9.049377,55.287985
1749095,Kongevej,6510,3,9.048598,55.287661
1749097,Kongevej,6510,4,9.048287,55.287872
1749101,Kongevej,6510,5A,9.048412,55.287648
1749104,Kongevej,6510,6,9.048011,55.287901
1749106,Kongevej,6510,7,9.04804,55.287677
1749108,Kongevej,6510,8,9.047669,55.287889
1749111,Kongevej,6510,9,9.047786,55.287689
1749114,Kongevej,6510,13,9.047279,55.28755
1749115,Kongevej,6510,14,9.04631,55.28776
1749118,Kongevej,6510,15,9.046931,55.287659
1749120,Kongevej,6510,17,9.046629,55.287594
1749123,Kongevej,6510,18,9.045365,55.287505
1749126,Kongevej,6510,19,9.046232,55.287511
1749128,Kongevej,6510,20,9.045012,55.287372
1749131,Kongevej,6510,20A,9.045115,55.28746
1749133,Kongevej,6510,21,9.045432,55.287187
1749136,Kongevej,6510,22,9.044796,55.2873
1749139,Kongevej,6510,23A,9.044914,55.286324
1749140,Kongevej,6510,23B,9.044755,55.286417
1749143,Kongevej,6510,24,9.044575,55.287218
1749146,Kongevej,6510,26,9.044381,55.287144
1749148,Kongevej,6510,27,9.044704,55.286882
1749152,Kongevej,6510,28,9.044164,55.287069
1749154,Kongevej,6510,29,9.044491,55.286778
1749156,Kongevej,6510,29A,9.044141,55.286472
1749158,Kongevej,6510,30A,9.043933,55.286988
1749160,Kongevej,6510,30B,9.043575,55.286895
1749162,Kongevej,6510,31,9.044154,55.286715
1749165,Kongevej,6510,32,9.043215,55.286849
1749167,Kongevej,6510,33,9.043824,55.286665
1749169,Kongevej,6510,34,9.042997,55.286761
1749172,Kongevej,6510,35,9.043689,55.286403
1749176,Kongevej,6510,36,9.042734,55.286639
1749179,Kongevej,6510,37,9.043537,55.286201
1749182,Kongevej,6510,38,9.041993,55.286379
1749186,Kongevej,6510,39,9.042994,55.286302
1749187,Kongevej,6510,40,9.041696,55.286284
1749191,Kongevej,6510,41,9.042757,55.286227
1749194,Kongevej,6510,42,9.041415,55.286159
1749196,Kongevej,6510,43,9.042535,55.286143
1749199,Kongevej,6510,44,9.041165,55.286009
1749201,Kongevej,6510,45,9.042326,55.28604
1749205,Kongevej,6510,46A,9.040624,55.285868
1749207,Kongevej,6510,46B,9.040555,55.285941
1749209,Kongevej,6510,46C,9.040334,55.285948
1749211,Kongevej,6510,46D,9.040213,55.285901
1749212,Kongevej,6510,46E,9.040403,55.285698
1749215,Kongevej,6510,47,9.042061,55.285972
1749217,Kongevej,6510,48,9.040112,55.28569
1749219,Kongevej,6510,49,9.041824,55.285789
1749222,Kongevej,6510,50,9.039892,55.285631
1749223,Kongevej,6510,50A,9.039591,55.285503
1749225,Kongevej,6510,51,9.041561,55.285804
1749228,Kongevej,6510,52,9.039267,55.285391
1749229,Kongevej,6510,53,9.041296,55.285716
1749232,Kongevej,6510,54,9.03879,55.285223
1749233,Kongevej,6510,55,9.040794,55.285542
1749234,Kongevej,6510,56,9.038222,55.285078
1749235,Kongevej,6510,57,9.040277,55.285323
1749236,Kongevej,6510,58,9.037734,55.284935
1749237,Kongevej,6510,59,9.040002,55.285251
1749238,Kongevej,6510,59A,9.039796,55.285152
1749239,Kongevej,6510,60,9.037466,55.284476
1749240,Kongevej,6510,60A,9.035556,55.283232
1749241,Kongevej,6510,61,9.039482,55.285125
1749242,Kongevej,6510,62,9.03367,55.282138
1749243,Kongevej,6510,63,9.039279,55.285054
1749244,Kongevej,6510,65,9.039089,55.284889
1749245,Kongevej,6510,67,9.038862,55.284795
1749246,Kongevej,6510,69,9.035669,55.282931
1749247,Kongevej,6510,71,9.0352,55.282546
1749248,Kongevej,6510,200,9.026088,55.281469
1749249,Kongevej,6510,201,9.01592,55.273994
1749250,Kongevej,6510,202,9.022877,55.276125
1749251,Kongevej,6510,203,9.015354,55.273967
1749252,Kongevej,6510,204,9.014178,55.274069
1749253,Kongevej,6510,205,9.014233,55.273637
1749254,Kongevej,6510,206,9.013709,55.274073
1749256,Kongevej,6510,207,9.013526,55.273654
1749257,Kongevej,6510,208,9.013391,55.274004
1749260,Kongevej,6510,209,9.013239,55.273623
1749262,Kongevej,6510,210,9.01319,55.274016
1749264,Kongevej,6510,211,9.01288,55.273612
1749266,Kongevej,6510,212,9.012643,55.273961
1749268,Kongevej,6510,214,9.011809,55.27383
1749270,Kongevej,6510,215,9.012163,55.273317
1749272,Kongevej,6510,216,9.011182,55.273834
1749275,Kongevej,6510,217,9.012037,55.273596
1749276,Kongevej,6510,218,9.010515,55.273893
1749277,Kongevej,6510,219,9.011389,55.273634
1749278,Kongevej,6510,220,9.010147,55.273858
1749279,Kongevej,6510,221,9.011127,55.273151
1749280,Kongevej,6510,222,9.009864,55.273948
1749281,Kongevej,6510,223,9.009903,55.273682
1749282,Kongevej,6510,224,9.009411,55.273993
1749283,Kongevej,6510,226,9.008898,55.27398
1749284,Kongevej,6510,227,9.009104,55.273729
1749285,Kongevej,6510,228,9.008656,55.274025
1749286,Kongevej,6510,229,9.008322,55.273821
1749287,Kongevej,6510,230,9.008288,55.274019
1749288,Kongevej,6510,231A,9.007726,55.273947
1749289,Kongevej,6510,231B,9.007023,55.273779
1749290,Kongevej,6510,232,9.008011,55.274057
1749291,Kongevej,6510,233,9.006668,55.273733
1749292,Kongevej,6510,234,9.007805,55.274194
1749293,Kongevej,6510,235,9.006381,55.273472
1749294,Kongevej,6510,236,9.007514,55.27423
1749296,Kongevej,6510,236A,9.007065,55.274284
1749298,Kongevej,6510,237,9.006252,55.273279
1749300,Kongevej,6510,238,9.005592,55.273695
1749302,Kongevej,6510,239,9.006048,55.273131
1749304,Kongevej,6510,240,9.005506,55.273414
1749306,Kongevej,6510,241,9.005922,55.272956
1749308,Kongevej,6510,242,9.00536,55.27313
1749311,Kongevej,6510,243,9.005725,55.272466
1749313,Kongevej,6510,244,9.004699,55.273043
1749315,Kongevej,6510,245,8.99004,55.25724
1749317,Kongevej,6510,246,9.005017,55.27281
1749319,Kongevej,6510,247,8.99262,55.256461
1749321,Kongevej,6510,248,9.004542,55.27237
1749323,Kongevej,6510,249,8.994815,55.254248
1749325,Kongevej,6510,250,8.999341,55.266992
1749327,Kongevej,6510,252,8.986628,55.266488
1749329,Kongevej,6510,254,8.98954,55.265864
1749332,Kongevej,6510,300,8.974229,55.249649
1749333,Kongevej,6510,301,8.983677,55.253663
1749334,Kongevej,6510,302,8.97264,55.249067
1749335,Kongevej,6510,303,8.98299,55.253107
1749338,Kongevej,6510,304,8.97228,55.248956
1749339,Kongevej,6510,305,8.98406,55.253098
1749342,Kongevej,6510,305A,8.985386,55.252266
1749344,Kongevej,6510,305B,8.974546,55.249285
1749346,Kongevej,6510,306,8.97205,55.248873
1749348,Kongevej,6510,307,8.974135,55.249152
1749350,Kongevej,6510,308,8.971699,55.248759
1749352,Kongevej,6510,309,8.973545,55.249028
1749354,Kongevej,6510,310,8.971386,55.248634
1749355,Kongevej,6510,311,8.973314,55.248951
1749357,Kongevej,6510,312,8.971129,55.248505
1749359,Kongevej,6510,313,8.973043,55.248855
1749360,Kongevej,6510,314,8.970425,55.248322
1749361,Kongevej,6510,315,8.9728,55.248766
1749363,Kongevej,6510,316,8.969609,55.248097
1749365,Kongevej,6510,317,8.972596,55.248645
1749367,Kongevej,6510,317A,8.972301,55.248468
1749370,Kongevej,6510,318,8.969379,55.247784
1749372,Kongevej,6510,319,8.971521,55.248333
1749374,Kongevej,6510,320,8.969171,55.247277
1749376,Kongevej,6510,321A,8.971082,55.2482
1749377,Kongevej,6510,321B,8.970704,55.24809
1749380,Kongevej,6510,322,8.96921,55.247113
1749381,Kongevej,6510,323,8.969579,55.247267
1749382,Kongevej,6510,324,8.969028,55.246866
1749383,Kongevej,6510,324A,8.968482,55.247113
1749384,Kongevej,6510,325,8.969484,55.246969
1749385,Kongevej,6510,326A,8.968087,55.246938
1749386,Kongevej,6510,326B,8.968351,55.246764
1749387,Kongevej,6510,326C,8.968687,55.246728
1749388,Kongevej,6510,327,8.96941,55.246776
1749389,Kongevej,6510,328,8.968638,55.246422
1749390,Kongevej,6510,329A,8.969218,55.246394
1749391,Kongevej,6510,329B,8.969172,55.246328
1749392,Kongevej,6510,330,8.968103,55.245684
1749393,Kongevej,6510,330A,8.9679,55.245437
1749394,Kongevej,6510,330B,8.967812,55.245559
1749395,Kongevej,6510,331,8.968553,55.245296
1749396,Kongevej,6510,332,8.967721,55.244985
1749397,Kongevej,6510,333,8.968471,55.245104
1749398,Kongevej,6510,334,8.967567,55.244762
1749400,Kongevej,6510,335,8.967978,55.244769
1749403,Kongevej,6510,336,8.967331,55.24449
1749404,Kongevej,6510,337,8.966555,55.239893
1749406,Kongevej,6510,338,8.966714,55.243111
1749408,Kongevej,6510,338A,8.961167,55.236792
1749409,Kongevej,6510,338B,8.96115,55.239024
1749412,Kongevej,6510,339,8.961014,55.232339
1749415,Kongevej,6510,340,8.964139,55.237827
1749416,Kongevej,6510,341,8.960832,55.231977
1749418,Kongevej,6510,342,8.963454,55.236106
1749420,Kongevej,6510,344,8.962032,55.234552
1749422,Kongevej,6510,346,8.960915,55.233142
1749425,Kongevej,6510,348,8.96029,55.232386
1749428,Kongevej,6510,350,8.960158,55.232234
1750357,Sydvejen,6510,2,9.078062,55.246808
1750358,Sydvejen,6510,3,9.035602,55.236106
1750360,Sydvejen,6510,4,9.073984,55.245887
1750363,Sydvejen,6510,4B,9.057755,55.239908
1750364,Sydvejen,6510,5,9.031397,55.235196
1750366,Sydvejen,6510,6,9.032668,55.236102
1750368,Sydvejen,6510,7,9.028416,55.235346
1750370,Sydvejen,6510,8,9.029334,55.236032
1750373,Sydvejen,6510,9,9.027663,55.235805
1750375,Sydvejen,6510,10,9.002652,55.241592
1750377,Sydvejen,6510,11,9.025243,55.236301
1750380,Sydvejen,6510,13,9.022961,55.236798
1750381,Sydvejen,6510,15,9.011207,55.23727
1752316,Kastrupvej,6510,1,8.969794,55.247608
1752317,Kastrupvej,6510,2,8.969929,55.247326
1752318,Kastrupvej,6510,3,8.970074,55.247488
1752319,Kastrupvej,6510,4,8.970191,55.247244
1752320,Kastrupvej,6510,6,8.970398,55.247161
1752321,Kastrupvej,6510,7,8.971037,55.24711
1752322,Kastrupvej,6510,8,8.970633,55.247079
1752323,Kastrupvej,6510,9,8.971267,55.24701
1752324,Kastrupvej,6510,10,8.970846,55.246917
1752325,Kastrupvej,6510,11,8.971497,55.246911
1752326,Kastrupvej,6510,12,8.971174,55.246716
1752327,Kastrupvej,6510,13,8.971711,55.246797
1752328,Kastrupvej,6510,14,8.971903,55.246249
1752329,Kastrupvej,6510,15,8.971998,55.246669
1752330,Kastrupvej,6510,16,8.972181,55.246209
1752331,Kastrupvej,6510,17,8.97226,55.246543
1752332,Kastrupvej,6510,18,8.972542,55.246055
1752333,Kastrupvej,6510,19,8.972466,55.246465
1752334,Kastrupvej,6510,20,8.972797,55.245954
1752335,Kastrupvej,6510,21,8.972912,55.246269
1752336,Kastrupvej,6510,22,8.973048,55.245142
1752337,Kastrupvej,6510,23,8.973544,55.245962
1752338,Kastrupvej,6510,24,9.013702,55.244174
1752339,Kastrupvej,6510,25,8.974305,55.245654
1752340,Kastrupvej,6510,26,9.018611,55.244641
1752341,Kastrupvej,6510,27,8.999633,55.245129
1752342,Kastrupvej,6510,29,9.001669,55.245061
1752343,Kastrupvej,6510,31,9.072586,55.257189
1753515,Skolevej,6510,1,8.968126,55.244168
1753519,Skolevej,6510,2,8.968359,55.243624
1753522,Skolevej,6510,3,8.968586,55.243951
1753527,Skolevej,6510,4,8.968502,55.2429
1753530,Skolevej,6510,5,8.968957,55.243779
1753532,Skolevej,6510,7,8.969296,55.243634
1753534,Skolevej,6510,9,8.969613,55.243511
1753538,Skolevej,6510,11,8.969954,55.243398
1753540,Skolevej,6510,13,8.97024,55.243224
1755990,Grønvang,6510,1A,8.967576,55.245089
1755991,Grønvang,6510,1B,8.967385,55.245078
1755992,Grønvang,6510,2,8.967165,55.245851
1755994,Grønvang,6510,3,8.967345,55.245303
1755997,Grønvang,6510,4,8.966896,55.246005
1756000,Grønvang,6510,5,8.96718,55.24541
1756001,Grønvang,6510,6,8.966466,55.246091
1756002,Grønvang,6510,7,8.967026,55.245519
1756003,Grønvang,6510,8A,8.966196,55.246287
1756004,Grønvang,6510,8B,8.96607,55.246348
1756005,Grønvang,6510,8C,8.966399,55.246365
1756006,Grønvang,6510,8D,8.966284,55.24642
1756007,Grønvang,6510,8E,8.966108,55.246504
1756008,Grønvang,6510,8F,8.965995,55.246556
1756009,Grønvang,6510,9,8.966668,55.245634
1756010,Grønvang,6510,11,8.966064,55.2459
1756011,Grønvang,6510,13,8.965721,55.246147
1756012,Grønvang,6510,15,8.965556,55.24624
1756013,Grønvang,6510,17,8.96512,55.246385
1756014,Grønvang,6510,19,8.964965,55.246535
1756015,Grønvang,6510,20,8.96366,55.247485
1756016,Grønvang,6510,21,8.964665,55.246696
1756017,Grønvang,6510,22,8.963361,55.247715
1756019,Grønvang,6510,23,8.964335,55.246862
1756020,Grønvang,6510,25,8.964079,55.246989
1756022,Grønvang,6510,27,8.963717,55.247179
1756025,Grønvang,6510,29,8.963524,55.247305
1758461,Skovmosevej,6510,1,8.986707,55.224899
1758463,Skovmosevej,6510,3,8.982401,55.224057
1758467,Skovmosevej,6510,5,8.976539,55.224771
1758468,Skovmosevej,6510,5A,8.976348,55.224897
1758471,Skovmosevej,6510,7,8.965833,55.222422
1758473,Skovmosevej,6510,9,8.963249,55.220822
1759289,Banegårdsvej,6510,1,8.994331,55.22822
1759290,Banegårdsvej,6510,2,8.994956,55.228028
1759291,Banegårdsvej,6510,3,8.994777,55.228421
1759292,Banegårdsvej,6510,4,8.99573,55.229812
1759293,Banegårdsvej,6510,5,8.995246,55.229354
1759940,Skærbækvej,6510,1,8.946452,55.232372
1759942,Skærbækvej,6510,2,8.959159,55.231546
1759944,Skærbækvej,6510,4,8.957217,55.231592
1759947,Skærbækvej,6510,6,8.956743,55.231539
1760272,Lindetvej,6510,1,8.965262,55.213835
1760275,Lindetvej,6510,2,8.960829,55.223903
1760277,Lindetvej,6510,4,8.962071,55.220815
1760278,Lindetvej,6510,6,8.962291,55.220016
1760282,Lindetvej,6510,8,8.965162,55.204276
1762843,Skovridervej,6510,1,8.960339,55.211202
1762844,Skovridervej,6510,2,8.961819,55.212188
1762845,Skovridervej,6510,3,8.960166,55.211435
1763769,Voddervej,6510,1,8.950542,55.216184
1763976,Nørrehedevej,6510,29,8.945296,55.217998
1764249,Buen,6510,1,8.991754,55.22964
1802225,Højrupvej,6510,1,8.981773,55.230525
1802228,Højrupvej,6510,2,8.964026,55.231021
1802231,Højrupvej,6510,3,8.989875,55.228976
1802232,Højrupvej,6510,4,8.979611,55.229866
1802234,Højrupvej,6510,5,8.990742,55.229111
1802236,Højrupvej,6510,6A,8.983603,55.229645
1802238,Højrupvej,6510,6B,8.983791,55.229597
1802240,Højrupvej,6510,7,8.992327,55.228819
1802242,Højrupvej,6510,8,8.985764,55.229093
1802245,Højrupvej,6510,9,8.992851,55.228406
1802246,Højrupvej,6510,10,8.988525,55.228642
1802248,Højrupvej,6510,11,8.993631,55.228195
1802250,Højrupvej,6510,12,8.990693,55.228505
1802252,Højrupvej,6510,14,8.991132,55.228216
1802253,Højrupvej,6510,16,8.99172,55.228363
1802255,Højrupvej,6510,18,8.991116,55.227279
1802257,Højrupvej,6510,20,8.992455,55.228107
1802260,Højrupvej,6510,22,8.993198,55.227806
1802261,Højrupvej,6510,23,8.996039,55.22776
1802263,Højrupvej,6510,24,8.9945,55.227739
1802266,Højrupvej,6510,25,8.997133,55.227427
1802268,Højrupvej,6510,26,8.994801,55.227461
1802269,Højrupvej,6510,27,8.999491,55.226709
1802271,Højrupvej,6510,29,9.000484,55.226313
1802272,Højrupvej,6510,30,9.003467,55.224099
1802274,Højrupvej,6510,31,9.001207,55.226371
1802276,Højrupvej,6510,32,9.004877,55.223737
1802278,Højrupvej,6510,33,9.003769,55.224826
1802281,Højrupvej,6510,35,9.006737,55.223507
1810065,Sildal,6510,1,8.963339,55.246013
1810067,Sildal,6510,2,8.962855,55.245259
1810069,Sildal,6510,3,8.962956,55.245844
1810071,Sildal,6510,4,8.963088,55.244925
1810073,Sildal,6510,5,8.963099,55.246258
1810075,Sildal,6510,6,8.962661,55.244793
1810077,Sildal,6510,7,8.963177,55.246719
1810079,Sildal,6510,8,8.962518,55.244506
1810082,Sildal,6510,9,8.963349,55.246919
1810083,Sildal,6510,10,8.963072,55.244556
1810085,Sildal,6510,11,8.963871,55.246609
1810088,Sildal,6510,13,8.963482,55.246529
1810089,Sildal,6510,14,8.963614,55.244731
1810092,Sildal,6510,15,8.963585,55.246302
1810094,Sildal,6510,16,8.964072,55.244902
1810096,Sildal,6510,17,8.963774,55.246099
1810098,Sildal,6510,18,8.963682,55.245086
1810099,Sildal,6510,19,8.96434,55.246253
1810100,Sildal,6510,20,8.963435,55.245303
1810101,Sildal,6510,22,8.963115,55.245486
1810102,Sildal,6510,24,8.963852,55.24569
1810103,Sildal,6510,26,8.964109,55.24549
1810104,Sildal,6510,28,8.964192,55.245233
1810105,Sildal,6510,30,8.964544,55.245066
1810106,Sildal,6510,32,8.964913,55.245176
1810107,Sildal,6510,34,8.965362,55.245288
1810108,Sildal,6510,36,8.965288,55.245675
1810109,Sildal,6510,38,8.964601,55.24546
1810110,Sildal,6510,40,8.964434,55.245642
1810111,Sildal,6510,42,8.964308,55.245877
1810112,Sildal,6510,44,8.965024,55.24595
1825307,Kirkevej,6510,1,8.974194,55.24521
1825308,Kirkevej,6510,3,8.974196,55.244784
1825309,Kirkevej,6510,4,8.97316,55.241246
1825310,Kirkevej,6510,5,8.973749,55.242541
1825311,Kirkevej,6510,7,8.973834,55.242282
1825312,Kirkevej,6510,9,8.973947,55.242092
1825313,Kirkevej,6510,11,8.974103,55.241878
1825314,Kirkevej,6510,13,8.974671,55.241412
1825315,Kirkevej,6510,15,8.977851,55.239367
1825316,Kirkevej,6510,17,8.9802534,55.2377782
1825317,Kirkevej,6510,19,8.984866,55.234205
1825318,Kirkevej,6510,21,8.989309,55.232501
1825319,Kirkevej,6510,23,8.990553,55.230799
1826110,Søndermarksvej,6510,1,8.962954,55.24741
1826112,Søndermarksvej,6510,2,8.962768,55.24847
1826113,Søndermarksvej,6510,3,8.962905,55.247032
1826114,Søndermarksvej,6510,4,8.962527,55.24739
1826116,Søndermarksvej,6510,6,8.962551,55.247204
1826118,Søndermarksvej,6510,7,8.959017,55.241076
1826119,Søndermarksvej,6510,8,8.962482,55.246957
1826120,Søndermarksvej,6510,10A,8.962028,55.246637
1826122,Søndermarksvej,6510,10B,8.96236,55.246386
1826123,Søndermarksvej,6510,11,8.956492,55.237161
1826125,Søndermarksvej,6510,12,8.95671,55.243838
1826126,Søndermarksvej,6510,13,8.954649,55.23582
1826127,Søndermarksvej,6510,14,8.959911,55.242477
1826128,Søndermarksvej,6510,15,8.953671,55.234814
1826130,Søndermarksvej,6510,16,8.953415,55.239463
1826131,Søndermarksvej,6510,17,8.951384,55.233106
1826132,Søndermarksvej,6510,20,8.957115,55.239876
1826133,Søndermarksvej,6510,22,8.956268,55.238587
1826134,Søndermarksvej,6510,24,8.954661,55.236673
1862470,Slotsvej,6510,2,9.050164,55.28809
1862473,Slotsvej,6510,4,9.050211,55.28842
1862475,Slotsvej,6510,4A,9.050249,55.288238
1862476,Slotsvej,6510,4B,9.050186,55.28818
1862477,Slotsvej,6510,4C,9.050271,55.28815
1862479,Slotsvej,6510,4D,9.050336,55.288207
1862480,Slotsvej,6510,6A,9.050923,55.288511
1862481,Slotsvej,6510,6B,9.050676,55.28874
1862482,Slotsvej,6510,6C,9.050732,55.288713
1862483,Slotsvej,6510,8,9.050788,55.288868
1862484,Slotsvej,6510,9,9.049946,55.288523
1862485,Slotsvej,6510,10,9.050931,55.289069
1862486,Slotsvej,6510,11,9.050057,55.288924
1862487,Slotsvej,6510,12,9.05105,55.289188
1862488,Slotsvej,6510,13,9.050329,55.289041
1862489,Slotsvej,6510,13A,9.05039,55.289086
1862490,Slotsvej,6510,14,9.051256,55.289386
1862491,Slotsvej,6510,14A,9.051668,55.289276
1862492,Slotsvej,6510,15,9.050494,55.289184
1862494,Slotsvej,6510,16,9.0514,55.289556
1862495,Slotsvej,6510,17,9.05004,55.289405
1862496,Slotsvej,6510,18,9.05153,55.289739
1862497,Slotsvej,6510,19,9.050996,55.289982
1862498,Slotsvej,6510,20,9.051692,55.289853
1862500,Slotsvej,6510,21,9.051512,55.290506
1862501,Slotsvej,6510,21A,9.051669,55.290625
1862502,Slotsvej,6510,22,9.051939,55.290043
1862503,Slotsvej,6510,23,9.05184,55.290929
1862505,Slotsvej,6510,24,9.052337,55.290463
1862506,Slotsvej,6510,25,9.051748,55.291163
1862507,Slotsvej,6510,26,9.052508,55.290679
1862508,Slotsvej,6510,27,9.052101,55.291365
1862509,Slotsvej,6510,28,9.052662,55.29088
1862510,Slotsvej,6510,29,9.052134,55.291551
1862512,Slotsvej,6510,30,9.052808,55.291065
1862513,Slotsvej,6510,31,9.052427,55.291871
1862514,Slotsvej,6510,32,9.052994,55.291301
1862516,Slotsvej,6510,33,9.052655,55.292006
1862517,Slotsvej,6510,34,9.053149,55.291504
1862518,Slotsvej,6510,35,9.052721,55.29217
1862519,Slotsvej,6510,37,9.053674,55.293125
1862520,Slotsvej,6510,38,9.053497,55.29194
1862521,Slotsvej,6510,39,9.05381,55.293336
1862522,Slotsvej,6510,40,9.053673,55.292163
1862523,Slotsvej,6510,41A,9.054188,55.293899
1862524,Slotsvej,6510,41B,9.054201,55.293993
1862525,Slotsvej,6510,42,9.053812,55.292344
1862526,Slotsvej,6510,43,9.054311,55.294138
1862527,Slotsvej,6510,44,9.053999,55.292777
1862528,Slotsvej,6510,45A,9.054673,55.294473
1862529,Slotsvej,6510,45B,9.054556,55.294495
1862530,Slotsvej,6510,46,9.054346,55.293484
1862531,Slotsvej,6510,47,9.054678,55.294839
1862532,Slotsvej,6510,47B,9.054904,55.295243
1862533,Slotsvej,6510,47C,9.055094,55.295115
1862534,Slotsvej,6510,48,9.05469,55.294059
1862535,Slotsvej,6510,49,9.055292,55.295226
1862536,Slotsvej,6510,49A,9.054827,55.295555
1862537,Slotsvej,6510,49C,9.055554,55.295435
1862538,Slotsvej,6510,50,9.055098,55.294698
1862539,Slotsvej,6510,51,9.056361,55.295645
1862540,Slotsvej,6510,52,9.05531,55.294969
1862541,Slotsvej,6510,53,9.059059,55.297604
1862544,Slotsvej,6510,54,9.057237,55.295259
1862545,Slotsvej,6510,55,9.059314,55.298131
1862546,Slotsvej,6510,56,9.059758,55.296947
1862548,Slotsvej,6510,56A,9.059317,55.296382
1862550,Slotsvej,6510,56B,9.05971,55.29631
1862552,Slotsvej,6510,56C,9.060714,55.296145
1862554,Slotsvej,6510,57,9.059414,55.298382
1862555,Slotsvej,6510,58A,9.060353,55.299214
1862557,Slotsvej,6510,58B,9.060405,55.299473
1862558,Slotsvej,6510,58C,9.060171,55.299689
1862559,Slotsvej,6510,59,9.059485,55.298626
1862560,Slotsvej,6510,60,9.060469,55.300328
1862561,Slotsvej,6510,61,9.060061,55.301323
1862562,Slotsvej,6510,62,9.060531,55.300567
1862563,Slotsvej,6510,63,9.060785,55.303565
1862564,Slotsvej,6510,63A,9.060337,55.303683
1862566,Slotsvej,6510,63B,9.060186,55.30371
1862567,Slotsvej,6510,64,9.060567,55.300766
1862568,Slotsvej,6510,65,9.063534,55.311166
1862569,Slotsvej,6510,66,9.06063,55.301015
1862570,Slotsvej,6510,67,9.063309,55.311416
1915995,Højmarken,6510,1,9.046239,55.284236
1915996,Højmarken,6510,3,9.0464315,55.2837115
1915997,Højmarken,6510,4,9.045706,55.284535
1915998,Højmarken,6510,6,9.045892,55.284528
1915999,Højmarken,6510,8,9.046034,55.284532
1916000,Højmarken,6510,10,9.046136,55.284533
1916001,Højmarken,6510,12,9.0463,55.284559
1916002,Højmarken,6510,14,9.046247,55.284696
1916003,Højmarken,6510,16,9.046095,55.284818
1916004,Højmarken,6510,18,9.046078,55.284906
1916005,Højmarken,6510,20,9.046055,55.285012
1916006,Højmarken,6510,22,9.045702,55.284794
1916007,Højmarken,6510,23,9.0459,55.284252
1916008,Højmarken,6510,24,9.045692,55.284873
1916009,Højmarken,6510,25,9.0456485,55.2839532
1916010,Højmarken,6510,26,9.045662,55.284995
1916011,Højmarken,6510,28,9.045314,55.284827
1916012,Højmarken,6510,30,9.045306,55.284873
1916013,Højmarken,6510,32,9.045269,55.284971
1916014,Højmarken,6510,33,9.045791,55.283673
1916015,Højmarken,6510,34,9.045323,55.28465
1916016,Højmarken,6510,36,9.045324,55.284556
1916017,Højmarken,6510,38,9.045355,55.28449
1916018,Højmarken,6510,40,9.0447,55.284491
1916019,Højmarken,6510,42,9.044829,55.284503
1916020,Højmarken,6510,44,9.044958,55.284507
1916021,Højmarken,6510,46,9.044327,55.284487
1916022,Højmarken,6510,48,9.044181,55.284468
1916023,Højmarken,6510,50,9.04406,55.284476
1916024,Højmarken,6510,51,9.042777,55.283687
1916025,Højmarken,6510,52,9.044209,55.284619
1916026,Højmarken,6510,53A,9.043018,55.283846
1916027,Højmarken,6510,53B,9.043103,55.283851
1916028,Højmarken,6510,53C,9.043019,55.283814
1916029,Højmarken,6510,53D,9.04311,55.283816
1916030,Højmarken,6510,53E,9.043225,55.283853
1916031,Højmarken,6510,53F,9.04322,55.283821
1916032,Højmarken,6510,53G,9.043012,55.283778
1916033,Højmarken,6510,53H,9.043114,55.283783
1916034,Højmarken,6510,53I,9.04314,55.283742
1916035,Højmarken,6510,53J,9.043001,55.283744
1916036,Højmarken,6510,54,9.044943,55.284719
1916037,Højmarken,6510,56,9.044683,55.284708
1916038,Højmarken,6510,58,9.044908,55.284874
1916039,Højmarken,6510,59A,9.042038,55.28347
1916040,Højmarken,6510,59B,9.042127,55.283467
1916041,Højmarken,6510,59C,9.042214,55.283462
1916042,Højmarken,6510,59D,9.042292,55.283456
1916043,Højmarken,6510,59E,9.042382,55.283415
1916044,Højmarken,6510,59F,9.042427,55.283378
1916045,Højmarken,6510,59G,9.04248,55.283342
1916046,Højmarken,6510,59H,9.042526,55.283308
1916047,Højmarken,6510,60,9.044889,55.284949
1916048,Højmarken,6510,61A,9.042007,55.283793
1916049,Højmarken,6510,61B,9.0421,55.283791
1916050,Højmarken,6510,61C,9.04219,55.283783
1916051,Højmarken,6510,61D,9.042269,55.283774
1916052,Højmarken,6510,61E,9.042341,55.283738
1916053,Højmarken,6510,61F,9.04239,55.283698
1916054,Højmarken,6510,61G,9.042449,55.283655
1916055,Højmarken,6510,61H,9.042497,55.283617
1916056,Højmarken,6510,62,9.044465,55.284831
1916057,Højmarken,6510,64,9.044469,55.28494
1916058,Højmarken,6510,66,9.044042,55.284822
1916059,Højmarken,6510,68,9.044038,55.284907
1916060,Højmarken,6510,70,9.043615,55.28482
1916061,Højmarken,6510,72,9.043611,55.284903
1916062,Højmarken,6510,74,9.043487,55.284658
1916063,Højmarken,6510,76,9.043663,55.284669
1916064,Højmarken,6510,78,9.043742,55.284466
1916065,Højmarken,6510,80,9.043595,55.284456
1916066,Højmarken,6510,82,9.043458,55.284451
1916067,Højmarken,6510,84,9.043616,55.284256
1916068,Højmarken,6510,86,9.043476,55.28425
1916069,Højmarken,6510,88,9.043221,55.284164
1916070,Højmarken,6510,90,9.043098,55.284207
1916071,Højmarken,6510,92,9.042652,55.284157
1916072,Højmarken,6510,94,9.042511,55.284201
1916073,Højmarken,6510,96,9.043232,55.284368
1916074,Højmarken,6510,98,9.043083,55.284411
1916075,Højmarken,6510,100,9.042657,55.284342
1916076,Højmarken,6510,102,9.04248,55.284383
1916078,Højmarken,6510,104,9.043244,55.284578
1916080,Højmarken,6510,106,9.043232,55.284648
1916082,Højmarken,6510,108,9.043229,55.284713
1916084,Højmarken,6510,110,9.042922,55.284576
1916086,Højmarken,6510,112,9.04293,55.284653
1916087,Højmarken,6510,114,9.042915,55.284718
1916090,Højmarken,6510,116,9.042324,55.284553
1916091,Højmarken,6510,118,9.042334,55.284622
1916093,Højmarken,6510,120,9.04232,55.284683
1916094,Højmarken,6510,122,9.042025,55.284544
1916095,Højmarken,6510,124,9.042,55.284611
1916096,Højmarken,6510,126,9.042008,55.284679
1916097,Højmarken,6510,128,9.042077,55.284364
1916098,Højmarken,6510,130,9.041966,55.284409
1916099,Højmarken,6510,132,9.042093,55.284143
1916100,Højmarken,6510,134,9.04194,55.284195
1916419,Vestergade,6510,1,8.969028,55.247589
1916422,Vestergade,6510,1A,8.968341,55.247305
1916426,Vestergade,6510,2,8.968897,55.247987
1916428,Vestergade,6510,3,8.968224,55.247977
1916431,Vestergade,6510,4,8.96858,55.248104
1916432,Vestergade,6510,5,8.96798,55.248177
1916434,Vestergade,6510,6,8.96838,55.248245
1916437,Vestergade,6510,7,8.967615,55.248352
1916440,Vestergade,6510,8,8.968095,55.24842
1916442,Vestergade,6510,9,8.96719,55.248442
1916445,Vestergade,6510,10,8.96781,55.248525
1916448,Vestergade,6510,10A,8.96769,55.24854
1916450,Vestergade,6510,11A,8.966662,55.248612
1916451,Vestergade,6510,11B,8.966511,55.248647
1916452,Vestergade,6510,12,8.967508,55.248565
1916453,Vestergade,6510,13,8.966194,55.248735
1916454,Vestergade,6510,14,8.967165,55.248663
1916455,Vestergade,6510,15,8.965933,55.248712
1916456,Vestergade,6510,16,8.966941,55.248723
1916457,Vestergade,6510,17,8.965448,55.248837
1916458,Vestergade,6510,18,8.966731,55.248783
1916459,Vestergade,6510,19,8.965186,55.248973
1916460,Vestergade,6510,20,8.966541,55.248914
1916461,Vestergade,6510,21,8.965013,55.248973
1916462,Vestergade,6510,22,8.966274,55.248986
1916463,Vestergade,6510,23,8.964719,55.249029
1916464,Vestergade,6510,24,8.965354,55.249134
1916465,Vestergade,6510,25,8.964151,55.249057
1916466,Vestergade,6510,26,8.964616,55.250459
1916467,Vestergade,6510,27A,8.963437,55.249288
1916468,Vestergade,6510,27B,8.96368,55.24922
1916469,Vestergade,6510,30,8.963598,55.249457
1916470,Vestergade,6510,32,8.963129,55.249599
1916471,Vestergade,6510,33,8.962809,55.249429
1916472,Vestergade,6510,34,8.962739,55.249663
1916473,Vestergade,6510,35,8.962503,55.249517
1916474,Vestergade,6510,35A,8.962399,55.249369
1916475,Vestergade,6510,36,8.96241,55.249763
1916476,Vestergade,6510,37,8.962236,55.249584
1916477,Vestergade,6510,38,8.962174,55.249831
1916478,Vestergade,6510,39,8.961988,55.249654
1916479,Vestergade,6510,40,8.96195,55.250026
1916480,Vestergade,6510,41A,8.961588,55.249751
1916481,Vestergade,6510,41B,8.961229,55.249812
1916482,Vestergade,6510,42,8.961181,55.250049
1916483,Vestergade,6510,43,8.96095,55.249877
1916484,Vestergade,6510,44,8.96091,55.250112
1916486,Vestergade,6510,45,8.960663,55.249938
1916491,Vestergade,6510,46,8.960585,55.250279
1916494,Vestergade,6510,47,8.960387,55.249994
1916499,Vestergade,6510,48,8.950019,55.249511
1916501,Vestergade,6510,49,8.960001,55.250072
1916505,Vestergade,6510,50,8.947685,55.250121
1916510,Vestergade,6510,51,8.95777,55.249158
1916513,Vestergade,6510,52,8.945672,55.250419
1916517,Vestergade,6510,53,8.954405,55.24967
1916520,Vestergade,6510,55,8.948198,55.249119
1916522,Vestergade,6510,57,8.945292,55.249035
1918439,Vesterled,6510,1,9.056026,55.284815
1918440,Vesterled,6510,2,9.056394,55.284649
1918441,Vesterled,6510,3,9.056401,55.285112
1918442,Vesterled,6510,4,9.056557,55.284775
1918443,Vesterled,6510,5,9.056577,55.285259
1918444,Vesterled,6510,6,9.05675,55.28493
1918445,Vesterled,6510,7,9.056773,55.285411
1918446,Vesterled,6510,8,9.05692,55.285062
1918447,Vesterled,6510,9,9.056952,55.285554
1918448,Vesterled,6510,10,9.057097,55.285196
1918449,Vesterled,6510,11,9.05714,55.285698
1918450,Vesterled,6510,12,9.057254,55.285327
1918451,Vesterled,6510,13,9.057312,55.285849
1918452,Vesterled,6510,14,9.057429,55.285463
1918453,Vesterled,6510,14A,9.057562,55.285588
1918454,Vesterled,6510,15,9.057495,55.285988
1918455,Vesterled,6510,16,9.057748,55.285734
1918456,Vesterled,6510,17,9.057695,55.286139
1918457,Vesterled,6510,18,9.05792,55.28586
1918458,Vesterled,6510,19,9.057891,55.286256
1918459,Vesterled,6510,20,9.058077,55.285993
1918460,Vesterled,6510,21,9.058006,55.286485
1918461,Vesterled,6510,22,9.058251,55.286125
1918462,Vesterled,6510,23,9.058256,55.286596
1918463,Vesterled,6510,24,9.058541,55.28626
1918464,Vesterled,6510,25,9.058461,55.286712
1918465,Vesterled,6510,26,9.058952,55.286435
1918466,Vesterled,6510,27,9.058679,55.286971
1918559,Ribe Landevej,6510,1,9.025925,55.288626
1918560,Ribe Landevej,6510,1B,9.031185,55.288683
1918561,Ribe Landevej,6510,2,9.036748,55.290724
1918562,Ribe Landevej,6510,3,9.015102,55.284145
1918563,Ribe Landevej,6510,4,9.032229,55.290377
1918564,Ribe Landevej,6510,5,8.995045,55.285477
1918565,Ribe Landevej,6510,6,9.029789,55.289772
1918566,Ribe Landevej,6510,7,8.973498,55.283167
1918567,Ribe Landevej,6510,8A,9.02624,55.288944
1918568,Ribe Landevej,6510,8B,9.026376,55.289065
1918569,Ribe Landevej,6510,9,8.971225,55.283741
1918570,Ribe Landevej,6510,10,9.023224,55.288762
1918571,Ribe Landevej,6510,11,8.97072,55.283549
1918572,Ribe Landevej,6510,12,9.019586,55.287942
1918573,Ribe Landevej,6510,13,8.958959,55.28601
1918574,Ribe Landevej,6510,14,9.015193,55.287044
1918575,Ribe Landevej,6510,15,8.951077,55.28788
1918576,Ribe Landevej,6510,16,9.009505,55.286915
1918577,Ribe Landevej,6510,17,8.941401,55.288792
1918578,Ribe Landevej,6510,18,9.000943,55.286445
1918579,Ribe Landevej,6510,22,8.980673,55.284132
1918580,Ribe Landevej,6510,24,8.972486,55.284871
1918581,Ribe Landevej,6510,26,8.969262,55.28448
1918582,Ribe Landevej,6510,28,8.965704,55.285022
1918583,Ribe Landevej,6510,28D,8.948679,55.289139
1918584,Ribe Landevej,6510,30,8.948002,55.289067
1918585,Ribe Landevej,6510,32,8.946358,55.289596
1918586,Ribe Landevej,6510,32A,8.936293,55.294034
1918587,Ribe Landevej,6510,34,8.926061,55.295756
1918917,Torvegade,6510,2,9.049519,55.288926
1918918,Torvegade,6510,4,9.049173,55.288898
1918919,Torvegade,6510,6,9.048677,55.289116
1918920,Torvegade,6510,6A,9.048511,55.289016
1918921,Torvegade,6510,8,9.048297,55.28925
1918922,Torvegade,6510,10,9.048163,55.289485
1918923,Torvegade,6510,12,9.047991,55.289602
1918924,Torvegade,6510,13,9.04794,55.289113
1918925,Torvegade,6510,14,9.04786,55.289767
1918926,Torvegade,6510,15,9.047648,55.289237
1918927,Torvegade,6510,16,9.048029,55.290007
1918928,Torvegade,6510,17,9.047628,55.289538
1918929,Torvegade,6510,18,9.047587,55.290092
1918930,Torvegade,6510,19,9.047439,55.289717
1918931,Torvegade,6510,20,9.047345,55.290336
1918932,Torvegade,6510,21,9.047316,55.289819
1918933,Torvegade,6510,22,9.047608,55.290535
1918934,Torvegade,6510,23,9.047196,55.28994
1918935,Torvegade,6510,24,9.047167,55.290744
1918936,Torvegade,6510,25,9.046604,55.289701
1918937,Torvegade,6510,26,9.046817,55.29058
1918938,Torvegade,6510,28,9.045688,55.291045
1918939,Torvegade,6510,30,9.045621,55.29107
1918940,Torvegade,6510,32,9.045511,55.291115
1918941,Torvegade,6510,34,9.045381,55.291187
1918942,Torvegade,6510,36,9.045302,55.291226
1918943,Torvegade,6510,38,9.045219,55.291263
1918944,Torvegade,6510,40,9.045086,55.291323
1918945,Torvegade,6510,42,9.04501,55.291362
1918946,Torvegade,6510,44,9.044925,55.291406
1918947,Torvegade,6510,46,9.04584,55.291158
1918948,Torvegade,6510,48,9.045892,55.291197
1918949,Torvegade,6510,50,9.045961,55.29125
1918950,Torvegade,6510,52,9.046029,55.291285
1918951,Torvegade,6510,54,9.046099,55.291333
1931612,Østergade,6510,1A,9.050605,55.288045
1931613,Østergade,6510,1B,9.05064,55.288085
1931614,Østergade,6510,1C,9.050777,55.288043
1931615,Østergade,6510,1D,9.050743,55.287999
1931616,Østergade,6510,1E,9.050645,55.288208
1931617,Østergade,6510,1F,9.050826,55.288208
1931618,Østergade,6510,1G,9.050665,55.288257
1931619,Østergade,6510,1H,9.050775,55.28817
1931620,Østergade,6510,2,9.050005,55.287766
1931621,Østergade,6510,3,9.050704,55.287813
1931622,Østergade,6510,4,9.049947,55.287765
1931623,Østergade,6510,5A,9.050729,55.287621
1931624,Østergade,6510,5B,9.050791,55.287566
1931625,Østergade,6510,5C,9.050884,55.287605
1931626,Østergade,6510,6,9.050517,55.28747
1931627,Østergade,6510,7,9.050942,55.287481
1931628,Østergade,6510,8,9.050739,55.287299
1931629,Østergade,6510,9,9.051414,55.287303
1931630,Østergade,6510,10,9.050915,55.287019
1931631,Østergade,6510,11,9.05156,55.286975
1931632,Østergade,6510,12,9.051201,55.286742
1931633,Østergade,6510,13,9.051826,55.287107
1931634,Østergade,6510,14,9.051464,55.286558
1931635,Østergade,6510,15,9.051865,55.286863
1931636,Østergade,6510,16,9.051759,55.28635
1931637,Østergade,6510,17,9.052295,55.286341
1931638,Østergade,6510,18,9.051954,55.286162
1931639,Østergade,6510,19,9.052489,55.28619
1931640,Østergade,6510,20,9.052225,55.28594
1931641,Østergade,6510,21,9.052851,55.286051
1931642,Østergade,6510,23A,9.053219,55.285919
1931643,Østergade,6510,23B,9.0533008,55.2858901
1931644,Østergade,6510,23C,9.053382,55.285861
1931645,Østergade,6510,24,9.052587,55.285647
1931646,Østergade,6510,25,9.053464,55.285832
1931647,Østergade,6510,26,9.052828,55.285498
1931648,Østergade,6510,27,9.053773,55.285681
1931649,Østergade,6510,28,9.053082,55.285395
1931650,Østergade,6510,29,9.05406,55.285569
1931651,Østergade,6510,30,9.053336,55.285285
1931652,Østergade,6510,31,9.054378,55.285437
1931653,Østergade,6510,32,9.053612,55.285178
1931654,Østergade,6510,33,9.054723,55.285331
1931655,Østergade,6510,34,9.053866,55.285033
1931656,Østergade,6510,35,9.05537,55.285038
1931657,Østergade,6510,37,9.055609,55.284945
1931658,Østergade,6510,37A,9.057038,55.284393
1931659,Østergade,6510,38,9.055154,55.284548
1931660,Østergade,6510,39A,9.058209,55.283804
1931661,Østergade,6510,39B,9.058474,55.283685
1931662,Østergade,6510,40,9.055501,55.284417
1931663,Østergade,6510,41,9.058731,55.283577
1931664,Østergade,6510,41A,9.05901,55.283475
1931665,Østergade,6510,42,9.055945,55.28423
1931666,Østergade,6510,43,9.059195,55.283355
1931668,Østergade,6510,43A,9.059319,55.28346
1931669,Østergade,6510,50,9.058524,55.283227
1931999,Folevej,6510,1,9.037426,55.301772
1932000,Folevej,6510,2C,9.041222,55.302788
1932001,Folevej,6510,3,9.032972,55.302249
1932002,Folevej,6510,4,9.038556,55.302119
1932003,Folevej,6510,5,9.031111,55.302089
1932004,Folevej,6510,6,9.035691,55.302653
1932005,Folevej,6510,7,9.028324,55.301539
1932006,Folevej,6510,8,9.023053,55.301968
1932007,Folevej,6510,9,9.025036,55.30161
1932008,Folevej,6510,10,9.018763,55.30236
1932009,Folevej,6510,11,8.998274,55.305451
1932010,Folevej,6510,12,9.009686,55.303992
1932011,Folevej,6510,13,8.995843,55.301883
1932012,Folevej,6510,13A,8.993466,55.301047
1932013,Folevej,6510,14,9.005104,55.306437
1932014,Folevej,6510,15,8.992181,55.309508
1932015,Folevej,6510,16,9.001283,55.30679
1932016,Folevej,6510,17,8.985777,55.313251
1932017,Folevej,6510,18,8.998542,55.308081
1932018,Folevej,6510,19,8.985575,55.313371
1932019,Folevej,6510,20,8.996574,55.309388
1932020,Folevej,6510,21,8.985309,55.313564
1932021,Folevej,6510,22,8.987275,55.313004
1932022,Folevej,6510,23,8.984969,55.313803
1932023,Folevej,6510,24,8.986079,55.313582
1932024,Folevej,6510,25,8.983347,55.314772
1932025,Folevej,6510,26,8.985751,55.313724
1932026,Folevej,6510,27,8.982407,55.314425
1932027,Folevej,6510,27A,8.982848,55.314265
1932028,Folevej,6510,28,8.985525,55.313879
1932029,Folevej,6510,29,8.982849,55.315022
1932030,Folevej,6510,30,8.985354,55.314037
1932031,Folevej,6510,32,8.984901,55.31433
1932032,Folevej,6510,33,8.981212,55.31534
1932033,Folevej,6510,34,8.984541,55.314539
1932034,Folevej,6510,35,8.981756,55.316142
1932035,Folevej,6510,36,8.984353,55.314722
1932036,Folevej,6510,37,8.980974,55.316319
1932037,Folevej,6510,38,8.984061,55.314875
1932038,Folevej,6510,39,8.979945,55.316657
1932040,Folevej,6510,40,8.983129,55.315481
1932042,Folevej,6510,41,8.979542,55.31673
1932045,Folevej,6510,42,8.982908,55.315604
1932048,Folevej,6510,43,8.979135,55.316779
1932049,Folevej,6510,44,8.982589,55.315827
1932052,Folevej,6510,45,8.978691,55.316567
1932054,Folevej,6510,46,8.981721,55.31669
1932055,Folevej,6510,47,8.978651,55.31697
1932056,Folevej,6510,48,8.980812,55.31663
1932057,Folevej,6510,50,8.980582,55.316688
1932058,Folevej,6510,52,8.980356,55.316748
1932059,Folevej,6510,54,8.979853,55.316874
1932060,Folevej,6510,56,8.979573,55.316969
1932061,Folevej,6510,58,8.979208,55.317078
1932062,Folevej,6510,60,8.978888,55.317225
1932063,Folevej,6510,62,8.978604,55.31731
1932064,Folevej,6510,64,8.978152,55.317448
1932065,Folevej,6510,66,8.968925,55.32179
1932117,Skipperkobbel,6510,1A,9.040656,55.289523
1932119,Skipperkobbel,6510,1B,9.040535,55.289559
1932120,Skipperkobbel,6510,2,9.039822,55.289597
1932121,Skipperkobbel,6510,3A,9.040638,55.289724
1932122,Skipperkobbel,6510,3B,9.040757,55.289688
1932123,Skipperkobbel,6510,3C,9.041046,55.289667
1932124,Skipperkobbel,6510,3D,9.041167,55.289631
1932125,Skipperkobbel,6510,4,9.039445,55.289655
1932126,Skipperkobbel,6510,5A,9.041411,55.289617
1932127,Skipperkobbel,6510,5B,9.041532,55.289581
1932128,Skipperkobbel,6510,5C,9.041821,55.289551
1932129,Skipperkobbel,6510,5D,9.041941,55.289515
1932130,Skipperkobbel,6510,6,9.039299,55.289309
1932131,Skipperkobbel,6510,7A,9.041326,55.289431
1932132,Skipperkobbel,6510,7B,9.041447,55.289396
1932133,Skipperkobbel,6510,8,9.039713,55.289247
1932134,Skipperkobbel,6510,9,9.041752,55.289121
1932135,Skipperkobbel,6510,10,9.039675,55.288912
1932136,Skipperkobbel,6510,11,9.041722,55.289
1932137,Skipperkobbel,6510,12,9.039121,55.288909
1932138,Skipperkobbel,6510,13,9.041634,55.288891
1932139,Skipperkobbel,6510,14,9.038967,55.28863
1932140,Skipperkobbel,6510,15,9.041213,55.288952
1932141,Skipperkobbel,6510,16,9.039397,55.288575
1932142,Skipperkobbel,6510,17,9.041259,55.289051
1932143,Skipperkobbel,6510,18,9.039362,55.288199
1932144,Skipperkobbel,6510,19,9.041328,55.289159
1932145,Skipperkobbel,6510,20,9.038917,55.288233
1932146,Skipperkobbel,6510,21,9.040843,55.289249
1932147,Skipperkobbel,6510,22,9.038766,55.287964
1932148,Skipperkobbel,6510,23,9.04077,55.289135
1932149,Skipperkobbel,6510,24,9.039196,55.287828
1932150,Skipperkobbel,6510,25,9.040768,55.289005
1932151,Skipperkobbel,6510,26,9.039039,55.287509
1932152,Skipperkobbel,6510,27,9.040287,55.289072
1932153,Skipperkobbel,6510,28,9.038599,55.287512
1932154,Skipperkobbel,6510,29,9.040404,55.289183
1932155,Skipperkobbel,6510,30,9.038473,55.287212
1932156,Skipperkobbel,6510,31,9.040436,55.289306
1932157,Skipperkobbel,6510,32,9.0389,55.287168
1932158,Skipperkobbel,6510,33,9.040169,55.288697
1932159,Skipperkobbel,6510,35,9.040228,55.288817
1932160,Skipperkobbel,6510,37,9.04023,55.288951
1932161,Skipperkobbel,6510,39,9.040703,55.288879
1932162,Skipperkobbel,6510,41,9.040604,55.288763
1932163,Skipperkobbel,6510,43,9.040547,55.288644
1932164,Skipperkobbel,6510,45,9.041075,55.28854
1932165,Skipperkobbel,6510,47,9.040937,55.288568
1932166,Skipperkobbel,6510,49,9.041053,55.288684
1932167,Skipperkobbel,6510,51,9.041101,55.288792
1932168,Skipperkobbel,6510,53,9.041475,55.288754
1932169,Skipperkobbel,6510,55,9.041648,55.288724
1932170,Skipperkobbel,6510,57,9.041386,55.288508
1932171,Skipperkobbel,6510,59,9.041522,55.288487
1932172,Skipperkobbel,6510,61,9.040031,55.288479
1932173,Skipperkobbel,6510,63,9.040186,55.28846
1932174,Skipperkobbel,6510,65,9.040304,55.288426
1932175,Skipperkobbel,6510,67,9.040546,55.288354
1932176,Skipperkobbel,6510,69,9.040641,55.288327
1932177,Skipperkobbel,6510,71,9.040747,55.288315
1932178,Skipperkobbel,6510,73,9.04103,55.288327
1932179,Skipperkobbel,6510,75,9.041162,55.288292
1932180,Skipperkobbel,6510,77,9.041293,55.288283
1932181,Skipperkobbel,6510,79,9.039902,55.288172
1932182,Skipperkobbel,6510,81,9.039987,55.288155
1932183,Skipperkobbel,6510,83,9.040118,55.28814
1932184,Skipperkobbel,6510,85,9.040376,55.288057
1932186,Skipperkobbel,6510,87,9.040479,55.288037
1932189,Skipperkobbel,6510,89,9.040601,55.288017
1932191,Skipperkobbel,6510,91,9.04088,55.288021
1932194,Skipperkobbel,6510,93,9.040984,55.287997
1932197,Skipperkobbel,6510,95,9.041105,55.28797
1932199,Skipperkobbel,6510,97,9.039712,55.28782
1932202,Skipperkobbel,6510,99,9.039881,55.287797
1932203,Skipperkobbel,6510,101,9.039998,55.287784
1932205,Skipperkobbel,6510,103,9.04022,55.28771
1932208,Skipperkobbel,6510,105,9.040337,55.28769
1932209,Skipperkobbel,6510,107,9.040452,55.287676
1932211,Skipperkobbel,6510,109,9.040714,55.287663
1932212,Skipperkobbel,6510,111,9.040815,55.287648
1932213,Skipperkobbel,6510,113,9.039561,55.287531
1932214,Skipperkobbel,6510,115,9.03968,55.2875
1932215,Skipperkobbel,6510,117,9.039816,55.287486
1932216,Skipperkobbel,6510,119,9.040052,55.287422
1932217,Skipperkobbel,6510,121,9.040132,55.287404
1932218,Skipperkobbel,6510,123,9.040269,55.287377
1932219,Skipperkobbel,6510,125,9.040539,55.287381
1932220,Skipperkobbel,6510,127,9.040664,55.287359
1932221,Skipperkobbel,6510,129,9.040802,55.287341
1932222,Skipperkobbel,6510,131,9.039368,55.287194
1932223,Skipperkobbel,6510,133,9.039521,55.287169
1932224,Skipperkobbel,6510,135,9.03968,55.287147
1932225,Skipperkobbel,6510,137,9.039813,55.287039
1932226,Skipperkobbel,6510,139,9.039968,55.287016
1932227,Skipperkobbel,6510,141,9.040108,55.286996
1932228,Skipperkobbel,6510,143,9.040266,55.286975
1934749,Åvej,6510,1,9.054277,55.295008
1934751,Åvej,6510,2A,9.053968,55.295302
1934753,Åvej,6510,2B,9.053965,55.29536
1934755,Åvej,6510,2C,9.054131,55.295322
1934756,Åvej,6510,2D,9.054017,55.29574
1934759,Åvej,6510,3A,9.053603,55.295058
1934761,Åvej,6510,3B,9.053049,55.295109
1934763,Åvej,6510,4,9.053403,55.295526
1934765,Åvej,6510,5,9.052621,55.295373
1934766,Åvej,6510,6,9.052958,55.295501
1934768,Åvej,6510,7A,9.052122,55.295379
1934770,Åvej,6510,7B,9.052006,55.29531
1934772,Åvej,6510,8,9.052573,55.295575
1934775,Åvej,6510,9,9.051722,55.295429
1934777,Åvej,6510,9A,9.051534,55.295388
1934778,Åvej,6510,10,9.052194,55.295607
1934782,Åvej,6510,11,9.051106,55.295512
1934783,Åvej,6510,12,9.051818,55.295744
1934787,Åvej,6510,13,9.050789,55.295482
1934788,Åvej,6510,14,9.051393,55.295738
1934791,Åvej,6510,15,9.050462,55.295572
1934794,Åvej,6510,15A,9.049672,55.295643
1934797,Åvej,6510,16,9.051007,55.295902
1934798,Åvej,6510,17,9.049323,55.29568
1934803,Åvej,6510,18,9.050667,55.295804
1934804,Åvej,6510,18A,9.05034,55.295935
1934808,Åvej,6510,18B,9.050382,55.296223
1934809,Åvej,6510,19,9.048991,55.295661
1934811,Åvej,6510,20,9.050003,55.295917
1934815,Åvej,6510,21,9.048718,55.295675
1934817,Åvej,6510,22,9.049649,55.295946
1934819,Åvej,6510,23,9.048284,55.295543
1934822,Åvej,6510,24,9.049269,55.296021
1934823,Åvej,6510,25,9.046643,55.295064
1934825,Åvej,6510,26,9.048843,55.296032
1934826,Åvej,6510,27,9.045965,55.294788
1934828,Åvej,6510,28,9.0485,55.29603
1934831,Åvej,6510,30,9.048169,55.295913
1934832,Åvej,6510,32,9.047908,55.295836
1934835,Åvej,6510,36,9.047303,55.295677
1934836,Åvej,6510,38,9.047063,55.295567
1934837,Åvej,6510,40,9.046784,55.295472
1934840,Åvej,6510,42,9.046418,55.29549
1934841,Åvej,6510,44,9.046235,55.295272
1934843,Åvej,6510,46,9.045686,55.295063
1934846,Åvej,6510,48,9.045301,55.295007
1934848,Åvej,6510,50,9.044863,55.294926
1934850,Åvej,6510,52,9.044557,55.294778
1934852,Åvej,6510,54,9.044158,55.294709
1934854,Åvej,6510,56,9.044318,55.294441
1935132,Tjørnebakken,6510,1,9.03602,55.285195
1935135,Tjørnebakken,6510,2,9.036729,55.285223
1935136,Tjørnebakken,6510,3,9.035675,55.285261
1935138,Tjørnebakken,6510,4,9.037282,55.285118
1935141,Tjørnebakken,6510,5,9.035357,55.285341
1935143,Tjørnebakken,6510,6,9.037617,55.285307
1935145,Tjørnebakken,6510,7,9.035284,55.285044
1935146,Tjørnebakken,6510,8,9.036998,55.285425
1935147,Tjørnebakken,6510,9,9.034459,55.284983
1935150,Tjørnebakken,6510,10,9.037063,55.285763
1935151,Tjørnebakken,6510,11,9.034024,55.285065
1935154,Tjørnebakken,6510,12,9.037785,55.285604
1935155,Tjørnebakken,6510,13,9.034646,55.285227
1935157,Tjørnebakken,6510,14,9.03823,55.285526
1935159,Tjørnebakken,6510,15,9.034712,55.285456
1935161,Tjørnebakken,6510,16,9.038725,55.285768
1935162,Tjørnebakken,6510,17,9.034754,55.285675
1935165,Tjørnebakken,6510,18,9.038367,55.285789
1935167,Tjørnebakken,6510,19,9.035133,55.285625
1935169,Tjørnebakken,6510,20,9.037965,55.285863
1935171,Tjørnebakken,6510,21,9.035495,55.285585
1935172,Tjørnebakken,6510,22,9.037621,55.285941
1935175,Tjørnebakken,6510,23,9.035866,55.285515
1935176,Tjørnebakken,6510,24,9.037192,55.28601
1935178,Tjørnebakken,6510,25,9.036174,55.285482
1935180,Tjørnebakken,6510,26,9.03744,55.286453
1935182,Tjørnebakken,6510,27,9.03644,55.285999
1935185,Tjørnebakken,6510,28,9.037826,55.286384
1935186,Tjørnebakken,6510,29,9.036093,55.286061
1935187,Tjørnebakken,6510,30,9.038294,55.286287
1935190,Tjørnebakken,6510,31,9.035665,55.286137
1935191,Tjørnebakken,6510,32,9.038765,55.286186
1935194,Tjørnebakken,6510,33,9.035261,55.286212
1935195,Tjørnebakken,6510,34,9.038785,55.286463
1935197,Tjørnebakken,6510,35,9.035567,55.286421
1935203,Tjørnebakken,6510,36,9.038426,55.286605
1935204,Tjørnebakken,6510,37,9.03593,55.286365
1935206,Tjørnebakken,6510,38,9.037958,55.286624
1935210,Tjørnebakken,6510,39,9.036256,55.286306
1935211,Tjørnebakken,6510,40,9.037621,55.286756
1935214,Tjørnebakken,6510,41,9.03666,55.286283
1935216,Tjørnebakken,6510,43,9.036835,55.286721
1935218,Tjørnebakken,6510,45,9.036418,55.286788
1935220,Tjørnebakken,6510,47,9.03607,55.286827
1935222,Tjørnebakken,6510,49,9.03631,55.287142
1935225,Tjørnebakken,6510,51,9.036703,55.287153
1935227,Tjørnebakken,6510,53,9.036985,55.287056
1936691,Brombærvej,6510,1,9.035081,55.289717
1936694,Brombærvej,6510,3,9.035584,55.28968
1936695,Brombærvej,6510,5,9.035899,55.289578
1936698,Brombærvej,6510,7,9.035664,55.289333
1936700,Brombærvej,6510,9,9.035268,55.289399
1936703,Brombærvej,6510,11,9.034826,55.289463
1936705,Brombærvej,6510,13,9.034567,55.289158
1936709,Brombærvej,6510,15,9.03506,55.289073
1936710,Brombærvej,6510,17,9.035473,55.289052
1936712,Brombærvej,6510,19,9.035813,55.288968
1936714,Brombærvej,6510,21,9.035699,55.288695
1936716,Brombærvej,6510,23,9.035234,55.288729
1936717,Brombærvej,6510,25,9.034799,55.288786
1936718,Brombærvej,6510,27,9.034359,55.288868
1936719,Brombærvej,6510,29,9.034169,55.2886
1936720,Brombærvej,6510,31,9.034657,55.28853
1936722,Brombærvej,6510,33,9.035002,55.288463
1936724,Brombærvej,6510,35,9.035523,55.288374
1936727,Brombærvej,6510,37,9.034328,55.288246
1936730,Brombærvej,6510,39,9.033966,55.288286
1936733,Brombærvej,6510,43,9.034233,55.287799
1936735,Brombærvej,6510,45,9.034662,55.287769
1936739,Brombærvej,6510,47,9.035502,55.287772
1936743,Brombærvej,6510,51,9.035966,55.287618
1936745,Brombærvej,6510,53,9.035768,55.287406
1936750,Brombærvej,6510,55,9.035334,55.287415
1936751,Brombærvej,6510,57,9.03501,55.287495
1936755,Brombærvej,6510,59,9.034604,55.287538
1936756,Brombærvej,6510,61,9.034246,55.287563
1936760,Brombærvej,6510,63,9.033893,55.2876
1936762,Brombærvej,6510,65,9.033401,55.287683
1936763,Brombærvej,6510,67,9.033184,55.287182
1936764,Brombærvej,6510,69,9.033702,55.287099
1936765,Brombærvej,6510,71,9.034233,55.287069
1936766,Brombærvej,6510,73,9.034787,55.287034
1936767,Brombærvej,6510,75,9.0352,55.286924
1936768,Brombærvej,6510,77,9.035047,55.286766
1936769,Brombærvej,6510,79,9.034546,55.286803
1936770,Brombærvej,6510,81,9.034068,55.286822
1936771,Brombærvej,6510,83,9.03357,55.286867
1936772,Brombærvej,6510,85,9.033138,55.286841
1937856,Skolekobbel,6510,1,9.053825,55.286099
1937858,Skolekobbel,6510,1A,9.054002,55.286262
1937861,Skolekobbel,6510,2,9.054243,55.286013
1937862,Skolekobbel,6510,3,9.054118,55.286372
1937865,Skolekobbel,6510,4,9.054471,55.286183
1937867,Skolekobbel,6510,5,9.05434,55.28655
1937869,Skolekobbel,6510,6,9.0546,55.286193
1937870,Skolekobbel,6510,7,9.054494,55.286673
1937873,Skolekobbel,6510,8,9.054751,55.286369
1937875,Skolekobbel,6510,9,9.05465,55.28681
1937877,Skolekobbel,6510,10,9.054872,55.286381
1937879,Skolekobbel,6510,11,9.05482,55.286937
1937882,Skolekobbel,6510,12,9.055013,55.286579
1937884,Skolekobbel,6510,13,9.054987,55.287067
1937889,Skolekobbel,6510,14,9.055128,55.286589
1937890,Skolekobbel,6510,15,9.055156,55.287198
1937893,Skolekobbel,6510,16,9.055277,55.286789
1937895,Skolekobbel,6510,17,9.055308,55.28732
1937900,Skolekobbel,6510,18,9.05539,55.286799
1937902,Skolekobbel,6510,19,9.055454,55.28747
1937906,Skolekobbel,6510,20,9.055544,55.286995
1937911,Skolekobbel,6510,21,9.055631,55.287636
1937912,Skolekobbel,6510,22,9.055657,55.287006
1937917,Skolekobbel,6510,22A,9.055739,55.287201
1937918,Skolekobbel,6510,23,9.055957,55.287791
1937924,Skolekobbel,6510,24,9.055965,55.287258
1937926,Skolekobbel,6510,25,9.055711,55.28794
1937928,Skolekobbel,6510,26,9.056047,55.287437
1937929,Skolekobbel,6510,27,9.055474,55.288012
1937932,Skolekobbel,6510,28,9.056234,55.287588
1937933,Skolekobbel,6510,29,9.05579,55.28834
1937936,Skolekobbel,6510,30,9.056675,55.287828
1937937,Skolekobbel,6510,31,9.0561,55.288213
1937939,Skolekobbel,6510,32,9.056765,55.287714
1937940,Skolekobbel,6510,33,9.056101,55.288042
1937943,Skolekobbel,6510,34,9.057096,55.287607
1937944,Skolekobbel,6510,35,9.056399,55.288368
1937947,Skolekobbel,6510,36,9.0573,55.287828
1937948,Skolekobbel,6510,38,9.057054,55.287928
1937951,Skolekobbel,6510,40,9.056858,55.288037
1937954,Skolekobbel,6510,42,9.057317,55.288436
1938846,Kirkealle,6510,1,9.046703,55.28807
1938848,Kirkealle,6510,3,9.04647,55.288173
1938850,Kirkealle,6510,3A,9.046487,55.28812
1938853,Kirkealle,6510,3B,9.0464,55.288226
1938857,Kirkealle,6510,4,9.047065,55.288363
1938858,Kirkealle,6510,5,9.04628,55.288274
1938860,Kirkealle,6510,6,9.046702,55.28839
1938862,Kirkealle,6510,7,9.04613,55.288359
1938864,Kirkealle,6510,8,9.046451,55.288527
1938866,Kirkealle,6510,9,9.045805,55.288476
1938868,Kirkealle,6510,10,9.046224,55.288642
1938870,Kirkealle,6510,11,9.045647,55.288614
1938872,Kirkealle,6510,12,9.045942,55.288787
1938874,Kirkealle,6510,13,9.045447,55.28871
1938877,Kirkealle,6510,14,9.045854,55.289046
1938879,Kirkealle,6510,14A,9.046043,55.289164
1938881,Kirkealle,6510,15,9.045213,55.28883
1938882,Kirkealle,6510,16,9.04536,55.289094
1938886,Kirkealle,6510,17,9.044968,55.28896
1938888,Kirkealle,6510,18,9.045143,55.28922
1938889,Kirkealle,6510,19,9.04476,55.289064
1938892,Kirkealle,6510,20,9.044887,55.289359
1938893,Kirkealle,6510,21,9.04453,55.289155
1938895,Kirkealle,6510,22A,9.044478,55.289819
1938898,Kirkealle,6510,22B,9.045629,55.290031
1938899,Kirkealle,6510,22C,9.045515,55.290099
1938901,Kirkealle,6510,22D,9.045612,55.290301
1938903,Kirkealle,6510,22E,9.04552,55.290386
1938905,Kirkealle,6510,22F,9.045785,55.290173
1938907,Kirkealle,6510,22G,9.045906,55.290229
1938909,Kirkealle,6510,22H,9.046007,55.290276
1938911,Kirkealle,6510,22K,9.046181,55.290379
1938913,Kirkealle,6510,22L,9.046055,55.290428
1938915,Kirkealle,6510,22M,9.045932,55.290489
1938918,Kirkealle,6510,23,9.044235,55.28926
1938920,Kirkealle,6510,24,9.043869,55.290085
1938922,Kirkealle,6510,25,9.043938,55.28933
1938923,Kirkealle,6510,26,9.042115,55.290675
1938926,Kirkealle,6510,27,9.043758,55.289368
1938927,Kirkealle,6510,29,9.043127,55.289494
1938929,Kirkealle,6510,31,9.042847,55.289485
1938932,Kirkealle,6510,33,9.0425,55.28956
1939678,Hasselvej,6510,1,9.037982,55.289819
1939687,Hasselvej,6510,2,9.037136,55.289797
1939689,Hasselvej,6510,3,9.038351,55.289761
1939693,Hasselvej,6510,4,9.036701,55.289837
1939696,Hasselvej,6510,5,9.038829,55.289714
1939699,Hasselvej,6510,6,9.036557,55.289488
1939702,Hasselvej,6510,7,9.038692,55.289433
1939704,Hasselvej,6510,8,9.037063,55.289533
1939707,Hasselvej,6510,9,9.038215,55.289482
1939711,Hasselvej,6510,10,9.036988,55.289192
1939714,Hasselvej,6510,11,9.037758,55.289506
1939720,Hasselvej,6510,12,9.036557,55.289222
1939723,Hasselvej,6510,13,9.037688,55.289243
1939730,Hasselvej,6510,14,9.036337,55.288985
1939737,Hasselvej,6510,15,9.03818,55.289162
1939740,Hasselvej,6510,16,9.036739,55.28887
1939743,Hasselvej,6510,17,9.03852,55.289073
1939746,Hasselvej,6510,18,9.036666,55.288554
1939749,Hasselvej,6510,19,9.038394,55.288811
1939754,Hasselvej,6510,20,9.03625,55.288573
1939756,Hasselvej,6510,21,9.038028,55.288842
1939759,Hasselvej,6510,22,9.036117,55.288352
1939760,Hasselvej,6510,23,9.037539,55.288896
1939761,Hasselvej,6510,24,9.036443,55.288252
1939762,Hasselvej,6510,25,9.037432,55.28862
1939763,Hasselvej,6510,27,9.037907,55.288545
1939764,Hasselvej,6510,29,9.038282,55.288501
1939765,Hasselvej,6510,31,9.038377,55.288198
1939768,Hasselvej,6510,33,9.038014,55.288227
1939769,Hasselvej,6510,35,9.037603,55.288274
1939770,Hasselvej,6510,37,9.037205,55.288301
1939771,Hasselvej,6510,39,9.037083,55.28802
1939772,Hasselvej,6510,41,9.037479,55.287945
1939774,Hasselvej,6510,43,9.037899,55.28789
1939778,Hasselvej,6510,45,9.038267,55.287865
1939779,Hasselvej,6510,47,9.037967,55.287579
1939783,Hasselvej,6510,49,9.037798,55.287338
1939785,Hasselvej,6510,51,9.037496,55.287631
1939789,Hasselvej,6510,53,9.037116,55.287692
1941721,Sønderbyvej,6510,1,9.049278,55.287252
1941722,Sønderbyvej,6510,2,9.048835,55.287412
1941725,Sønderbyvej,6510,3A,9.049507,55.287089
1941726,Sønderbyvej,6510,3B,9.049424,55.287039
1941728,Sønderbyvej,6510,5,9.049444,55.286935
1941730,Sønderbyvej,6510,6,9.048859,55.286869
1941732,Sønderbyvej,6510,7,9.049737,55.286798
1941733,Sønderbyvej,6510,8,9.048868,55.286664
1941735,Sønderbyvej,6510,9,9.049678,55.286551
1941737,Sønderbyvej,6510,10A,9.049249,55.286529
1941739,Sønderbyvej,6510,10B,9.049218,55.286398
1941742,Sønderbyvej,6510,11,9.04962,55.286146
1941743,Sønderbyvej,6510,12,9.049218,55.28628
1941744,Sønderbyvej,6510,13,9.049723,55.285961
1941745,Sønderbyvej,6510,14,9.048143,55.286261
1941749,Sønderbyvej,6510,15,9.049715,55.285796
1941750,Sønderbyvej,6510,16,9.049393,55.286058
1941752,Sønderbyvej,6510,16A,9.049407,55.285241
1941756,Sønderbyvej,6510,17A,9.049824,55.28551
1941757,Sønderbyvej,6510,17B,9.049887,55.285481
1941758,Sønderbyvej,6510,17C,9.049836,55.285439
1941759,Sønderbyvej,6510,18,9.049729,55.284698
1941762,Sønderbyvej,6510,19,9.04995,55.285042
1941766,Sønderbyvej,6510,20,9.049823,55.284521
1941767,Sønderbyvej,6510,21,9.050358,55.284533
1941770,Sønderbyvej,6510,23,9.050784,55.284021
1941773,Sønderbyvej,6510,24,9.046928,55.280831
1941777,Sønderbyvej,6510,25,9.050557,55.282689
1941779,Sønderbyvej,6510,26,9.046758,55.279947
1941781,Sønderbyvej,6510,27,9.048756,55.280532
1941784,Sønderbyvej,6510,28,9.048206,55.280187
1941786,Sønderbyvej,6510,29,9.049014,55.280206
1941790,Sønderbyvej,6510,31,9.050306,55.279937
1942836,Kastrup Bygade,6510,2,9.07732,55.267364
1942838,Kastrup Bygade,6510,3,9.078397,55.265404
1942840,Kastrup Bygade,6510,4,9.076185,55.266064
1942842,Kastrup Bygade,6510,5,9.078399,55.265196
1942845,Kastrup Bygade,6510,7,9.079305,55.264863
1942846,Kastrup Bygade,6510,8,9.077637,55.264837
1942849,Kastrup Bygade,6510,9,9.078464,55.264854
1942853,Kastrup Bygade,6510,10,9.07777,55.264463
1942858,Kastrup Bygade,6510,11,9.07856,55.264701
1942861,Kastrup Bygade,6510,12,9.077922,55.264243
1942865,Kastrup Bygade,6510,13,9.079833,55.264689
1942866,Kastrup Bygade,6510,14,9.077761,55.263745
1942868,Kastrup Bygade,6510,15,9.079422,55.264451
1942870,Kastrup Bygade,6510,16,9.077638,55.263364
1942872,Kastrup Bygade,6510,17,9.078574,55.264496
1942874,Kastrup Bygade,6510,18,9.074649,55.263764
1942875,Kastrup Bygade,6510,19,9.078552,55.264317
1942876,Kastrup Bygade,6510,19A,9.078549,55.264205
1942877,Kastrup Bygade,6510,19B,9.078561,55.264078
1942878,Kastrup Bygade,6510,20,9.072728,55.264239
1942879,Kastrup Bygade,6510,21,9.079228,55.263912
1942880,Kastrup Bygade,6510,23,9.078524,55.263673
1942881,Kastrup Bygade,6510,23B,9.078498,55.263175
1942882,Kastrup Bygade,6510,24,9.077434,55.262876
1942883,Kastrup Bygade,6510,25,9.078705,55.262908
1942884,Kastrup Bygade,6510,26,9.0777,55.262295
1942885,Kastrup Bygade,6510,27,9.07834,55.262522
1942886,Kastrup Bygade,6510,28,9.077683,55.262144
1942887,Kastrup Bygade,6510,29,9.078789,55.261932
1942888,Kastrup Bygade,6510,29A,9.078533,55.262106
1942889,Kastrup Bygade,6510,30,9.077604,55.261949
1942890,Kastrup Bygade,6510,31,9.077975,55.261119
1942891,Kastrup Bygade,6510,32,9.077693,55.260918
1943461,Stampemøllevej,6510,1,8.980357,55.316101
1943462,Stampemøllevej,6510,2,8.980449,55.316504
1943464,Stampemøllevej,6510,3,8.980025,55.315767
1943465,Stampemøllevej,6510,4,8.980225,55.316345
1943466,Stampemøllevej,6510,5,8.979907,55.315666
1943467,Stampemøllevej,6510,6,8.97996,55.316179
1943469,Stampemøllevej,6510,8,8.979533,55.315923
1943471,Stampemøllevej,6510,9,8.979574,55.315196
1943472,Stampemøllevej,6510,9A,8.978934,55.312648
1943474,Stampemøllevej,6510,11,8.977029,55.307579
1943475,Stampemøllevej,6510,12,8.97935,55.31551
1943476,Stampemøllevej,6510,13,8.975397,55.305912
1943478,Stampemøllevej,6510,14,8.979287,55.315343
1943480,Stampemøllevej,6510,15,8.966242,55.306336
1943481,Stampemøllevej,6510,16,8.979146,55.315262
1943483,Stampemøllevej,6510,17,8.963895,55.303977
1943485,Stampemøllevej,6510,18,8.979192,55.315015
1943486,Stampemøllevej,6510,20,8.979144,55.314793
1943487,Stampemøllevej,6510,21,8.951457,55.288395
1943488,Stampemøllevej,6510,22,8.979018,55.314365
1943489,Stampemøllevej,6510,24,8.978911,55.314117
1943490,Stampemøllevej,6510,26,8.978832,55.313696
1943491,Stampemøllevej,6510,28,8.976139,55.30862
1943492,Stampemøllevej,6510,30,8.964537,55.305889
1943493,Stampemøllevej,6510,30A,8.964597,55.306652
1943494,Stampemøllevej,6510,30B,8.963919,55.306819
1943495,Stampemøllevej,6510,32,8.963469,55.303903
1943496,Stampemøllevej,6510,34,8.959052,55.300903
1943501,Stampemøllevej,6510,38,8.953026,55.297393
1943502,Stampemøllevej,6510,40,8.952727,55.295654
1943505,Stampemøllevej,6510,42,8.949834,55.293341
1945008,Stensbækvej,6510,1A,8.96129,55.250359
1945011,Stensbækvej,6510,2,8.961611,55.250311
1945014,Stensbækvej,6510,3,8.96141,55.250727
1945016,Stensbækvej,6510,4,8.961746,55.250536
1945021,Stensbækvej,6510,5,8.961532,55.251101
1945024,Stensbækvej,6510,5A,8.956046,55.252551
1945032,Stensbækvej,6510,6,8.961786,55.25074
1945036,Stensbækvej,6510,7,8.961382,55.251515
1945040,Stensbækvej,6510,8,8.961865,55.250926
1945048,Stensbækvej,6510,9,8.961084,55.251652
1945052,Stensbækvej,6510,10,8.961912,55.251114
1945062,Stensbækvej,6510,11,8.960714,55.25184
1945065,Stensbækvej,6510,12,8.962215,55.25161
1945071,Stensbækvej,6510,12A,8.96187,55.2519
1945081,Stensbækvej,6510,12B,8.961533,55.252042
1945083,Stensbækvej,6510,13,8.96051,55.252056
1945088,Stensbækvej,6510,13A,8.960179,55.251943
1945090,Stensbækvej,6510,13B,8.959527,55.252285
1945093,Stensbækvej,6510,14B,8.960076,55.253441
1945095,Stensbækvej,6510,15,8.958078,55.253414
1945097,Stensbækvej,6510,16,8.960387,55.254043
1945100,Stensbækvej,6510,17,8.945623,55.25604
1945102,Stensbækvej,6510,19,8.957879,55.255006
1945105,Stensbækvej,6510,20,8.957196,55.26001
1945107,Stensbækvej,6510,20B,8.956024,55.262278
1945109,Stensbækvej,6510,20C,8.95642,55.26243
1945113,Stensbækvej,6510,21,8.955842,55.260889
1945114,Stensbækvej,6510,22,8.948473,55.284693
1945116,Stensbækvej,6510,23,8.953657,55.260925
1945117,Stensbækvej,6510,24,8.950031,55.286763
1945118,Stensbækvej,6510,25,8.951514,55.26157
1945119,Stensbækvej,6510,27,8.955403,55.262073
1945120,Stensbækvej,6510,29,8.954345,55.263519
1945121,Stensbækvej,6510,29A,8.953008,55.263279
1945122,Stensbækvej,6510,29B,8.953037,55.262942
1945123,Stensbækvej,6510,29C,8.953054,55.2626
1945124,Stensbækvej,6510,29D,8.953086,55.262314
1945125,Stensbækvej,6510,31,8.945116,55.279771
1945980,Christian Andersens Vej,6510,1,9.0488646,55.2926926
1945981,Christian Andersens Vej,6510,2,9.049405,55.2926349
1945982,Christian Andersens Vej,6510,3,9.0485302,55.2927618
1945983,Christian Andersens Vej,6510,4,9.049812,55.292604
1945984,Christian Andersens Vej,6510,5,9.048663,55.293108
1945985,Christian Andersens Vej,6510,6,9.049936,55.29304
1945988,Christian Andersens Vej,6510,7,9.049114,55.293175
1945990,Christian Andersens Vej,6510,8,9.049626,55.293053
1945991,Christian Andersens Vej,6510,9,9.049115,55.2934862
1945993,Christian Andersens Vej,6510,10,9.0497751,55.2934341
1945995,Christian Andersens Vej,6510,11,9.048817,55.2934575
1945997,Christian Andersens Vej,6510,12,9.0497448,55.2938655
1945999,Christian Andersens Vej,6510,13,9.0483867,55.2934232
1946000,Christian Andersens Vej,6510,14,9.0494275,55.2940669
1946002,Christian Andersens Vej,6510,15,9.0483525,55.2937683
1946003,Christian Andersens Vej,6510,16,9.0491481,55.2942798
1946005,Christian Andersens Vej,6510,17,9.048987,55.293867
1946007,Christian Andersens Vej,6510,18,9.0487992,55.294349
1946008,Christian Andersens Vej,6510,19,9.0486476,55.2939867
1946009,Christian Andersens Vej,6510,20,9.0483432,55.2944239
1946011,Christian Andersens Vej,6510,21,9.0481747,55.2941077
1946013,Christian Andersens Vej,6510,22,9.0479339,55.2945103
1946015,Christian Andersens Vej,6510,23,9.047812,55.294159
1946016,Christian Andersens Vej,6510,24,9.0475824,55.2945335
1946018,Christian Andersens Vej,6510,25,9.0473679,55.294223
1946019,Christian Andersens Vej,6510,26,9.0471459,55.2945854
1946021,Christian Andersens Vej,6510,27,9.0469792,55.2942577
1946023,Christian Andersens Vej,6510,28,9.046783,55.294642
1946025,Christian Andersens Vej,6510,29,9.046614,55.294313
1946026,Christian Andersens Vej,6510,30,9.0463485,55.2946547
1946027,Christian Andersens Vej,6510,31,9.0463179,55.2943442
1946029,Christian Andersens Vej,6510,33,9.0459828,55.2943846
1946031,Christian Andersens Vej,6510,35,9.0456496,55.2944077
1948327,Lindealle,6510,1,9.04208,55.286745
1948328,Lindealle,6510,2,9.042884,55.287087
1948329,Lindealle,6510,3,9.042155,55.286901
1948330,Lindealle,6510,4,9.043135,55.287341
1948331,Lindealle,6510,5,9.042235,55.287088
1948332,Lindealle,6510,6,9.043192,55.287531
1948333,Lindealle,6510,7,9.042301,55.287253
1948334,Lindealle,6510,8,9.043273,55.287697
1948335,Lindealle,6510,9,9.042383,55.28743
1948336,Lindealle,6510,10,9.043349,55.287906
1948337,Lindealle,6510,11,9.042468,55.287605
1948338,Lindealle,6510,12,9.043416,55.288098
1948339,Lindealle,6510,13,9.04255,55.287779
1948340,Lindealle,6510,14,9.043495,55.288286
1948341,Lindealle,6510,15,9.042588,55.287961
1948342,Lindealle,6510,16,9.043507,55.288485
1948343,Lindealle,6510,17,9.042698,55.288127
1948344,Lindealle,6510,18,9.043644,55.288678
1948345,Lindealle,6510,19,9.042775,55.288312
1948346,Lindealle,6510,20,9.043611,55.288862
1948347,Lindealle,6510,21,9.042839,55.288467
1948348,Lindealle,6510,22,9.043702,55.289001
1948349,Lindealle,6510,23,9.042838,55.288679
1948350,Lindealle,6510,25,9.042997,55.288821
1948351,Lindealle,6510,27,9.043014,55.289022
1948352,Lindealle,6510,29,9.043123,55.289177
1948353,Lindealle,6510,31,9.043312,55.28946
1948563,Nyvej,6510,1A,9.054989,55.285562
1948564,Nyvej,6510,1B,9.055222,55.285715
1948565,Nyvej,6510,2,9.055112,55.285188
1948566,Nyvej,6510,3,9.055445,55.285896
1948567,Nyvej,6510,4,9.055373,55.285373
1948568,Nyvej,6510,5,9.055651,55.28606
1948570,Nyvej,6510,6,9.055586,55.285547
1948572,Nyvej,6510,7,9.055898,55.28626
1948575,Nyvej,6510,8,9.055815,55.285732
1948579,Nyvej,6510,9,9.056131,55.286443
1948582,Nyvej,6510,10,9.056042,55.285907
1948585,Nyvej,6510,11,9.056238,55.286574
1948586,Nyvej,6510,12,9.056278,55.286096
1948587,Nyvej,6510,13,9.056526,55.286868
1948588,Nyvej,6510,14,9.056505,55.286281
1948589,Nyvej,6510,15,9.05679,55.286969
1948591,Nyvej,6510,16,9.056756,55.28647
1948592,Nyvej,6510,17,9.056991,55.287116
1948595,Nyvej,6510,18,9.056962,55.286634
1948596,Nyvej,6510,19,9.057183,55.287222
1948598,Nyvej,6510,20,9.057241,55.286775
1948601,Nyvej,6510,21,9.057389,55.287405
1948602,Nyvej,6510,22,9.057415,55.286918
1948610,Nyvej,6510,23,9.057665,55.287495
1948611,Nyvej,6510,24,9.057595,55.287062
1948614,Nyvej,6510,25,9.057871,55.287608
1948616,Nyvej,6510,26,9.057795,55.287182
1948617,Nyvej,6510,27,9.058042,55.287763
1948620,Nyvej,6510,28,9.058035,55.287309
1948621,Nyvej,6510,30,9.058237,55.287424
1952027,Hygumvej,6510,1,8.98205,55.316432
1952029,Hygumvej,6510,2A,8.982628,55.316122
1952032,Hygumvej,6510,2B,8.98287,55.316178
1952033,Hygumvej,6510,2C,8.982814,55.316097
1952037,Hygumvej,6510,3,8.982336,55.316319
1952039,Hygumvej,6510,4,8.983328,55.316226
1952043,Hygumvej,6510,5,8.983068,55.316619
1952047,Hygumvej,6510,6,8.983779,55.316627
1952049,Hygumvej,6510,7,8.983093,55.316854
1952053,Hygumvej,6510,9,8.982797,55.317341
1952054,Hygumvej,6510,10,8.985668,55.318233
1952056,Hygumvej,6510,11,8.981403,55.319217
1952057,Hygumvej,6510,12,8.983435,55.316985
1952058,Hygumvej,6510,12A,8.984177,55.317392
1952059,Hygumvej,6510,13,8.977489,55.3218
1952060,Hygumvej,6510,14,8.982944,55.317592
1952061,Hygumvej,6510,15,8.982457,55.32464
1952062,Hygumvej,6510,16,8.982532,55.318164
1952063,Hygumvej,6510,17,8.98297,55.325987
1952064,Hygumvej,6510,18,8.985389,55.327279
1952065,Hygumvej,6510,19,8.983108,55.327667
1952066,Hygumvej,6510,21,8.983333,55.33283
1952067,Hygumvej,6510,22,8.984115,55.334901
1952351,Stadionvej,6510,1,9.052038,55.286759
1952352,Stadionvej,6510,1A,9.052404,55.287056
1952353,Stadionvej,6510,2,9.052475,55.286739
1952354,Stadionvej,6510,4,9.052705,55.286913
1952355,Stadionvej,6510,5,9.052686,55.287256
1952356,Stadionvej,6510,6,9.053145,55.287261
1952357,Stadionvej,6510,7,9.052885,55.287414
1952358,Stadionvej,6510,8,9.053295,55.287384
1952359,Stadionvej,6510,9,9.053082,55.287567
1952360,Stadionvej,6510,10,9.053472,55.287524
1952361,Stadionvej,6510,11,9.053458,55.287875
1952362,Stadionvej,6510,12,9.053635,55.287646
1952363,Stadionvej,6510,13,9.053621,55.288015
1952364,Stadionvej,6510,14,9.053977,55.287914
1952365,Stadionvej,6510,15,9.052985,55.289246
1952366,Stadionvej,6510,15A,9.053536,55.288332
1952367,Stadionvej,6510,16,9.054251,55.288003
1952368,Stadionvej,6510,17,9.052681,55.288712
1952369,Stadionvej,6510,18,9.054403,55.2882
1952370,Stadionvej,6510,20,9.0546,55.288353
1952371,Stadionvej,6510,22,9.054826,55.288536
1952372,Stadionvej,6510,24,9.055046,55.288665
1952373,Stadionvej,6510,26,9.055239,55.288854
1952374,Stadionvej,6510,30,9.056564,55.289347
1952375,Stadionvej,6510,32,9.056169,55.289662
1952959,Udsigtsvejen,6510,1,9.081404,55.260872
1952960,Udsigtsvejen,6510,2,9.0823,55.261773
1952961,Udsigtsvejen,6510,3,9.080465,55.260576
1952962,Udsigtsvejen,6510,4,9.078872,55.261585
1952963,Udsigtsvejen,6510,5,9.080029,55.261028
1952964,Udsigtsvejen,6510,6,9.078206,55.261794
1952965,Udsigtsvejen,6510,7,9.078935,55.261219
1952966,Udsigtsvejen,6510,9,9.07671,55.261695
1952967,Udsigtsvejen,6510,10,9.066289,55.262141
1952969,Udsigtsvejen,6510,12,9.059698,55.263027
1952970,Udsigtsvejen,6510,13,9.059955,55.262198
1952972,Udsigtsvejen,6510,14,9.056505,55.263828
1952973,Udsigtsvejen,6510,15,9.050778,55.26432
1952975,Udsigtsvejen,6510,16,9.054403,55.264404
1952977,Udsigtsvejen,6510,17,9.045384,55.264872
1952979,Udsigtsvejen,6510,18,9.051201,55.265712
1952981,Udsigtsvejen,6510,19,9.033929,55.270226
1952983,Udsigtsvejen,6510,20,9.039089,55.268773
1952984,Udsigtsvejen,6510,22,9.039474,55.269272
1952987,Udsigtsvejen,6510,24,9.033614,55.27134
1953709,Brændstrupvej,6510,1,8.983483,55.315461
1953710,Brændstrupvej,6510,2A,8.98393,55.315069
1953711,Brændstrupvej,6510,2B,8.985197,55.314734
1953713,Brændstrupvej,6510,3,8.983954,55.315368
1953714,Brændstrupvej,6510,4,8.985612,55.314632
1953715,Brændstrupvej,6510,5,8.984375,55.315231
1953716,Brændstrupvej,6510,6,8.986046,55.314533
1953717,Brændstrupvej,6510,7,8.98484,55.315114
1953719,Brændstrupvej,6510,8,8.986469,55.314412
1953720,Brændstrupvej,6510,9,8.985293,55.314966
1953721,Brændstrupvej,6510,10,8.986303,55.314156
1953722,Brændstrupvej,6510,11,8.985809,55.314845
1953723,Brændstrupvej,6510,11A,8.986321,55.314772
1953725,Brændstrupvej,6510,11B,8.986317,55.314777
1953727,Brændstrupvej,6510,12,9.009222,55.313938
1953728,Brændstrupvej,6510,13,8.995826,55.315551
1953729,Brændstrupvej,6510,14,9.01506,55.317635
1953730,Brændstrupvej,6510,15,9.006938,55.314929
1953731,Brændstrupvej,6510,16,9.015922,55.32211
1953732,Brændstrupvej,6510,17,9.007694,55.321191
1953734,Brændstrupvej,6510,18A,9.020336,55.325129
1953736,Brændstrupvej,6510,18B,9.021227,55.324544
1953737,Brændstrupvej,6510,19,9.013864,55.319341
1953738,Brændstrupvej,6510,20,9.023281,55.325982
1953739,Brændstrupvej,6510,21,9.014497,55.321538
1953741,Brændstrupvej,6510,23,9.014811,55.324083
1953742,Brændstrupvej,6510,25,9.026247,55.329972
2002801,Østerled,6510,1,9.057303,55.284299
2002802,Østerled,6510,2,9.057691,55.284137
2002803,Østerled,6510,3,9.057461,55.284426
2002804,Østerled,6510,4,9.057939,55.284335
2002805,Østerled,6510,5,9.05775,55.284629
2002806,Østerled,6510,6,9.058174,55.284525
2002807,Østerled,6510,7,9.057844,55.284827
2002808,Østerled,6510,8,9.05837,55.284675
2002809,Østerled,6510,9,9.058115,55.284951
2002810,Østerled,6510,10,9.058522,55.284794
2002811,Østerled,6510,11,9.058309,55.285096
2002812,Østerled,6510,12,9.058855,55.285052
2002813,Østerled,6510,12A,9.059182,55.285314
2002814,Østerled,6510,13,9.058467,55.285223
2002815,Østerled,6510,13A,9.05865,55.285361
2002816,Østerled,6510,14,9.059531,55.285586
2002817,Østerled,6510,15,9.058801,55.285486
2002818,Østerled,6510,16,9.059637,55.28578
2002819,Østerled,6510,17,9.059101,55.285756
2002820,Østerled,6510,19,9.059261,55.285916
2002821,Østerled,6510,21,9.059394,55.286064
2003038,Skyttevej,6510,1,9.050407,55.294622
2003039,Skyttevej,6510,2,9.049853,55.295103
2003040,Skyttevej,6510,2A,9.052006,55.2952
2003041,Skyttevej,6510,3,9.05013,55.294592
2003042,Skyttevej,6510,4,9.049474,55.295083
2003043,Skyttevej,6510,5,9.049805,55.294703
2003044,Skyttevej,6510,6,9.049204,55.295091
2003045,Skyttevej,6510,7,9.049473,55.294603
2003046,Skyttevej,6510,8,9.048884,55.295143
2003047,Skyttevej,6510,9,9.049229,55.294782
2003048,Skyttevej,6510,10,9.048546,55.295227
2003049,Skyttevej,6510,11,9.048859,55.294837
2003050,Skyttevej,6510,12,9.048198,55.295229
2003051,Skyttevej,6510,13,9.048598,55.294865
2003052,Skyttevej,6510,14,9.047793,55.29529
2003053,Skyttevej,6510,15,9.048268,55.294893
2003054,Skyttevej,6510,16,9.047469,55.295317
2003055,Skyttevej,6510,17,9.047992,55.294956
2003056,Skyttevej,6510,19,9.047685,55.294995
2003057,Skyttevej,6510,21,9.047353,55.295031
2003058,Skyttevej,6510,23,9.047059,55.295073
2003796,Industrivej,6510,2,9.047377,55.28161
2003797,Industrivej,6510,3,9.044139,55.28116
2003799,Industrivej,6510,3A,9.044099,55.281136
2003801,Industrivej,6510,4,9.046761,55.281819
2003803,Industrivej,6510,5,9.039976,55.280964
2003806,Industrivej,6510,6,9.046443,55.281626
2003808,Industrivej,6510,7,9.039168,55.280881
2003809,Industrivej,6510,8,9.046009,55.281589
2003812,Industrivej,6510,9,9.038394,55.280868
2003813,Industrivej,6510,10,9.045617,55.281573
2003815,Industrivej,6510,11,9.037048,55.280744
2003817,Industrivej,6510,12,9.045224,55.281559
2003819,Industrivej,6510,14,9.044833,55.281544
2003821,Industrivej,6510,15,9.034027,55.281139
2003823,Industrivej,6510,16,9.043535,55.281608
2003825,Industrivej,6510,18,9.042815,55.281545
2003827,Industrivej,6510,20,9.042429,55.281583
2003829,Industrivej,6510,22,9.041943,55.281542
2003831,Industrivej,6510,26,9.040263,55.281379
2003833,Industrivej,6510,28,9.039848,55.281552
2003835,Industrivej,6510,30,9.039574,55.281783
2003836,Industrivej,6510,30A,9.0395722,55.2817396
2003837,Industrivej,6510,32,9.039506,55.281362
2003838,Industrivej,6510,34,9.037211,55.281255
2003839,Industrivej,6510,36,9.03665,55.281199
2004125,Blæsbjerg,6510,1,9.04593,55.285596
2004126,Blæsbjerg,6510,2,9.044723,55.286016
2004127,Blæsbjerg,6510,3,9.045635,55.285646
2004128,Blæsbjerg,6510,4,9.044399,55.286134
2004129,Blæsbjerg,6510,5,9.045309,55.285663
2004130,Blæsbjerg,6510,6,9.043706,55.285947
2004132,Blæsbjerg,6510,7,9.04498,55.285655
2004134,Blæsbjerg,6510,8,9.04335,55.285962
2004135,Blæsbjerg,6510,9,9.044593,55.285664
2004138,Blæsbjerg,6510,10,9.043063,55.285746
2004140,Blæsbjerg,6510,11,9.044289,55.285661
2004142,Blæsbjerg,6510,12,9.042703,55.285697
2004144,Blæsbjerg,6510,13,9.043882,55.285636
2004146,Blæsbjerg,6510,14,9.042435,55.285612
2004148,Blæsbjerg,6510,15,9.043605,55.285605
2004150,Blæsbjerg,6510,16,9.042036,55.285528
2004151,Blæsbjerg,6510,17,9.04332,55.285515
2004154,Blæsbjerg,6510,18,9.041799,55.285423
2004156,Blæsbjerg,6510,19,9.043028,55.285428
2004159,Blæsbjerg,6510,19A,9.042612,55.285314
2004162,Blæsbjerg,6510,21,9.041415,55.285185
2004539,Birkevej,6510,1,8.970408,55.249755
2004541,Birkevej,6510,2,8.970625,55.250025
2004544,Birkevej,6510,3,8.970092,55.249844
2004545,Birkevej,6510,4,8.970284,55.250098
2004547,Birkevej,6510,5,8.969794,55.249921
2004549,Birkevej,6510,6,8.970003,55.250173
2004551,Birkevej,6510,7,8.969484,55.249977
2004553,Birkevej,6510,8,8.969648,55.250258
2004554,Birkevej,6510,9,8.969111,55.250069
2004556,Birkevej,6510,10,8.969252,55.250334
2004559,Birkevej,6510,11,8.968807,55.250156
2004560,Birkevej,6510,12,8.96899,55.250423
2004562,Birkevej,6510,13,8.968472,55.250238
2004565,Birkevej,6510,14,8.96871,55.250496
2004566,Birkevej,6510,15,8.967783,55.250425
2004568,Birkevej,6510,16,8.968373,55.25059
2004571,Birkevej,6510,17,8.967287,55.250539
2004572,Birkevej,6510,18,8.968052,55.250676
2004574,Birkevej,6510,20,8.967689,55.250778
2004575,Birkevej,6510,22,8.967432,55.250799
2005054,Parkvej,6510,2,9.053403,55.290316
2005055,Parkvej,6510,3,9.053054,55.290546
2005057,Parkvej,6510,4,9.053574,55.290578
2005058,Parkvej,6510,5,9.053216,55.290737
2005060,Parkvej,6510,6,9.053812,55.290852
2005061,Parkvej,6510,7,9.053366,55.290924
2005062,Parkvej,6510,8,9.054018,55.291046
2005064,Parkvej,6510,9,9.053058,55.291285
2005065,Parkvej,6510,10,9.054194,55.291257
2005067,Parkvej,6510,11,9.053796,55.291291
2005069,Parkvej,6510,12,9.054344,55.291451
2005070,Parkvej,6510,13,9.053877,55.291589
2005072,Parkvej,6510,14,9.054629,55.291654
2005074,Parkvej,6510,15,9.053373,55.291733
2005075,Parkvej,6510,16,9.05471,55.29188
2005077,Parkvej,6510,18,9.054831,55.292014
2005078,Parkvej,6510,19,9.054388,55.292175
2005080,Parkvej,6510,21,9.054666,55.292374
2005082,Parkvej,6510,23,9.054148,55.292471
2005083,Parkvej,6510,25,9.054565,55.292622
2005409,Søndervang,6510,1,9.054726,55.284715
2005411,Søndervang,6510,2,9.053161,55.284969
2005415,Søndervang,6510,3,9.054507,55.284624
2005416,Søndervang,6510,4,9.052876,55.284962
2005420,Søndervang,6510,5,9.054404,55.284425
2005421,Søndervang,6510,6,9.052564,55.285023
2005426,Søndervang,6510,7,9.053984,55.284591
2005427,Søndervang,6510,8,9.052284,55.285061
2005431,Søndervang,6510,9,9.05361,55.284618
2005436,Søndervang,6510,10,9.051967,55.285224
2005437,Søndervang,6510,11,9.053424,55.284644
2005441,Søndervang,6510,12,9.05059,55.285058
2005442,Søndervang,6510,13,9.053048,55.284674
2005446,Søndervang,6510,15,9.052671,55.284692
2005449,Søndervang,6510,17,9.052331,55.284696
2005450,Søndervang,6510,19,9.052049,55.284751
2005454,Søndervang,6510,21,9.051695,55.284778
2005455,Søndervang,6510,23,9.051296,55.284804
2005648,Kirkebjergvej,6510,1,9.046326,55.290857
2005651,Kirkebjergvej,6510,2,9.047821,55.291198
2005652,Kirkebjergvej,6510,3,9.046132,55.291045
2005656,Kirkebjergvej,6510,4,9.048154,55.291124
2005658,Kirkebjergvej,6510,5,9.046485,55.291264
2005660,Kirkebjergvej,6510,6,9.048377,55.291312
2005664,Kirkebjergvej,6510,7,9.046916,55.291186
2005666,Kirkebjergvej,6510,8,9.048062,55.291514
2005668,Kirkebjergvej,6510,9,9.047202,55.291421
2005672,Kirkebjergvej,6510,10,9.048437,55.291866
2005674,Kirkebjergvej,6510,11,9.046959,55.291583
2005677,Kirkebjergvej,6510,12,9.048844,55.291852
2005679,Kirkebjergvej,6510,13,9.04721,55.291847
2005681,Kirkebjergvej,6510,14,9.049087,55.292078
2005683,Kirkebjergvej,6510,15,9.047796,55.291883
2005685,Kirkebjergvej,6510,16,9.048695,55.29226
2005688,Kirkebjergvej,6510,19,9.047491,55.292116
2005691,Kirkebjergvej,6510,21,9.047676,55.292306
2005694,Kirkebjergvej,6510,23,9.048031,55.292391
2008761,Ållingvej,6510,1A,8.978095,55.314718
2008770,Ållingvej,6510,1B,8.978218,55.314697
2008772,Ållingvej,6510,1C,8.978346,55.314687
2008778,Ållingvej,6510,1D,8.978473,55.31467
2008785,Ållingvej,6510,2,8.977419,55.314652
2008786,Ållingvej,6510,3,8.978176,55.314497
2008793,Ållingvej,6510,4,8.977372,55.314439
2008802,Ållingvej,6510,6,8.977296,55.31422
2008807,Ållingvej,6510,7,8.978065,55.314128
2008810,Ållingvej,6510,8,8.976816,55.314332
2008817,Ållingvej,6510,9,8.978126,55.313829
2008824,Ållingvej,6510,10,8.976639,55.314102
2008826,Ållingvej,6510,11,8.977741,55.31385
2008831,Ållingvej,6510,12,8.976989,55.31392
2008837,Ållingvej,6510,14,8.97736,55.313888
2009216,Postvænget,6510,2,9.050301,55.29301
2009224,Postvænget,6510,3,9.050138,55.293455
2009227,Postvænget,6510,4,9.050642,55.292944
2009230,Postvænget,6510,5,9.050562,55.293384
2009233,Postvænget,6510,6,9.050958,55.292865
2009235,Postvænget,6510,7,9.050988,55.293315
2009241,Postvænget,6510,8,9.051232,55.292854
2009245,Postvænget,6510,9,9.051289,55.29327
2009252,Postvænget,6510,10,9.051766,55.292697
2009260,Postvænget,6510,11,9.051678,55.293205
2009261,Postvænget,6510,12,9.05212,55.292627
2009267,Postvænget,6510,13,9.052111,55.293081
2009270,Postvænget,6510,14,9.052488,55.29257
2009274,Postvænget,6510,15A,9.052342,55.293032
2009277,Postvænget,6510,15B,9.052488,55.292996
2009278,Postvænget,6510,16,9.05278,55.292404
2009280,Postvænget,6510,17,9.052719,55.292877
2009282,Postvænget,6510,18,9.052964,55.292596
2009365,Rolighedsvej,6510,1,8.969857,55.248364
2009367,Rolighedsvej,6510,3,8.96994,55.248569
2009369,Rolighedsvej,6510,3A,8.969433,55.249067
2009371,Rolighedsvej,6510,3B,8.968903,55.249351
2009373,Rolighedsvej,6510,4,8.970421,55.248731
2009375,Rolighedsvej,6510,5,8.969973,55.248828
2009377,Rolighedsvej,6510,6,8.970434,55.248892
2009379,Rolighedsvej,6510,7,8.970044,55.249045
2009381,Rolighedsvej,6510,8,8.970799,55.249338
2009384,Rolighedsvej,6510,9,8.970162,55.249164
2009387,Rolighedsvej,6510,10,8.970728,55.249579
2009390,Rolighedsvej,6510,11,8.970253,55.24938
2009393,Rolighedsvej,6510,12,8.971077,55.249805
2009397,Rolighedsvej,6510,14,8.971214,55.250041
2009400,Rolighedsvej,6510,20,8.973033,55.252504
2009403,Rolighedsvej,6510,21,8.972527,55.252266
2009831,Margrethevej,6510,1,9.039363,55.286524
2009835,Margrethevej,6510,2,9.039368,55.285991
2009838,Margrethevej,6510,3,9.0398,55.286516
2009840,Margrethevej,6510,4,9.039451,55.286246
2009847,Margrethevej,6510,5,9.040279,55.286525
2009851,Margrethevej,6510,6,9.039867,55.286257
2009857,Margrethevej,6510,7,9.040716,55.286453
2009862,Margrethevej,6510,8,9.040216,55.286234
2009863,Margrethevej,6510,9,9.040732,55.28654
2009864,Margrethevej,6510,10,9.04057,55.286295
2009865,Margrethevej,6510,11,9.040735,55.286588
2009866,Margrethevej,6510,13,9.040745,55.286647
2009867,Margrethevej,6510,15,9.040747,55.286737
2009868,Margrethevej,6510,17,9.040769,55.28679
2009869,Margrethevej,6510,19,9.04077,55.286854
2009870,Margrethevej,6510,21,9.040783,55.286882
2011737,Skovvej,6510,1,9.00596,55.273949
2011738,Skovvej,6510,1A,9.005522,55.273953
2011739,Skovvej,6510,1B,9.005115,55.273718
2011741,Skovvej,6510,2,9.005954,55.27424
2011742,Skovvej,6510,3A,9.000623,55.27437
2011744,Skovvej,6510,3B,9.000438,55.274423
2011745,Skovvej,6510,4,9.005682,55.274252
2011746,Skovvej,6510,5,8.999252,55.272689
2011747,Skovvej,6510,6,9.005269,55.274304
2011748,Skovvej,6510,8,9.004785,55.274512
2011749,Skovvej,6510,10,9.004441,55.274405
2011750,Skovvej,6510,12,9.004221,55.274427
2011751,Skovvej,6510,14,9.003883,55.274608
2011752,Skovvej,6510,16,9.003529,55.274554
2011753,Skovvej,6510,18,9.003091,55.274678
2012060,Haderslevvej,6510,1,9.067415,55.278183
2012061,Haderslevvej,6510,1A,9.067753,55.277945
2012062,Haderslevvej,6510,2,9.06573,55.278965
2012063,Haderslevvej,6510,3,9.068058,55.277743
2012064,Haderslevvej,6510,4,9.070135,55.275695
2012065,Haderslevvej,6510,5,9.068525,55.277406
2012066,Haderslevvej,6510,6,9.0699,55.274501
2012067,Haderslevvej,6510,7,9.069105,55.27696
2012068,Haderslevvej,6510,8,9.070069,55.272674
2012069,Haderslevvej,6510,10,9.07237,55.271225
2012070,Haderslevvej,6510,10A,9.069175,55.267256
2012071,Haderslevvej,6510,11,9.071749,55.275013
2012072,Haderslevvej,6510,12,9.080045,55.264187
2012073,Haderslevvej,6510,13,9.075747,55.270806
2012074,Haderslevvej,6510,14,9.081013,55.264222
2012618,Solbakken,6510,1,9.051193,55.286411
2012621,Solbakken,6510,2,9.050725,55.286613
2012622,Solbakken,6510,3,9.051084,55.286145
2012625,Solbakken,6510,4,9.050604,55.286725
2012627,Solbakken,6510,5,9.051123,55.285945
2012630,Solbakken,6510,6,9.050536,55.286398
2012632,Solbakken,6510,7,9.051159,55.285789
2012633,Solbakken,6510,8,9.05057,55.286278
2012634,Solbakken,6510,9,9.051189,55.285651
2012635,Solbakken,6510,10,9.0506,55.286163
2012636,Solbakken,6510,11,9.051242,55.285441
2012637,Solbakken,6510,12,9.050633,55.28605
2012638,Solbakken,6510,13,9.051603,55.285243
2012640,Solbakken,6510,14,9.050673,55.285888
2012642,Solbakken,6510,16,9.050705,55.285774
2012648,Solbakken,6510,18,9.050748,55.285616
2012650,Solbakken,6510,20,9.050779,55.285498
2012654,Solbakken,6510,22,9.050806,55.285381
2012655,Solbakken,6510,24,9.050845,55.285219
2012656,Solbakken,6510,26,9.050872,55.285106
2012767,Winthersvej,6510,1,9.048284,55.285796
2012768,Winthersvej,6510,2,9.045608,55.286914
2012769,Winthersvej,6510,3,9.047332,55.285931
2012770,Winthersvej,6510,4,9.045593,55.286772
2012771,Winthersvej,6510,5,9.046485,55.286005
2012772,Winthersvej,6510,6,9.045574,55.286636
2012773,Winthersvej,6510,7,9.046504,55.285564
2012774,Winthersvej,6510,8,9.046073,55.285333
2012775,Winthersvej,6510,9,9.046596,55.285352
2012776,Winthersvej,6510,10,9.045558,55.285261
2012777,Winthersvej,6510,11,9.046935,55.285115
2012778,Winthersvej,6510,13,9.046936,55.284979
2012779,Winthersvej,6510,15,9.046748,55.284786
2012780,Winthersvej,6510,17,9.047046,55.284499
2012781,Winthersvej,6510,20,9.047642,55.281711
2012840,Vinkelvej,6510,1,8.968248,55.247719
2012842,Vinkelvej,6510,2,8.967026,55.24807
2012843,Vinkelvej,6510,2A,8.967231,55.248045
2012844,Vinkelvej,6510,3A,8.967447,55.247503
2012845,Vinkelvej,6510,3B,8.967572,55.247475
2012846,Vinkelvej,6510,3C,8.967694,55.247446
2012847,Vinkelvej,6510,3D,8.96781,55.247419
2012848,Vinkelvej,6510,3E,8.967929,55.247391
2012849,Vinkelvej,6510,3F,8.968056,55.247362
2012852,Vinkelvej,6510,4,8.966605,55.248211
2012857,Vinkelvej,6510,5,8.967223,55.247711
2012860,Vinkelvej,6510,7,8.966985,55.247747
2012863,Vinkelvej,6510,9,8.966621,55.247814
2012867,Vinkelvej,6510,11,8.966326,55.247877
2013699,Engvej,6510,1,9.015036,55.273806
2013700,Engvej,6510,2,9.014569,55.273802
2013702,Engvej,6510,3,9.014997,55.273613
2013703,Engvej,6510,5,9.014973,55.273266
2013704,Engvej,6510,6,9.014304,55.2729
2013705,Engvej,6510,7,9.015017,55.273018
2013708,Engvej,6510,9,9.01508,55.272759
2013709,Engvej,6510,10,9.014475,55.272409
2013710,Engvej,6510,13,9.015073,55.272238
2013714,Engvej,6510,15,9.01797,55.271304
2013716,Engvej,6510,17,9.015229,55.271679
2013718,Engvej,6510,20,9.009321,55.25429
2013722,Engvej,6510,21,9.01412,55.267369
2013723,Engvej,6510,21A,9.014273,55.266429
2016141,Jens Holms Vej,6510,1,9.04852,55.291012
2016142,Jens Holms Vej,6510,2,9.047404,55.290907
2016143,Jens Holms Vej,6510,3,9.048833,55.291148
2016144,Jens Holms Vej,6510,4,9.047802,55.290725
2016145,Jens Holms Vej,6510,5,9.048957,55.291348
2016146,Jens Holms Vej,6510,6,9.048092,55.290341
2016147,Jens Holms Vej,6510,7,9.049156,55.291696
2016148,Jens Holms Vej,6510,8,9.048278,55.290517
2016150,Jens Holms Vej,6510,8A,9.048491,55.290693
2016156,Jens Holms Vej,6510,9,9.04934,55.291887
2016161,Jens Holms Vej,6510,10,9.049828,55.291385
2016165,Jens Holms Vej,6510,11,9.049569,55.292112
2016168,Jens Holms Vej,6510,14,9.049982,55.291808
2018164,Hornsgårdvej,6510,1,9.029172,55.308143
2018167,Hornsgårdvej,6510,2,9.029948,55.307698
2018170,Hornsgårdvej,6510,3,9.021876,55.312769
2018173,Hornsgårdvej,6510,4,9.027541,55.31108
2018176,Hornsgårdvej,6510,5,9.020064,55.313375
2018178,Hornsgårdvej,6510,6,9.025845,55.31174
2018182,Hornsgårdvej,6510,7,9.018435,55.313675
2018183,Hornsgårdvej,6510,7A,9.01796,55.313639
2018184,Hornsgårdvej,6510,8,9.022602,55.314529
2018185,Hornsgårdvej,6510,9,9.016883,55.313618
2018186,Hornsgårdvej,6510,10,9.024961,55.31727
2018187,Hornsgårdvej,6510,12,9.021693,55.314749
2019494,Højvej,6510,1,9.047348,55.292976
2019495,Højvej,6510,2,9.048044,55.292891
2019496,Højvej,6510,3,9.047466,55.293221
2019498,Højvej,6510,4,9.048097,55.29317
2019499,Højvej,6510,5,9.047072,55.293277
2019500,Højvej,6510,6,9.047926,55.293503
2019501,Højvej,6510,7,9.046528,55.293071
2019503,Højvej,6510,8,9.047475,55.293642
2019505,Højvej,6510,10,9.047568,55.293837
2019506,Højvej,6510,12,9.047118,55.293966
2019507,Højvej,6510,14,9.046919,55.293706
2020258,Sankt Vincents Vej,6510,1,9.046858,55.292584
2020260,Sankt Vincents Vej,6510,3,9.047334,55.292462
2020262,Sankt Vincents Vej,6510,5,9.047146,55.292239
2020263,Sankt Vincents Vej,6510,7,9.04659,55.292268
2020264,Sankt Vincents Vej,6510,9,9.046358,55.292036
2020265,Sankt Vincents Vej,6510,11,9.046808,55.291944
2020266,Sankt Vincents Vej,6510,13,9.046391,55.291664
2020267,Sankt Vincents Vej,6510,15,9.045975,55.291777
2020268,Sankt Vincents Vej,6510,17,9.045439,55.291565
2020269,Sankt Vincents Vej,6510,19,9.045332,55.291498
2020270,Sankt Vincents Vej,6510,21,9.045214,55.29141
2020271,Sankt Vincents Vej,6510,23,9.045697,55.291564
2020272,Sankt Vincents Vej,6510,25,9.045833,55.291502
2020273,Sankt Vincents Vej,6510,27,9.045969,55.29145
2020552,Ved Banen,6510,1,9.043334,55.293468
2020553,Ved Banen,6510,2,9.042806,55.293577
2020554,Ved Banen,6510,3,9.043042,55.29321
2020555,Ved Banen,6510,4,9.04253,55.293354
2020556,Ved Banen,6510,5,9.043662,55.293245
2020557,Ved Banen,6510,6,9.042088,55.293263
2020558,Ved Banen,6510,7,9.043534,55.292957
2020559,Ved Banen,6510,8,9.042476,55.293
2020560,Ved Banen,6510,10,9.042944,55.292741
2020561,Ved Banen,6510,12,9.043281,55.292485
2021205,Martin Reimers Vej,6510,1,9.045729,55.292284
2021206,Martin Reimers Vej,6510,2,9.04609,55.292665
2021207,Martin Reimers Vej,6510,3,9.045378,55.292402
2021208,Martin Reimers Vej,6510,4,9.04575,55.292747
2021209,Martin Reimers Vej,6510,5,9.044968,55.29251
2021210,Martin Reimers Vej,6510,6,9.045383,55.29284
2021211,Martin Reimers Vej,6510,7,9.044522,55.292644
2021212,Martin Reimers Vej,6510,8,9.04494,55.292943
2021213,Martin Reimers Vej,6510,9,9.044165,55.292838
2021214,Martin Reimers Vej,6510,10,9.044433,55.293052
2021619,Fabriksvej,6510,1,9.053774,55.294189
2021620,Fabriksvej,6510,2,9.053745,55.294447
2021621,Fabriksvej,6510,5,9.052903,55.294375
2021622,Fabriksvej,6510,7A,9.052026,55.294118
2021623,Fabriksvej,6510,7C,9.051913,55.293725
2021624,Fabriksvej,6510,15,9.051691,55.294419
2021625,Fabriksvej,6510,17,9.050819,55.294547
2022206,Østergård,6510,1,9.060247,55.282537
2022207,Østergård,6510,2,9.059259,55.282755
2022208,Østergård,6510,2A,9.058719,55.282758
2022209,Østergård,6510,3,9.060487,55.282324
2022210,Østergård,6510,4,9.059886,55.282312
2022211,Østergård,6510,4A,9.059877,55.282275
2022212,Østergård,6510,4B,9.059777,55.282222
2022213,Østergård,6510,6,9.060031,55.282186
2022214,Østergård,6510,8,9.060762,55.281503
2022215,Østergård,6510,10,9.06119,55.281822
2022443,Vestermarksvej,6510,1,8.978271,55.314973
2022444,Vestermarksvej,6510,2,8.976198,55.314943
2022445,Vestermarksvej,6510,3,8.977535,55.314906
2022446,Vestermarksvej,6510,4,8.964587,55.317726
2022447,Vestermarksvej,6510,5,8.977027,55.314804
2022448,Vestermarksvej,6510,5A,8.976743,55.314639
2022449,Vestermarksvej,6510,6,8.962593,55.319229
2022450,Vestermarksvej,6510,7,8.972708,55.315049
2022451,Vestermarksvej,6510,8,8.960922,55.320405
2022472,Gammel Kirkevej,6510,1,9.01263,55.274601
2022474,Gammel Kirkevej,6510,3,9.013512,55.274639
2022475,Gammel Kirkevej,6510,5,9.013671,55.275083
2022477,Gammel Kirkevej,6510,7,9.013828,55.275232
2022478,Gammel Kirkevej,6510,9,9.013983,55.275454
2022480,Gammel Kirkevej,6510,11,9.014662,55.276155
2022481,Gammel Kirkevej,6510,13,9.01518,55.27582
2022483,Gammel Kirkevej,6510,15,9.016601,55.281454
2022516,Toften,6510,1,8.982279,55.317249
2022518,Toften,6510,2,8.982151,55.317761
2022520,Toften,6510,3,8.981996,55.317411
2022522,Toften,6510,4,8.981745,55.317684
2022523,Toften,6510,5,8.981554,55.317315
2022524,Toften,6510,6,8.981262,55.317545
2022525,Toften,6510,7,8.981168,55.317226
2022526,Toften,6510,8,8.980898,55.317412
2022527,Toften,6510,9,8.980741,55.317083
2022684,Torvet,6510,1,9.048637,55.288022
2022686,Torvet,6510,2A,9.049117,55.288045
2022687,Torvet,6510,2B,9.049263,55.288053
2022689,Torvet,6510,3,9.048536,55.288107
2022691,Torvet,6510,4,9.048805,55.288534
2022692,Torvet,6510,7,9.047862,55.288331
2022693,Torvet,6510,9,9.048015,55.288664
2022695,Torvet,6510,11,9.047706,55.288851
2022777,Tjellesen Schmidts Vej,6510,1,9.003843,55.275267
2022784,Tjellesen Schmidts Vej,6510,2,9.00317,55.275061
2022786,Tjellesen Schmidts Vej,6510,3,9.004297,55.275233
2022789,Tjellesen Schmidts Vej,6510,4,9.003563,55.275036
2022791,Tjellesen Schmidts Vej,6510,6,9.004032,55.274991
2022792,Tjellesen Schmidts Vej,6510,8,9.004398,55.274997
2022793,Tjellesen Schmidts Vej,6510,10,9.004849,55.274966
2022794,Tjellesen Schmidts Vej,6510,12,9.005267,55.274918
2022795,Tjellesen Schmidts Vej,6510,14,9.005741,55.274883
2024162,Vandværksvej,6510,1,8.969912,55.246519
2024167,Vandværksvej,6510,3,8.970203,55.246508
2024170,Vandværksvej,6510,4,8.97038,55.24627
2024173,Vandværksvej,6510,5,8.970445,55.246502
2024176,Vandværksvej,6510,6,8.970946,55.246321
2024177,Vandværksvej,6510,7,8.970934,55.246519
2024178,Vandværksvej,6510,8,8.971578,55.246357
2024179,Vandværksvej,6510,9,8.971242,55.246533
2024196,Flyevej,6510,1,9.005954,55.275123
2024197,Flyevej,6510,2,9.006526,55.275325
2024198,Flyevej,6510,3,9.005386,55.275203
2024199,Flyevej,6510,4,9.006081,55.275406
2024200,Flyevej,6510,5,9.005091,55.275366
2024201,Flyevej,6510,7,9.004779,55.275446
2024203,Flyevej,6510,9,9.004332,55.275498
2024206,Flyevej,6510,11,9.003928,55.27566
2024209,Flyevej,6510,13,9.003537,55.275737
2024645,Smedevænget,6510,1,8.970622,55.247373
2024647,Smedevænget,6510,3,8.970749,55.247558
2024648,Smedevænget,6510,5,8.970935,55.247723
2024649,Smedevænget,6510,7,8.970801,55.247788
2024650,Smedevænget,6510,9,8.971262,55.247827
2024652,Smedevænget,6510,11,8.971118,55.2479
2024657,Smedevænget,6510,13,8.97161,55.247904
2024658,Smedevænget,6510,15,8.971524,55.248011
2024686,Skovløkkevej,6510,1,9.006318,55.274292
2024689,Skovløkkevej,6510,1A,9.006468,55.274633
2024690,Skovløkkevej,6510,3,9.00634,55.275052
2024691,Skovløkkevej,6510,4,9.007307,55.274659
2024692,Skovløkkevej,6510,5,9.007138,55.276762
2024693,Skovløkkevej,6510,6,9.007309,55.2759978
2024694,Skovløkkevej,6510,7,9.008429,55.279586
2024695,Skovløkkevej,6510,9,9.009472,55.284898
2025117,Præstegårdsvej,6510,1,8.982308,55.315089
2025120,Præstegårdsvej,6510,2,8.982263,55.315302
2025122,Præstegårdsvej,6510,5,8.981689,55.314722
2025123,Præstegårdsvej,6510,7,8.981577,55.314258
2025124,Præstegårdsvej,6510,9,8.981186,55.314648
2025125,Præstegårdsvej,6510,11,8.980371,55.314555
2025147,Lærkevej,6510,1,8.968264,55.249991
2025149,Lærkevej,6510,2,8.967778,55.250079
2025150,Lærkevej,6510,3,8.968117,55.249803
2025153,Lærkevej,6510,4,8.967653,55.249927
2025154,Lærkevej,6510,5,8.967953,55.249597
2025156,Lærkevej,6510,6,8.967445,55.249712
2025157,Lærkevej,6510,7,8.967844,55.249433
2025158,Lærkevej,6510,8,8.967347,55.249558
2025473,Jenningvej,6510,1,9.052004,55.277885
2025475,Jenningvej,6510,2,9.055179,55.273452
2025479,Jenningvej,6510,3,9.05567,55.27449
2025481,Jenningvej,6510,4,9.053225,55.272467
2025483,Jenningvej,6510,5,9.061819,55.271372
2025484,Jenningvej,6510,7,9.062751,55.27503
2025485,Jenningvej,6510,9,9.066825,55.274534
2025486,Jenningvej,6510,11,9.067075,55.274723
2025737,Enderupskov Byvej,6510,1,8.949024,55.28461
2025738,Enderupskov Byvej,6510,2,8.949017,55.284074
2025739,Enderupskov Byvej,6510,3,8.950236,55.284435
2025740,Enderupskov Byvej,6510,4,8.950849,55.284166
2025741,Enderupskov Byvej,6510,6,8.951779,55.283355
2025742,Enderupskov Byvej,6510,6A,8.953787,55.283107
2025743,Enderupskov Byvej,6510,8,8.951673,55.284138
2026070,Ved Majen,6510,1,9.078787,55.260808
2026072,Ved Majen,6510,2,9.078579,55.26133
2026074,Ved Majen,6510,4,9.078481,55.261072
2026076,Ved Majen,6510,6,9.078472,55.260688
2026077,Ved Majen,6510,10,9.078583,55.260073
2026078,Ved Majen,6510,12,9.078576,55.259963
2026079,Ved Majen,6510,14,9.07895,55.259688
2026127,Tårnvej,6510,1,9.054127,55.290245
2026128,Tårnvej,6510,2,9.052525,55.290064
2026129,Tårnvej,6510,3,9.054327,55.290383
2026130,Tårnvej,6510,4,9.053032,55.290033
2026131,Tårnvej,6510,5,9.055154,55.290648
2026132,Tårnvej,6510,6,9.053992,55.289914
2026133,Tårnvej,6510,8,9.054159,55.289861
2026736,Persillegade,6510,1,9.080328,55.261741
2026737,Persillegade,6510,3,9.08053,55.26234
2026738,Persillegade,6510,5,9.080215,55.262367
2026739,Persillegade,6510,7,9.080561,55.262846
2026740,Persillegade,6510,9,9.08073,55.263058
2026741,Teglværksvej,6510,1,8.960434,55.252739
2026742,Persillegade,6510,11,9.080817,55.263335
2026743,Teglværksvej,6510,2,8.96073,55.252379
2026744,Teglværksvej,6510,3,8.960499,55.252935
2026745,Persillegade,6510,13,9.080977,55.263779
2026746,Teglværksvej,6510,4,8.96084,55.252676
2026747,Teglværksvej,6510,5,8.96077,55.253579
2026748,Teglværksvej,6510,6,8.960941,55.252938
2026749,Teglværksvej,6510,8,8.961031,55.253192
2026750,Teglværksvej,6510,10,8.96116,55.253543
2027128,H.P. Sørensens Vej,6510,1,9.044866,55.291684
2027129,H.P. Sørensens Vej,6510,2,9.045372,55.292054
2027130,H.P. Sørensens Vej,6510,3,9.044603,55.291782
2027133,H.P. Sørensens Vej,6510,4,9.045003,55.292165
2027134,H.P. Sørensens Vej,6510,5,9.044272,55.291946
2027135,H.P. Sørensens Vej,6510,6,9.044614,55.292264
2027136,H.P. Sørensens Vej,6510,8,9.044169,55.292371
2027141,Følsterengen,6510,1,9.041906,55.294372
2027142,Følsterengen,6510,2,9.042229,55.29459
2027144,Følsterengen,6510,3,9.041102,55.293971
2027145,Følsterengen,6510,4,9.042663,55.294723
2027146,Følsterengen,6510,5,9.040785,55.294116
2027147,Følsterengen,6510,6,9.043026,55.294928
2027149,Følsterengen,6510,7,9.040477,55.294273
2027150,Følsterengen,6510,8,9.043307,55.295013
2027152,Følsterengen,6510,9,9.040933,55.294495
2027153,Følsterengen,6510,10,9.043684,55.294912
2027154,Følsterengen,6510,11,9.041286,55.294752
2027156,Følsterengen,6510,12,9.044023,55.295
2027157,Følsterengen,6510,14,9.044065,55.29493
2027158,Følsterengen,6510,16,9.044222,55.295143
2027160,Følsterengen,6510,18,9.044063,55.295234
2027162,Følsterengen,6510,20,9.043889,55.295501
2027163,Følsterengen,6510,22,9.043819,55.295391
2027164,Følsterengen,6510,24,9.04325,55.29543
2027166,Følsterengen,6510,26,9.043332,55.295381
2027168,Følsterengen,6510,28,9.042902,55.295434
2027169,Følsterengen,6510,30,9.042537,55.295295
2027170,Følsterengen,6510,32,9.042107,55.295037
2027172,Følsterengen,6510,34,9.041872,55.294777
2027239,Kløvermarken,6510,1,9.042879,55.294303
2027240,Kløvermarken,6510,2,9.043326,55.294112
2027241,Kløvermarken,6510,4,9.043596,55.293924
2027242,Kløvermarken,6510,6,9.043799,55.29374
2027243,Kløvermarken,6510,8,9.044039,55.29413
2027244,Kløvermarken,6510,10,9.043807,55.294321
2027245,Kløvermarken,6510,11,9.043483,55.294565
2027246,Bakkevej,6510,1,9.04909,55.289268
2027247,Bakkevej,6510,2,9.049493,55.289168
2027248,Bakkevej,6510,3,9.048954,55.289426
2027249,Bakkevej,6510,4,9.049532,55.289317
2027250,Bakkevej,6510,5,9.048698,55.289777
2027251,Bakkevej,6510,6,9.049722,55.289406
2027252,Bakkevej,6510,7,9.049494,55.289653
2027532,Brockenhuus-Schacks Vej,6510,2,9.052049,55.292344
2027533,Brockenhuus-Schacks Vej,6510,4,9.051813,55.291877
2027534,Brockenhuus-Schacks Vej,6510,4A,9.052005,55.292058
2027535,Brockenhuus-Schacks Vej,6510,4B,9.051593,55.291992
2027536,Brockenhuus-Schacks Vej,6510,6,9.051198,55.292084
2028194,Marbækvej,6510,2,9.047882,55.279465
2028195,Marbækvej,6510,3,9.045223,55.273334
2028196,Marbækvej,6510,4,9.044202,55.272525
2028197,Marbækvej,6510,5,9.049486,55.268282
2028198,Marbækvej,6510,6,9.044617,55.267104
2028311,Kalveløkken,6510,1,9.042362,55.293898
2028312,Kalveløkken,6510,2,9.042094,55.294144
2028313,Kalveløkken,6510,3,9.042146,55.293692
2028315,Kalveløkken,6510,4,9.041721,55.293902
2028316,Kalveløkken,6510,5,9.041785,55.293445
2028317,Kalveløkken,6510,6,9.041326,55.293704
2028332,Landbomarken,6510,1,8.993715,55.273807
2028333,Landbomarken,6510,3,8.991273,55.275562
2028334,Landbomarken,6510,3A,8.988838,55.270291
2028335,Landbomarken,6510,4,8.983894,55.277701
2028336,Landbomarken,6510,5,8.986869,55.275432
2028337,Landbomarken,6510,6,8.979616,55.279593
2028338,Landbomarken,6510,7,8.985407,55.276526
2028379,Gammel Skjoldagervej,6510,1,9.059998,55.283459
2028382,Gammel Skjoldagervej,6510,3,9.06026,55.283604
2028384,Gammel Skjoldagervej,6510,5,9.060501,55.283713
2028385,Gammel Skjoldagervej,6510,7,9.060735,55.283779
2028386,Gammel Skjoldagervej,6510,9,9.061026,55.283871
2028868,Brogårdvej,6510,1,8.978572,55.28851
2028871,Brogårdvej,6510,1A,8.977173,55.289563
2028872,Brogårdvej,6510,2,8.985033,55.29025
2028873,Brogårdvej,6510,3,8.969303,55.289731
2028874,Brogårdvej,6510,4,8.984424,55.299071
2028876,Brogårdvej,6510,5,8.965472,55.292293
2028878,Brogårdvej,6510,6,8.98233,55.298693
2028879,Brogårdvej,6510,7,8.958366,55.29634
2028983,Østervej,6510,1,9.055366,55.292316
2028984,Østervej,6510,1A,9.054736,55.293666
2028985,Østervej,6510,3,9.055603,55.292149
2028986,Østervej,6510,5,9.057536,55.289192
2029029,Tværvej,6510,1,8.97117,55.249032
2029032,Tværvej,6510,2,8.971713,55.249017
2029033,Tværvej,6510,3,8.970896,55.249095
2029035,Tværvej,6510,4,8.971382,55.249193
2029036,Tværvej,6510,5,8.970633,55.249234
2029068,Troldhøj,6510,1,9.051114,55.291787
2029070,Troldhøj,6510,2,9.050421,55.291919
2029073,Troldhøj,6510,3,9.050881,55.291641
2029075,Troldhøj,6510,5,9.050857,55.291404
2029079,Troldhøj,6510,6,9.050211,55.291508
2029094,Voddergårdvej,6510,1,9.007735,55.278974
2029095,Voddergårdvej,6510,2,9.006341,55.280176
2029096,Voddergårdvej,6510,3,9.005193,55.280333
2029097,Voddergårdvej,6510,4,9.004895,55.281304
2029098,Voddergårdvej,6510,5,9.0019,55.28233
2029113,Torntvedvej,6510,1,8.971292,55.312201
2029114,Torntvedvej,6510,2,8.952315,55.316858
2029115,Torntvedvej,6510,3,8.961635,55.311645
2029116,Torntvedvej,6510,5,8.955205,55.314084
2029117,Torntvedvej,6510,7,8.949421,55.316695
2029213,Præsteskovvej,6510,1,8.985215,55.320305
2029217,Præsteskovvej,6510,2,8.983673,55.319185
2029218,Præsteskovvej,6510,3,8.990499,55.32613
2029224,Præsteskovvej,6510,3A,8.991081,55.326522
2029226,Præsteskovvej,6510,4,8.996656,55.32592
2029267,Rådhusstræde,6510,1,9.045523,55.287758
2029269,Rådhusstræde,6510,2,9.046019,55.288135
2029270,Rådhusstræde,6510,3A,9.045644,55.288013
2029271,Rådhusstræde,6510,3B,9.045324,55.287935
2029432,Mejerivej,6510,2,8.965989,55.248293
2029433,Mejerivej,6510,3,8.966143,55.247501
2029434,Mejerivej,6510,4,8.96581,55.247796
2029435,Mejerivej,6510,6,8.965481,55.247643
2029436,Mejerivej,6510,7,8.965551,55.246515
2029726,Bjerglundsvej,6510,1,8.965992,55.249142
2029728,Bjerglundsvej,6510,4,8.966654,55.249725
2029730,Bjerglundsvej,6510,6,8.966749,55.249957
2029732,Bjerglundsvej,6510,8,8.966969,55.250283
2029734,Bjerglundsvej,6510,10,8.968923,55.253299
2029756,Vænget,6510,2,9.053172,55.286617
2029757,Vænget,6510,4,9.053221,55.28656
2029758,Vænget,6510,6,9.053323,55.286516
2029759,Vænget,6510,8,9.053425,55.286493
2029760,Vænget,6510,10,9.05344,55.28684
2029761,Vænget,6510,12,9.05349,55.286778
2029762,Vænget,6510,14,9.053583,55.286741
2029764,Vænget,6510,16,9.053691,55.286716
2029766,Vænget,6510,18,9.053724,55.287054
2029768,Vænget,6510,20,9.053778,55.286999
2029769,Vænget,6510,22,9.053872,55.28696
2029771,Vænget,6510,24,9.053975,55.28693
2029773,Vænget,6510,26,9.053813,55.287206
2029775,Vænget,6510,28,9.053942,55.287152
2029777,Vænget,6510,30,9.054112,55.287084
2029779,Vænget,6510,32,9.054222,55.287171
2029782,Vænget,6510,34,9.054391,55.287303
2029784,Vænget,6510,36,9.054102,55.287449
2029785,Vænget,6510,38,9.054233,55.287394
2029786,Vænget,6510,40,9.054489,55.287383
2029787,Vænget,6510,42,9.054645,55.287506
2029788,Vænget,6510,44,9.054731,55.287577
2029789,Vænget,6510,46,9.054536,55.287633
2029790,Vænget,6510,48,9.054414,55.287678
2029875,Aftægten,6510,1,8.9477856,55.283912
2029876,Aftægten,6510,2,8.947597,55.28467
2029877,Aftægten,6510,3,8.946685,55.284562
2029878,Aftægten,6510,4,8.947156,55.2849
2029879,Aftægten,6510,5,8.94509,55.284678
2029880,Aftægten,6510,5A,8.945805,55.284836
2029938,Årupvej,6510,1,8.928862,55.296591
2029939,Årupvej,6510,3,8.929775,55.297526
2029940,Årupvej,6510,5,8.920407,55.308377
2029983,Tiset Forte,6510,1,9.011346,55.27439
2029985,Tiset Forte,6510,2,9.011736,55.27453
2029987,Tiset Forte,6510,3,9.01289,55.277643
2029988,Tiset Forte,6510,4,9.013564,55.276127
2030067,Stenholtvej,6510,1,9.029944,55.272267
2030068,Stenholtvej,6510,2,9.021614,55.273629
2030069,Stenholtvej,6510,4,9.024767,55.273228
2030070,Stenholtvej,6510,6,9.028111,55.271833
2030116,Skovbrynet,6510,2,9.05785,55.301495
2030117,Skovbrynet,6510,4,9.057084,55.302736
2030118,Skovbrynet,6510,6,9.05656,55.303718
2030123,Råstedhøjvej,6510,1,9.038247,55.293193
2030124,Råstedhøjvej,6510,5,9.041907,55.296401
2030125,Råstedhøjvej,6510,8,9.04456,55.295403
2030126,Råstedhøjvej,6510,9,9.045955,55.295762
2030127,Råstedhøjvej,6510,10,9.045249,55.295363
2030238,Møllekobbel,6510,1,9.050552,55.292287
2030240,Møllekobbel,6510,3,9.05015,55.292452
2030241,Møllekobbel,6510,5,9.050341,55.292609
2030244,Møllekobbel,6510,7,9.050774,55.292529
2030392,Fælledvej,6510,1,9.000598,55.32074
2030393,Fælledvej,6510,2,8.998667,55.315937
2030394,Fælledvej,6510,3,9.003298,55.325959
2030395,Fælledvej,6510,4,9.001676,55.321175
2030416,Arnum Nørremark,6510,3,8.963484,55.251457
2030417,Arnum Nørremark,6510,5,8.963599,55.251855
2030418,Arnum Nørremark,6510,30,8.965264,55.254106
2030419,Arnum Nørremark,6510,31,8.964764,55.255818
2030435,Gartnervænget,6510,1,9.044998,55.288108
2030436,Gartnervænget,6510,2,9.04469,55.288386
2030437,Gartnervænget,6510,3,9.044757,55.287981
2030438,Gartnervænget,6510,4,9.044601,55.288371
2030439,Gartnervænget,6510,5,9.04467,55.287944
2030440,Gartnervænget,6510,6,9.044414,55.288252
2030441,Gartnervænget,6510,7,9.044527,55.287848
2030442,Gartnervænget,6510,8,9.044332,55.288217
2030443,Gartnervænget,6510,9,9.044425,55.287826
2030444,Gartnervænget,6510,10,9.044159,55.288111
2030445,Gartnervænget,6510,11,9.044298,55.28764
2030446,Gartnervænget,6510,12,9.044083,55.288078
2030447,Gartnervænget,6510,13,9.044212,55.28762
2030448,Gartnervænget,6510,15,9.044041,55.287493
2030449,Gartnervænget,6510,17,9.043945,55.287446
2030494,Toftlundvej,6510,1,9.033014,55.274281
2030495,Toftlundvej,6510,2,9.032538,55.270558
2030496,Toftlundvej,6510,3,9.033512,55.272206
2030508,Sønderholmvej,6510,1,8.981469,55.335102
2030509,Sønderholmvej,6510,2,8.982762,55.335169
2030510,Sønderholmvej,6510,3,8.976907,55.336751
2030511,Skovgårdvej,6510,1,8.9808079,55.3287022
2030512,Skovgårdvej,6510,2,8.975781,55.330351
2030513,Skovgårdvej,6510,4,8.97034,55.330421
2030628,Mellerupvej,6510,1,8.978513,55.311665
2030630,Mellerupvej,6510,2,8.981005,55.31117
2030633,Mellerupvej,6510,3,8.979321,55.311499
2030716,Kaltoftvej,6510,2,8.906513,55.314324
2030717,Kaltoftvej,6510,4,8.902109,55.319322
2030902,Gammel Arnumvej,6510,1,9.000567,55.265324
2030905,Gammel Arnumvej,6510,2,8.999465,55.263633
2030906,Gammel Arnumvej,6510,4,9.001044,55.262373
2031024,Brandenhofvej,6510,1,9.030503,55.277718
2031025,Brandenhofvej,6510,2,9.029249,55.277615
2031026,Brandenhofvej,6510,3,9.026756,55.276498
2031128,Hesteløkken,6510,1,8.994029,55.288325
2031129,Hesteløkken,6510,2,8.996531,55.286136
2031130,Hesteløkken,6510,3,8.993687,55.28835
2031131,Hesteløkken,6510,5,8.992867,55.288391
2031384,Posthusvej,6510,1,9.047485,55.288214
2031385,Posthusvej,6510,2,9.047731,55.28811
2031459,Præstegården,6510,1,9.047619,55.287553
2031462,Præstegården,6510,2,9.047085,55.286738
2031482,Poppelvej,6510,1,8.962926,55.251181
2031483,Poppelvej,6510,2,8.962407,55.250622
2031566,Kastrup Forte,6510,2,9.079946,55.260777
2031568,Kastrup Forte,6510,4,9.079803,55.259729
2031680,Jonsborgvej,6510,1,9.078957,55.265975
2031681,Jonsborgvej,6510,2,9.079864,55.265179
2032126,Skakkenborgvej,6510,1,8.989432,55.306079
2032131,Skakkenborgvej,6510,1A,8.98855,55.305748
2032220,Langelinie,6510,2,9.056092,55.292122
2032344,Fårbjergvej,6510,1,8.985441,55.282521
2032367,Ganderupvej,6510,2,8.980977,55.308869
2032390,Feltvej,6510,1,9.068692,55.25924
2032429,Billeslund,6510,2,9.072526,55.298856
2032430,Billeslund,6510,3,9.081742,55.29836
2104786,P. Christian Kochs Vej,6510,1,9.002555,55.274773
2104787,P. Christian Kochs Vej,6510,2,9.003276,55.275367
2104788,P. Christian Kochs Vej,6510,3,9.002547,55.274994
2104789,P. Christian Kochs Vej,6510,4,9.003316,55.275572
2104790,P. Christian Kochs Vej,6510,5,9.002698,55.275188
2104791,P. Christian Kochs Vej,6510,7,9.002716,55.27536
2104792,P. Christian Kochs Vej,6510,9,9.002761,55.275565
2104793,P. Christian Kochs Vej,6510,11,9.002807,55.275775
2162029,Lergravsvej,6510,1,9.06194,55.307124
2162033,Lergravsvej,6510,2,9.061403,55.307524
2162039,Lergravsvej,6510,4,9.060047,55.304761
2185496,Savværket,6510,1,9.050033,55.283889
2185502,Savværket,6510,2,9.049911,55.284101
2185506,Savværket,6510,3,9.050049,55.283833
2185507,Savværket,6510,4,9.049912,55.284173
2185510,Savværket,6510,5,9.05006,55.283769
2185511,Savværket,6510,6,9.049905,55.284226
2185515,Savværket,6510,7,9.050068,55.283694
2185517,Savværket,6510,8,9.049875,55.284276
2185518,Savværket,6510,9,9.04969,55.283821
2185521,Savværket,6510,10,9.049402,55.28406
2185523,Savværket,6510,11,9.049699,55.283753
2185526,Savværket,6510,12,9.049383,55.284188
2185527,Savværket,6510,13,9.049716,55.283684
2185529,Savværket,6510,14,9.049395,55.284127
2185532,Savværket,6510,15,9.049347,55.283812
2185534,Savværket,6510,16,9.049115,55.284112
2185538,Savværket,6510,17,9.049356,55.283739
2185540,Savværket,6510,18,9.048997,55.284106
2185544,Savværket,6510,19,9.049372,55.283664
2185547,Savværket,6510,20,9.048883,55.284102
2185549,Savværket,6510,21,9.048996,55.283791
2185551,Savværket,6510,22,9.0488,55.284098
2185552,Savværket,6510,23,9.049005,55.283731
2185553,Savværket,6510,24,9.048704,55.284059
2185554,Savværket,6510,25,9.049019,55.283653
2185555,Savværket,6510,26,9.048628,55.28437
2185556,Savværket,6510,27,9.048631,55.283839
2185557,Savværket,6510,28,9.04866,55.284446
2185559,Savværket,6510,29,9.048642,55.28378
2185562,Savværket,6510,30,9.048616,55.2845
2185564,Savværket,6510,31,9.04865,55.283718
2185567,Savværket,6510,32,9.048571,55.284613
2185570,Savværket,6510,33,9.04866,55.283651
2185575,Savværket,6510,34,9.04854,55.284672
2185580,Savværket,6510,35,9.048221,55.28401
2185584,Savværket,6510,36,9.048408,55.284852
2185588,Savværket,6510,37,9.048191,55.284064
2185590,Savværket,6510,38,9.048533,55.284858
2185593,Savværket,6510,39,9.048156,55.284249
2185595,Savværket,6510,40,9.048633,55.284877
2185596,Savværket,6510,41,9.048061,55.284233
2185598,Savværket,6510,42,9.048738,55.284891
2185600,Savværket,6510,43,9.048042,55.284403
2185606,Savværket,6510,44,9.048606,55.285196
2185613,Savværket,6510,45,9.04802,55.284462
2185615,Savværket,6510,46,9.048486,55.285199
2185616,Savværket,6510,47,9.048081,55.2846281
2185617,Savværket,6510,48,9.048383,55.285208
2185619,Savværket,6510,49,9.047916,55.284624
2185622,Savværket,6510,50,9.048264,55.285195
2185623,Savværket,6510,51,9.047644,55.284901
2185626,Savværket,6510,52,9.048158,55.285178
2185627,Savværket,6510,53,9.047663,55.284856
2185631,Savværket,6510,55,9.047693,55.284802
2185633,Savværket,6510,57,9.047722,55.284729
2185634,Savværket,6510,59,9.047471,55.285109
2185635,Savværket,6510,61,9.047557,55.285123
2185636,Savværket,6510,63,9.047646,55.285136
2185639,Savværket,6510,65,9.047738,55.285148
2185640,Savværket,6510,67,9.047854,55.285163
2191378,Arnum Nørremark,6510,7,8.963833,55.2524742
2191808,Kastrupvej,6510,2A,8.970015,55.247317
2230069,Holtvej,6510,3A,9.075541,55.318589
2233065,Kongevej,6510,5B,9.048302,55.287676
2233066,Kongevej,6510,5C,9.048192,55.287635
2233097,Skolevej,6510,2A,8.967649,55.241264
2233786,Højrupvej,6510,1A,8.969912,55.232533
2233787,Højrupvej,6510,25A,8.998312,55.227068
2234341,Slotsvej,6510,5,9.049442,55.288255
2234342,Slotsvej,6510,7,9.049776,55.288387
2234991,Ribe Landevej,6510,7A,8.972397,55.283882
2234992,Ribe Landevej,6510,11A,8.969346,55.284105
2235186,Stampemøllevej,6510,7,8.979784,55.315551
2235195,Stensbækvej,6510,20E,8.9487254,55.2824663
2235196,Stensbækvej,6510,23A,8.939611,55.259683
2235248,Nyvej,6510,13A,9.0564875,55.2872891
2235273,Hygumvej,6510,13A,8.978309,55.321303
2235834,Winthersvej,6510,29,9.0482068,55.2821627
2235919,Gammel Kirkevej,6510,2,9.021961,55.28153
2242830,Kastrup Nørremarksvej,6510,2,9.080995,55.271101
2249991,Kirkevej,6510,17A,8.980195,55.23792
2249992,Kirkevej,6510,17B,8.980043,55.237863
2249993,Kirkevej,6510,17C,8.979952,55.237834
2250027,Sønderbyvej,6510,4A,9.048741,55.287162
2250028,Sønderbyvej,6510,4B,9.048759,55.287024
2250029,Sønderbyvej,6510,4C,9.048595,55.287039
2250032,Østergade,6510,22A,9.052405,55.28581
2250033,Østergade,6510,22B,9.0523558,55.2857439
