idx,street,postcode,housenumber,lon,lat
1747499,Nebelvej,6623,1,9.07596,55.629443
1747501,Nebelvej,6623,2,9.075927,55.629679
1747502,Nebelvej,6623,3,9.07574,55.629409
1747504,Nebelvej,6623,4,9.075558,55.629838
1747507,Nebelvej,6623,5,9.075502,55.629334
1747508,Nebelvej,6623,6,9.075339,55.629623
1747509,Nebelvej,6623,7,9.075158,55.62937
1747512,Nebelvej,6623,8,9.074921,55.629593
1747514,Nebelvej,6623,9,9.074851,55.629354
1747515,Nebelvej,6623,10,9.074619,55.629585
1747516,Nebelvej,6623,11,9.074525,55.629331
1747518,Nebelvej,6623,12,9.074367,55.629646
1747521,Nebelvej,6623,13,9.07417,55.629316
1747523,Nebelvej,6623,14,9.073822,55.629599
1747524,Nebelvej,6623,15,9.073775,55.629325
1747525,Nebelvej,6623,16,9.073358,55.629617
1747527,Nebelvej,6623,17,9.073392,55.629334
1747528,Nebelvej,6623,18,9.073072,55.629605
1747529,Nebelvej,6623,19,9.073069,55.629339
1747531,Nebelvej,6623,20,9.072748,55.629617
1747532,Nebelvej,6623,21,9.072626,55.629345
1747534,Nebelvej,6623,22,9.072529,55.629644
1747535,Nebelvej,6623,23,9.072193,55.629376
1747538,Nebelvej,6623,24,9.071717,55.629719
1747540,Nebelvej,6623,25,9.071756,55.629421
1747541,Nebelvej,6623,27,9.071442,55.629371
1747543,Nebelvej,6623,30,9.067364,55.630739
1747545,Nebelvej,6623,31,9.069195,55.629603
1747548,Nebelvej,6623,32,9.044863,55.634648
1747550,Nebelvej,6623,33A,9.06797,55.629376
1747551,Nebelvej,6623,33B,9.066653,55.629777
1747552,Nebelvej,6623,33C,9.062691,55.628991
1747555,Nebelvej,6623,33D,9.06372,55.629763
1747559,Nebelvej,6623,33E,9.061879,55.630236
1747560,Nebelvej,6623,33F,9.062707,55.63024
1747562,Nebelvej,6623,34A,9.041453,55.634715
1747563,Nebelvej,6623,34B,9.035893,55.635118
1747565,Nebelvej,6623,35,9.057759,55.627582
1747568,Nebelvej,6623,35A,9.035352,55.629336
1747570,Nebelvej,6623,36,9.031171,55.635525
1747572,Nebelvej,6623,37,9.050554,55.625997
1747573,Nebelvej,6623,38,9.031937,55.642038
1747576,Nebelvej,6623,39,9.043419,55.628965
1747578,Nebelvej,6623,40,9.023451,55.635864
1747580,Nebelvej,6623,41,9.031916,55.631265
1747583,Nebelvej,6623,42,9.023442,55.636366
1747584,Nebelvej,6623,43,9.01871,55.634694
1747586,Nebelvej,6623,43C,9.007698,55.643763
1747589,Nebelvej,6623,44,9.017604,55.637316
1747590,Nebelvej,6623,45,9.005856,55.645259
1747591,Nebelvej,6623,46,9.008521,55.643825
1747593,Nebelvej,6623,47,9.004394,55.645704
1747595,Nebelvej,6623,48,9.00637,55.64533
1747596,Nebelvej,6623,50,9.005522,55.645508
1747598,Nebelvej,6623,52,9.005208,55.645528
1747599,Nebelvej,6623,54,9.003651,55.646586
1747600,Nebelvej,6623,54A,9.00198,55.646829
1749656,Fromssejervej,6623,1,9.045547,55.649775
1749660,Fromssejervej,6623,2,9.034137,55.654955
1749665,Fromssejervej,6623,3,9.044333,55.649798
1749666,Fromssejervej,6623,3A,9.012534,55.651386
1749669,Fromssejervej,6623,3B,9.0100581,55.6500376
1749670,Fromssejervej,6623,4,9.029914,55.653802
1749672,Fromssejervej,6623,5,9.007504,55.649162
1749674,Fromssejervej,6623,6,9.024148,55.654705
1749675,Fromssejervej,6623,7,9.00655,55.649404
1749676,Fromssejervej,6623,10,9.0077545,55.6496755
1749677,Fromssejervej,6623,10A,9.010559,55.650891
1749678,Fromssejervej,6623,12,9.006968,55.649668
1749679,Fromssejervej,6623,14,9.006652,55.649771
1749680,Fromssejervej,6623,16,9.006008,55.649766
1749681,Fromssejervej,6623,18,9.0057683,55.6500494
1749682,Fromssejervej,6623,20,9.00475,55.65043
1749683,Fromssejervej,6623,24C,8.973581,55.6469
1749684,Fromssejervej,6623,32E,8.982559,55.646094
1749685,Fromssejervej,6623,32F,8.989941,55.648216
1752179,Hovborgvej,6623,1,9.079116,55.63133
1752181,Hovborgvej,6623,1A,9.077572,55.631072
1752182,Hovborgvej,6623,2A,9.079,55.631528
1752183,Hovborgvej,6623,4,9.076145,55.629256
1752184,Hovborgvej,6623,5,9.074345,55.627759
1752185,Hovborgvej,6623,6,9.075777,55.629014
1752186,Hovborgvej,6623,7,9.073117,55.627051
1752187,Hovborgvej,6623,8,9.07521,55.628565
1752188,Hovborgvej,6623,10A,9.07425,55.62882
1752189,Hovborgvej,6623,10B,9.074237,55.628544
1752190,Hovborgvej,6623,10C,9.074863,55.628366
1752191,Hovborgvej,6623,10D,9.074514,55.62814
1752192,Hovborgvej,6623,11,9.061372,55.617616
1752193,Hovborgvej,6623,11A,9.070042,55.625471
1752194,Hovborgvej,6623,12,9.074106,55.627981
1752195,Hovborgvej,6623,13,9.062215,55.620026
1752196,Hovborgvej,6623,15,9.05177,55.61563
1752197,Hovborgvej,6623,17,9.053283,55.621959
1752198,Hovborgvej,6623,19,9.043836,55.61289
1752199,Hovborgvej,6623,19A,9.044208,55.615426
1752200,Hovborgvej,6623,19B,9.047884,55.619198
1752201,Hovborgvej,6623,20,9.071843,55.627295
1752202,Hovborgvej,6623,20A,9.071154,55.627004
1752203,Hovborgvej,6623,21,9.027836,55.610137
1752204,Hovborgvej,6623,21A,9.037631,55.618919
1752205,Hovborgvej,6623,21B,9.027333,55.610613
1752206,Hovborgvej,6623,21C,9.047178,55.621008
1752207,Hovborgvej,6623,22,9.060602,55.62618
1752208,Hovborgvej,6623,23,9.044144,55.620415
1752209,Hovborgvej,6623,24,9.062789,55.625094
1752210,Hovborgvej,6623,24A,9.057188,55.623878
1752215,Hovborgvej,6623,24B,9.051174,55.623153
1752217,Hovborgvej,6623,24C,9.049888,55.622362
1752223,Hovborgvej,6623,24D,9.056822,55.623728
1752225,Hovborgvej,6623,25,9.004242,55.609304
1752230,Hovborgvej,6623,26,9.047173,55.624647
1752232,Hovborgvej,6623,26A,9.047328,55.621761
1752234,Hovborgvej,6623,26B,9.045463,55.624514
1752236,Hovborgvej,6623,27,8.998514,55.612033
1752237,Hovborgvej,6623,28,9.042425,55.620584
1752239,Hovborgvej,6623,28A,9.037441,55.619723
1752241,Hovborgvej,6623,29,8.995325,55.610491
1752243,Hovborgvej,6623,30,9.034513,55.618835
1752244,Hovborgvej,6623,31,8.997656,55.606598
1752247,Hovborgvej,6623,32,9.028926,55.618247
1752248,Hovborgvej,6623,33,9.0059,55.606394
1752250,Hovborgvej,6623,33A,9.015131,55.609216
1752251,Hovborgvej,6623,34,9.00045,55.61602
1752252,Hovborgvej,6623,34A,9.001763,55.615226
1752253,Hovborgvej,6623,36,8.994297,55.610309
1752254,Hovborgvej,6623,38,8.993855,55.61534
1753513,Klinkvej,6623,39,9.007531,55.664245
1753516,Klinkvej,6623,40,8.986759,55.658375
1753521,Klinkvej,6623,40A,8.990676,55.663323
1753524,Klinkvej,6623,40C,8.995202,55.658108
1753526,Klinkvej,6623,41,8.995805,55.660626
1753529,Klinkvej,6623,42,9.000007,55.654314
1753536,Klinkvej,6623,43,8.996129,55.657498
1753544,Klinkvej,6623,44,9.000645,55.653174
1753546,Klinkvej,6623,45,9.003689,55.650102
1753548,Klinkvej,6623,45H,9.015475,55.66011
1753549,Klinkvej,6623,45M,9.005079,55.661252
1753550,Klinkvej,6623,45O,9.004549,55.659212
1753551,Klinkvej,6623,46,9.000265,55.652391
1753552,Klinkvej,6623,47,9.00432,55.650161
1753553,Klinkvej,6623,48,9.000852,55.651972
1754096,Vorbassevej,6623,19,8.992587,55.610012
1754495,Oxlundvej,6623,1,9.002726,55.646211
1754496,Oxlundvej,6623,1A,9.002916,55.645338
1754497,Oxlundvej,6623,1C,8.996156,55.643255
1754498,Oxlundvej,6623,2,9.001278,55.642627
1754499,Oxlundvej,6623,2A,8.982666,55.64897
1754500,Oxlundvej,6623,3,9.0037357,55.6442528
1754501,Oxlundvej,6623,3A,9.00797,55.620038
1754502,Oxlundvej,6623,3B,9.016925,55.609235
1754503,Oxlundvej,6623,4,9.006292,55.635228
1754504,Oxlundvej,6623,5,9.012976,55.617629
1754505,Oxlundvej,6623,5A,9.02532,55.605166
1754506,Oxlundvej,6623,6,8.99622,55.621547
1754507,Oxlundvej,6623,6A,9.013869,55.61084
1754508,Oxlundvej,6623,7,9.01247,55.617395
1754509,Oxlundvej,6623,8,9.006563,55.61678
1754510,Oxlundvej,6623,9,9.0170106,55.6060726
1754512,Oxlundvej,6623,10,9.013669,55.605833
1759174,Nebellundvej,6623,1,8.989366,55.654405
1759175,Nebellundvej,6623,1A,8.990095,55.652647
1759176,Nebellundvej,6623,1C,8.985201,55.651313
1759178,Nebellundvej,6623,2,8.974947,55.657005
1759180,Nebellundvej,6623,3,8.98263,55.654086
1759183,Nebellundvej,6623,3C,8.974076,55.649089
1765780,Rugbjergvej,6623,58,8.981918,55.636525
1765781,Rugbjergvej,6623,59,8.975113,55.643654
1765783,Rugbjergvej,6623,60,9.009329,55.635104
1765785,Rugbjergvej,6623,60A,9.01287,55.63496
1765787,Rugbjergvej,6623,61,8.996839,55.637859
1765789,Rugbjergvej,6623,62,9.014536,55.632609
1765790,Rugbjergvej,6623,62A,9.012156,55.627704
1765792,Rugbjergvej,6623,63,9.013992,55.635546
1765794,Rugbjergvej,6623,64,9.017036,55.634755
1767752,Gilbjergvej,6623,1,9.089169,55.678555
1767754,Gilbjergvej,6623,2,9.091723,55.6787802
1767756,Gilbjergvej,6623,2A,9.093623,55.678794
1767757,Gilbjergvej,6623,3,9.08717,55.676766
1767759,Gilbjergvej,6623,4,9.086895,55.678862
1767761,Gilbjergvej,6623,5,9.087028,55.678652
1767763,Gilbjergvej,6623,6,9.081275,55.68005
1767764,Gilbjergvej,6623,7,9.080257,55.675374
1767766,Gilbjergvej,6623,8,9.081986,55.682761
1767768,Gilbjergvej,6623,9,9.074044,55.672153
1767770,Gilbjergvej,6623,10,9.078121,55.683135
1767771,Gilbjergvej,6623,11,9.073524,55.676265
1767773,Gilbjergvej,6623,12,9.073946,55.679882
1767775,Gilbjergvej,6623,14,9.0717727,55.681249
1767776,Gilbjergvej,6623,16,9.068944,55.681781
1768261,Vandmosevej,6623,16,9.012877,55.664721
1768262,Vandmosevej,6623,19,9.028159,55.660454
1768263,Vandmosevej,6623,20,9.022378,55.662047
1768264,Vandmosevej,6623,22A,9.018531,55.657368
1768265,Vandmosevej,6623,22B,9.016961,55.656212
1768266,Vandmosevej,6623,24,9.016717,55.653719
1771340,Højgårdsvej,6623,1,8.990311,55.641927
1771341,Højgårdsvej,6623,1A,8.995495,55.640145
1771342,Højgårdsvej,6623,2,9.001614,55.646675
1771343,Højgårdsvej,6623,3,9.001633,55.647041
1771754,Mosevej,6623,1,9.023452,55.648452
1771755,Mosevej,6623,3,9.027424,55.648164
1771837,Hulkjærvej,6623,1,9.040437,55.6449535
1771840,Hulkjærvej,6623,1A,9.035416,55.644082
1772373,Sønderhedevej,6623,2,9.076391,55.625227
1772376,Sønderhedevej,6623,4,9.071401,55.622988
1772380,Sønderhedevej,6623,6,9.071024,55.623065
1772381,Sønderhedevej,6623,7,9.075144,55.623668
1772382,Sønderhedevej,6623,7A,9.074902,55.623836
1772383,Sønderhedevej,6623,8,9.070899,55.623358
1772384,Sønderhedevej,6623,8A,9.070654,55.623467
1772385,Sønderhedevej,6623,8B,9.06922,55.623687
1772386,Sønderhedevej,6623,8C,9.06883,55.623339
1772387,Sønderhedevej,6623,9,9.074432,55.623686
1772388,Sønderhedevej,6623,10,9.070103,55.623099
1772389,Sønderhedevej,6623,11,9.07271,55.618526
1772390,Sønderhedevej,6623,12,9.070637,55.622386
1772391,Sønderhedevej,6623,12A,9.071071,55.622731
1772392,Sønderhedevej,6623,13,9.070379,55.611472
1772393,Sønderhedevej,6623,13A,9.075127,55.60472
1772394,Sønderhedevej,6623,14,9.066161,55.616403
1772395,Sønderhedevej,6623,15,9.064519,55.609952
1772396,Sønderhedevej,6623,17,9.063678,55.607973
1772397,Sønderhedevej,6623,18,9.06342,55.613806
1772398,Sønderhedevej,6623,19,9.06535,55.603087
1772399,Sønderhedevej,6623,20,9.054731,55.612116
1772400,Sønderhedevej,6623,22,9.058238,55.610115
1772401,Sønderhedevej,6623,24,9.042991,55.60478
1772402,Sønderhedevej,6623,26,9.061781,55.604418
1772403,Sønderhedevej,6623,26A,9.063892,55.601836
1772463,Rankenbjergvej,6623,1,9.077987,55.633197
1772465,Rankenbjergvej,6623,2,9.077554,55.633492
1772466,Rankenbjergvej,6623,3,9.0656268,55.6373747
1772468,Rankenbjergvej,6623,4,9.068185,55.63699
1772470,Rankenbjergvej,6623,5,9.053987,55.638338
1772471,Rankenbjergvej,6623,6,9.067897,55.636985
1772473,Rankenbjergvej,6623,7,9.052805,55.635677
1772475,Rankenbjergvej,6623,9,9.056456,55.641339
1772476,Rankenbjergvej,6623,11,9.041876,55.643504
1894712,Skjoldbjergvej,6623,1,9.08028,55.632094
1894713,Skjoldbjergvej,6623,2,9.080456,55.63168
1894716,Skjoldbjergvej,6623,3,9.080354,55.63262
1894717,Skjoldbjergvej,6623,4,9.080484,55.631795
1894720,Skjoldbjergvej,6623,5,9.081711,55.633526
1894722,Skjoldbjergvej,6623,6A,9.080615,55.631928
1894723,Skjoldbjergvej,6623,6B,9.080729,55.632111
1894726,Skjoldbjergvej,6623,7,9.0821746,55.6338223
1894728,Skjoldbjergvej,6623,9,9.081157,55.635074
1894731,Skjoldbjergvej,6623,10,9.086301,55.638327
1894732,Skjoldbjergvej,6623,11,9.082469,55.637167
1894734,Skjoldbjergvej,6623,12,9.089487,55.64448
1894736,Skjoldbjergvej,6623,13,9.080342,55.638167
1894738,Skjoldbjergvej,6623,14,9.090352,55.645851
1894739,Skjoldbjergvej,6623,15,9.079977,55.638187
1894742,Skjoldbjergvej,6623,16,9.094742,55.647786
1894744,Skjoldbjergvej,6623,17,9.085584,55.641136
1894745,Skjoldbjergvej,6623,18,9.098868,55.646895
1894748,Skjoldbjergvej,6623,19,9.0916236,55.6511942
1894749,Skjoldbjergvej,6623,20A,9.094186,55.660547
1894751,Skjoldbjergvej,6623,20B,9.0926976,55.6653861
1894752,Skjoldbjergvej,6623,22,9.091196,55.666777
1894753,Skjoldbjergvej,6623,23,9.087293,55.6735
1894754,Skjoldbjergvej,6623,23A,9.090493,55.670769
1894755,Skjoldbjergvej,6623,24,9.1074439,55.6699114
1894758,Skjoldbjergvej,6623,25,9.093492,55.673687
1894759,Skjoldbjergvej,6623,26,9.095633,55.674964
1894761,Skjoldbjergvej,6623,26A,9.094256,55.674658
1894762,Skjoldbjergvej,6623,27,9.094197,55.674466
1894764,Skjoldbjergvej,6623,28,9.095587,55.67521
1894766,Skjoldbjergvej,6623,29,9.09142,55.67554
1894768,Skjoldbjergvej,6623,30,9.095955,55.67553
1894769,Skjoldbjergvej,6623,31,9.098073,55.67821
1894771,Skjoldbjergvej,6623,32,9.096128,55.675697
1894773,Skjoldbjergvej,6623,33,9.100335,55.68026
1894775,Skjoldbjergvej,6623,34,9.101317,55.679503
1894776,Skjoldbjergvej,6623,35,9.092164,55.681493
1894777,Skjoldbjergvej,6623,35B,9.101145,55.681037
1894779,Skjoldbjergvej,6623,35C,9.101545,55.681486
1894781,Skjoldbjergvej,6623,36,9.102263,55.681491
1894784,Skjoldbjergvej,6623,37,9.101961,55.681681
1894785,Skjoldbjergvej,6623,38,9.102418,55.681623
1894787,Skjoldbjergvej,6623,41,9.102299,55.682311
1894788,Skjoldbjergvej,6623,42,9.1027768,55.6818538
1894791,Skjoldbjergvej,6623,43,9.103102,55.682587
1894793,Skjoldbjergvej,6623,44,9.102941,55.681948
1894794,Skjoldbjergvej,6623,45,9.10396,55.682597
1894797,Skjoldbjergvej,6623,46,9.1032788,55.6816406
1894798,Skjoldbjergvej,6623,47,9.104545,55.682748
1894801,Skjoldbjergvej,6623,47A,9.10384,55.684305
1894802,Skjoldbjergvej,6623,48,9.103251,55.682011
1894804,Skjoldbjergvej,6623,50,9.103522,55.682086
1894805,Skjoldbjergvej,6623,51,9.107423,55.683962
1894808,Skjoldbjergvej,6623,52,9.106092,55.682734
1894810,Skjoldbjergvej,6623,53,9.113977,55.686044
1894812,Skjoldbjergvej,6623,53A,9.121363,55.695141
1894814,Skjoldbjergvej,6623,53B,9.117855,55.696257
1894815,Skjoldbjergvej,6623,54A,9.106631,55.682284
1894818,Skjoldbjergvej,6623,55,9.112024,55.687485
1894819,Skjoldbjergvej,6623,55A,9.10755,55.698419
1894821,Skjoldbjergvej,6623,55B,9.0988,55.693712
1894822,Skjoldbjergvej,6623,56,9.106552,55.682876
1894825,Skjoldbjergvej,6623,57,9.111662,55.690488
1894827,Skjoldbjergvej,6623,58,9.106899,55.683168
1894829,Skjoldbjergvej,6623,59,9.104855,55.692884
1894831,Skjoldbjergvej,6623,60,9.107352,55.683288
1894832,Skjoldbjergvej,6623,62,9.107587,55.682812
1894833,Skjoldbjergvej,6623,64,9.107719,55.682567
1894836,Skjoldbjergvej,6623,66,9.108593,55.681646
1894837,Skjoldbjergvej,6623,68,9.10764,55.683405
1929197,Østergade,6623,1A,9.081119,55.630164
1929198,Østergade,6623,1B,9.081394,55.630114
1929199,Østergade,6623,3,9.081585,55.630098
1929200,Østergade,6623,4,9.081797,55.629783
1929201,Østergade,6623,5,9.081957,55.630038
1929202,Østergade,6623,6,9.081958,55.629787
1929203,Østergade,6623,7,9.082285,55.629981
1929204,Østergade,6623,8,9.082135,55.629786
1929205,Østergade,6623,10,9.082376,55.629774
1929206,Østergade,6623,12,9.082615,55.629732
1929207,Østergade,6623,13,9.08308,55.629858
1929208,Østergade,6623,14,9.082862,55.629693
1929209,Østergade,6623,14A,9.083043,55.629554
1929210,Østergade,6623,14B,9.083126,55.629619
1929211,Østergade,6623,15,9.083776,55.629811
1929212,Østergade,6623,16,9.08332,55.629617
1929213,Østergade,6623,17,9.084356,55.629617
1929214,Østergade,6623,19,9.084584,55.629601
1929215,Østergade,6623,20,9.085249,55.629247
1929216,Østergade,6623,21,9.084818,55.629562
1929217,Østergade,6623,21A,9.08516,55.629568
1929218,Østergade,6623,22,9.085527,55.629194
1929219,Østergade,6623,23,9.085421,55.629453
1929220,Østergade,6623,24,9.08572,55.629069
1929221,Østergade,6623,25,9.086021,55.629494
1929222,Østergade,6623,26,9.086119,55.629087
1929223,Østergade,6623,27,9.087663,55.629235
1929224,Østergade,6623,28A,9.086319,55.62904
1929225,Østergade,6623,30,9.086698,55.628959
1929226,Østergade,6623,31A,9.087918,55.629037
1929227,Østergade,6623,32,9.087159,55.628864
1929228,Østergade,6623,33,9.088617,55.628972
1929229,Østergade,6623,34,9.087465,55.628787
1929230,Østergade,6623,35,9.088901,55.628922
1929231,Østergade,6623,37,9.08928,55.628871
1929232,Østergade,6623,39,9.089691,55.628766
1929233,Østergade,6623,41,9.089968,55.628722
1929234,Østergade,6623,42,9.089279,55.628392
1929235,Østergade,6623,43,9.091899,55.628637
1929236,Østergade,6623,43B,9.094372,55.628223
1929237,Østergade,6623,44,9.089645,55.62831
1929238,Østergade,6623,45,9.093183,55.628165
1929239,Østergade,6623,46,9.089887,55.628285
1929240,Østergade,6623,47,9.091958,55.628134
1929242,Østergade,6623,48,9.090178,55.628257
1929243,Østergade,6623,49,9.092182,55.627901
1929246,Østergade,6623,50,9.090773,55.628086
1929247,Østergade,6623,51,9.092496,55.627776
1929250,Østergade,6623,52,9.091868,55.627487
1929252,Østergade,6623,54,9.092141,55.627371
1929253,Østergade,6623,55,9.09285,55.627505
1929256,Østergade,6623,56,9.092366,55.627234
1929257,Østergade,6623,57,9.093041,55.627393
1929260,Østergade,6623,58,9.092643,55.627076
1929263,Østergade,6623,59,9.09359,55.626917
1929264,Østergade,6623,60,9.092803,55.626977
1929266,Østergade,6623,60A,9.092266,55.62646
1929268,Østergade,6623,62,9.093243,55.62642
1940923,Nørregade,6623,1,9.080193,55.630324
1940924,Nørregade,6623,2,9.080689,55.630391
1940926,Nørregade,6623,3A,9.080197,55.630519
1940927,Nørregade,6623,3B,9.080065,55.6305
1940929,Nørregade,6623,4A,9.080524,55.630582
1940930,Nørregade,6623,4B,9.080534,55.630559
1940931,Nørregade,6623,4C,9.080546,55.630514
1940933,Nørregade,6623,4D,9.080574,55.630466
1940935,Nørregade,6623,5,9.080162,55.630619
1940936,Nørregade,6623,6,9.080435,55.630706
1940937,Nørregade,6623,7,9.0797,55.630665
1940938,Nørregade,6623,7A,9.080067,55.630732
1940940,Nørregade,6623,7B,9.080007,55.630701
1940941,Nørregade,6623,7C,9.079977,55.630741
1940944,Nørregade,6623,9A,9.07988,55.63098
1940945,Nørregade,6623,9B,9.079805,55.631102
1940947,Nørregade,6623,9C,9.079894,55.630898
1940948,Nørregade,6623,9D,9.079662,55.630967
1940950,Nørregade,6623,9E,9.079634,55.630805
1940951,Nørregade,6623,9F,9.079574,55.630866
1940953,Nørregade,6623,9G,9.079543,55.630936
1940954,Nørregade,6623,10,9.080317,55.631025
1940956,Nørregade,6623,11,9.07973,55.631336
1940958,Nørregade,6623,12,9.080329,55.631155
1940959,Nørregade,6623,13,9.079456,55.632196
1940960,Nørregade,6623,14,9.079824,55.632132
1940961,Nørregade,6623,15,9.079312,55.632443
1940964,Nørregade,6623,16,9.079744,55.632222
1940965,Nørregade,6623,17,9.079245,55.632571
1940967,Nørregade,6623,18,9.079685,55.632336
1940969,Nørregade,6623,19,9.079151,55.632735
1940970,Nørregade,6623,20,9.079619,55.632469
1940971,Nørregade,6623,21,9.079057,55.632854
1940972,Nørregade,6623,22,9.07973,55.632643
1940973,Nørregade,6623,23,9.078896,55.63309
1940974,Nørregade,6623,24,9.079484,55.632707
1940975,Nørregade,6623,25,9.078364,55.633514
1940976,Nørregade,6623,26,9.079311,55.632955
1940977,Nørregade,6623,27,9.078336,55.633699
1940978,Nørregade,6623,28A,9.07923,55.633075
1940979,Nørregade,6623,28B,9.079163,55.633187
1940980,Nørregade,6623,29,9.078219,55.633831
1940981,Nørregade,6623,30A,9.078917,55.633474
1940982,Nørregade,6623,30B,9.078848,55.63354
1940983,Nørregade,6623,31,9.078076,55.633994
1940984,Nørregade,6623,33,9.077943,55.63415
1940985,Nørregade,6623,34,9.078635,55.633882
1940986,Nørregade,6623,35,9.077841,55.634269
1940987,Nørregade,6623,36,9.078487,55.634071
1940988,Nørregade,6623,37,9.077675,55.634453
1940989,Nørregade,6623,39,9.077501,55.634605
1940990,Nørregade,6623,40,9.078176,55.634482
1940991,Nørregade,6623,41,9.077324,55.634707
1940992,Nørregade,6623,42,9.078124,55.634544
1945865,Fittingvej,6623,1,9.097702,55.624996
1945867,Fittingvej,6623,2,9.098085,55.624582
1945869,Fittingvej,6623,3,9.101566,55.628219
1945870,Fittingvej,6623,4,9.098274,55.62422
1945873,Fittingvej,6623,4A,9.098408,55.62451
1945874,Fittingvej,6623,5A,9.10728,55.627808
1945876,Fittingvej,6623,5B,9.10994,55.624566
1945878,Fittingvej,6623,5E,9.119645,55.622847
1945880,Fittingvej,6623,5F,9.114168,55.624838
1945882,Fittingvej,6623,5G,9.119004,55.626188
1945883,Fittingvej,6623,6,9.098941,55.624517
1945885,Fittingvej,6623,7,9.118044,55.62
1945888,Fittingvej,6623,7A,9.133517,55.619572
1945890,Fittingvej,6623,8,9.099624,55.624527
1945892,Fittingvej,6623,9,9.140094,55.622798
1945893,Fittingvej,6623,9A,9.128827,55.623398
1945895,Fittingvej,6623,9B,9.127594,55.625325
1945897,Fittingvej,6623,9C,9.126864,55.627108
1945899,Fittingvej,6623,9D,9.127144,55.629176
1945901,Fittingvej,6623,9E,9.126955,55.629367
1945903,Fittingvej,6623,10,9.102894,55.624533
1945904,Fittingvej,6623,11,9.140735,55.623995
1945907,Fittingvej,6623,12,9.103886,55.623908
1945908,Fittingvej,6623,14,9.104181,55.62384
1945910,Fittingvej,6623,15,9.143151,55.623081
1945911,Fittingvej,6623,16,9.104732,55.623645
1945912,Fittingvej,6623,17,9.147996,55.622965
1945913,Fittingvej,6623,18,9.10513,55.623492
1945915,Fittingvej,6623,19,9.171576,55.623575
1945916,Fittingvej,6623,20,9.105497,55.623
1945920,Fittingvej,6623,21,9.173958,55.624523
1945922,Fittingvej,6623,22,9.1057,55.623243
1945925,Fittingvej,6623,23,9.181989,55.625359
1945927,Fittingvej,6623,24,9.106279,55.622996
1945930,Fittingvej,6623,25,9.184299,55.627338
1945932,Fittingvej,6623,26,9.106469,55.622854
1945936,Fittingvej,6623,27,9.177427,55.626956
1945938,Fittingvej,6623,28,9.10669,55.622705
1945942,Fittingvej,6623,30,9.115667,55.617543
1945946,Fittingvej,6623,32,9.12853,55.617731
1945947,Fittingvej,6623,33,9.177942,55.619341
1945948,Fittingvej,6623,34,9.141469,55.622963
1945949,Fittingvej,6623,35,9.181798,55.622064
1945950,Fittingvej,6623,36,9.142324,55.62299
1945951,Fittingvej,6623,37,9.183083,55.623513
1945952,Fittingvej,6623,38,9.143227,55.622886
1945953,Fittingvej,6623,39,9.180334,55.618847
1945954,Fittingvej,6623,40,9.143626,55.622893
1945955,Fittingvej,6623,42,9.153235,55.62093
1945956,Fittingvej,6623,44,9.157223,55.620851
1945957,Fittingvej,6623,46,9.166271,55.619203
1945958,Fittingvej,6623,48,9.167024,55.618835
1945959,Fittingvej,6623,50,9.182732,55.61823
1967812,Søndergade,6623,1,9.080538,55.629793
1967816,Søndergade,6623,2,9.080007,55.629646
1967821,Søndergade,6623,3,9.080526,55.629491
1967824,Søndergade,6623,4,9.080123,55.629141
1967827,Søndergade,6623,5,9.080493,55.629237
1967831,Søndergade,6623,6,9.080086,55.628971
1967832,Søndergade,6623,6A,9.08007,55.628892
1967836,Søndergade,6623,7,9.080408,55.629017
1967840,Søndergade,6623,8,9.079925,55.62869
1967842,Søndergade,6623,8A,9.079904,55.62847
1967845,Søndergade,6623,8B,9.079901,55.62835
1967847,Søndergade,6623,9,9.080484,55.628893
1967850,Søndergade,6623,10,9.07987,55.628252
1967852,Søndergade,6623,11,9.080329,55.628757
1967854,Søndergade,6623,12,9.079765,55.628014
1967856,Søndergade,6623,13,9.080298,55.628614
1967858,Søndergade,6623,14,9.079684,55.627764
1967860,Søndergade,6623,15,9.080247,55.628361
1967862,Søndergade,6623,16,9.07961,55.627524
1967864,Søndergade,6623,17,9.080229,55.628241
1967866,Søndergade,6623,18,9.079538,55.627287
1967868,Søndergade,6623,19A,9.0801,55.62784
1967870,Søndergade,6623,19B,9.080094,55.627935
1967872,Søndergade,6623,19C,9.080151,55.628008
1967874,Søndergade,6623,20,9.079129,55.627146
1967876,Søndergade,6623,21A,9.080062,55.62773
1967878,Søndergade,6623,21B,9.080246,55.627712
1967879,Søndergade,6623,22,9.079412,55.626839
1967880,Søndergade,6623,23A,9.080608,55.627742
1967881,Søndergade,6623,23B,9.08059,55.627662
1967882,Søndergade,6623,23C,9.080513,55.627611
1967883,Søndergade,6623,23D,9.080545,55.627467
1967884,Søndergade,6623,23E,9.080531,55.62739
1967885,Søndergade,6623,23F,9.080466,55.627358
1967886,Søndergade,6623,23G,9.080451,55.627281
1967887,Søndergade,6623,25A,9.079946,55.627395
1967888,Søndergade,6623,25B,9.079984,55.627283
1967889,Søndergade,6623,25C,9.079926,55.627141
1967890,Søndergade,6623,25D,9.080086,55.627104
1967891,Søndergade,6623,27A,9.079859,55.626949
1967892,Søndergade,6623,27B,9.080123,55.626924
1967893,Søndergade,6623,27C,9.080343,55.626903
1967894,Søndergade,6623,27D,9.080519,55.626887
1967896,Søndergade,6623,27E,9.08043,55.627093
1967899,Søndergade,6623,27F,9.080659,55.627072
1967904,Søndergade,6623,27M,9.079673,55.626543
1967905,Søndergade,6623,27N,9.079588,55.626442
1967910,Søndergade,6623,29,9.079517,55.626321
1967913,Søndergade,6623,31,9.07907,55.626132
1967916,Søndergade,6623,33,9.078779,55.626008
1967918,Søndergade,6623,35,9.078571,55.625865
1967919,Søndergade,6623,37,9.078293,55.625738
2006465,Østervænget,6623,2A,9.091146,55.627691
2006467,Østervænget,6623,2B,9.090721,55.627719
2006470,Østervænget,6623,4,9.090311,55.627668
2006473,Østervænget,6623,6,9.089854,55.627625
2006475,Østervænget,6623,8,9.089484,55.62762
2006477,Østervænget,6623,10,9.088771,55.627663
2006479,Østervænget,6623,12,9.088714,55.627882
2006481,Østervænget,6623,14,9.088755,55.628107
2006482,Østervænget,6623,16,9.088745,55.628339
2006483,Østervænget,6623,18,9.088718,55.628583
2006484,Østervænget,6623,20,9.08828,55.628561
2006485,Østervænget,6623,22,9.087948,55.628637
2006486,Østervænget,6623,24,9.08827,55.628365
2006487,Østervænget,6623,26,9.087803,55.628262
2006488,Østervænget,6623,28,9.087836,55.628045
2006489,Østervænget,6623,30,9.088181,55.627999
2006490,Østervænget,6623,32,9.088374,55.627725
2006491,Østervænget,6623,34,9.08781,55.627744
2006492,Østervænget,6623,36,9.087141,55.627894
2006493,Østervænget,6623,38,9.087119,55.628145
2006494,Østervænget,6623,40,9.087115,55.628373
2006495,Østervænget,6623,42,9.086547,55.628492
2006496,Østervænget,6623,48,9.086594,55.628166
2006497,Østervænget,6623,50,9.086833,55.627903
2006498,Østervænget,6623,52,9.086265,55.627792
2006499,Østervænget,6623,54,9.086269,55.627576
2006500,Østervænget,6623,56,9.086686,55.62753
2006501,Østervænget,6623,58,9.087162,55.627565
2006502,Østervænget,6623,60,9.087585,55.627518
2006503,Østervænget,6623,62,9.08809,55.627459
2006504,Østervænget,6623,64,9.088509,55.627403
2006505,Østervænget,6623,66,9.088998,55.627357
2006506,Østervænget,6623,68,9.089461,55.627366
2006507,Østervænget,6623,70,9.089911,55.627397
2006508,Østervænget,6623,72,9.090272,55.627193
2006509,Østervænget,6623,74,9.090422,55.627431
2018395,Almstokvej,6623,20,9.1251957,55.6872443
2018397,Almstokvej,6623,22,9.11965,55.685809
2018400,Almstokvej,6623,27,9.1232712,55.6838131
2018401,Almstokvej,6623,29,9.120056,55.685608
2018402,Almstokvej,6623,31,9.119139,55.685195
2018403,Almstokvej,6623,33,9.118923,55.685085
2018404,Almstokvej,6623,35,9.11866,55.684986
2018405,Almstokvej,6623,37,9.118974,55.684673
2027332,Bækkevej,6623,1,9.091649,55.627107
2027333,Bækkevej,6623,2,9.091122,55.627284
2027334,Bækkevej,6623,3,9.091595,55.626841
2027336,Bækkevej,6623,4,9.091117,55.626948
2027337,Bækkevej,6623,5,9.091472,55.626636
2027339,Bækkevej,6623,7,9.091325,55.626404
2027340,Bækkevej,6623,9,9.09137,55.626201
2027341,Bækkevej,6623,10A,9.08642,55.622755
2027343,Bækkevej,6623,14,9.090441,55.625212
2027344,Bækkevej,6623,15,9.092054,55.626206
2027345,Bækkevej,6623,21,9.101127,55.603139
2027347,Bækkevej,6623,21A,9.091089,55.622774
2027348,Bækkevej,6623,21B,9.091471,55.618794
2027349,Bækkevej,6623,21C,9.09308,55.615307
2027351,Bækkevej,6623,21D,9.103612,55.599446
2027352,Bækkevej,6623,22,9.087609,55.618284
2027353,Bækkevej,6623,22A,9.091144,55.617448
2027354,Bækkevej,6623,23A,9.107244,55.599755
2027355,Bækkevej,6623,24,9.087424,55.616365
2027356,Bækkevej,6623,24A,9.085792,55.616758
2027357,Bækkevej,6623,30,9.0974768,55.605483
2027358,Bækkevej,6623,32,9.099123,55.603413
2027359,Bækkevej,6623,32A,9.094381,55.602764
2027360,Bækkevej,6623,32B,9.101576,55.600598
2027361,Bækkevej,6623,34,9.093519,55.602591
2030533,Museumsparken,6623,1,9.08475,55.631126
2030534,Museumsparken,6623,3,9.084986,55.63108
2030535,Museumsparken,6623,4,9.083751,55.630571
2030536,Museumsparken,6623,5,9.085085,55.631041
2030537,Museumsparken,6623,6,9.08358,55.630601
2030538,Museumsparken,6623,7,9.085185,55.631026
2030539,Museumsparken,6623,8,9.083328,55.630639
2030540,Museumsparken,6623,9,9.085309,55.631008
2030541,Museumsparken,6623,10,9.083283,55.630557
2030542,Museumsparken,6623,11,9.085433,55.630989
2030543,Museumsparken,6623,12,9.083248,55.630492
2030544,Museumsparken,6623,13,9.08554,55.631099
2030545,Museumsparken,6623,14,9.08327,55.630338
2030546,Museumsparken,6623,15,9.085606,55.631205
2030547,Museumsparken,6623,16,9.083363,55.630322
2030548,Museumsparken,6623,17,9.085667,55.631309
2030549,Museumsparken,6623,18,9.083476,55.630302
2030550,Museumsparken,6623,19,9.085453,55.631341
2030551,Museumsparken,6623,20,9.083633,55.630274
2030552,Museumsparken,6623,21,9.085357,55.631359
2030555,Museumsparken,6623,22,9.083824,55.630264
2030556,Museumsparken,6623,23,9.085071,55.631264
2030557,Museumsparken,6623,24,9.08392,55.630276
2030559,Museumsparken,6623,25,9.085112,55.631309
2030560,Museumsparken,6623,26,9.084033,55.63029
2030561,Museumsparken,6623,27,9.085169,55.631403
2030562,Museumsparken,6623,28,9.084357,55.630255
2030563,Museumsparken,6623,29,9.084929,55.631415
2030564,Museumsparken,6623,30,9.084497,55.63023
2030565,Museumsparken,6623,31,9.084872,55.631319
2030566,Museumsparken,6623,32,9.084615,55.630208
2030567,Museumsparken,6623,34,9.084728,55.630206
2030568,Museumsparken,6623,36,9.084865,55.630182
2030569,Museumsparken,6623,38,9.084923,55.630302
2030570,Museumsparken,6623,40,9.084969,55.630386
2030571,Museumsparken,6623,42,9.085041,55.630506
2030572,Museumsparken,6623,44,9.084915,55.630528
2030573,Museumsparken,6623,46,9.084733,55.63056
2030574,Museumsparken,6623,48,9.084528,55.630437
2030575,Museumsparken,6623,50,9.084552,55.63048
2030576,Museumsparken,6623,52,9.084605,55.630582
2030577,Museumsparken,6623,54,9.084398,55.630563
2030578,Museumsparken,6623,56,9.084259,55.630587
2030591,Kirkegade,6623,1,9.086351,55.629702
2030592,Kirkegade,6623,2A,9.086653,55.629447
2030593,Kirkegade,6623,2B,9.086763,55.629428
2030594,Kirkegade,6623,2C,9.086872,55.629408
2030595,Kirkegade,6623,2D,9.086939,55.629576
2030596,Kirkegade,6623,3,9.086404,55.629929
2030597,Kirkegade,6623,4A,9.087034,55.629499
2030598,Kirkegade,6623,4B,9.087196,55.629399
2030599,Kirkegade,6623,5,9.086678,55.630076
2030600,Kirkegade,6623,6,9.0869,55.629832
2030602,Kirkegade,6623,7,9.086844,55.630266
2030605,Kirkegade,6623,8,9.087028,55.629978
2030606,Kirkegade,6623,9,9.086906,55.630382
2030607,Kirkegade,6623,10,9.087255,55.630231
2030608,Kirkegade,6623,11,9.086973,55.630536
2030609,Kirkegade,6623,12,9.08737,55.630357
2030610,Kirkegade,6623,13,9.087109,55.630691
2030611,Kirkegade,6623,14,9.08756,55.630571
2030612,Kirkegade,6623,15,9.087066,55.630896
2030613,Kirkegade,6623,16,9.087812,55.630906
2030615,Kirkegade,6623,17,9.085941,55.630767
2030616,Kirkegade,6623,20,9.082818,55.633384
2030620,Kirkegade,6623,33A,9.082922,55.632983
2030632,Birkevej,6623,1,9.075886,55.630257
2030634,Birkevej,6623,2,9.076326,55.630096
2030635,Birkevej,6623,3,9.075974,55.630442
2030636,Birkevej,6623,4,9.076326,55.630276
2030637,Birkevej,6623,5,9.076035,55.630639
2030638,Birkevej,6623,6,9.076401,55.630498
2030639,Birkevej,6623,7,9.076149,55.630834
2030640,Birkevej,6623,8,9.076555,55.630685
2030641,Birkevej,6623,9,9.076296,55.630998
2030642,Birkevej,6623,10,9.076725,55.630852
2030643,Birkevej,6623,11,9.076491,55.631205
2030644,Birkevej,6623,12,9.077,55.6311
2030648,Østermosevej,6623,1,9.10695,55.635157
2030649,Østermosevej,6623,2,9.107072,55.634525
2030650,Østermosevej,6623,2B,9.123508,55.63339
2030651,Østermosevej,6623,3,9.11232,55.634907
2030652,Østermosevej,6623,3A,9.129234,55.635976
2030653,Østermosevej,6623,3B,9.135031,55.63503
2030654,Østermosevej,6623,4,9.130204,55.631176
2030655,Østermosevej,6623,5,9.142106,55.63369
2030656,Østermosevej,6623,7,9.144073,55.631979
2030663,Skødebjergvej,6623,1,9.095749,55.625469
2030664,Skødebjergvej,6623,2,9.097836,55.623819
2030665,Skødebjergvej,6623,2A,9.096002,55.624691
2030666,Skødebjergvej,6623,3,9.113979,55.615586
2030668,Skødebjergvej,6623,3A,9.109595,55.621101
2030669,Skødebjergvej,6623,4,9.100139,55.622235
2030671,Skødebjergvej,6623,5,9.11498,55.615575
2030672,Skødebjergvej,6623,6,9.096869,55.616001
2030674,Skødebjergvej,6623,7,9.123887,55.611105
2030676,Skødebjergvej,6623,8,9.103502,55.620448
2030679,Skødebjergvej,6623,8A,9.117388,55.62695
2030682,Skødebjergvej,6623,9,9.125259,55.611745
2030685,Skødebjergvej,6623,10,9.1041331,55.6200844
2030688,Skødebjergvej,6623,11,9.12601,55.611554
2030689,Skødebjergvej,6623,12,9.112932,55.612152
2030692,Skødebjergvej,6623,12A,9.117704,55.608151
2030694,Skødebjergvej,6623,13,9.129803,55.608559
2030695,Skødebjergvej,6623,14,9.1108735,55.6086863
2030696,Skødebjergvej,6623,16,9.110338,55.604326
2030697,Skødebjergvej,6623,18,9.123787,55.610591
2030698,Skødebjergvej,6623,20,9.124565,55.608277
2030699,Skødebjergvej,6623,22,9.130603,55.607653
2030746,Parkvej,6623,1,9.079416,55.629266
2030747,Parkvej,6623,3,9.079256,55.629001
2030748,Parkvej,6623,4,9.078924,55.629663
2030749,Parkvej,6623,5,9.079086,55.628819
2030750,Parkvej,6623,6,9.078704,55.629382
2030751,Parkvej,6623,7,9.078946,55.628625
2030752,Parkvej,6623,8,9.078661,55.629091
2030753,Parkvej,6623,9,9.078923,55.62841
2030754,Parkvej,6623,10,9.078605,55.628885
2030755,Parkvej,6623,11,9.078867,55.628212
2030759,Parkvej,6623,12,9.078545,55.628692
2030760,Parkvej,6623,13,9.078815,55.628022
2030761,Parkvej,6623,14,9.078485,55.628495
2030762,Parkvej,6623,15,9.078788,55.627813
2030763,Parkvej,6623,16,9.078418,55.628289
2030764,Parkvej,6623,17,9.078702,55.627624
2030765,Parkvej,6623,18,9.078379,55.628092
2030766,Parkvej,6623,19,9.078614,55.62733
2030770,Parkvej,6623,20,9.078313,55.627901
2030771,Parkvej,6623,22,9.078254,55.627706
2030772,Parkvej,6623,23,9.078565,55.627059
2030773,Parkvej,6623,24,9.078184,55.627448
2030774,Parkvej,6623,26,9.078131,55.627274
2030775,Parkvej,6623,28,9.078018,55.627078
2030779,Parkvej,6623,30,9.077422,55.627291
2030812,Tårngade,6623,1,9.082491,55.63
2030814,Tårngade,6623,2,9.082743,55.629977
2030815,Tårngade,6623,3,9.082468,55.630381
2030816,Tårngade,6623,4,9.082809,55.630146
2030817,Tårngade,6623,5,9.082292,55.630477
2030819,Tårngade,6623,6,9.082859,55.630341
2030821,Tårngade,6623,7,9.08195,55.630663
2030822,Tårngade,6623,7A,9.081654,55.630497
2030823,Tårngade,6623,8,9.082733,55.630641
2030825,Tårngade,6623,9,9.081715,55.630797
2030827,Tårngade,6623,10,9.082677,55.630854
2030828,Tårngade,6623,11,9.081543,55.630888
2030829,Tårngade,6623,12,9.082389,55.630705
2030831,Tårngade,6623,13,9.081033,55.63117
2030832,Tårngade,6623,15,9.080425,55.631331
2030833,Tårngade,6623,18,9.080986,55.631417
2030835,Tårngade,6623,20,9.080494,55.63145
2030836,Tårngade,6623,22,9.080442,55.631547
2030854,Drivvejen,6623,1,9.082249,55.627376
2030855,Drivvejen,6623,2,9.078404,55.626667
2030857,Drivvejen,6623,3,9.082058,55.627189
2030858,Drivvejen,6623,4,9.079145,55.626567
2030859,Drivvejen,6623,6,9.078741,55.62639
2030860,Drivvejen,6623,7,9.088828,55.62599
2030861,Drivvejen,6623,8,9.078295,55.626397
2030862,Drivvejen,6623,10,9.078259,55.626162
2030863,Drivvejen,6623,12,9.077766,55.626297
2030865,Drivvejen,6623,14,9.077724,55.626008
2030867,Drivvejen,6623,16,9.076813,55.626194
2030869,Drivvejen,6623,18,9.077069,55.626323
2030870,Drivvejen,6623,20,9.077118,55.626547
2030871,Drivvejen,6623,22,9.077215,55.626727
2030872,Drivvejen,6623,24,9.077703,55.626767
2030873,Drivvejen,6623,26,9.07787,55.626482
2030874,Drivvejen,6623,28,9.083475,55.626174
2030875,Drivvejen,6623,32,9.084918,55.625611
2030876,Drivvejen,6623,34,9.084906,55.625287
2030888,Nørrebyvej,6623,1,9.072967,55.639582
2030889,Nørrebyvej,6623,2,9.077643,55.635411
2030890,Nørrebyvej,6623,3,9.072606,55.640038
2030891,Nørrebyvej,6623,4,9.079188,55.636942
2030892,Nørrebyvej,6623,5,9.072116,55.640505
2030893,Nørrebyvej,6623,6,9.074286,55.639004
2030894,Nørrebyvej,6623,7,9.070901,55.641795
2030895,Nørrebyvej,6623,7A,9.068246,55.644266
2030896,Nørrebyvej,6623,8,9.073793,55.639694
2030897,Nørrebyvej,6623,8A,9.073416,55.639934
2030898,Nørrebyvej,6623,10,9.073327,55.640184
2030899,Nørrebyvej,6623,12,9.073775,55.640715
2030900,Nørrebyvej,6623,14,9.073134,55.640369
2030901,Nørrebyvej,6623,16,9.072641,55.641268
2030903,Nørrebyvej,6623,18,9.070294,55.654204
2030904,Nørrebyvej,6623,20,9.070725,55.653919
2030907,Nørrebyvej,6623,22,9.062285,55.660862
2030913,Gl. Grenevej,6623,1,9.079248,55.634202
2030919,Gl. Grenevej,6623,2,9.079191,55.633504
2030922,Gl. Grenevej,6623,3,9.079032,55.634542
2030926,Gl. Grenevej,6623,4,9.079438,55.633795
2030929,Gl. Grenevej,6623,6,9.079807,55.633936
2030952,Egesøvej,6623,1,9.0879596,55.602356
2030953,Egesøvej,6623,2,9.08938,55.606865
2030954,Egesøvej,6623,2B,9.0869943,55.5979056
2030956,Egesøvej,6623,3,9.086376,55.606284
2030957,Egesøvej,6623,5,9.083487,55.60146
2030960,Bakkevej,6623,1,9.081647,55.629313
2030963,Bakkevej,6623,2A,9.080975,55.629485
2030964,Bakkevej,6623,2B,9.080911,55.629452
2030965,Bakkevej,6623,2C,9.080953,55.629412
2030968,Bakkevej,6623,2D,9.080888,55.629373
2030969,Bakkevej,6623,2E,9.080932,55.629333
2030972,Bakkevej,6623,2F,9.080867,55.629277
2030973,Bakkevej,6623,2G,9.080985,55.629263
2030974,Bakkevej,6623,3A,9.081364,55.629088
2030975,Bakkevej,6623,3B,9.081494,55.629074
2030979,Bakkevej,6623,3C,9.081657,55.629062
2030983,Bakkevej,6623,4,9.08093,55.629157
2030987,Bakkevej,6623,10,9.080883,55.628856
2030989,Bakkevej,6623,12,9.080732,55.628879
2030991,Bakkevej,6623,14,9.080852,55.628677
2030994,Bakkevej,6623,16,9.080684,55.628691
2030996,Bakkevej,6623,18,9.080832,55.628493
2030999,Bakkevej,6623,20,9.080674,55.628508
2031001,Bakkevej,6623,22,9.080815,55.628316
2031005,Bakkevej,6623,24,9.080636,55.628337
2031007,Bakkevej,6623,26,9.08076,55.628147
2031009,Bakkevej,6623,28,9.080596,55.628166
2031027,Slaugvej,6623,1A,9.091536,55.635646
2031028,Slaugvej,6623,1B,9.096802,55.640172
2031030,Slaugvej,6623,2,9.088926,55.632376
2031032,Slaugvej,6623,3,9.101356,55.644891
2031034,Slaugvej,6623,4,9.090451,55.633811
2031035,Slaugvej,6623,6,9.092005,55.635088
2031036,Slaugvej,6623,7,9.104142,55.645065
2031037,Slaugvej,6623,8,9.096039,55.636731
2031038,Slaugvej,6623,9,9.105516,55.650388
2031039,Slaugvej,6623,10,9.105991,55.641927
2031040,Slaugvej,6623,11,9.094083,55.656558
2031041,Slaugvej,6623,12,9.117472,55.649896
2031042,Slaugvej,6623,14,9.117785,55.650708
2031043,Slaugvej,6623,16,9.100031,55.657469
2031052,Kirkevænget,6623,2,9.087922,55.629769
2031053,Kirkevænget,6623,3,9.088036,55.63013
2031054,Kirkevænget,6623,4,9.08838,55.629599
2031055,Kirkevænget,6623,5,9.088264,55.630381
2031056,Kirkevænget,6623,6,9.088295,55.629484
2031057,Kirkevænget,6623,7,9.088664,55.630243
2031058,Kirkevænget,6623,9,9.088641,55.629996
2031059,Kirkevænget,6623,11,9.088654,55.629805
2031060,Kirkevænget,6623,13,9.089173,55.629668
2031061,Kirkevænget,6623,20,9.088974,55.629391
2031062,Kirkevænget,6623,22,9.088977,55.629323
2031063,Kirkevænget,6623,24,9.08898,55.629255
2031064,Kirkevænget,6623,26,9.089173,55.629328
2031077,Dalagervej,6623,1,9.075335,55.630004
2031079,Dalagervej,6623,2,9.072902,55.631117
2031080,Dalagervej,6623,3,9.074786,55.630219
2031082,Dalagervej,6623,4,9.07251,55.63127
2031083,Dalagervej,6623,5,9.074383,55.630286
2031084,Dalagervej,6623,6,9.072359,55.631507
2031086,Dalagervej,6623,7,9.074065,55.630369
2031088,Dalagervej,6623,8,9.07225,55.631813
2031090,Dalagervej,6623,9,9.07267,55.630864
2031091,Dalagervej,6623,10,9.072401,55.632084
2031093,Dalagervej,6623,11,9.072223,55.631058
2031095,Dalagervej,6623,12,9.072502,55.632253
2031096,Dalagervej,6623,15,9.071813,55.631693
2031098,Dalagervej,6623,17,9.0718,55.632021
2031099,Dalagervej,6623,19,9.072171,55.632434
2031100,Dalagervej,6623,21,9.072606,55.632603
2031102,Dalagervej,6623,23,9.072899,55.632779
2031103,Dalagervej,6623,25,9.073298,55.633207
2031116,Skødevej,6623,1,9.1429772,55.6225583
2031117,Skødevej,6623,2,9.142742,55.622666
2031118,Skødevej,6623,3,9.142995,55.622382
2031119,Skødevej,6623,4,9.14272,55.622488
2031120,Skødevej,6623,5,9.143119,55.622011
2031121,Skødevej,6623,6,9.142136,55.620764
2031122,Skødevej,6623,7,9.143089,55.621825
2031123,Skødevej,6623,8,9.141529,55.620343
2031124,Skødevej,6623,9,9.142898,55.621523
2031125,Skødevej,6623,10,9.143702,55.616647
2031126,Skødevej,6623,11,9.1452948,55.6206291
2031127,Skødevej,6623,13,9.145329,55.614858
2031132,Kratvej,6623,2,9.127039,55.610978
2031133,Kratvej,6623,4,9.127871,55.612996
2031134,Kratvej,6623,6,9.130637,55.61374
2031135,Kratvej,6623,6A,9.11937,55.603699
2031136,Kratvej,6623,8,9.128927,55.615946
2031147,Labrivej,6623,1,9.073413,55.631062
2031148,Labrivej,6623,2,9.073676,55.630912
2031149,Labrivej,6623,3,9.073514,55.631324
2031150,Labrivej,6623,4,9.073759,55.63113
2031151,Labrivej,6623,5,9.073591,55.631558
2031152,Labrivej,6623,6,9.073837,55.631362
2031153,Labrivej,6623,8,9.07405,55.631595
2031154,Labrivej,6623,9,9.073714,55.63189
2031155,Labrivej,6623,11,9.073414,55.632196
2031156,Labrivej,6623,12,9.074407,55.631954
2031157,Labrivej,6623,13,9.073119,55.632406
2031158,Labrivej,6623,14,9.074186,55.632183
2031159,Labrivej,6623,16,9.073941,55.632286
2031160,Labrivej,6623,18,9.073596,55.632423
2031161,Labrivej,6623,20,9.07334,55.632612
2031164,Møllegade,6623,2,9.079703,55.633102
2031166,Møllegade,6623,3,9.079776,55.633232
2031167,Møllegade,6623,4,9.080143,55.632961
2031168,Møllegade,6623,5,9.080131,55.633175
2031172,Havnevej,6623,1,9.078871,55.632051
2031173,Havnevej,6623,2,9.07861,55.632281
2031175,Havnevej,6623,4,9.078338,55.632113
2031176,Havnevej,6623,6,9.078277,55.631958
2031177,Havnevej,6623,8,9.078242,55.631836
2031183,Gejlvangvej,6623,1,9.146154,55.63074
2031185,Gejlvangvej,6623,1A,9.127829,55.626644
2031187,Gejlvangvej,6623,2,9.14897,55.631713
2031188,Gejlvangvej,6623,3,9.150257,55.638725
2031191,Gejlvangvej,6623,3A,9.112652,55.660715
2031192,Gejlvangvej,6623,4,9.152664,55.637028
2031193,Gejlvangvej,6623,4A,9.152979,55.636723
2031194,Gejlvangvej,6623,5,9.148285,55.639595
2031200,Præstevænget,6623,1,9.081707,55.63297
2031202,Præstevænget,6623,3,9.081998,55.632832
2031203,Præstevænget,6623,5,9.082475,55.632752
2031212,Gl. Dalagervej,6623,10A,9.069308,55.632183
2031213,Gl. Dalagervej,6623,10B,9.069503,55.632224
2031214,Gl. Dalagervej,6623,12,9.065288,55.6338
2031216,Gl. Dalagervej,6623,14,9.058734,55.63607
2031229,Frederiksnådevej,6623,1,9.081334,55.666867
2031230,Frederiksnådevej,6623,2,9.0789499,55.6681503
2031231,Frederiksnådevej,6623,3,9.066584,55.663072
2031232,Frederiksnådevej,6623,4,9.070816,55.666237
2031233,Frederiksnådevej,6623,6,9.069827,55.665937
2031240,Bøgelundvej,6623,2,9.071225,55.620837
2031241,Bøgelundvej,6623,9,9.073556,55.621807
2031250,Frederikshåbvej,6623,1,9.142262,55.62385
2031252,Frederikshåbvej,6623,2,9.142998,55.623861
2031253,Frederikshåbvej,6623,3,9.143181,55.625473
2031256,Frederikshåbvej,6623,4,9.154222,55.629657
2031258,Frederikshåbvej,6623,5,9.145917,55.628518
2031259,Frederikshåbvej,6623,6,9.15832,55.633222
2031260,Frederikshåbvej,6623,7,9.154942,55.63092
2031284,Knurborgvej,6623,1,9.104913,55.664478
2031285,Knurborgvej,6623,1A,9.113963,55.665156
2031287,Knurborgvej,6623,2,9.106605,55.66113
2031289,Vestergade,6623,2,9.07963,55.630304
2031292,Vestergade,6623,2A,9.079289,55.630565
2031293,Vestergade,6623,3,9.079834,55.629958
2031294,Vestergade,6623,4,9.079188,55.630404
2031295,Vestergade,6623,5,9.079383,55.630132
2031296,Vestergade,6623,10,9.078416,55.631036
2031297,Vestergade,6623,11,9.077934,55.630569
2031300,Håndværkervej,6623,1,9.081855,55.631205
2031301,Håndværkervej,6623,2,9.082208,55.630964
2031302,Håndværkervej,6623,3,9.082055,55.631394
2031303,Håndværkervej,6623,4,9.082737,55.631303
2031304,Håndværkervej,6623,5,9.081667,55.632065
2031305,Håndværkervej,6623,5A,9.082049,55.631877
2031306,Håndværkervej,6623,6,9.083262,55.631691
2031309,Håndværkervej,6623,8,9.083567,55.631945
2031310,Håndværkervej,6623,9,9.08286,55.632048
2031311,Håndværkervej,6623,10,9.083523,55.63224
2031312,Håndværkervej,6623,11,9.082478,55.632455
2031333,Fitting Stationsvej,6623,1,9.140137,55.613048
2031335,Fitting Stationsvej,6623,1A,9.137267,55.614955
2031337,Fitting Stationsvej,6623,2,9.13957,55.621939
2031338,Fitting Stationsvej,6623,4,9.139458,55.621547
2031340,Fitting Stationsvej,6623,6,9.138603,55.616562
2031342,Fitting Stationsvej,6623,8,9.13801,55.613658
2031344,Fitting Stationsvej,6623,10,9.136016,55.610414
2031346,Fitting Stationsvej,6623,12,9.135545,55.609279
2031352,Fitting Stationsvej,6623,14,9.133755,55.609304
2031356,Fitting Stationsvej,6623,16,9.134143,55.608512
2031357,Fitting Stationsvej,6623,18,9.133709,55.608341
2031373,Dalgasvej,6623,1A,9.080324,55.633132
2031374,Dalgasvej,6623,1B,9.080379,55.633219
2031375,Dalgasvej,6623,2,9.08074,55.63306
2031376,Dalgasvej,6623,3,9.080462,55.633397
2031377,Dalgasvej,6623,4,9.080896,55.633435
2031378,Dalgasvej,6623,5,9.080468,55.633597
2031379,Dalgasvej,6623,6,9.080935,55.633677
2031380,Dalgasvej,6623,8,9.080868,55.633958
2031381,Dalgasvej,6623,10,9.080351,55.634094
2031382,Dalgasvej,6623,12,9.080111,55.634439
2031383,Dalgasvej,6623,14,9.079937,55.634644
2031386,Dalgasvej,6623,16,9.07956,55.634914
2031430,Højagervej,6623,1A,9.100936,55.624363
2031432,Højagervej,6623,5,9.100759,55.6239402
2031435,Højagervej,6623,6,9.099722,55.62384
2031438,Højagervej,6623,7,9.1015463,55.6230769
2031444,Højagervej,6623,8,9.099849,55.623375
2031449,Højagervej,6623,10,9.100447,55.623056
2031490,Rolighedsvej,6623,1,9.078943,55.630153
2031495,Rolighedsvej,6623,7,9.078538,55.6298
2031497,Rolighedsvej,6623,8,9.07843,55.63015
2031498,Rolighedsvej,6623,9,9.078103,55.629838
2031500,Rolighedsvej,6623,10,9.077691,55.629988
2031502,Rolighedsvej,6623,11,9.077452,55.629706
2031503,Rolighedsvej,6623,12,9.077565,55.630113
2031505,Rolighedsvej,6623,13,9.077237,55.629484
2031524,Søndervænget,6623,1,9.076847,55.625497
2031526,Søndervænget,6623,2,9.077205,55.6257
2031528,Søndervænget,6623,3,9.076541,55.625762
2031530,Søndervænget,6623,4,9.077468,55.62581
2031532,Søndervænget,6623,6,9.07698,55.625794
2031553,Stadionvej,6623,2,9.083335,55.629178
2031555,Stadionvej,6623,2A,9.082717,55.629127
2031557,Stadionvej,6623,4,9.08321,55.628679
2031558,Stadionvej,6623,4A,9.082575,55.628908
2031559,Stadionvej,6623,4B,9.083242,55.628846
2031562,Degnelodden,6623,1,9.0778,55.631609
2031563,Degnelodden,6623,3,9.077546,55.631522
2031564,Degnelodden,6623,5,9.077344,55.631638
2031565,Degnelodden,6623,7,9.077242,55.631697
2031567,Degnelodden,6623,9,9.077155,55.631747
2031569,Degnelodden,6623,11,9.077068,55.631798
2031570,Degnelodden,6623,13,9.076981,55.631848
2031571,Degnelodden,6623,15,9.076894,55.631898
2031572,Degnelodden,6623,17,9.076807,55.631948
2031573,Degnelodden,6623,19,9.076698,55.631975
2031574,Degnelodden,6623,21,9.076613,55.632023
2031575,Degnelodden,6623,23,9.0765291,55.632072
2031576,Degnelodden,6623,25,9.076445,55.632121
2031577,Degnelodden,6623,27,9.07636,55.632169
2031578,Degnelodden,6623,29,9.076276,55.632218
2031579,Degnelodden,6623,31,9.077489,55.631742
2031580,Degnelodden,6623,33,9.077444,55.631817
2031581,Degnelodden,6623,35,9.077471,55.631884
2031582,Degnelodden,6623,37,9.077498,55.631951
2031583,Degnelodden,6623,39,9.077525,55.632018
2031584,Degnelodden,6623,41,9.07737,55.632042
2031585,Degnelodden,6623,43,9.077248,55.632058
2031586,Degnelodden,6623,45,9.077121,55.632075
2031587,Degnelodden,6623,47,9.076993,55.632092
2031627,Svalevænget,6623,1,9.07362,55.630537
2031628,Svalevænget,6623,2,9.073285,55.630604
2031629,Svalevænget,6623,3,9.07353,55.630296
2031630,Svalevænget,6623,4,9.07319,55.630354
2031631,Svalevænget,6623,5,9.07318,55.630118
2031634,Drosselvej,6623,2,9.072227,55.629711
2031635,Drosselvej,6623,3,9.071834,55.629919
2031636,Drosselvej,6623,4,9.072318,55.630101
2031637,Drosselvej,6623,5,9.071951,55.630209
2031638,Drosselvej,6623,6,9.072398,55.630337
2031639,Drosselvej,6623,6A,9.072271,55.630538
2031640,Drosselvej,6623,7,9.072035,55.630449
2031641,Drosselvej,6623,8,9.072502,55.630558
2031642,Drosselvej,6623,9,9.072123,55.630691
2031647,Bøgevej,6623,1,9.074533,55.630677
2031648,Bøgevej,6623,2,9.074934,55.630617
2031651,Bøgevej,6623,3,9.074732,55.630864
2031652,Bøgevej,6623,4,9.07534,55.630443
2031654,Bøgevej,6623,5,9.074952,55.631083
2031657,Bøgevej,6623,6,9.075137,55.630837
2031659,Bøgevej,6623,7,9.075178,55.631292
2031662,Bøgevej,6623,8,9.075354,55.631023
2031665,Bøgevej,6623,9,9.075435,55.631606
2031667,Bøgevej,6623,10,9.075554,55.631208
2031669,Bøgevej,6623,12,9.075816,55.63144
2081411,Sønder Almstokvej,6623,2,9.1197903,55.6801649
2081412,Sønder Almstokvej,6623,2A,9.118956,55.681185
2081650,Nygade,6623,1,9.102237,55.681219
2081652,Nygade,6623,2,9.1020165,55.6810665
2081654,Nygade,6623,3,9.102607,55.681131
2081656,Nygade,6623,4,9.102456,55.680874
2084237,Bogholdervej,6623,1A,9.105367,55.6831
2084238,Bogholdervej,6623,1B,9.105278,55.683207
2084241,Bogholdervej,6623,1C,9.10505,55.683078
2084242,Bogholdervej,6623,1D,9.100537,55.686637
2084243,Bogholdervej,6623,1E,9.104168,55.684881
2084244,Bogholdervej,6623,2,9.0961103,55.689243
2084245,Bogholdervej,6623,3,9.092002,55.690624
2084246,Bogholdervej,6623,5,9.087281,55.687107
2084247,Bogholdervej,6623,6,9.094598,55.690925
2084248,Bogholdervej,6623,7,9.083769,55.687592
2084249,Bogholdervej,6623,8,9.096808,55.691709
2084252,Bogholdervej,6623,9,9.079663,55.685452
2084255,Bogholdervej,6623,11,9.077309,55.688954
2084256,Bogholdervej,6623,12,9.081448,55.694768
2084257,Bogholdervej,6623,13,9.071123,55.692099
2089347,Kolonivej,6623,3,9.102641,55.683308
2089348,Kolonivej,6623,5,9.1021896,55.6838095
2092187,Grønnegade,6623,1,9.1055706,55.6825185
2092190,Grønnegade,6623,2,9.105016,55.682481
2092193,Grønnegade,6623,3,9.105609,55.681993
2092196,Grønnegade,6623,4,9.1050927,55.6822371
2092198,Grønnegade,6623,5,9.1057525,55.6817937
2092199,Grønnegade,6623,6,9.105239,55.681941
2092202,Grønnegade,6623,7,9.105824,55.681635
2092203,Grønnegade,6623,8A,9.104544,55.681935
2092205,Grønnegade,6623,8B,9.104321,55.682143
2092207,Grønnegade,6623,9,9.1060179,55.6813794
2092209,Grønnegade,6623,10,9.104231,55.682319
2092211,Grønnegade,6623,11,9.105077,55.680993
2092214,Grønnegade,6623,13,9.103733,55.681791
2092216,Grønnegade,6623,15,9.1039317,55.6822208
2101149,Købmandsvej,6623,1,9.103395,55.683316
2101150,Købmandsvej,6623,2,9.103522,55.683119
2101151,Købmandsvej,6623,3,9.103748,55.683458
2101152,Købmandsvej,6623,4,9.103969,55.683286
2101153,Købmandsvej,6623,5,9.1041293,55.6837848
2101154,Købmandsvej,6623,6,9.104439,55.683333
2101155,Købmandsvej,6623,8,9.104731,55.68341
2101156,Købmandsvej,6623,10,9.104659,55.683643
2101157,Købmandsvej,6623,12,9.104733,55.683846
2104801,Skovglimt,6623,1,9.080084,55.625231
2104802,Skovglimt,6623,2,9.079628,55.624229
2168291,Knuden,6623,2,9.10199,55.682035
2168302,Knuden,6623,3,9.101609,55.68195
2168308,Knuden,6623,5,9.101263,55.682047
2169146,Sorgenfrivej,6623,1,9.065994,55.628624
2169150,Sorgenfrivej,6623,1A,9.068728,55.628653
2169157,Sorgenfrivej,6623,2,9.065392,55.629208
2169165,Sorgenfrivej,6623,3,9.067399,55.628598
2169168,Sorgenfrivej,6623,4,9.064192,55.629103
2169176,Sorgenfrivej,6623,5,9.068629,55.628522
2169180,Sorgenfrivej,6623,7,9.069148,55.628541
2169188,Sorgenfrivej,6623,9A,9.068337,55.628913
2185697,Tribinivej,6623,3,9.071376,55.632469
2185699,Tribinivej,6623,6,9.0717,55.632702
2185700,Tribinivej,6623,7,9.071244,55.63293
2185701,Tribinivej,6623,8,9.07167,55.63296
2185704,Tribinivej,6623,9,9.071306,55.633182
2185706,Tribinivej,6623,10,9.071838,55.633228
2185708,Tribinivej,6623,11,9.071378,55.633327
2185709,Tribinivej,6623,12,9.071892,55.633464
2185711,Tribinivej,6623,13,9.07138,55.633605
2185712,Tribinivej,6623,14,9.072128,55.633727
2185713,Tribinivej,6623,15,9.071487,55.633796
2185714,Tribinivej,6623,17,9.071229,55.634083
2185725,Markedsstien,6623,1,9.072454,55.628863
2185726,Markedsstien,6623,2,9.072136,55.628931
2185727,Markedsstien,6623,4,9.071454,55.62883
2185728,Markedsstien,6623,11,9.07317,55.628802
2191077,Frederikshåbvej,6623,23,9.155847,55.64234
2198408,Skjoldbjergvej,6623,8,9.08127,55.63234
2210639,Markedsstien,6623,6A,9.072015,55.628481
2210640,Fittingvej,6623,5D,9.114393,55.626952
2210641,Fittingvej,6623,7B,9.134532,55.620012
2210642,Kirkegade,6623,23,9.086542,55.631624
2210643,Kirkegade,6623,23A,9.087381,55.631619
2210644,Kirkevænget,6623,4A,9.088459,55.629579
2210645,Kirkevænget,6623,8,9.088211,55.629369
2210646,Kirkevænget,6623,10A,9.088186,55.629002
2210647,Kirkevænget,6623,10B,9.088395,55.628966
2210648,Kirkevænget,6623,12,9.088424,55.629262
2210649,Kirkevænget,6623,14,9.088472,55.629351
2210650,Kirkevænget,6623,16,9.088521,55.629441
2210651,Kirkevænget,6623,18,9.08857,55.629531
2210652,Museumsparken,6623,33A,9.08414,55.631025
2233070,Fromssejervej,6623,18A,9.005453,55.649896
2233071,Fromssejervej,6623,20A,9.004686,55.650104
2235985,Frederikshåbvej,6623,2A,9.143311,55.623606
2235986,Frederikshåbvej,6623,2B,9.143306,55.62368
2235987,Frederikshåbvej,6623,2C,9.143301,55.623761
2235988,Frederikshåbvej,6623,2D,9.143297,55.623841
2235989,Frederikshåbvej,6623,2E,9.143297,55.623923
2235990,Frederikshåbvej,6623,2F,9.143455,55.623924
2235991,Frederikshåbvej,6623,2G,9.143458,55.623843
2235992,Frederikshåbvej,6623,2H,9.143458,55.623762
2235993,Frederikshåbvej,6623,2K,9.143462,55.623681
2235994,Frederikshåbvej,6623,2L,9.143464,55.623621
2250084,Frederikshåbvej,6623,4A,9.167237,55.627406
2250085,Frederikshåbvej,6623,4B,9.170342,55.628871
2250093,Kirkegade,6623,18A,9.086952,55.632045
2250094,Kirkegade,6623,19,9.086394,55.631197
2250095,Kirkegade,6623,21,9.087562,55.63117
2250183,Skovly,6623,1,9.078048,55.625617
2250184,Skovly,6623,2,9.07689,55.624511
2250185,Skovly,6623,3,9.078215,55.625298
2250186,Skovly,6623,7,9.078367,55.624977
2250187,Skovly,6623,9,9.077891,55.625025
2250188,Skovly,6623,15,9.0795679,55.6226388
