idx,street,postcode,housenumber,lon,lat
513476,Allerupvej,6731,1,8.6134437,55.4489377
513477,Allerupvej,6731,2,8.6126242,55.4494726
513478,Allerupvej,6731,3,8.6136443,55.4491669
513479,Allerupvej,6731,4,8.6131696,55.4494504
513480,Allerupvej,6731,5,8.6138188,55.4494954
513481,Allerupvej,6731,7,8.614635,55.44913
513482,Allerupvej,6731,9,8.6142802,55.4495701
513483,Allerupvej,6731,13,8.6196941,55.4518079
513484,Allerupvej,6731,19,8.6168818,55.4529783
513485,Allerupvej,6731,21,8.6170336,55.4534986
513486,Allerupvej,6731,22,8.6167732,55.4541794
513487,Allerupvej,6731,23,8.6175133,55.4545112
514029,Balsbyvej,6731,2,8.5777132,55.4693929
514030,Balsbyvej,6731,3,8.5800758,55.4686239
514031,Balsbyvej,6731,4,8.5780341,55.4693139
514032,Balsbyvej,6731,5,8.5785092,55.4691836
514033,Balsbyvej,6731,6,8.5783111,55.4695239
514034,Balsbyvej,6731,7,8.5785992,55.4694076
514035,Balsbyvej,6731,8,8.5784039,55.4697558
514036,Balsbyvej,6731,9,8.578662,55.4695606
514037,Balsbyvej,6731,10,8.5784495,55.4699558
514038,Balsbyvej,6731,11,8.578769,55.469796
514039,Balsbyvej,6731,12,8.5785982,55.4701098
514040,Balsbyvej,6731,13,8.5789883,55.4697603
514041,Balsbyvej,6731,14,8.5783086,55.4701722
514042,Balsbyvej,6731,15,8.579083,55.4698749
514043,Balsbyvej,6731,16,8.5783665,55.4703136
514044,Balsbyvej,6731,17,8.5791652,55.4700553
514045,Balsbyvej,6731,18,8.578653,55.470288
514046,Balsbyvej,6731,19,8.5792585,55.4702196
514047,Balsbyvej,6731,21,8.5789558,55.4702453
514218,Bjerggårdsvej,6731,2,8.6236228,55.4614209
514409,Borggårdsvej,6731,15,8.5935609,55.4690176
514410,Borggårdsvej,6731,17,8.5953062,55.4686343
514411,Borggårdsvej,6731,19,8.5928183,55.4695787
514607,Brovej,6731,2,8.5875556,55.462675
514608,Brovej,6731,4,8.5879802,55.4627173
514609,Brovej,6731,6,8.5881134,55.4628544
514610,Brovej,6731,10,8.5884853,55.4633362
514611,Brovej,6731,12,8.5888897,55.463668
515343,Drosselkæret,6731,1,8.5712289,55.4698942
515344,Drosselkæret,6731,2,8.5706824,55.4698373
515345,Drosselkæret,6731,3,8.571185,55.4702898
515346,Drosselkæret,6731,4,8.5707365,55.4701534
515347,Drosselkæret,6731,5,8.5712058,55.4705137
515348,Drosselkæret,6731,6,8.5707709,55.4703511
515349,Drosselkæret,6731,7,8.5712439,55.4707178
515350,Drosselkæret,6731,8,8.5708054,55.4705464
515351,Drosselkæret,6731,9,8.5713537,55.4709306
515352,Drosselkæret,6731,10,8.5708408,55.4707426
515353,Drosselkæret,6731,11,8.5713191,55.4711569
515354,Drosselkæret,6731,12,8.5708849,55.4709586
515355,Drosselkæret,6731,13,8.5713473,55.4713393
515356,Drosselkæret,6731,14,8.5709202,55.4711564
515357,Drosselkæret,6731,15,8.5714047,55.4715965
515358,Drosselkæret,6731,16,8.5709514,55.4713168
515359,Drosselkæret,6731,18,8.5709805,55.4714896
515360,Drosselkæret,6731,20,8.5710101,55.4716638
515643,Elmevej,6731,9,8.569922,55.4703223
515644,Elmevej,6731,11,8.5697811,55.4705841
515645,Elmevej,6731,13,8.5697449,55.4707902
515646,Elmevej,6731,15,8.5696237,55.4709823
515647,Elmevej,6731,17,8.5702375,55.4709543
515648,Elmevej,6731,19,8.5699521,55.4711106
515649,Elmevej,6731,21,8.5696256,55.4712027
515650,Elmevej,6731,30,8.56509,55.475472
515651,Elmevænget,6731,1,8.5703966,55.4690862
515652,Elmevænget,6731,3,8.570344,55.4693156
515653,Elmevænget,6731,5,8.5704207,55.4695072
515861,Engvej,6731,3,8.5713435,55.4656349
515862,Engvej,6731,4,8.5721796,55.4659074
515863,Engvej,6731,5,8.5717334,55.4658507
515864,Engvej,6731,6,8.5723196,55.4657314
515865,Engvej,6731,7,8.5719739,55.465662
515866,Engvej,6731,8,8.5726018,55.4656236
515867,Engvej,6731,9,8.5721917,55.4655038
515868,Engvej,6731,10,8.5727443,55.4654482
515869,Engvej,6731,11A,8.571813,55.465318
515870,Engvej,6731,11B,8.572068,55.465154
515871,Engvej,6731,12,8.5730319,55.4653419
515872,Engvej,6731,13,8.5723568,55.4653119
515873,Engvej,6731,14,8.573171,55.465167
515874,Engvej,6731,15,8.572661,55.465165
515875,Engvej,6731,16,8.573459,55.46506
515876,Engvej,6731,18,8.573596,55.464881
515877,Engvej,6731,19,8.57294,55.465013
515878,Engvej,6731,21,8.573187,55.464893
515879,Engvej,6731,23,8.572757,55.46468
515880,Engvej,6731,25,8.573404,55.464705
515881,Engvej,6731,29,8.5733,55.464349
516203,Fasanhøjen,6731,1,8.5761105,55.4695477
516204,Fasanhøjen,6731,2,8.5755345,55.4695639
516205,Fasanhøjen,6731,4,8.5755674,55.4697489
516206,Fasanhøjen,6731,5,8.5759532,55.4697666
516207,Fasanhøjen,6731,6,8.5756054,55.469955
516208,Fasanhøjen,6731,7,8.5760114,55.4699741
516209,Fasanhøjen,6731,8,8.5756382,55.4701232
516210,Fasanhøjen,6731,9,8.5760519,55.4701467
516211,Fasanhøjen,6731,10,8.5756742,55.4703327
516212,Fasanhøjen,6731,11,8.5761479,55.4703181
516213,Fasanhøjen,6731,12,8.5757383,55.4707146
516214,Fasanhøjen,6731,13,8.5761852,55.4704438
516215,Fasanhøjen,6731,14,8.5757602,55.4708515
516216,Fasanhøjen,6731,15,8.5763932,55.4707985
516217,Fasanhøjen,6731,16,8.5757952,55.4710368
516218,Fasanhøjen,6731,17,8.5763539,55.471098
516219,Fasanhøjen,6731,18,8.5758221,55.4712243
516220,Fasanhøjen,6731,19,8.5762375,55.4712965
516221,Fasanhøjen,6731,20,8.5758544,55.4714152
516222,Fasanhøjen,6731,21,8.576376,55.471574
517406,Fyrrevænget,6731,1,8.5709755,55.4694621
517407,Fyrrevænget,6731,2,8.5716912,55.469427
517408,Fyrrevænget,6731,3,8.5711624,55.4692762
517409,Fyrrevænget,6731,4,8.5716064,55.4691758
517410,Fyrrevænget,6731,5,8.5711303,55.469069
517411,Fyrrevænget,6731,6,8.5715226,55.4689562
517412,Fyrrevænget,6731,7,8.5711052,55.4689179
517413,Fyrrevænget,6731,8,8.5714963,55.4687729
517414,Fyrrevænget,6731,9,8.5710828,55.4687064
517415,Fyrrevænget,6731,10,8.5714672,55.4685266
517448,Fælledvej,6731,1,8.5764033,55.4693817
517449,Fælledvej,6731,2,8.5765054,55.4691921
517450,Fælledvej,6731,4,8.5759699,55.4691981
517451,Fælledvej,6731,6,8.5754782,55.4692293
517792,Gammel Skolevej,6731,23,8.6344297,55.4812074
517793,Gammel Skolevej,6731,24,8.6349462,55.4810652
517794,Gammel Skolevej,6731,25,8.633361,55.4804221
517795,Gammel Skolevej,6731,27,8.6311115,55.4778677
517796,Gammel Skolevej,6731,29,8.6312181,55.4776322
517797,Gammel Skolevej,6731,32,8.631501,55.477082
517798,Gammel Skolevej,6731,42,8.6316028,55.4703873
517799,Gammel Skolevej,6731,43,8.6306113,55.4694354
517800,Gammel Skolevej,6731,45,8.6220271,55.4683855
517801,Gammel Skolevej,6731,46,8.6302439,55.4679218
517802,Gammel Skolevej,6731,47,8.6249753,55.4661345
517803,Gammel Skolevej,6731,49,8.6295233,55.4663726
518056,Granvænget,6731,1,8.5724404,55.4693767
518057,Granvænget,6731,2,8.5730687,55.4693443
518058,Granvænget,6731,3,8.5724408,55.4692061
518059,Granvænget,6731,4,8.5728334,55.4691494
518060,Granvænget,6731,5,8.5723332,55.4690315
518061,Granvænget,6731,6,8.5728331,55.4689093
518062,Granvænget,6731,7,8.5723839,55.4688651
518063,Granvænget,6731,8,8.5728278,55.4687003
518064,Granvænget,6731,9,8.572346,55.4686667
518065,Granvænget,6731,10,8.5727009,55.4684292
518066,Granvænget,6731,11,8.5723188,55.4684841
518067,Granvænget,6731,12,8.572721,55.46825
518068,Granvænget,6731,13,8.5722849,55.4683294
518953,Hans Silas Nielsens Vej,6731,1,8.577488,55.4641965
518954,Hans Silas Nielsens Vej,6731,3,8.5775974,55.4645359
518955,Hans Silas Nielsens Vej,6731,4,8.577064,55.464515
518956,Hans Silas Nielsens Vej,6731,5,8.5776142,55.4646866
518957,Hans Silas Nielsens Vej,6731,6,8.5772172,55.4646705
518958,Hans Silas Nielsens Vej,6731,7,8.577768,55.464838
518959,Hans Silas Nielsens Vej,6731,9,8.5778071,55.4649851
518960,Hans Silas Nielsens Vej,6731,10,8.5773413,55.4649594
518961,Hans Silas Nielsens Vej,6731,11,8.5777894,55.4651682
518962,Hans Silas Nielsens Vej,6731,12,8.577436,55.4651703
518963,Hans Silas Nielsens Vej,6731,14,8.5775148,55.46535
518964,Hans Silas Nielsens Vej,6731,15,8.5779308,55.4654268
518965,Hans Silas Nielsens Vej,6731,16,8.5774627,55.465502
518966,Hans Silas Nielsens Vej,6731,17,8.5780592,55.4655581
518967,Hans Silas Nielsens Vej,6731,18,8.577642,55.4656243
518968,Hans Silas Nielsens Vej,6731,19,8.5783408,55.4657012
518969,Hans Silas Nielsens Vej,6731,20,8.5776966,55.4657572
518970,Hans Silas Nielsens Vej,6731,21,8.5781881,55.4658626
518971,Hans Silas Nielsens Vej,6731,22,8.5777085,55.4658887
518972,Hans Silas Nielsens Vej,6731,23,8.578265,55.466011
518973,Hans Silas Nielsens Vej,6731,24,8.5775976,55.4660967
519047,Hasselvænget,6731,1,8.5736192,55.4693363
519048,Hasselvænget,6731,2,8.5741694,55.4692388
519049,Hasselvænget,6731,3,8.57368,55.469154
519050,Hasselvænget,6731,4,8.5740441,55.4689616
519051,Hasselvænget,6731,5,8.5736533,55.4689581
519052,Hasselvænget,6731,6,8.5740045,55.4686711
519053,Hasselvænget,6731,7,8.5736191,55.4687982
519054,Hasselvænget,6731,8,8.5739615,55.468425
519055,Hasselvænget,6731,9,8.5735913,55.4685962
519056,Hasselvænget,6731,10,8.5739243,55.4682223
519057,Hasselvænget,6731,11,8.5735596,55.4684363
519058,Hasselvænget,6731,12,8.5739541,55.4679732
519059,Hasselvænget,6731,13,8.5735231,55.4682414
519060,Hasselvænget,6731,15,8.5734975,55.4680663
519327,Hedegade,6731,1,8.60196,55.460583
519328,Hedegade,6731,2,8.6013819,55.4605729
519329,Hedegade,6731,3,8.6020574,55.4612273
520063,Hulvej,6731,4,8.5882331,55.4649789
520064,Hulvej,6731,11,8.5853514,55.4660712
520065,Hulvej,6731,13,8.5848145,55.4660751
520066,Hulvej,6731,15,8.5845968,55.466149
520067,Hulvej,6731,17,8.584247,55.466283
520068,Hulvej,6731,21,8.5826667,55.4667091
520069,Hulvej,6731,31,8.5810112,55.4687483
520070,Hulvej,6731,31B,8.5795475,55.4674811
520071,Hulvej,6731,39,8.5775261,55.4677995
520936,J.M. Terkelsens Vej,6731,1,8.5788594,55.4640695
520937,J.M. Terkelsens Vej,6731,2,8.5784533,55.4640623
520938,J.M. Terkelsens Vej,6731,3,8.5790491,55.4643116
520939,J.M. Terkelsens Vej,6731,4,8.5786022,55.4642756
520940,J.M. Terkelsens Vej,6731,5,8.5790931,55.4644556
520941,J.M. Terkelsens Vej,6731,6,8.5786725,55.4643851
520942,J.M. Terkelsens Vej,6731,7,8.5792105,55.464663
520943,J.M. Terkelsens Vej,6731,9,8.5793256,55.4648474
520944,J.M. Terkelsens Vej,6731,10,8.5785983,55.4645804
520945,J.M. Terkelsens Vej,6731,11,8.5794226,55.465003
520946,J.M. Terkelsens Vej,6731,12,8.5788572,55.4646905
520947,J.M. Terkelsens Vej,6731,13,8.5795233,55.4651702
520948,J.M. Terkelsens Vej,6731,14,8.5789443,55.4648231
520949,J.M. Terkelsens Vej,6731,15,8.5796424,55.4653373
520950,J.M. Terkelsens Vej,6731,16,8.5790344,55.4649787
520951,J.M. Terkelsens Vej,6731,17,8.579733,55.4655044
520952,J.M. Terkelsens Vej,6731,18,8.5791283,55.4651285
520953,J.M. Terkelsens Vej,6731,19,8.5798797,55.465689
520954,J.M. Terkelsens Vej,6731,20,8.5792311,55.4652842
520955,J.M. Terkelsens Vej,6731,22,8.579348,55.4654744
520956,J.M. Terkelsens Vej,6731,24,8.5793362,55.4656296
520957,J.M. Terkelsens Vej,6731,28,8.57969,55.465978
521125,Jens Kusks Vej,6731,1,8.5935704,55.4566758
521126,Jens Kusks Vej,6731,2,8.593136,55.4569276
521127,Jens Kusks Vej,6731,3,8.5938855,55.4565937
521128,Jens Kusks Vej,6731,5,8.5941514,55.4567343
521129,Jens Kusks Vej,6731,7,8.5946612,55.4568963
521130,Jens Kusks Vej,6731,8,8.5939744,55.4573006
521131,Jens Kusks Vej,6731,9,8.595013,55.456954
521132,Jens Kusks Vej,6731,11,8.5952978,55.4570457
521133,Jens Kusks Vej,6731,12,8.5940087,55.457702
521134,Jens Kusks Vej,6731,13,8.5956849,55.4570641
521135,Jens Kusks Vej,6731,14,8.5939696,55.4579193
521136,Jens Kusks Vej,6731,15,8.5960236,55.4571692
521137,Jens Kusks Vej,6731,17,8.5964723,55.4572458
521138,Jens Kusks Vej,6731,18,8.5939494,55.458419
521139,Jens Kusks Vej,6731,19,8.5968237,55.4572545
521140,Jens Kusks Vej,6731,20,8.5936118,55.4587164
521141,Jens Kusks Vej,6731,21,8.597203,55.4573679
521142,Jens Kusks Vej,6731,23,8.5976444,55.4574191
521143,Jens Kusks Vej,6731,24,8.5927463,55.4589064
521144,Jens Kusks Vej,6731,25,8.5981166,55.4574242
521145,Jens Kusks Vej,6731,26,8.5928821,55.4591183
521146,Jens Kusks Vej,6731,27,8.5980693,55.4576824
521147,Jens Kusks Vej,6731,28,8.5933908,55.4591218
521148,Jens Kusks Vej,6731,29,8.597635,55.4576617
521149,Jens Kusks Vej,6731,31,8.5972197,55.457642
521150,Jens Kusks Vej,6731,32,8.593339,55.459742
521151,Jens Kusks Vej,6731,33,8.5967848,55.4575347
521152,Jens Kusks Vej,6731,35,8.5963868,55.457465
521153,Jens Kusks Vej,6731,37,8.5959076,55.4573841
521154,Jens Kusks Vej,6731,39,8.5953691,55.457305
521155,Jens Kusks Vej,6731,41,8.5949173,55.4572784
521156,Jens Kusks Vej,6731,43,8.5944745,55.457246
521157,Jens Kusks Vej,6731,45,8.5943335,55.4576627
521158,Jens Kusks Vej,6731,57,8.5943394,55.4580238
521159,Jens Kusks Vej,6731,63,8.5941167,55.4585962
521160,Jens Kusks Vej,6731,65,8.5939708,55.458773
521161,Jens Kusks Vej,6731,67,8.5938624,55.4589232
521162,Jens Kusks Vej,6731,69,8.593794,55.4591086
521163,Jens Kusks Vej,6731,71,8.5937747,55.4592771
521164,Jens Kusks Vej,6731,73,8.5937525,55.4594473
521165,Jens Kusks Vej,6731,75,8.593733,55.4596174
521166,Jens Kusks Vej,6731,77,8.5937503,55.4597898
521222,Jesper Justs Alle,6731,1,8.5867501,55.4625992
521223,Jesper Justs Alle,6731,3,8.5866746,55.4623696
521224,Jesper Justs Alle,6731,4,8.5869391,55.4621476
521225,Jesper Justs Alle,6731,5,8.5865693,55.4621643
521226,Jesper Justs Alle,6731,6,8.5868394,55.4619526
521227,Jesper Justs Alle,6731,7,8.586337,55.46196
521228,Jesper Justs Alle,6731,8,8.5867615,55.4617208
521229,Jesper Justs Alle,6731,9,8.5862639,55.4617513
521230,Jesper Justs Alle,6731,10,8.5865258,55.4615016
521231,Jesper Justs Alle,6731,11,8.586135,55.461567
521232,Jesper Justs Alle,6731,12,8.586453,55.461226
521233,Jesper Justs Alle,6731,13,8.585934,55.461432
521553,Karl Jensens Vej,6731,2,8.6102516,55.4505021
521554,Karl Jensens Vej,6731,6,8.6101889,55.4507548
521555,Karl Jensens Vej,6731,7,8.611485,55.451364
521556,Karl Jensens Vej,6731,9,8.6117749,55.4530292
521557,Karl Jensens Vej,6731,10,8.611284,55.4535843
521558,Karl Jensens Vej,6731,16,8.6113321,55.4545688
521862,Klintholmvej,6731,6,8.5899905,55.4655904
521863,Klintholmvej,6731,8,8.5902923,55.4655501
521864,Klintholmvej,6731,9,8.5901198,55.4651453
521865,Klintholmvej,6731,10,8.590547,55.4654788
521866,Klintholmvej,6731,11,8.5907278,55.4650368
521867,Klintholmvej,6731,17,8.5935102,55.4647997
521868,Klintholmvej,6731,19,8.5940851,55.465286
521869,Klintholmvej,6731,21,8.5979466,55.4662109
521870,Klintholmvej,6731,24,8.597396,55.466643
521871,Klintholmvej,6731,26,8.5989162,55.4664111
521872,Klintholmvej,6731,27,8.5998319,55.4654081
521873,Klintholmvej,6731,29,8.6020556,55.4644515
521874,Klintholmvej,6731,31,8.6030301,55.4641802
521875,Klintholmvej,6731,34,8.6060894,55.4679833
521876,Klintholmvej,6731,35,8.6078045,55.4673329
521877,Klintholmvej,6731,36,8.6068926,55.4691445
521878,Klintholmvej,6731,44,8.61481,55.472109
521879,Klintholmvej,6731,45,8.6156012,55.472144
521880,Klintholmvej,6731,48,8.6156503,55.4735185
522571,Krogsgårdsvej,6731,1,8.5612787,55.4621523
522572,Krogsgårdsvej,6731,5,8.5631747,55.4623061
522573,Krogsgårdsvej,6731,7,8.5632858,55.4635826
522574,Krogsgårdsvej,6731,7B,8.5638644,55.4664561
522575,Krogsgårdsvej,6731,9,8.5595749,55.4685076
522576,Krogsgårdsvej,6731,11,8.5588966,55.4692168
522577,Krogsgårdsvej,6731,13,8.5589674,55.4700147
522578,Krogsgårdsvej,6731,15,8.558796,55.4711346
522579,Krogsgårdsvej,6731,16,8.5580609,55.4713264
522580,Krogsgårdsvej,6731,19,8.5581814,55.4732655
522581,Krogsgårdsvej,6731,20,8.5575654,55.4735862
522582,Krogsgårdsvej,6731,22,8.5570219,55.474926
522583,Krogsgårdsvej,6731,23,8.5593625,55.4758042
522584,Krogsgårdsvej,6731,24,8.5569257,55.476063
522585,Krogsgårdsvej,6731,26,8.5568677,55.4765019
522586,Krogsgårdsvej,6731,30,8.556517,55.477748
522587,Krogsgårdsvej,6731,32,8.556288,55.478623
522588,Krogsgårdsvej,6731,33,8.5566591,55.4792763
522589,Krogsgårdsvej,6731,34,8.5557707,55.479509
522590,Krogsgårdsvej,6731,36,8.5557958,55.4803992
522591,Krogsgårdsvej,6731,38,8.5555652,55.4812876
522592,Krogsgårdsvej,6731,41,8.5560211,55.482792
522593,Krogsgårdsvej,6731,43,8.5560623,55.4832685
522594,Krogsgårdsvej,6731,44,8.5548393,55.4833576
522595,Krogsgårdsvej,6731,46,8.5547278,55.4835943
522596,Krogsgårdsvej,6731,48,8.5525684,55.4838216
522597,Krogsgårdsvej,6731,49,8.5559654,55.4850366
522598,Krogsgårdsvej,6731,51,8.5549197,55.4855775
522599,Krogsgårdsvej,6731,53,8.5547755,55.4859158
522600,Krogsgårdsvej,6731,54,8.5504703,55.4856312
522601,Krogsgårdsvej,6731,55,8.55468,55.48648
522602,Krogsgårdsvej,6731,56,8.5505102,55.4865501
522603,Krogsgårdsvej,6731,58,8.5480796,55.487699
522604,Krogsgårdsvej,6731,60,8.5439497,55.4876932
522961,Kærhaven,6731,9,8.574233,55.464047
522962,Kærhaven,6731,10,8.574884,55.464014
522963,Kærhaven,6731,11,8.574516,55.463774
522964,Kærhaven,6731,12,8.574985,55.463924
522965,Kærhaven,6731,13,8.574618,55.463685
522966,Kærhaven,6731,14,8.575096,55.463763
522967,Kærhaven,6731,15,8.574253,55.463602
522968,Kærhaven,6731,16,8.575181,55.463687
522969,Kærhaven,6731,17,8.574356,55.463508
522970,Kærhaven,6731,19,8.5746874,55.4632787
522971,Kærhaven,6731,21,8.574851,55.463474
522972,Kærhaven,6731,23,8.574936,55.4633959
522973,Kærvangen,6731,2,8.5758095,55.4662164
522974,Kærvangen,6731,3,8.5753827,55.4662942
522975,Kærvangen,6731,4,8.5754688,55.4660036
522976,Kærvangen,6731,5,8.5751186,55.4661606
522977,Kærvangen,6731,6,8.5751752,55.4658853
522978,Kærvangen,6731,7,8.574839,55.4660086
522979,Kærvangen,6731,8,8.5750079,55.4657849
522980,Kærvangen,6731,9,8.5745304,55.4658402
522981,Kærvangen,6731,10,8.5747712,55.4656511
522982,Kærvangen,6731,11,8.5742248,55.4656783
522983,Kærvangen,6731,12,8.5744854,55.4654923
522984,Kærvej,6731,2A,8.575468,55.464388
522985,Kærvej,6731,4,8.575245,55.464522
522986,Kærvej,6731,5,8.575035,55.465151
522987,Kærvej,6731,12,8.5740316,55.4653112
522988,Kærvej,6731,14,8.573817,55.465449
522989,Kærvej,6731,15,8.5729517,55.4664112
522990,Kærvej,6731,16,8.5736384,55.4655888
522991,Kærvej,6731,18,8.5733619,55.4657549
522992,Kærvej,6731,19,8.5722844,55.4668431
522993,Kærvej,6731,20,8.5729661,55.4658958
522994,Kærvej,6731,22,8.5728131,55.4660503
522995,Kærvej,6731,24,8.5726967,55.4661967
522996,Kærvej,6731,25,8.5698282,55.4662462
522997,Kærvej,6731,26,8.5722606,55.4662962
523036,Lajgårdsvej,6731,4,8.6187611,55.4463342
523037,Lajgårdsvej,6731,5,8.6200023,55.4452661
523215,Lillekrog,6731,1,8.5889671,55.4630352
523216,Lillekrog,6731,2,8.5892236,55.4632293
523217,Lillekrog,6731,3,8.5893005,55.4629291
523218,Lillekrog,6731,4,8.5894291,55.4631436
523219,Lillekrog,6731,5,8.589627,55.4628327
523220,Lillekrog,6731,6,8.5898545,55.4630163
523221,Lillekrog,6731,7,8.5900353,55.462701
523222,Lillekrog,6731,8,8.5901442,55.4633598
523223,Lillekrog,6731,9,8.590053,55.4626053
523224,Lillekrog,6731,10,8.5901666,55.4635526
523225,Lillekrog,6731,11,8.59051,55.462372
523226,Lillekrog,6731,12,8.5896739,55.4635615
523227,Lillekrog,6731,13,8.590485,55.462737
523228,Lillekrog,6731,14,8.5901372,55.4638309
523229,Lillekrog,6731,15,8.5905047,55.4629969
523230,Lillekrog,6731,16,8.5903025,55.4640418
523231,Lillekrog,6731,17,8.5905612,55.4632628
523232,Lillekrog,6731,19,8.5905978,55.4635573
523233,Lillekrog,6731,21,8.5905912,55.4638352
523234,Lillekrog,6731,23,8.5906228,55.4640513
523256,Lindingvadvej,6731,1,8.5779823,55.4785088
523257,Lindingvadvej,6731,5,8.5763542,55.4783199
523258,Lindingvadvej,6731,11,8.5745416,55.4784272
523259,Lindingvadvej,6731,13,8.5734496,55.4785346
523260,Lindingvadvej,6731,15,8.5720584,55.4801476
523261,Lindingvadvej,6731,16,8.5697952,55.4773856
523392,Lunde Hovedvej,6731,1,8.6223838,55.4955042
523400,Lundevej,6731,2,8.5773497,55.4960402
523618,Lærkehøjen,6731,1,8.5747925,55.4695747
523619,Lærkehøjen,6731,2,8.574226,55.4696061
523620,Lærkehøjen,6731,3,8.5748346,55.4698422
523621,Lærkehøjen,6731,4,8.5744048,55.4698166
523622,Lærkehøjen,6731,5,8.574874,55.4700077
523623,Lærkehøjen,6731,6,8.5744329,55.469999
523624,Lærkehøjen,6731,7,8.5749125,55.4702792
523625,Lærkehøjen,6731,8,8.5744392,55.4701759
523626,Lærkehøjen,6731,9,8.5750198,55.4706539
523627,Lærkehøjen,6731,10,8.574448,55.470553
523628,Lærkehøjen,6731,11,8.5750351,55.4709134
523629,Lærkehøjen,6731,12,8.5745615,55.4707198
523630,Lærkehøjen,6731,13,8.575066,55.471154
523631,Lærkehøjen,6731,14,8.5746108,55.4709292
523632,Lærkehøjen,6731,15,8.5750924,55.4713994
523633,Lærkehøjen,6731,16,8.5746328,55.4710931
523634,Lærkehøjen,6731,17,8.5751701,55.4716225
523635,Lærkehøjen,6731,18,8.5747015,55.4714508
524277,Meldber,6731,1,8.5884666,55.4624996
524278,Meldber,6731,2,8.5887244,55.4626746
524279,Meldber,6731,3,8.588709,55.4623843
524280,Meldber,6731,4,8.5891068,55.4625372
524281,Meldber,6731,5,8.5889523,55.4620206
524282,Meldber,6731,6,8.5893158,55.4624304
524283,Meldber,6731,7,8.5895114,55.4620818
524284,Meldber,6731,8,8.5897172,55.4622406
524776,Niels Storgårds Vej,6731,1A,8.5942762,55.4562339
524777,Niels Storgårds Vej,6731,1B,8.5947818,55.4563539
524778,Niels Storgårds Vej,6731,2,8.5948023,55.4566091
524779,Niels Storgårds Vej,6731,3,8.5951869,55.4564105
524780,Niels Storgårds Vej,6731,4,8.5953317,55.4566589
524781,Niels Storgårds Vej,6731,5,8.5955365,55.4564491
524782,Niels Storgårds Vej,6731,6,8.5958101,55.4567427
524783,Niels Storgårds Vej,6731,7,8.5959609,55.4565034
524784,Niels Storgårds Vej,6731,8,8.596182,55.456822
524785,Niels Storgårds Vej,6731,10,8.596666,55.4568869
524786,Niels Storgårds Vej,6731,11,8.5967123,55.4566042
524787,Niels Storgårds Vej,6731,12,8.5972102,55.4569782
524788,Niels Storgårds Vej,6731,13,8.5971178,55.4567183
524789,Niels Storgårds Vej,6731,14,8.597545,55.4570296
524790,Niels Storgårds Vej,6731,15,8.5974237,55.4567615
524791,Niels Storgårds Vej,6731,16,8.5980018,55.4570549
524792,Niels Storgårds Vej,6731,17,8.5978718,55.4568051
524793,Niels Storgårds Vej,6731,21,8.5986443,55.4568329
524794,Niels Storgårds Vej,6731,27,8.5988269,55.4576584
524860,Nordre Strandvej,6731,1,8.5757044,55.4676333
524861,Nordre Strandvej,6731,2,8.5751913,55.467851
524862,Nordre Strandvej,6731,3,8.5760149,55.4677206
524863,Nordre Strandvej,6731,4,8.575362,55.467837
524864,Nordre Strandvej,6731,5,8.5765116,55.4677431
524865,Nordre Strandvej,6731,6,8.5756588,55.4678771
524866,Nordre Strandvej,6731,7,8.576465,55.46728
524867,Nordre Strandvej,6731,8,8.5760987,55.4679812
524868,Nordre Strandvej,6731,10,8.5763591,55.4680055
524869,Nordre Strandvej,6731,12,8.5766183,55.4682921
524870,Nordre Strandvej,6731,14,8.5766707,55.4684994
524871,Nordre Strandvej,6731,15,8.5769189,55.4680001
524872,Nordre Strandvej,6731,16,8.576673,55.468647
524873,Nordre Strandvej,6731,17,8.5769503,55.4681529
524874,Nordre Strandvej,6731,18,8.5766962,55.4688265
524875,Nordre Strandvej,6731,19,8.5781641,55.4682573
524876,Nordre Strandvej,6731,20,8.5767288,55.4689876
524877,Nordre Strandvej,6731,23,8.5771971,55.4692956
524878,Nordre Strandvej,6731,25,8.577221,55.4695721
524879,Nordre Strandvej,6731,26,8.5767959,55.469528
524880,Nordre Strandvej,6731,27,8.5772403,55.4697541
524881,Nordre Strandvej,6731,28,8.5767666,55.4697272
524882,Nordre Strandvej,6731,29,8.5772584,55.4698868
524883,Nordre Strandvej,6731,30,8.576853,55.4699018
524884,Nordre Strandvej,6731,31,8.57728,55.4700198
524885,Nordre Strandvej,6731,32,8.5768584,55.4700885
524886,Nordre Strandvej,6731,33,8.5775259,55.4702117
524887,Nordre Strandvej,6731,34,8.5769238,55.4703007
524888,Nordre Strandvej,6731,35,8.5777878,55.4707507
524889,Nordre Strandvej,6731,35A,8.5774952,55.4705579
524890,Nordre Strandvej,6731,35B,8.577466,55.4703982
524891,Nordre Strandvej,6731,36,8.5769523,55.4704662
524892,Nordre Strandvej,6731,37A,8.5777263,55.4703918
524893,Nordre Strandvej,6731,37B,8.5780545,55.4704332
524894,Nordre Strandvej,6731,38,8.5769208,55.4708084
524895,Nordre Strandvej,6731,39A,8.577541,55.4708722
524896,Nordre Strandvej,6731,39B,8.5775116,55.4710737
524897,Nordre Strandvej,6731,40,8.5769836,55.4710664
524898,Nordre Strandvej,6731,41A,8.5778554,55.4710019
524899,Nordre Strandvej,6731,41B,8.578231,55.4709832
524900,Nordre Strandvej,6731,42,8.577125,55.471432
524901,Nordre Strandvej,6731,43,8.5779989,55.4712911
524902,Nordre Strandvej,6731,44,8.577147,55.4716739
524903,Nordre Strandvej,6731,46,8.5771528,55.4718626
524904,Nordre Strandvej,6731,47,8.5782881,55.4717849
524905,Nordre Strandvej,6731,51,8.5782585,55.4728016
524906,Nordre Strandvej,6731,53,8.5780345,55.4734821
524907,Nordre Strandvej,6731,57,8.578593,55.4753312
524908,Nordre Strandvej,6731,58,8.5778287,55.4758796
524909,Nordre Strandvej,6731,61,8.5785211,55.4768472
524910,Nordre Strandvej,6731,63,8.5785817,55.4776534
524911,Nordre Strandvej,6731,65,8.5788142,55.4779756
524912,Nordre Strandvej,6731,67,8.5787769,55.4782574
524913,Nordre Strandvej,6731,69,8.5787641,55.4785812
524914,Nordre Strandvej,6731,72,8.5785992,55.4797371
524915,Nordre Strandvej,6731,78,8.5787268,55.4818267
524916,Nordre Strandvej,6731,80,8.5752144,55.4818159
524917,Nordre Strandvej,6731,82,8.56942,55.485154
524918,Nordre Strandvej,6731,83,8.5804847,55.4849739
524919,Nordre Strandvej,6731,84,8.5786349,55.487432
524991,Novrupvej,6731,101,8.5530574,55.4706928
525121,Nyvej,6731,2,8.5880547,55.463103
525122,Nyvej,6731,3,8.5879192,55.4634061
525123,Nyvej,6731,4,8.5876623,55.4632097
525124,Nyvej,6731,5,8.5877236,55.4635011
525125,Nyvej,6731,6,8.5872931,55.463331
525126,Nyvej,6731,7,8.587415,55.463617
525127,Nyvej,6731,8,8.5870412,55.4634144
525128,Nyvej,6731,9,8.5871458,55.463655
525129,Nyvej,6731,10,8.5866883,55.4635238
525130,Nyvej,6731,11,8.586831,55.4637653
525251,Nørreled,6731,2,8.5761194,55.4722117
525252,Nørreled,6731,4,8.575763,55.4722769
525253,Nørreled,6731,6,8.5753969,55.4722963
525254,Nørreled,6731,8,8.5750473,55.472307
525255,Nørreled,6731,16,8.5747696,55.4725634
525256,Nørreled,6731,18,8.575532,55.4726675
525257,Nørreled,6731,20,8.5759161,55.4724937
525258,Nørreled,6731,21,8.5758127,55.4732836
525259,Nørreled,6731,22,8.5756233,55.4729843
525260,Nørreled,6731,23,8.5754556,55.4733089
525261,Nørreled,6731,24,8.5752539,55.4730414
525262,Nørreled,6731,25,8.5749595,55.4733478
525263,Nørreled,6731,26,8.5748621,55.4730363
525264,Nørreled,6731,27,8.5746434,55.4733861
525265,Nørreled,6731,28,8.5744361,55.4730443
525266,Nørremarksvej,6731,2,8.5910252,55.4698344
525267,Nørremarksvej,6731,3,8.5904714,55.4707086
525268,Nørremarksvej,6731,5,8.5900771,55.471041
525269,Nørremarksvej,6731,6,8.5860765,55.4718099
525270,Nørremarksvej,6731,10,8.588847,55.4738181
525552,Peder Bertrams Vej,6731,1,8.572792,55.4666582
525553,Peder Bertrams Vej,6731,3,8.5730462,55.4668192
525554,Peder Bertrams Vej,6731,5,8.5732896,55.4669449
525555,Peder Bertrams Vej,6731,7,8.5735696,55.4670989
525556,Peder Bertrams Vej,6731,9,8.5737794,55.4672129
525557,Peder Bertrams Vej,6731,11,8.5740057,55.4673321
525631,Pilevænget,6731,1,8.5746364,55.4692297
525632,Pilevænget,6731,3,8.5745944,55.4689886
525633,Pilevænget,6731,5,8.5745641,55.468833
525634,Pilevænget,6731,7,8.5745708,55.4686411
525635,Pilevænget,6731,8,8.5749752,55.4683388
525636,Pilevænget,6731,9,8.5745232,55.4683452
525637,Pilevænget,6731,10,8.574838,55.467938
525638,Pilevænget,6731,11,8.5744542,55.4680178
525712,Poppelvænget,6731,4,8.5758431,55.4689564
525713,Poppelvænget,6731,6,8.5757904,55.4686592
525714,Poppelvænget,6731,8,8.575456,55.4685773
525715,Poppelvænget,6731,10,8.5751134,55.4685818
525750,Præstegårdsvej,6731,1,8.6108879,55.4455522
525751,Præstegårdsvej,6731,2,8.6139706,55.4469018
525752,Præstegårdsvej,6731,3,8.6131413,55.4455897
525753,Præstegårdsvej,6731,4,8.6141757,55.4469219
525754,Præstegårdsvej,6731,5,8.6108593,55.4442006
526964,Skolevej,6731,1,8.576296,55.464081
526965,Skolevej,6731,3,8.576549,55.464042
526966,Skolevej,6731,3A,8.576629,55.46371
526967,Skolevej,6731,4,8.57665,55.46433
526968,Skolevej,6731,5,8.576779,55.464011
526969,Skolevej,6731,6,8.576937,55.464187
526970,Skolevej,6731,9,8.5776206,55.4639113
526971,Skolevej,6731,10,8.5777634,55.4641157
526972,Skolevej,6731,13,8.5779343,55.4636535
526973,Skolevej,6731,15,8.5781224,55.4638532
526974,Skolevej,6731,17,8.5784067,55.4638301
526975,Skolevej,6731,19,8.5789374,55.4637853
526976,Skolevej,6731,20,8.57931,55.4639944
526977,Skolevej,6731,21,8.5792017,55.4637683
526978,Skolevej,6731,23,8.5794925,55.4637406
526979,Skolevej,6731,25,8.57976,55.4636944
526980,Skolevej,6731,27,8.5800696,55.4635494
526981,Skolevej,6731,29,8.5804382,55.4636269
526982,Skolevej,6731,30,8.5810427,55.4637782
526983,Skolevej,6731,32,8.5815792,55.4637839
526984,Skolevej,6731,33,8.5816461,55.4633683
526985,Skolevej,6731,34,8.582136,55.463666
526986,Skolevej,6731,35,8.582687,55.463305
526987,Skolevej,6731,35A,8.5817927,55.4629905
526988,Skolevej,6731,35B,8.5816786,55.4630018
526989,Skolevej,6731,35C,8.5815658,55.4630147
526990,Skolevej,6731,35D,8.5818112,55.4627723
526991,Skolevej,6731,35E,8.581698,55.4627828
526992,Skolevej,6731,35F,8.5815943,55.4627916
526993,Skolevej,6731,43,8.5843153,55.4622929
526994,Skolevej,6731,44A,8.5841353,55.4634903
526995,Skolevej,6731,44B,8.5846562,55.4636285
526996,Skolevej,6731,45,8.5845765,55.4631009
526997,Skolevej,6731,48,8.585749,55.4632689
526998,Skolevej,6731,49,8.5851148,55.4631294
526999,Skolevej,6731,50,8.5860238,55.4632343
527000,Skolevej,6731,51,8.5852664,55.4631136
527001,Skolevej,6731,53,8.5854765,55.4630886
527315,Sneum Kirkevej,6731,2,8.619466,55.45871
527316,Sneum Kirkevej,6731,8,8.6277876,55.4590139
527317,Sneum Kirkevej,6731,9,8.6291685,55.4595639
527318,Sneum Kirkevej,6731,10,8.6265027,55.457043
527319,Sneum Kirkevej,6731,12,8.6292424,55.456935
527320,Sneum Kirkevej,6731,14,8.6294717,55.4583257
527321,Sneum Kirkevej,6731,16,8.6301098,55.4586548
527322,Sneum Kirkevej,6731,17,8.6365035,55.4586736
527323,Sneum Slusevej,6731,2,8.6068307,55.4336509
527324,Sneumgårdsvej,6731,1,8.6335603,55.4586306
527325,Sneumgårdsvej,6731,2,8.6328648,55.4605854
527326,Sneumgårdsvej,6731,3,8.634518,55.461986
527327,Sneumgårdsvej,6731,5,8.630734,55.4649905
527328,Sneumvej,6731,2,8.5862719,55.4631064
527329,Sneumvej,6731,3,8.5864475,55.4627854
527330,Sneumvej,6731,4,8.5869226,55.4628712
527331,Sneumvej,6731,6,8.5872287,55.4627133
527332,Sneumvej,6731,7,8.5872815,55.4624003
527333,Sneumvej,6731,9,8.5875954,55.4622903
527334,Sneumvej,6731,11,8.5882332,55.4619704
527335,Sneumvej,6731,13A,8.5885664,55.4616963
527336,Sneumvej,6731,13B,8.5886785,55.4616956
527337,Sneumvej,6731,13C,8.5888126,55.4617234
527338,Sneumvej,6731,15A,8.5884195,55.4615137
527339,Sneumvej,6731,15B,8.5885395,55.4615153
527340,Sneumvej,6731,15C,8.588663,55.4615363
527341,Sneumvej,6731,15D,8.5887739,55.4615318
527342,Sneumvej,6731,15E,8.588895,55.461561
527343,Sneumvej,6731,15F,8.5889986,55.4615599
527344,Sneumvej,6731,15G,8.589146,55.4615343
527345,Sneumvej,6731,15H,8.5892993,55.4615098
527346,Sneumvej,6731,17A,8.5882902,55.4613267
527347,Sneumvej,6731,17B,8.5884236,55.4613237
527348,Sneumvej,6731,17C,8.5885865,55.4613519
527349,Sneumvej,6731,17D,8.5886819,55.4612311
527350,Sneumvej,6731,17E,8.5887789,55.4612283
527351,Sneumvej,6731,19A,8.5881611,55.4611424
527352,Sneumvej,6731,19B,8.5882816,55.4611428
527353,Sneumvej,6731,19C,8.5883996,55.4611696
527354,Sneumvej,6731,19D,8.5885126,55.4611706
527355,Sneumvej,6731,21A,8.5880467,55.4609852
527356,Sneumvej,6731,21B,8.5881673,55.4609857
527357,Sneumvej,6731,21C,8.5882815,55.4609861
527358,Sneumvej,6731,21D,8.5884006,55.4609849
527359,Sneumvej,6731,23A,8.5892678,55.4613534
527360,Sneumvej,6731,23B,8.5895163,55.4613257
527361,Sneumvej,6731,25A,8.5891919,55.4611861
527362,Sneumvej,6731,25B,8.5894502,55.4611685
527363,Sneumvej,6731,27,8.5890313,55.4610259
527364,Sneumvej,6731,27A,8.5891009,55.4610251
527365,Sneumvej,6731,27B,8.5892457,55.4610063
527366,Sneumvej,6731,27C,8.589392,55.461005
527367,Sneumvej,6731,29A,8.5889885,55.4608672
527368,Sneumvej,6731,29B,8.5892,55.4608449
527369,Sneumvej,6731,29C,8.589308,55.4608424
527370,Sneumvej,6731,31A,8.5889743,55.4607139
527371,Sneumvej,6731,31B,8.5891218,55.4606872
527372,Sneumvej,6731,31C,8.589222,55.460686
527373,Sneumvej,6731,33A,8.5888899,55.4605457
527374,Sneumvej,6731,33B,8.5890313,55.4605253
527375,Sneumvej,6731,33C,8.5891415,55.4605259
527376,Sneumvej,6731,37,8.5895578,55.4602793
527377,Sneumvej,6731,39,8.5896639,55.4602618
527378,Sneumvej,6731,41,8.5897713,55.4602476
527379,Sneumvej,6731,43,8.5898545,55.4602329
527380,Sneumvej,6731,45,8.589968,55.460157
527381,Sneumvej,6731,47,8.5900945,55.4601382
527382,Sneumvej,6731,49,8.5902612,55.4602546
527383,Sneumvej,6731,51,8.5902921,55.4603129
527384,Sneumvej,6731,53,8.590466,55.4604552
527385,Sneumvej,6731,55,8.5903625,55.4604716
527386,Sneumvej,6731,57,8.5902503,55.4604944
527387,Sneumvej,6731,59,8.5900769,55.4605244
527388,Sneumvej,6731,61,8.5897423,55.4605939
527389,Sneumvej,6731,63,8.5897136,55.4605392
527390,Sneumvej,6731,65,8.5896623,55.4604392
527391,Sneumvej,6731,67,8.5897719,55.4607678
527392,Sneumvej,6731,71,8.5898683,55.4609637
527393,Sneumvej,6731,73,8.5898828,55.4609914
527394,Sneumvej,6731,75,8.5899016,55.4610233
527395,Sneumvej,6731,77,8.5899234,55.4610557
527396,Sneumvej,6731,83,8.5903171,55.4608402
527397,Sneumvej,6731,91,8.5911879,55.4606848
527398,Sneumvej,6731,93,8.5910865,55.4607306
527399,Sneumvej,6731,95,8.590852,55.460821
527400,Sneumvej,6731,97,8.5907981,55.4607269
527401,Sneumvej,6731,99,8.5907623,55.4606556
527402,Sneumvej,6731,101,8.590726,55.4605843
527403,Sneumvej,6731,102,8.6151227,55.4587407
527404,Sneumvej,6731,103,8.5906987,55.4604014
527405,Sneumvej,6731,104,8.6157138,55.4587673
527406,Sneumvej,6731,105,8.590819,55.460365
527407,Sneumvej,6731,107,8.5909266,55.4603349
527408,Sneumvej,6731,111,8.5912617,55.4603556
527409,Sneumvej,6731,113,8.5911383,55.4602206
527410,Sneumvej,6731,115,8.5910605,55.4601319
527411,Sneumvej,6731,117,8.5909511,55.4599909
527412,Sneumvej,6731,119,8.5912665,55.4599577
527413,Sneumvej,6731,121,8.5915294,55.4599142
527414,Sneumvej,6731,123,8.591682,55.4601997
527415,Sneumvej,6731,125,8.5917567,55.4603366
527416,Sneumvej,6731,127,8.5916807,55.4604898
527417,Sneumvej,6731,129,8.5914764,55.4605806
527418,Sneumvej,6731,151,8.5920889,55.4601721
527419,Sneumvej,6731,153,8.5922715,55.4601433
527420,Sneumvej,6731,155,8.5923369,55.4599238
527421,Sneumvej,6731,157,8.592182,55.459948
527422,Sneumvej,6731,159,8.5923121,55.4596962
527423,Sneumvej,6731,161,8.5921628,55.4597204
527424,Sneumvej,6731,163,8.5922847,55.4594535
527425,Sneumvej,6731,165,8.5921317,55.4594786
527426,Sneumvej,6731,167,8.5922304,55.4592204
527427,Sneumvej,6731,169,8.5920422,55.4592538
527428,Sneumvej,6731,171,8.5918258,55.4592866
527429,Sneumvej,6731,173,8.5916351,55.4593179
527482,Solbjerg Plantagevej,6731,2A,8.565909,55.4820631
527483,Solbjerg Plantagevej,6731,3,8.5648406,55.4832213
527484,Solbjerg Plantagevej,6731,3A,8.5642251,55.4818768
527485,Solbjerg Plantagevej,6731,3B,8.5630699,55.4814523
527486,Solbjerg Plantagevej,6731,4,8.5658096,55.4808838
527487,Solbjerg Plantagevej,6731,5,8.5650942,55.4808103
527495,Solbjergvej,6731,39,8.5770477,55.4954641
527496,Solbjergvej,6731,41,8.5802083,55.4941856
527497,Solbjergvej,6731,42,8.5805769,55.4945638
527498,Solbjergvej,6731,43,8.5829622,55.4930588
527499,Solbjergvej,6731,45,8.5851557,55.4918787
527500,Solbjergvej,6731,46,8.5873463,55.4919833
527501,Solbjergvej,6731,48,8.5877613,55.4916333
527502,Solbjergvej,6731,51,8.5901005,55.4902132
527503,Solbjergvej,6731,53,8.5911364,55.489823
527504,Solbjergvej,6731,54,8.5926723,55.489937
527505,Solbjergvej,6731,56,8.5949724,55.4901407
527506,Solbjergvej,6731,58,8.5958374,55.4903592
527507,Solbjergvej,6731,60,8.5969142,55.4905294
527508,Solbjergvej,6731,64,8.6025835,55.4914843
527509,Solbjergvej,6731,69,8.6106316,55.4926639
527510,Solbjergvej,6731,70,8.6115612,55.4942316
527511,Solbjergvej,6731,74,8.618197,55.4953811
527930,Spurvehøjen,6731,1,8.5724772,55.4697148
527931,Spurvehøjen,6731,2,8.5718894,55.46972
527932,Spurvehøjen,6731,3,8.57242,55.470026
527933,Spurvehøjen,6731,4,8.5719886,55.4699696
527934,Spurvehøjen,6731,5,8.572456,55.4704051
527935,Spurvehøjen,6731,6,8.5720344,55.4703716
527936,Spurvehøjen,6731,7,8.572492,55.4706326
527937,Spurvehøjen,6731,8,8.5720821,55.470529
527938,Spurvehøjen,6731,9,8.5725408,55.4708721
527939,Spurvehøjen,6731,10,8.5721124,55.4706945
527940,Spurvehøjen,6731,11,8.572575,55.4711055
527941,Spurvehøjen,6731,12,8.5721412,55.4708979
527942,Spurvehøjen,6731,13,8.5726254,55.4713111
527943,Spurvehøjen,6731,14,8.572167,55.471053
527944,Spurvehøjen,6731,15,8.5726615,55.4715171
527945,Spurvehøjen,6731,16,8.5722061,55.4712278
527946,Spurvehøjen,6731,18,8.572233,55.47143
527947,Spurvehøjen,6731,20,8.57227,55.4716133
527957,Spøttrupvej,6731,2,8.6267845,55.4728384
527958,Spøttrupvej,6731,4,8.626118,55.4733768
529133,Sønderager,6731,5,8.5769318,55.4633931
529134,Sønderager,6731,6,8.5776907,55.4633511
529135,Sønderager,6731,7,8.5765879,55.4634214
529136,Sønderager,6731,8,8.5782477,55.4633618
529137,Sønderager,6731,9,8.576284,55.463529
529138,Sønderager,6731,10,8.5786327,55.4633744
529139,Sønderager,6731,11,8.5761818,55.4632903
529140,Sønderager,6731,12,8.5786641,55.4631819
529141,Sønderager,6731,13,8.5761321,55.4630796
529142,Sønderager,6731,14,8.5781911,55.4631294
529143,Sønderager,6731,15,8.576502,55.4630851
529144,Sønderager,6731,16,8.5776449,55.4631129
529145,Sønderager,6731,17,8.5769205,55.4630758
529146,Sønderager,6731,18,8.5777756,55.462752
529147,Sønderager,6731,19,8.5770623,55.4627625
529148,Sønderager,6731,20,8.5782526,55.4628431
529149,Sønderager,6731,21,8.5766758,55.4627116
529150,Sønderager,6731,22,8.5786825,55.4628138
529151,Sønderager,6731,23,8.5763126,55.46271
529152,Sønderager,6731,24,8.5786654,55.4625388
529153,Sønderager,6731,25,8.5759901,55.4628911
529154,Sønderager,6731,26,8.5782276,55.4625259
529155,Sønderager,6731,28,8.5777484,55.4625137
529156,Sønderager,6731,30,8.5772167,55.4624901
529157,Sønderager,6731,31,8.5760682,55.4624809
529158,Sønderager,6731,33,8.576391,55.4624754
529159,Sønderager,6731,35,8.5767994,55.4624852
529193,Sønderbyvej,6731,5,8.5673442,55.4591607
529194,Sønderbyvej,6731,7,8.5698901,55.4590237
529195,Sønderbyvej,6731,9,8.5703412,55.4588629
529196,Sønderbyvej,6731,10,8.569992,55.459685
529197,Sønderbyvej,6731,11,8.5692866,55.4572288
529198,Sønderbyvej,6731,12,8.570724,55.4595438
529199,Sønderbyvej,6731,14,8.5713134,55.4593952
529200,Sønderbyvej,6731,20,8.5740914,55.4588607
529201,Sønderbyvej,6731,22,8.5746036,55.4587468
529202,Sønderbyvej,6731,23,8.5748324,55.4582062
529203,Sønderbyvej,6731,25,8.5758013,55.4580786
529204,Sønderbyvej,6731,26,8.5767606,55.4581529
529205,Sønderbyvej,6731,27,8.5747617,55.4528724
529206,Sønderbyvej,6731,28,8.5781369,55.4578671
529207,Sønderbyvej,6731,32,8.5795991,55.457402
529208,Sønderbyvej,6731,33,8.579422,55.456948
529209,Sønderbyvej,6731,35,8.5806817,55.4568949
529210,Sønderbyvej,6731,38,8.5826364,55.4571534
529211,Sønderbyvej,6731,42,8.5829437,55.4565497
529212,Sønderbyvej,6731,44,8.5834973,55.4563728
529213,Sønderbyvej,6731,46,8.5844505,55.4560331
529214,Sønderbyvej,6731,47,8.584254,55.455566
529215,Sønderbyvej,6731,48,8.5851955,55.4557473
529216,Sønderbyvej,6731,50,8.5863103,55.4554843
529217,Sønderbyvej,6731,52,8.5865808,55.4552187
529218,Sønderbyvej,6731,56,8.5868667,55.4548973
529219,Sønderbyvej,6731,101,8.6086246,55.4492184
529220,Sønderbyvej,6731,102,8.6098472,55.4499262
529221,Sønderbyvej,6731,104,8.614124,55.448467
529222,Sønderbyvej,6731,106A,8.6148832,55.4485961
529223,Sønderbyvej,6731,106B,8.6152553,55.4487272
529224,Sønderbyvej,6731,107,8.6130031,55.448207
529225,Sønderbyvej,6731,108,8.6154486,55.4482799
529226,Sønderbyvej,6731,110,8.6152026,55.4480503
529227,Sønderbyvej,6731,112,8.6144822,55.4482066
529228,Sønderbyvej,6731,116,8.6177109,55.4462564
529329,Sønderled,6731,2,8.5809895,55.4632875
529330,Sønderled,6731,4,8.5811223,55.4632793
529331,Sønderled,6731,6,8.5810195,55.4630737
529332,Sønderled,6731,8,8.5811418,55.4630605
529333,Sønderled,6731,9,8.5793766,55.4633458
529334,Sønderled,6731,10,8.5810413,55.462857
529335,Sønderled,6731,11,8.5794461,55.4631585
529336,Sønderled,6731,12,8.5811549,55.4628447
529337,Sønderled,6731,13,8.5797797,55.4632124
529338,Sønderled,6731,14,8.5811165,55.4625759
529339,Sønderled,6731,15,8.580333,55.4631966
529340,Sønderled,6731,17,8.5803186,55.462818
529341,Sønderled,6731,19,8.579935,55.462808
529342,Sønderled,6731,21,8.5793416,55.462773
529343,Sønderled,6731,23,8.5793919,55.4625586
529344,Sønderled,6731,25,8.5798899,55.4625733
529345,Sønderled,6731,27,8.580467,55.46259
529682,Tjæreborg Stationsvej,6731,1,8.5767725,55.4666728
529683,Tjæreborg Stationsvej,6731,2,8.5763625,55.4668096
529684,Tjæreborg Stationsvej,6731,3,8.5771384,55.4666168
529685,Tjæreborg Stationsvej,6731,4,8.5763825,55.4669759
529686,Tjæreborg Stationsvej,6731,5,8.5775936,55.4665188
529687,Tjæreborg Stationsvej,6731,6,8.5776614,55.4667136
529688,Tjæreborg Stationsvej,6731,7,8.577789,55.466471
529689,Tjæreborg Stationsvej,6731,8,8.5777858,55.4666842
529690,Tjæreborg Stationsvej,6731,9,8.5779638,55.4664451
529691,Tjæreborg Stationsvej,6731,11,8.5782355,55.4663818
529692,Tjæreborg Stationsvej,6731,13,8.578462,55.466347
529693,Tjæreborg Stationsvej,6731,15,8.5786835,55.4662908
529694,Tjæreborg Stationsvej,6731,17,8.5789203,55.4662583
529695,Tjæreborg Stationsvej,6731,19,8.5791677,55.4662088
529696,Tjæreborg Stationsvej,6731,20,8.5794232,55.4663588
529697,Tjæreborg Stationsvej,6731,21,8.5794576,55.4660706
529698,Tjæreborg Stationsvej,6731,23,8.5801402,55.4659418
529699,Tjæreborg Stationsvej,6731,25,8.580348,55.4659152
529700,Tjæreborg Stationsvej,6731,27,8.5807902,55.4657883
529701,Tjæreborg Stationsvej,6731,28,8.5819823,55.4656046
529702,Tjæreborg Stationsvej,6731,29,8.5810447,55.4657151
529703,Tjæreborg Stationsvej,6731,30,8.5820603,55.4655184
529704,Tjæreborg Stationsvej,6731,31,8.5815202,55.4656247
529705,Tjæreborg Stationsvej,6731,32,8.5821797,55.4653937
529706,Tjæreborg Stationsvej,6731,33,8.581658,55.465561
529707,Tjæreborg Stationsvej,6731,34,8.582421,55.4652082
529708,Tjæreborg Stationsvej,6731,39,8.582254,55.46443
529711,Tjæreborgvej,6731,181,8.5456193,55.464157
529712,Tjæreborgvej,6731,182,8.5482126,55.4652892
529713,Tjæreborgvej,6731,184,8.5540397,55.4636139
529714,Tjæreborgvej,6731,188,8.5523745,55.4669413
529715,Tjæreborgvej,6731,189,8.5553186,55.4629663
530034,Tradsborgvej,6731,1,8.5785698,55.4761081
530035,Tradsborgvej,6731,2,8.5786954,55.4765196
530036,Tradsborgvej,6731,3,8.5790374,55.476206
530037,Tradsborgvej,6731,5,8.5793541,55.4760813
530038,Tradsborgvej,6731,9,8.5813078,55.475868
530039,Tradsborgvej,6731,14A,8.5835059,55.4764917
530040,Tradsborgvej,6731,14B,8.5838381,55.4771399
530041,Tradsborgvej,6731,15,8.5848722,55.4751159
530042,Tradsborgvej,6731,16,8.5852416,55.4771091
530043,Tradsborgvej,6731,18,8.5855971,55.4759678
530044,Tradsborgvej,6731,19,8.587555,55.4754878
530045,Tradsborgvej,6731,20,8.5876345,55.4757711
530046,Tradsborgvej,6731,22,8.5889771,55.4759683
530047,Tradsborgvej,6731,22A,8.587557,55.481224
530048,Tradsborgvej,6731,24,8.5910444,55.476024
530049,Tradsborgvej,6731,26,8.5914272,55.4759886
530050,Tradsborgvej,6731,28,8.5919309,55.4761312
530051,Tradsborgvej,6731,30,8.5917567,55.4764488
530052,Tradsborgvej,6731,34,8.5952222,55.476172
530053,Tradsborgvej,6731,36,8.5962663,55.4761143
530054,Tradsborgvej,6731,38,8.596711,55.4763199
530055,Tradsborgvej,6731,44,8.5977381,55.476537
530056,Tradsborgvej,6731,50,8.603221,55.4797695
530057,Tradsborgvej,6731,51,8.6036827,55.4763542
530058,Tradsborgvej,6731,56,8.6090494,55.4764192
530059,Tradsborgvej,6731,58,8.6105324,55.4763234
530060,Tradsborgvej,6731,59,8.6104016,55.4757918
530061,Tradsborgvej,6731,61,8.6119642,55.4750668
530062,Tradsborgvej,6731,62,8.6122192,55.4761126
530063,Tradsborgvej,6731,64,8.6133645,55.4758992
530064,Tradsborgvej,6731,66,8.6141682,55.4758552
530065,Tradsborgvej,6731,68,8.6149237,55.4758423
530066,Tradsborgvej,6731,72,8.617105,55.475715
530067,Tradsborgvej,6731,74,8.6173126,55.4788283
530068,Tradsborgvej,6731,76,8.620245,55.4754098
530069,Tradsborgvej,6731,77,8.6191962,55.4723447
530070,Tradsborgvej,6731,78,8.6190369,55.4785767
530071,Tradsborgvej,6731,80,8.6209857,55.4783244
530091,Tremhøjevej,6731,1,8.5766276,55.4717798
530092,Tremhøjevej,6731,3,8.5761561,55.4718521
530093,Tremhøjevej,6731,5,8.5758004,55.4718468
530094,Tremhøjevej,6731,6,8.575825,55.4716036
530095,Tremhøjevej,6731,7,8.5754902,55.4719501
530096,Tremhøjevej,6731,9,8.5751231,55.4719148
530097,Tremhøjevej,6731,11,8.5747372,55.4719874
530098,Tremhøjevej,6731,13,8.5743636,55.4719208
530099,Tremhøjevej,6731,14,8.5746033,55.4716641
530100,Tremhøjevej,6731,15,8.5739845,55.4719403
530101,Tremhøjevej,6731,16,8.574089,55.471696
530102,Tremhøjevej,6731,17,8.5736147,55.4719434
530103,Tremhøjevej,6731,18,8.5733576,55.4717261
530104,Tremhøjevej,6731,19,8.5732421,55.4719618
530105,Tremhøjevej,6731,20,8.5728612,55.4717625
530106,Tremhøjevej,6731,21,8.5728419,55.4721076
530107,Tremhøjevej,6731,22,8.5721101,55.4718008
530108,Tremhøjevej,6731,23,8.572467,55.4720135
530109,Tremhøjevej,6731,24,8.5716729,55.4718153
530110,Tremhøjevej,6731,25,8.5721068,55.4720556
530111,Tremhøjevej,6731,26,8.5707602,55.4718736
530112,Tremhøjevej,6731,27,8.5716897,55.4721069
530113,Tremhøjevej,6731,28,8.5702902,55.4718949
530114,Tremhøjevej,6731,29,8.5713218,55.4720797
530115,Tremhøjevej,6731,30,8.57014,55.4716879
530116,Tremhøjevej,6731,31,8.5709014,55.4720931
530117,Tremhøjevej,6731,32,8.5702247,55.4714588
530118,Tremhøjevej,6731,33,8.570606,55.47212
530119,Tremhøjevej,6731,34,8.569928,55.4714405
530120,Tremhøjevej,6731,35,8.5702061,55.4721318
530121,Tremhøjevej,6731,36,8.5694959,55.4715057
530122,Tremhøjevej,6731,37,8.5697814,55.4722628
530123,Tremhøjevej,6731,38,8.5697423,55.471671
530124,Tremhøjevej,6731,39,8.5694073,55.4721969
530125,Tremhøjevej,6731,40,8.5695912,55.4719372
530126,Tremhøjevej,6731,41,8.56899,55.472227
530193,Tårngårdsvej,6731,5,8.6016734,55.4882916
530194,Tårngårdsvej,6731,7,8.6051682,55.4876886
530195,Tårngårdsvej,6731,11,8.6109088,55.4825435
530196,Tårngårdsvej,6731,12,8.6087112,55.4872198
530197,Tårngårdsvej,6731,17,8.615773,55.486213
530198,Tårngårdsvej,6731,21,8.6167371,55.4924335
530641,Vestergårds Alle,6731,2,8.6294179,55.4812482
530642,Vestergårds Alle,6731,3,8.6272955,55.4836757
530643,Vestergårds Alle,6731,4,8.6257431,55.4816985
530644,Vestergårds Alle,6731,5,8.6256978,55.4836888
530645,Vestergårds Alle,6731,7,8.6236968,55.4832922
530646,Vestergårdsvej,6731,1,8.5798982,55.4640333
530647,Vestergårdsvej,6731,4,8.5796559,55.4642098
530648,Vestergårdsvej,6731,5,8.5801666,55.4643804
530649,Vestergårdsvej,6731,6,8.5798356,55.4643889
530650,Vestergårdsvej,6731,7,8.5802257,55.4644387
530651,Vestergårdsvej,6731,9,8.5805027,55.4647143
530652,Vestergårdsvej,6731,10,8.5801473,55.4647353
530653,Vestergårdsvej,6731,11,8.5805538,55.4647649
530654,Vestergårdsvej,6731,12,8.5802699,55.4648354
530655,Vestergårdsvej,6731,13,8.5808706,55.4651119
530656,Vestergårdsvej,6731,14,8.5804806,55.4650346
530657,Vestergårdsvej,6731,15,8.5809254,55.4651659
530658,Vestergårdsvej,6731,16,8.580593,55.465152
530659,Vestergårdsvej,6731,17,8.5811371,55.4652904
530660,Vestergårdsvej,6731,18,8.5808122,55.4653928
530661,Vestergårdsvej,6731,20,8.5809649,55.4655456
530662,Vesterled,6731,1,8.5691854,55.4730011
530663,Vesterled,6731,2A,8.568935,55.473387
530664,Vesterled,6731,2B,8.5689666,55.4735991
530665,Vesterled,6731,2C,8.5694103,55.473644
530666,Vesterled,6731,2D,8.5693837,55.4734724
530667,Vesterled,6731,2E,8.5693571,55.4733097
530668,Vesterled,6731,3,8.5691462,55.4727667
530669,Vesterled,6731,5,8.5691336,55.4725698
530670,Vesterled,6731,7,8.569665,55.472652
530671,Vesterled,6731,9,8.5698061,55.4730251
530672,Vesterled,6731,10,8.5701057,55.4733593
530673,Vesterled,6731,11,8.570375,55.472941
530674,Vesterled,6731,13,8.570333,55.472713
530675,Vesterled,6731,14,8.569988,55.473767
530676,Vesterled,6731,15,8.5702944,55.4725143
530677,Vesterled,6731,16,8.5707268,55.4736124
530678,Vesterled,6731,17,8.5707811,55.4725837
530679,Vesterled,6731,18,8.5705162,55.473387
530680,Vesterled,6731,19,8.5708804,55.4729688
530681,Vesterled,6731,20,8.5711221,55.4731762
530682,Vesterled,6731,21,8.571403,55.4729155
530683,Vesterled,6731,22,8.5712489,55.4734374
530684,Vesterled,6731,23,8.5714516,55.4726621
530685,Vesterled,6731,24,8.571255,55.4736199
530686,Vesterled,6731,26,8.5717191,55.4736201
530687,Vesterled,6731,27,8.5718989,55.4725262
530688,Vesterled,6731,28,8.5716363,55.4733459
530689,Vesterled,6731,29,8.5720601,55.4728799
530690,Vesterled,6731,30,8.5723323,55.473164
530691,Vesterled,6731,31,8.5723436,55.4728622
530692,Vesterled,6731,32,8.5723706,55.4733843
530693,Vesterled,6731,33,8.5727922,55.4728342
530694,Vesterled,6731,34,8.5724638,55.4735719
530695,Vesterled,6731,35,8.573302,55.4728322
530696,Vesterled,6731,36,8.5728254,55.4735553
530697,Vesterled,6731,37,8.5734083,55.472553
530698,Vesterled,6731,38,8.5727408,55.4732453
530699,Vesterled,6731,39,8.5735013,55.472312
530700,Vesterled,6731,40,8.5733462,55.473096
530701,Vesterled,6731,41,8.5738626,55.472294
530702,Vesterled,6731,42,8.5735085,55.4733599
530703,Vesterled,6731,43,8.5738795,55.4727731
530704,Vesterled,6731,44,8.573568,55.4735082
530705,Vesterled,6731,46,8.574072,55.473407
530706,Vesterled,6731,50,8.5739322,55.4730588
530761,Vestre Strandvej,6731,1,8.5750424,55.4667975
530762,Vestre Strandvej,6731,2,8.5754203,55.4669655
530763,Vestre Strandvej,6731,3,8.5752773,55.4667201
530764,Vestre Strandvej,6731,4,8.5756408,55.4668752
530765,Vestre Strandvej,6731,5,8.5756081,55.4666292
530766,Vestre Strandvej,6731,7,8.5760171,55.4665161
530767,Vestre Strandvej,6731,9,8.5762708,55.4662429
530768,Vestre Strandvej,6731,10,8.576661,55.466369
530769,Vestre Strandvej,6731,11,8.5762499,55.4660083
530770,Vestre Strandvej,6731,13A,8.5761481,55.4658041
530771,Vestre Strandvej,6731,13B,8.5757038,55.4655252
530772,Vestre Strandvej,6731,15,8.5762055,55.4656098
530773,Vestre Strandvej,6731,16,8.5765738,55.4658866
530774,Vestre Strandvej,6731,17,8.5761577,55.4652926
530775,Vestre Strandvej,6731,18,8.576548,55.4656831
530776,Vestre Strandvej,6731,19,8.576122,55.46511
530777,Vestre Strandvej,6731,20,8.5765099,55.4654601
530778,Vestre Strandvej,6731,21,8.576056,55.464975
530779,Vestre Strandvej,6731,22,8.576459,55.465222
530780,Vestre Strandvej,6731,23,8.576068,55.464804
530781,Vestre Strandvej,6731,24,8.576406,55.464895
530782,Vestre Strandvej,6731,25,8.57605,55.464633
530783,Vestre Strandvej,6731,26,8.57632,55.46454
530784,Vestre Strandvej,6731,27,8.57603,55.464467
530785,Vestre Strandvej,6731,29,8.575865,55.46408
530786,Vestre Strandvej,6731,30,8.576248,55.46399
530787,Vestre Strandvej,6731,31,8.575734,55.463972
530788,Vestre Strandvej,6731,33,8.575686,55.46381
530789,Vestre Strandvej,6731,35,8.57551,55.463571
530790,Vestre Strandvej,6731,36,8.5753766,55.4627079
530791,Vestre Strandvej,6731,37,8.5752875,55.4632103
530792,Vestre Strandvej,6731,39,8.5746748,55.4628382
530793,Vestre Strandvej,6731,39B,8.5713474,55.4626593
530794,Vestre Strandvej,6731,40,8.5732436,55.4592011
530795,Vestre Strandvej,6731,41,8.5724537,55.4593461
530796,Vestre Strandvej,6731,43,8.5723081,55.4586421
530797,Vestre Strandvej,6731,50,8.5703055,55.4540896
530798,Vestre Strandvej,6731,52,8.5695876,55.4538839
530799,Vestre Strandvej,6731,56,8.5668057,55.4532141
530800,Vestre Strandvej,6731,58,8.5652898,55.4528107
530801,Vestre Strandvej,6731,62,8.5610724,55.4517372
530802,Vibehøjen,6731,1,8.573567,55.4696986
530803,Vibehøjen,6731,2,8.5731454,55.4696544
530804,Vibehøjen,6731,3,8.5735989,55.4699397
530805,Vibehøjen,6731,4,8.5731925,55.4698758
530806,Vibehøjen,6731,5,8.5736483,55.4701665
530807,Vibehøjen,6731,6,8.5732275,55.4700718
530808,Vibehøjen,6731,7,8.5737086,55.4705318
530809,Vibehøjen,6731,8,8.5733004,55.4704544
530810,Vibehøjen,6731,9,8.5737494,55.4707722
530811,Vibehøjen,6731,10,8.573336,55.4706717
530812,Vibehøjen,6731,11,8.5737918,55.4710032
530813,Vibehøjen,6731,12,8.5733675,55.4708973
530814,Vibehøjen,6731,13,8.5738586,55.4712257
530815,Vibehøjen,6731,14,8.5734006,55.4710601
530816,Vibehøjen,6731,15,8.5738803,55.4714431
530817,Vibehøjen,6731,16,8.5734353,55.471275
530818,Vibehøjen,6731,18,8.5734592,55.4714653
530879,Vossevangen,6731,1,8.5747723,55.4670077
530880,Vossevangen,6731,3,8.574566,55.4668952
530881,Vossevangen,6731,4,8.574541,55.4665776
530882,Vossevangen,6731,5,8.5742928,55.4668054
530883,Vossevangen,6731,6,8.574395,55.4663886
530884,Vossevangen,6731,7A,8.5740262,55.4665749
530885,Vossevangen,6731,7B,8.5738776,55.4667523
530886,Vossevangen,6731,8,8.5740419,55.466339
530887,Vossevangen,6731,9,8.573669,55.4664303
530888,Vossevangen,6731,10,8.5738766,55.4662023
530889,Vossevangen,6731,11,8.5733498,55.4662564
530890,Vossevangen,6731,12,8.5735695,55.466046
531276,Østerbyvej,6731,1,8.5846698,55.4610212
531277,Østerbyvej,6731,3,8.5850465,55.4610732
531278,Østerbyvej,6731,4,8.5853571,55.4613507
531279,Østerbyvej,6731,5,8.5852736,55.4610241
531280,Østerbyvej,6731,6,8.5859153,55.4611501
531281,Østerbyvej,6731,7,8.5854546,55.4609904
531282,Østerbyvej,6731,9,8.5857498,55.4609188
531283,Østerbyvej,6731,11,8.5863821,55.4607642
531284,Østerbyvej,6731,12,8.5869874,55.4608724
531285,Østerbyvej,6731,13,8.5867895,55.4602814
531286,Østerbyvej,6731,14,8.5876983,55.4608574
531287,Østerbyvej,6731,15,8.5871773,55.4606404
531288,Østerbyvej,6731,16,8.5881924,55.4607727
531289,Østerbyvej,6731,17,8.5875275,55.460548
531290,Østerbyvej,6731,18,8.5885712,55.4606563
531291,Østerbyvej,6731,19,8.5887391,55.4601895
531292,Østerbyvej,6731,21,8.5888089,55.4596666
531293,Østerbyvej,6731,22,8.5904386,55.4600154
531294,Østerbyvej,6731,23,8.5894439,55.4582877
531295,Østerbyvej,6731,24,8.5905391,55.4599678
531296,Østerbyvej,6731,25,8.59065,55.4578208
531297,Østerbyvej,6731,26,8.5905951,55.4594517
531298,Østerbyvej,6731,28,8.5913025,55.4594051
531299,Østerbyvej,6731,30,8.591868,55.458862
531300,Østerbyvej,6731,32B,8.5927362,55.4583896
531301,Østerbyvej,6731,32C,8.5932202,55.4584141
531302,Østerbyvej,6731,32D,8.5936228,55.4582222
531303,Østerbyvej,6731,32E,8.593071,55.458192
531304,Østerbyvej,6731,34,8.5926976,55.4580837
531305,Østerbyvej,6731,36,8.5928767,55.4577845
531306,Østerbyvej,6731,38,8.5932414,55.4579149
531307,Østerbyvej,6731,40,8.5933977,55.4576948
531308,Østerbyvej,6731,42,8.5929408,55.4575393
531309,Østerbyvej,6731,50,8.5946588,55.4553501
531310,Østerbyvej,6731,70,8.5922306,55.4478875
531312,Østerkrog,6731,1,8.5921634,55.4608049
531313,Østerkrog,6731,2,8.5918019,55.4609308
531314,Østerkrog,6731,3,8.5921788,55.4611764
531315,Østerkrog,6731,4,8.5918603,55.461189
531316,Østerkrog,6731,5,8.5914641,55.4611677
531317,Østerkrog,6731,6,8.5911162,55.4613066
531318,Østerkrog,6731,7,8.5911844,55.46147
531319,Østerkrog,6731,8,8.5917368,55.4614506
531320,Østerkrog,6731,9,8.5921505,55.4614362
531321,Østerkrog,6731,10,8.592252,55.4617824
531322,Østerkrog,6731,11,8.5918797,55.4617965
531323,Østerkrog,6731,12,8.591424,55.4617983
531324,Østerkrog,6731,13,8.5910233,55.4618517
531325,Østerkrog,6731,14,8.5912831,55.462039
531326,Østerkrog,6731,15,8.5918312,55.462026
531327,Østerkrog,6731,16,8.592276,55.462004
531328,Østerkrog,6731,17,8.5923191,55.4623829
531329,Østerkrog,6731,18,8.5919919,55.462384
531330,Østerkrog,6731,19,8.5915249,55.4623938
531331,Østerkrog,6731,20,8.591142,55.4624154
531332,Østerkrog,6731,21,8.5912705,55.4626866
531333,Østerkrog,6731,22,8.5918629,55.4626229
531334,Østerkrog,6731,23,8.5924331,55.4626036
531335,Østerkrog,6731,24,8.5924771,55.4629404
531336,Østerkrog,6731,25,8.5919898,55.4629982
531337,Østerkrog,6731,26,8.5916245,55.462977
531338,Østerkrog,6731,27,8.5912258,55.4630713
531339,Østerkrog,6731,28,8.5913153,55.4632453
531340,Østerkrog,6731,29,8.5919637,55.4632246
531341,Østerkrog,6731,30,8.5923423,55.4632105
531342,Østerkrog,6731,31,8.5924476,55.4635577
531343,Østerkrog,6731,32,8.592057,55.4635726
531344,Østerkrog,6731,33,8.5915738,55.46357
531345,Østerkrog,6731,34,8.591221,55.4636667
531346,Østerkrog,6731,35,8.5914449,55.4638177
531347,Østerkrog,6731,36,8.5920093,55.4637981
531348,Østerkrog,6731,37,8.592333,55.4637869
531349,Østerled,6731,3,8.587757,55.4620299
531350,Østerled,6731,4,8.5879866,55.4617326
531351,Østerled,6731,5,8.5876282,55.4618516
531352,Østerled,6731,6,8.5877995,55.4614344
531353,Østerled,6731,7,8.5875278,55.4616919
531354,Østerled,6731,8,8.5875219,55.4611366
531355,Østerled,6731,9,8.5873668,55.4615252
531356,Østerled,6731,10,8.5872158,55.4611533
531357,Østerled,6731,11,8.5872631,55.4613607
531358,Østerled,6731,12,8.5868924,55.4612432
531449,Østre Industrivej,6731,2,8.594331,55.46046
531450,Østre Industrivej,6731,3,8.5951328,55.4608707
531451,Østre Industrivej,6731,15,8.5954484,55.461661
531452,Østre Industrivej,6731,17,8.5953151,55.4622458
531453,Østre Industrivej,6731,20,8.5945145,55.462684
531458,Østre Strandvej,6731,1A,8.585729,55.4628945
531459,Østre Strandvej,6731,1B,8.585664,55.46281
531460,Østre Strandvej,6731,1C,8.5855727,55.4627115
531461,Østre Strandvej,6731,2,8.5860801,55.4629003
531462,Østre Strandvej,6731,3,8.5853731,55.4625806
531463,Østre Strandvej,6731,4,8.585882,55.4626291
531464,Østre Strandvej,6731,5,8.5852428,55.4624288
531465,Østre Strandvej,6731,6,8.5857935,55.4624886
531466,Østre Strandvej,6731,7,8.5848611,55.4623094
531467,Østre Strandvej,6731,8,8.5856512,55.4623461
531468,Østre Strandvej,6731,9,8.5850515,55.4622014
531469,Østre Strandvej,6731,10,8.5855008,55.4621969
531470,Østre Strandvej,6731,11,8.5848391,55.4619373
531471,Østre Strandvej,6731,12,8.585391,55.462057
531472,Østre Strandvej,6731,13,8.5847758,55.461786
531473,Østre Strandvej,6731,14,8.5852835,55.4619131
531474,Østre Strandvej,6731,16,8.5851696,55.4617236
531475,Østre Strandvej,6731,18,8.5848787,55.4614927
531476,Østre Strandvej,6731,19,8.583281,55.462308
531477,Østre Strandvej,6731,20,8.5843698,55.4607651
531478,Østre Strandvej,6731,22,8.5840106,55.4604171
531479,Østre Strandvej,6731,24,8.5838958,55.4602328
531480,Østre Strandvej,6731,26,8.583808,55.460036
531481,Østre Strandvej,6731,28,8.5836027,55.4598531
531482,Østre Strandvej,6731,30,8.583413,55.4595724
531483,Østre Strandvej,6731,32,8.5832963,55.4594022
531484,Østre Strandvej,6731,34,8.5831749,55.4592262
531485,Østre Strandvej,6731,40,8.5816361,55.4571167
835308,Tjæreborgvej,6731,186,8.554668,55.4634603
835318,Vesterled,6731,25,8.5714155,55.4724493
835319,Nordre Strandvej,6731,21,8.5778209,55.4687471
835320,Nordre Strandvej,6731,45,8.578045,55.471416
835321,Sneumvej,6731,48,8.5965998,55.4598997
835322,Sneumvej,6731,50,8.596577,55.460314
835323,Sneumvej,6731,56,8.597047,55.46016
835324,Sneumvej,6731,58,8.597424,55.459791
835325,Sneumvej,6731,69,8.589821,55.4608623
835326,Sneumvej,6731,79,8.5899385,55.4610912
835327,Sneumvej,6731,179,8.5952928,55.4593724
835328,Sneumvej,6731,181,8.5953363,55.4595606
835329,Sneumvej,6731,183,8.5950515,55.4596061
835330,Sneumvej,6731,185,8.5948594,55.4596367
835331,Sneumvej,6731,187,8.5945746,55.4596823
835332,Sneumvej,6731,189,8.5942561,55.4596893
835333,Sneumvej,6731,191,8.5942764,55.4595208
835334,Sneumvej,6731,193,8.5942766,55.459377
835335,Sneumvej,6731,195,8.5945493,55.4593334
835336,Sneumvej,6731,197,8.594717,55.4593066
835337,Sneumvej,6731,199,8.5949883,55.4592633
835338,Sneumvej,6731,201,8.5951683,55.4592346
835339,Sneumvej,6731,205,8.595022,55.459053
835340,Sneumvej,6731,207,8.594737,55.4590991
835341,Sneumvej,6731,209,8.5945449,55.4591298
835342,Sneumvej,6731,211,8.5942603,55.4591752
835343,Sneumvej,6731,213,8.5943837,55.45898
835344,Sneumvej,6731,215,8.5946697,55.4589343
835345,Sneumvej,6731,217,8.5945897,55.4587506
835346,Sneumvej,6731,219,8.5946073,55.458582
835347,Sneumvej,6731,221,8.5949416,55.4585936
835348,Sneumvej,6731,223,8.594984,55.4586913
835349,Sneumvej,6731,225,8.5950596,55.4588446
835350,Sneumvej,6731,229,8.5957265,55.4591986
835351,Sneumvej,6731,231,8.5957882,55.4594428
835352,Sneumvej,6731,233,8.5961313,55.4593877
835353,Sneumvej,6731,235,8.596333,55.459355
835354,Sneumvej,6731,237,8.596215,55.459118
835355,Sneumvej,6731,239,8.5960139,55.4591506
835356,Sneumvej,6731,241,8.5958516,55.4588221
835357,Sneumvej,6731,243,8.5960531,55.4587898
835358,Sneumvej,6731,245,8.5959009,55.4586269
835359,Sneumvej,6731,247,8.5959313,55.4584486
835360,Sneumvej,6731,249,8.5956596,55.4584883
835361,Sneumvej,6731,251,8.5954024,55.4584955
835362,Sneumvej,6731,253,8.5954716,55.4587026
835363,Sneumvej,6731,255,8.5955783,55.4588988
835364,Skolevej,6731,28,8.580798,55.464182
835365,Skolevej,6731,44C,8.585048,55.4635676
835366,Skolevej,6731,44D,8.585391,55.4636774
835367,Fælledvej,6731,8,8.5753487,55.4692376
835368,Fælledvej,6731,10,8.5752034,55.4692467
835369,Fælledvej,6731,12,8.5750726,55.4692541
835370,Østre Strandvej,6731,38,8.5819753,55.4577386
835371,Jens Kusks Vej,6731,4,8.5935672,55.4569361
835372,Jens Kusks Vej,6731,6,8.5938838,55.4570413
835373,Jens Kusks Vej,6731,10,8.5940005,55.4575222
835374,Jens Kusks Vej,6731,16,8.5939601,55.4581513
835375,Jens Kusks Vej,6731,22,8.593179,55.458792
835376,Jens Kusks Vej,6731,47,8.594714,55.457697
835377,Jens Kusks Vej,6731,49,8.595198,55.4576792
835378,Poppelvænget,6731,5,8.5754778,55.4690743
835379,Jens Kusks Vej,6731,51,8.5956361,55.4577646
835380,Poppelvænget,6731,7,8.5754686,55.4690062
835381,Jens Kusks Vej,6731,53,8.5954263,55.4579753
835382,Poppelvænget,6731,9,8.5754457,55.4688774
835383,Jens Kusks Vej,6731,55,8.5950131,55.4579617
835384,Poppelvænget,6731,11,8.575433,55.46881
835385,Pilevænget,6731,4A,8.5750814,55.4690965
835386,Pilevænget,6731,4B,8.5750702,55.4690259
835387,Pilevænget,6731,6A,8.575046,55.468897
835388,Pilevænget,6731,6B,8.5750354,55.4688264
835389,Østre Industrivej,6731,1A,8.5950156,55.4600241
835390,Østre Industrivej,6731,1B,8.5950246,55.4604026
835391,Østerbyvej,6731,17A,8.5882463,55.4603346
835392,Østerbyvej,6731,32A,8.5922889,55.4583459
835393,Østerbyvej,6731,46,8.59294,55.457266
835394,Vestre Strandvej,6731,6,8.5759607,55.4668203
835395,Vestre Strandvej,6731,12A,8.5768635,55.4662199
835396,Vestre Strandvej,6731,12B,8.5770581,55.4662108
835397,Vestre Strandvej,6731,12C,8.5766367,55.4660569
835398,Vestre Strandvej,6731,12D,8.5768428,55.4660462
835399,Vestre Strandvej,6731,24A,8.576463,55.464742
835400,Vestre Strandvej,6731,28,8.576295,55.464364
835401,Vestre Strandvej,6731,32,8.576164,55.463782
835402,Engvej,6731,17,8.572404,55.464895
835403,J.M. Terkelsens Vej,6731,26,8.5795766,55.4658087
835404,Solbjerg Plantagevej,6731,3C,8.5630015,55.4811249
835405,Lindingvadvej,6731,3,8.5772989,55.4783514
835406,Vestergårdsvej,6731,3,8.5799637,55.4642037
835407,Vestergårdsvej,6731,8A,8.5799519,55.4645036
835408,Vestergårdsvej,6731,8B,8.5799741,55.4645797
835409,Hans Silas Nielsens Vej,6731,8,8.5773222,55.4648162
835410,Hans Silas Nielsens Vej,6731,13,8.5779644,55.4652884
835411,Hulvej,6731,50,8.5779025,55.4674061
835412,Hulvej,6731,52,8.5777279,55.4674508
835413,Hulvej,6731,54,8.5774142,55.4675352
835414,Hulvej,6731,56,8.5772453,55.4675735
835415,Hulvej,6731,58,8.576928,55.4675434
835416,Hulvej,6731,60,8.5769453,55.4676517
1943933,Sønderbyvej,6731,62,8.587985,55.454848
1943936,Sønderbyvej,6731,106C,8.615956,55.448548
1948714,Gammel Skolevej,6731,36,8.6306443,55.474364
1948716,Gammel Skolevej,6731,40,8.63197,55.4714465
2004986,Niels Storgårds Vej,6731,9,8.5962492,55.4565506
2004987,Niels Storgårds Vej,6731,20,8.598202,55.458499
2004988,Niels Storgårds Vej,6731,22,8.598111,55.458245
2004989,Niels Storgårds Vej,6731,23,8.5986809,55.4571693
2004990,Niels Storgårds Vej,6731,24,8.597705,55.458266
2004991,Niels Storgårds Vej,6731,25,8.5987763,55.4574234
2004992,Niels Storgårds Vej,6731,26,8.597696,55.45864
2004993,Niels Storgårds Vej,6731,28,8.597225,55.458614
2004996,Niels Storgårds Vej,6731,30,8.597208,55.458286
2004997,Niels Storgårds Vej,6731,31,8.598772,55.458189
2005000,Niels Storgårds Vej,6731,32,8.596788,55.458289
2005001,Niels Storgårds Vej,6731,33,8.5988188,55.458456
2005003,Niels Storgårds Vej,6731,34,8.596491,55.458449
2005005,Niels Storgårds Vej,6731,35,8.5988304,55.4586949
2005008,Niels Storgårds Vej,6731,36,8.596658,55.458658
2005010,Niels Storgårds Vej,6731,37,8.598826,55.458949
2005012,Niels Storgårds Vej,6731,38,8.596774,55.458945
2005014,Niels Storgårds Vej,6731,39,8.598987,55.459244
2005016,Niels Storgårds Vej,6731,40,8.59684,55.459223
2005017,Niels Storgårds Vej,6731,42,8.59717,55.459277
2005019,Niels Storgårds Vej,6731,44,8.597262,55.458984
2005022,Niels Storgårds Vej,6731,46,8.597735,55.458912
2005023,Niels Storgårds Vej,6731,48,8.597845,55.459191
2005025,Niels Storgårds Vej,6731,50,8.598325,55.459148
2005027,Niels Storgårds Vej,6731,52,8.598242,55.458944
2005183,Klintholmvej,6731,39,8.611432,55.46761
2005185,Klintholmvej,6731,40,8.6136502,55.4695759
2005188,Klintholmvej,6731,43,8.6164056,55.4715671
2005189,Klintholmvej,6731,43A,8.6152828,55.471771
2129841,Peder Hedes Vej,6731,3,8.584496,55.459046
2129853,Peder Hedes Vej,6731,4,8.584073,55.459131
2129856,Peder Hedes Vej,6731,5,8.5846008,55.4592359
2129863,Peder Hedes Vej,6731,6,8.5841654,55.4593068
2129867,Peder Hedes Vej,6731,7,8.5847638,55.4594836
2129871,Peder Hedes Vej,6731,8,8.584351,55.459555
2129882,Peder Hedes Vej,6731,9,8.5854602,55.4593822
2129884,Peder Hedes Vej,6731,10,8.584473,55.459757
2129892,Peder Hedes Vej,6731,11,8.5854014,55.4591214
2129904,Peder Hedes Vej,6731,13,8.585269,55.4588657
2129915,Peder Hedes Vej,6731,15,8.5858098,55.4588211
2129917,Peder Hedes Vej,6731,17,8.5857986,55.4590944
2129919,Peder Hedes Vej,6731,19,8.585893,55.459437
2129925,Peder Hedes Vej,6731,21,8.5865542,55.4593023
2129931,Peder Hedes Vej,6731,23,8.586391,55.45905
2129934,Peder Hedes Vej,6731,25,8.586381,55.458791
2129941,Peder Hedes Vej,6731,27,8.58694,55.458786
2129942,Peder Hedes Vej,6731,29,8.587118,55.459053
2129946,Peder Hedes Vej,6731,31,8.5872194,55.4592472
2129947,Peder Hedes Vej,6731,33,8.587834,55.459143
2129950,Peder Hedes Vej,6731,35,8.587729,55.458857
2129954,Peder Hedes Vej,6731,37,8.587632,55.458732
2129957,Peder Hedes Vej,6731,39,8.58821,55.458669
2129960,Peder Hedes Vej,6731,41,8.588251,55.458888
2129962,Peder Hedes Vej,6731,43,8.588309,55.459078
2129966,Peder Hedes Vej,6731,45,8.589035,55.458554
2129968,Peder Hedes Vej,6731,80,8.5872258,55.4595851
2129974,Peder Hedes Vej,6731,82,8.5870854,55.4596436
2129978,Peder Hedes Vej,6731,84,8.5874061,55.4597732
2129980,Peder Hedes Vej,6731,86,8.5871396,55.4597939
2129986,Peder Hedes Vej,6731,88,8.5871997,55.460002
2129989,Peder Hedes Vej,6731,90,8.5874651,55.4599772
2129991,Peder Hedes Vej,6731,92,8.5875189,55.4601463
2129993,Peder Hedes Vej,6731,94,8.5872454,55.4601763
2129995,Peder Hedes Vej,6731,96,8.5872979,55.4603571
2129996,Peder Hedes Vej,6731,98,8.5875787,55.4603309
2129997,Peder Hedes Vej,6731,100,8.5880319,55.4601147
2129998,Peder Hedes Vej,6731,102,8.5882004,55.4600989
2129999,Peder Hedes Vej,6731,104,8.5883187,55.4600879
2130000,Peder Hedes Vej,6731,106,8.5882355,55.4598871
2130001,Peder Hedes Vej,6731,108,8.5881223,55.4598977
2130002,Peder Hedes Vej,6731,110,8.5879371,55.459915
2130003,Peder Hedes Vej,6731,112,8.5878796,55.4597164
2130009,Peder Hedes Vej,6731,114,8.5880647,55.4596991
2130014,Peder Hedes Vej,6731,116,8.5881714,55.4596892
2130017,Peder Hedes Vej,6731,118,8.5880921,55.459488
2130024,Peder Hedes Vej,6731,120,8.5879853,55.459498
2130028,Peder Hedes Vej,6731,122,8.5878105,55.4595143
2197982,Sneumvej,6731,275,8.601262,55.459184
2197983,Krogsgårdsvej,6731,17A,8.558997,55.471744
2197984,Krogsgårdsvej,6731,17B,8.558811,55.471734
2197985,Kærhaven,6731,1A,8.5748,55.46483
2197986,Kærhaven,6731,2A,8.575005,55.464686
2197987,Kærhaven,6731,2B,8.574807,55.464578
2197988,Kærhaven,6731,3A,8.573873,55.464762
2197989,Kærhaven,6731,3B,8.574003,55.464684
2197990,Kærhaven,6731,3C,8.574126,55.464608
2197991,Kærhaven,6731,3D,8.574248,55.46452
2197992,Kærhaven,6731,4A,8.574468,55.464323
2197993,Kærhaven,6731,4B,8.574661,55.464427
2197994,Kærhaven,6731,6A,8.574854,55.464294
2197995,Kærhaven,6731,6B,8.574674,55.464206
2235982,Hedegade,6731,10,8.60753,55.462937
2239152,Sneumvej,6731,60,8.598187,55.459688
2239153,Hulvej,6731,19,8.583331,55.466552
2240105,Ejlif Krogagers Vej,6731,2,8.587302,55.465938
2240106,Ejlif Krogagers Vej,6731,4,8.587503,55.465978
2240107,Ejlif Krogagers Vej,6731,6,8.587686,55.465842
2240108,Ejlif Krogagers Vej,6731,8,8.587827,55.465781
2240109,Ejlif Krogagers Vej,6731,10,8.587978,55.465723
2240110,Ejlif Krogagers Vej,6731,12,8.587717,55.46556
2240111,Ejlif Krogagers Vej,6731,14,8.587542,55.46558
2240112,Ejlif Krogagers Vej,6731,16,8.587222,55.465644
2240113,Ejlif Krogagers Vej,6731,18,8.587053,55.465692
2240114,Ejlif Krogagers Vej,6731,20,8.586889,55.46574
2242370,Hedegade,6731,14,8.610037,55.463422
2250626,Ejlif Krogagers Vej,6731,24,8.586724,55.465999
2250627,Ejlif Krogagers Vej,6731,26,8.586354,55.466126
2250628,Ejlif Krogagers Vej,6731,28,8.585998,55.466289
2250629,Ejlif Krogagers Vej,6731,30,8.585628,55.466414
2250630,Ejlif Krogagers Vej,6731,32,8.585243,55.466591
2250631,Ejlif Krogagers Vej,6731,34,8.584802,55.466737
2250632,Ejlif Krogagers Vej,6731,36,8.584496,55.466824
2250633,Ejlif Krogagers Vej,6731,38,8.583857,55.466566
2250634,Ejlif Krogagers Vej,6731,40,8.584061,55.466882
2250635,Ejlif Krogagers Vej,6731,44,8.584812,55.467031
2250636,Ejlif Krogagers Vej,6731,46,8.585142,55.466919
2250637,Ejlif Krogagers Vej,6731,48,8.585595,55.466848
2250638,Ejlif Krogagers Vej,6731,50,8.585989,55.466724
2250639,Ejlif Krogagers Vej,6731,52,8.586171,55.466514
2250640,Ejlif Krogagers Vej,6731,54,8.58658,55.466364
2250641,Ejlif Krogagers Vej,6731,56,8.586948,55.466299
2250642,Ejlif Krogagers Vej,6731,58,8.587269,55.466214
2250665,Kærhaven,6731,5,8.573855,55.46439
2250666,Kærhaven,6731,7,8.573602,55.464159
2250668,Peder Hedes Vej,6731,16,8.584894,55.460346
2250669,Peder Hedes Vej,6731,22,8.585314,55.460131
2250670,Peder Hedes Vej,6731,24,8.585261,55.459893
2250671,Peder Hedes Vej,6731,26,8.585554,55.45973
