idx,street,postcode,housenumber,lon,lat
1731883,Strandvejen,6854,40,8.310006,55.707466
1731885,Strandvejen,6854,41,8.320768,55.7002562
1731889,Strandvejen,6854,42,8.306877,55.707815
1731891,Strandvejen,6854,46,8.3062494,55.7084986
1731894,Strandvejen,6854,50,8.3056063,55.7087592
1731896,Strandvejen,6854,51,8.3138717,55.702706
1731900,Strandvejen,6854,52,8.305459,55.708876
1731902,Strandvejen,6854,54,8.305263,55.70901
1731905,Strandvejen,6854,56,8.3050289,55.7091008
1731906,Strandvejen,6854,58,8.3049344,55.709297
1731911,Strandvejen,6854,60,8.3046506,55.7094076
1731914,Strandvejen,6854,61,8.302275,55.70684
1731915,Strandvejen,6854,62,8.304378,55.709438
1731918,Strandvejen,6854,64,8.304236,55.709633
1731921,Strandvejen,6854,68,8.304107,55.710342
1731924,Strandvejen,6854,70,8.3043893,55.7104748
1731926,Strandvejen,6854,71,8.303691,55.709512
1731930,Strandvejen,6854,72,8.3031763,55.7102582
1731932,Strandvejen,6854,73,8.303551,55.709655
1731933,Strandvejen,6854,74,8.3027431,55.7104969
1731935,Strandvejen,6854,75,8.30342,55.709784
1731937,Strandvejen,6854,78,8.302516,55.710681
1731939,Strandvejen,6854,79,8.303156,55.7099446
1731941,Strandvejen,6854,80,8.3022661,55.7109427
1731943,Strandvejen,6854,81,8.3029663,55.7100764
1731945,Strandvejen,6854,82,8.30236,55.710832
1731947,Strandvejen,6854,83,8.302816,55.710194
1731952,Strandvejen,6854,84,8.3021697,55.7110426
1731953,Strandvejen,6854,87,8.3026629,55.7102989
1731956,Strandvejen,6854,88,8.3020453,55.7111686
1731958,Strandvejen,6854,89,8.3025112,55.710404
1731959,Strandvejen,6854,90,8.3019127,55.7113323
1731961,Strandvejen,6854,92,8.301801,55.711444
1731962,Strandvejen,6854,93,8.3019145,55.7108898
1731964,Strandvejen,6854,94,8.301591,55.711755
1731966,Strandvejen,6854,98,8.3014121,55.7119055
1731968,Strandvejen,6854,99,8.3011228,55.7111331
1731970,Strandvejen,6854,100,8.3013313,55.7120289
1731971,Strandvejen,6854,101,8.3016147,55.7113163
1731973,Strandvejen,6854,102,8.301198,55.712152
1731974,Strandvejen,6854,103,8.301493,55.711445
1731976,Strandvejen,6854,104,8.3010857,55.7123074
1731978,Strandvejen,6854,105,8.301379,55.711576
1731981,Strandvejen,6854,106,8.300966,55.712475
1731982,Strandvejen,6854,107,8.3012628,55.7117073
1731983,Strandvejen,6854,108,8.3008059,55.7126364
1731985,Strandvejen,6854,109,8.301104,55.711836
1731986,Strandvejen,6854,111,8.3008697,55.7119535
1731988,Strandvejen,6854,113,8.3007681,55.7121809
1731990,Strandvejen,6854,115,8.3004964,55.7122609
1731992,Strandvejen,6854,130,8.3013557,55.7137489
1731994,Strandvejen,6854,140,8.304874,55.715309
1731996,Strandvejen,6854,149,8.297376,55.7145
1731997,Strandvejen,6854,150,8.301587,55.715567
1732000,Strandvejen,6854,151,8.2971232,55.7146296
1732001,Strandvejen,6854,160,8.301271,55.715849
1732003,Strandvejen,6854,161,8.293782,55.717074
1732005,Strandvejen,6854,170,8.2902158,55.721019
1732007,Strandvejen,6854,171,8.2922149,55.7143458
1732009,Strandvejen,6854,180,8.2854848,55.7239563
1732012,Strandvejen,6854,182,8.281161,55.726038
1732015,Strandvejen,6854,189,8.27199,55.723935
1732018,Strandvejen,6854,190,8.272065,55.725592
1732021,Strandvejen,6854,192,8.271388,55.7259598
1732024,Strandvejen,6854,194,8.2709581,55.7258354
1732026,Strandvejen,6854,196,8.2707503,55.7255765
1732031,Strandvejen,6854,200,8.2700199,55.7256551
1732035,Strandvejen,6854,210A,8.2492341,55.7266189
1732037,Strandvejen,6854,210B,8.2491943,55.726733
1732040,Strandvejen,6854,210C,8.249074,55.726749
1732043,Strandvejen,6854,210D,8.248958,55.7267644
1732046,Strandvejen,6854,234,8.242139,55.7270629
1732048,Strandvejen,6854,236,8.2462974,55.7358364
1732051,Strandvejen,6854,238,8.24143,55.727462
1732053,Strandvejen,6854,240,8.240418,55.727616
1732055,Strandvejen,6854,241,8.24145,55.7264563
1732057,Strandvejen,6854,242,8.238993,55.726876
1732058,Strandvejen,6854,243,8.2406119,55.7265508
1732061,Strandvejen,6854,244,8.238044,55.727096
1732062,Strandvejen,6854,246,8.2374541,55.7269025
1732064,Strandvejen,6854,250,8.233304,55.727284
1732066,Strandvejen,6854,251,8.237017,55.726459
1732068,Strandvejen,6854,260,8.2301657,55.728059
1732071,Strandvejen,6854,264,8.2109038,55.7316696
1732072,Strandvejen,6854,266,8.211593,55.731539
1732074,Strandvejen,6854,268,8.209458,55.732098
1732076,Strandvejen,6854,270,8.2101108,55.7317609
1732078,Strandvejen,6854,280,8.2016048,55.7336497
1732079,Strandvejen,6854,282,8.201502,55.733968
1732082,Strandvejen,6854,290,8.2007968,55.7338586
1732083,Strandvejen,6854,396,8.1875414,55.735421
1732085,Strandvejen,6854,398,8.18704,55.735547
1732088,Strandvejen,6854,400,8.187144,55.735724
1732089,Strandvejen,6854,401A,8.195451,55.733214
1732092,Strandvejen,6854,402,8.186604,55.735902
1732093,Strandvejen,6854,403A,8.184626,55.736559
1732095,Strandvejen,6854,403B,8.1846411,55.7367873
1732098,Strandvejen,6854,403C,8.184426,55.737067
1732099,Strandvejen,6854,404,8.186485,55.735453
1732102,Strandvejen,6854,405,8.1841009,55.7373028
1732103,Strandvejen,6854,406A,8.1861047,55.7357522
1732106,Strandvejen,6854,407A,8.182549,55.73823
1732107,Strandvejen,6854,407B,8.182348,55.738461
1732109,Strandvejen,6854,408,8.185693,55.735956
1732111,Strandvejen,6854,409,8.182419,55.738014
1732113,Strandvejen,6854,410,8.186157,55.736187
1732115,Strandvejen,6854,411,8.182099,55.737547
1732117,Strandvejen,6854,412,8.1857318,55.7361743
1732118,Strandvejen,6854,413,8.1813826,55.7388019
1732120,Strandvejen,6854,413A,8.1816711,55.7387162
1732123,Strandvejen,6854,413B,8.1814493,55.7387989
1732124,Strandvejen,6854,414,8.185829,55.736555
1732126,Strandvejen,6854,415A,8.1808894,55.7390959
1732128,Strandvejen,6854,415B,8.1806219,55.739132
1732132,Strandvejen,6854,416,8.185814,55.736841
1732134,Strandvejen,6854,417,8.180449,55.739219
1732136,Strandvejen,6854,418,8.184467,55.737889
1732140,Strandvejen,6854,419,8.180271,55.739296
1732142,Strandvejen,6854,420,8.18299,55.738693
1732145,Strandvejen,6854,421A,8.179811,55.73949
1732147,Strandvejen,6854,421B,8.179626,55.739574
1732149,Strandvejen,6854,421C,8.179564,55.739519
1732151,Strandvejen,6854,422,8.182676,55.738713
1732152,Strandvejen,6854,423,8.179331,55.739687
1732155,Strandvejen,6854,424,8.182664,55.738963
1732157,Strandvejen,6854,425,8.179009,55.739784
1732158,Strandvejen,6854,426,8.18233,55.738871
1732160,Strandvejen,6854,427,8.178744,55.739884
1732164,Strandvejen,6854,431,8.175953,55.741653
1732165,Strandvejen,6854,432,8.181785,55.739058
1732167,Strandvejen,6854,433,8.176364,55.741551
1732169,Strandvejen,6854,435,8.176054,55.741918
1732171,Strandvejen,6854,436,8.1807883,55.7394289
1732174,Strandvejen,6854,437,8.175351,55.74246
1732175,Strandvejen,6854,438,8.1808598,55.7396952
1732177,Strandvejen,6854,439,8.17449,55.743283
1732179,Strandvejen,6854,440,8.1803926,55.7395404
1732181,Strandvejen,6854,442,8.180309,55.739681
1732184,Strandvejen,6854,444,8.1800423,55.7397507
1732186,Strandvejen,6854,444A,8.180067,55.739737
1732189,Strandvejen,6854,444C,8.180048,55.739754
1732192,Strandvejen,6854,444D,8.180153,55.739794
1732194,Strandvejen,6854,444E,8.180164,55.739803
1732197,Strandvejen,6854,446,8.180012,55.7400709
1732199,Strandvejen,6854,448,8.1796995,55.7397711
1732202,Strandvejen,6854,450A,8.179268,55.739979
1732203,Strandvejen,6854,450B,8.179423,55.740104
1732204,Strandvejen,6854,452B,8.1796434,55.7403145
1732205,Strandvejen,6854,454,8.17916,55.7402193
1732206,Strandvejen,6854,456,8.178796,55.740187
1732207,Strandvejen,6854,456A,8.1788935,55.740207
1732208,Strandvejen,6854,456B,8.1789811,55.74028
1732209,Strandvejen,6854,456C,8.179069,55.740353
1732210,Strandvejen,6854,456D,8.178833,55.740172
1732211,Strandvejen,6854,456E,8.1787758,55.7401882
1732212,Strandvejen,6854,458,8.1784615,55.7403953
1732213,Strandvejen,6854,460,8.17828,55.740481
1732214,Strandvejen,6854,462,8.178307,55.740814
1732215,Strandvejen,6854,464,8.1781165,55.7406217
1732216,Strandvejen,6854,466,8.1780962,55.740835
1732217,Strandvejen,6854,468,8.1778279,55.7408837
1732218,Strandvejen,6854,470,8.177664,55.740985
1732219,Strandvejen,6854,472,8.1775735,55.7411108
1732220,Strandvejen,6854,474,8.1774369,55.7412168
1732221,Strandvejen,6854,476,8.177224,55.741315
1732222,Strandvejen,6854,478,8.177051,55.741443
1732223,Strandvejen,6854,480,8.177092,55.741587
1732224,Strandvejen,6854,482A,8.176775,55.7422082
1732225,Strandvejen,6854,482B,8.176731,55.74189
1732226,Strandvejen,6854,484,8.176421,55.742376
1732227,Strandvejen,6854,484A,8.1761208,55.7426987
1732228,Strandvejen,6854,484B,8.17558,55.743106
1732232,Strandvejen,6854,490,8.174242,55.744069
1732420,Hjelmevej,6854,1,8.180009,55.739384
1732421,Hjelmevej,6854,2,8.17947,55.7392
1732423,Hjelmevej,6854,4,8.179203,55.739035
1732425,Hjelmevej,6854,5,8.179643,55.738986
1732426,Hjelmevej,6854,6,8.178861,55.738809
1732429,Hjelmevej,6854,7,8.179388,55.738727
1732431,Hjelmevej,6854,9,8.179148,55.738522
1732432,Hjelmevej,6854,11,8.178873,55.73827
1732434,Hjelmevej,6854,12,8.176724,55.738928
1732436,Hjelmevej,6854,13,8.178671,55.73805
1732438,Hjelmevej,6854,14,8.177217,55.738719
1732441,Hjelmevej,6854,15,8.177396,55.737925
1732443,Hjelmevej,6854,16,8.177854,55.73864
1732447,Hjelmevej,6854,17A,8.178563,55.736281
1732448,Hjelmevej,6854,17B,8.178244,55.736125
1732451,Hjelmevej,6854,18,8.178385,55.738625
1732452,Hjelmevej,6854,19,8.177907,55.73504
1732454,Hjelmevej,6854,21,8.178234,55.73473
1732458,Hjelmevej,6854,23,8.178326,55.734331
1732459,Hjelmevej,6854,24,8.177118,55.738313
1732462,Hjelmevej,6854,25,8.178755,55.734158
1732465,Hjelmevej,6854,27,8.178554,55.733995
1732467,Hjelmevej,6854,29,8.177842,55.734136
1732469,Hjelmevej,6854,31A,8.177507,55.733831
1732471,Hjelmevej,6854,31B,8.17814,55.733784
1732473,Hjelmevej,6854,33,8.177924,55.733532
1732477,Hjelmevej,6854,35,8.178295,55.733363
1732479,Hjelmevej,6854,37,8.178556,55.733143
1732482,Hjelmevej,6854,39A,8.178591,55.732623
1732484,Hjelmevej,6854,39B,8.179356,55.732258
1732486,Hjelmevej,6854,39C,8.178931,55.732276
1732490,Hjelmevej,6854,41,8.178192,55.732269
1732491,Hjelmevej,6854,42,8.177288,55.737202
1732495,Hjelmevej,6854,43,8.178334,55.732009
1732497,Hjelmevej,6854,44,8.176591,55.737418
1732499,Hjelmevej,6854,45A,8.178957,55.731929
1732502,Hjelmevej,6854,45B,8.179436,55.731898
1732503,Hjelmevej,6854,46,8.175789,55.737252
1732507,Hjelmevej,6854,47A,8.179905,55.731863
1732508,Hjelmevej,6854,47B,8.18006,55.732144
1732511,Hjelmevej,6854,48,8.175281,55.7373
1732515,Hjelmevej,6854,49,8.180566,55.731716
1732516,Hjelmevej,6854,50,8.175405,55.736978
1732520,Hjelmevej,6854,51,8.180877,55.731736
1732523,Hjelmevej,6854,52,8.176025,55.736869
1732527,Hjelmevej,6854,53,8.181389,55.731862
1732529,Hjelmevej,6854,54,8.176497,55.736961
1732531,Hjelmevej,6854,55A,8.182056,55.731599
1732535,Hjelmevej,6854,55B,8.18265,55.731769
1732539,Hjelmevej,6854,56,8.177527,55.736991
1732541,Hjelmevej,6854,57A,8.182979,55.731511
1732544,Hjelmevej,6854,57B,8.18338,55.731436
1732546,Hjelmevej,6854,58,8.177237,55.736793
1732550,Hjelmevej,6854,59,8.183897,55.731551
1732553,Hjelmevej,6854,60,8.177616,55.736507
1732556,Hjelmevej,6854,61,8.184523,55.731469
1732558,Hjelmevej,6854,62A,8.176796,55.73644
1732561,Hjelmevej,6854,62B,8.176136,55.736522
1732566,Hjelmevej,6854,63,8.185177,55.731322
1732569,Hjelmevej,6854,64,8.175519,55.736322
1732571,Hjelmevej,6854,65,8.183975,55.731138
1732576,Hjelmevej,6854,66,8.17554,55.736026
1732577,Hjelmevej,6854,68,8.176557,55.736077
1732579,Hjelmevej,6854,70,8.176734,55.735926
1732581,Hjelmevej,6854,72,8.177567,55.736203
1732583,Hjelmevej,6854,73,8.186305,55.730961
1732584,Hjelmevej,6854,74,8.177454,55.735873
1732586,Hjelmevej,6854,75,8.186863,55.730913
1732588,Hjelmevej,6854,76,8.177464,55.735644
1732590,Hjelmevej,6854,77,8.187387,55.731023
1732591,Hjelmevej,6854,78,8.177305,55.735442
1732593,Hjelmevej,6854,79,8.187802,55.73076
1732595,Hjelmevej,6854,80,8.177258,55.735211
1732596,Hjelmevej,6854,82,8.177359,55.734983
1732598,Hjelmevej,6854,83,8.188414,55.730722
1732600,Hjelmevej,6854,84,8.177732,55.734629
1732602,Hjelmevej,6854,85,8.188901,55.730599
1732604,Hjelmevej,6854,86,8.177582,55.734395
1732605,Hjelmevej,6854,87,8.1894805,55.7306168
1732607,Hjelmevej,6854,88,8.177194,55.73447
1732608,Hjelmevej,6854,89,8.190009,55.73056
1732610,Hjelmevej,6854,90,8.176451,55.734393
1732612,Hjelmevej,6854,92,8.175859,55.7345
1732613,Hjelmevej,6854,96,8.176846,55.734166
1732616,Hjelmevej,6854,98,8.176768,55.733911
1732617,Hjelmevej,6854,98A,8.176173,55.733599
1732618,Hjelmevej,6854,100,8.176313,55.733389
1732620,Hjelmevej,6854,102,8.176949,55.733422
1732621,Hjelmevej,6854,104,8.177446,55.732995
1732624,Hjelmevej,6854,106,8.175328,55.733115
1732625,Hjelmevej,6854,108,8.177908,55.732664
1732627,Hjelmevej,6854,110,8.177533,55.732674
1732629,Hjelmevej,6854,112,8.17709,55.732689
1732630,Hjelmevej,6854,114,8.176598,55.732885
1732632,Hjelmevej,6854,116,8.175956,55.732908
1732634,Hjelmevej,6854,118,8.176745,55.732363
1732636,Hjelmevej,6854,120,8.177044,55.732221
1732638,Hjelmevej,6854,122,8.177538,55.732184
1732640,Hjelmevej,6854,124,8.176868,55.731795
1732641,Hjelmevej,6854,126,8.177324,55.731528
1732643,Hjelmevej,6854,128,8.180537,55.731312
1732644,Hjelmevej,6854,130,8.181627,55.731155
1732647,Hjelmevej,6854,132,8.182048,55.731154
1732648,Hjelmevej,6854,134,8.182525,55.731135
1732650,Hjelmevej,6854,136,8.181682,55.73078
1732652,Hjelmevej,6854,138A,8.181707,55.730463
1732654,Hjelmevej,6854,138B,8.182241,55.730396
1732655,Hjelmevej,6854,140A,8.182605,55.730602
1732657,Hjelmevej,6854,140B,8.182876,55.730855
1732659,Hjelmevej,6854,142,8.18327,55.730741
1732660,Hjelmevej,6854,144,8.183826,55.730681
1732663,Hjelmevej,6854,146,8.184398,55.730579
1732665,Hjelmevej,6854,148,8.18489,55.730353
1732666,Hjelmevej,6854,150,8.185213,55.730315
1732668,Hjelmevej,6854,152,8.185699,55.730163
1732670,Hjelmevej,6854,154,8.186051,55.730077
1737257,Klintingvej,6854,130,8.264141,55.746467
1737260,Klintingvej,6854,150,8.263111,55.742493
1737261,Klintingvej,6854,151,8.264354,55.74519
1737262,Klintingvej,6854,160,8.263874,55.741454
1737264,Klintingvej,6854,164,8.262637,55.739659
1737267,Klintingvej,6854,166,8.264277,55.739751
1737268,Klintingvej,6854,168A,8.264954,55.739344
1737270,Klintingvej,6854,169,8.265096,55.7404
1737273,Klintingvej,6854,170,8.264424,55.738745
1737276,Klintingvej,6854,172,8.265322,55.738532
1737277,Klintingvej,6854,175,8.265677,55.739294
1737280,Klintingvej,6854,179,8.266378,55.738216
1737282,Klintingvej,6854,180,8.266176,55.736703
1737284,Klintingvej,6854,182,8.266369,55.736439
1737286,Klintingvej,6854,185,8.266591,55.737191
1737287,Klintingvej,6854,187,8.266654,55.736707
1737288,Klintingvej,6854,189,8.266845,55.736445
1737289,Klintingvej,6854,190,8.262151,55.737
1737290,Klintingvej,6854,191,8.266937,55.736129
1737291,Klintingvej,6854,193,8.267276,55.735803
1737292,Klintingvej,6854,194,8.26219,55.736169
1737293,Klintingvej,6854,197,8.267157,55.735611
1737294,Klintingvej,6854,199A,8.267196,55.735446
1737295,Klintingvej,6854,199B,8.267232,55.735285
1737296,Klintingvej,6854,202,8.265871,55.735858
1737297,Klintingvej,6854,203,8.267451,55.734979
1737298,Klintingvej,6854,204,8.26665,55.735859
1737299,Klintingvej,6854,206,8.266426,55.735583
1737300,Klintingvej,6854,207,8.267501,55.734698
1737301,Klintingvej,6854,210,8.266955,55.735152
1737302,Klintingvej,6854,211,8.267656,55.73452
1737303,Klintingvej,6854,214,8.267005,55.73498
1737304,Klintingvej,6854,215,8.267729,55.734358
1737305,Klintingvej,6854,216,8.267153,55.734591
1737306,Klintingvej,6854,218,8.267465,55.733979
1737307,Klintingvej,6854,219,8.267856,55.734069
1737308,Klintingvej,6854,221,8.268401,55.733589
1737309,Klintingvej,6854,222,8.267706,55.73326
1737310,Klintingvej,6854,224,8.26739,55.733269
1737311,Klintingvej,6854,226,8.267558,55.732526
1737312,Klintingvej,6854,229,8.274977,55.731486
1737313,Klintingvej,6854,233,8.271114,55.732659
1737314,Klintingvej,6854,237,8.268112,55.732604
1737315,Klintingvej,6854,240,8.266646,55.726587
1737316,Klintingvej,6854,249,8.267654,55.729165
1737317,Klintingvej,6854,251,8.267981,55.728641
1737318,Klintingvej,6854,253,8.269277,55.729004
1743784,Gøgevej,6854,1,8.183281,55.738881
1743787,Gøgevej,6854,2A,8.184377,55.739898
1743789,Gøgevej,6854,2B,8.185048,55.739811
1743791,Gøgevej,6854,3,8.183327,55.739195
1743792,Gøgevej,6854,4,8.185188,55.74081
1743794,Gøgevej,6854,6,8.184985,55.741142
1743796,Gøgevej,6854,7,8.184095,55.7408
1743798,Gøgevej,6854,8,8.185335,55.741566
1743800,Gøgevej,6854,9,8.184363,55.740946
1743802,Gøgevej,6854,10,8.185816,55.741779
1743803,Gøgevej,6854,11,8.184277,55.741141
1743806,Gøgevej,6854,12,8.185828,55.742087
1743808,Gøgevej,6854,13,8.184629,55.741719
1743809,Gøgevej,6854,14,8.185848,55.74237
1743812,Gøgevej,6854,15,8.184895,55.741968
1743814,Gøgevej,6854,16,8.185933,55.742661
1743816,Gøgevej,6854,17,8.185302,55.742784
1743819,Gøgevej,6854,18,8.186231,55.743088
1743820,Gøgevej,6854,19,8.185167,55.743081
1743823,Gøgevej,6854,20,8.186464,55.743416
1743825,Gøgevej,6854,21,8.185305,55.743277
1743826,Gøgevej,6854,22,8.186718,55.743762
1743829,Gøgevej,6854,23A,8.184738,55.743379
1743832,Gøgevej,6854,23B,8.184531,55.74365
1743833,Gøgevej,6854,24,8.186753,55.744062
1743835,Gøgevej,6854,25,8.185631,55.743572
1743836,Gøgevej,6854,26,8.187216,55.744431
1743838,Gøgevej,6854,27,8.186057,55.74411
1743839,Gøgevej,6854,28,8.18753,55.744645
1743840,Gøgevej,6854,29,8.186466,55.744442
1743841,Gøgevej,6854,30,8.187759,55.744915
1743842,Gøgevej,6854,31,8.187022,55.745183
1743843,Gøgevej,6854,32,8.188081,55.745183
1743844,Gøgevej,6854,33,8.187375,55.745463
1743845,Gøgevej,6854,34,8.188205,55.745506
1743846,Gøgevej,6854,35,8.187531,55.745809
1743847,Gøgevej,6854,36,8.18848,55.746441
1743848,Gøgevej,6854,37,8.186831,55.745806
1743849,Gøgevej,6854,38,8.188583,55.747076
1743850,Gøgevej,6854,39,8.18695,55.746066
1743851,Gøgevej,6854,40,8.188585,55.74742
1743852,Gøgevej,6854,41,8.187339,55.746392
1743853,Gøgevej,6854,42,8.188485,55.7477
1743854,Gøgevej,6854,43,8.187715,55.746586
1743855,Gøgevej,6854,44,8.188374,55.748051
1743856,Gøgevej,6854,45,8.187644,55.747048
1743857,Gøgevej,6854,46,8.188847,55.748275
1743858,Gøgevej,6854,47,8.187687,55.747391
1743859,Gøgevej,6854,48,8.18873,55.748629
1743860,Gøgevej,6854,52,8.188535,55.749182
1743861,Gøgevej,6854,53,8.187749,55.749223
1743862,Gøgevej,6854,54,8.189086,55.749285
1743863,Gøgevej,6854,55,8.187862,55.749624
1743864,Gøgevej,6854,56,8.188903,55.749579
1743865,Gøgevej,6854,57,8.187782,55.749974
1743866,Gøgevej,6854,58,8.188959,55.750075
1743867,Gøgevej,6854,59,8.187735,55.750296
1743868,Gøgevej,6854,60,8.18913,55.75038
1743869,Gøgevej,6854,61,8.187701,55.750535
1743870,Gøgevej,6854,62,8.189273,55.750669
1745975,Gejlbjergvej,6854,4,8.194422,55.733304
1745976,Gejlbjergvej,6854,6,8.193978,55.733203
1745977,Gejlbjergvej,6854,11,8.19245,55.729508
1745978,Gejlbjergvej,6854,13,8.191381,55.730156
1745979,Gejlbjergvej,6854,15,8.190913,55.730215
1745980,Gejlbjergvej,6854,16,8.1933,55.73178
1745981,Gejlbjergvej,6854,17,8.190558,55.729751
1745982,Gejlbjergvej,6854,19,8.191016,55.729726
1745983,Gejlbjergvej,6854,20,8.192622,55.730584
1745984,Gejlbjergvej,6854,21,8.191186,55.72926
1745985,Gejlbjergvej,6854,22,8.191695,55.730609
1745986,Gejlbjergvej,6854,23,8.190741,55.729426
1745987,Gejlbjergvej,6854,25,8.190325,55.729454
1745988,Gejlbjergvej,6854,26,8.187841,55.727603
1745989,Gejlbjergvej,6854,27,8.190012,55.729027
1745990,Gejlbjergvej,6854,28,8.188054,55.72789
1745991,Gejlbjergvej,6854,29,8.190558,55.729048
1745992,Gejlbjergvej,6854,30,8.187837,55.728082
1745993,Gejlbjergvej,6854,31,8.190087,55.728273
1745994,Gejlbjergvej,6854,32,8.187481,55.728313
1745995,Gejlbjergvej,6854,33,8.190156,55.728596
1745996,Gejlbjergvej,6854,34,8.187013,55.728514
1745997,Gejlbjergvej,6854,35,8.189659,55.72863
1745998,Gejlbjergvej,6854,36,8.186996,55.728248
1745999,Gejlbjergvej,6854,37,8.189098,55.728299
1746000,Gejlbjergvej,6854,38,8.187101,55.727956
1746001,Gejlbjergvej,6854,39,8.188992,55.727914
1746002,Gejlbjergvej,6854,40,8.187339,55.727673
1746003,Gejlbjergvej,6854,52,8.183403,55.727764
1746004,Gejlbjergvej,6854,54,8.183354,55.728107
1746005,Gejlbjergvej,6854,56,8.183265,55.728433
1746006,Gejlbjergvej,6854,58,8.182654,55.728374
1746007,Gejlbjergvej,6854,60,8.182691,55.728043
1746009,Gejlbjergvej,6854,62,8.182896,55.727742
1746011,Gejlbjergvej,6854,64,8.182385,55.727776
1746013,Gejlbjergvej,6854,66,8.182276,55.727977
1746016,Gejlbjergvej,6854,68,8.182077,55.728287
1746017,Gejlbjergvej,6854,70,8.18135,55.728204
1746020,Gejlbjergvej,6854,72,8.181442,55.727782
1746022,Gejlbjergvej,6854,74,8.181756,55.727597
1746024,Gejlbjergvej,6854,76,8.181169,55.727582
1746026,Gejlbjergvej,6854,80,8.179168,55.726963
1746028,Gejlbjergvej,6854,98,8.176962,55.725017
1746031,Gejlbjergvej,6854,100,8.176457,55.724642
1746033,Gejlbjergvej,6854,101,8.176781,55.724067
1746035,Gejlbjergvej,6854,102,8.175921,55.724172
1746037,Gejlbjergvej,6854,104,8.174916,55.723719
1746040,Gejlbjergvej,6854,105,8.177402,55.723371
1746042,Gejlbjergvej,6854,107,8.176898,55.723312
1746044,Gejlbjergvej,6854,108,8.174566,55.723368
1746046,Gejlbjergvej,6854,111,8.175859,55.72364
1746049,Gejlbjergvej,6854,114,8.173106,55.722595
1746050,Gejlbjergvej,6854,120,8.170916,55.721711
1746051,Gejlbjergvej,6854,124,8.170281,55.721557
1746054,Gejlbjergvej,6854,126,8.170193,55.721325
1746667,Gyvelvej,6854,1,8.182069,55.738302
1746668,Gyvelvej,6854,2,8.181561,55.73854
1746669,Gyvelvej,6854,2A,8.181747,55.738599
1746670,Gyvelvej,6854,2B,8.181696,55.738561
1746671,Gyvelvej,6854,2C,8.181644,55.738522
1746672,Gyvelvej,6854,2D,8.181745,55.738635
1746674,Gyvelvej,6854,2E,8.181565,55.738675
1746675,Gyvelvej,6854,2F,8.181472,55.738715
1746677,Gyvelvej,6854,2G,8.181379,55.738756
1746679,Gyvelvej,6854,3,8.181776,55.738088
1746681,Gyvelvej,6854,4,8.18,55.739086
1746682,Gyvelvej,6854,5A,8.181858,55.737821
1746686,Gyvelvej,6854,5B,8.181388,55.737514
1746687,Gyvelvej,6854,6,8.179299,55.739262
1746692,Gyvelvej,6854,7,8.180891,55.737629
1746694,Gyvelvej,6854,8,8.179151,55.739339
1746697,Gyvelvej,6854,9,8.180604,55.737842
1746700,Gyvelvej,6854,11,8.181183,55.738292
1746704,Gyvelvej,6854,13,8.180709,55.738241
1746707,Gyvelvej,6854,14,8.177068,55.739908
1746710,Gyvelvej,6854,15,8.179973,55.737887
1746711,Gyvelvej,6854,16,8.17719,55.740067
1746712,Gyvelvej,6854,17,8.180229,55.738277
1746717,Gyvelvej,6854,18,8.176853,55.739983
1746718,Gyvelvej,6854,19,8.180665,55.738643
1746722,Gyvelvej,6854,20,8.176613,55.740045
1746724,Gyvelvej,6854,21A,8.180279,55.738817
1746727,Gyvelvej,6854,21B,8.179944,55.738422
1746730,Gyvelvej,6854,22,8.176277,55.739999
1746732,Gyvelvej,6854,23,8.179504,55.738113
1746735,Gyvelvej,6854,24,8.176065,55.740009
1746738,Gyvelvej,6854,25,8.179464,55.738395
1746741,Gyvelvej,6854,26,8.175769,55.740072
1746743,Gyvelvej,6854,27,8.179743,55.738627
1746747,Gyvelvej,6854,28,8.175571,55.739995
1746748,Gyvelvej,6854,30,8.175294,55.74014
1746753,Gyvelvej,6854,31,8.178827,55.739117
1746755,Gyvelvej,6854,34,8.174674,55.740405
1746758,Gyvelvej,6854,35,8.178397,55.738918
1746760,Gyvelvej,6854,36A,8.174012,55.740627
1746763,Gyvelvej,6854,36B,8.173436,55.740777
1746765,Gyvelvej,6854,37,8.178453,55.739201
1746769,Gyvelvej,6854,38,8.17445,55.739797
1746771,Gyvelvej,6854,39,8.178069,55.73901
1746773,Gyvelvej,6854,41,8.177666,55.739089
1746777,Gyvelvej,6854,43,8.177494,55.739229
1746779,Gyvelvej,6854,45,8.17731,55.739479
1746782,Gyvelvej,6854,47,8.17658,55.739202
1746785,Gyvelvej,6854,49A,8.175983,55.739107
1746788,Gyvelvej,6854,49B,8.176128,55.739348
1746791,Gyvelvej,6854,51A,8.175543,55.739257
1746795,Gyvelvej,6854,51B,8.175816,55.739611
1746797,Gyvelvej,6854,53,8.175708,55.739814
1746800,Gyvelvej,6854,55,8.175298,55.739456
1746801,Gyvelvej,6854,57,8.175146,55.739812
1746803,Gyvelvej,6854,59,8.17478,55.739387
1746805,Gyvelvej,6854,61,8.174535,55.739614
1746808,Gyvelvej,6854,63,8.174055,55.739229
1746810,Gyvelvej,6854,65,8.173441,55.739119
1746811,Gyvelvej,6854,67,8.172928,55.739297
1746814,Gyvelvej,6854,69,8.173406,55.739385
1747160,Mågevej,6854,1,8.1874255,55.7477543
1747161,Mågevej,6854,2,8.187516,55.748071
1747162,Mågevej,6854,3,8.1867966,55.7476972
1747164,Mågevej,6854,4,8.18629,55.747855
1747166,Mågevej,6854,5,8.1859285,55.7472467
1747169,Mågevej,6854,6,8.185706,55.747626
1747171,Mågevej,6854,7,8.1858201,55.7469533
1747173,Mågevej,6854,8,8.18526,55.74752
1747175,Mågevej,6854,9,8.184515,55.746178
1747177,Mågevej,6854,10,8.1845976,55.7467109
1747179,Mågevej,6854,11,8.1842379,55.7458793
1747180,Mågevej,6854,12,8.183998,55.746428
1747182,Mågevej,6854,13,8.1838171,55.7457524
1747183,Mågevej,6854,14,8.183554,55.746096
1747184,Mågevej,6854,15,8.1839884,55.7455262
1747185,Mågevej,6854,16,8.182961,55.745875
1747186,Mågevej,6854,17,8.183439,55.745354
1747187,Mågevej,6854,18,8.182723,55.745546
1747188,Mågevej,6854,19,8.183004,55.745159
1747189,Mågevej,6854,20,8.1822811,55.7453649
1747407,Lyngbovej,6854,1,8.1847501,55.7405021
1747408,Lyngbovej,6854,2,8.1845151,55.7400998
1747410,Lyngbovej,6854,4,8.1849854,55.7401838
1747412,Lyngbovej,6854,5,8.186032,55.7404056
1747414,Lyngbovej,6854,6,8.185314,55.740132
1747416,Lyngbovej,6854,7,8.186629,55.740426
1747418,Lyngbovej,6854,8,8.1857865,55.7400296
1747419,Lyngbovej,6854,12,8.186139,55.739791
1747422,Lyngbovej,6854,14,8.1863302,55.7401127
1747423,Lyngbovej,6854,16,8.186654,55.739822
1747425,Lyngbovej,6854,18,8.18705,55.739698
1747427,Lyngbovej,6854,20,8.187166,55.739332
1747428,Lyngbovej,6854,22,8.187866,55.73929
1747430,Lyngbovej,6854,24,8.187781,55.739602
1747432,Lyngbovej,6854,26,8.187524,55.739961
1747434,Lyngbovej,6854,28,8.188515,55.739273
1747436,Lyngbovej,6854,30,8.1883904,55.7398363
1747438,Lyngbovej,6854,32,8.1888418,55.7395384
1747439,Lyngbovej,6854,34,8.189468,55.739195
1747441,Lyngbovej,6854,36,8.190062,55.739185
1747958,Kløvervej,6854,1,8.185107,55.727903
1747963,Kløvervej,6854,2,8.186573,55.727758
1747966,Kløvervej,6854,3,8.184699,55.727934
1747973,Kløvervej,6854,4,8.186349,55.728019
1747975,Kløvervej,6854,5,8.184156,55.727846
1747978,Kløvervej,6854,6,8.18597,55.728274
1747984,Kløvervej,6854,7,8.183986,55.728069
1747986,Kløvervej,6854,8,8.186069,55.728656
1747992,Kløvervej,6854,9,8.184007,55.728299
1747996,Kløvervej,6854,10,8.185596,55.728822
1747999,Kløvervej,6854,11,8.184354,55.72852
1748002,Kløvervej,6854,13,8.184754,55.728209
1748007,Kløvervej,6854,14,8.184989,55.728991
1748009,Kløvervej,6854,15,8.185241,55.728422
1748013,Kløvervej,6854,16,8.184297,55.72917
1748017,Hennevej,6854,51,8.318649,55.713175
1748018,Kløvervej,6854,17,8.184882,55.72868
1748020,Kløvervej,6854,18,8.183138,55.729452
1748021,Hennevej,6854,61,8.309719,55.711311
1748023,Kløvervej,6854,19,8.184263,55.728876
1748027,Kløvervej,6854,20,8.183699,55.729207
1748030,Kløvervej,6854,21,8.183827,55.728784
1748249,Følfodvej,6854,1,8.180054,55.728543
1748251,Følfodvej,6854,2,8.180389,55.728902
1748256,Følfodvej,6854,3,8.179383,55.7284
1748257,Følfodvej,6854,4,8.179808,55.728886
1748260,Følfodvej,6854,5,8.177481,55.727959
1748263,Følfodvej,6854,6,8.179484,55.728691
1748268,Følfodvej,6854,7,8.177167,55.727838
1748269,Følfodvej,6854,8,8.179103,55.728692
1748272,Følfodvej,6854,9,8.176529,55.727744
1748275,Følfodvej,6854,10,8.178703,55.72867
1748277,Følfodvej,6854,11,8.176622,55.727539
1748280,Følfodvej,6854,12,8.178176,55.728701
1748282,Følfodvej,6854,13,8.176718,55.727267
1748285,Følfodvej,6854,14,8.177662,55.728508
1748286,Følfodvej,6854,16,8.177218,55.728673
1748289,Følfodvej,6854,18,8.176863,55.728555
1748291,Følfodvej,6854,20,8.176403,55.728496
1748295,Følfodvej,6854,22,8.1758168,55.7284268
1748297,Følfodvej,6854,24,8.175945,55.727859
1748300,Følfodvej,6854,26,8.176078,55.727517
1748378,Elmevej,6854,3,8.30351,55.710879
1748379,Elmevej,6854,5,8.303803,55.711022
1748380,Elmevej,6854,6,8.304228,55.710903
1748381,Elmevej,6854,7,8.30411,55.711156
1748382,Elmevej,6854,8,8.304504,55.711034
1748383,Elmevej,6854,10,8.304809,55.711192
1748384,Elmevej,6854,12,8.305088,55.711263
1748385,Elmevej,6854,16,8.305836,55.71165
1748386,Elmevej,6854,19,8.304504,55.711359
1748387,Elmevej,6854,20,8.306127,55.711615
1748388,Elmevej,6854,21,8.304783,55.711495
1748389,Elmevej,6854,23,8.305,55.711636
1748391,Elmevej,6854,25,8.305267,55.711801
1748392,Elmevej,6854,27,8.305617,55.711894
1748395,Elmevej,6854,29,8.305091,55.712234
1748396,Elmevej,6854,31,8.305438,55.712345
1748399,Elmevej,6854,33,8.305978,55.712051
1748401,Elmevej,6854,35,8.305787,55.712528
1748403,Elmevej,6854,37,8.30629,55.712188
1749490,Drosselvej,6854,1,8.185918,55.741316
1749493,Drosselvej,6854,2,8.185632,55.74075
1749495,Drosselvej,6854,3,8.186325,55.741587
1749498,Drosselvej,6854,4,8.18632,55.740847
1749501,Drosselvej,6854,5,8.186295,55.741944
1749502,Drosselvej,6854,6,8.186844,55.740811
1749505,Drosselvej,6854,7,8.186617,55.742571
1749508,Drosselvej,6854,8A,8.18636,55.741074
1749510,Drosselvej,6854,8B,8.186816,55.741244
1749512,Drosselvej,6854,8C,8.187034,55.741539
1749515,Drosselvej,6854,9,8.186879,55.742821
1749516,Drosselvej,6854,10,8.187142,55.741861
1749517,Drosselvej,6854,11,8.187082,55.74303
1749518,Drosselvej,6854,12,8.187299,55.742244
1749519,Drosselvej,6854,13,8.187058,55.743533
1749520,Drosselvej,6854,14,8.187398,55.742609
1749521,Drosselvej,6854,16,8.187584,55.743703
1749522,Drosselvej,6854,18,8.187714,55.744037
1749783,Arvevej,6854,1,8.186687,55.729946
1749786,Arvevej,6854,3,8.186522,55.729705
1749788,Arvevej,6854,4,8.185632,55.729663
1749791,Arvevej,6854,5,8.18611,55.729534
1749792,Arvevej,6854,6,8.185159,55.72977
1749795,Arvevej,6854,8,8.184669,55.729924
1749797,Arvevej,6854,9,8.186453,55.729246
1749799,Arvevej,6854,10,8.184357,55.73017
1749801,Arvevej,6854,11,8.186646,55.728973
1749803,Arvevej,6854,12,8.184005,55.7303
1749804,Arvevej,6854,13,8.186001,55.729086
1749805,Arvevej,6854,14,8.183658,55.730455
1749806,Arvevej,6854,15,8.185433,55.729247
1749807,Arvevej,6854,16,8.183182,55.730418
1749809,Arvevej,6854,17,8.184918,55.729439
1749810,Arvevej,6854,19,8.184231,55.729683
1749812,Arvevej,6854,23,8.183801,55.729777
1749815,Arvevej,6854,25,8.183454,55.729849
1749817,Arvevej,6854,27,8.18305,55.730122
1751674,Storkenæbvej,6854,1,8.181202,55.731271
1751675,Storkenæbvej,6854,2,8.18002,55.731154
1751676,Storkenæbvej,6854,3,8.180822,55.731046
1751677,Storkenæbvej,6854,4,8.180243,55.730792
1751678,Storkenæbvej,6854,5,8.180934,55.730787
1751679,Storkenæbvej,6854,6,8.180315,55.73041
1751681,Storkenæbvej,6854,7,8.181019,55.730574
1751683,Storkenæbvej,6854,8,8.180355,55.730024
1751686,Storkenæbvej,6854,9,8.181063,55.730243
1751688,Storkenæbvej,6854,10,8.1802,55.729712
1751689,Storkenæbvej,6854,11,8.181448,55.730116
1751691,Storkenæbvej,6854,12,8.180504,55.729449
1751694,Storkenæbvej,6854,13,8.181775,55.729976
1751695,Storkenæbvej,6854,15,8.182345,55.729904
1751697,Storkenæbvej,6854,17,8.182392,55.729666
1751698,Storkenæbvej,6854,19,8.182136,55.72951
1751699,Storkenæbvej,6854,21,8.18167,55.729524
1752299,Ligustervej,6854,1,8.1880802,55.7298143
1752300,Ligustervej,6854,2,8.18743,55.729925
1752301,Ligustervej,6854,3,8.188552,55.729547
1752302,Ligustervej,6854,4,8.1873075,55.7297348
1752303,Ligustervej,6854,5,8.188195,55.729323
1752304,Ligustervej,6854,6,8.187055,55.729516
1752305,Ligustervej,6854,7,8.188916,55.729287
1752306,Ligustervej,6854,8,8.1874996,55.7294107
1752307,Ligustervej,6854,9,8.188467,55.729056
1752308,Ligustervej,6854,10,8.187506,55.729137
1752309,Ligustervej,6854,11,8.189245,55.729138
1752310,Ligustervej,6854,12,8.187296,55.72896
1752311,Ligustervej,6854,13,8.189004,55.728844
1752312,Ligustervej,6854,14,8.187396,55.728716
1752313,Ligustervej,6854,16,8.18784,55.728693
1752314,Ligustervej,6854,18,8.188184,55.7284666
1752315,Ligustervej,6854,20,8.1887139,55.7285641
1753038,Søndersøvej,6854,10,8.2926203,55.7008499
1753040,Søndersøvej,6854,11,8.293574,55.699704
1753041,Søndersøvej,6854,20,8.2901382,55.7010613
1753044,Søndersøvej,6854,21,8.2929621,55.7000262
1753046,Søndersøvej,6854,30,8.283483,55.698282
1753048,Søndersøvej,6854,40,8.2824616,55.69044
1753050,Søndersøvej,6854,50,8.2818351,55.6877436
1753052,Søndersøvej,6854,60,8.2856726,55.6861338
1753054,Søndersøvej,6854,70,8.2871508,55.6856082
1753056,Søndersøvej,6854,71,8.2889208,55.6857276
1753059,Søndersøvej,6854,80,8.2902802,55.6838264
1753061,Søndersøvej,6854,81,8.290728,55.685617
1753065,Søndersøvej,6854,91,8.2919068,55.6856157
1753068,Søndersøvej,6854,100,8.3024381,55.6841199
1753072,Søndersøvej,6854,101,8.2982386,55.684812
1753076,Søndersøvej,6854,111,8.30722,55.684604
1753137,Sneppevej,6854,1,8.1812078,55.7397097
1753138,Sneppevej,6854,2A,8.181093,55.739323
1753139,Sneppevej,6854,2B,8.182186,55.739273
1753140,Sneppevej,6854,3,8.1813818,55.7398893
1753141,Sneppevej,6854,4,8.1817833,55.7394699
1753142,Sneppevej,6854,5,8.18184,55.74004
1753143,Sneppevej,6854,6,8.1820003,55.7396776
1753144,Sneppevej,6854,7A,8.18281,55.74032
1753145,Sneppevej,6854,7B,8.1830232,55.7406134
1753146,Sneppevej,6854,7C,8.183376,55.740437
1753147,Sneppevej,6854,8,8.1821363,55.7398653
1753148,Sneppevej,6854,9,8.183698,55.740518
1753149,Sneppevej,6854,10,8.1826453,55.7400462
1753150,Sneppevej,6854,12,8.1829857,55.7401577
1753151,Sneppevej,6854,14,8.183474,55.740215
1753244,Over Fiddevej,6854,11,8.296972,55.723513
1753245,Over Fiddevej,6854,12,8.294744,55.71964
1753246,Over Fiddevej,6854,13,8.299495,55.720835
1753247,Over Fiddevej,6854,13A,8.2994976,55.7206719
1753248,Over Fiddevej,6854,13B,8.29934,55.720689
1753249,Over Fiddevej,6854,13C,8.2993344,55.7207525
1753250,Over Fiddevej,6854,13D,8.2993511,55.720816
1753251,Over Fiddevej,6854,13E,8.2993733,55.7208641
1753252,Over Fiddevej,6854,13F,8.2995002,55.720853
1753253,Over Fiddevej,6854,13G,8.299627,55.7208418
1753255,Over Fiddevej,6854,22,8.3009863,55.719074
1753257,Over Fiddevej,6854,23,8.3016348,55.7203989
1753259,Over Fiddevej,6854,31,8.307789,55.720576
1753260,Over Fiddevej,6854,32,8.2995835,55.7184169
1753262,Over Fiddevej,6854,33,8.305221,55.718859
1753263,Over Fiddevej,6854,43,8.307068,55.716179
1753276,Rådyrstien,6854,1,8.218311,55.738699
1753277,Rådyrstien,6854,2,8.218913,55.739028
1753278,Rådyrstien,6854,4,8.218351,55.739048
1753279,Rådyrstien,6854,5,8.217653,55.738482
1753280,Rådyrstien,6854,6,8.217933,55.738971
1753281,Rådyrstien,6854,7,8.2168022,55.7385334
1753282,Rådyrstien,6854,8,8.217201,55.738929
1753283,Rådyrstien,6854,9,8.2163231,55.7385264
1753284,Rådyrstien,6854,10,8.216621,55.738947
1753285,Rådyrstien,6854,12,8.2161094,55.7388368
1753286,Rådyrstien,6854,14,8.215487,55.738789
1753287,Rådyrstien,6854,15,8.2136862,55.738127
1753288,Rådyrstien,6854,16,8.21482,55.738797
1753289,Rådyrstien,6854,17,8.2130549,55.738247
1753290,Rådyrstien,6854,18,8.214165,55.738759
1753291,Rådyrstien,6854,20,8.2137474,55.7387101
1754981,Granvej,6854,1,8.189349,55.733422
1754984,Granvej,6854,2,8.190039,55.733164
1754985,Granvej,6854,3,8.189334,55.733712
1754987,Granvej,6854,4,8.190555,55.733115
1754990,Granvej,6854,5,8.189785,55.733729
1754991,Granvej,6854,6,8.191497,55.732953
1754993,Granvej,6854,7,8.19011,55.733705
1754995,Granvej,6854,8,8.191948,55.732847
1754996,Granvej,6854,9,8.191123,55.733344
1754998,Granvej,6854,10,8.192684,55.732781
1755001,Granvej,6854,11,8.191605,55.733281
1755002,Granvej,6854,12,8.193247,55.732865
1755004,Granvej,6854,13,8.192215,55.733253
1755005,Granvej,6854,15,8.192976,55.733252
1755008,Granvej,6854,17,8.193484,55.733236
1755867,Hyttestien,6854,1,8.211481,55.735366
1755868,Hyttestien,6854,2,8.212311,55.735251
1755870,Hyttestien,6854,3,8.211575,55.735584
1755873,Hyttestien,6854,4,8.212212,55.735526
1755875,Hyttestien,6854,5,8.211864,55.735798
1755876,Hyttestien,6854,6,8.212497,55.735737
1755878,Hyttestien,6854,7,8.211984,55.736
1755880,Hyttestien,6854,8,8.212833,55.735905
1755881,Hyttestien,6854,9,8.211402,55.736322
1755884,Hyttestien,6854,10,8.212908,55.736155
1755885,Hyttestien,6854,11,8.212386,55.736227
1755887,Hyttestien,6854,12,8.213218,55.736331
1755888,Hyttestien,6854,13,8.212225,55.736455
1755891,Hyttestien,6854,15,8.211574,55.736505
1755981,Hyldebærvej,6854,1,8.186474,55.732675
1755982,Hyldebærvej,6854,2,8.185776,55.732529
1755983,Hyldebærvej,6854,3,8.186638,55.732377
1755984,Hyldebærvej,6854,4,8.186198,55.73231
1755985,Hyldebærvej,6854,5,8.186994,55.732167
1755986,Hyldebærvej,6854,6,8.186443,55.732005
1755987,Hyldebærvej,6854,7,8.187278,55.731942
1755988,Hyldebærvej,6854,8,8.186959,55.731726
1755989,Hyldebærvej,6854,9,8.187798,55.731741
1755993,Hyldebærvej,6854,10,8.187079,55.731457
1755995,Hyldebærvej,6854,11,8.188404,55.731497
1755996,Hyldebærvej,6854,12,8.187593,55.731354
1755998,Hyldebærvej,6854,14,8.188095,55.731258
1755999,Hyldebærvej,6854,16,8.188603,55.731113
1756788,Slåenvej,6854,4,8.176458,55.738469
1756789,Slåenvej,6854,5,8.175735,55.738294
1756792,Slåenvej,6854,6,8.177093,55.73851
1756794,Slåenvej,6854,7,8.175281,55.738338
1756795,Slåenvej,6854,8,8.176604,55.738705
1756799,Slåenvej,6854,10,8.176121,55.73868
1756801,Slåenvej,6854,12,8.175899,55.738553
1756802,Slåenvej,6854,14,8.175488,55.738641
1756805,Slåenvej,6854,18,8.17456,55.738952
1756807,Slåenvej,6854,20,8.174766,55.73878
1756808,Slåenvej,6854,22,8.174407,55.738798
1756809,Slåenvej,6854,24,8.173717,55.738796
1756810,Slåenvej,6854,26,8.173277,55.738883
1757074,Ranunkelvej,6854,1,8.182213,55.734345
1757075,Ranunkelvej,6854,2,8.182463,55.734009
1757076,Ranunkelvej,6854,3,8.182255,55.734655
1757077,Ranunkelvej,6854,4,8.183139,55.733948
1757078,Ranunkelvej,6854,5,8.182851,55.734608
1757079,Ranunkelvej,6854,6,8.183624,55.734191
1757080,Ranunkelvej,6854,7,8.182939,55.734303
1757081,Ranunkelvej,6854,8,8.18369,55.733842
1757082,Ranunkelvej,6854,9,8.183296,55.734888
1757083,Ranunkelvej,6854,10,8.184329,55.734021
1757084,Ranunkelvej,6854,11,8.184054,55.734639
1757085,Ranunkelvej,6854,12,8.185023,55.734042
1757086,Ranunkelvej,6854,13,8.184337,55.734299
1757637,Kirkebyvej,6854,4,8.247457,55.726767
1757638,Kirkebyvej,6854,8,8.246581,55.726924
1757639,Kirkebyvej,6854,11,8.245043,55.726922
1757640,Kirkebyvej,6854,12,8.244821,55.727214
1757641,Kirkebyvej,6854,13,8.244611,55.726889
1757643,Kirkebyvej,6854,20,8.245193,55.728065
1757644,Kirkebyvej,6854,24,8.245245,55.729131
1757646,Kirkebyvej,6854,26,8.245415,55.729468
1757648,Kirkebyvej,6854,40,8.248821,55.731038
1757650,Kirkebyvej,6854,50,8.244339,55.727284
1757653,Kirkebyvej,6854,54A,8.243514,55.727205
1758330,Ternevej,6854,2,8.1848427,55.7470268
1758334,Ternevej,6854,3,8.183284,55.747122
1758336,Ternevej,6854,4,8.184543,55.747348
1758341,Ternevej,6854,5,8.1829272,55.7474116
1758342,Ternevej,6854,6A,8.184106,55.747463
1758343,Ternevej,6854,6B,8.184087,55.747664
1758344,Ternevej,6854,7,8.182459,55.747252
1758347,Ternevej,6854,8,8.183532,55.7478
1758349,Ternevej,6854,9,8.182064,55.7475304
1758351,Ternevej,6854,10,8.182876,55.748075
1758353,Ternevej,6854,11,8.182427,55.747711
1758544,Strandgodsvej,6854,2,8.216751,55.733512
1758546,Strandgodsvej,6854,4,8.217174,55.733592
1758549,Strandgodsvej,6854,6,8.217798,55.7335551
1758551,Strandgodsvej,6854,7,8.215795,55.733171
1758552,Strandgodsvej,6854,8,8.2184327,55.7335751
1758555,Strandgodsvej,6854,10,8.2184424,55.7339669
1758558,Strandgodsvej,6854,11,8.216495,55.734164
1758560,Strandgodsvej,6854,12,8.21787,55.734021
1758563,Strandgodsvej,6854,13,8.2166709,55.7345517
1758564,Strandgodsvej,6854,14,8.2173999,55.7340497
1758567,Strandgodsvej,6854,16,8.216976,55.73391
1758569,Strandgodsvej,6854,18,8.2173327,55.734454
1758640,Strandfogedvej,6854,6,8.2054452,55.7340446
1758643,Strandfogedvej,6854,9A,8.2035014,55.7338779
1758648,Strandfogedvej,6854,9B,8.203942,55.734031
1758649,Strandfogedvej,6854,11A,8.204416,55.7342681
1758651,Strandfogedvej,6854,11B,8.204835,55.734372
1758652,Strandfogedvej,6854,11C,8.2044116,55.7346709
1758653,Strandfogedvej,6854,13A,8.2051503,55.7346726
1758654,Strandfogedvej,6854,13B,8.2055679,55.734549
1758655,Strandfogedvej,6854,15,8.2076649,55.7361017
1758656,Strandfogedvej,6854,25,8.212441,55.737718
1758657,Strandfogedvej,6854,27,8.2114732,55.7369596
1758658,Strandfogedvej,6854,29,8.2121725,55.7368662
1758659,Strandfogedvej,6854,38,8.216651,55.73624
1758660,Strandfogedvej,6854,41,8.2163762,55.7364543
1758661,Strandfogedvej,6854,51,8.221434,55.736746
1759352,Hjejlevej,6854,1,8.182457,55.745803
1759353,Hjejlevej,6854,2,8.183235,55.74621
1759356,Hjejlevej,6854,3,8.182136,55.745967
1759357,Hjejlevej,6854,4,8.182886,55.746294
1759359,Hjejlevej,6854,5,8.181637,55.745927
1759361,Hjejlevej,6854,6,8.182016,55.746512
1759364,Hjejlevej,6854,7,8.181418,55.746078
1759366,Hjejlevej,6854,8,8.181439,55.74637
1759370,Hjejlevej,6854,9,8.181071,55.746184
1759372,Hjejlevej,6854,10,8.180819,55.746547
1759376,Hjejlevej,6854,11,8.18025,55.746165
1759378,Hjejlevej,6854,12,8.181265,55.746814
1759397,Gyldenrisvej,6854,1,8.177069,55.737606
1759400,Gyldenrisvej,6854,3,8.176407,55.737664
1759401,Gyldenrisvej,6854,4,8.176866,55.737901
1759403,Gyldenrisvej,6854,6,8.176081,55.737988
1759405,Gyldenrisvej,6854,7,8.175862,55.737753
1759407,Gyldenrisvej,6854,8,8.175581,55.738059
1759409,Gyldenrisvej,6854,9,8.175288,55.737626
1759411,Gyldenrisvej,6854,10,8.174994,55.738113
1759413,Gyldenrisvej,6854,11,8.174253,55.737747
1759415,Gyldenrisvej,6854,12,8.174199,55.738161
1759417,Gyldenrisvej,6854,14,8.174252,55.738336
1759418,Gyldenrisvej,6854,16,8.17364,55.738422
1759464,Gederamsevej,6854,1,8.179947,55.727894
1759466,Gederamsevej,6854,3,8.180143,55.728209
1759468,Gederamsevej,6854,4,8.180729,55.727898
1759470,Gederamsevej,6854,5,8.180324,55.728411
1759471,Gederamsevej,6854,6,8.180822,55.728298
1759473,Gederamsevej,6854,7,8.180904,55.7291
1759474,Gederamsevej,6854,8,8.181919,55.728569
1759476,Gederamsevej,6854,9,8.181895,55.728948
1759477,Gederamsevej,6854,10,8.182803,55.72866
1759479,Gederamsevej,6854,11,8.182405,55.728981
1759481,Gederamsevej,6854,13,8.183097,55.729081
1759482,Gederamsevej,6854,14,8.183386,55.728675
1759800,Agerhønevej,6854,1,8.18585,55.744691
1759801,Agerhønevej,6854,2,8.186558,55.745027
1759802,Agerhønevej,6854,3,8.185565,55.745273
1759803,Agerhønevej,6854,5A,8.184733,55.745438
1759804,Agerhønevej,6854,5B,8.18454,55.745667
1759805,Agerhønevej,6854,6,8.186239,55.745622
1759806,Agerhønevej,6854,7A,8.185367,55.74561
1759807,Agerhønevej,6854,7B,8.185,55.745843
1759808,Agerhønevej,6854,8,8.186275,55.745924
1759809,Agerhønevej,6854,9,8.185494,55.746048
1759810,Agerhønevej,6854,10,8.185991,55.746337
1759811,Agerhønevej,6854,11,8.184976,55.746275
1759814,Agerhønevej,6854,12,8.185461,55.746532
1760577,Multebærvej,6854,1,8.185118,55.732373
1760578,Multebærvej,6854,2,8.18419,55.732416
1760579,Multebærvej,6854,3,8.185304,55.73206
1760580,Multebærvej,6854,4,8.18435,55.7321491
1760581,Multebærvej,6854,5,8.1857901,55.731906
1760582,Multebærvej,6854,6,8.184499,55.731871
1760583,Multebærvej,6854,7,8.186212,55.731693
1760584,Multebærvej,6854,8,8.1850753,55.7317745
1760586,Multebærvej,6854,9,8.186351,55.731405
1760590,Multebærvej,6854,10,8.185732,55.73145
1760592,Multebærvej,6854,12,8.185632,55.731198
1760875,Krovænget,6854,1,8.303589,55.711498
1760876,Krovænget,6854,3,8.303314,55.711382
1760878,Krovænget,6854,5,8.303075,55.71133
1760880,Krovænget,6854,6,8.303742,55.712093
1760882,Krovænget,6854,8,8.303886,55.712314
1760883,Krovænget,6854,9,8.303302,55.711926
1760884,Krovænget,6854,10,8.304271,55.712474
1760885,Krovænget,6854,11,8.302923,55.712225
1760886,Krovænget,6854,13,8.3030963,55.7123132
1760887,Krovænget,6854,28,8.3039272,55.7126687
1760888,Krovænget,6854,30,8.303679,55.712565
1761142,Kærgårdvej,6854,12,8.2058224,55.7004218
1761143,Kærgårdvej,6854,14,8.204057,55.702806
1761144,Kærgårdvej,6854,16,8.205918,55.702399
1761145,Kærgårdvej,6854,18,8.227736,55.696683
1761146,Kærgårdvej,6854,20,8.20537,55.701187
1761541,Frytlevej,6854,1,8.183385,55.737726
1761542,Frytlevej,6854,2,8.183046,55.738089
1761543,Frytlevej,6854,3,8.183014,55.737526
1761544,Frytlevej,6854,4,8.182368,55.737335
1761545,Frytlevej,6854,5,8.183233,55.737228
1761546,Frytlevej,6854,6A,8.182631,55.737231
1761547,Frytlevej,6854,6B,8.182583,55.736867
1761548,Frytlevej,6854,7,8.183508,55.73711
1761549,Frytlevej,6854,8,8.18306,55.736745
1761550,Frytlevej,6854,9,8.183726,55.736816
1761551,Frytlevej,6854,10,8.183239,55.736519
1762355,Thomas Jensens Vej,6854,1,8.2213874,55.7318176
1762357,Thomas Jensens Vej,6854,2,8.2215018,55.7322266
1762359,Thomas Jensens Vej,6854,3,8.220959,55.731777
1762360,Thomas Jensens Vej,6854,4,8.2210136,55.7322437
1762361,Thomas Jensens Vej,6854,5,8.220376,55.731745
1762362,Thomas Jensens Vej,6854,6,8.220554,55.732242
1762363,Thomas Jensens Vej,6854,7,8.2198237,55.7317853
1762364,Thomas Jensens Vej,6854,8,8.2205275,55.7324409
1762365,Thomas Jensens Vej,6854,9,8.219265,55.7318655
1762366,Thomas Jensens Vej,6854,10,8.220832,55.732861
1762367,Thomas Jensens Vej,6854,12,8.220256,55.732903
1762368,Thomas Jensens Vej,6854,14,8.219969,55.732594
1762369,Thomas Jensens Vej,6854,16,8.219865,55.732013
1762370,Thomas Jensens Vej,6854,18,8.2192994,55.7321949
1762849,Klitrosevej,6854,1,8.176684,55.734613
1762850,Klitrosevej,6854,2,8.176702,55.735093
1762851,Klitrosevej,6854,3,8.175815,55.734766
1762852,Klitrosevej,6854,4,8.176378,55.735466
1762853,Klitrosevej,6854,5,8.176009,55.735066
1762854,Klitrosevej,6854,6,8.176499,55.735712
1762855,Klitrosevej,6854,7,8.175878,55.735234
1762856,Klitrosevej,6854,9,8.175738,55.735481
1762857,Klitrosevej,6854,11,8.175816,55.735652
1762858,Klitrosevej,6854,13,8.176182,55.735899
1763228,Hjulsagervej,6854,20,8.274248,55.698386
1763230,Hjulsagervej,6854,21,8.275589,55.697455
1763233,Hjulsagervej,6854,40,8.262214,55.69185
1763234,Hjulsagervej,6854,50,8.266421,55.688666
1763236,Hjulsagervej,6854,60,8.264917,55.686144
1763239,Hjulsagervej,6854,70,8.263791,55.684576
1763240,Hjulsagervej,6854,80,8.262444,55.683277
1763243,Hjulsagervej,6854,90,8.259846,55.683461
1763245,Hjulsagervej,6854,100,8.262661,55.680806
1765241,Bjergfyrvej,6854,1,8.190446,55.732009
1765242,Bjergfyrvej,6854,2,8.19074,55.731677
1765243,Bjergfyrvej,6854,3,8.191063,55.731838
1765244,Bjergfyrvej,6854,4,8.191501,55.731468
1765245,Bjergfyrvej,6854,5,8.191714,55.731777
1765246,Bjergfyrvej,6854,6,8.192128,55.731263
1765247,Bjergfyrvej,6854,7,8.191704,55.732129
1765248,Bjergfyrvej,6854,8,8.192208,55.731489
1765249,Bjergfyrvej,6854,9,8.192263,55.731797
1765289,Bellisvej,6854,1,8.179703,55.727416
1765290,Bellisvej,6854,3,8.179226,55.727253
1765291,Bellisvej,6854,4,8.177455,55.727571
1765292,Bellisvej,6854,5,8.178764,55.727279
1765293,Bellisvej,6854,7,8.178552,55.726965
1765294,Bellisvej,6854,9,8.177948,55.726904
1765295,Bellisvej,6854,11,8.177504,55.726994
1765296,Bellisvej,6854,13,8.177763,55.727304
1765297,Bellisvej,6854,15,8.177224,55.727357
1765355,Ærenprisvej,6854,1,8.178252,55.726199
1765356,Ærenprisvej,6854,2,8.178626,55.726539
1765357,Ærenprisvej,6854,3,8.17747,55.726292
1765358,Ærenprisvej,6854,4,8.1781322,55.7264784
1765359,Ærenprisvej,6854,5,8.176836,55.726323
1765360,Ærenprisvej,6854,6,8.177426,55.726725
1765361,Ærenprisvej,6854,7A,8.17621,55.726383
1765362,Ærenprisvej,6854,7B,8.175266,55.726487
1765363,Ærenprisvej,6854,8,8.1768378,55.7267838
1765364,Ærenprisvej,6854,9,8.175581,55.726828
1765365,Ærenprisvej,6854,11,8.1760907,55.7270188
1765464,Fyrrenålevej,6854,1,8.177303,55.725421
1765465,Fyrrenålevej,6854,2,8.177236,55.725886
1765466,Fyrrenålevej,6854,3,8.176777,55.725525
1765467,Fyrrenålevej,6854,4,8.177715,55.725833
1765468,Fyrrenålevej,6854,5,8.176157,55.725634
1765469,Fyrrenålevej,6854,7,8.1755,55.725622
1765470,Fyrrenålevej,6854,9,8.17523,55.725806
1765471,Fyrrenålevej,6854,14,8.175563,55.726122
1765472,Fyrrenålevej,6854,16,8.176204,55.726025
1765515,Vesterbyvej,6854,5,8.294017,55.705506
1765516,Vesterbyvej,6854,11,8.288138,55.706049
1765517,Vesterbyvej,6854,21,8.2900138,55.7076953
1765518,Vesterbyvej,6854,30,8.2881206,55.7098357
1765519,Vesterbyvej,6854,31,8.287357,55.708426
1765520,Vesterbyvej,6854,50,8.2820053,55.7113292
1765521,Vesterbyvej,6854,51,8.281399,55.708682
1765608,Tujavej,6854,4,8.190398,55.732426
1765609,Tujavej,6854,5,8.193178,55.732562
1765610,Tujavej,6854,6,8.190904,55.732262
1765611,Tujavej,6854,7,8.192872,55.732331
1765612,Tujavej,6854,8,8.191186,55.732488
1765613,Tujavej,6854,9,8.192833,55.732066
1765614,Tujavej,6854,10,8.191631,55.732494
1765615,Tujavej,6854,12,8.1920655,55.732297
1765687,Sortebærvej,6854,1,8.187794,55.733385
1765688,Sortebærvej,6854,2,8.187534,55.733023
1765689,Sortebærvej,6854,3,8.188172,55.733189
1765690,Sortebærvej,6854,4,8.187669,55.732697
1765691,Sortebærvej,6854,5,8.188398,55.732911
1765692,Sortebærvej,6854,6,8.188189,55.732578
1765693,Sortebærvej,6854,7,8.188789,55.732755
1765694,Sortebærvej,6854,8,8.188623,55.732369
1765695,Svalevej,6854,1,8.1848249,55.748258
1765696,Svalevej,6854,2,8.1867547,55.7484926
1765697,Svalevej,6854,3,8.183875,55.748296
1765698,Svalevej,6854,4,8.18608,55.748517
1765699,Svalevej,6854,5,8.183285,55.748568
1765700,Svalevej,6854,6,8.1855527,55.7485063
1765701,Svalevej,6854,8,8.1841594,55.7485985
1765702,Svalevej,6854,10,8.183607,55.748827
1765854,Regnspovevej,6854,1,8.1874398,55.7484691
1765855,Regnspovevej,6854,2,8.187235,55.749519
1765856,Regnspovevej,6854,3,8.1867718,55.7488976
1765857,Regnspovevej,6854,4,8.186963,55.750138
1765858,Regnspovevej,6854,5,8.1864995,55.7497217
1765859,Regnspovevej,6854,6,8.186166,55.7513
1765860,Regnspovevej,6854,7,8.186219,55.750075
1765861,Regnspovevej,6854,9,8.18594,55.750513
1765985,Lunden,6854,1,8.209884,55.735553
1765986,Lunden,6854,2,8.2105664,55.7354688
1765987,Lunden,6854,3,8.21013,55.735768
1765988,Lunden,6854,4,8.210811,55.735676
1765989,Lunden,6854,5,8.210299,55.73602
1765990,Lunden,6854,6,8.211003,55.735911
1765991,Lunden,6854,7,8.210669,55.736142
1765992,Lunden,6854,8,8.211092,55.736118
1766374,Fyrrelunden,6854,1,8.174793,55.724452
1766377,Fyrrelunden,6854,2A,8.175228,55.724239
1766381,Fyrrelunden,6854,2B,8.175586,55.724523
1766382,Fyrrelunden,6854,3,8.175229,55.7248
1766384,Fyrrelunden,6854,4,8.175879,55.724795
1766386,Fyrrelunden,6854,5,8.17552,55.725055
1766389,Fyrrelunden,6854,6,8.176303,55.725139
1766391,Fyrrelunden,6854,7,8.175784,55.725355
1766981,Uglevej,6854,1,8.1856634,55.7490819
1766982,Uglevej,6854,2,8.1858018,55.7497201
1766984,Uglevej,6854,3,8.1852394,55.749375
1766985,Uglevej,6854,4,8.185272,55.749872
1766986,Uglevej,6854,5,8.1840869,55.7490441
1766988,Uglevej,6854,6,8.185349,55.750265
1766990,Uglevej,6854,8,8.1845698,55.7502654
1767000,Villavej,6854,4,8.3046699,55.7098669
1767002,Villavej,6854,6,8.305008,55.710059
1767003,Villavej,6854,8,8.305369,55.710202
1767004,Villavej,6854,12,8.305846,55.710355
1767007,Villavej,6854,16,8.306257,55.71049
1767008,Villavej,6854,22,8.3067886,55.7106322
1767009,Villavej,6854,24,8.307043,55.710697
1767453,Neder Fiddevej,6854,11,8.2861991,55.720623
1767454,Neder Fiddevej,6854,21,8.2869965,55.7180713
1767455,Neder Fiddevej,6854,31,8.286406,55.717522
1767456,Neder Fiddevej,6854,41,8.283666,55.714924
1767457,Neder Fiddevej,6854,51,8.282412,55.71378
1767458,Neder Fiddevej,6854,61,8.276419,55.709245
1767459,Neder Fiddevej,6854,71,8.2773036,55.7062917
1767468,Marehalmvej,6854,3,8.174717,55.723961
1767469,Marehalmvej,6854,5,8.174225,55.723834
1767470,Marehalmvej,6854,7,8.174158,55.724113
1767471,Marehalmvej,6854,8,8.173912,55.724538
1767472,Marehalmvej,6854,9,8.1735552,55.7243233
1767473,Marehalmvej,6854,10,8.173914,55.7250323
1767474,Marehalmvej,6854,11,8.1727801,55.7245958
1767475,Marehalmvej,6854,12,8.173551,55.724756
1767559,Kløvermarken,6854,1,8.217833,55.73685
1767560,Kløvermarken,6854,2,8.217805,55.737221
1767561,Kløvermarken,6854,3,8.217266,55.736599
1767562,Kløvermarken,6854,4,8.216955,55.737167
1767563,Kløvermarken,6854,5,8.217017,55.736848
1767564,Kløvermarken,6854,6,8.216244,55.737141
1767565,Kløvermarken,6854,7,8.216518,55.736864
1767673,Hennemølleåvej,6854,5,8.170659,55.718829
1767674,Hennemølleåvej,6854,6,8.171138,55.720636
1767675,Hennemølleåvej,6854,7,8.170689,55.718503
1767676,Hennemølleåvej,6854,12,8.169513,55.720131
1767677,Hennemølleåvej,6854,16,8.171198,55.719918
1767678,Hennemølleåvej,6854,20,8.169437,55.719564
1767679,Hennemølleåvej,6854,22,8.167688,55.719188
1767718,Harevej,6854,2,8.220211,55.738166
1767719,Harevej,6854,4,8.221254,55.73797
1767720,Harevej,6854,5,8.221297,55.73842
1767721,Harevej,6854,6,8.221865,55.73801
1767722,Harevej,6854,8,8.222406,55.737296
1767723,Harevej,6854,10,8.222618,55.737699
1767724,Harevej,6854,12,8.222662,55.738024
1767977,Dyrebyvej,6854,10,8.295121,55.699419
1767978,Dyrebyvej,6854,11,8.296831,55.700246
1767979,Dyrebyvej,6854,20,8.297843,55.699702
1767980,Dyrebyvej,6854,21,8.301167,55.699409
1767981,Dyrebyvej,6854,30,8.298927,55.699325
1767982,Dyrebyvej,6854,31,8.2983396,55.6980122
1767983,Dyrebyvej,6854,51,8.306817,55.68929
1768071,Bekkasinvej,6854,1,8.18302,55.739394
1768073,Bekkasinvej,6854,2,8.183642,55.739574
1768074,Bekkasinvej,6854,3,8.182786,55.739495
1768076,Bekkasinvej,6854,4,8.183396,55.739707
1768078,Bekkasinvej,6854,5,8.182498,55.73951
1768079,Bekkasinvej,6854,6,8.182537,55.739879
1768082,Bekkasinvej,6854,7,8.182483,55.739683
1768472,Spurvevej,6854,1,8.1818275,55.7466952
1768473,Spurvevej,6854,2,8.18316,55.746492
1768474,Spurvevej,6854,3,8.1821444,55.7468476
1768475,Spurvevej,6854,4,8.183663,55.746664
1768476,Spurvevej,6854,5,8.1814113,55.7470701
1768477,Spurvevej,6854,7,8.1827927,55.7471014
1768682,Møllehavevej,6854,7,8.301856,55.710103
1768683,Møllehavevej,6854,8,8.301587,55.710126
1768684,Møllehavevej,6854,9,8.301899,55.709806
1768685,Møllehavevej,6854,13,8.3014246,55.7098038
1768800,Lyngbakken,6854,1,8.2178197,55.7377263
1768802,Lyngbakken,6854,3,8.216607,55.73762
1768805,Lyngbakken,6854,4,8.216672,55.737979
1768808,Lyngbakken,6854,5,8.216129,55.737594
1768809,Lyngbakken,6854,6,8.2161905,55.7380398
1769000,Hjortestien,6854,1,8.219493,55.739148
1769001,Hjortestien,6854,3,8.219872,55.739101
1769002,Hjortestien,6854,4,8.220715,55.738721
1769003,Hjortestien,6854,5,8.220293,55.739162
1769004,Hjortestien,6854,7,8.220865,55.739174
1769005,Hjortestien,6854,9,8.221204,55.739222
1769170,Enebærvej,6854,1,8.179872,55.737278
1769172,Enebærvej,6854,2,8.179679,55.737007
1769173,Enebærvej,6854,3,8.180205,55.737182
1769176,Enebærvej,6854,4,8.180205,55.736924
1769177,Enebærvej,6854,5,8.180875,55.737303
1769178,Enebærvej,6854,6,8.180601,55.736938
1769191,Blåklokkevej,6854,2,8.174809,55.742851
1769192,Blåklokkevej,6854,3,8.174468,55.742494
1769193,Blåklokkevej,6854,5,8.174727,55.742184
1769194,Blåklokkevej,6854,6,8.174117,55.742821
1769195,Blåklokkevej,6854,7,8.175091,55.742019
1769196,Blåklokkevej,6854,9,8.1753,55.741839
1769599,Mønstervej,6854,21,8.319026,55.69569
1769600,Mønstervej,6854,31,8.3182605,55.6936394
1769601,Mønstervej,6854,41,8.317208,55.690594
1769602,Mønstervej,6854,51,8.3206942,55.6822594
1769603,Mønstervej,6854,60,8.313712,55.681998
1769981,Dahlsvej,6854,2,8.205564,55.732734
1769983,Dahlsvej,6854,2A,8.2043,55.732833
1769986,Dahlsvej,6854,4,8.206578,55.732673
1769987,Dahlsvej,6854,6,8.207236,55.732613
1769990,Dahlsvej,6854,8,8.20825,55.732495
1769992,Dahlsvej,6854,10,8.208875,55.732327
1770325,Store Sandevej,6854,2,8.2207439,55.7351556
1770326,Store Sandevej,6854,4,8.2207495,55.7344437
1770327,Store Sandevej,6854,6,8.220435,55.734063
1770328,Store Sandevej,6854,8,8.2206109,55.7334727
1770405,Ponyvej,6854,2,8.2208261,55.7361979
1770406,Ponyvej,6854,3,8.2222603,55.7360733
1770407,Ponyvej,6854,4,8.220808,55.735909
1770408,Ponyvej,6854,5,8.2214084,55.7360538
1770719,Horsevej,6854,1,8.219911,55.737155
1770720,Horsevej,6854,10,8.220593,55.737741
1770721,Horsevej,6854,12,8.220297,55.738763
1770722,Horsevej,6854,13,8.219525,55.738674
1770830,Gårdstedet,6854,1,8.219219,55.736761
1770831,Gårdstedet,6854,2,8.219306,55.736522
1770832,Gårdstedet,6854,3,8.219966,55.736872
1770833,Gårdstedet,6854,4,8.219935,55.736521
1770857,Fyrrestien,6854,1,8.174525,55.724901
1770858,Fyrrestien,6854,4,8.174938,55.725305
1770859,Fyrrestien,6854,6,8.174552,55.725584
1770879,Filsøvej,6854,20,8.255794,55.69585
1770880,Filsøvej,6854,21,8.255546,55.694454
1770881,Filsøvej,6854,22,8.256886,55.695606
1770882,Filsøvej,6854,30,8.237105,55.694283
1770883,Filsøvej,6854,31,8.252791,55.694943
1770884,Engdrag,6854,1,8.218584,55.738324
1770885,Engdrag,6854,2,8.218788,55.737949
1770887,Engdrag,6854,3,8.219129,55.738251
1770888,Engdrag,6854,4,8.219526,55.738043
1770905,Egevej,6854,1,8.202685,55.73359
1770906,Egevej,6854,3,8.202257,55.733385
1770907,Egevej,6854,5,8.202125,55.73396
1770908,Egevej,6854,7,8.202707,55.733893
1771129,Vibevej,6854,1,8.1785703,55.7409857
1771130,Vibevej,6854,4,8.179662,55.740564
1771131,Vibevej,6854,6,8.1797289,55.7407354
1771215,Storkevej,6854,1,8.1869953,55.7466271
1771216,Storkevej,6854,3,8.1864299,55.7468567
1771218,Storkevej,6854,4,8.1869286,55.7473014
1771257,Rolfsøvej,6854,10,8.292998,55.723474
1771258,Rolfsøvej,6854,20,8.292602,55.720045
1771259,Rolfsøvej,6854,22,8.291851,55.719794
1771409,Gammeltoftvej,6854,10,8.287839,55.703952
1771410,Gammeltoftvej,6854,21,8.283371,55.703638
1771411,Gammeltoftvej,6854,30,8.27547,55.701423
1771463,Duevej,6854,4,8.221975,55.737382
1771464,Duevej,6854,5,8.221257,55.737673
1771466,Duevej,6854,6,8.221864,55.737622
1771529,Uglesti,6854,1,8.1844212,55.7496797
1771530,Uglesti,6854,2,8.184303,55.749903
1771597,Strandskadevej,6854,1,8.183081,55.739801
1771598,Strandskadevej,6854,4,8.183842,55.73991
1771603,Skråvejen,6854,1,8.222145,55.735354
1771604,Skråvejen,6854,2,8.2220579,55.7355923
1771605,Skråvejen,6854,3,8.2216239,55.7354156
1771606,Skråvejen,6854,5,8.2205573,55.7355459
1771607,Skråvejen,6854,6,8.219896,55.736034
1771608,Skråvejen,6854,7,8.219851,55.73566
1771711,Porsmosevej,6854,1,8.2133871,55.7298191
1771712,Porsmosevej,6854,11,8.213129,55.729292
1771714,Porsmosevej,6854,20,8.209082,55.724002
1771716,Porsmosevej,6854,20A,8.209133,55.7240124
1771721,Niels Røgtersvej,6854,2,8.2188395,55.7372846
1771722,Niels Røgtersvej,6854,3,8.21812,55.736418
1771723,Niels Røgtersvej,6854,5,8.217661,55.738152
1772154,Brynet,6854,1,8.209313,55.735628
1772155,Brynet,6854,3,8.209673,55.735809
1794579,Fasanvej,6854,1,8.176369,55.744784
1794580,Fasanvej,6854,3,8.176154,55.744543
1794581,Fasanvej,6854,5,8.17611,55.744235
1794582,Fasanvej,6854,7,8.176723,55.744227
1794583,Fasanvej,6854,9,8.176681,55.74457
1794584,Fasanvej,6854,10,8.17718,55.74272
1794585,Fasanvej,6854,11,8.177131,55.744561
1794586,Fasanvej,6854,12,8.176497,55.742965
1794587,Fasanvej,6854,13,8.177279,55.744063
1794588,Fasanvej,6854,14,8.176034,55.743163
1794589,Fasanvej,6854,15,8.177728,55.744137
1794590,Fasanvej,6854,16A,8.17577,55.743934
1794591,Fasanvej,6854,16B,8.175755,55.743879
1794592,Fasanvej,6854,16C,8.175709,55.743791
1794593,Fasanvej,6854,16D,8.175689,55.743744
1794594,Fasanvej,6854,16E,8.175671,55.743688
1794595,Fasanvej,6854,16F,8.175655,55.743637
1794596,Fasanvej,6854,16G,8.175648,55.743553
1794597,Fasanvej,6854,16H,8.17563,55.743498
1794598,Fasanvej,6854,16I,8.175613,55.743451
1794599,Fasanvej,6854,17,8.177875,55.74436
1794600,Fasanvej,6854,18A,8.176078,55.743901
1794601,Fasanvej,6854,18B,8.17607,55.743846
1794603,Fasanvej,6854,18C,8.17605,55.743761
1794606,Fasanvej,6854,18D,8.176032,55.743709
1794608,Fasanvej,6854,18E,8.176014,55.743658
1794610,Fasanvej,6854,18F,8.176003,55.743602
1794614,Fasanvej,6854,18G,8.175981,55.74352
1794615,Fasanvej,6854,18H,8.17596,55.743467
1794617,Fasanvej,6854,18I,8.175946,55.743413
1794621,Fasanvej,6854,18J,8.17594,55.743366
1794622,Fasanvej,6854,20,8.176485,55.743489
1794626,Fasanvej,6854,22,8.176768,55.743639
1794628,Fasanvej,6854,23,8.178215,55.745043
1794633,Fasanvej,6854,24,8.177716,55.743759
1794637,Fasanvej,6854,25,8.178705,55.745061
1794639,Fasanvej,6854,26,8.178687,55.743965
1794643,Fasanvej,6854,27,8.179081,55.744582
1794647,Fasanvej,6854,29,8.179233,55.745081
1794649,Fasanvej,6854,30,8.178729,55.74422
1794651,Fasanvej,6854,31,8.179776,55.745005
1794653,Fasanvej,6854,32,8.179483,55.744189
1794654,Fasanvej,6854,33,8.180243,55.744749
1794657,Fasanvej,6854,34,8.179964,55.74412
1794659,Fasanvej,6854,35,8.179933,55.74442
1796731,Kærvej,6854,1,8.206763,55.734583
1796732,Kærvej,6854,2,8.206124,55.73424
1796733,Kærvej,6854,3,8.207389,55.734618
1796735,Kærvej,6854,4,8.206429,55.734084
1796736,Kærvej,6854,5,8.207534,55.73496
1796738,Kærvej,6854,6,8.206887,55.734132
1796740,Kærvej,6854,7,8.207939,55.735011
1796741,Kærvej,6854,8,8.207386,55.734059
1796743,Kærvej,6854,9,8.2078,55.734466
1796745,Kærvej,6854,10,8.207884,55.734097
1796746,Kærvej,6854,11,8.208736,55.734462
1796747,Kærvej,6854,12,8.208525,55.734049
1796750,Kærvej,6854,13,8.208813,55.734923
1796751,Kærvej,6854,14,8.208996,55.733998
1796753,Kærvej,6854,15,8.209741,55.734796
1796755,Kærvej,6854,16,8.2098255,55.7338318
1796756,Kærvej,6854,17,8.209559,55.734387
1796757,Kærvej,6854,18,8.210348,55.733945
1796759,Kærvej,6854,19,8.210306,55.734424
1796761,Kærvej,6854,20,8.2110601,55.7338633
1796763,Kærvej,6854,21,8.210426,55.734732
1796764,Kærvej,6854,22,8.2115795,55.733813
1796766,Kærvej,6854,23,8.2113814,55.7346592
1796768,Kærvej,6854,24,8.212455,55.733727
1796769,Kærvej,6854,25,8.2113169,55.7342631
1796771,Kærvej,6854,26,8.2129936,55.7337237
1796773,Kærvej,6854,27,8.212097,55.73419
1796774,Kærvej,6854,28,8.2135263,55.7336722
1796776,Kærvej,6854,29,8.211782,55.734563
1796777,Kærvej,6854,30,8.214096,55.733667
1796779,Kærvej,6854,31,8.2128376,55.7345071
1796781,Kærvej,6854,32,8.214711,55.733625
1796782,Kærvej,6854,33,8.2127982,55.7341728
1796784,Kærvej,6854,34,8.215396,55.733562
1796785,Kærvej,6854,35,8.21351,55.7343863
1796786,Kærvej,6854,36,8.21597,55.733472
1796789,Kærvej,6854,37,8.213578,55.7340407
1796790,Kærvej,6854,39,8.2144348,55.7343557
1796792,Kærvej,6854,41,8.214341,55.733991
1796793,Kærvej,6854,43,8.2152325,55.7339368
1796795,Kærvej,6854,45,8.2149568,55.7343072
1796797,Kærvej,6854,47,8.2157266,55.7338652
1797529,Tyttebærvej,6854,2,8.187479,55.733817
1797540,Tyttebærvej,6854,4,8.186988,55.733788
1797544,Tyttebærvej,6854,6,8.187189,55.733384
1797555,Tyttebærvej,6854,8,8.186567,55.733775
1797559,Tyttebærvej,6854,10,8.186092,55.733772
1797576,Tyttebærvej,6854,12,8.1855859,55.7336194
1797582,Tyttebærvej,6854,14,8.1861049,55.7333178
1797593,Tyttebærvej,6854,16,8.186719,55.733181
1797598,Tyttebærvej,6854,17,8.1836342,55.7323722
1797607,Tyttebærvej,6854,18,8.186238,55.732946
1797613,Tyttebærvej,6854,19,8.1834649,55.7320932
1797620,Tyttebærvej,6854,20,8.18557,55.732884
1797624,Tyttebærvej,6854,21,8.183498,55.731765
1797630,Tyttebærvej,6854,22,8.185016,55.732753
1797636,Tyttebærvej,6854,23,8.183201,55.7326
1797640,Tyttebærvej,6854,24,8.185443,55.733098
1797643,Tyttebærvej,6854,25,8.182926,55.732163
1797650,Tyttebærvej,6854,26,8.184665,55.733035
1797655,Tyttebærvej,6854,27,8.1824259,55.732632
1797660,Tyttebærvej,6854,28,8.184256,55.732716
1797663,Tyttebærvej,6854,29,8.182318,55.7323076
1797670,Tyttebærvej,6854,30,8.183778,55.733008
1797674,Tyttebærvej,6854,31,8.1815874,55.7329572
1797676,Tyttebærvej,6854,33,8.1815911,55.7324059
1797685,Tyttebærvej,6854,34,8.182324,55.733172
1797688,Tyttebærvej,6854,35,8.180942,55.732946
1797694,Tyttebærvej,6854,36,8.181741,55.733333
1797697,Tyttebærvej,6854,37,8.1809293,55.7324102
1797705,Tyttebærvej,6854,38,8.18108,55.733432
1797710,Tyttebærvej,6854,39,8.1808877,55.7321728
1797716,Tyttebærvej,6854,40,8.180894,55.733805
1797717,Tyttebærvej,6854,41,8.180223,55.733112
1797724,Tyttebærvej,6854,42,8.180396,55.734032
1797728,Tyttebærvej,6854,43,8.180305,55.73253
1797732,Tyttebærvej,6854,44,8.180309,55.733609
1797734,Tyttebærvej,6854,45,8.179606,55.73271
1797737,Tyttebærvej,6854,46,8.179469,55.733618
1797741,Tyttebærvej,6854,47,8.179658,55.7331984
1797745,Tyttebærvej,6854,48,8.179678,55.734027
1797748,Tyttebærvej,6854,49,8.178902,55.733271
1797754,Tyttebærvej,6854,50,8.17888,55.733799
1797924,Porsevej,6854,1,8.177984,55.737373
1797926,Porsevej,6854,2A,8.178152,55.737037
1797937,Porsevej,6854,2B,8.178559,55.737065
1797940,Porsevej,6854,2C,8.179007,55.736978
1797944,Porsevej,6854,2D,8.178791,55.736564
1797955,Porsevej,6854,3,8.178826,55.737616
1797963,Porsevej,6854,4,8.180273,55.73609
1797965,Porsevej,6854,5,8.1787298,55.7373653
1797972,Porsevej,6854,6,8.1800975,55.7358292
1797980,Porsevej,6854,7,8.179381,55.737506
1797984,Porsevej,6854,8,8.180738,55.736101
1797992,Porsevej,6854,9,8.179635,55.737446
1797995,Porsevej,6854,10,8.180982,55.736009
1798002,Porsevej,6854,11,8.179791,55.736729
1798007,Porsevej,6854,12,8.181348,55.735494
1798010,Porsevej,6854,13,8.1800735,55.7363971
1798017,Porsevej,6854,14,8.181781,55.735935
1798023,Porsevej,6854,15A,8.180462,55.736384
1798025,Porsevej,6854,15B,8.180738,55.736606
1798030,Porsevej,6854,17,8.1810453,55.7366882
1798036,Porsevej,6854,19A,8.181146,55.736386
1798038,Porsevej,6854,19B,8.181776,55.736724
1798043,Porsevej,6854,19C,8.181987,55.737052
1798044,Porsevej,6854,19D,8.181425,55.737088
1798047,Porsevej,6854,20,8.18204,55.735433
1798050,Porsevej,6854,21,8.182272,55.736473
1798053,Porsevej,6854,22,8.182411,55.735859
1798056,Porsevej,6854,23,8.182711,55.736343
1798060,Porsevej,6854,24,8.182811,55.735715
1798064,Porsevej,6854,25,8.1833164,55.736133
1798067,Porsevej,6854,26,8.183214,55.735465
1798074,Porsevej,6854,27,8.1840142,55.7360595
1798077,Porsevej,6854,28,8.183522,55.735687
1798083,Porsevej,6854,30,8.184128,55.735466
1798085,Porsevej,6854,31,8.1844344,55.7362635
1798095,Porsevej,6854,33,8.184834,55.735887
1798099,Porsevej,6854,34,8.184588,55.735546
1798105,Porsevej,6854,36,8.184423,55.735183
1798111,Porsevej,6854,38,8.185187,55.735103
1798113,Porsevej,6854,40,8.185275,55.7354
1800176,Hovgårdsvej,6854,1,8.205189,55.733748
1800179,Hovgårdsvej,6854,2A,8.203881,55.733563
1800181,Hovgårdsvej,6854,2B,8.204115,55.733442
1800183,Hovgårdsvej,6854,3,8.205989,55.733608
1800187,Hovgårdsvej,6854,4,8.204626,55.733277
1800189,Hovgårdsvej,6854,5,8.206873,55.733591
1800194,Hovgårdsvej,6854,7,8.207749,55.733516
1800198,Hovgårdsvej,6854,8,8.20551,55.733148
1800200,Hovgårdsvej,6854,9,8.20845,55.73335
1800205,Hovgårdsvej,6854,10,8.206949,55.733106
1800207,Hovgårdsvej,6854,11,8.208979,55.733245
1800209,Hovgårdsvej,6854,12,8.207872,55.732985
1800211,Hovgårdsvej,6854,13,8.209709,55.733234
1800213,Hovgårdsvej,6854,14,8.208909,55.732821
1800215,Hovgårdsvej,6854,15,8.210381,55.733055
1800216,Hovgårdsvej,6854,16,8.209434,55.732666
1800217,Hovgårdsvej,6854,17,8.210508,55.733395
1800219,Hovgårdsvej,6854,18,8.210222,55.7325
1800221,Hovgårdsvej,6854,19,8.21109,55.733295
1800222,Hovgårdsvej,6854,20,8.211023,55.732427
1800223,Hovgårdsvej,6854,21,8.211365,55.732898
1800224,Hovgårdsvej,6854,22,8.211465,55.732082
1800225,Hovgårdsvej,6854,23,8.212075,55.732745
1800226,Hovgårdsvej,6854,24,8.21219,55.732372
1800227,Hovgårdsvej,6854,26,8.213033,55.73239
1800228,Hovgårdsvej,6854,27,8.211726,55.733304
1800229,Hovgårdsvej,6854,28,8.213359,55.732397
1800232,Hovgårdsvej,6854,29,8.212716,55.733194
1800233,Hovgårdsvej,6854,30,8.214256,55.732375
1800234,Hovgårdsvej,6854,31,8.212666,55.732688
1800235,Hovgårdsvej,6854,32,8.214863,55.732375
1800236,Hovgårdsvej,6854,33,8.213493,55.732719
1800237,Hovgårdsvej,6854,34,8.21552,55.732334
1800238,Hovgårdsvej,6854,35,8.21377,55.733146
1800239,Hovgårdsvej,6854,37,8.214113,55.733064
1800240,Hovgårdsvej,6854,39,8.214384,55.732806
1800241,Hovgårdsvej,6854,43,8.215661,55.732791
1801713,Stendyssevej,6854,1,8.216512,55.732528
1801716,Stendyssevej,6854,2,8.2163323,55.7321524
1801718,Stendyssevej,6854,3,8.216627,55.732771
1801723,Stendyssevej,6854,4,8.216713,55.732122
1801725,Stendyssevej,6854,5,8.216593,55.733017
1801730,Stendyssevej,6854,6,8.217255,55.732106
1801734,Stendyssevej,6854,7,8.217193,55.733037
1801736,Stendyssevej,6854,8,8.217724,55.732105
1801741,Stendyssevej,6854,9,8.217806,55.733105
1801746,Stendyssevej,6854,10,8.218197,55.732151
1801749,Stendyssevej,6854,11,8.218218,55.732986
1801755,Stendyssevej,6854,12,8.2187707,55.7319017
1801757,Stendyssevej,6854,13,8.2179847,55.7328449
1801758,Stendyssevej,6854,14,8.2189005,55.7323048
1801761,Stendyssevej,6854,15,8.2173674,55.7328052
1801763,Stendyssevej,6854,16,8.219496,55.732663
1801765,Stendyssevej,6854,17,8.217352,55.732533
1801767,Stendyssevej,6854,18,8.2196888,55.7329481
1801768,Stendyssevej,6854,19,8.2178558,55.7325216
1801770,Stendyssevej,6854,20,8.21972,55.73323
1801772,Stendyssevej,6854,21,8.2184169,55.7325853
1801775,Stendyssevej,6854,22,8.219861,55.73347
1801777,Stendyssevej,6854,23,8.218853,55.732943
1801779,Stendyssevej,6854,24,8.2198275,55.7337684
1801781,Stendyssevej,6854,25,8.219056,55.733312
1801782,Stendyssevej,6854,26,8.219876,55.73403
1801784,Stendyssevej,6854,27,8.219114,55.733699
1801786,Stendyssevej,6854,28,8.2198274,55.7343298
1801788,Stendyssevej,6854,29,8.219127,55.734053
1801790,Stendyssevej,6854,30,8.2199176,55.7345416
1801791,Stendyssevej,6854,31,8.2192019,55.7343427
1801792,Stendyssevej,6854,32,8.219844,55.734811
1801793,Stendyssevej,6854,33,8.219174,55.734588
1801794,Stendyssevej,6854,34,8.219929,55.73516
1801795,Stendyssevej,6854,35,8.2192901,55.7348665
1801796,Stendyssevej,6854,37,8.2193202,55.7351348
1804854,Urfuglevej,6854,1,8.1858207,55.7376441
1804855,Urfuglevej,6854,2,8.185357,55.737125
1804856,Urfuglevej,6854,3,8.1859553,55.7379704
1804857,Urfuglevej,6854,4,8.1858546,55.7372573
1804858,Urfuglevej,6854,5,8.186131,55.737753
1804859,Urfuglevej,6854,7,8.186923,55.738639
1804860,Urfuglevej,6854,9,8.187063,55.7389429
1804861,Urfuglevej,6854,10,8.1870475,55.7376291
1804862,Urfuglevej,6854,11,8.1874948,55.7388332
1804863,Urfuglevej,6854,12,8.186547,55.737724
1804864,Urfuglevej,6854,13,8.1879252,55.7389337
1804865,Urfuglevej,6854,14,8.1869105,55.7380347
1804866,Urfuglevej,6854,15,8.188384,55.738843
1804867,Urfuglevej,6854,16,8.187483,55.738113
1804868,Urfuglevej,6854,17,8.1888905,55.7386946
1804869,Urfuglevej,6854,18,8.187755,55.738406
1804870,Urfuglevej,6854,19,8.1892279,55.7386198
1804871,Urfuglevej,6854,20,8.188326,55.738226
1804872,Urfuglevej,6854,21,8.189739,55.738476
1804875,Urfuglevej,6854,22,8.188242,55.737984
1804877,Urfuglevej,6854,23,8.1901484,55.7384684
1804879,Urfuglevej,6854,24,8.188144,55.737729
1804882,Urfuglevej,6854,25,8.1904291,55.7387969
1804884,Urfuglevej,6854,26,8.188764,55.737656
1804885,Urfuglevej,6854,27,8.1913235,55.7387523
1804888,Urfuglevej,6854,28,8.189184,55.7378948
1804889,Urfuglevej,6854,29,8.1909368,55.7385484
1804892,Urfuglevej,6854,30,8.189617,55.738056
1804894,Urfuglevej,6854,31,8.190793,55.738197
1804895,Urfuglevej,6854,32,8.1902066,55.7378514
1804897,Urfuglevej,6854,33,8.19117,55.737922
1804900,Urfuglevej,6854,34,8.189971,55.737579
1804902,Urfuglevej,6854,38,8.190982,55.7375615
1805521,Musvågevej,6854,1,8.183892,55.741273
1805522,Musvågevej,6854,2,8.1844358,55.7415134
1805523,Musvågevej,6854,3,8.183687,55.741012
1805524,Musvågevej,6854,4,8.1839208,55.7415787
1805525,Musvågevej,6854,5,8.1831488,55.7410761
1805526,Musvågevej,6854,6,8.1835648,55.7416947
1805527,Musvågevej,6854,7,8.183267,55.741215
1805528,Musvågevej,6854,8,8.183641,55.741933
1805529,Musvågevej,6854,9,8.1829584,55.7414366
1805530,Musvågevej,6854,10,8.1830711,55.7417885
1805531,Musvågevej,6854,11,8.182526,55.741021
1805532,Musvågevej,6854,12,8.182826,55.742019
1805533,Musvågevej,6854,13,8.1821553,55.741154
1805534,Musvågevej,6854,14,8.182364,55.741976
1805535,Musvågevej,6854,15,8.1824049,55.7414957
1805536,Musvågevej,6854,16,8.1818637,55.7419193
1805537,Musvågevej,6854,17,8.1818534,55.7415807
1805538,Musvågevej,6854,18,8.1815641,55.7420113
1805539,Musvågevej,6854,19,8.181692,55.741196
1805540,Musvågevej,6854,20,8.1791654,55.7421548
1805541,Musvågevej,6854,21,8.181292,55.7411725
1805542,Musvågevej,6854,22,8.178771,55.742007
1805543,Musvågevej,6854,24,8.1784009,55.7422354
1805544,Musvågevej,6854,27,8.180176,55.741762
1805545,Musvågevej,6854,28,8.1777999,55.742647
1805546,Musvågevej,6854,29,8.179818,55.741805
1805547,Musvågevej,6854,30,8.177262,55.742865
1805548,Musvågevej,6854,32,8.1768039,55.7430497
1805549,Musvågevej,6854,38,8.1779523,55.7418557
1805550,Musvågevej,6854,40,8.177891,55.742262
1805551,Musvågevej,6854,42,8.1774421,55.7425865
1805552,Musvågevej,6854,46,8.177399,55.741921
1806346,Hennebysvej,6854,7,8.221214,55.731241
1806347,Hennebysvej,6854,10,8.221876,55.731369
1806351,Hennebysvej,6854,11,8.221461,55.732515
1806353,Hennebysvej,6854,12,8.222137,55.7318
1806355,Hennebysvej,6854,13,8.221474,55.732823
1806359,Hennebysvej,6854,15,8.221514,55.733161
1806361,Hennebysvej,6854,16,8.222355,55.732772
1806363,Hennebysvej,6854,17,8.221543,55.73347
1806366,Hennebysvej,6854,19,8.221547,55.733941
1806367,Hennebysvej,6854,20,8.222481,55.733734
1806370,Hennebysvej,6854,21,8.221825,55.734226
1806372,Hennebysvej,6854,22,8.222768,55.734895
1806374,Hennebysvej,6854,23,8.221656,55.734578
1806377,Hennebysvej,6854,24,8.222846,55.735146
1806378,Hennebysvej,6854,25,8.221882,55.734922
1806382,Hennebysvej,6854,26,8.223523,55.735073
1806384,Hennebysvej,6854,26A,8.223362,55.735052
1806385,Hennebysvej,6854,26B,8.223354,55.735023
1806389,Hennebysvej,6854,26C,8.223345,55.73499
1806390,Hennebysvej,6854,26D,8.223332,55.734956
1806392,Hennebysvej,6854,26E,8.223323,55.734922
1806394,Hennebysvej,6854,26F,8.223315,55.734891
1806397,Hennebysvej,6854,26G,8.223304,55.734855
1806401,Hennebysvej,6854,26H,8.223599,55.735153
1806403,Hennebysvej,6854,26I,8.223654,55.735146
1806407,Hennebysvej,6854,26J,8.2237,55.735142
1806410,Hennebysvej,6854,26K,8.223752,55.735138
1806414,Hennebysvej,6854,26L,8.223796,55.735135
1806417,Hennebysvej,6854,26M,8.223857,55.735131
1806418,Hennebysvej,6854,26N,8.223916,55.735125
1806422,Hennebysvej,6854,30,8.227167,55.736192
1806427,Hennebysvej,6854,32,8.223598,55.735526
1806431,Hennebysvej,6854,32A,8.223516,55.735421
1806433,Hennebysvej,6854,32B,8.223558,55.735392
1806438,Hennebysvej,6854,32C,8.223603,55.735365
1806439,Hennebysvej,6854,32D,8.223644,55.735339
1806442,Hennebysvej,6854,32E,8.223787,55.735487
1806448,Hennebysvej,6854,32F,8.22383,55.735457
1806449,Hennebysvej,6854,32G,8.223873,55.73543
1806452,Hennebysvej,6854,32H,8.2239252,55.7353996
1806453,Hennebysvej,6854,32I,8.223968,55.735374
1806456,Hennebysvej,6854,32J,8.223946,55.735656
1806459,Hennebysvej,6854,32K,8.223899,55.735683
1806461,Hennebysvej,6854,32L,8.223854,55.735711
1806464,Hennebysvej,6854,32M,8.223802,55.735743
1806466,Hennebysvej,6854,32N,8.2237644,55.7357666
1806469,Hennebysvej,6854,32O,8.223541,55.735614
1806472,Hennebysvej,6854,32P,8.223498,55.73564
1806473,Hennebysvej,6854,32Q,8.223457,55.73567
1806475,Hennebysvej,6854,32R,8.223409,55.7357
1806476,Hennebysvej,6854,32S,8.223375,55.735723
1806477,Hennebysvej,6854,34,8.223,55.735712
1806478,Hennebysvej,6854,34A,8.223171,55.735641
1806479,Hennebysvej,6854,34B,8.223122,55.73564
1806480,Hennebysvej,6854,34C,8.223071,55.735638
1806481,Hennebysvej,6854,34D,8.223024,55.735638
1806482,Hennebysvej,6854,34E,8.222976,55.735638
1806483,Hennebysvej,6854,34F,8.222936,55.735633
1806484,Hennebysvej,6854,34G,8.222894,55.735634
1806485,Hennebysvej,6854,34H,8.2228605,55.7356344
1806486,Hennebysvej,6854,35,8.223308,55.738299
1806487,Hennebysvej,6854,40,8.223422,55.735876
1806488,Hennebysvej,6854,40A,8.222896,55.735973
1806489,Hennebysvej,6854,40B,8.2229467,55.7359742
1806490,Hennebysvej,6854,40C,8.223021,55.735977
1806491,Hennebysvej,6854,40D,8.223091,55.735979
1806492,Hennebysvej,6854,40E,8.223157,55.73615
1806493,Hennebysvej,6854,40F,8.223219,55.736153
1806494,Hennebysvej,6854,40G,8.223275,55.736152
1806495,Hennebysvej,6854,40H,8.2233489,55.7361551
1806496,Hennebysvej,6854,40I,8.2236157,55.7361337
1806497,Hennebysvej,6854,40J,8.223645,55.736101
1806498,Hennebysvej,6854,40K,8.2236756,55.7360651
1806499,Hennebysvej,6854,40L,8.223706,55.736028
1806500,Hennebysvej,6854,40M,8.223741,55.735993
1806501,Hennebysvej,6854,40N,8.223771,55.735958
1806502,Hennebysvej,6854,42A,8.22422,55.736101
1806503,Hennebysvej,6854,42B,8.225191,55.735717
1806504,Hennebysvej,6854,42C,8.224442,55.735641
1806505,Hennebysvej,6854,42D,8.224516,55.735447
1806506,Hennebysvej,6854,42E,8.225016,55.735327
1806507,Hennebysvej,6854,42F,8.224991,55.734967
1806508,Hennebysvej,6854,42G,8.224146,55.734996
1806509,Hennebysvej,6854,42H,8.224072,55.734669
1806510,Hennebysvej,6854,42I,8.224889,55.734657
1806511,Hennebysvej,6854,42K,8.225122,55.734089
1806512,Hennebysvej,6854,44,8.224841,55.736534
1806513,Hennebysvej,6854,45,8.222787,55.739306
1806514,Hennebysvej,6854,46,8.224185,55.736542
1806515,Hennebysvej,6854,48,8.223928,55.736765
1806516,Hennebysvej,6854,50,8.223962,55.73715
1806517,Hennebysvej,6854,52,8.223269,55.737141
1806518,Hennebysvej,6854,54,8.223184,55.736722
1806519,Hennebysvej,6854,58,8.22388,55.737451
1806520,Hennebysvej,6854,60,8.223542,55.737923
1806521,Hennebysvej,6854,62,8.224352,55.737981
1806522,Hennebysvej,6854,75,8.248156,55.741696
1808482,Gammel Strandvej,6854,2,8.2152123,55.7310886
1808483,Gammel Strandvej,6854,3,8.2154199,55.7316651
1808484,Gammel Strandvej,6854,4,8.2157887,55.7309026
1808485,Gammel Strandvej,6854,5,8.2146842,55.7318214
1808486,Gammel Strandvej,6854,6,8.2158259,55.7312708
1808487,Gammel Strandvej,6854,7,8.2139274,55.7317648
1808488,Gammel Strandvej,6854,8,8.216528,55.731393
1808489,Gammel Strandvej,6854,9,8.212914,55.7317295
1808490,Gammel Strandvej,6854,10,8.2164719,55.7311082
1808491,Gammel Strandvej,6854,11,8.2120903,55.7314195
1808492,Gammel Strandvej,6854,12,8.2179196,55.7312727
1808495,Gammel Strandvej,6854,12A,8.2171361,55.7312734
1808498,Gammel Strandvej,6854,12B,8.2170758,55.7310373
1808500,Gammel Strandvej,6854,13,8.216346,55.7317285
1808504,Gammel Strandvej,6854,14,8.2188422,55.7311003
1808507,Gammel Strandvej,6854,15,8.217029,55.7316926
1808511,Gammel Strandvej,6854,16,8.2188846,55.7307613
1808514,Gammel Strandvej,6854,17,8.2175717,55.7316903
1808516,Gammel Strandvej,6854,18,8.2193152,55.7306662
1808519,Gammel Strandvej,6854,19,8.2181267,55.7316823
1808521,Gammel Strandvej,6854,20,8.21944,55.7309833
1808524,Gammel Strandvej,6854,21,8.218641,55.7316051
1808527,Gammel Strandvej,6854,22,8.2199201,55.7309289
1808531,Gammel Strandvej,6854,23,8.2191533,55.7315623
1808534,Gammel Strandvej,6854,24,8.220358,55.7308166
1808535,Gammel Strandvej,6854,25,8.2196598,55.731462
1808536,Gammel Strandvej,6854,26,8.2205979,55.7304788
1808537,Gammel Strandvej,6854,27,8.220183,55.7313848
1808538,Gammel Strandvej,6854,27B,8.2206719,55.7312097
1808539,Gammel Strandvej,6854,28,8.2210698,55.7305796
1808540,Gammel Strandvej,6854,29,8.221917,55.730871
1808541,Gammel Strandvej,6854,30,8.2222546,55.7300293
1808542,Gammel Strandvej,6854,31,8.222475,55.730735
1808543,Gammel Strandvej,6854,33,8.222937,55.731025
1808662,Frederiksberg,6854,4,8.301521,55.710578
1808674,Frederiksberg,6854,6,8.301273,55.710432
1808677,Frederiksberg,6854,8,8.301031,55.710302
1808681,Frederiksberg,6854,9,8.30115,55.710138
1808684,Frederiksberg,6854,10,8.300848,55.710197
1808689,Frederiksberg,6854,11,8.30093,55.709994
1808695,Frederiksberg,6854,12,8.300597,55.710117
1808696,Frederiksberg,6854,13A,8.300653,55.709815
1808700,Frederiksberg,6854,13B,8.300793,55.709737
1808703,Frederiksberg,6854,14,8.300352,55.709984
1808708,Frederiksberg,6854,15A,8.300572,55.709615
1808712,Frederiksberg,6854,15B,8.30046,55.709555
1808715,Frederiksberg,6854,16,8.300076,55.709825
1808719,Frederiksberg,6854,17A,8.300273,55.709464
1808721,Frederiksberg,6854,17B,8.300173,55.70941
1808723,Frederiksberg,6854,18,8.299835,55.709697
1808725,Frederiksberg,6854,19,8.299997,55.709332
1808726,Frederiksberg,6854,20,8.299628,55.709514
1808727,Frederiksberg,6854,21,8.299587,55.709226
1808728,Frederiksberg,6854,22,8.29943,55.709421
1808729,Frederiksberg,6854,25A,8.299395,55.709126
1808730,Frederiksberg,6854,25B,8.299621,55.708944
1808731,Frederiksberg,6854,26,8.299239,55.709286
1808732,Frederiksberg,6854,27,8.299185,55.708814
1808733,Frederiksberg,6854,28,8.299061,55.709186
1808734,Frederiksberg,6854,29,8.298874,55.708685
1808735,Frederiksberg,6854,30,8.298903,55.709088
1808736,Frederiksberg,6854,32,8.298589,55.708941
1808737,Frederiksberg,6854,50,8.293739,55.700968
1810971,Høgevej,6854,1,8.184866,55.742162
1810972,Høgevej,6854,2,8.184941,55.742477
1810974,Høgevej,6854,3,8.184302,55.742165
1810975,Høgevej,6854,4,8.184522,55.742589
1810976,Høgevej,6854,5,8.183932,55.742239
1810978,Høgevej,6854,6A,8.184356,55.742922
1810979,Høgevej,6854,6B,8.183802,55.742734
1810981,Høgevej,6854,7,8.183766,55.742458
1810982,Høgevej,6854,8,8.183481,55.742801
1810983,Høgevej,6854,9,8.183303,55.742481
1810986,Høgevej,6854,10,8.183047,55.742962
1810987,Høgevej,6854,11,8.182837,55.742566
1810988,Høgevej,6854,13,8.182426,55.742221
1810990,Høgevej,6854,15,8.182123,55.742537
1810992,Høgevej,6854,17,8.18126,55.742699
1810993,Høgevej,6854,18,8.181028,55.743338
1810994,Høgevej,6854,19,8.180824,55.742778
1810995,Høgevej,6854,20,8.18067,55.743108
1810997,Høgevej,6854,21,8.180508,55.742911
1810998,Høgevej,6854,22,8.180308,55.743458
1810999,Høgevej,6854,23,8.180156,55.743026
1811001,Høgevej,6854,24,8.180081,55.743544
1811003,Høgevej,6854,25,8.179857,55.743184
1811004,Høgevej,6854,26,8.179528,55.743576
1811005,Høgevej,6854,28,8.179194,55.743607
1811007,Høgevej,6854,29,8.179251,55.743397
1811008,Høgevej,6854,30,8.178789,55.743689
1811009,Høgevej,6854,31,8.178713,55.743478
1811198,Hedelærkevej,6854,1,8.185292,55.743861
1811200,Hedelærkevej,6854,2,8.185614,55.744333
1811201,Hedelærkevej,6854,3A,8.184815,55.744157
1811204,Hedelærkevej,6854,3B,8.184763,55.743902
1811206,Hedelærkevej,6854,4A,8.185061,55.744422
1811207,Hedelærkevej,6854,4B,8.184827,55.744666
1811209,Hedelærkevej,6854,4C,8.185011,55.74498
1811210,Hedelærkevej,6854,5,8.184075,55.743654
1811211,Hedelærkevej,6854,6,8.183991,55.744608
1811213,Hedelærkevej,6854,7A,8.184083,55.743851
1811214,Hedelærkevej,6854,7B,8.184239,55.744189
1811215,Hedelærkevej,6854,8,8.184381,55.744917
1811217,Hedelærkevej,6854,9,8.183437,55.744246
1811218,Hedelærkevej,6854,10A,8.183104,55.744849
1811221,Hedelærkevej,6854,10B,8.18374,55.745096
1811222,Hedelærkevej,6854,11,8.183001,55.744404
1811223,Hedelærkevej,6854,12,8.184273,55.745347
1811225,Hedelærkevej,6854,13,8.182499,55.7446
1811226,Hedelærkevej,6854,14,8.181771,55.74554
1811228,Hedelærkevej,6854,15A,8.182387,55.744993
1811230,Hedelærkevej,6854,15B,8.181833,55.744818
1811231,Hedelærkevej,6854,16,8.18114,55.745547
1811233,Hedelærkevej,6854,17,8.181342,55.744927
1811235,Hedelærkevej,6854,18,8.180608,55.74587
1811236,Hedelærkevej,6854,20,8.179931,55.745939
1811238,Hedelærkevej,6854,29,8.180829,55.745105
1811239,Hedelærkevej,6854,31,8.180535,55.745446
1811240,Hedelærkevej,6854,33,8.179782,55.745416
1812009,Tjurvej,6854,1,8.1869551,55.7374149
1812010,Tjurvej,6854,3,8.187682,55.737391
1812013,Tjurvej,6854,5,8.1876869,55.7371289
1812015,Tjurvej,6854,6,8.186373,55.736793
1812017,Tjurvej,6854,7,8.1884115,55.7368521
1812019,Tjurvej,6854,8,8.186241,55.73648
1812021,Tjurvej,6854,9,8.1887819,55.7373011
1812023,Tjurvej,6854,11,8.1895063,55.737186
1812025,Tjurvej,6854,12,8.186825,55.736797
1812027,Tjurvej,6854,13,8.190202,55.737151
1812029,Tjurvej,6854,14,8.187383,55.73668
1812031,Tjurvej,6854,15,8.190975,55.73704
1812033,Tjurvej,6854,16,8.187057,55.73644
1812035,Tjurvej,6854,17,8.190859,55.736681
1812037,Tjurvej,6854,18,8.187238,55.736128
1812039,Tjurvej,6854,23,8.189891,55.736671
1812040,Tjurvej,6854,24,8.187869,55.736267
1812043,Tjurvej,6854,26,8.187929,55.736562
1812045,Tjurvej,6854,29,8.1900104,55.7361333
1812047,Tjurvej,6854,32,8.188564,55.736471
1812050,Tjurvej,6854,33,8.190638,55.736262
1812051,Tjurvej,6854,40,8.18932,55.736351
1812053,Tjurvej,6854,42,8.188662,55.736044
1812054,Tjurvej,6854,44,8.189315,55.735763
1812056,Tjurvej,6854,46,8.189805,55.735694
1812058,Tjurvej,6854,48,8.190652,55.735638
1812059,Tjurvej,6854,50,8.190563,55.735941
1812153,Ørnevej,6854,1A,8.1798632,55.7410757
1812156,Ørnevej,6854,1B,8.18013,55.741298
1812158,Ørnevej,6854,1C,8.180419,55.741528
1812162,Ørnevej,6854,2,8.1804055,55.7409902
1812165,Ørnevej,6854,3,8.180909,55.741978
1812168,Ørnevej,6854,4,8.180845,55.741071
1812171,Ørnevej,6854,5,8.180952,55.74226
1812174,Ørnevej,6854,6A,8.1810118,55.7415804
1812176,Ørnevej,6854,6B,8.181077,55.741637
1812178,Ørnevej,6854,7,8.181253,55.742391
1812180,Ørnevej,6854,8,8.182368,55.743047
1812181,Ørnevej,6854,9,8.181379,55.743005
1812184,Ørnevej,6854,10,8.1826259,55.7432856
1812186,Ørnevej,6854,11,8.1815919,55.7431857
1812188,Ørnevej,6854,12,8.183442,55.743189
1812190,Ørnevej,6854,13,8.1811317,55.7437146
1812193,Ørnevej,6854,15,8.1815654,55.7436904
1812195,Ørnevej,6854,17,8.1819406,55.7439468
1812197,Ørnevej,6854,19,8.181262,55.744273
1812198,Ørnevej,6854,21,8.18122,55.744697
1812200,Ørnevej,6854,23,8.1816017,55.7445059
1812203,Ørnevej,6854,25,8.181986,55.744484
1812204,Ørnevej,6854,27,8.1824144,55.7443203
1812207,Ørnevej,6854,29,8.182639,55.744103
1812209,Ørnevej,6854,31,8.1825924,55.7438157
1812210,Ørnevej,6854,33,8.182469,55.743521
1812213,Ørnevej,6854,35,8.183021,55.743548
1813170,Blåbjergvej,6854,130,8.247132,55.734272
1813171,Blåbjergvej,6854,140,8.246397,55.732947
1813172,Blåbjergvej,6854,160,8.24995,55.726907
1814707,Timianvej,6854,1,8.178095,55.731574
1814709,Timianvej,6854,3,8.17865,55.731473
1814712,Timianvej,6854,5,8.1790674,55.7313616
1814713,Timianvej,6854,6,8.17758,55.731316
1814719,Timianvej,6854,7,8.179099,55.731178
1814723,Timianvej,6854,8,8.177748,55.730571
1814725,Timianvej,6854,9,8.179204,55.730942
1814730,Timianvej,6854,10,8.178093,55.731208
1814736,Timianvej,6854,11,8.179245,55.730667
1814739,Timianvej,6854,12,8.1785094,55.731068
1814744,Timianvej,6854,13,8.179168,55.73039
1814750,Timianvej,6854,14,8.178615,55.7308
1814753,Timianvej,6854,15,8.17924,55.730146
1814756,Timianvej,6854,16,8.1785798,55.7305763
1814757,Timianvej,6854,17,8.179277,55.72989
1814758,Timianvej,6854,18,8.178477,55.730142
1814759,Timianvej,6854,19,8.179351,55.729717
1814760,Timianvej,6854,20,8.178734,55.729937
1814761,Timianvej,6854,21,8.179449,55.729466
1814762,Timianvej,6854,22,8.1788046,55.7296611
1814763,Timianvej,6854,23,8.179272,55.729273
1814764,Timianvej,6854,24,8.177167,55.729588
1814765,Timianvej,6854,25,8.178848,55.729189
1814766,Timianvej,6854,26,8.177263,55.729346
1814767,Timianvej,6854,28,8.1770391,55.7290829
1814768,Timianvej,6854,30,8.1768447,55.7288373
1817815,Rylevej,6854,1,8.181458,55.74018
1817821,Rylevej,6854,2,8.1825111,55.7403122
1817824,Rylevej,6854,3,8.18113,55.740147
1817829,Rylevej,6854,4,8.182374,55.740609
1817834,Rylevej,6854,5,8.18077,55.740125
1817837,Rylevej,6854,6,8.1818819,55.7404184
1817841,Rylevej,6854,7,8.180758,55.740336
1817846,Rylevej,6854,8,8.182004,55.740727
1817847,Rylevej,6854,9,8.1804045,55.7400634
1817851,Rylevej,6854,11,8.1803186,55.7403784
1817854,Rylevej,6854,12,8.181554,55.740589
1817856,Rylevej,6854,13,8.179949,55.740372
1817861,Rylevej,6854,14,8.181447,55.7408328
1817864,Rylevej,6854,15,8.17887,55.741136
1817870,Rylevej,6854,16,8.1811233,55.7408626
1817875,Rylevej,6854,17,8.1785658,55.7411316
1817878,Rylevej,6854,18,8.1805788,55.7408632
1817883,Rylevej,6854,19,8.1783486,55.7411546
1817887,Rylevej,6854,20,8.1803841,55.7406829
1817891,Rylevej,6854,21,8.17829,55.741337
1817894,Rylevej,6854,22,8.1793538,55.7414758
1817898,Rylevej,6854,23,8.178002,55.741473
1817901,Rylevej,6854,27,8.177678,55.741607
1819972,Fuutvej,6854,2,8.20848,55.735392
1819974,Fuutvej,6854,4,8.209025,55.735345
1819975,Fuutvej,6854,6,8.209529,55.735302
1819977,Fuutvej,6854,8,8.209883,55.735214
1819978,Fuutvej,6854,10,8.210361,55.735171
1819980,Fuutvej,6854,12,8.210702,55.735144
1819982,Fuutvej,6854,14,8.211338,55.735055
1819983,Fuutvej,6854,16,8.211649,55.73503
1819984,Fuutvej,6854,18,8.2121,55.734972
1819986,Fuutvej,6854,19,8.21288,55.735138
1819987,Fuutvej,6854,20,8.212663,55.734862
1819988,Fuutvej,6854,21,8.213201,55.735385
1819990,Fuutvej,6854,22,8.21333,55.734809
1819991,Fuutvej,6854,23,8.213422,55.735605
1819992,Fuutvej,6854,24,8.214154,55.735035
1819993,Fuutvej,6854,25,8.213673,55.735783
1819994,Fuutvej,6854,26,8.214074,55.735282
1819995,Fuutvej,6854,27,8.213874,55.735974
1819996,Fuutvej,6854,28,8.214237,55.735494
1819997,Fuutvej,6854,29,8.214033,55.736272
1819998,Fuutvej,6854,30,8.214381,55.735678
1819999,Fuutvej,6854,32,8.215031,55.735897
1820000,Fuutvej,6854,34,8.21497,55.736073
1821511,Falkevej,6854,1,8.179391,55.742288
1821512,Falkevej,6854,2,8.180095,55.742046
1821513,Falkevej,6854,3,8.179853,55.742314
1821514,Falkevej,6854,4,8.180418,55.742257
1821515,Falkevej,6854,5,8.179839,55.742482
1821516,Falkevej,6854,6,8.180491,55.742549
1821517,Falkevej,6854,7,8.178767,55.742357
1821518,Falkevej,6854,8,8.180241,55.742648
1821519,Falkevej,6854,9,8.179078,55.742495
1821520,Falkevej,6854,10,8.179807,55.742709
1821521,Falkevej,6854,11,8.179335,55.742657
1821522,Falkevej,6854,12,8.179455,55.742893
1821523,Falkevej,6854,13,8.179049,55.742688
1821524,Falkevej,6854,14,8.179337,55.74312
1821525,Falkevej,6854,15,8.178523,55.742745
1821526,Falkevej,6854,16,8.178834,55.743147
1821527,Falkevej,6854,17,8.178786,55.74291
1821528,Falkevej,6854,18,8.178391,55.74333
1821529,Falkevej,6854,19,8.178285,55.742931
1821530,Falkevej,6854,21,8.177894,55.742905
1821531,Falkevej,6854,23,8.177411,55.743038
1821532,Falkevej,6854,25,8.177685,55.743462
1822418,Blåbærvej,6854,1A,8.178002,55.735537
1822421,Blåbærvej,6854,1B,8.178558,55.735807
1822422,Blåbærvej,6854,2,8.178321,55.735189
1822426,Blåbærvej,6854,3A,8.179066,55.735617
1822428,Blåbærvej,6854,3B,8.17913,55.736129
1822431,Blåbærvej,6854,3C,8.179752,55.73601
1822435,Blåbærvej,6854,3D,8.17957,55.735691
1822436,Blåbærvej,6854,4,8.178744,55.735063
1822439,Blåbærvej,6854,5,8.179948,55.735536
1822444,Blåbærvej,6854,7,8.18048,55.735256
1822445,Blåbærvej,6854,8,8.179375,55.735138
1822448,Blåbærvej,6854,9,8.180936,55.735148
1822449,Blåbærvej,6854,10,8.178703,55.73465
1822452,Blåbærvej,6854,11,8.181268,55.735094
1822456,Blåbærvej,6854,12,8.179194,55.734671
1822459,Blåbærvej,6854,13,8.181079,55.734775
1822461,Blåbærvej,6854,14,8.179344,55.73442
1822465,Blåbærvej,6854,15,8.181669,55.734816
1822466,Blåbærvej,6854,16,8.179703,55.73488
1822469,Blåbærvej,6854,17,8.183198,55.733482
1822472,Blåbærvej,6854,18,8.179865,55.73457
1822474,Blåbærvej,6854,19,8.183684,55.73337
1822477,Blåbærvej,6854,20,8.180286,55.734466
1822479,Blåbærvej,6854,21,8.184491,55.733355
1822482,Blåbærvej,6854,22,8.181304,55.734161
1822484,Blåbærvej,6854,24,8.181813,55.733665
1822549,Tranebærvej,6854,1,8.188389,55.734108
1822551,Tranebærvej,6854,2,8.187537,55.734605
1822553,Tranebærvej,6854,4,8.187068,55.734592
1822556,Tranebærvej,6854,5,8.188628,55.733508
1822557,Tranebærvej,6854,6,8.18653,55.7346322
1822559,Tranebærvej,6854,8,8.186207,55.734811
1822562,Tranebærvej,6854,10,8.185708,55.734903
1822563,Tranebærvej,6854,11,8.190176,55.732727
1822566,Tranebærvej,6854,13,8.189902,55.732459
1822567,Tranebærvej,6854,19,8.190679,55.731374
1822569,Tranebærvej,6854,20,8.186941,55.734186
1822572,Tranebærvej,6854,21,8.190979,55.731126
1822574,Tranebærvej,6854,22,8.189141,55.732456
1822575,Tranebærvej,6854,23,8.19186,55.730931
1822577,Tranebærvej,6854,24,8.189387,55.732175
1822579,Tranebærvej,6854,25,8.1907563,55.7307083
1822580,Tranebærvej,6854,26,8.188924,55.732046
1822583,Tranebærvej,6854,28,8.1890538,55.7317731
1822584,Tranebærvej,6854,30,8.189658,55.731862
1822586,Tranebærvej,6854,32,8.1894461,55.7315571
1822588,Tranebærvej,6854,34,8.1895278,55.7312099
1822589,Tranebærvej,6854,36,8.1899651,55.7312864
1822590,Tranebærvej,6854,38,8.189605,55.730948
1822591,Tranebærvej,6854,40,8.189993,55.730898
1822898,Rævestien,6854,1,8.2143983,55.7367212
1822899,Rævestien,6854,2A,8.214988,55.736557
1822900,Rævestien,6854,2B,8.215595,55.736598
1822901,Rævestien,6854,3,8.2137992,55.7367864
1822902,Rævestien,6854,4,8.2151418,55.7368577
1822903,Rævestien,6854,5,8.213445,55.73685
1822904,Rævestien,6854,6,8.215423,55.737133
1822905,Rævestien,6854,7,8.212699,55.736939
1822906,Rævestien,6854,8,8.2155882,55.7374697
1822907,Rævestien,6854,9A,8.21249,55.737115
1822908,Rævestien,6854,9B,8.2127507,55.7372576
1822909,Rævestien,6854,10,8.2153847,55.7377971
1822910,Rævestien,6854,11,8.2129835,55.7375132
1822911,Rævestien,6854,12,8.215478,55.738114
1822912,Rævestien,6854,13,8.213441,55.737742
1822913,Rævestien,6854,14,8.2153521,55.7384816
1822914,Rævestien,6854,15,8.2139083,55.7376522
1822915,Rævestien,6854,17,8.213514,55.737273
1822916,Rævestien,6854,19,8.2141372,55.7372312
1822917,Rævestien,6854,21,8.2145501,55.7370074
1822918,Rævestien,6854,23,8.214613,55.7374336
1822919,Rævestien,6854,25,8.21448,55.737871
1822920,Rævestien,6854,27,8.214417,55.738173
1822921,Rævestien,6854,29,8.214542,55.73838
2104332,Klitvej,6854,1A,8.178033,55.739739
2104333,Klitvej,6854,1B,8.17789,55.73978
2104334,Klitvej,6854,2,8.176986,55.740885
2104335,Klitvej,6854,3,8.177883,55.740025
2104336,Klitvej,6854,4,8.174845,55.741523
2104337,Klitvej,6854,5A,8.177974,55.74018
2104338,Klitvej,6854,5B,8.177822,55.740241
2104339,Klitvej,6854,6,8.17477,55.741812
2104340,Klitvej,6854,7,8.177422,55.74036
2104341,Klitvej,6854,8,8.173962,55.742048
2104342,Klitvej,6854,10,8.1744,55.742007
2104343,Klitvej,6854,11,8.177029,55.74047
2104344,Klitvej,6854,13,8.176201,55.740549
2104345,Klitvej,6854,17,8.174974,55.740626
2104346,Klitvej,6854,19,8.175087,55.740984
2104347,Klitvej,6854,21,8.174317,55.740912
2104348,Klitvej,6854,21A,8.173861,55.740957
2104349,Klitvej,6854,21B,8.173694,55.741202
2104350,Klitvej,6854,23,8.174485,55.741354
2232944,Strandvejen,6854,438A,8.18049,55.739625
2232945,Strandvejen,6854,438B,8.180459,55.739636
2232946,Strandvejen,6854,438C,8.180429,55.739648
2232947,Strandvejen,6854,440A,8.180402,55.739513
2232948,Strandvejen,6854,440B,8.18038,55.739521
2232949,Strandvejen,6854,440C,8.180366,55.739526
2233032,Gejlbjergvej,6854,55,8.182316,55.727112
2233147,Kirkebyvej,6854,8A,8.246359,55.726973
2233155,Ternevej,6854,1A,8.183894,55.746898
2250784,Klitvej,6854,23A,8.173765,55.741469
2250800,Ternevej,6854,1B,8.183635,55.747149
