idx,street,postcode,housenumber,lon,lat
1537984,Bygade,7173,1,9.410937,55.862671
1537985,Bygade,7173,3,9.41178,55.86301
1537986,Bygade,7173,4,9.411659,55.862365
1537987,Bygade,7173,5,9.4116043,55.8625592
1537988,Bygade,7173,7,9.412109,55.862594
1537989,Bygade,7173,9,9.412387,55.862503
1537990,Bygade,7173,11,9.413048,55.86305
1537991,Bygade,7173,16,9.413919,55.86185
1537992,Bygade,7173,17,9.414345,55.861925
1537993,Bygade,7173,18,9.414403,55.861719
1537994,Bygade,7173,19,9.414556,55.861855
1537995,Bygade,7173,20,9.414611,55.861649
1537996,Bygade,7173,21,9.414736,55.861793
1537997,Bygade,7173,22,9.414814,55.861578
1537998,Bygade,7173,23,9.414901,55.861741
1537999,Bygade,7173,24,9.415272,55.861438
1538000,Bygade,7173,25,9.415038,55.861688
1538001,Bygade,7173,26,9.415636,55.861315
1538002,Bygade,7173,26A,9.415709,55.861282
1538003,Bygade,7173,26B,9.415561,55.861249
1538004,Bygade,7173,27,9.415208,55.861635
1538005,Bygade,7173,29,9.415334,55.861591
1538006,Bygade,7173,30,9.416024,55.861148
1538007,Bygade,7173,31,9.415492,55.861539
1538008,Bygade,7173,32A,9.416202,55.861058
1538009,Bygade,7173,32B,9.416051,55.860585
1538010,Bygade,7173,33,9.415693,55.861469
1538011,Bygade,7173,34,9.416421,55.860908
1538012,Bygade,7173,35,9.415898,55.861398
1538013,Bygade,7173,36,9.416704,55.860758
1538014,Bygade,7173,37A,9.416083,55.861324
1538015,Bygade,7173,37B,9.41625,55.861488
1538016,Bygade,7173,38,9.417098,55.860536
1538017,Bygade,7173,39,9.416411,55.861178
1538018,Bygade,7173,40,9.417444,55.86035
1538019,Bygade,7173,41,9.416646,55.861045
1538020,Bygade,7173,42A,9.417594,55.860269
1538021,Bygade,7173,42B,9.417704,55.860214
1538022,Bygade,7173,43A,9.41734,55.861417
1538023,Bygade,7173,43B,9.41778,55.861655
1538024,Bygade,7173,43C,9.417416,55.861761
1538025,Bygade,7173,43D,9.4192,55.8615699
1538026,Bygade,7173,44,9.41786,55.860138
1538027,Bygade,7173,45A,9.417589,55.861232
1538028,Bygade,7173,45B,9.418011,55.861384
1538029,Bygade,7173,46,9.418066,55.860032
1538030,Bygade,7173,47,9.41748,55.861042
1538031,Bygade,7173,49,9.417279,55.860691
1538032,Bygade,7173,50,9.417682,55.859337
1538033,Bygade,7173,51A,9.417616,55.860514
1538034,Bygade,7173,51B,9.417777,55.860511
1538035,Bygade,7173,51C,9.417568,55.860589
1538036,Bygade,7173,51D,9.417745,55.860573
1538037,Bygade,7173,51E,9.417663,55.860632
1538038,Bygade,7173,53,9.417815,55.860416
1538039,Bygade,7173,54,9.418299,55.859845
1538040,Bygade,7173,55,9.417994,55.860328
1538041,Bygade,7173,56,9.418513,55.859775
1538042,Bygade,7173,57,9.418199,55.860267
1538043,Bygade,7173,58,9.418643,55.859542
1538044,Bygade,7173,59,9.41842,55.860116
1538045,Bygade,7173,60,9.418882,55.859652
1538046,Bygade,7173,62A,9.419115,55.859575
1538047,Bygade,7173,62B,9.419451,55.859027
1538048,Bygade,7173,62C,9.418855,55.85667
1538049,Bygade,7173,64,9.419461,55.859459
1538050,Bygade,7173,65,9.418891,55.859913
1538051,Bygade,7173,66,9.419759,55.859354
1538052,Bygade,7173,67,9.419233,55.85979
1538053,Bygade,7173,68,9.420071,55.859239
1538054,Bygade,7173,69,9.419468,55.859702
1538055,Bygade,7173,70,9.420358,55.859196
1538056,Bygade,7173,71,9.419861,55.859786
1538057,Bygade,7173,72,9.420717,55.859056
1538058,Bygade,7173,73,9.419839,55.85957
1538059,Bygade,7173,74,9.420983,55.85895
1538060,Bygade,7173,75,9.420058,55.859509
1538061,Bygade,7173,76,9.4211849,55.8587449
1538062,Bygade,7173,77,9.420389,55.859394
1538063,Bygade,7173,78,9.421372,55.858423
1538064,Bygade,7173,79,9.420628,55.859315
1538065,Bygade,7173,80,9.422336,55.85843
1538066,Bygade,7173,81,9.420885,55.859228
1538067,Bygade,7173,82,9.422704,55.858146
1538068,Bygade,7173,83,9.421374,55.859249
1538069,Bygade,7173,84,9.423293,55.857396
1538070,Bygade,7173,85,9.421647,55.858982
1538071,Bygade,7173,86,9.424245,55.857103
1538072,Bygade,7173,87,9.422049,55.858814
1538073,Bygade,7173,88,9.4242868,55.8569055
1538074,Bygade,7173,89,9.422388,55.858655
1538075,Bygade,7173,90A,9.424651,55.857279
1538076,Bygade,7173,90B,9.424777,55.857266
1538077,Bygade,7173,91,9.422773,55.858596
1538078,Bygade,7173,92,9.424996,55.857238
1538079,Bygade,7173,93,9.422875,55.858453
1538080,Bygade,7173,94,9.425154,55.857168
1538081,Bygade,7173,95,9.423029,55.858391
1538082,Bygade,7173,96,9.425467,55.857089
1538083,Bygade,7173,97,9.423592,55.858135
1538084,Bygade,7173,99,9.424459,55.857764
1538085,Bygade,7173,100,9.426006,55.856797
1538086,Bygade,7173,101,9.425233,55.857616
1538087,Bygade,7173,103,9.425935,55.857309
1538088,Bygade,7173,105,9.426472,55.857016
1538089,Bygade,7173,107,9.426668,55.856928
1538090,Bygade,7173,109,9.427316,55.856578
1538091,Bygade,7173,111,9.4277933,55.856272
1538092,Bygade,7173,113,9.4237748,55.8585908
1538405,Hærvejen,7173,313,9.380918,55.893709
1538406,Hærvejen,7173,315,9.381232,55.893666
1538407,Hærvejen,7173,317,9.37891,55.897959
1677324,Tinnetvej,7173,1,9.416315,55.862102
1677326,Tinnetvej,7173,2A,9.416522,55.861349
1677329,Tinnetvej,7173,2B,9.416547,55.861421
1677330,Tinnetvej,7173,2C,9.416742,55.861817
1677332,Tinnetvej,7173,2D,9.41687,55.861792
1677334,Tinnetvej,7173,2E,9.416981,55.861764
1677336,Tinnetvej,7173,4,9.41688,55.86199
1677338,Tinnetvej,7173,6,9.417249,55.862163
1677339,Tinnetvej,7173,8,9.417145,55.86236
1677341,Tinnetvej,7173,10,9.417259,55.862747
1677342,Tinnetvej,7173,12,9.41723,55.862936
1677345,Tinnetvej,7173,13,9.4168569,55.8630482
1677347,Tinnetvej,7173,14,9.417155,55.863115
1677348,Tinnetvej,7173,16,9.4171342,55.8633303
1677351,Tinnetvej,7173,18,9.41711,55.863537
1677353,Tinnetvej,7173,20,9.417061,55.863761
1677355,Tinnetvej,7173,22,9.417074,55.864004
1677357,Tinnetvej,7173,24,9.417042,55.864219
1677358,Tinnetvej,7173,26,9.417032,55.864436
1677361,Tinnetvej,7173,28,9.4170276,55.8646011
1677365,Tinnetvej,7173,31,9.416238,55.865154
1677366,Tinnetvej,7173,32,9.421601,55.866536
1677369,Tinnetvej,7173,33,9.413596,55.869557
1677373,Tinnetvej,7173,34,9.417045,55.870282
1677375,Tinnetvej,7173,35,9.410917,55.871646
1677378,Tinnetvej,7173,37,9.409905,55.875536
1677380,Tinnetvej,7173,39,9.409094,55.881197
1677381,Tinnetvej,7173,41,9.405458,55.881644
1677386,Tinnetvej,7173,42,9.406912,55.88409
1677387,Tinnetvej,7173,44,9.406685,55.884456
1677391,Tinnetvej,7173,46,9.406483,55.88467
1677393,Tinnetvej,7173,47,9.405734,55.88506
1677395,Tinnetvej,7173,48,9.406282,55.8851
1677397,Tinnetvej,7173,50,9.406216,55.88527
1677398,Tinnetvej,7173,54,9.406214,55.885638
1677399,Tinnetvej,7173,56,9.406284,55.885844
1677400,Tinnetvej,7173,57,9.405451,55.886207
1677401,Tinnetvej,7173,62,9.40529,55.890625
1677402,Tinnetvej,7173,64,9.412413,55.891598
1677403,Tinnetvej,7173,66,9.403042,55.89103
1677404,Tinnetvej,7173,67,9.398285,55.8918
1677405,Tinnetvej,7173,68,9.398636,55.893959
1677406,Tinnetvej,7173,70,9.393729,55.900226
1677407,Tinnetvej,7173,71,9.383421,55.900277
1677408,Tinnetvej,7173,72,9.384661,55.901626
1677409,Tinnetvej,7173,73,9.3803625,55.9000493
1677412,Tinnetvej,7173,74,9.3754783,55.9046686
1682227,Kollemortenvej,7173,2,9.408863,55.863086
1682228,Kollemortenvej,7173,4,9.407155,55.864419
1682231,Kollemortenvej,7173,6,9.4045,55.865063
1682232,Kollemortenvej,7173,8,9.405893,55.867384
1682233,Kollemortenvej,7173,9,9.4035053,55.8634442
1682234,Kollemortenvej,7173,11,9.39877,55.863131
1682683,Nordvangen,7173,1,9.418736,55.860528
1682684,Nordvangen,7173,2,9.419417,55.860402
1682686,Nordvangen,7173,3,9.4187284,55.8610516
1682688,Nordvangen,7173,4,9.419831,55.860342
1682690,Nordvangen,7173,6,9.420168,55.860219
1682692,Nordvangen,7173,8,9.420623,55.860097
1682694,Nordvangen,7173,10,9.421008,55.859965
1682697,Nordvangen,7173,12A,9.421457,55.859807
1682701,Nordvangen,7173,12B,9.422173,55.859561
1682704,Nordvangen,7173,14,9.422633,55.859816
1682709,Nordvangen,7173,16,9.422186,55.859876
1682713,Nordvangen,7173,17,9.421836,55.86143
1682720,Nordvangen,7173,18,9.421816,55.859954
1682723,Nordvangen,7173,19,9.422052,55.861582
1682727,Nordvangen,7173,20,9.421395,55.860193
1682730,Nordvangen,7173,21,9.422399,55.86171
1682734,Nordvangen,7173,22,9.421533,55.860409
1682737,Nordvangen,7173,23,9.422757,55.861686
1682740,Nordvangen,7173,24,9.421311,55.860542
1682747,Nordvangen,7173,25,9.423236,55.861447
1682751,Nordvangen,7173,26,9.421009,55.860414
1682759,Nordvangen,7173,27,9.423599,55.861315
1682762,Nordvangen,7173,28,9.420498,55.860428
1682767,Nordvangen,7173,29,9.4240633,55.8613274
1682771,Nordvangen,7173,30,9.420696,55.860762
1682773,Nordvangen,7173,31,9.42394,55.861147
1682777,Nordvangen,7173,32,9.420351,55.860885
1682780,Nordvangen,7173,33,9.423787,55.860948
1682785,Nordvangen,7173,34,9.419972,55.860631
1682786,Nordvangen,7173,35,9.423362,55.861052
1682791,Nordvangen,7173,36,9.420857,55.861042
1682796,Nordvangen,7173,37,9.42305,55.861203
1682799,Nordvangen,7173,38,9.421302,55.860982
1682803,Nordvangen,7173,39,9.42279,55.861326
1682804,Nordvangen,7173,40,9.421624,55.860877
1682809,Nordvangen,7173,41,9.422337,55.861314
1682810,Nordvangen,7173,42,9.421987,55.860754
1682813,Nordvangen,7173,43,9.421966,55.861078
1682816,Nordvangen,7173,44,9.422331,55.86064
1682817,Nordvangen,7173,45,9.422629,55.860885
1682821,Nordvangen,7173,46,9.42234,55.860272
1682822,Nordvangen,7173,47,9.422985,55.860807
1682824,Nordvangen,7173,48,9.42263,55.860113
1682827,Nordvangen,7173,49,9.423401,55.86064
1682831,Nordvangen,7173,50,9.42297,55.860205
1682837,Nordvangen,7173,51,9.423183,55.860431
1694894,Mølgårdvej,7173,1,9.425317,55.858795
1694895,Mølgårdvej,7173,2,9.425511,55.858154
1694896,Mølgårdvej,7173,3,9.425626,55.859983
1694897,Mølgårdvej,7173,7,9.426227,55.8607
1694898,Mølgårdvej,7173,8C,9.4274307,55.8596547
1694899,Mølgårdvej,7173,18,9.427846,55.862147
1694900,Mølgårdvej,7173,21,9.431322,55.864941
1694901,Mølgårdvej,7173,22,9.433404,55.864454
1694902,Mølgårdvej,7173,23,9.432852,55.86692
1694903,Mølgårdvej,7173,24,9.434955,55.869712
1694904,Mølgårdvej,7173,25,9.432942,55.871421
1694905,Mølgårdvej,7173,26,9.4374927,55.8706296
1694906,Mølgårdvej,7173,27,9.431337,55.873699
1694907,Mølgårdvej,7173,28,9.433336,55.874388
1694908,Mølgårdvej,7173,29,9.425858,55.875058
1694909,Mølgårdvej,7173,31,9.423337,55.873125
1694910,Mølgårdvej,7173,33,9.4253689,55.8726926
1694911,Mølgårdvej,7173,35,9.423939,55.875061
1694912,Mølgårdvej,7173,37,9.422703,55.875186
1694913,Mølgårdvej,7173,39,9.421351,55.875301
1694914,Mølgårdvej,7173,40,9.419967,55.878794
1694915,Mølgårdvej,7173,41,9.416593,55.874534
1695435,Vonge Skovvej,7173,1,9.422214,55.858915
1695437,Vonge Skovvej,7173,2,9.422612,55.859017
1695439,Vonge Skovvej,7173,3,9.422351,55.85905
1695441,Vonge Skovvej,7173,4,9.422781,55.859171
1695443,Vonge Skovvej,7173,5,9.42245,55.859267
1695444,Vonge Skovvej,7173,6,9.4229585,55.8593173
1695445,Vonge Skovvej,7173,8,9.423464,55.85972
1695446,Vonge Skovvej,7173,9,9.4248261,55.8615339
1695447,Vonge Skovvej,7173,11,9.4244446,55.8617226
1695448,Vonge Skovvej,7173,12,9.424002,55.860249
1695449,Vonge Skovvej,7173,13,9.427625,55.8615743
1695450,Vonge Skovvej,7173,14,9.424247,55.860422
1695451,Vonge Skovvej,7173,15,9.4285482,55.8613886
1695452,Vonge Skovvej,7173,16,9.4246548,55.8607841
1695453,Vonge Skovvej,7173,18,9.425151,55.861075
1695454,Vonge Skovvej,7173,19,9.4296816,55.8629329
1695455,Vonge Skovvej,7173,20,9.425528,55.861267
1695457,Vonge Skovvej,7173,21,9.43304,55.861568
1695458,Vonge Skovvej,7173,22,9.4279307,55.8612033
1695460,Vonge Skovvej,7173,23,9.434812,55.861468
1695461,Vonge Skovvej,7173,24,9.434175,55.859771
1695462,Vonge Skovvej,7173,25,9.436571,55.861226
1695463,Vonge Skovvej,7173,27,9.441031,55.860506
1696436,Springbankevej,7173,3,9.404389,55.878779
1696439,Springbankevej,7173,5,9.398502,55.880439
1696440,Springbankevej,7173,6,9.392074,55.881196
1696442,Springbankevej,7173,8,9.381023,55.881511
1696613,Lærkevej,7173,1,9.4181,55.8627
1696617,Lærkevej,7173,2,9.418623,55.862507
1696620,Lærkevej,7173,3,9.417998,55.862942
1696622,Lærkevej,7173,4,9.41855,55.862731
1696626,Lærkevej,7173,5,9.418021,55.863176
1696628,Lærkevej,7173,6,9.418557,55.862937
1696633,Lærkevej,7173,7,9.417969,55.863373
1696634,Lærkevej,7173,8,9.418454,55.863179
1696639,Lærkevej,7173,9,9.417956,55.863606
1696640,Lærkevej,7173,10,9.418487,55.863395
1696645,Lærkevej,7173,11,9.417911,55.863777
1696646,Lærkevej,7173,12,9.418398,55.863592
1696648,Lærkevej,7173,13,9.417917,55.864019
1696651,Lærkevej,7173,14,9.418363,55.863816
1696652,Lærkevej,7173,15,9.41789,55.864217
1696654,Lærkevej,7173,16,9.41834,55.86404
1696657,Lærkevej,7173,17,9.417925,55.864432
1696659,Lærkevej,7173,18,9.418456,55.864266
1696662,Lærkevej,7173,20,9.418347,55.864481
1699175,Skolestien,7173,1,9.416226,55.862515
1699176,Skolestien,7173,2,9.4167048,55.8627004
1699177,Skolestien,7173,3,9.415901,55.86262
1699178,Skolestien,7173,4,9.4163637,55.8627737
1699179,Skolestien,7173,5,9.415573,55.862698
1699180,Skolestien,7173,6,9.4160028,55.8628364
1699181,Skolestien,7173,7,9.415335,55.862768
1699182,Skolestien,7173,8A,9.415401,55.862961
1699183,Skolestien,7173,8B,9.415426,55.863011
1699184,Skolestien,7173,9,9.415003,55.862882
1699185,Skolestien,7173,11,9.414655,55.862511
1699186,Skolestien,7173,12,9.414622,55.862987
1699187,Skolestien,7173,13,9.414466,55.862321
1699188,Skolestien,7173,14,9.414309,55.862679
1699189,Skolestien,7173,16,9.414051,55.862399
1699190,Skolestien,7173,18,9.413898,55.862225
1699191,Skolestien,7173,18A,9.413936,55.862274
1699192,Skolestien,7173,18B,9.413807,55.862312
1699292,Sønderhedevej,7173,1A,9.415152,55.860888
1699293,Sønderhedevej,7173,1B,9.4149276,55.8607724
1699295,Sønderhedevej,7173,2,9.415081,55.861097
1699297,Sønderhedevej,7173,3,9.414695,55.860688
1699298,Sønderhedevej,7173,4,9.414995,55.860969
1699299,Sønderhedevej,7173,5,9.414495,55.860597
1699300,Sønderhedevej,7173,6,9.41481,55.860896
1699302,Sønderhedevej,7173,9,9.41375,55.859791
1699303,Sønderhedevej,7173,11,9.409823,55.857012
1699304,Sønderhedevej,7173,14,9.401712,55.851459
1699307,Sønderhedevej,7173,15,9.402461,55.853423
1699308,Sønderhedevej,7173,16,9.395658,55.850144
1699309,Sønderhedevej,7173,17,9.406416,55.84917
1699310,Sønderhedevej,7173,19,9.410459,55.850082
1699313,Sønderhedevej,7173,21,9.402898,55.848046
1699314,Sønderhedevej,7173,23,9.399223,55.847073
1699503,Mindstrupvej,7173,2,9.4274722,55.8273091
1699507,Mindstrupvej,7173,4,9.4173005,55.830709
1699511,Mindstrupvej,7173,6A,9.4167202,55.8305387
1699513,Mindstrupvej,7173,6B,9.416609,55.830532
1699514,Mindstrupvej,7173,7,9.415747,55.829375
1699516,Mindstrupvej,7173,8,9.4127976,55.8337518
1699517,Mindstrupvej,7173,8X,9.411764,55.833611
1699518,Mindstrupvej,7173,9,9.4121385,55.8300277
1701698,Pindborgvej,7173,2,9.399197,55.867929
1701699,Pindborgvej,7173,3,9.394291,55.868844
1702527,Tornparken,7173,1,9.420831,55.862587
1702528,Tornparken,7173,2,9.4206597,55.8622809
1702529,Tornparken,7173,3,9.421289,55.862685
1702530,Tornparken,7173,4,9.42104,55.862301
1702531,Tornparken,7173,6,9.421459,55.862466
1702532,Tornparken,7173,7,9.421377,55.862995
1702533,Tornparken,7173,8,9.421924,55.862577
1702534,Tornparken,7173,11,9.42183,55.862828
1702536,Tornparken,7173,12,9.422767,55.862773
1702538,Tornparken,7173,13,9.422235,55.862939
1702540,Tornparken,7173,14,9.422906,55.86316
1702542,Tornparken,7173,15,9.422241,55.8632
1702901,Grejsdalsvej,7173,1,9.432954,55.852548
1702903,Grejsdalsvej,7173,2,9.4280241,55.8506612
1702905,Grejsdalsvej,7173,4,9.427721,55.849157
1702906,Grejsdalsvej,7173,6,9.433771,55.84588
1702907,Grejsdalsvej,7173,7,9.438289,55.843373
1702908,Grejsdalsvej,7173,9,9.439359,55.84145
1702909,Grejsdalsvej,7173,10,9.436928,55.840057
1702910,Grejsdalsvej,7173,12,9.439035,55.836094
1702911,Grejsdalsvej,7173,14,9.440177,55.835348
1702912,Grejsdalsvej,7173,16,9.440091,55.83515
1702913,Grejsdalsvej,7173,17,9.441211,55.833451
1703006,Møllersvej,7173,2,9.42244,55.857793
1703007,Møllersvej,7173,4,9.422329,55.857604
1703008,Møllersvej,7173,6,9.422276,55.857442
1703009,Møllersvej,7173,8,9.422235,55.857217
1703010,Møllersvej,7173,11,9.4229314,55.8525267
1703014,Møllersvej,7173,12,9.421207,55.851244
1703015,Møllersvej,7173,12B,9.4210475,55.8515064
1703016,Møllersvej,7173,12C,9.4210129,55.8513989
1703017,Møllersvej,7173,13,9.422616,55.848552
1703018,Møllersvej,7173,14,9.417311,55.848519
1703021,Møllersvej,7173,16,9.418041,55.845471
1703024,Møllersvej,7173,16A,9.418057,55.845665
1703026,Møllersvej,7173,17,9.42013,55.84087
1703027,Møllersvej,7173,18,9.413076,55.844152
1703028,Møllersvej,7173,20,9.416197,55.842043
1703735,Haugstrupvej,7173,1,9.447973,55.859661
1703736,Haugstrupvej,7173,3,9.448375,55.860275
1703737,Haugstrupvej,7173,4,9.449202,55.861691
1703738,Haugstrupvej,7173,5,9.445302,55.861248
1703739,Haugstrupvej,7173,6,9.443055,55.864681
1703740,Haugstrupvej,7173,7,9.441337,55.862661
1703741,Haugstrupvej,7173,8,9.441597,55.868505
1703742,Haugstrupvej,7173,9,9.437782,55.866015
1703743,Haugstrupvej,7173,12,9.444823,55.8679
1703752,Grødevej,7173,2,9.392435,55.871342
1703754,Grødevej,7173,4,9.395203,55.871777
1703755,Grødevej,7173,7,9.398873,55.873095
1703756,Grødevej,7173,9,9.397699,55.876005
1703757,Grødevej,7173,11,9.39303,55.878545
1703758,Grødevej,7173,13,9.400402,55.871898
1703759,Grødevej,7173,15,9.402871,55.872955
1703760,Grødevej,7173,16,9.413099,55.873589
1703761,Grødevej,7173,18,9.414022,55.873686
1703772,Elmevej,7173,1,9.417779,55.862626
1703773,Elmevej,7173,2,9.417888,55.862294
1703774,Elmevej,7173,3,9.419678,55.862317
1703775,Elmevej,7173,4,9.418133,55.862224
1703776,Elmevej,7173,5,9.42007,55.862302
1703777,Elmevej,7173,6,9.418446,55.862146
1703778,Elmevej,7173,8,9.419004,55.862123
1703779,Elmevej,7173,10,9.419469,55.861983
1703780,Elmevej,7173,11,9.4208748,55.8616516
1703781,Elmevej,7173,12,9.419884,55.861807
1703792,Knudevej,7173,2,9.4116655,55.8406866
1703793,Knudevej,7173,3,9.4083431,55.8376331
1703794,Knudevej,7173,4,9.410827,55.842807
1703795,Knudevej,7173,5,9.404306,55.8416433
1703796,Knudevej,7173,7,9.3986446,55.8407089
1703797,Knudevej,7173,8,9.4096234,55.8465183
1703798,Knudevej,7173,10,9.406644,55.844793
1703799,Knudevej,7173,12,9.3995006,55.8422788
1703800,Knudevej,7173,14,9.3975983,55.8458477
1703914,Ellegårdsvej,7173,2,9.45317,55.847555
1703915,Ellegårdsvej,7173,4,9.44837,55.848804
1703916,Ellegårdsvej,7173,6A,9.443996,55.850804
1703917,Ellegårdsvej,7173,6B,9.4462271,55.8503257
1703918,Ellegårdsvej,7173,7,9.442111,55.851136
1703919,Ellegårdsvej,7173,8,9.438935,55.851651
1703920,Ellegårdsvej,7173,9,9.4386913,55.849646
1703921,Ellegårdsvej,7173,10,9.434774,55.850011
1703922,Ellegårdsvej,7173,11,9.437658,55.847481
1703923,Ellegårdsvej,7173,13,9.438648,55.847044
1703924,Ellegårdsvej,7173,14,9.43267,55.849303
1704268,Skovborgvej,7173,1,9.414756,55.863509
1704269,Skovborgvej,7173,2,9.414696,55.863787
1704270,Skovborgvej,7173,3,9.414659,55.863544
1704271,Skovborgvej,7173,5,9.414543,55.863579
1704272,Skovborgvej,7173,7,9.414442,55.863615
1704273,Skovborgvej,7173,9,9.414334,55.863641
1704274,Skovborgvej,7173,11,9.414221,55.863703
1704275,Skovborgvej,7173,13,9.414126,55.863729
1704276,Skovborgvej,7173,15,9.414021,55.863764
1704277,Skovborgvej,7173,17,9.41391,55.863799
1704278,Skovborgvej,7173,19,9.413804,55.863834
1704279,Skovborgvej,7173,21,9.413369,55.86393
1704280,Skovborgvej,7173,23,9.413238,55.863973
1704281,Skovborgvej,7173,25,9.4124163,55.8634708
1704714,Ørnsholtvej,7173,1,9.415389,55.881354
1704715,Ørnsholtvej,7173,2,9.416615,55.882334
1704716,Ørnsholtvej,7173,3,9.415446,55.882603
1704717,Ørnsholtvej,7173,4,9.415275,55.883104
1704718,Ørnsholtvej,7173,5,9.422102,55.887218
1704719,Ørnsholtvej,7173,6,9.4144506,55.8830686
1704720,Ørnsholtvej,7173,7,9.4258399,55.8879543
1704825,Nykirkevej,7173,2,9.387029,55.888117
1704826,Nykirkevej,7173,3,9.397302,55.887323
1704827,Nykirkevej,7173,4,9.392411,55.884766
1704828,Nykirkevej,7173,5,9.400227,55.886992
1704829,Nykirkevej,7173,6,9.397925,55.884768
1704830,Nykirkevej,7173,7,9.405092,55.885845
1704831,Nykirkevej,7173,8,9.405028,55.885539
1704851,Mosevej,7173,1,9.405491,55.859785
1704852,Mosevej,7173,2,9.409641,55.860537
1705247,Åsbækvænget,7173,1,9.417184,55.864939
1705249,Åsbækvænget,7173,2,9.417538,55.86496
1705251,Åsbækvænget,7173,3,9.417154,55.865055
1705253,Åsbækvænget,7173,4,9.417462,55.865204
1705254,Åsbækvænget,7173,5,9.417122,55.865181
1705256,Åsbækvænget,7173,6,9.417475,55.865373
1705258,Åsbækvænget,7173,7,9.417087,55.865297
1705260,Åsbækvænget,7173,9,9.417053,55.865423
1705261,Åsbækvænget,7173,11,9.417038,55.865539
1706205,Vestvangen,7173,1A,9.413475,55.862554
1706206,Vestvangen,7173,1B,9.4134,55.86247
1706207,Vestvangen,7173,3A,9.413439,55.862336
1706208,Vestvangen,7173,3B,9.413352,55.862362
1706209,Vestvangen,7173,3C,9.413253,55.862388
1706210,Vestvangen,7173,5A,9.413213,55.862653
1706211,Vestvangen,7173,5B,9.413147,55.862602
1706212,Vestvangen,7173,5C,9.41309,55.86255
1706213,Vestvangen,7173,7A,9.412955,55.862456
1706214,Vestvangen,7173,7B,9.412785,55.862489
1706215,Vestvangen,7173,9A,9.4129199,55.8627844
1706216,Vestvangen,7173,9B,9.412822,55.862813
1706217,Vestvangen,7173,9C,9.412724,55.862842
2079933,Alstedlundvej,7173,2,9.4293961,55.8462297
2079936,Alstedlundvej,7173,3,9.428231,55.844948
2079937,Alstedlundvej,7173,4,9.425124,55.845319
2080077,Vongevej,7173,49,9.440217,55.856089
2080080,Vongevej,7173,51,9.437518,55.855233
2080081,Vongevej,7173,52,9.435558,55.855964
2080083,Vongevej,7173,54,9.428534,55.855856
2080781,Assenholtvej,7173,1,9.419927,55.862848
2080782,Assenholtvej,7173,2,9.42364,55.863588
2080785,Assenholtvej,7173,3,9.424892,55.865035
2080787,Assenholtvej,7173,4,9.423386,55.863147
2082475,Hammer Møllevej,7173,6,9.429347,55.880897
2082476,Hammer Møllevej,7173,6A,9.425836,55.883493
2082477,Hammer Møllevej,7173,7,9.435934,55.88228
2082478,Hammer Møllevej,7173,8,9.429031,55.87952
2082479,Hammer Møllevej,7173,10,9.429162,55.876997
2086932,Vestervangsvej,7173,2,9.406211,55.875155
2086934,Vestervangsvej,7173,3,9.404539,55.876247
2086936,Vestervangsvej,7173,5,9.40152,55.877112
2088569,Alsted Markvej,7173,1,9.4424836,55.8446178
2088570,Alsted Markvej,7173,3,9.45055,55.845784
2088571,Alsted Markvej,7173,4,9.452173,55.846156
2089151,Hammervej,7173,28,9.4014872,55.8985446
2089153,Hammervej,7173,29,9.397662,55.899098
2089366,Mindstrup Skovvej,7173,1,9.4236475,55.8311779
2089370,Mindstrup Skovvej,7173,3,9.439318,55.834913
2089371,Mindstrup Skovvej,7173,4,9.4400157,55.8347773
2089417,Lille Skovvej,7173,1,9.4305608,55.8587791
2089418,Lille Skovvej,7173,3,9.4389911,55.8590196
2089537,Bjerrevej,7173,1,9.4178688,55.8402503
2089539,Bjerrevej,7173,2,9.417574,55.839217
2091111,Vandskellet,7173,2,9.391941,55.896295
2091113,Vandskellet,7173,3,9.393155,55.896206
2091115,Vandskellet,7173,8,9.399522,55.902982
2094290,Korsbjergvej,7173,1,9.427029,55.870181
2125107,Kastanievænget,7173,1,9.4209,55.863184
2125112,Kastanievænget,7173,2,9.421276,55.863418
2125114,Kastanievænget,7173,3,9.420698,55.863445
2125119,Kastanievænget,7173,4,9.4213231,55.8636416
2125124,Kastanievænget,7173,5,9.420592,55.863718
2125127,Kastanievænget,7173,6,9.420831,55.863947
2125134,Kastanievænget,7173,7,9.4198887,55.8638579
2125135,Kastanievænget,7173,8,9.420324,55.864025
2125142,Kastanievænget,7173,9,9.4194816,55.8639772
2125148,Kastanievænget,7173,10,9.4198448,55.8641199
2125150,Kastanievænget,7173,11,9.419319,55.8642147
2125159,Kastanievænget,7173,13,9.419278,55.8645362
2127769,Pilevænget,7173,1,9.424305,55.863482
2127772,Pilevænget,7173,2,9.424756,55.863303
2127775,Pilevænget,7173,3,9.4254453,55.8633399
2127781,Pilevænget,7173,4,9.425749,55.863536
2127782,Pilevænget,7173,5,9.42602,55.863671
2127788,Pilevænget,7173,6,9.425798,55.863854
2127791,Pilevænget,7173,7,9.4253569,55.8639612
2127798,Pilevænget,7173,9,9.424649,55.863833
2127804,Pilevænget,7173,10,9.424171,55.863958
2190954,Pindborgvej,7173,4,9.400749,55.868191
2191359,Bygade,7173,28A,9.415738,55.861195
2191360,Bygade,7173,28B,9.41588,55.861226
2232550,Tinnetvej,7173,49A,9.405825,55.885348
2232551,Tinnetvej,7173,49B,9.405798,55.885452
2251745,Nordvangen,7173,15,9.421546,55.861257
2251817,Vonge Skovvej,7173,8X,9.42343,55.859066
