idx,street,postcode,housenumber,lon,lat
608240,Gedhusvej,7451,6B,9.0346125,56.2674972
736056,Birkeskovvej,7451,2,9.0887302,56.2384738
736057,Birkeskovvej,7451,3,9.0893846,56.2386783
736058,Birkeskovvej,7451,4,9.0890067,56.2384048
736059,Birkeskovvej,7451,5,9.0896937,56.2386006
736060,Birkeskovvej,7451,6,9.0896934,56.2382694
736061,Birkeskovvej,7451,7,9.0900061,56.2384242
736062,Birkeskovvej,7451,8,9.0897914,56.2382458
736063,Birkeskovvej,7451,10,9.089902,56.2382189
736064,Birkevej,7451,1,9.019119,56.204976
736065,Birkevej,7451,2,9.0191169,56.2045901
736066,Birkevej,7451,3,9.0194274,56.2049259
736067,Birkevej,7451,4,9.0194417,56.2045219
736068,Birkevej,7451,5,9.0196719,56.2048478
736069,Birkevej,7451,6,9.0197822,56.2044627
736070,Birkevej,7451,7,9.0198507,56.2048048
736071,Birkevej,7451,8,9.0200735,56.20443
736072,Birkevej,7451,9,9.0200453,56.204771
736073,Birkevej,7451,10,9.0203657,56.2043703
736074,Birkevej,7451,11,9.020256,56.2047374
736075,Birkevej,7451,12,9.0207046,56.2043561
736076,Birkevej,7451,13,9.0204664,56.2047128
736077,Birkevej,7451,14,9.0210281,56.2043237
736078,Birkevej,7451,15,9.0206932,56.2046793
736079,Birkevej,7451,17,9.020872,56.2046364
736080,Birkevej,7451,18,9.0216119,56.2042223
736081,Birkevej,7451,19,9.0210666,56.2046026
736082,Birkevej,7451,21,9.0212609,56.2045778
736083,Birkevej,7451,23,9.0214874,56.2045533
736084,Birkevej,7451,25,9.0216823,56.2045105
736932,Bækvej,7451,6,8.9947874,56.2782517
736933,Bækvej,7451,7,8.9936407,56.278706
736934,Bækvej,7451,9,8.9909622,56.281326
736935,Bækvej,7451,11,8.9865776,56.2824446
736936,Bækvej,7451,13,8.9845961,56.2827547
736937,Bækvej,7451,15,8.9780692,56.283265
736938,Bødkervej,7451,2,9.0228975,56.1915342
736939,Bødkervej,7451,3,9.026943,56.192845
736940,Bødkervej,7451,4,9.0297484,56.1918876
736941,Bødkervej,7451,5,9.0215096,56.194261
737069,Bøgeskovvej,7451,1,9.091247,56.240368
737070,Bøgeskovvej,7451,2,9.0919307,56.240681
737071,Bøgeskovvej,7451,3,9.0914514,56.2405413
737072,Bøgeskovvej,7451,5,9.0915884,56.2407852
737402,Damtoftevej,7451,1,8.9825376,56.1969063
737403,Damtoftevej,7451,3,8.9804552,56.1978979
737404,Damtoftevej,7451,4,8.9821733,56.2011692
737405,Damtoftevej,7451,5,8.9726347,56.1971624
737406,Damtoftevej,7451,7,8.9702506,56.2041782
737500,Drejervej,7451,1,9.0176886,56.1948637
737501,Drejervej,7451,2,9.0175915,56.1953297
737502,Drejervej,7451,7,9.016311,56.1937256
737503,Drejervej,7451,8,9.016124,56.194738
737504,Drejervej,7451,10,9.0157052,56.1930901
737505,Drejervej,7451,12,9.0157626,56.1932884
737506,Drejervej,7451,13,9.0164003,56.1930259
737507,Drejervej,7451,14,9.0155942,56.1925858
737508,Drejervej,7451,15,9.0162362,56.1926558
737509,Drejervej,7451,16,9.0154456,56.19235
737510,Drejervej,7451,17,9.0162852,56.1921802
737511,Drejervej,7451,18,9.0153904,56.1919346
737512,Drejervej,7451,19,9.0169303,56.1912531
737513,Drejervej,7451,20B,9.013915,56.191485
737514,Drejervej,7451,22,9.014966,56.191205
737515,Drejervej,7451,29,9.014534,56.195215
737706,Egeskovvej,7451,2,9.0922754,56.2400198
737707,Egeskovvej,7451,3,9.0926929,56.2400781
737708,Egeskovvej,7451,4,9.0925696,56.2399061
737709,Egeskovvej,7451,5,9.0930677,56.2399652
737710,Egeskovvej,7451,6,9.0927829,56.2398005
737711,Egeskovvej,7451,7,9.0933135,56.239851
737712,Egeskovvej,7451,8,9.0930937,56.239669
737713,Egeskovvej,7451,10,9.0933557,56.239555
737714,Egeskovvej,7451,11,9.0936682,56.2398546
737715,Egeskovvej,7451,12,9.0935862,56.2394136
737716,Egeskovvej,7451,13,9.093799,56.2398021
737717,Egeskovvej,7451,15,9.0939463,56.2397407
738427,Faunbjergvej,7451,17,8.9991615,56.2675297
738428,Faunbjergvej,7451,19,8.9988514,56.2676251
738429,Faunbjergvej,7451,22,8.998267,56.268157
738430,Faunbjergvej,7451,23,8.9980829,56.267895
738431,Faunbjergvej,7451,24,8.9979722,56.26828
738432,Faunbjergvej,7451,25,8.9977567,56.2679902
738433,Faunbjergvej,7451,26,8.9976456,56.2683842
738434,Faunbjergvej,7451,27,8.9974297,56.2681033
738435,Faunbjergvej,7451,28,8.997338,56.2684077
738436,Faunbjergvej,7451,29,8.9970873,56.2681983
738437,Faunbjergvej,7451,30,8.9970443,56.2684942
738438,Faunbjergvej,7451,31,8.9967939,56.2682759
738439,Faunbjergvej,7451,32,8.9967181,56.2685894
738440,Faunbjergvej,7451,33,8.9964828,56.2683981
738441,Faunbjergvej,7451,34,8.9964876,56.2687126
738442,Faunbjergvej,7451,36,8.9972705,56.2689369
738443,Faunbjergvej,7451,38,8.997839,56.268844
738444,Faunbjergvej,7451,42,8.9967109,56.2692361
738445,Faunbjergvej,7451,43,8.9962465,56.2691321
738446,Faunbjergvej,7451,45,8.9961746,56.267793
738643,Fredbovej,7451,1,9.0121762,56.2030764
738644,Fredbovej,7451,2,9.0128146,56.2032541
738645,Fredbovej,7451,3,9.0122014,56.2032743
738646,Fredbovej,7451,4,9.0128568,56.2034252
738647,Fredbovej,7451,5,9.0122289,56.2034093
738648,Fredbovej,7451,6,9.0128504,56.2036048
738649,Fredbovej,7451,7,9.0122569,56.2035264
738650,Fredbovej,7451,9,9.012379,56.204174
738651,Fredbovej,7451,11,9.0118786,56.204196
738652,Fredbovej,7451,13,9.0124044,56.2043635
738653,Fredbovej,7451,14A,9.0129294,56.2045579
738654,Fredbovej,7451,14B,9.013074,56.204568
738655,Fredbovej,7451,15,9.0124619,56.2045617
738656,Fredbovej,7451,17,9.01247,56.204768
738657,Fredbovej,7451,18,9.013841,56.2047566
738658,Fredbovej,7451,20,9.0141783,56.2047873
738659,Fredbovej,7451,21,9.0139584,56.2050813
738660,Fredbovej,7451,23,9.014248,56.205094
738661,Fredbovej,7451,25,9.0145854,56.2051242
739060,Fyrrely,7451,1,9.0223569,56.2022901
739061,Fyrrely,7451,2,9.0217423,56.2018971
739062,Fyrrely,7451,3,9.0231381,56.2025322
739063,Fyrrely,7451,4,9.0220114,56.2020348
739064,Fyrrely,7451,5,9.0235395,56.2025726
739065,Fyrrely,7451,6,9.0225787,56.2019422
739066,Fyrrely,7451,7,9.0238838,56.2028638
739067,Fyrrely,7451,8,9.0235692,56.2021866
739068,Fyrrely,7451,9,9.0243292,56.2030304
739069,Fyrrely,7451,10,9.024061,56.2024076
739070,Fyrrely,7451,11,9.0246949,56.2031691
739071,Fyrrely,7451,12,9.0244063,56.2026719
739072,Fyrrely,7451,13,9.0251154,56.2035869
739073,Fyrrely,7451,14,9.0247866,56.2028557
739074,Fyrrely,7451,16,9.0252294,56.2030941
739075,Fyrrely,7451,17,9.0259265,56.2038923
739076,Fyrrely,7451,18,9.0255794,56.2032237
739077,Fyrrely,7451,20,9.0259622,56.2033357
739078,Fyrrely,7451,21,9.0267225,56.2041705
739079,Fyrrely,7451,22,9.0263864,56.2036458
739080,Fyrrely,7451,23,9.0270495,56.2044974
739081,Fyrrely,7451,24,9.0268306,56.2038482
739082,Fyrrely,7451,26,9.0270959,56.2040937
739083,Fyrrely,7451,28,9.0286081,56.2046312
739257,Gedhusvej,7451,1,9.0050306,56.2713319
739258,Gedhusvej,7451,2,9.0077853,56.271048
739259,Gedhusvej,7451,2B,9.0143531,56.2723278
739260,Gedhusvej,7451,3,9.0183699,56.272584
739261,Gedhusvej,7451,4,9.0215533,56.2706786
739262,Gedhusvej,7451,5,9.0277146,56.2699285
739263,Gedhusvej,7451,6,9.0310977,56.2664529
739264,Gedhusvej,7451,7,9.03209,56.2689969
739265,Gedhusvej,7451,8,9.0388992,56.2635462
739266,Gedhusvej,7451,9,9.0357108,56.2679403
739267,Gedhusvej,7451,10,9.0452401,56.261297
739268,Gedhusvej,7451,11,9.0441241,56.2664682
739269,Gedhusvej,7451,12,9.0490406,56.2610774
739270,Gedhusvej,7451,13,9.0504282,56.2652873
739271,Gedhusvej,7451,17,9.0649687,56.2649124
739272,Gedhusvej,7451,18,9.0551991,56.2594096
739273,Gedhusvej,7451,19,9.0590802,56.2620022
739274,Gedhusvej,7451,20,9.0579413,56.2585136
739275,Gedhusvej,7451,23,9.0660243,56.2585906
739276,Gedhusvej,7451,24,9.0679103,56.2553497
739277,Gedhusvej,7451,25,9.0694609,56.2614566
739278,Gedhusvej,7451,27,9.0718007,56.2633677
739279,Gedhusvej,7451,35,9.0731518,56.2535456
739280,Gedhusvej,7451,37,9.0792895,56.2538527
739281,Gedhusvej,7451,39,9.0752661,56.2502083
739282,Gedhusvej,7451,41A,9.0782209,56.2458646
739289,Genvejen,7451,1,9.017156,56.200346
739290,Genvejen,7451,2,9.016998,56.2007131
739291,Genvejen,7451,3,9.016832,56.2003968
739292,Genvejen,7451,4,9.016777,56.2005849
739293,Genvejen,7451,5,9.0165436,56.2003487
739294,Genvejen,7451,6,9.0165205,56.2005461
739295,Genvejen,7451,8,9.0162251,56.2006956
739296,Genvejen,7451,9,9.0159353,56.2002342
739297,Genvejen,7451,10,9.0155704,56.2005267
739298,Genvejen,7451,11,9.0148863,56.2002766
739299,Genvejen,7451,12,9.0161826,56.2014407
739300,Genvejen,7451,13,9.0145285,56.2003714
739301,Genvejen,7451,14,9.0156217,56.2013537
739302,Genvejen,7451,15,9.0139602,56.2004909
739303,Genvejen,7451,16,9.0151047,56.2009348
739304,Genvejen,7451,18,9.0142886,56.200773
739305,Genvejen,7451,20,9.0140384,56.2010128
739715,Gammel Sundsvej,7451,1,9.0364402,56.209262
739716,Gammel Sundsvej,7451,2,9.0330115,56.2077507
739717,Gammel Sundsvej,7451,3,9.0399374,56.2088124
739718,Gammel Sundsvej,7451,5,9.0409929,56.2081278
739719,Gammel Sundsvej,7451,7,9.0427465,56.207282
739720,Gammel Sundsvej,7451,8,9.0454357,56.20643
739721,Gammel Sundsvej,7451,9,9.0467164,56.2076025
739722,Gammel Sundsvej,7451,10,9.0455541,56.2062632
739723,Gammel Sundsvej,7451,12,9.0449404,56.2030548
739724,Gammel Sundsvej,7451,13,9.0464332,56.2064871
739725,Gammel Sundsvej,7451,14,9.0456937,56.2059469
739726,Gammel Sundsvej,7451,14A,9.0457458,56.2058491
739727,Gammel Sundsvej,7451,15,9.051444,56.207465
739728,Gammel Sundsvej,7451,16,9.045866,56.2061021
739729,Gammel Sundsvej,7451,18,9.0460365,56.2062918
739730,Gammel Sundsvej,7451,20,9.0483298,56.2061586
739731,Gammel Sundsvej,7451,24,9.0485538,56.204813
739732,Gammel Sundsvej,7451,26,9.0513002,56.2060252
739733,Gammel Sundsvej,7451,28,9.051309,56.202954
739734,Gammel Sundsvej,7451,30,9.0545526,56.2051728
739735,Gammel Sundsvej,7451,32,9.0592427,56.2051763
739736,Gammel Sundsvej,7451,34,9.060117,56.205043
739737,Gammel Sundsvej,7451,35,9.0604569,56.2064293
739738,Gammel Sundsvej,7451,37,9.0601575,56.2071655
739987,Granly,7451,1,9.020443,56.2008138
739988,Granly,7451,2,9.0193153,56.1998941
739989,Granly,7451,3,9.0206789,56.2009781
739990,Granly,7451,4,9.0207454,56.2004668
739991,Granly,7451,5,9.0209335,56.2010707
739992,Granly,7451,6,9.0211676,56.2008308
739993,Granly,7451,7,9.0211224,56.2011986
739994,Granly,7451,8,9.0218359,56.2010717
739995,Granly,7451,9,9.0213283,56.2012997
739996,Granly,7451,10,9.0219737,56.2013214
739997,Granly,7451,11,9.0214837,56.2014631
739998,Granly,7451,13,9.0216075,56.2016081
739999,Granly,7451,15,9.0219935,56.2016303
740000,Granskovvej,7451,1,9.0946436,56.238185
740001,Granskovvej,7451,2,9.0942468,56.2380477
740002,Granskovvej,7451,3,9.0950046,56.238
740003,Granskovvej,7451,4,9.0949649,56.2377391
740004,Granskovvej,7451,5,9.0953316,56.2378687
740005,Granskovvej,7451,6,9.0948103,56.2375399
740006,Granskovvej,7451,8,9.0945899,56.2373759
740007,Granskovvej,7451,9,9.0954562,56.2375197
740008,Granskovvej,7451,10,9.0944016,56.2372213
740009,Granskovvej,7451,12,9.0942129,56.2370756
740010,Granskovvej,7451,13,9.0948719,56.2371453
740011,Granskovvej,7451,14,9.0939609,56.2368933
740012,Granskovvej,7451,15,9.0946363,56.2369542
740013,Granskovvej,7451,16,9.0938367,56.2367483
740014,Granskovvej,7451,17,9.0944659,56.2367458
740015,Granskovvej,7451,18,9.0939404,56.2365428
740069,Grovevej,7451,1,9.00453,56.2722336
740070,Grovevej,7451,3,9.0048293,56.2724436
740071,Grovevej,7451,4,9.0056968,56.2721118
740072,Grovevej,7451,13,9.0070552,56.2783701
741041,Haraldslundvej,7451,15,9.1418906,56.2286141
741042,Haraldslundvej,7451,16,9.1225496,56.2268204
741244,Hedeskovvej,7451,1,9.0866322,56.2375447
741245,Hedeskovvej,7451,3,9.0859809,56.2377265
741246,Hedeskovvej,7451,3A,9.0856234,56.2378036
741247,Hedeskovvej,7451,4,9.0866873,56.2378237
741248,Hedeskovvej,7451,5,9.0853308,56.2378724
741249,Hedeskovvej,7451,6,9.0860862,56.2379522
741250,Hedeskovvej,7451,7,9.0849897,56.2379407
741251,Hedeskovvej,7451,8,9.085611,56.2381718
741252,Hedeskovvej,7451,9,9.0845991,56.2380444
741253,Hedeskovvej,7451,10,9.0852867,56.2382223
741254,Hedeskovvej,7451,13,9.0835663,56.2385367
741255,Hedeskovvej,7451,17,9.0773537,56.2405107
741256,Hedeskovvej,7451,20,9.067337,56.243306
741341,Henrik Dalgas Vej,7451,1,9.0917068,56.2401397
741342,Henrik Dalgas Vej,7451,2,9.0930833,56.2409445
741343,Henrik Dalgas Vej,7451,3,9.0919439,56.2402859
741344,Henrik Dalgas Vej,7451,5,9.0921908,56.2406208
741395,Hestlundvej,7451,2,9.1117036,56.23298
741396,Hestlundvej,7451,4A,9.1121998,56.2326077
741397,Hestlundvej,7451,4B,9.1128486,56.2329827
741398,Hestlundvej,7451,5,9.1213139,56.2355033
741399,Hestlundvej,7451,6,9.1114524,56.2322857
741403,Hjejlevej,7451,1,9.0121163,56.2011353
741404,Hjejlevej,7451,3,9.0124211,56.2011746
741405,Hjejlevej,7451,5,9.012712,56.2011509
741406,Hjejlevej,7451,7,9.0130197,56.2011094
741407,Hjejlevej,7451,9,9.0132961,56.2010406
741408,Hjejlevej,7451,11,9.0131101,56.2008319
741409,Hjejlevej,7451,13,9.0128034,56.2008465
741410,Hjejlevej,7451,15,9.0125119,56.2008882
741411,Hjejlevej,7451,17,9.0122367,56.2009211
741412,Hjejlevej,7451,19,9.0119613,56.2009629
741413,Hjejlevej,7451,21,9.0118813,56.2004949
741414,Hjejlevej,7451,23,9.012234,56.2005438
741415,Hjejlevej,7451,25,9.0125253,56.200511
741416,Hjejlevej,7451,27,9.0128178,56.2004424
741417,Hjejlevej,7451,29,9.012569,56.2001881
741418,Hjejlevej,7451,31,9.0122778,56.2002208
741419,Hjejlevej,7451,33,9.0120023,56.2002627
741420,Hjejlevej,7451,35,9.0117111,56.2002954
741421,Hjejlevej,7451,45,9.0118199,56.1999553
741422,Hjejlevej,7451,49,9.0119586,56.1996783
741423,Hjejlevej,7451,51,9.0118081,56.1993802
741424,Hjejlevej,7451,53,9.0116405,56.1991089
741425,Hjejlevej,7451,55,9.0112845,56.1991499
741426,Hjejlevej,7451,57,9.0114041,56.1994117
741427,Hjejlevej,7451,59,9.0115231,56.1996915
741428,Hjejlevej,7451,63,9.0110338,56.1998568
741429,Hjejlevej,7451,67,9.0106143,56.1998701
741430,Hjejlevej,7451,69,9.0103687,56.199526
741431,Hjejlevej,7451,71,9.0103474,56.1992203
741432,Hjejlevej,7451,73,9.0099106,56.1992694
741433,Hjejlevej,7451,75,9.0099789,56.1996115
741434,Hjejlevej,7451,77,9.0100467,56.1999716
741435,Hjejlevej,7451,79,9.0102484,56.2001894
741436,Hjejlevej,7451,81,9.0105751,56.2000673
741437,Hjejlevej,7451,83,9.0111698,56.2001098
741438,Hjejlevej,7451,85,9.0111899,56.2004514
741439,Hjejlevej,7451,87,9.0107385,56.2004554
741440,Hjejlevej,7451,89,9.0103484,56.2005499
741441,Hjejlevej,7451,91,9.0104674,56.2008297
741442,Hjejlevej,7451,93,9.0109857,56.2007545
741443,Hjejlevej,7451,95,9.0113246,56.2007403
741444,Hjejlevej,7451,97,9.0114414,56.201083
741445,Hjejlevej,7451,99,9.0110538,56.2011056
741446,Hjejlevej,7451,101,9.0106469,56.2012179
741447,Hjejlevej,7451,103,9.010734,56.2014884
741448,Hjejlevej,7451,105,9.0111889,56.2013856
741449,Hjejlevej,7451,107,9.0115452,56.2013356
741450,Hjejlevej,7451,109,9.0094395,56.2016357
741451,Hjejlevej,7451,111,9.009877,56.2015687
741452,Hjejlevej,7451,113,9.01033,56.2015198
741453,Hjejlevej,7451,115,9.0100487,56.2012742
741454,Hjejlevej,7451,117,9.009693,56.2013062
741455,Hjejlevej,7451,119,9.0092397,56.201364
741456,Hjejlevej,7451,121,9.0092048,56.2009864
741457,Hjejlevej,7451,123,9.0095447,56.2009452
741458,Hjejlevej,7451,125,9.0099335,56.2008866
741459,Hjejlevej,7451,127,9.0099586,56.2006354
741460,Hjejlevej,7451,129,9.0094422,56.2006566
741461,Hjejlevej,7451,131,9.0090366,56.200733
741462,Hjejlevej,7451,133,9.0089205,56.2003724
741463,Hjejlevej,7451,135,9.0094044,56.2003598
741464,Hjejlevej,7451,137,9.009713,56.2002913
741465,Hjejlevej,7451,139,9.0096108,56.1999937
741466,Hjejlevej,7451,141,9.0091591,56.2000067
741467,Hjejlevej,7451,143,9.0087532,56.200092
741468,Hjejlevej,7451,145,9.0086687,56.1997497
741469,Hjejlevej,7451,147,9.0090737,56.1996913
741470,Hjejlevej,7451,149,9.0094947,56.1996331
741471,Hjejlevej,7451,151,9.009359,56.1993711
741472,Hjejlevej,7451,153,9.0089058,56.199429
741473,Hjejlevej,7451,155,9.0084686,56.199487
741474,Hjejlevej,7451,157,9.008286,56.199189
741475,Hjejlevej,7451,165,9.0078536,56.199561
741476,Hjejlevej,7451,167,9.0074651,56.1996106
741477,Hjejlevej,7451,169,9.0069777,56.199722
741478,Hjejlevej,7451,171,9.0071324,56.1999034
741479,Hjejlevej,7451,173,9.0075847,56.1998725
741480,Hjejlevej,7451,175,9.0079887,56.199841
741481,Hjejlevej,7451,177,9.0080748,56.2001384
741482,Hjejlevej,7451,179,9.0076534,56.2002056
741483,Hjejlevej,7451,181,9.0072636,56.2002911
741484,Hjejlevej,7451,183,9.0074009,56.2005082
741485,Hjejlevej,7451,185,9.0078371,56.2004771
741486,Hjejlevej,7451,187,9.0082543,56.2005267
741487,Hjejlevej,7451,189,9.0083098,56.2007788
741488,Hjejlevej,7451,191,9.0079525,56.2008557
741489,Hjejlevej,7451,193,9.007498,56.200949
741490,Hjejlevej,7451,195,9.0076836,56.2011671
741491,Hjejlevej,7451,197,9.0081043,56.2011179
741492,Hjejlevej,7451,199,9.0085731,56.2010782
741493,Hjejlevej,7451,201,9.0086402,56.2014562
741494,Hjejlevej,7451,203,9.0082361,56.2014877
741495,Hjejlevej,7451,205,9.0077819,56.2015725
741496,Hjejlevej,7451,207,9.0079659,56.201835
741497,Hjejlevej,7451,209,9.008356,56.201749
741498,Hjejlevej,7451,211,9.0088087,56.2017006
741499,Hjejlevej,7451,213,9.0065738,56.2020082
741500,Hjejlevej,7451,215,9.0070442,56.2019236
741501,Hjejlevej,7451,217,9.0074179,56.2018379
741502,Hjejlevej,7451,219,9.00728,56.2016388
741503,Hjejlevej,7451,221,9.0068763,56.2016612
741504,Hjejlevej,7451,223,9.0064713,56.2017196
741505,Hjejlevej,7451,225,9.0063401,56.2013319
741506,Hjejlevej,7451,227,9.00684,56.201328
741507,Hjejlevej,7451,229,9.0072142,56.2012248
741508,Hjejlevej,7451,231,9.0070292,56.2009892
741509,Hjejlevej,7451,233,9.0066407,56.2010388
741510,Hjejlevej,7451,235,9.0062038,56.2010878
741511,Hjejlevej,7451,237,9.0059573,56.2007707
741512,Hjejlevej,7451,239,9.0064763,56.2006776
741513,Hjejlevej,7451,241,9.0069447,56.2006469
741514,Hjejlevej,7451,243,9.0068435,56.2003224
741515,Hjejlevej,7451,245,9.0063416,56.2003887
741516,Hjejlevej,7451,247,9.0059363,56.2004561
741517,Hjejlevej,7451,249,9.0058177,56.2001673
741518,Hjejlevej,7451,251,9.0063206,56.200074
741519,Hjejlevej,7451,253,9.0065973,56.1999963
741520,Hjejlevej,7451,255,9.0065257,56.1997439
741521,Hjejlevej,7451,257,9.0060731,56.1997838
741522,Hjejlevej,7451,259,9.0057165,56.1998428
741523,Hjejlevej,7451,261,9.0063765,56.1994099
741524,Hjejlevej,7451,263,9.0058926,56.1994225
741525,Hjejlevej,7451,265,9.0054387,56.1994983
741526,Hjejlevej,7451,265B,9.0044789,56.1988499
741527,Hjejlevej,7451,267,9.0049861,56.1995382
741528,Hjejlevej,7451,269,9.004613,56.1996059
741529,Hjejlevej,7451,271A,9.0042094,56.1996284
741530,Hjejlevej,7451,271B,9.0038035,56.1997137
741531,Hjejlevej,7451,273,9.0050203,56.1999338
741532,Hjejlevej,7451,275,9.0045686,56.1999468
741533,Hjejlevej,7451,277,9.0040815,56.2000492
741534,Hjejlevej,7451,279,9.0042507,56.2002756
741535,Hjejlevej,7451,281,9.004752,56.2002273
741536,Hjejlevej,7451,283,9.0052037,56.2002144
741537,Hjejlevej,7451,285,9.0052095,56.2005019
741538,Hjejlevej,7451,287,9.0047726,56.2005509
741539,Hjejlevej,7451,289,9.0043664,56.2006452
741540,Hjejlevej,7451,291,9.0045172,56.2009344
741541,Hjejlevej,7451,293,9.0050037,56.2008499
741542,Hjejlevej,7451,295,9.0054879,56.2008284
741543,Hjejlevej,7451,297,9.0055079,56.20117
741544,Hjejlevej,7451,299,9.00512,56.2012016
741545,Hjejlevej,7451,301,9.0047473,56.2012603
741546,Hjejlevej,7451,303,9.0047389,56.2014938
741547,Hjejlevej,7451,305,9.0052866,56.2014999
741548,Hjejlevej,7451,307,9.005705,56.201504
741549,Hjejlevej,7451,309,9.0057758,56.2017928
741550,Hjejlevej,7451,311,9.0053714,56.2018332
741551,Hjejlevej,7451,313,9.0050141,56.2019101
741552,Hjejlevej,7451,315,9.0051356,56.202118
741553,Hjejlevej,7451,317,9.0055068,56.2021042
741554,Hjejlevej,7451,319,9.0059569,56.2021361
741555,Hjejlevej,7451,325,9.0047577,56.2023204
741583,Hodsagervej,7451,4,9.0012748,56.269817
741584,Hodsagervej,7451,5,9.0013623,56.2696293
741585,Hodsagervej,7451,6,9.0009844,56.2698137
741586,Hodsagervej,7451,7,9.0010544,56.2696618
741587,Hodsagervej,7451,8,9.000789,56.269856
741588,Hodsagervej,7451,8A,9.0015708,56.2701167
741589,Hodsagervej,7451,8B,9.0017438,56.2702444
741590,Hodsagervej,7451,8C,9.0015276,56.2704216
741591,Hodsagervej,7451,9,9.0006529,56.2696034
741592,Hodsagervej,7451,10,9.0005451,56.2699077
741593,Hodsagervej,7451,10A,9.000537,56.2701321
741594,Hodsagervej,7451,11,9.0004709,56.2697272
741595,Hodsagervej,7451,11B,9.0003518,56.2694474
741596,Hodsagervej,7451,12,9.0002359,56.2699761
741597,Hodsagervej,7451,13,9.0001781,56.2697868
741598,Hodsagervej,7451,14,8.9999609,56.269991
741599,Hodsagervej,7451,15,8.9997124,56.2697187
741600,Hodsagervej,7451,16,8.9995062,56.2700668
741601,Hodsagervej,7451,17,8.9992877,56.2698577
741602,Hodsagervej,7451,18,8.999165,56.2701258
741603,Hodsagervej,7451,19,8.9988988,56.2698983
741604,Hodsagervej,7451,20,8.9989217,56.2701591
741605,Hodsagervej,7451,21,8.9985738,56.2699576
741606,Hodsagervej,7451,22,8.9984024,56.2702341
741607,Hodsagervej,7451,23,8.998362,56.2700091
741608,Hodsagervej,7451,24,8.9980612,56.2702932
741609,Hodsagervej,7451,25,8.9976107,56.2698031
741610,Hodsagervej,7451,26,8.9975419,56.2703683
741611,Hodsagervej,7451,27,8.997133,56.2700673
741612,Hodsagervej,7451,28,8.9969574,56.2704606
741613,Hodsagervej,7451,28A,8.9970632,56.2706594
741614,Hodsagervej,7451,28C,8.998189,56.273017
741615,Hodsagervej,7451,29,8.9960692,56.2700195
741616,Hodsagervej,7451,30,8.9963561,56.2705706
741617,Hodsagervej,7451,30A,8.9967179,56.2708352
741618,Hodsagervej,7451,31,8.9950762,56.2693526
741619,Hodsagervej,7451,32,8.99579,56.2706003
741620,Hodsagervej,7451,33A,8.995251,56.270405
741621,Hodsagervej,7451,34,8.995352,56.2706583
741622,Hodsagervej,7451,35,8.99418,56.270465
741623,Hodsagervej,7451,36,8.9950276,56.2706995
741624,Hodsagervej,7451,37,8.993674,56.2706305
741625,Hodsagervej,7451,38,8.9946868,56.2707496
741626,Hodsagervej,7451,39,8.9933167,56.2706894
741627,Hodsagervej,7451,40,8.9944282,56.2707557
741628,Hodsagervej,7451,41,8.988754,56.267145
741629,Hodsagervej,7451,45,8.9912416,56.2709267
741630,Hodsagervej,7451,47,8.9907568,56.2709392
741631,Hodsagervej,7451,56,8.9911403,56.2719406
741632,Hodsagervej,7451,62,8.9829403,56.2723426
741633,Hodsagervej,7451,62A,8.9864868,56.2733796
741634,Hodsagervej,7451,64,8.9775832,56.2740249
741635,Hodsagervej,7451,68,8.9706867,56.2793635
741636,Hodsagervej,7451,72,8.9681348,56.2784991
741678,Hollingholtvej,7451,1,9.0147872,56.2021619
741679,Hollingholtvej,7451,2,9.014129,56.2020918
741680,Hollingholtvej,7451,3,9.0145046,56.2019522
741681,Hollingholtvej,7451,5,9.0147384,56.2017212
741682,Hollingholtvej,7451,7,9.0144194,56.2016279
741683,Hollingholtvej,7451,9,9.014346,56.201412
741684,Hollingholtvej,7451,12,9.010578,56.201792
741685,Hollingholtvej,7451,19,9.0129629,56.1990786
741686,Hollingholtvej,7451,22,9.0123373,56.1999071
741687,Hollingholtvej,7451,24,9.0114142,56.1986752
741688,Hollingholtvej,7451,30,8.9966888,56.1923221
741689,Hollingholtvej,7451,31,8.9952014,56.192018
741690,Hollingholtvej,7451,33,8.9932815,56.1894093
741691,Hollingholtvej,7451,35,8.9910349,56.1887194
741692,Hollingholtvej,7451,37,8.9822141,56.1907312
741693,Hollingholtvej,7451,39,8.9852551,56.1895078
741694,Hollingholtvej,7451,41,8.9870413,56.1895638
741695,Hollingholtvej,7451,43,8.9783015,56.1911091
741696,Hollingholtvej,7451,47,8.9736548,56.1890891
741697,Hollingholtvej,7451,49,8.975975,56.1881991
741698,Hollingholtvej,7451,51,8.976407,56.1896054
741890,Hvidmosevej,7451,2,9.0059048,56.2703624
741891,Hvidmosevej,7451,3,9.0110336,56.2677871
741892,Hvidmosevej,7451,13,9.028612,56.261844
741893,Hvidmosevej,7451,15,9.0393017,56.258026
741894,Hvidmosevej,7451,16,9.0437046,56.2557919
741895,Hvidmosevej,7451,17,9.0528762,56.2537704
741896,Hvidmosevej,7451,18,9.0467196,56.2544769
741897,Hvidmosevej,7451,22,9.0591936,56.2493194
741898,Hvidmosevej,7451,24,9.055536,56.2491726
741899,Hvidmosevej,7451,25,9.0611493,56.2496906
741900,Hvidmosevej,7451,27,9.068639,56.2491322
742285,Idrætsvej,7451,2,9.022179,56.2032224
742286,Idrætsvej,7451,4A,9.0220743,56.2043621
742287,Idrætsvej,7451,4B,9.0235265,56.203857
742288,Idrætsvej,7451,6,9.022895,56.205763
742289,Ikastvej,7451,2,9.0907083,56.2400934
742290,Ikastvej,7451,4,9.0909501,56.2400959
742291,Ikastvej,7451,10,9.092226,56.2395702
742292,Ikastvej,7451,16,9.0939656,56.238681
742293,Ikastvej,7451,18,9.0942595,56.2385762
742294,Ikastvej,7451,19,9.0947871,56.2387164
742295,Ikastvej,7451,21,9.096281,56.238409
742296,Ikastvej,7451,23,9.096407,56.238032
742297,Ikastvej,7451,25,9.0970999,56.2380487
742298,Ikastvej,7451,27,9.0974687,56.2376303
742299,Ikastvej,7451,29,9.0979119,56.2374014
742300,Ikastvej,7451,30,9.0971968,56.2370796
742301,Ikastvej,7451,32,9.098292,56.235195
742302,Ikastvej,7451,50,9.1244142,56.2136704
742303,Ildsgårdvej,7451,1,9.0862416,56.2362111
742304,Ildsgårdvej,7451,2,9.0857296,56.236089
742305,Ildsgårdvej,7451,3,9.0886453,56.2352391
742306,Ildsgårdvej,7451,4,9.0890294,56.2348478
742307,Ildsgårdvej,7451,6,9.0895401,56.2345298
742308,Ildsgårdvej,7451,8,9.0899489,56.2343633
742309,Ildsgårdvej,7451,12,9.0957029,56.2315845
742310,Ildsgårdvej,7451,14,9.0905855,56.2341364
742311,Ildsgårdvej,7451,14B,9.091171,56.2339898
742312,Ildsgårdvej,7451,16,9.0997102,56.2299012
742313,Ildsgårdvej,7451,22,9.106434,56.2279853
742314,Ildsgårdvej,7451,24,9.1109074,56.2268095
742315,Ildsgårdvej,7451,26,9.113329,56.226223
742316,Ildsgårdvej,7451,30,9.1073752,56.2170897
742317,Ildsgårdvej,7451,32,9.1175435,56.2167266
742318,Ildsgårdvej,7451,34,9.1203588,56.2262592
742319,Ilskov Hovedgade,7451,1,9.0916007,56.2394559
742320,Ilskov Hovedgade,7451,2,9.0914447,56.2397776
742321,Ilskov Hovedgade,7451,3,9.0915389,56.2393744
742322,Ilskov Hovedgade,7451,4,9.0912746,56.2395603
742323,Ilskov Hovedgade,7451,5,9.0914461,56.2392566
742324,Ilskov Hovedgade,7451,6,9.0912791,56.2394256
742325,Ilskov Hovedgade,7451,7,9.0919663,56.2391363
742326,Ilskov Hovedgade,7451,8,9.0912027,56.239299
742327,Ilskov Hovedgade,7451,9,9.0923259,56.2389963
742328,Ilskov Hovedgade,7451,9A,9.0924778,56.2392763
742329,Ilskov Hovedgade,7451,10,9.0911421,56.2391816
742330,Ilskov Hovedgade,7451,10A,9.0902833,56.2392984
742331,Ilskov Hovedgade,7451,11,9.092798,56.238857
742332,Ilskov Hovedgade,7451,11A,9.09282,56.2391721
742333,Ilskov Hovedgade,7451,12,9.0909866,56.2390093
742334,Ilskov Hovedgade,7451,12A,9.0901131,56.2390811
742335,Ilskov Hovedgade,7451,13,9.0926428,56.2386852
742336,Ilskov Hovedgade,7451,14A,9.0907714,56.2386927
742337,Ilskov Hovedgade,7451,14B,9.0905645,56.2386097
742338,Ilskov Hovedgade,7451,15,9.0924472,56.238746
742339,Ilskov Hovedgade,7451,16,9.0905857,56.2384572
742340,Ilskov Hovedgade,7451,17,9.0921871,56.2388062
742341,Ilskov Hovedgade,7451,18,9.0904603,56.2383481
742342,Ilskov Hovedgade,7451,19,9.0918621,56.2388747
742343,Ilskov Hovedgade,7451,20A,9.0902744,56.2381216
742344,Ilskov Hovedgade,7451,20B,9.0902123,56.2380491
742345,Ilskov Hovedgade,7451,22,9.0901669,56.2379588
742346,Ilskov Hovedgade,7451,23,9.091307,56.239076
742347,Ilskov Hovedgade,7451,24A,9.0899786,56.2378041
742348,Ilskov Hovedgade,7451,24B,9.0895879,56.2379078
742349,Ilskov Hovedgade,7451,24C,9.0894508,56.2381489
742350,Ilskov Hovedgade,7451,25,9.0912294,56.2389849
742351,Ilskov Hovedgade,7451,26A,9.0898878,56.2376235
742352,Ilskov Hovedgade,7451,26B,9.0890105,56.237812
742353,Ilskov Hovedgade,7451,27,9.0911049,56.2388489
742354,Ilskov Hovedgade,7451,28,9.0898135,56.2374341
742355,Ilskov Hovedgade,7451,30,9.089721,56.2373074
742356,Ilskov Hovedgade,7451,31,9.0908595,56.238469
742357,Ilskov Hovedgade,7451,32,9.0884945,56.2368454
742358,Ilskov Hovedgade,7451,33,9.0907822,56.2383694
742359,Ilskov Hovedgade,7451,35A,9.0906736,56.2382425
742360,Ilskov Hovedgade,7451,35B,9.0906118,56.238161
742361,Ilskov Hovedgade,7451,35C,9.0905503,56.2380706
742362,Ilskov Hovedgade,7451,36,9.0878043,56.2357872
742363,Ilskov Hovedgade,7451,37,9.0913079,56.2380874
742364,Ilskov Hovedgade,7451,39A,9.0916386,56.2383244
742365,Ilskov Hovedgade,7451,39B,9.0920907,56.2383112
742366,Ilskov Hovedgade,7451,39C,9.0919236,56.238004
742367,Ilskov Hovedgade,7451,39D,9.0914337,56.2377025
742368,Ilskov Hovedgade,7451,41,9.0910771,56.2377527
742369,Ilskov Hovedgade,7451,41A,9.0908467,56.2374089
742370,Ilskov Hovedgade,7451,43,9.0903954,56.2378803
742371,Ilskov Hovedgade,7451,47,9.0902879,56.2377175
742372,Ilskov Hovedgade,7451,49,9.0902453,56.2375464
742373,Ilskov Hovedgade,7451,53,9.0901059,56.2373743
742374,Ilskov Hovedgade,7451,55,9.0899324,56.2372557
742375,Ilskov Hovedgade,7451,55A,9.090658,56.2372632
742376,Ilskov Hovedgade,7451,55B,9.0904532,56.2371174
742377,Ilskov Hovedgade,7451,57,9.0894522,56.2366668
742378,Ilskov Hovedgade,7451,59,9.088888,56.2361758
742379,Ilskov Hovedgade,7451,61,9.0886376,56.2359486
742380,Ilskov Hovedgade,7451,63,9.0883537,56.235757
742381,Ilskov Hovedgade,7451,65,9.0881011,56.2355927
742382,Ilskovvej,7451,1,9.0189839,56.200151
742383,Ilskovvej,7451,2,9.019688,56.200276
742384,Ilskovvej,7451,4,9.0200994,56.2005046
742385,Ilskovvej,7451,15,9.034827,56.2092983
742386,Ilskovvej,7451,16,9.0427866,56.211235
742387,Ilskovvej,7451,21,9.0510957,56.2170736
742388,Ilskovvej,7451,24,9.0678597,56.2251753
742389,Ilskovvej,7451,25,9.0642334,56.225595
742390,Ilskovvej,7451,27,9.0608154,56.2265198
742391,Ilskovvej,7451,28,9.0724737,56.2274789
742392,Ilskovvej,7451,29,9.0602663,56.2274842
742393,Ilskovvej,7451,29B,9.0544661,56.2310783
742394,Ilskovvej,7451,30,9.0746399,56.227322
742395,Ilskovvej,7451,31,9.0685983,56.2271594
742396,Ilskovvej,7451,32,9.0783953,56.2259512
742397,Ilskovvej,7451,33,9.0692119,56.2295015
742398,Ilskovvej,7451,35,9.0787716,56.2315067
743097,Kastanievej,7451,2,9.0185556,56.2031467
743098,Kastanievej,7451,3,9.0179374,56.2033106
743099,Kastanievej,7451,4,9.0185808,56.2033446
743100,Kastanievej,7451,6,9.0185742,56.2035332
743101,Kastanievej,7451,8,9.0186161,56.2037133
743102,Kastanievej,7451,9,9.0178735,56.2051155
743103,Kastanievej,7451,10,9.0186745,56.2038846
743104,Kastanievej,7451,12,9.0186031,56.2040814
743105,Kastanievej,7451,14,9.0186122,56.2042792
743106,Kastanievej,7451,16,9.0186387,56.2044412
743107,Kastanievej,7451,17,9.0179931,56.2044992
743108,Kastanievej,7451,17A,9.0180626,56.2044308
743109,Kastanievej,7451,17B,9.0178744,56.2044381
743110,Kastanievej,7451,17C,9.0177212,56.2044416
743111,Kastanievej,7451,18,9.0187597,56.2046671
743112,Kastanievej,7451,19A,9.0181688,56.2045008
743113,Kastanievej,7451,19B,9.0181767,56.2046223
743114,Kastanievej,7451,19C,9.0181877,56.2046997
743115,Kastanievej,7451,19D,9.0181998,56.2047806
743116,Kastanievej,7451,20,9.0187289,56.20508
743117,Kastanievej,7451,21A,9.0180764,56.2048569
743118,Kastanievej,7451,21B,9.0179176,56.204857
743119,Kastanievej,7451,21C,9.0178128,56.2049095
743120,Kastanievej,7451,21D,9.0176668,56.2048983
743121,Kastanievej,7451,21E,9.0175246,56.2048734
743122,Kastanievej,7451,21F,9.0173614,56.2048361
743123,Kastanievej,7451,22,9.0186907,56.2052502
743124,Kastanievej,7451,23,9.0167908,56.2056515
743125,Kastanievej,7451,23A,9.017114,56.2047871
743126,Kastanievej,7451,23B,9.0169655,56.2047569
743127,Kastanievej,7451,23C,9.016823,56.204729
743128,Kastanievej,7451,23D,9.0166731,56.2046978
743129,Kastanievej,7451,23E,9.0165077,56.2046659
743130,Kastanievej,7451,24,9.0187803,56.2054488
743131,Kastanievej,7451,25A,9.0162921,56.2044959
743132,Kastanievej,7451,25B,9.0161948,56.204622
743133,Kastanievej,7451,26,9.0190292,56.2057031
743134,Keldsgårdvej,7451,1,8.943741,56.2157763
743135,Keldsgårdvej,7451,4,8.9388817,56.2176782
743136,Keldsgårdvej,7451,6,8.9346575,56.2176829
743137,Keldsgårdvej,7451,8,8.9314446,56.2173759
743138,Keldsgårdvej,7451,8A,8.9313788,56.217411
743139,Keldsgårdvej,7451,9,8.9330007,56.2132977
743140,Keldsgårdvej,7451,10,8.9233202,56.2147922
743155,Kiersvej,7451,1,8.9702581,56.2505856
743156,Kiersvej,7451,4,8.9485168,56.2529145
743157,Kiersvej,7451,5,8.947093,56.243933
743158,Kiersvej,7451,6,8.939526,56.252981
743322,Kjærgaardsvej,7451,1A,9.0180672,56.1991887
743323,Kjærgaardsvej,7451,1B,9.0179118,56.1990253
743324,Kjærgaardsvej,7451,2,9.0182712,56.1993437
743325,Kjærgaardsvej,7451,3A,9.0176463,56.1987888
743326,Kjærgaardsvej,7451,3B,9.0174839,56.198823
743327,Kjærgaardsvej,7451,3C,9.0176294,56.1992648
743328,Kjærgaardsvej,7451,4,9.0178161,56.1994555
743329,Kjærgaardsvej,7451,5,9.0173717,56.1992619
743330,Kjærgaardsvej,7451,6,9.0173794,56.1999537
743331,Kjærgaardsvej,7451,7,9.0171443,56.1993133
743332,Kjærgaardsvej,7451,8,9.0173368,56.1997915
743333,Kjærgaardsvej,7451,9,9.0168231,56.1992828
743334,Kjærgaardsvej,7451,10,9.0173116,56.1995936
743335,Kjærgaardsvej,7451,11,9.0165158,56.1993154
743336,Kjærgaardsvej,7451,12,9.0168507,56.199867
743337,Kjærgaardsvej,7451,13,9.0160458,56.199391
743338,Kjærgaardsvej,7451,14,9.016823,56.199741
743339,Kjærgaardsvej,7451,15,9.0155145,56.1993762
743340,Kjærgaardsvej,7451,16,9.0164557,56.1996471
743341,Kjærgaardsvej,7451,17,9.0153305,56.1991137
743342,Kjærgaardsvej,7451,18,9.0161364,56.1995627
743343,Kjærgaardsvej,7451,19,9.015456,56.1987557
743344,Kjærgaardsvej,7451,20,9.0155672,56.1997092
743345,Kjærgaardsvej,7451,21,9.0159433,56.1986443
743346,Kjærgaardsvej,7451,22,9.0144876,56.1997062
743347,Kjærgaardsvej,7451,23,9.0166205,56.1986338
743348,Kjærgaardsvej,7451,24,9.0140192,56.199737
743349,Kjærgaardsvej,7451,25,9.016661,56.1984007
743350,Kjærgaardsvej,7451,26,9.013717,56.200015
743351,Kjærgaardsvej,7451,27,9.016293,56.1983248
743352,Kjærgaardsvej,7451,29,9.0159835,56.1984202
743353,Kjærgaardsvej,7451,31,9.0157087,56.1984441
743354,Kjærgaardsvej,7451,33,9.0152893,56.1984574
743355,Kjærgaardsvej,7451,35,9.0149813,56.1985079
743356,Kjærgaardsvej,7451,35B,9.0139752,56.1982543
743357,Kjærgaardsvej,7451,37,9.0146199,56.1987016
743358,Kjærgaardsvej,7451,39,9.014581,56.1988898
743359,Kjærgaardsvej,7451,41,9.0147079,56.1994032
743360,Kjærgaardsvej,7451,45,9.0139025,56.1993944
743361,Kjærgaardsvej,7451,47,9.0130133,56.1994744
743915,Krusbjergvej,7451,10,8.970806,56.225978
743916,Krusbjergvej,7451,14,8.974394,56.224869
743955,Kvalsholmvej,7451,1,9.0190764,56.2066468
743956,Kvalsholmvej,7451,2,9.019838,56.20652
743957,Kvalsholmvej,7451,3,9.0192944,56.2068648
743958,Kvalsholmvej,7451,4,9.0198649,56.2066825
743959,Kvalsholmvej,7451,5,9.0194513,56.2069833
743960,Kvalsholmvej,7451,6,9.0199833,56.2069802
743961,Kvalsholmvej,7451,7,9.0195265,56.2071369
743962,Kvalsholmvej,7451,8,9.0202433,56.2069202
743963,Kvalsholmvej,7451,9,9.0196974,56.2073184
743964,Kvalsholmvej,7451,10,9.0205678,56.2068609
743965,Kvalsholmvej,7451,11,9.0198357,56.2075086
743966,Kvalsholmvej,7451,12,9.020847,56.2067112
743967,Kvalsholmvej,7451,12A,9.0207106,56.2064672
743968,Kvalsholmvej,7451,13,9.0203402,56.2073704
743969,Kvalsholmvej,7451,14,9.021272,56.2065452
743970,Kvalsholmvej,7451,15,9.0205228,56.2072197
743971,Kvalsholmvej,7451,16,9.0216103,56.2065489
743972,Kvalsholmvej,7451,17,9.0208318,56.2071422
743973,Kvalsholmvej,7451,18,9.0222137,56.2063489
743974,Kvalsholmvej,7451,19,9.0210615,56.207028
743975,Kvalsholmvej,7451,21,9.0213869,56.2069417
743976,Kvalsholmvej,7451,22,9.0229788,56.2061327
743977,Kvalsholmvej,7451,23,9.021631,56.206872
743978,Kvalsholmvej,7451,24,9.0233472,56.2061996
743979,Kvalsholmvej,7451,25,9.0219397,56.206804
743980,Kvalsholmvej,7451,26,9.0237676,56.2061593
743981,Kvalsholmvej,7451,27,9.0221868,56.206654
743982,Kvalsholmvej,7451,29,9.0224958,56.2065766
743983,Kvalsholmvej,7451,31,9.0227731,56.2064808
743984,Kvalsholmvej,7451,33,9.0231617,56.2064312
744038,Kærmosevej,7451,1,8.9946041,56.2591695
744039,Kærmosevej,7451,3,8.98681,56.2609147
744040,Kærmosevej,7451,4,8.9831685,56.2620774
744041,Kærmosevej,7451,5,8.9827108,56.2586856
744042,Kærmosevej,7451,6,8.9824037,56.2600297
744043,Kærmosevej,7451,8,8.9753458,56.2592761
744086,Kølbækvej,7451,3,8.9921399,56.2049824
744087,Kølbækvej,7451,6,8.989364,56.206425
744088,Kølbækvej,7451,7,8.9919221,56.2052135
744089,Kølbækvej,7451,8,8.988473,56.206998
744244,Langbakkevej,7451,1,8.952432,56.2661021
744245,Langbakkevej,7451,2,8.9435505,56.2717937
744246,Langbakkevej,7451,3,8.945774,56.2688909
744247,Langbakkevej,7451,4,8.9339568,56.2706042
744248,Langbakkevej,7451,5,8.9381272,56.265739
744249,Langbakkevej,7451,7,8.930124,56.26693
744674,Linåparken,7451,1,8.9987607,56.2104553
744675,Linåparken,7451,2B,8.998012,56.209948
744676,Linåparken,7451,3,8.999037,56.210396
744677,Linåparken,7451,5,8.9993917,56.2103905
744678,Linåparken,7451,6,8.9977,56.209904
744679,Linåparken,7451,7,8.9997307,56.2103763
744680,Linåparken,7451,8,8.9976551,56.2098232
744681,Linåparken,7451,9,9.0000697,56.2103621
744682,Linåparken,7451,10,8.9975936,56.2097416
744683,Linåparken,7451,11,9.0003942,56.2103029
744684,Linåparken,7451,12,8.9975807,56.2096517
744685,Linåparken,7451,13,9.0001738,56.2101567
744686,Linåparken,7451,14,8.9975192,56.2095701
744687,Linåparken,7451,15,9.0000997,56.2099762
744688,Linåparken,7451,16,8.9974899,56.2094889
744689,Linåparken,7451,17,8.999947,56.2097409
744690,Linåparken,7451,18,8.9978105,56.2095374
744691,Linåparken,7451,19,8.9997172,56.2098552
744692,Linåparken,7451,20,9.008369,56.208736
744693,Linåparken,7451,21,8.9998043,56.2100083
744694,Linåparken,7451,22,8.9981504,56.2094963
744695,Linåparken,7451,24,8.9983125,56.2094712
744696,Linåparken,7451,25,8.9993866,56.210085
744697,Linåparken,7451,27,8.9992818,56.2098593
744698,Linåparken,7451,29,8.9987959,56.2099257
744699,Linåparken,7451,31,8.9989805,56.2101703
744700,Linåparken,7451,33,8.998688,56.2102
744701,Linåparken,7451,35,8.9984453,56.2102632
744702,Linåparken,7451,37,8.9996444,56.2096387
744703,Linåparken,7451,39,8.999956,56.209481
744704,Linåparken,7451,41,8.999927,56.2093993
744705,Linåparken,7451,45,9.0000304,56.2092119
744706,Linåparken,7451,47,8.9998522,56.2092368
744707,Linåparken,7451,49,8.9996898,56.2092709
744708,Linåparken,7451,51,8.9994797,56.2092866
744709,Linåparken,7451,53,8.9993179,56.2093027
744710,Linåparken,7451,55,8.9991394,56.2093367
744711,Linåparken,7451,57,8.9988043,56.2092431
744712,Linåparken,7451,59,8.9988336,56.2093243
744713,Linåparken,7451,60,8.9970373,56.2089391
744714,Linåparken,7451,61,8.9988632,56.2093965
744715,Linåparken,7451,63,8.9988771,56.2094595
744716,Linåparken,7451,65,8.9989068,56.2095317
744717,Linåtoften,7451,1,9.007194,56.210053
744718,Linåtoften,7451,2,9.0064012,56.2100013
744719,Linåtoften,7451,3,9.0078043,56.209981
744720,Linåtoften,7451,4,9.00598,56.21006
744721,Linåtoften,7451,5,9.0082039,56.2099974
744722,Linåtoften,7451,6,9.0055434,56.2100996
744723,Linåtoften,7451,7,9.0087192,56.2100899
744724,Linåtoften,7451,8,9.0050594,56.2101122
744725,Linåtoften,7451,9,9.0092215,56.2100744
744726,Linåtoften,7451,10,9.0047926,56.2099116
744727,Linåtoften,7451,11,9.0094055,56.209828
744728,Linåtoften,7451,12,9.0048263,56.2097027
744729,Linåtoften,7451,13,9.0086028,56.2097383
744730,Linåtoften,7451,14,9.0052707,56.2096659
744731,Linåtoften,7451,15,9.0085966,56.2094597
744732,Linåtoften,7451,16,9.0053581,56.209873
744733,Linåtoften,7451,17,9.0086706,56.2091911
744734,Linåtoften,7451,18,9.0057922,56.2099047
744735,Linåtoften,7451,19,9.0087112,56.2089579
744736,Linåtoften,7451,20,9.0063432,56.209821
744737,Linåtoften,7451,21,9.0082297,56.2088987
744738,Linåtoften,7451,22,9.0065433,56.2096346
744739,Linåtoften,7451,23,9.0082846,56.2091688
744740,Linåtoften,7451,25,9.0081632,56.20941
744741,Linåtoften,7451,27,9.008299,56.209722
744742,Linåtoften,7451,29,9.007589,56.209517
744743,Linåtoften,7451,31,9.007557,56.2092326
744744,Linåtoften,7451,33,9.007651,56.208983
744745,Linåtoften,7451,35,9.007129,56.2090302
744746,Linåtoften,7451,37,9.0071074,56.2091827
744747,Linåtoften,7451,39,9.0071939,56.2095145
744748,Linåtoften,7451,41,9.007197,56.209726
744749,Linåtoften,7451,43,9.006608,56.208956
744750,Linåtoften,7451,45,9.0087849,56.2086982
744751,Linåtoften,7451,47,9.008216,56.208695
744752,Linåtoften,7451,49,9.0078014,56.2087053
744753,Linåtoften,7451,51,9.0073664,56.2087005
744754,Linåtoften,7451,53,9.0068088,56.2087095
744755,Linåtoften,7451,55,9.00644,56.208724
744756,Linåvej,7451,20,8.991868,56.2143039
744757,Linåvej,7451,24,8.9856913,56.2157078
744758,Linåvej,7451,26,8.9810746,56.2145418
744759,Linåvej,7451,29,8.9727679,56.2129026
744760,Linåvej,7451,31,8.966182,56.2074466
744761,Linåvej,7451,33,8.9620655,56.2124301
744762,Linåvej,7451,35,8.9596816,56.2128161
744763,Linåvej,7451,37,8.9533093,56.212078
744764,Linåvej,7451,39,8.951539,56.2141687
744765,Linåvej,7451,40,8.9515296,56.2183279
744766,Linåvej,7451,42,8.949376,56.2190127
744767,Linåvænget,7451,1,9.0032693,56.2101372
744768,Linåvænget,7451,2,9.0025456,56.2100933
744769,Linåvænget,7451,3,9.0038181,56.2101164
744770,Linåvænget,7451,4,9.0021099,56.2101064
744771,Linåvænget,7451,5,9.0042393,56.2100582
744772,Linåvænget,7451,6,9.0017554,56.2101024
744773,Linåvænget,7451,7,9.0042363,56.2096898
744774,Linåvænget,7451,8,9.0013671,56.210143
744775,Linåvænget,7451,9,9.0037868,56.2096399
744776,Linåvænget,7451,10,9.0009153,56.210156
744777,Linåvænget,7451,11,9.0033798,56.2097522
744778,Linåvænget,7451,12,9.0007951,56.2099121
744779,Linåvænget,7451,13,9.0030254,56.2097483
744780,Linåvænget,7451,14,9.0012005,56.2098447
744781,Linåvænget,7451,15,9.0030682,56.2094523
744782,Linåvænget,7451,16,9.0016068,56.2097504
744783,Linåvænget,7451,17,9.003538,56.2093856
744784,Linåvænget,7451,18,9.0020438,56.2097014
744785,Linåvænget,7451,19,9.0040401,56.2093194
744786,Linåvænget,7451,20,9.0023825,56.2096962
744787,Linåvænget,7451,21,9.0039704,56.2090131
744788,Linåvænget,7451,22,9.0022487,56.2093803
744789,Linåvænget,7451,23,9.0035818,56.2090627
744790,Linåvænget,7451,24,9.0017473,56.2094286
744791,Linåvænget,7451,25,9.0031938,56.2090943
744792,Linåvænget,7451,26,9.0012456,56.2094859
744793,Linåvænget,7451,27,9.002854,56.209118
744794,Linåvænget,7451,28,9.0007123,56.2095249
744795,Linåvænget,7451,29,9.0028162,56.2088386
744796,Linåvænget,7451,30,9.000625,56.2092634
744797,Linåvænget,7451,31,9.0033665,56.2087729
744798,Linåvænget,7451,32,9.0009491,56.2092131
744799,Linåvænget,7451,33,9.0039172,56.2086981
744800,Linåvænget,7451,34,9.0013861,56.2091641
744801,Linåvænget,7451,35,9.003864,56.2083831
744802,Linåvænget,7451,36,9.0017583,56.2091233
744803,Linåvænget,7451,37,9.0034277,56.2084142
744804,Linåvænget,7451,38,9.0021627,56.2090829
744805,Linåvænget,7451,39,9.0030555,56.208455
744806,Linåvænget,7451,40,9.0020773,56.2087675
744807,Linåvænget,7451,41,9.0026186,56.2085041
744808,Linåvænget,7451,41A,9.0038124,56.2080232
744809,Linåvænget,7451,42,9.0016426,56.2087537
744810,Linåvænget,7451,43,9.0035714,56.2080026
744811,Linåvænget,7451,44,9.0012362,56.208848
744812,Linåvænget,7451,45,9.0033287,56.2080269
744813,Linåvænget,7451,46,9.0008827,56.2088171
744814,Linåvænget,7451,47,9.0030536,56.2080597
744815,Linåvænget,7451,48,9.0005257,56.208885
744816,Linåvænget,7451,49,9.0027787,56.2080836
744817,Linåvænget,7451,50,9.0002634,56.2085587
744818,Linåvænget,7451,51,9.0025361,56.2081079
744819,Linåvænget,7451,52,9.0006198,56.2085087
744820,Linåvænget,7451,53,9.0035327,56.2077327
744821,Linåvænget,7451,54,9.0002199,56.2084234
744822,Linåvænget,7451,55,9.0032417,56.2077564
744823,Linåvænget,7451,56,9.0004844,56.2082377
744824,Linåvænget,7451,57,9.0029665,56.2077893
744825,Linåvænget,7451,58,9.0001603,56.208288
744826,Linåvænget,7451,59,9.0026756,56.207813
744827,Linåvænget,7451,60,9.0001174,56.2081348
744828,Linåvænget,7451,61,9.0023843,56.2078457
744829,Linåvænget,7451,62,9.0004574,56.2080937
744830,Linåvænget,7451,64,9.0008779,56.2080535
744831,Linåvænget,7451,66,9.0009536,56.2081891
744832,Linåvænget,7451,68,9.001013,56.208324
744833,Linåvænget,7451,70,9.0010567,56.2084597
744834,Linåvænget,7451,72,9.0013976,56.2083916
744835,Linåvænget,7451,74,9.0017038,56.2083951
744836,Linåvænget,7451,76,9.002044,56.2083449
744837,Linåvænget,7451,78,9.0020025,56.2081558
744838,Linåvænget,7451,80,9.0016325,56.2081337
744839,Linåvænget,7451,82,9.0013242,56.2081932
744840,Linåvænget,7451,84,9.0012494,56.2080307
744841,Linåvænget,7451,86,9.0015897,56.2079806
744842,Linåvænget,7451,88,9.0019132,56.2079482
744843,Linnebjergvej,7451,7,9.0950228,56.2032003
744844,Linnebjergvej,7451,8,9.0860563,56.2076972
744845,Linnebjergvej,7451,9,9.0890587,56.2041982
744846,Linnebjergvej,7451,10,9.0834447,56.2081909
744847,Linnebjergvej,7451,11,9.0873865,56.2060043
744848,Linnebjergvej,7451,12,9.0803917,56.2088686
744849,Linnebjergvej,7451,16A,9.0710702,56.2105647
744850,Linnebjergvej,7451,16B,9.069361,56.2106612
744851,Linnebjergvej,7451,17,9.0699305,56.2065216
744852,Linnebjergvej,7451,18,9.0627334,56.2138383
744853,Linnebjergvej,7451,20,9.0581042,56.2148579
744854,Linnebjergvej,7451,22,9.0541667,56.216846
744855,Linnebjergvej,7451,24,9.0525861,56.216865
745863,Mejrupvej,7451,2,8.9865648,56.2681164
745864,Mejrupvej,7451,5,8.9731659,56.2703187
745865,Mejrupvej,7451,7,8.9697598,56.2720676
745866,Mejrupvej,7451,9,8.9675255,56.2722398
745867,Mejrupvej,7451,12,8.9568993,56.277104
745868,Mejrupvej,7451,14,8.9511755,56.2812154
745869,Mejrupvej,7451,16,8.9464325,56.28152
746564,Møllekrogen,7451,2,9.0163028,56.20305
746565,Mølleskovvej,7451,2,9.0888043,56.2372259
746566,Mølleskovvej,7451,3,9.0877551,56.2372509
746567,Mølleskovvej,7451,4,9.0884782,56.2373304
746607,Navervej,7451,3,9.0210354,56.1977301
746608,Navervej,7451,4,9.0200674,56.1977644
746609,Navervej,7451,6,9.019759,56.1969166
746610,Navervej,7451,7,9.0207706,56.1965594
746611,Navervej,7451,10,9.0197452,56.1959373
746612,Navervej,7451,11,9.0207293,56.1959032
746613,Navervej,7451,13,9.0204054,56.1954954
746614,Navervej,7451,14A,9.0194927,56.1953327
746615,Navervej,7451,14B,9.0196993,56.1949576
746616,Navervej,7451,15,9.0202315,56.1944874
746617,Navervej,7451,16A,9.0193589,56.1945586
746618,Navervej,7451,16B,9.0193701,56.1942443
746619,Navervej,7451,18,9.0193433,56.1936332
746620,Navervej,7451,19,9.0203911,56.1940759
746621,Navervej,7451,20,9.0193327,56.1930222
746622,Navervej,7451,21,9.0199049,56.1932441
746623,Navervej,7451,22,9.0188162,56.1925943
746624,Navervej,7451,24,9.0190377,56.1917973
746625,Navervej,7451,25,9.0196856,56.1921547
746626,Navervej,7451,26,9.0186137,56.1914872
746627,Navervej,7451,27,9.0198813,56.1907196
746628,Navervej,7451,28,9.01846,56.1908207
746629,Navervej,7451,30,9.0183793,56.1903707
746630,Navervej,7451,32,9.0184567,56.1900032
746818,Nordlandsvej,7451,2,9.020287,56.2193623
746819,Nordlandsvej,7451,4,9.0203294,56.2190753
746820,Nordlandsvej,7451,5,9.0210017,56.2183011
746821,Nordlandsvej,7451,6,9.0203238,56.2187788
746822,Nordlandsvej,7451,7,9.0213053,56.2183763
746823,Nordlandsvej,7451,8,9.0202869,56.218455
746824,Nordlandsvej,7451,9,9.0216924,56.2183716
746825,Nordlandsvej,7451,10,9.020104,56.218157
746826,Nordlandsvej,7451,11,9.0219901,56.2181593
746827,Nordlandsvej,7451,12,9.0203002,56.2180778
746828,Nordlandsvej,7451,13,9.0224569,56.2181823
746829,Nordlandsvej,7451,14,9.0206563,56.2180368
746830,Nordlandsvej,7451,15,9.0228743,56.2182318
746831,Nordlandsvej,7451,16,9.0208497,56.218039
746832,Nordlandsvej,7451,18,9.021155,56.2180693
746833,Nordlandsvej,7451,20,9.0213345,56.2180083
746834,Nordlandsvej,7451,22,9.0215449,56.2179837
746835,Nordlandsvej,7451,24,9.021836,56.2179599
746836,Nordlandsvej,7451,26,9.0220809,56.2178728
746837,Nordlandsvej,7451,28,9.0222575,56.2178927
746838,Nordlandsvej,7451,30,9.0224512,56.2178858
746839,Nordlandsvej,7451,32,9.0227609,56.2177904
746840,Nordlysvej,7451,1,9.0228723,56.2196601
746841,Nordlysvej,7451,2,9.0219388,56.219614
746842,Nordlysvej,7451,3,9.0228337,56.2193812
746843,Nordlysvej,7451,4,9.022094,56.2193282
746844,Nordlysvej,7451,5,9.022792,56.2191921
746845,Nordlysvej,7451,6,9.0219271,56.2190299
746846,Nordlysvej,7451,7,9.0229927,56.2189877
746847,Nordlysvej,7451,9,9.0229675,56.2187898
746848,Nordlysvej,7451,11,9.0229571,56.218628
746849,Nordlysvej,7451,13,9.0229169,56.218394
746850,Nordpassagen,7451,4,9.025881,56.218929
746851,Nordpassagen,7451,6,9.0254898,56.219042
746852,Nordpassagen,7451,8,9.0250423,56.2189293
746853,Nordpassagen,7451,10,9.0250294,56.2188393
746854,Nordpassagen,7451,12,9.0254221,56.2187571
746855,Nordpassagen,7451,14,9.0258854,56.2187948
746856,Nordpassagen,7451,16,9.0258529,56.2183453
746857,Nordpassagen,7451,18,9.0253508,56.2184117
746858,Nordpassagen,7451,20,9.0249603,56.2183924
746859,Nordpassagen,7451,22,9.0248256,56.2182173
746860,Nordpassagen,7451,24,9.0253413,56.2182229
746861,Nordpassagen,7451,26,9.0258254,56.2182102
746862,Nordpassagen,7451,28,9.0261702,56.2175762
746863,Nordpassagen,7451,30,9.0264938,56.2175438
746864,Nordpassagen,7451,32,9.0267819,56.2176009
746865,Nordpassagen,7451,34,9.027068,56.2176533
746866,Nordpassagen,7451,36,9.027461,56.2175454
746867,Nordpassagen,7451,38,9.0277678,56.2175308
746868,Nordpassagen,7451,40,9.0279792,56.2174792
746869,Nordpassagen,7451,42,9.0281859,56.2175623
746870,Nordpassagen,7451,44,9.0284317,56.2174482
746871,Nordpassagen,7451,46,9.0287212,56.2174693
746872,Nordringen,7451,30,9.0321885,56.2169771
746873,Nordringen,7451,32,9.032447,56.2169619
746874,Nordringen,7451,34,9.0329153,56.2169401
746875,Nordringen,7451,36,9.0331582,56.2169068
746876,Nordringen,7451,37,9.03366,56.217316
746877,Nordringen,7451,38,9.033401,56.216891
746878,Nordringen,7451,39,9.0339524,56.2172478
746879,Nordringen,7451,40,9.0337011,56.2170564
746880,Nordringen,7451,50,9.0345394,56.2168
746881,Nordringen,7451,52,9.0348254,56.2167183
746882,Nordringen,7451,54,9.0351012,56.2166674
746883,Nordringen,7451,56,9.0353281,56.2166339
746884,Nordringen,7451,58,9.0356185,56.2166281
746885,Nordringen,7451,60,9.0358336,56.2164687
746886,Nordringen,7451,62,9.035699,56.215713
746887,Nordringen,7451,64,9.0366034,56.2165849
746888,Nordringen,7451,65,9.0361204,56.2170288
746889,Nordringen,7451,66,9.0365439,56.2164405
746890,Nordringen,7451,68,9.0364839,56.2163141
746891,Nordringen,7451,70,9.0367529,56.2169189
746892,Nordstien,7451,2,9.0152255,56.2184263
746893,Nordstien,7451,4,9.0156613,56.2184131
746894,Nordstien,7451,6,9.016119,56.21822
746895,Nordstien,7451,8,9.0164476,56.2180624
746896,Nordstjernevej,7451,30,9.0289332,56.2173998
746897,Nordstjernevej,7451,32,9.0291746,56.2174114
746898,Nordstjernevej,7451,34,9.0293538,56.2173594
746899,Nordstjernevej,7451,36,9.0295788,56.2173799
746900,Nordstjernevej,7451,38,9.0297579,56.2173279
746901,Nordstjernevej,7451,40,9.029952,56.2173121
746902,Nordstjernevej,7451,42,9.0301469,56.2172693
746903,Nordstjernevej,7451,44A,9.0304389,56.2174404
746904,Nordstjernevej,7451,44B,9.0306665,56.2172479
746905,Nordstjernevej,7451,46,9.0308604,56.2171513
746906,Nordstjernevej,7451,48,9.0310478,56.217324
746907,Nordstjernevej,7451,50,9.031248,56.217138
746908,Nordstjernevej,7451,52,9.0314276,56.2170676
746909,Nordstjernevej,7451,54,9.0316539,56.2170521
746910,Nordstjernevej,7451,56,9.0318327,56.2170092
746911,Nordstjernevej,7451,60,9.028889,56.217291
746912,Nordsøvej,7451,1,9.0239789,56.219825
746913,Nordsøvej,7451,2,9.023179,56.219636
746914,Nordsøvej,7451,3,9.024458,56.219956
746915,Nordsøvej,7451,4,9.0233634,56.2194499
746916,Nordsøvej,7451,5,9.0248018,56.219807
746917,Nordsøvej,7451,6,9.0235318,56.2192452
746918,Nordsøvej,7451,7,9.02484,56.2196368
746919,Nordsøvej,7451,8,9.0233293,56.2190453
746920,Nordsøvej,7451,9,9.024945,56.2194044
746921,Nordsøvej,7451,10,9.0232711,56.218865
746922,Nordsøvej,7451,11,9.024233,56.2194774
746923,Nordsøvej,7451,12,9.0232617,56.2186763
746924,Nordsøvej,7451,13,9.0241155,56.2191527
746925,Nordsøvej,7451,14,9.0232361,56.2184873
746926,Nordsøvej,7451,15,9.0243597,56.2189341
746927,Nordsøvej,7451,16,9.0232424,56.2183077
746928,Nordsøvej,7451,18,9.0232191,56.218056
746929,Nordsøvej,7451,20,9.0233101,56.2177605
746930,Nordsøvej,7451,22,9.023519,56.2177808
746931,Nordsøvej,7451,24,9.023712,56.2177919
746932,Nordsøvej,7451,26,9.0240678,56.2177598
746933,Nordsøvej,7451,28,9.024406,56.217781
746934,Nordsøvej,7451,30,9.0246787,56.2178114
746935,Nordsøvej,7451,32,9.024873,56.2177866
746936,Nordsøvej,7451,34,9.0251621,56.2178167
746937,Nordsøvej,7451,36,9.0255654,56.2178121
746938,Nordsøvej,7451,38,9.0258548,56.2178333
746939,Nordsøvej,7451,40,9.0260485,56.2178264
746940,Nordvænget,7451,6,9.0167302,56.2187303
746941,Nordvænget,7451,8,9.0164423,56.2186643
746942,Nordvænget,7451,10,9.016159,56.218481
746943,Nordvænget,7451,12,9.016498,56.218349
746944,Nordvænget,7451,14,9.017143,56.218218
746945,Nordvænget,7451,16,9.0176205,56.2181742
746946,Nordvænget,7451,18,9.0179112,56.2181594
746947,Nordvænget,7451,20,9.0182013,56.2181626
746948,Nordvænget,7451,22,9.0184415,56.2182101
746949,Nordvænget,7451,24,9.0186687,56.2182661
746950,Nordvænget,7451,26,9.0188427,56.21821
746951,Nordvænget,7451,30,9.0192757,56.2183271
746952,Nordvænget,7451,32,9.0194852,56.2183294
746953,Nordvænget,7451,34,9.0196388,56.2180885
747110,Nyskovvej,7451,1,9.0893159,56.2407256
747111,Nyskovvej,7451,1A,9.0896447,56.2405404
747112,Nyskovvej,7451,1B,9.08953,56.2405931
747113,Nyskovvej,7451,1C,9.0894154,56.2406458
747114,Nyskovvej,7451,2,9.0887275,56.2409531
747115,Nyskovvej,7451,3,9.088989,56.2404584
747116,Nyskovvej,7451,4,9.0888479,56.2407298
747117,Nyskovvej,7451,5,9.088947,56.2401828
747118,Nyskovvej,7451,6,9.0885174,56.2404838
747119,Nyskovvej,7451,6A,9.0882876,56.2401221
747120,Nyskovvej,7451,7,9.0886144,56.2399997
747121,Nyskovvej,7451,8,9.0881619,56.2400219
747122,Nyskovvej,7451,9A,9.0881299,56.2395365
747123,Nyskovvej,7451,10,9.0879115,56.2397948
747124,Nyskovvej,7451,11,9.088104,56.2393476
747125,Nyskovvej,7451,13,9.0879338,56.2391302
747126,Nyskovvej,7451,13A,9.08773,56.238939
747127,Nyskovvej,7451,14,9.0875153,56.239584
747128,Nyskovvej,7451,15,9.0878348,56.238716
747129,Nyskovvej,7451,16,9.0875554,56.2393509
747130,Nyskovvej,7451,17,9.087244,56.2385392
747131,Nyskovvej,7451,18,9.0873829,56.2392054
747132,Nyskovvej,7451,19,9.0875579,56.2383179
747133,Nyskovvej,7451,20,9.0872259,56.239078
747134,Nyskovvej,7451,21,9.087305,56.238172
747135,Nyskovvej,7451,22,9.0869401,56.2389402
747136,Nyskovvej,7451,23,9.0869016,56.2381673
747137,Nyskovvej,7451,24,9.0868351,56.2387056
747138,Nyskovvej,7451,26,9.086682,56.238452
747139,Nyskovvej,7451,28,9.0865262,56.2382981
747140,Nyskovvej,7451,30,9.0864027,56.2381351
747201,Nøddekrogen,7451,1,9.0205625,56.2019919
747202,Nøddekrogen,7451,2,9.0200458,56.2020222
747203,Nøddekrogen,7451,3,9.0204233,56.2018287
747204,Nøddekrogen,7451,4,9.0196816,56.2018385
747205,Nøddevej,7451,1,9.0176772,56.2029214
747206,Nøddevej,7451,3,9.0179678,56.2029067
747207,Nøddevej,7451,4,9.0180715,56.2027102
747208,Nøddevej,7451,6,9.018363,56.2026684
747209,Nøddevej,7451,7,9.0184698,56.2028403
747210,Nøddevej,7451,8,9.0185804,56.2024463
747211,Nøddevej,7451,9,9.0187774,56.2027988
747212,Nøddevej,7451,10,9.0189139,56.2025847
747213,Nøddevej,7451,11,9.0190361,56.2027747
747214,Nøddevej,7451,12,9.0192721,56.2024808
747215,Nøddevej,7451,13,9.0201527,56.2031013
747216,Nøddevej,7451,14,9.0195463,56.2024748
747217,Nøddevej,7451,15,9.0207498,56.2026228
747218,Nøddevej,7451,16,9.0198053,56.2024418
747219,Nøddevej,7451,18,9.0201288,56.2024094
747220,Nøddevej,7451,20,9.0204696,56.2023413
747221,Nøddevej,7451,22,9.0208752,56.2022649
747222,Nøddevej,7451,24,9.0212002,56.2021876
747467,Nørremarkvej,7451,3,9.018358,56.2228445
747468,Nørremarkvej,7451,5,9.0235494,56.2201167
747469,Nørremarkvej,7451,7,9.0272765,56.220957
747470,Nørremarkvej,7451,8,9.03012,56.2203322
747471,Nørremarkvej,7451,10,9.035172,56.2197134
747472,Nørremarkvej,7451,11,9.0372265,56.2199783
747473,Nørremarkvej,7451,12,9.0393106,56.2189319
747474,Nørremarkvej,7451,13,9.0481163,56.2290879
747475,Nørremarkvej,7451,17,9.0434983,56.219049
747476,Nørremarkvej,7451,18,9.047129,56.2180281
747477,Nørremarkvej,7451,19,9.0524007,56.2236362
747478,Nørreskovvej,7451,8,9.0883893,56.238057
747479,Nørreskovvej,7451,12,9.0889095,56.2388979
747480,Nørreskovvej,7451,14,9.0893385,56.239091
747481,Nørreskovvej,7451,18,9.090155,56.2397552
747482,Nørreskovvej,7451,19,9.089015,56.2395996
747483,Nørreskovvej,7451,20,9.0903279,56.2398918
747484,Nørreskovvej,7451,21,9.0892505,56.2397907
747485,Nørreskovvej,7451,23,9.0895631,56.2400904
747486,Nørreskovvej,7451,29,9.0908415,56.2409302
747487,Nørreskovvej,7451,31,9.0912356,56.2412038
747488,Nørreskovvej,7451,35,9.0922695,56.2421218
747639,Nørrevang,7451,1,9.0141071,56.2031606
747640,Nørrevang,7451,2A,9.0148625,56.2027646
747641,Nørrevang,7451,2B,9.0147737,56.2029972
747642,Nørrevang,7451,2C,9.0148021,56.2031053
747643,Nørrevang,7451,2D,9.015208,56.20302
747644,Nørrevang,7451,2E,9.0150712,56.2032431
747645,Nørrevang,7451,2F,9.015586,56.2032667
747646,Nørrevang,7451,2G,9.0154505,56.2034539
747647,Nørrevang,7451,2H,9.01538,56.2036238
747648,Nørrevang,7451,2I,9.0153401,56.2038389
747649,Nørrevang,7451,2J,9.0152329,56.2041342
747650,Nørrevang,7451,3,9.0139886,56.203321
747651,Nørrevang,7451,4,9.0145828,56.2033814
747652,Nørrevang,7451,5,9.0138704,56.2034724
747653,Nørrevang,7451,6,9.0145928,56.2035522
747654,Nørrevang,7451,7,9.0137046,56.2036053
747655,Nørrevang,7451,8,9.0143944,56.2036937
747656,Nørrevang,7451,9,9.0137794,56.2037678
747657,Nørrevang,7451,10,9.0144367,56.2038649
747658,Nørrevang,7451,12,9.0142714,56.2039798
747659,Nørrevang,7451,13,9.0136873,56.2040902
747660,Nørrevang,7451,14,9.0142013,56.2041408
747661,Nørrevang,7451,15,9.0135676,56.2042865
747662,Nørrevang,7451,16,9.014115,56.204311
747663,Nørrevang,7451,17,9.0134806,56.2044652
747664,Nørrevang,7451,18,9.0140786,56.2044179
747665,Nørrevang,7451,19A,9.0132616,56.2047323
747666,Nørrevang,7451,19B,9.0131009,56.2047215
747667,Nørrevang,7451,20,9.0135256,56.2050137
747668,Nørrevang,7451,22,9.0134886,56.205148
747669,Nørrevang,7451,23,9.012946,56.2049983
747670,Nørrevang,7451,24,9.0133227,56.2052809
747671,Nørrevang,7451,25,9.0128274,56.2051587
747672,Nørrevang,7451,27,9.0127418,56.2053014
747673,Nørrevang,7451,29,9.0126233,56.2054618
747674,Nørrevang,7451,30,9.012937,56.207073
747675,Nørrevang,7451,31,9.0124567,56.2056127
747676,Nørrevang,7451,35,9.012299,56.206419
747677,Nørrevang,7451,37,9.0122125,56.2065892
747678,Nørrevang,7451,39A,9.0121439,56.2067052
747679,Nørrevang,7451,39B,9.0120782,56.2067404
747680,Nørrevang,7451,39C,9.0120125,56.2067756
747681,Nørrevang,7451,39D,9.0117579,56.206683
747682,Nørrevang,7451,39E,9.0116922,56.2067182
747683,Nørrevang,7451,43,9.012125,56.207331
747684,Nørrevang,7451,45,9.0115916,56.2075777
747696,Nørreåvej,7451,2,8.964418,56.2299744
747697,Nørreåvej,7451,3,8.9595759,56.230952
747698,Nørreåvej,7451,4,8.9444022,56.2317473
747699,Nørreåvej,7451,5,8.9540242,56.2327927
747700,Nørreåvej,7451,6,8.9409913,56.2319593
747701,Nørreåvej,7451,7,8.9445268,56.2314343
747702,Nørreåvej,7451,8,8.9371438,56.2313396
747703,Nørreåvej,7451,10,8.9308739,56.2316617
747704,Nørreåvej,7451,11,8.9414042,56.2269604
747705,Nørreåvej,7451,12,8.9261014,56.2333305
747706,Nørreåvej,7451,13,8.9464364,56.2273691
748112,Pilevej,7451,1,9.0194506,56.2056359
748113,Pilevej,7451,2,9.0193648,56.2053295
748114,Pilevej,7451,3,9.0196617,56.2055933
748115,Pilevej,7451,4,9.0195919,56.2052871
748116,Pilevej,7451,5,9.0199046,56.20556
748117,Pilevej,7451,6,9.0197701,56.2052621
748118,Pilevej,7451,7,9.0202612,56.205501
748119,Pilevej,7451,8,9.0199969,56.2052286
748120,Pilevej,7451,9,9.020585,56.2054597
748121,Pilevej,7451,10,9.0201915,56.2051948
748122,Pilevej,7451,11,9.020925,56.205409
748123,Pilevej,7451,12,9.0203696,56.2051698
748124,Pilevej,7451,13,9.0212007,56.2053676
748125,Pilevej,7451,14,9.0205643,56.2051361
748126,Pilevej,7451,15,9.0214743,56.2053796
748127,Pilevej,7451,16,9.0209054,56.2050589
748128,Pilevej,7451,17,9.0217678,56.205284
748129,Pilevej,7451,18,9.0210836,56.205034
748130,Pilevej,7451,19,9.0221061,56.2052877
748131,Pilevej,7451,20,9.0212943,56.2050003
748132,Pilevej,7451,22,9.0214728,56.2049664
748133,Pilevej,7451,24,9.0216996,56.2049329
748134,Pilevej,7451,26,9.0219103,56.2048993
748244,Præstegårdvej,7451,1,9.0109978,56.2035844
748245,Præstegårdvej,7451,2,9.011589,56.203267
748246,Præstegårdvej,7451,3,9.0109775,56.2037009
748247,Præstegårdvej,7451,4,9.0115671,56.2034379
748248,Præstegårdvej,7451,5,9.0109576,56.2038085
748249,Præstegårdvej,7451,6,9.0115629,56.2035547
748250,Præstegårdvej,7451,7,9.0109209,56.2039339
748251,Præstegårdvej,7451,8,9.0115082,56.2037337
748252,Præstegårdvej,7451,9,9.010901,56.2040414
748253,Præstegårdvej,7451,10,9.0114876,56.2038593
748254,Præstegårdvej,7451,10A,9.0114822,56.2040119
748255,Præstegårdvej,7451,10B,9.0114796,56.2040838
748256,Præstegårdvej,7451,10C,9.0114288,56.2041551
748257,Præstegårdvej,7451,10D,9.0114415,56.2047032
748258,Præstegårdvej,7451,11,9.0108807,56.204158
748259,Præstegårdvej,7451,12,9.0113298,56.2051242
748260,Præstegårdvej,7451,12A,9.0114641,56.2049729
748261,Præstegårdvej,7451,13,9.0108608,56.2042656
748262,Præstegårdvej,7451,14,9.0110653,56.2062172
748263,Præstegårdvej,7451,15,9.0108408,56.2043731
748264,Præstegårdvej,7451,16,9.0110444,56.2063517
748265,Præstegårdvej,7451,17,9.0108044,56.2044895
748266,Præstegårdvej,7451,18,9.0110232,56.2064952
748267,Præstegårdvej,7451,19,9.0108006,56.2045973
748268,Præstegårdvej,7451,20A,9.0110825,56.2066396
748269,Præstegårdvej,7451,20B,9.0110168,56.2066748
748270,Præstegårdvej,7451,20C,9.010951,56.20671
748271,Præstegårdvej,7451,20D,9.0108853,56.2067452
748272,Præstegårdvej,7451,20E,9.0116132,56.2066724
748273,Præstegårdvej,7451,21,9.0107961,56.204723
748274,Præstegårdvej,7451,22,9.0109241,56.2070151
748275,Præstegårdvej,7451,23,9.0106918,56.2049374
748276,Præstegårdvej,7451,25,9.0107331,56.2051355
748277,Præstegårdvej,7451,27,9.0106629,56.2052964
748278,Præstegårdvej,7451,29,9.0106565,56.205476
748279,Præstegårdvej,7451,31,9.0105174,56.205762
748280,Præstegårdvej,7451,33,9.0105761,56.2059243
748281,Præstegårdvej,7451,35,9.0104891,56.206103
748282,Præstegårdvej,7451,37,9.010467,56.206264
748283,Præstegårdvej,7451,38,9.010566,56.2089246
748284,Præstegårdvej,7451,39,9.010446,56.206408
748285,Præstegårdvej,7451,40,9.0109163,56.2090452
748286,Præstegårdvej,7451,41,9.0103749,56.2065958
748287,Præstegårdvej,7451,42,9.011398,56.2090955
748288,Præstegårdvej,7451,43,9.0103975,56.2068656
748289,Præstegårdvej,7451,44,9.0118305,56.2091721
748290,Præstegårdvej,7451,45,9.010341,56.20708
748291,Præstegårdvej,7451,46,9.0122816,56.2091771
748292,Præstegårdvej,7451,47,9.0103361,56.2072332
748293,Præstegårdvej,7451,48,9.0122582,56.2093834
748294,Præstegårdvej,7451,49,9.010282,56.2073943
748295,Præstegårdvej,7451,50,9.0121387,56.2095708
748296,Præstegårdvej,7451,51,9.010245,56.2075286
748297,Præstegårdvej,7451,52,9.0115899,56.2095917
748298,Præstegårdvej,7451,53,9.0101757,56.2076626
748299,Præstegårdvej,7451,54,9.0110766,56.2095231
748300,Præstegårdvej,7451,55,9.0101838,56.2078873
748301,Præstegårdvej,7451,56,9.0107079,56.2094651
748302,Præstegårdvej,7451,57,9.0101781,56.2080489
748303,Præstegårdvej,7451,58,9.0102587,56.2094063
748304,Præstegårdvej,7451,59,9.0100924,56.2081917
748305,Præstegårdvej,7451,60,9.0100867,56.2097098
748306,Præstegårdvej,7451,61,9.010048,56.2085326
748307,Præstegårdvej,7451,62,9.0104215,56.2098123
748308,Præstegårdvej,7451,63,9.0098261,56.2088804
748309,Præstegårdvej,7451,64,9.0108057,56.2098884
748310,Præstegårdvej,7451,65,9.0096251,56.2090938
748311,Præstegårdvej,7451,66,9.0106675,56.2101474
748312,Præstegårdvej,7451,67,9.0095311,56.2094701
748313,Præstegårdvej,7451,68,9.0102492,56.2101248
748314,Præstegårdvej,7451,70,9.0098319,56.2100753
748315,Præstegårdvænget,7451,1,9.0096075,56.2082312
748316,Præstegårdvænget,7451,2,9.0088292,56.2079082
748317,Præstegårdvænget,7451,3,9.0093483,56.2078152
748318,Præstegårdvænget,7451,4,9.00841,56.207922
748319,Præstegårdvænget,7451,5,9.0094368,56.2075916
748320,Præstegårdvænget,7451,6,9.0080046,56.2079799
748321,Præstegårdvænget,7451,7,9.0094303,56.207322
748322,Præstegårdvænget,7451,8,9.0076173,56.2079936
748323,Præstegårdvænget,7451,9,9.0094563,56.2070438
748324,Præstegårdvænget,7451,10,9.0071488,56.2080243
748325,Præstegårdvænget,7451,11,9.0088277,56.2070458
748326,Præstegårdvænget,7451,12,9.0067434,56.2080917
748327,Præstegårdvænget,7451,13,9.0088987,56.2073161
748328,Præstegårdvænget,7451,14,9.0063075,56.2081138
748329,Præstegårdvænget,7451,15,9.0088111,56.2075128
748330,Præstegårdvænget,7451,16,9.0057033,56.2083317
748331,Præstegårdvænget,7451,17,9.0084402,56.2075176
748332,Præstegårdvænget,7451,18,9.0092348,56.2087392
748333,Præstegårdvænget,7451,19,9.0082416,56.20721
748334,Præstegårdvænget,7451,21,9.0078852,56.20726
748335,Præstegårdvænget,7451,23,9.0079227,56.2075658
748336,Præstegårdvænget,7451,25,9.00747,56.2076057
748337,Præstegårdvænget,7451,27,9.0073339,56.2073527
748338,Præstegårdvænget,7451,29,9.0069131,56.2074019
748339,Præstegårdvænget,7451,31,9.0070321,56.2076817
748340,Præstegårdvænget,7451,33,9.0064646,56.2073251
748341,Præstegårdvænget,7451,35,9.0063763,56.2075397
748342,Præstegårdvænget,7451,37,9.0064808,56.2077744
748717,Riskærvej,7451,1,9.0158726,56.2787998
748718,Riskærvej,7451,4,9.0182108,56.2779811
748719,Riskærvej,7451,8,9.0272396,56.2751604
748720,Riskærvej,7451,11,9.0317354,56.2749578
748721,Riskærvej,7451,14,9.0357294,56.2734022
749002,Ruskærvej,7451,10,9.1448901,56.2185743
749003,Ruskærvej,7451,22,9.1404942,56.2204078
749004,Ruskærvej,7451,23,9.1330128,56.2229108
749005,Ruskærvej,7451,25,9.1289176,56.2243876
749006,Ruskærvej,7451,27,9.1275783,56.2249131
749092,Røjenvej,7451,4,9.0066325,56.223838
749093,Røjenvej,7451,5,9.0037295,56.2229523
749094,Røjenvej,7451,8,9.0013429,56.2261058
749095,Røjenvej,7451,9,8.9959106,56.2247068
749096,Røjenvej,7451,9A,8.975353,56.223784
749097,Røjenvej,7451,10,9.0004219,56.2266076
749098,Røjenvej,7451,11,8.998288,56.2272037
749099,Røjenvej,7451,12,8.998184,56.228289
749100,Røjenvej,7451,16A,8.998068,56.233183
749101,Røjenvej,7451,16B,8.999739,56.23329
749102,Røjenvej,7451,17,8.9821831,56.2297269
749103,Røjenvej,7451,19,8.9893381,56.234335
749104,Røjenvej,7451,20,8.9943136,56.2359089
749105,Røjenvej,7451,22,8.9916596,56.2365978
749106,Røjenvej,7451,24,8.9907561,56.237495
749107,Røjenvej,7451,26,8.9901704,56.2380813
749108,Røjenvej,7451,28,8.9839146,56.2402208
749109,Røjenvej,7451,32,8.9848377,56.2450103
749110,Røjenvej,7451,33,8.9766765,56.2475951
749111,Røjenvej,7451,36,8.9794339,56.2436558
749112,Røjenvej,7451,42,8.9747052,56.251202
749113,Røjenvej,7451,55,8.9649206,56.2636312
749114,Røjenvej,7451,66,8.9532549,56.2743672
749115,Røjenvej,7451,68,8.9490751,56.2760438
749119,Rønne Alle,7451,1,9.0134183,56.2057671
749120,Rønne Alle,7451,1A,9.0139606,56.2059258
749121,Rønne Alle,7451,1B,9.014216,56.205982
749122,Rønne Alle,7451,2,9.0136756,56.206237
749123,Rønne Alle,7451,3,9.013098,56.2057096
749124,Rønne Alle,7451,4,9.013439,56.2060907
749125,Rønne Alle,7451,5,9.0118503,56.2054443
749126,Rønne Alle,7451,6,9.0131831,56.206034
749127,Rønne Alle,7451,7,9.0115246,56.2055395
749128,Rønne Alle,7451,8,9.0129109,56.205986
749129,Rønne Alle,7451,9,9.0111566,56.2054636
749130,Rønne Alle,7451,10,9.0122967,56.2060332
749131,Rønne Alle,7451,14,9.0119004,56.2058491
749132,Rønne Alle,7451,16,9.0116581,56.2058644
749133,Rønne Alle,7451,18,9.0113697,56.2058163
749134,Rønne Alle,7451,20,9.0111116,56.2058224
749135,Rønne Alle,7451,25,9.0075542,56.2052441
749136,Rønne Alle,7451,27,9.0080211,56.2052582
749137,Rønne Alle,7451,28,9.0075227,56.2056749
749138,Rønne Alle,7451,29,9.0084877,56.2052814
749139,Rønne Alle,7451,30,9.0080212,56.2057074
749140,Rønne Alle,7451,31,9.0085147,56.2049762
749141,Rønne Alle,7451,32,9.0084862,56.2057754
749142,Rønne Alle,7451,33,9.0080665,56.2048904
749143,Rønne Alle,7451,34,9.008444,56.2060534
749144,Rønne Alle,7451,35,9.0076157,56.2048764
749145,Rønne Alle,7451,36,9.0079613,56.2060301
749146,Rønne Alle,7451,37,9.0078992,56.2046101
749147,Rønne Alle,7451,38,9.0074951,56.205998
749148,Rønne Alle,7451,39,9.0084295,56.2046519
749149,Rønne Alle,7451,40,9.0073537,56.2063468
749150,Rønne Alle,7451,41,9.008613,56.2040251
749151,Rønne Alle,7451,42,9.007837,56.2063521
749152,Rønne Alle,7451,43,9.0081923,56.2040743
749153,Rønne Alle,7451,44,9.0083349,56.2064026
749154,Rønne Alle,7451,45,9.0082796,56.2043358
749155,Rønne Alle,7451,46A,9.0083578,56.2066633
749156,Rønne Alle,7451,46B,9.008149,56.206643
749157,Rønne Alle,7451,47,9.00772,56.2042128
749158,Rønne Alle,7451,48,9.0078584,56.2066578
749159,Rønne Alle,7451,49,9.0072512,56.2042526
749160,Rønne Alle,7451,50,9.0073596,56.2066343
749161,Rønne Alle,7451,51,9.0067521,56.204238
749162,Rønne Alle,7451,52A,9.0072069,56.2068482
749163,Rønne Alle,7451,52B,9.0071882,56.2069199
749164,Rønne Alle,7451,53,9.0061724,56.2042226
749165,Rønne Alle,7451,54A,9.0066363,56.2070305
749166,Rønne Alle,7451,54B,9.0066736,56.2068872
749167,Rønne Alle,7451,55,9.0063861,56.2045574
749168,Rønne Alle,7451,56A,9.0060218,56.2070866
749169,Rønne Alle,7451,56B,9.0060418,56.206979
749170,Rønne Alle,7451,56C,9.0060617,56.2068714
749171,Rønne Alle,7451,56D,9.0060978,56.206764
749172,Rønne Alle,7451,57,9.0071272,56.2045656
749173,Rønne Alle,7451,58,9.0066681,56.2065907
749174,Rønne Alle,7451,59,9.007085,56.2048436
749175,Rønne Alle,7451,60,9.0062663,56.2065593
749176,Rønne Alle,7451,61,9.0066497,56.2048478
749177,Rønne Alle,7451,62,9.0063258,56.2062455
749178,Rønne Alle,7451,63,9.006361,56.2048086
749179,Rønne Alle,7451,64,9.0066461,56.206303
749180,Rønne Alle,7451,65,9.0064925,56.2051874
749181,Rønne Alle,7451,66,9.0068668,56.205991
749182,Rønne Alle,7451,67,9.0069275,56.2051922
749183,Rønne Alle,7451,68,9.0063213,56.2059221
749184,Rønne Alle,7451,69,9.0049002,56.2050978
749185,Rønne Alle,7451,70,9.006315,56.205643
749186,Rønne Alle,7451,71,9.0053078,56.2049676
749187,Rønne Alle,7451,72,9.0068467,56.2056494
749188,Rønne Alle,7451,73,9.0057437,56.2049455
749189,Rønne Alle,7451,74,9.0034242,56.2058091
749190,Rønne Alle,7451,75,9.005578,56.2046203
749191,Rønne Alle,7451,76,9.0038164,56.2056607
749192,Rønne Alle,7451,77,9.005108,56.2046959
749193,Rønne Alle,7451,78,9.0041708,56.2056647
749194,Rønne Alle,7451,79,9.0046707,56.2047539
749195,Rønne Alle,7451,80,9.004559,56.205624
749196,Rønne Alle,7451,81,9.004536,56.204465
749197,Rønne Alle,7451,82,9.0050121,56.2055752
749198,Rønne Alle,7451,83,9.0049748,56.204362
749199,Rønne Alle,7451,84,9.0055282,56.2055629
749200,Rønne Alle,7451,85,9.0054781,56.2042598
749201,Rønne Alle,7451,86,9.0055843,56.2057971
749202,Rønne Alle,7451,87,9.0052957,56.2039524
749203,Rønne Alle,7451,88,9.0051958,56.2058467
749204,Rønne Alle,7451,89,9.0048253,56.204037
749205,Rønne Alle,7451,90,9.0045952,56.2059658
749206,Rønne Alle,7451,91,9.0043717,56.2041038
749207,Rønne Alle,7451,92A,9.0041595,56.2059789
749208,Rønne Alle,7451,92B,9.0039807,56.2060219
749209,Rønne Alle,7451,93,9.0037234,56.2042044
749210,Rønne Alle,7451,94,9.003689,56.206064
749211,Rønne Alle,7451,95,9.0032688,56.2042982
749212,Rønne Alle,7451,96,9.003742,56.206388
749213,Rønne Alle,7451,97,9.0028,56.2043379
749214,Rønne Alle,7451,98,9.0040655,56.2063552
749215,Rønne Alle,7451,99,9.0029018,56.2046444
749216,Rønne Alle,7451,100,9.0044712,56.2062788
749217,Rønne Alle,7451,101,9.0033874,56.204587
749218,Rønne Alle,7451,102,9.0048114,56.2062287
749219,Rønne Alle,7451,103,9.0039377,56.2045212
749220,Rønne Alle,7451,104,9.0051833,56.2061969
749221,Rønne Alle,7451,105,9.0040067,56.2048454
749222,Rønne Alle,7451,106,9.0055731,56.2061114
749223,Rønne Alle,7451,107,9.003602,56.2048948
749224,Rønne Alle,7451,108,9.0054958,56.2064699
749225,Rønne Alle,7451,109,9.0031493,56.2049346
749226,Rønne Alle,7451,110,9.0050422,56.2065367
749227,Rønne Alle,7451,111,9.003217,56.2052947
749228,Rønne Alle,7451,112,9.0045076,56.2066116
749229,Rønne Alle,7451,113,9.003798,56.2052742
749230,Rønne Alle,7451,114,9.0040053,56.2066869
749231,Rønne Alle,7451,115,9.0042516,56.2052074
749232,Rønne Alle,7451,116,9.0040923,56.2069574
749233,Rønne Alle,7451,117,9.001547,56.2055726
749234,Rønne Alle,7451,118,9.0045134,56.2068992
749235,Rønne Alle,7451,119,9.0019846,56.2055056
749236,Rønne Alle,7451,120,9.0050325,56.2068061
749237,Rønne Alle,7451,121,9.0023899,56.2054382
749238,Rønne Alle,7451,122,9.0054057,56.2067384
749239,Rønne Alle,7451,123,9.0027952,56.2053709
749240,Rønne Alle,7451,124,9.0051663,56.207122
749241,Rønne Alle,7451,125,9.0026299,56.2050367
749242,Rønne Alle,7451,126,9.0048257,56.2071811
749243,Rønne Alle,7451,127,9.0022394,56.2051401
749244,Rønne Alle,7451,128,9.0042912,56.207256
749245,Rønne Alle,7451,129,9.0020921,56.2047522
749246,Rønne Alle,7451,130,9.003483,56.2073189
749247,Rønne Alle,7451,131,9.0024153,56.2047289
749248,Rønne Alle,7451,132,9.0029965,56.2074033
749249,Rønne Alle,7451,133,9.0022487,56.2044306
749250,Rønne Alle,7451,134,9.002397,56.207486
749251,Rønne Alle,7451,135,9.001941,56.204472
749252,Rønne Alle,7451,136,9.0023275,56.2071803
749253,Rønne Alle,7451,137,9.0014062,56.2045559
749254,Rønne Alle,7451,138,9.0028943,56.2071057
749255,Rønne Alle,7451,139,9.0010495,56.2046148
749256,Rønne Alle,7451,140,9.0033799,56.2070483
749257,Rønne Alle,7451,141,9.0011858,56.2048589
749258,Rønne Alle,7451,142,9.0033251,56.2067781
749259,Rønne Alle,7451,143,9.001574,56.2048183
749260,Rønne Alle,7451,144,9.0027093,56.2068701
749261,Rønne Alle,7451,145,9.001739,56.2051615
749262,Rønne Alle,7451,146,9.0020942,56.2069441
749263,Rønne Alle,7451,147,9.0013817,56.2052384
749264,Rønne Alle,7451,148,9.0019589,56.2066731
749265,Rønne Alle,7451,149,9.000717,56.2053478
749266,Rønne Alle,7451,150,9.0022998,56.2066051
749267,Rønne Alle,7451,151,9.000331,56.2053255
749268,Rønne Alle,7451,152,9.0027863,56.2065206
749269,Rønne Alle,7451,153,9.0001609,56.205126
749270,Rønne Alle,7451,154,9.0031092,56.2065063
749271,Rønne Alle,7451,155,9.0004873,56.2050128
749272,Rønne Alle,7451,156,9.0030086,56.2061638
749273,Rønne Alle,7451,157,9.0004328,56.2047337
749274,Rønne Alle,7451,158,9.002458,56.206239
749275,Rønne Alle,7451,159,9.0000127,56.204765
749276,Rønne Alle,7451,160,9.0018093,56.2063481
749277,Rønne Alle,7451,161,8.9994617,56.2048487
749278,Rønne Alle,7451,162,9.0016585,56.2060589
749279,Rønne Alle,7451,163,8.9990886,56.2049164
749280,Rønne Alle,7451,164,9.0021138,56.2059472
749281,Rønne Alle,7451,165,8.9992081,56.2051782
749282,Rønne Alle,7451,166,9.0023893,56.2059054
749283,Rønne Alle,7451,167,8.9996444,56.2051472
749284,Rønne Alle,7451,168,9.0028262,56.2058563
749285,Rønne Alle,7451,169,8.9997443,56.2055076
749286,Rønne Alle,7451,170,9.001801,56.207546
749287,Rønne Alle,7451,171,8.9993392,56.205566
749288,Rønne Alle,7451,172,9.0013944,56.2075831
749289,Rønne Alle,7451,173,8.9989033,56.205588
749290,Rønne Alle,7451,174,9.0010538,56.2076422
749291,Rønne Alle,7451,175,8.9987693,56.2052811
749292,Rønne Alle,7451,176,9.0006961,56.2077281
749293,Rønne Alle,7451,177,8.998667,56.204984
749294,Rønne Alle,7451,179,8.9980852,56.2050309
749295,Rønne Alle,7451,180,8.9998245,56.2077633
749296,Rønne Alle,7451,181,8.9982077,56.205212
749297,Rønne Alle,7451,182,8.9998764,56.207665
749298,Rønne Alle,7451,183,8.9982785,56.2054823
749299,Rønne Alle,7451,184,9.0001902,56.2074529
749300,Rønne Alle,7451,185,8.9983671,56.2057078
749301,Rønne Alle,7451,186,9.0001322,56.2072726
749302,Rønne Alle,7451,187,8.9984206,56.2060139
749303,Rønne Alle,7451,188,9.0006149,56.207296
749304,Rønne Alle,7451,189,8.9987609,56.2059638
749305,Rønne Alle,7451,190,9.0007348,56.2075488
749306,Rønne Alle,7451,191,8.9990857,56.2058955
749307,Rønne Alle,7451,192,9.0009387,56.2072547
749308,Rønne Alle,7451,193,8.9994742,56.2058459
749309,Rønne Alle,7451,194,9.0012651,56.2071415
749310,Rønne Alle,7451,195,8.999847,56.2057872
749311,Rønne Alle,7451,196,9.0013364,56.2074028
749312,Rønne Alle,7451,197,9.0001712,56.2057369
749313,Rønne Alle,7451,198,9.0011946,56.2068622
749314,Rønne Alle,7451,199,9.000544,56.2056782
749315,Rønne Alle,7451,201,9.0009487,56.2056288
749316,Rønne Alle,7451,203,8.9974817,56.2061291
749317,Rønne Alle,7451,310,9.0007883,56.2069565
749318,Rønne Alle,7451,312,9.000594,56.2069813
749319,Rønne Alle,7451,314,9.0003017,56.2070409
749320,Rønne Alle,7451,316,9.000227,56.20686
749321,Rønne Alle,7451,318,8.9998973,56.2070814
749322,Rønne Alle,7451,320,8.9997191,56.2071063
749323,Rønne Alle,7451,322,8.9996096,56.2070153
749324,Rønne Alle,7451,324,8.999504,56.206798
749325,Rønne Alle,7451,326,8.9994607,56.2066722
749326,Rønne Alle,7451,328,8.999704,56.20663
749327,Rønne Alle,7451,330,9.0001841,56.2067252
749328,Rønne Alle,7451,332,9.0004435,56.2066832
749329,Rønne Alle,7451,336,9.0009423,56.2067067
749330,Rønne Alle,7451,342,9.0002411,56.2064833
749331,Rønne Alle,7451,344,9.0004032,56.2064582
749332,Rønne Alle,7451,346,9.0005492,56.2064328
749333,Rønne Alle,7451,348,8.9992261,56.206472
749334,Rønne Alle,7451,350,8.9994043,56.206447
749335,Rønne Alle,7451,352,8.9995825,56.2064221
749336,Rønne Alle,7451,354,8.9992816,56.206275
749337,Rønne Alle,7451,356,8.9994436,56.2062498
749338,Rønne Alle,7451,358,8.9995735,56.2062243
749339,Rønne Alle,7451,360,8.9999566,56.2063274
749340,Rønne Alle,7451,362,8.9998825,56.2061469
749341,Rønne Alle,7451,364,9.0000281,56.2061306
749342,Rønne Alle,7451,366,9.0001902,56.2061054
749343,Rønne Alle,7451,368,9.0006349,56.2062901
749344,Rønne Alle,7451,370,9.0006049,56.2062269
749345,Rønne Alle,7451,372,9.0005753,56.2061547
749346,Rønne Alle,7451,374,9.000545,56.206082
749347,Rønne Alle,7451,376,9.0005153,56.2060282
749734,Simmelkær Hovedgade,7451,2,9.0031531,56.2674124
749735,Simmelkær Hovedgade,7451,3,9.0025001,56.2667134
749736,Simmelkær Hovedgade,7451,4,9.003016,56.267617
749737,Simmelkær Hovedgade,7451,5,9.002828,56.267031
749738,Simmelkær Hovedgade,7451,6,9.0029139,56.267778
749739,Simmelkær Hovedgade,7451,7,9.0027564,56.2672193
749740,Simmelkær Hovedgade,7451,7C,9.0007526,56.2668288
749741,Simmelkær Hovedgade,7451,7D,9.0000297,56.2667309
749742,Simmelkær Hovedgade,7451,8,9.0028423,56.2679749
749743,Simmelkær Hovedgade,7451,9,9.0025027,56.2675399
749744,Simmelkær Hovedgade,7451,10,9.0028042,56.2681361
749745,Simmelkær Hovedgade,7451,11,9.0024821,56.2676654
749746,Simmelkær Hovedgade,7451,12,9.0025854,56.2683852
749747,Simmelkær Hovedgade,7451,13,9.0023133,56.2678702
749748,Simmelkær Hovedgade,7451,15,9.0022569,56.2680941
749749,Simmelkær Hovedgade,7451,15A,9.0016479,56.2679706
749750,Simmelkær Hovedgade,7451,16,9.0024141,56.2686618
749751,Simmelkær Hovedgade,7451,17,9.0021691,56.2682908
749752,Simmelkær Hovedgade,7451,18,9.002325,56.2688944
749753,Simmelkær Hovedgade,7451,19,9.001969,56.2684682
749754,Simmelkær Hovedgade,7451,21,9.0019961,56.2686123
749755,Simmelkær Hovedgade,7451,23,9.0019422,56.2687644
749756,Simmelkær Hovedgade,7451,24,9.002174,56.2690544
749757,Simmelkær Hovedgade,7451,25,9.0019516,56.2689531
749758,Simmelkær Hovedgade,7451,27,9.0019003,56.2690334
749759,Simmelkær Hovedgade,7451,28,9.0020675,56.2693227
749760,Simmelkær Hovedgade,7451,29,9.0018651,56.2691139
749761,Simmelkær Hovedgade,7451,30,9.0020736,56.2696013
749762,Simmelkær Hovedgade,7451,32,9.0025465,56.2694718
749763,Simmelkær Hovedgade,7451,33,9.0017109,56.2693637
749764,Simmelkær Hovedgade,7451,34,9.0027598,56.2693753
749765,Simmelkær Hovedgade,7451,35,9.0018903,56.2697609
749766,Simmelkær Hovedgade,7451,36,9.0029728,56.2692879
749767,Simmelkær Hovedgade,7451,37,9.002094,56.2699339
749768,Simmelkær Hovedgade,7451,38,9.0031439,56.2694694
749769,Simmelkær Hovedgade,7451,39A,9.0022809,56.2701246
749770,Simmelkær Hovedgade,7451,39B,9.0023593,56.2701883
749771,Simmelkær Hovedgade,7451,40,9.0028011,56.2695734
749772,Simmelkær Hovedgade,7451,41A,9.002211,56.270276
749773,Simmelkær Hovedgade,7451,41B,9.002145,56.2703117
749774,Simmelkær Hovedgade,7451,42,9.0022453,56.2697649
749775,Simmelkær Hovedgade,7451,44,9.0024025,56.2698834
749776,Simmelkær Hovedgade,7451,45,9.0026572,56.2704342
749777,Simmelkær Hovedgade,7451,46,9.0026866,56.2700662
749778,Simmelkær Hovedgade,7451,47,9.0027963,56.2706064
749779,Simmelkær Hovedgade,7451,48,9.002922,56.270239
749780,Simmelkær Hovedgade,7451,49,9.0029526,56.2707519
749781,Simmelkær Hovedgade,7451,50,9.0035606,56.2709024
749782,Simmelkærvej,7451,2,9.0904154,56.2406473
749783,Simmelkærvej,7451,4,9.0901204,56.2407879
749784,Simmelkærvej,7451,6,9.0898752,56.2408842
749785,Simmelkærvej,7451,8,9.0894824,56.2410508
749786,Simmelkærvej,7451,10,9.0889917,56.2412523
749787,Simmelkærvej,7451,12,9.0885165,56.2414719
749788,Simmelkærvej,7451,14,9.0879636,56.242562
749789,Simmelkærvej,7451,16,9.0869607,56.2421653
749962,Skalmejevej,7451,33,8.997469,56.206929
749963,Skalmejevej,7451,35,8.9962972,56.2059003
749964,Skalmejevej,7451,37,8.9962763,56.2060348
749965,Skalmejevej,7451,39,8.9964142,56.206234
749966,Skalmejevej,7451,41,8.9968817,56.2062302
749967,Skalmejevej,7451,43,8.9968256,56.205996
749968,Skalmejevej,7451,45,8.9973,56.2058037
749969,Skalmejevej,7451,47,8.9977031,56.2057992
749970,Skalmejevej,7451,49,8.9976138,56.2055916
749971,Skalmejevej,7451,51,8.9974601,56.2053833
749972,Skalmejevej,7451,53,8.9974508,56.2051945
749973,Skalmejevej,7451,55,8.9970967,56.2051816
749974,Skalmejevej,7451,57,8.9969601,56.2053957
749975,Skalmejevej,7451,59,8.9970825,56.2055767
749976,Skalmejevej,7451,61,8.9966939,56.2056263
749977,Skalmejevej,7451,63,8.9964971,56.2052737
749978,Skalmejevej,7451,65,8.9960253,56.2053942
749979,Skalmejevej,7451,67,8.9961146,56.2056018
750061,Skinderholmvej,7451,24,9.067745,56.180807
750063,Skinderholmvej,7451,26,9.072822,56.180241
750066,Skivevej,7451,1,9.0144628,56.2063086
750067,Skivevej,7451,2,9.0146073,56.2067773
750068,Skivevej,7451,2B,9.0151297,56.2070436
750069,Skivevej,7451,2C,9.0152315,56.206901
750070,Skivevej,7451,3,9.0142482,56.20645
750071,Skivevej,7451,4,9.0143848,56.2071432
750072,Skivevej,7451,5,9.0142428,56.2066026
750073,Skivevej,7451,6,9.0142192,56.2072671
750074,Skivevej,7451,7,9.0140911,56.2067896
750075,Skivevej,7451,9,9.0134242,56.2069619
750076,Skivevej,7451,12,9.0136132,56.2084462
750077,Skivevej,7451,14,9.0135253,56.2086518
750078,Skivevej,7451,15,9.0120985,56.208066
750079,Skivevej,7451,16,9.0133884,56.2088749
750080,Skivevej,7451,18,9.0133688,56.2089735
750081,Skivevej,7451,20,9.0132838,56.2090983
750082,Skivevej,7451,21,9.0122915,56.209806
750083,Skivevej,7451,23,9.0113229,56.2098492
750084,Skivevej,7451,24,9.0130938,56.2094556
750085,Skivevej,7451,25,9.0117073,56.2108236
750086,Skivevej,7451,26,9.0128748,56.2097226
750087,Skivevej,7451,26A,9.0130864,56.2096621
750088,Skivevej,7451,27,9.0114132,56.2113863
750089,Skivevej,7451,28,9.0127881,56.2098924
750090,Skivevej,7451,29,9.0113279,56.2115201
750091,Skivevej,7451,30,9.0127337,56.2100624
750092,Skivevej,7451,30B,9.0126056,56.2104922
750093,Skivevej,7451,31,9.0110841,56.2120295
750094,Skivevej,7451,32,9.0125338,56.210698
750095,Skivevej,7451,34,9.012404,56.2108914
750096,Skivevej,7451,34A,9.0121663,56.2110623
750097,Skivevej,7451,36,9.0122117,56.2111436
750098,Skivevej,7451,38,9.0121035,56.2114658
750099,Skivevej,7451,39,9.0099297,56.2132115
750100,Skivevej,7451,40,9.01196,56.2118775
750101,Skivevej,7451,41,9.0086608,56.2153444
750102,Skivevej,7451,42,9.0112576,56.2134957
750103,Skivevej,7451,42A,9.0116165,56.2120174
750104,Skivevej,7451,44,9.0112364,56.2136391
750105,Skivevej,7451,51,9.0084893,56.2237687
750106,Skivevej,7451,53,9.0066852,56.2318425
750107,Skivevej,7451,55,9.0054486,56.2316941
750108,Skivevej,7451,56,9.0097062,56.2348673
750109,Skivevej,7451,58,9.0158523,56.2343872
750110,Skivevej,7451,59,9.0041859,56.2363333
750111,Skivevej,7451,60,9.021499,56.234332
750112,Skivevej,7451,62,9.0274518,56.235224
750113,Skivevej,7451,64,9.0307471,56.234164
750114,Skivevej,7451,66,9.0164891,56.2387151
750115,Skivevej,7451,68,9.0107626,56.2396221
750116,Skivevej,7451,69,9.0017074,56.2424772
750117,Skivevej,7451,70,9.0076282,56.2411146
750118,Skivevej,7451,71,8.993793,56.242299
750119,Skivevej,7451,77,9.0060131,56.2470345
750120,Skivevej,7451,81,9.0021673,56.2534956
750121,Skivevej,7451,83,9.002388,56.258591
750122,Skivevej,7451,85,8.9999419,56.2561478
750123,Skivevej,7451,91,9.0036161,56.2671031
750124,Skivevej,7451,93,9.0035349,56.2684676
750125,Skivevej,7451,95,9.0033797,56.2687444
750126,Skivevej,7451,97,9.0033368,56.2690404
750481,Skåphusvej,7451,2,9.0884125,56.2349672
750482,Skåphusvej,7451,3,9.087798,56.234044
750483,Skåphusvej,7451,4,9.0881453,56.2347578
750484,Skåphusvej,7451,5,9.0877277,56.2337473
750485,Skåphusvej,7451,6,9.0876507,56.2345999
750486,Skåphusvej,7451,7,9.087414,56.233484
750487,Skåphusvej,7451,8,9.08752,56.2343946
750488,Skåphusvej,7451,9,9.0870757,56.2331881
750489,Skåphusvej,7451,10,9.087153,56.234159
750490,Skåphusvej,7451,12,9.086841,56.2337381
750491,Skåphusvej,7451,13,9.0867422,56.2328387
750492,Skåphusvej,7451,14,9.0866414,56.2339156
750493,Skåphusvej,7451,15,9.0910253,56.2267929
750494,Skåphusvej,7451,17,9.0871189,56.2269139
750495,Skåphusvej,7451,18,9.0861343,56.2336498
750496,Skåphusvej,7451,19,9.0879392,56.2260152
750497,Skåphusvej,7451,21,9.0963276,56.2244675
750498,Skåphusvej,7451,22,9.0864239,56.2336708
750499,Skåphusvej,7451,23,9.1023241,56.2201548
750500,Skåphusvej,7451,24,9.0867962,56.2336298
750501,Skåphusvej,7451,25,9.0805207,56.2179338
750502,Skåphusvej,7451,26,9.0864078,56.2332756
750503,Skåphusvej,7451,27,9.0770779,56.2162896
750504,Skåphusvej,7451,30,9.0859017,56.2334424
750505,Skåphusvej,7451,34,9.0848869,56.2331709
750506,Skåphusvej,7451,36,9.0853528,56.2332532
750507,Skåphusvej,7451,38,9.0856824,56.233178
750508,Skåphusvej,7451,40,9.0860569,56.2330741
750509,Skåphusvej,7451,42,9.0863958,56.2330687
750510,Skåphusvej,7451,52,9.0847926,56.2327824
750511,Skåphusvej,7451,54,9.0807758,56.2299467
750512,Skåphusvej,7451,56,9.084032,56.2266391
750513,Skåphusvej,7451,60,9.0856452,56.2237455
750514,Skåphusvej,7451,64,9.0777791,56.2189111
750515,Skåphusvej,7451,66,9.0722415,56.2200834
751479,Stalmosevej,7451,2,9.009037,56.256348
751480,Stalmosevej,7451,2B,9.0112667,56.2562612
751481,Stalmosevej,7451,4,9.0168138,56.2541157
751482,Stalmosevej,7451,4B,9.019181,56.2538003
751483,Stalmosevej,7451,6,9.0229288,56.2509489
751484,Stalmosevej,7451,7,9.0299214,56.2549149
751485,Stalmosevej,7451,8,9.0309382,56.2507758
751486,Stalmosevej,7451,10,9.0381296,56.2490752
751487,Stalmosevej,7451,12,9.0420961,56.2482288
751488,Stationsvej,7451,1,9.0177257,56.2024638
751489,Stationsvej,7451,3,9.0178283,56.2022943
751490,Stationsvej,7451,4,9.018036,56.2018923
751491,Stationsvej,7451,5,9.0179929,56.2021973
751492,Stationsvej,7451,6,9.0182015,56.2017684
751493,Stationsvej,7451,7,9.0181572,56.2021092
751494,Stationsvej,7451,8,9.0183983,56.2016717
751495,Stationsvej,7451,9,9.0183723,56.2019499
751496,Stationsvej,7451,10,9.0185487,56.2015206
751497,Stationsvej,7451,11,9.0185695,56.2018443
751498,Stationsvej,7451,12,9.0187142,56.2013967
751499,Stationsvej,7451,13,9.0187341,56.2017473
751500,Stationsvej,7451,14,9.0189751,56.2013097
751501,Stationsvej,7451,15,9.018895,56.201668
751502,Stationsvej,7451,16,9.0191236,56.2012126
751503,Stationsvej,7451,17,9.0190951,56.2015626
751504,Stationsvej,7451,19,9.0193096,56.2014212
751505,Stationsvej,7451,21A,9.0195891,56.2012543
751506,Stationsvej,7451,21B,9.019532,56.2012941
751507,Stationsvej,7451,22,9.0188711,56.2006079
751508,Stationsvej,7451,23,9.0197863,56.201157
751509,Stationsvej,7451,24,9.0191181,56.2004579
751510,Stationsvej,7451,26,9.0191878,56.2007641
751511,Stationsvej,7451,28,9.0194904,56.2008663
751796,Strandkrogen,7451,8A,9.0182986,56.2067641
751797,Strandkrogen,7451,8B,9.0183956,56.2067561
751798,Strandkrogen,7451,8C,9.0185084,56.2067574
751799,Strandkrogen,7451,8D,9.0186215,56.2067496
751800,Strandkrogen,7451,8E,9.0187185,56.2067417
751801,Strandkrogen,7451,9,9.0182429,56.2074282
751802,Strandkrogen,7451,10,9.0185658,56.2069556
751803,Strandkrogen,7451,11,9.0182207,56.2075986
751804,Strandkrogen,7451,12,9.0186877,56.2071546
751805,Strandkrogen,7451,13A,9.0185878,56.2077015
751806,Strandkrogen,7451,14,9.0188757,56.2073094
751807,Strandkrogen,7451,15,9.0178533,56.2079629
751808,Strandkrogen,7451,16,9.0189818,56.2074992
751809,Strandkrogen,7451,17,9.0174823,56.2084259
751810,Strandkrogen,7451,18,9.0191846,56.2076901
751811,Strandkrogen,7451,20,9.018728,56.2078378
751812,Strandkrogen,7451,22,9.0184004,56.2079869
751813,Strandkrogen,7451,24,9.0182639,56.208201
751814,Strandkrogen,7451,26,9.018097,56.2083608
751815,Strandkrogen,7451,28,9.0179811,56.2084494
751816,Strandvejen,7451,1,9.0151685,56.2064062
751817,Strandvejen,7451,5,9.015992,56.2063614
751818,Strandvejen,7451,6,9.0188273,56.2059434
751819,Strandvejen,7451,7,9.0163307,56.2063561
751820,Strandvejen,7451,8,9.0191821,56.2059383
751821,Strandvejen,7451,9,9.0166065,56.2063053
751822,Strandvejen,7451,10,9.0196663,56.2059167
751823,Strandvejen,7451,11,9.0169296,56.2062819
751824,Strandvejen,7451,12,9.0200044,56.2059294
751825,Strandvejen,7451,13,9.0172193,56.206294
751826,Strandvejen,7451,14,9.0202631,56.2059053
751827,Strandvejen,7451,16,9.0206346,56.2058824
751828,Strandvejen,7451,17,9.0180268,56.206249
751829,Strandvejen,7451,18,9.020909,56.205876
751830,Strandvejen,7451,19,9.0183155,56.2062881
751831,Strandvejen,7451,20,9.0212635,56.2058714
751832,Strandvejen,7451,21,9.018638,56.2062827
751833,Strandvejen,7451,22,9.0215712,56.2058298
751834,Strandvejen,7451,23,9.0189934,56.2062597
751835,Strandvejen,7451,24,9.0222498,56.2057834
751836,Strandvejen,7451,25,9.019296,56.2063618
751837,Strandvejen,7451,27,9.0197835,56.2062504
751838,Strandvejen,7451,28,9.0236107,56.2055827
751839,Strandvejen,7451,29,9.0200925,56.2061729
751840,Strandvejen,7451,31,9.0203992,56.2061583
751841,Strandvejen,7451,33,9.0207514,56.2062251
751842,Strandvejen,7451,35,9.0212679,56.2062038
751843,Strandvejen,7451,37,9.021545,56.206117
751844,Strandvejen,7451,39,9.0218827,56.2061387
751845,Strandvejen,7451,41,9.0222703,56.206116
751846,Strandvejen,7451,43,9.022589,56.2062183
751847,Strandvejen,7451,55,9.0255103,56.2088464
751848,Strandvejen,7451,61,9.0262496,56.2066177
751849,Strandvejen,7451,62,9.026533,56.2063513
751850,Strandvejen,7451,63,9.0266379,56.2070351
751851,Strandvejen,7451,64,9.0271733,56.2064751
751852,Strandvejen,7451,67,9.031875,56.207973
751912,Sunds Hovedgade,7451,3,9.0182626,56.199577
751913,Sunds Hovedgade,7451,4,9.0185026,56.200083
751914,Sunds Hovedgade,7451,5,9.017851,56.199833
751915,Sunds Hovedgade,7451,7,9.01807,56.200015
751916,Sunds Hovedgade,7451,8,9.018361,56.200441
751917,Sunds Hovedgade,7451,9,9.018049,56.200159
751918,Sunds Hovedgade,7451,10,9.0183521,56.2007098
751919,Sunds Hovedgade,7451,11,9.0179464,56.2003188
751920,Sunds Hovedgade,7451,12,9.0182026,56.2008248
751921,Sunds Hovedgade,7451,13,9.017859,56.200516
751922,Sunds Hovedgade,7451,14,9.018134,56.200941
751923,Sunds Hovedgade,7451,15,9.017754,56.200748
751924,Sunds Hovedgade,7451,16,9.018063,56.201129
751925,Sunds Hovedgade,7451,17,9.017652,56.200909
751926,Sunds Hovedgade,7451,18,9.017959,56.201343
751927,Sunds Hovedgade,7451,18A,9.018107,56.201264
751928,Sunds Hovedgade,7451,19,9.017309,56.201022
751929,Sunds Hovedgade,7451,20A,9.018018,56.201497
751930,Sunds Hovedgade,7451,20B,9.017953,56.201496
751931,Sunds Hovedgade,7451,21,9.017577,56.201196
751932,Sunds Hovedgade,7451,22,9.017835,56.201648
751933,Sunds Hovedgade,7451,23,9.017621,56.201322
751934,Sunds Hovedgade,7451,24,9.017779,56.201863
751935,Sunds Hovedgade,7451,25,9.017552,56.201447
751936,Sunds Hovedgade,7451,26,9.0174162,56.20255
751937,Sunds Hovedgade,7451,27,9.0175,56.201563
751938,Sunds Hovedgade,7451,30A,9.01721,56.2029525
751939,Sunds Hovedgade,7451,30B,9.017195,56.202979
751940,Sunds Hovedgade,7451,30C,9.01718,56.203005
751941,Sunds Hovedgade,7451,30D,9.017164,56.203032
751942,Sunds Hovedgade,7451,31,9.017313,56.20183
751943,Sunds Hovedgade,7451,32,9.017139,56.203095
751944,Sunds Hovedgade,7451,33,9.0172908,56.2019922
751945,Sunds Hovedgade,7451,34,9.017229,56.203285
751946,Sunds Hovedgade,7451,35,9.017255,56.202108
751947,Sunds Hovedgade,7451,36,9.0170161,56.2033723
751948,Sunds Hovedgade,7451,37,9.01722,56.20218
751949,Sunds Hovedgade,7451,38,9.016948,56.203479
751950,Sunds Hovedgade,7451,39,9.017168,56.202287
751951,Sunds Hovedgade,7451,40,9.016913,56.20356
751952,Sunds Hovedgade,7451,41,9.017068,56.202442
751953,Sunds Hovedgade,7451,42,9.016845,56.203676
751954,Sunds Hovedgade,7451,43,9.01703,56.202546
751955,Sunds Hovedgade,7451,44,9.016777,56.203774
751956,Sunds Hovedgade,7451,45,9.016943,56.202716
751957,Sunds Hovedgade,7451,46,9.0167423,56.2038266
751958,Sunds Hovedgade,7451,48,9.016676,56.203899
751959,Sunds Hovedgade,7451,50,9.016555,56.204113
751960,Sunds Hovedgade,7451,50A,9.016521,56.204157
751961,Sunds Hovedgade,7451,50B,9.016504,56.204202
751962,Sunds Hovedgade,7451,50C,9.01647,56.204238
751963,Sunds Hovedgade,7451,50D,9.016453,56.2042637
751964,Sunds Hovedgade,7451,51A,9.016652,56.203198
751965,Sunds Hovedgade,7451,51B,9.016586,56.203233
751966,Sunds Hovedgade,7451,51C,9.016521,56.203268
751967,Sunds Hovedgade,7451,52,9.016387,56.2043
751968,Sunds Hovedgade,7451,54,9.016352,56.204389
751969,Sunds Hovedgade,7451,58,9.016066,56.204736
751970,Sunds Hovedgade,7451,59,9.016461,56.203582
751971,Sunds Hovedgade,7451,60,9.015997,56.204861
751972,Sunds Hovedgade,7451,61,9.016424,56.203734
751973,Sunds Hovedgade,7451,62,9.015942,56.205031
751974,Sunds Hovedgade,7451,63,9.0163232,56.2038324
751975,Sunds Hovedgade,7451,64,9.015694,56.205226
751976,Sunds Hovedgade,7451,65,9.016238,56.203966
751977,Sunds Hovedgade,7451,66,9.0156088,56.2053506
751978,Sunds Hovedgade,7451,66A,9.016224,56.205268
751979,Sunds Hovedgade,7451,67,9.0161525,56.2041084
751980,Sunds Hovedgade,7451,68,9.015507,56.205503
751981,Sunds Hovedgade,7451,69,9.016067,56.204233
751982,Sunds Hovedgade,7451,70,9.015423,56.2056
751983,Sunds Hovedgade,7451,71A,9.015514,56.204398
751984,Sunds Hovedgade,7451,71B,9.0156265,56.2043903
751985,Sunds Hovedgade,7451,71C,9.015724,56.204382
751986,Sunds Hovedgade,7451,71D,9.0158218,56.2043385
751987,Sunds Hovedgade,7451,71E,9.015902,56.204357
751988,Sunds Hovedgade,7451,72,9.01532,56.205752
751989,Sunds Hovedgade,7451,73,9.015815,56.204545
751990,Sunds Hovedgade,7451,74,9.015235,56.205886
751991,Sunds Hovedgade,7451,76,9.015166,56.20602
751992,Sunds Hovedgade,7451,77,9.01555,56.20474
751993,Sunds Hovedgade,7451,78,9.015032,56.206162
751994,Sunds Hovedgade,7451,81,9.015254,56.205365
751995,Sunds Hovedgade,7451,83A,9.015194,56.205461
751996,Sunds Hovedgade,7451,83B,9.015138,56.205532
751997,Sunds Hovedgade,7451,85,9.0150338,56.2056496
751998,Sunds Hovedgade,7451,87A,9.01495,56.205739
751999,Sunds Hovedgade,7451,87B,9.014917,56.205766
752000,Sunds Hovedgade,7451,87C,9.0149,56.205801
752001,Sunds Hovedgade,7451,87D,9.014883,56.2058279
752002,Sunds Hovedgade,7451,89,9.014687,56.205907
752003,Sunds Hovedgade,7451,91,9.014585,56.206049
752020,Sundsvej,7451,95,9.016431,56.188636
752021,Sundsvej,7451,97,9.0183504,56.1984732
752022,Sundsvej,7451,99,9.0186292,56.1987907
752324,Søgårdvej,7451,1,9.0229265,56.2085306
752325,Søgårdvej,7451,2,9.0238767,56.20855
752338,Sølyst Alle,7451,3,9.025827,56.208767
752339,Sølyst Alle,7451,5,9.026101,56.208928
752340,Sølyst Alle,7451,7,9.026289,56.208842
752341,Sølyst Alle,7451,9,9.0265185,56.209055
752342,Sølyst Alle,7451,11,9.026712,56.208911
752343,Sølyst Alle,7451,13,9.0269,56.20887
752344,Sølyst Alle,7451,15,9.0271497,56.2089811
752345,Sølyst Alle,7451,17,9.0273591,56.2089834
752346,Sølyst Alle,7451,19,9.027548,56.2091112
752347,Sølyst Alle,7451,21,9.0277256,56.2091042
752348,Sølyst Alle,7451,23,9.0280261,56.2092691
752349,Sølyst Alle,7451,25,9.0282801,56.2093797
752350,Sølyst Alle,7451,27,9.0285167,56.209526
752351,Sølyst Alle,7451,29,9.028658,56.209528
752352,Sølyst Alle,7451,31,9.028835,56.20959
752353,Sølyst Alle,7451,33,9.0290904,56.2097119
752354,Sølyst Alle,7451,35,9.0292835,56.209723
752355,Sølyst Alle,7451,37,9.0294948,56.2096714
752356,Sølyst Alle,7451,39,9.029686,56.2097364
752357,Sølyst Alle,7451,41,9.0299254,56.2098019
752358,Sølyst Alle,7451,43,9.0301384,56.2097054
752359,Sølyst Alle,7451,45,9.0303112,56.209833
752360,Sølyst Alle,7451,47,9.030622,56.2097017
752361,Sølyst Alle,7451,49,9.0310277,56.2096253
752611,Sønderskovvej,7451,1,9.087008,56.235474
752612,Sønderskovvej,7451,2,9.0867282,56.2356503
752613,Sønderskovvej,7451,3,9.0874014,56.235298
752614,Sønderskovvej,7451,4,9.0863069,56.2357087
752615,Sønderskovvej,7451,5,9.0876453,56.2352376
752616,Sønderskovvej,7451,6,9.086013,56.235804
752617,Sønderskovvej,7451,7,9.0874116,56.2349926
752618,Sønderskovvej,7451,8,9.085648,56.235639
752619,Sønderskovvej,7451,9,9.0871017,56.2350972
752620,Sønderskovvej,7451,10,9.0859576,56.2355434
752621,Sønderskovvej,7451,11,9.0868072,56.2352199
752622,Sønderskovvej,7451,12,9.0862846,56.2354121
752623,Sønderskovvej,7451,13,9.0864506,56.234794
752624,Sønderskovvej,7451,14,9.0859262,56.23504
752625,Sønderskovvej,7451,15,9.0868068,56.2347528
752626,Sønderskovvej,7451,16,9.0855195,56.2351436
752627,Sønderskovvej,7451,17,9.0865877,56.2345529
752628,Sønderskovvej,7451,18,9.085239,56.2353293
752629,Sønderskovvej,7451,19,9.0862133,56.2346568
752630,Sønderskovvej,7451,20,9.0849892,56.2350841
752631,Sønderskovvej,7451,21,9.0857252,56.2343013
752632,Sønderskovvej,7451,22,9.0852663,56.2349972
752633,Sønderskovvej,7451,23,9.0860358,56.2341788
752634,Sønderskovvej,7451,24,9.085593,56.2348748
752635,Sønderskovvej,7451,25,9.085701,56.234058
752636,Sønderskovvej,7451,26,9.0851865,56.2344933
752637,Sønderskovvej,7451,27,9.0854231,56.2341724
752638,Sønderskovvej,7451,28,9.0848109,56.2346331
752639,Sønderskovvej,7451,29,9.085094,56.233872
752640,Sønderskovvej,7451,30,9.0845478,56.2347831
752641,Sønderskovvej,7451,31,9.0848572,56.2337353
752642,Sønderskovvej,7451,32,9.0842809,56.2345647
752643,Sønderskovvej,7451,33,9.0845256,56.2335252
752644,Sønderskovvej,7451,34,9.0846067,56.2344693
752645,Sønderskovvej,7451,35,9.0843531,56.2333797
752646,Sønderskovvej,7451,36,9.0850152,56.2343119
752647,Sønderskovvej,7451,38,9.0844621,56.2339737
752648,Sønderskovvej,7451,40,9.0841823,56.2341415
752649,Sønderskovvej,7451,42,9.083906,56.234193
752650,Sønderskovvej,7451,44,9.0836371,56.2340459
752651,Sønderskovvej,7451,46,9.0839474,56.2339324
752652,Sønderskovvej,7451,48,9.0842902,56.2338102
752653,Sønderskovvej,7451,50,9.0838978,56.2334917
752654,Sønderskovvej,7451,52,9.083492,56.2335683
752655,Sønderskovvej,7451,54,9.0832145,56.2336642
752656,Sønderskovvej,7451,56,9.0830092,56.2335363
752744,Søparken,7451,2,9.0088274,56.2108035
752745,Søparken,7451,4,9.0088811,56.210661
752746,Søparken,7451,6,9.0091199,56.2105882
752747,Søparken,7451,8,9.0093768,56.2106029
752748,Søparken,7451,10,9.0092249,56.2108433
752749,Søparken,7451,12,9.0094583,56.2108578
752750,Søparken,7451,14,9.0098397,56.2108844
752751,Søparken,7451,15,9.0078644,56.2116704
752752,Søparken,7451,16,9.0098755,56.2107349
752753,Søparken,7451,18,9.0101191,56.2106522
752754,Søparken,7451,20,9.0103546,56.2106678
752755,Søparken,7451,22,9.0101604,56.2108713
752756,Søparken,7451,24,9.0092056,56.2110788
752757,Søparken,7451,26,9.0094439,56.2110951
752758,Søparken,7451,28,9.010003,56.211315
752759,Søparken,7451,30,9.009607,56.211283
752760,Søparken,7451,32,9.009137,56.211252
752761,Søparken,7451,34,9.008761,56.211192
752762,Søparken,7451,36,9.008791,56.211027
752763,Søstien,7451,5,9.0216211,56.2080672
752764,Søstien,7451,6,9.0223288,56.2081109
752765,Søstien,7451,8,9.0223724,56.2082461
752766,Søstien,7451,9,9.0216941,56.2082836
752767,Søstien,7451,13,9.0215699,56.2086056
752768,Søstien,7451,14,9.0224187,56.2087586
752769,Søstien,7451,15,9.0218299,56.2085456
752770,Søstien,7451,16,9.0221667,56.2085942
752787,Talundvej,7451,3,8.9446324,56.2571097
752872,Teglgårdvej,7451,1A,9.0164828,56.20272
752873,Teglgårdvej,7451,1B,9.0163531,56.2027011
752874,Teglgårdvej,7451,1C,9.016667,56.202114
752875,Teglgårdvej,7451,1D,9.0165867,56.2022623
752876,Teglgårdvej,7451,1E,9.01641,56.202117
752877,Teglgårdvej,7451,1F,9.0162789,56.2021018
752878,Teglgårdvej,7451,1G,9.0161411,56.2020893
752879,Teglgårdvej,7451,2,9.0160489,56.2029394
752880,Teglgårdvej,7451,3A,9.0162771,56.2024119
752881,Teglgårdvej,7451,3B,9.016165,56.2023927
752882,Teglgårdvej,7451,3C,9.0160689,56.2023737
752883,Teglgårdvej,7451,3D,9.015956,56.202364
752884,Teglgårdvej,7451,3E,9.0161551,56.2026717
752885,Teglgårdvej,7451,3F,9.0160308,56.2026544
752886,Teglgårdvej,7451,3G,9.0158739,56.2026328
752887,Teglgårdvej,7451,4,9.0158079,56.2029188
752888,Teglgårdvej,7451,5,9.0156769,56.2025221
752889,Teglgårdvej,7451,6,9.0156326,56.202863
752890,Teglgårdvej,7451,7,9.0154204,56.2024833
752891,Teglgårdvej,7451,7C,9.0168023,56.2016901
752892,Teglgårdvej,7451,8,9.0152153,56.2028135
752893,Teglgårdvej,7451,9,9.0149397,56.2024062
752894,Teglgårdvej,7451,10,9.0142491,56.2027938
752895,Teglgårdvej,7451,11,9.0142934,56.2024529
752896,Teglgårdvej,7451,12,9.0139092,56.202835
752897,Teglgårdvej,7451,13,9.0137908,56.2025372
752898,Teglgårdvej,7451,14,9.013601,56.202885
752899,Teglgårdvej,7451,15,9.0134829,56.2025877
752900,Teglgårdvej,7451,16,9.0132939,56.202918
752901,Teglgårdvej,7451,17,9.0132074,56.2026296
752902,Teglgårdvej,7451,18,9.0130345,56.2029601
752903,Teglgårdvej,7451,19,9.0129497,56.2026268
752904,Teglgårdvej,7451,20,9.0126952,56.2029833
752905,Teglgårdvej,7451,21,9.0126571,56.2026954
752906,Teglgårdvej,7451,22,9.0110602,56.2031898
752907,Teglgårdvej,7451,23,9.0123337,56.2027278
752908,Teglgårdvej,7451,25,9.012026,56.2027693
752909,Teglgårdvej,7451,26,9.0105399,56.2033188
752910,Teglgårdvej,7451,27,9.0117025,56.2028016
752911,Teglgårdvej,7451,28,9.0102019,56.2033061
752912,Teglgårdvej,7451,29,9.0113952,56.2028342
752913,Teglgårdvej,7451,31,9.0111036,56.2028759
752914,Teglgårdvej,7451,32,9.0088568,56.2035158
752915,Teglgårdvej,7451,33,9.0107798,56.2029172
752916,Teglgårdvej,7451,34,9.0084544,56.2035023
752917,Teglgårdvej,7451,35,9.010505,56.2029411
752918,Teglgårdvej,7451,36,9.0080958,56.2036151
752919,Teglgårdvej,7451,37,9.0102289,56.2030009
752920,Teglgårdvej,7451,38,9.0076728,56.2037272
752921,Teglgårdvej,7451,39,9.009567,56.203039
752922,Teglgårdvej,7451,40,9.0072681,56.2037766
752923,Teglgårdvej,7451,41,9.0091944,56.2030883
752924,Teglgårdvej,7451,42,9.0068648,56.2037901
752925,Teglgårdvej,7451,43,9.008838,56.2031383
752926,Teglgårdvej,7451,44,9.0065722,56.2038587
752927,Teglgårdvej,7451,45,9.0085139,56.2031886
752928,Teglgårdvej,7451,46,9.0062636,56.2039272
752929,Teglgårdvej,7451,47,9.0082059,56.2032391
752930,Teglgårdvej,7451,48,9.0059272,56.2038696
752931,Teglgårdvej,7451,49,9.0078831,56.2032534
752932,Teglgårdvej,7451,51,9.0075116,56.2032763
752933,Teglgårdvej,7451,53,9.007155,56.2033352
752934,Teglgårdvej,7451,55,9.0067484,56.2034385
752935,Teglgårdvej,7451,57,9.0063295,56.2034338
752936,Teglgårdvej,7451,59,9.0060202,56.2035202
752937,Teglgårdvej,7451,61,9.00568,56.2035704
753137,Thorupvej,7451,1,9.0193319,56.1989691
753138,Thorupvej,7451,2,9.0197785,56.1986416
753139,Thorupvej,7451,2B,9.0200985,56.198708
753140,Thorupvej,7451,3,9.0195868,56.1990527
753141,Thorupvej,7451,4,9.0209496,56.1987892
753142,Thorupvej,7451,5,9.0199383,56.1991374
753143,Thorupvej,7451,6,9.0217219,56.1988246
753144,Thorupvej,7451,7,9.0202386,56.1993024
753145,Thorupvej,7451,9,9.0205201,56.1990899
753146,Thorupvej,7451,11,9.021198,56.199043
753147,Thorupvej,7451,11A,9.0211204,56.1994289
753148,Thorupvej,7451,11B,9.0219178,56.2001204
753149,Thorupvej,7451,11C,9.0214542,56.2000164
753150,Thorupvej,7451,11D,9.021086,56.199941
753151,Thorupvej,7451,12,9.0220128,56.1988009
753152,Thorupvej,7451,13,9.022399,56.200171
753153,Thorupvej,7451,14,9.0223346,56.1988134
753154,Thorupvej,7451,15,9.0217578,56.1991754
753155,Thorupvej,7451,17,9.0226792,56.1990956
753156,Thorupvej,7451,18,9.022977,56.1988743
753157,Thorupvej,7451,19,9.0236731,56.1992413
753158,Thorupvej,7451,20A,9.0232234,56.1987423
753159,Thorupvej,7451,21,9.0245571,56.1993049
753160,Thorupvej,7451,21A,9.0247832,56.2002057
753161,Thorupvej,7451,22,9.0248973,56.1987965
753162,Thorupvej,7451,23,9.0257516,56.1992461
753163,Thorupvej,7451,24,9.0267816,56.1988261
753164,Thorupvej,7451,25,9.0275573,56.1992209
753165,Thorupvej,7451,25B,9.0278207,56.1995202
753166,Thorupvej,7451,26,9.0263262,56.1971144
753167,Thorupvej,7451,27A,9.0301599,56.1999051
753168,Thorupvej,7451,27B,9.0287281,56.1989193
753169,Thorupvej,7451,28,9.027483,56.1967497
753170,Thorupvej,7451,28B,9.0283102,56.1984296
753171,Thorupvej,7451,28C,9.029788,56.1981044
753172,Thorupvej,7451,29,9.0319483,56.198074
753173,Thorupvej,7451,30,9.03119,56.1976436
753174,Thorupvej,7451,30B,9.0391852,56.1947839
753175,Thorupvej,7451,32,9.0386155,56.196799
753176,Thorupvej,7451,34,9.0425219,56.1961316
753177,Thorupvej,7451,35,9.0455,56.1966757
753178,Thorupvej,7451,37,9.0499317,56.1957263
753179,Thorupvej,7451,38,9.051642,56.194262
753180,Thorupvej,7451,40,9.0556753,56.1922306
753181,Thorupvej,7451,43,9.0622283,56.1900008
753182,Thorupvej,7451,46,9.0662575,56.1866481
753183,Thorupvej,7451,47,9.0719506,56.1874001
753184,Thorupvej,7451,48,9.072786,56.1855674
753185,Thorupvej,7451,50,9.0782205,56.1863433
753186,Thorupvej,7451,51,9.0780814,56.1866472
753187,Thorupvej,7451,52,9.0787364,56.1863307
753188,Thorupvej,7451,53,9.0807612,56.1869539
753783,Tranevej,7451,1,9.0094548,56.2034685
753784,Tranevej,7451,2,9.0100628,56.203592
753785,Tranevej,7451,3,9.0095141,56.2036129
753786,Tranevej,7451,4,9.0099756,56.2037797
753787,Tranevej,7451,5,9.0094591,56.2038009
753788,Tranevej,7451,7,9.0094691,56.2039717
753789,Tranevej,7451,8,9.0099214,56.2041337
753790,Tranevej,7451,9,9.0093815,56.2041684
753791,Tranevej,7451,10,9.009956,56.2043274
753792,Tranevej,7451,11,9.0093439,56.2043207
753793,Tranevej,7451,12,9.0099004,56.2045334
753794,Tranevej,7451,13,9.0093371,56.2045092
753795,Tranevej,7451,14,9.0098298,56.2047033
753796,Tranevej,7451,15,9.0093307,56.2046888
753797,Tranevej,7451,16,9.0099188,56.2049199
753798,Tranevej,7451,17,9.0091784,56.2048937
753799,Tranevej,7451,18,9.0097359,56.2050796
753800,Tranevej,7451,19,9.0092203,56.2050739
753801,Tranevej,7451,20,9.0098258,56.2052692
753802,Tranevej,7451,21,9.0091173,56.2052524
753803,Tranevej,7451,22,9.0098349,56.205467
753804,Tranevej,7451,23,9.0090954,56.2054138
753805,Tranevej,7451,24,9.0097277,56.2057622
753806,Tranevej,7451,25,9.0090852,56.2057012
753807,Tranevej,7451,26,9.0095772,56.2059133
753808,Tranevej,7451,27,9.0090952,56.205872
753809,Tranevej,7451,28,9.0095863,56.206111
753810,Tranevej,7451,29,9.0090079,56.2060597
753811,Tranevej,7451,30,9.0095155,56.2062899
753812,Tranevej,7451,31,9.008936,56.206265
753813,Tranevej,7451,32,9.0094762,56.2064871
753814,Tranevej,7451,33,9.0089287,56.206472
753815,Tranevej,7451,34,9.0094853,56.2066848
753816,Tranevej,7451,35,9.008923,56.2066336
753817,Troldbjergvej,7451,6,9.0011951,56.26934
753818,Troldbjergvej,7451,7,9.0009663,56.2689691
753819,Troldbjergvej,7451,8,9.0008143,56.2691561
753820,Troldbjergvej,7451,9,9.0006022,56.2687674
753821,Troldbjergvej,7451,11,9.000476,56.2686852
753822,Troldbjergvej,7451,12,9.0001142,56.2688698
753823,Troldbjergvej,7451,13,9.0001907,56.2685383
753824,Troldbjergvej,7451,15,8.9997786,56.2683271
753825,Troldbjergvej,7451,16A,8.9995433,56.268585
753826,Troldbjergvej,7451,16B,8.9994445,56.2686378
753827,Troldbjergvej,7451,16C,8.9993619,56.2686907
753828,Troldbjergvej,7451,16D,8.999263,56.268744
753829,Troldbjergvej,7451,16E,8.9991802,56.2688055
753830,Troldbjergvej,7451,16F,8.999098,56.268849
753831,Troldbjergvej,7451,17,8.9995507,56.2679293
753832,Troldbjergvej,7451,19,8.9989211,56.2679313
753833,Troldbjergvej,7451,20,8.9992189,56.2690754
753834,Troldbjergvej,7451,21,8.9985745,56.2676938
753835,Troldbjergvej,7451,24,8.9998718,56.2693252
753836,Troldbjergvej,7451,26,8.9994187,56.2693561
753837,Troldbjergvej,7451,28,8.9989327,56.2694046
753838,Troldbjergvej,7451,30,8.998759,56.2692949
753839,Troldbjergvej,7451,32,8.9987035,56.2690427
753840,Troldbjergvej,7451,34,8.9986609,56.2688806
753841,Troldbjergvej,7451,36,8.99865,56.2687367
753842,Troldbjergvej,7451,38,8.9988656,56.2685774
753843,Troldbjergvej,7451,40,8.999113,56.268427
753844,Troldbjergvej,7451,42,8.9987032,56.2681534
753845,Troldeparken,7451,1,9.0039165,56.202887
753846,Troldeparken,7451,2,9.004542,56.2029542
753847,Troldeparken,7451,3,9.003304,56.202986
753848,Troldeparken,7451,4,9.0047511,56.2033123
753849,Troldeparken,7451,5,9.002727,56.203077
753850,Troldeparken,7451,6,9.0049059,56.2036118
753851,Troldeparken,7451,7,9.0024047,56.2031662
753852,Troldeparken,7451,8,9.0043241,56.2037111
753853,Troldeparken,7451,9,9.0024778,56.2033657
753854,Troldeparken,7451,10,9.0036,56.203817
753855,Troldeparken,7451,11,9.002693,56.203629
753856,Troldeparken,7451,12,9.004322,56.203433
753857,Troldeparken,7451,14,9.0042256,56.2031988
753858,Troldeparken,7451,999,9.0029773,56.2034971
753891,Trælundvej,7451,41,8.9435231,56.2125488
753964,Tværmosevej,7451,2,9.0803001,56.2025166
753965,Tværmosevej,7451,3,9.0839195,56.1984044
753966,Tværmosevej,7451,5,9.077409,56.18938
754062,Tømmerpladsen,7451,1,8.9970698,56.2695849
754063,Tømmerpladsen,7451,3,8.997557,56.2694611
754064,Tømmerpladsen,7451,4,8.997194,56.269268
754065,Tømmerpladsen,7451,5,8.9981581,56.269396
754066,Tømmerpladsen,7451,6,8.997663,56.2692476
754067,Tømmerpladsen,7451,7,8.998327,56.2696131
754068,Tømmerpladsen,7451,8,8.998091,56.2691562
754679,Vesterskovvej,7451,1,9.0848973,56.2382901
754680,Vesterskovvej,7451,2,9.085567,56.2385217
754681,Vesterskovvej,7451,3,9.0850525,56.2384714
754682,Vesterskovvej,7451,4,9.0857064,56.2386938
754683,Vesterskovvej,7451,5,9.0852235,56.2386618
754684,Vesterskovvej,7451,6,9.0859255,56.2388937
754685,Vesterskovvej,7451,7,9.0853641,56.238798
754686,Vesterskovvej,7451,8,9.0860648,56.2390658
754687,Vesterskovvej,7451,9,9.0855507,56.2390066
754688,Vesterskovvej,7451,10,9.0862374,56.2392114
754689,Vesterskovvej,7451,11,9.0857226,56.2391701
754690,Vesterskovvej,7451,12,9.0864248,56.239393
754691,Vesterskovvej,7451,13,9.0858778,56.2393513
754692,Vesterskovvej,7451,14,9.0866281,56.2395837
754693,Vesterskovvej,7451,15,9.0860488,56.2395418
754694,Vesterskovvej,7451,16,9.0867986,56.2397921
754695,Vesterskovvej,7451,17,9.0862049,56.2396961
754696,Vesterskovvej,7451,18,9.0869388,56.2399373
754697,Vesterskovvej,7451,19,9.0862941,56.2399216
754698,Vesterskovvej,7451,20,9.0871102,56.2401188
754699,Vesterskovvej,7451,21,9.0865473,56.240068
754700,Vesterskovvej,7451,22,9.0872982,56.2402824
754701,Vesterskovvej,7451,23,9.0867189,56.2402404
754702,Vesterskovvej,7451,24,9.0874364,56.2404905
754703,Vesterskovvej,7451,25,9.08689,56.2404309
754704,Vesterskovvej,7451,26,9.0876081,56.2406629
754705,Vesterskovvej,7451,27,9.0870294,56.240603
754706,Vesterskovvej,7451,28,9.0878923,56.2408456
754707,Vesterskovvej,7451,29,9.0872168,56.2407846
754708,Vesterskovvej,7451,30,9.088,56.2409994
754709,Vesterskovvej,7451,31,9.0874028,56.2410111
754710,Vesterskovvej,7451,32,9.0882526,56.2411637
754711,Vesterskovvej,7451,33,9.0875906,56.2411838
754712,Vesterskovvej,7451,35,9.0876822,56.2413374
754713,V Sneptrupvej,7451,4,9.0051404,56.247977
754714,V Sneptrupvej,7451,6,8.9999861,56.2486294
754715,V Sneptrupvej,7451,7,8.9912534,56.2505172
754716,V Sneptrupvej,7451,7B,8.9916888,56.250522
754717,V Sneptrupvej,7451,8,8.9948146,56.2515451
754718,V Sneptrupvej,7451,10,8.9929681,56.2566539
754719,V Sneptrupvej,7451,11,8.9872044,56.2509299
754720,V Sneptrupvej,7451,12,8.9900976,56.2539178
754721,V Sneptrupvej,7451,15,8.9786487,56.2532409
754722,V Sneptrupvej,7451,19,8.965212,56.254409
754723,V Sneptrupvej,7451,20,8.958601,56.254701
754724,V Sneptrupvej,7451,22,8.9565419,56.2549563
754725,V Sneptrupvej,7451,24,8.9543763,56.2550392
754907,Vestre Søvej,7451,1,9.0120584,56.2163611
754908,Vestre Søvej,7451,2,9.0116036,56.2141912
754909,Vestre Søvej,7451,2B,9.0123241,56.214783
754910,Vestre Søvej,7451,4,9.0118201,56.2149032
754911,Vestre Søvej,7451,6,9.012094,56.215199
754912,Vestre Søvej,7451,8,9.012287,56.215375
754913,Vestre Søvej,7451,10,9.0123788,56.2155113
754914,Vestre Søvej,7451,12,9.0123241,56.2156903
754915,Vestre Søvej,7451,14,9.012512,56.2158451
754916,Vestre Søvej,7451,16,9.0126854,56.2159548
754917,Vestre Søvej,7451,18,9.0127941,56.2160728
754918,Vestre Søvej,7451,20,9.012953,56.216137
754919,Vestre Søvej,7451,24,9.0131877,56.2163377
754920,Vestre Søvej,7451,26,9.0133131,56.2164379
754921,Vestre Søvej,7451,28,9.0132085,56.2166613
754922,Vestre Søvej,7451,30,9.0135788,56.2166744
754923,Vestre Søvej,7451,32,9.0138318,56.2168119
754924,Vestre Søvej,7451,34,9.0140062,56.2168947
754925,Vestre Søvej,7451,36,9.014099,56.217012
754926,Vestre Søvej,7451,38,9.0142719,56.2171312
754927,Vestre Søvej,7451,40,9.0144308,56.2171958
754928,Vestre Søvej,7451,42,9.0145562,56.217296
754929,Vestre Søvej,7451,44,9.0148125,56.2173437
754930,Vestre Søvej,7451,46,9.0149221,56.2174348
754931,Vestre Søvej,7451,48,9.015082,56.2174725
754932,Vestre Søvej,7451,50,9.0154179,56.217548
754933,Vestre Søvej,7451,52,9.015396,56.21771
754934,Vestre Søvej,7451,54,9.0156839,56.2177755
754935,Vestre Søvej,7451,56,9.0157452,56.2178661
754936,Vestre Søvej,7451,58,9.0159847,56.2179316
754937,Vibevej,7451,1,9.0136272,56.2017
754938,Vibevej,7451,2,9.0138267,56.2019807
754939,Vibevej,7451,3,9.0132712,56.201741
754940,Vibevej,7451,4,9.0134028,56.2021197
754941,Vibevej,7451,5,9.0129632,56.2017915
754942,Vibevej,7451,6,9.0130951,56.2021613
754943,Vibevej,7451,7,9.0126704,56.2018691
754944,Vibevej,7451,8,9.0128184,56.202239
754945,Vibevej,7451,9,9.0123154,56.2018831
754946,Vibevej,7451,10,9.0124946,56.2022804
754947,Vibevej,7451,11,9.0119284,56.2018878
754948,Vibevej,7451,12,9.0121238,56.2022853
754949,Vibevej,7451,13,9.0116839,56.201966
754950,Vibevej,7451,14,9.0118167,56.2023088
754951,Vibevej,7451,16,9.0115423,56.2023238
754952,Vibevej,7451,17,9.0111494,56.2020409
754953,Vibevej,7451,18,9.0112185,56.2023651
754954,Vibevej,7451,19,9.0107619,56.2020636
754955,Vibevej,7451,20,9.0108763,56.2024691
754956,Vibevej,7451,21,9.0104371,56.2021319
754957,Vibevej,7451,22,9.010306,56.202642
754958,Vibevej,7451,23,9.0100969,56.202182
754959,Vibevej,7451,24,9.0096756,56.2026984
754960,Vibevej,7451,25,9.0095315,56.2022207
754961,Vibevej,7451,26,9.009309,56.202586
754962,Vibevej,7451,27,9.0091755,56.2022616
754963,Vibevej,7451,28,9.0089659,56.2027175
754964,Vibevej,7451,29,9.0087383,56.2023197
754965,Vibevej,7451,30,9.008643,56.2027319
754966,Vibevej,7451,31,9.008382,56.2023696
754967,Vibevej,7451,32,9.008337,56.2027285
754968,Vibevej,7451,33,9.0079445,56.2024367
754969,Vibevej,7451,34,9.0080299,56.202752
754970,Vibevej,7451,36,9.007721,56.20282
754971,Vibevej,7451,37,9.0073623,56.2024931
754972,Vibevej,7451,38,9.007411,56.2029338
754973,Vibevej,7451,39,9.0070543,56.2025436
754974,Vibevej,7451,40,9.0068955,56.2029281
754975,Vibevej,7451,41,9.0067134,56.2026117
754976,Vibevej,7451,42,9.006633,56.2030599
754977,Vibevej,7451,43,9.0063742,56.2026348
754978,Vibevej,7451,44,9.0061993,56.2030192
754979,Vibevej,7451,45,9.0060507,56.2026672
754980,Vibevej,7451,46,9.0058587,56.2030783
754981,Vibevej,7451,47,9.0057585,56.2027268
754982,Vibevej,7451,48,9.005487,56.2031101
754983,Vibevej,7451,49,9.0053867,56.2027586
755845,Østerskovvej,7451,1,9.0893133,56.2350394
755846,Østerskovvej,7451,2,9.0897209,56.2349089
755847,Østerskovvej,7451,3,9.0895028,56.2351582
755848,Østerskovvej,7451,4,9.0899582,56.2350461
755849,Østerskovvej,7451,5,9.0897237,56.2353042
755850,Østerskovvej,7451,6,9.0901466,56.2352008
755851,Østerskovvej,7451,7,9.0899288,56.2354411
755852,Østerskovvej,7451,8,9.0904146,56.2353833
755853,Østerskovvej,7451,9,9.0901497,56.2355871
755854,Østerskovvej,7451,10,9.0906833,56.2355477
755855,Østerskovvej,7451,11,9.0903384,56.2357328
755856,Østerskovvej,7451,12,9.0909203,56.2356939
755857,Østerskovvej,7451,13,9.0905599,56.2358609
755858,Østerskovvej,7451,14,9.0912048,56.2358676
755859,Østerskovvej,7451,15,9.090668,56.2360057
755860,Østerskovvej,7451,15A,9.0910008,56.2361798
755861,Østerskovvej,7451,16,9.0914909,56.2359963
755862,Østerskovvej,7451,17,9.0912217,56.2363259
755863,Østerskovvej,7451,18,9.091758,56.2362057
755864,Østerskovvej,7451,19,9.0914898,56.2365083
755865,Østerskovvej,7451,20,9.091962,56.236378
755866,Østerskovvej,7451,21,9.0917111,56.2366454
755867,Østerskovvej,7451,22,9.092182,56.2365514
755868,Østerskovvej,7451,23,9.0919478,56.2368005
755869,Østerskovvej,7451,24,9.0924987,56.2367254
755870,Østerskovvej,7451,25,9.0921684,56.2369555
755871,Østerskovvej,7451,26,9.0926868,56.2368891
755872,Østerskovvej,7451,27,9.092341,56.2371011
755873,Østerskovvej,7451,28,9.0928913,56.2370439
755874,Østerskovvej,7451,29,9.09291,56.2374483
755875,Østerskovvej,7451,30,9.0930477,56.2371892
755876,Østerskovvej,7451,32,9.0932857,56.2373085
755877,Østerskovvej,7451,34,9.0934415,56.2374718
755878,Østerskovvej,7451,36,9.093646,56.2376266
755879,Østerskovvej,7451,38,9.0938186,56.2377722
755880,Østerskovvej,7451,40,9.0939914,56.2379087
755881,Østerskovvej,7451,43,9.092465,56.2377312
755882,Østerskovvej,7451,45,9.0922703,56.2377651
755883,Østerskovvej,7451,46,9.094605,56.2383732
755884,Østerskovvej,7451,47,9.0923826,56.2377842
755885,Østerskovvej,7451,49,9.092428,56.2378745
755886,Østerskovvej,7451,51,9.0925399,56.2379026
755887,Østerskovvej,7451,53,9.0926543,56.2378589
755888,Østerskovvej,7451,55,9.0923513,56.2377569
755889,Østerskovvej,7451,57,9.0924133,56.2378294
755890,Østerskovvej,7451,59,9.0924432,56.2379016
755891,Østerskovvej,7451,61,9.0926047,56.2378943
755892,Østerskovvej,7451,63,9.0932111,56.2381343
755893,Ø Sneptrupvej,7451,1,9.0099872,56.2464407
755894,Ø Sneptrupvej,7451,3,9.012735,56.2453931
755895,Ø Sneptrupvej,7451,5,9.0163783,56.24502
755896,Ø Sneptrupvej,7451,7,9.0211574,56.2444616
755897,Ø Sneptrupvej,7451,8A,9.0193308,56.2431929
755898,Ø Sneptrupvej,7451,10,9.027414,56.2431736
755899,Ø Sneptrupvej,7451,11,9.0333634,56.2432744
755900,Ø Sneptrupvej,7451,13,9.0360949,56.2426662
755901,Ø Sneptrupvej,7451,15,9.040894,56.2429068
755902,Ø Sneptrupvej,7451,17,9.0475364,56.2416309
755903,Ø Sneptrupvej,7451,18,9.0464253,56.2392475
755904,Ø Sneptrupvej,7451,19,9.0547377,56.2451846
755905,Ø Sneptrupvej,7451,22,9.0533733,56.2375075
755906,Ø Sneptrupvej,7451,26,9.06096,56.2359356
755907,Ø Sneptrupvej,7451,27,9.0644434,56.2364218
755908,Ø Sneptrupvej,7451,30,9.0715344,56.233757
755909,Ø Sneptrupvej,7451,31,9.0756452,56.2376181
756105,Østre Søvej,7451,2,9.0381946,56.2153355
756106,Østre Søvej,7451,4,9.036931,56.2150523
756107,Østre Søvej,7451,6,9.036364,56.2146689
756108,Østre Søvej,7451,8,9.0363842,56.2145523
756109,Østre Søvej,7451,10,9.0364063,56.2143819
756110,Østre Søvej,7451,12,9.0363137,56.2142641
756111,Østre Søvej,7451,14,9.036302,56.2141382
756112,Østre Søvej,7451,16,9.036483,56.2140324
756113,Østre Søvej,7451,18,9.0362928,56.2139405
756114,Østre Søvej,7451,20,9.0363139,56.213797
756115,Østre Søvej,7451,22,9.0362102,56.2135354
756116,Østre Søvej,7451,24,9.0364755,56.2133226
756117,Østre Søvej,7451,26,9.0365521,56.2132194
756118,Østre Søvej,7451,28,9.036387,56.2130881
756119,Østre Søvej,7451,30,9.0362938,56.2129883
756120,Østre Søvej,7451,32,9.0363266,56.212874
756121,Østre Søvej,7451,34,9.0363198,56.2127406
756122,Østre Søvej,7451,36,9.0362409,56.2126553
756123,Østre Søvej,7451,38,9.0362618,56.2125208
756124,Østre Søvej,7451,40,9.0360876,56.2124291
756125,Østre Søvej,7451,42,9.0359783,56.2123291
756126,Østre Søvej,7451,44,9.0359653,56.2122391
756127,Østre Søvej,7451,46,9.035889,56.212121
756305,Åvej,7451,1,9.0239442,56.2066374
756306,Åvej,7451,2,9.0228981,56.2075063
756307,Åvej,7451,2A,9.0229208,56.207776
756308,Åvej,7451,3,9.0237164,56.2066978
756309,Åvej,7451,4,9.0227196,56.2075402
756310,Åvej,7451,6,9.0225096,56.2075559
756311,Åvej,7451,7,9.0232397,56.206962
756312,Åvej,7451,8,9.0223146,56.2075987
756313,Åvej,7451,9,9.0230596,56.2070409
756314,Åvej,7451,10,9.0219403,56.2077024
756315,Åvej,7451,11,9.022766,56.207137
756316,Åvej,7451,12,9.0217283,56.2077719
756317,Åvej,7451,13,9.0226502,56.2072251
756318,Åvej,7451,14,9.0215662,56.2077971
756319,Åvej,7451,15,9.0223602,56.2072219
756320,Åvej,7451,16,9.0212904,56.2078479
756321,Åvej,7451,17,9.0221965,56.2072919
756322,Åvej,7451,18A,9.020995,56.2079974
756323,Åvej,7451,18B,9.0208218,56.2083369
756324,Åvej,7451,18C,9.0208319,56.2085077
756325,Åvej,7451,18D,9.0211722,56.2088092
756326,Åvej,7451,19,9.0219861,56.2073166
756327,Åvej,7451,20,9.0206548,56.2080476
756328,Åvej,7451,21,9.0216968,56.2072954
756329,Åvej,7451,22,9.0204151,56.2082263
756330,Åvej,7451,23,9.0214152,56.207508
756331,Åvej,7451,24,9.0202579,56.2083307
756332,Åvej,7451,25,9.0210769,56.2075042
756333,Åvej,7451,26,9.0200305,56.2083821
756334,Åvej,7451,27,9.0209445,56.2076016
756335,Åvej,7451,28,9.0197708,56.2084331
756336,Åvej,7451,29,9.0207329,56.2076622
756337,Åvej,7451,31,9.020555,56.2076782
756338,Åvej,7451,32,9.0194334,56.2084025
756339,Åvej,7451,33,9.0203272,56.2077386
756340,Åvej,7451,34,9.019187,56.208535
756341,Åvej,7451,35,9.0197949,56.2077507
756342,Åvej,7451,37,9.0194543,56.2078098
756343,Åvej,7451,42,9.0182847,56.2085246
842581,Sunds Hovedgade,7451,29A,9.0173626,56.2017632
842582,Sunds Hovedgade,7451,29B,9.0172127,56.2017437
842583,Sunds Hovedgade,7451,55,9.016136,56.2032099
842584,Hjejlevej,7451,327,9.0043344,56.2023798
842585,Teglgårdvej,7451,7A,9.0156445,56.2020726
842586,Teglgårdvej,7451,24,9.0107393,56.2032262
842587,Nørrevang,7451,11A,9.0137241,56.2039272
842588,Nørrevang,7451,11B,9.0135165,56.2038977
842589,Nørrevang,7451,11C,9.0132207,56.2038643
842590,Nørrevang,7451,30A,9.0135394,56.206799
842591,Nørrevang,7451,30B,9.0132365,56.2070926
842592,Linåparken,7451,2A,8.99834,56.210549
842593,Linåparken,7451,26,8.998366,56.20914
842594,Linåparken,7451,28,8.9981811,56.2091692
842595,Linåparken,7451,30,8.9979658,56.2091912
842596,Linåparken,7451,32,8.997638,56.209262
842597,Linåparken,7451,34,8.9973976,56.2092989
842598,Linåparken,7451,36,8.9972857,56.2090313
842599,Linåparken,7451,38,8.9975301,56.20898
842600,Linåparken,7451,40,8.9977892,56.2089263
842601,Linåparken,7451,42,8.9980179,56.208876
842602,Linåparken,7451,44,8.9982731,56.2088242
842603,Linåparken,7451,67,8.9989001,56.2090281
842604,Linåparken,7451,70,8.9981455,56.2085936
842605,Linåparken,7451,71,8.9993604,56.2089628
842606,Linåparken,7451,73,8.9996686,56.2089246
842607,Linåparken,7451,75,8.9998799,56.2089108
842608,Linåparken,7451,77,8.9998345,56.2086382
842609,Linåparken,7451,79,8.9995852,56.2086684
842610,Linåparken,7451,81,8.999311,56.2086964
842611,Linåparken,7451,83,8.9990669,56.208722
842612,Linåparken,7451,85,8.9988019,56.2087476
842614,Nordstien,7451,4A,9.0157019,56.2181332
842615,Nørremarkvej,7451,9,9.030357,56.2206543
842616,Nørremarkvej,7451,14,9.036405,56.214978
842617,Nørremarkvej,7451,16,9.039191,56.214449
842618,Nørremarkvej,7451,16A,9.039414,56.214239
842619,Østre Søvej,7451,2A,9.0375947,56.214962
842620,Nordvænget,7451,28,9.0190674,56.2182889
842621,Vestre Søvej,7451,5,9.0126267,56.2166486
842622,Nordpassagen,7451,34A,9.0269664,56.2176509
844221,Skinderholmvej,7451,26A,9.064846,56.174304
844222,Skinderholmvej,7451,28,9.0531203,56.1799
844223,Skinderholmvej,7451,30,9.0576162,56.178881
844226,Skinderholmvej,7451,32,9.0576607,56.1781601
844228,Skinderholmvej,7451,34,9.0614958,56.1791497
844230,Skinderholmvej,7451,36,9.0584524,56.1795168
844231,Skinderholmvej,7451,38,9.0624063,56.1793453
844726,Røjenvej,7451,4B,9.0030058,56.2240722
844727,Røjenvej,7451,12B,8.9971953,56.2287424
844728,Røjenvej,7451,29,8.9768108,56.2448456
844729,Røjenvej,7451,33A,8.973841,56.246255
844730,Røjenvej,7451,38,8.9795458,56.2454537
844731,Røjenvej,7451,40,8.9830044,56.2472479
844732,Idrætsvej,7451,5,9.0223309,56.2055262
844733,Linnebjergvej,7451,7A,9.068038,56.209948
844734,Linnebjergvej,7451,14,9.077663,56.2094867
844735,Linnebjergvej,7451,14B,9.0742818,56.2094773
844736,Bødkervej,7451,1B,9.021732,56.1937531
844737,Bødkervej,7451,1C,9.023054,56.193526
844738,Bødkervej,7451,4A,9.0326981,56.1926917
844739,Linåvej,7451,21,8.9880833,56.2098202
844740,Linåvej,7451,28,8.9854609,56.2189211
844741,Linåvej,7451,41,8.9512539,56.2180454
844742,Ilskovvej,7451,13,9.0415738,56.2127232
844743,Drejervej,7451,2B,9.0141245,56.1954083
844744,Drejervej,7451,20A,9.014963,56.191668
844745,Drejervej,7451,21,9.015696,56.190172
844746,Genvejen,7451,15A,9.013386,56.2003689
844747,Genvejen,7451,15B,9.0136095,56.20032
844748,Thorupvej,7451,28A,9.0281896,56.1967667
844749,Thorupvej,7451,54,9.0777681,56.1830507
844750,Skivevej,7451,10,9.0138982,56.2079125
844751,Skivevej,7451,22,9.0131421,56.2092734
844752,Skivevej,7451,30A,9.0127626,56.2102254
844753,Skivevej,7451,43,9.006229,56.2157656
844754,Skivevej,7451,51A,9.007661,56.227674
844755,Skivevej,7451,57,9.0071502,56.2355307
844756,Skivevej,7451,62B,9.0296147,56.2350767
844757,Skivevej,7451,90,9.0045605,56.2650744
844758,Linåtoften,7451,26A,9.0045863,56.2095396
844759,Linåtoften,7451,26B,9.0045212,56.2093067
844760,Linåtoften,7451,28A,9.004448,56.209084
844761,Linåtoften,7451,28B,9.0047362,56.2090603
844762,Linåtoften,7451,30A,9.005058,56.2090222
844763,Linåtoften,7451,30B,9.005342,56.2089952
844764,Linåtoften,7451,32,9.0056701,56.2089637
844765,Linåtoften,7451,34A,9.0059886,56.2089907
844766,Linåtoften,7451,34B,9.0061839,56.2091186
844767,Linåtoften,7451,36A,9.0048894,56.2094336
844768,Linåtoften,7451,36B,9.0051881,56.2094083
844769,Linåtoften,7451,38A,9.0055109,56.2093923
844770,Linåtoften,7451,38B,9.0057812,56.2093642
844771,Linåtoften,7451,40A,9.0060982,56.2093337
844772,Linåtoften,7451,40B,9.0064132,56.2093024
844773,Kjærgaardsvej,7451,1C,9.0185417,56.1991968
844774,Fredbovej,7451,8,9.0128811,56.2038211
844775,Fredbovej,7451,10A,9.0128189,56.2039668
844776,Fredbovej,7451,10B,9.0128386,56.2041282
844777,Strandkrogen,7451,1A,9.0174722,56.2062899
844778,Strandkrogen,7451,1B,9.0175414,56.206328
844779,Strandkrogen,7451,1C,9.0175872,56.2064652
844780,Strandkrogen,7451,1D,9.0176647,56.2065072
844781,Strandkrogen,7451,1E,9.0177025,56.2066519
844782,Strandkrogen,7451,1F,9.017773,56.2066898
844783,Strandkrogen,7451,1G,9.0178139,56.2068387
844784,Strandkrogen,7451,1H,9.017894,56.206875
844785,Strandkrogen,7451,5,9.0179779,56.2071233
844786,Strandkrogen,7451,7,9.0180164,56.2073484
844787,Hollingholtvej,7451,44,8.9767408,56.1919359
844788,Fyrrely,7451,6B,9.022413,56.201688
844789,Fyrrely,7451,6C,9.022761,56.201652
844790,Fyrrely,7451,6D,9.0234192,56.2018805
844791,Gammel Sundsvej,7451,6,9.0451052,56.2061598
844792,Gammel Sundsvej,7451,32A,9.05768,56.20048
844793,Åvej,7451,1A,9.0243888,56.2063862
844794,Åvej,7451,5,9.0235651,56.2068758
844795,Åvej,7451,18E,9.019992,56.207793
844796,Åvej,7451,40,9.018526,56.2085362
844797,Strandvejen,7451,66,9.0284301,56.2062216
844798,Stationsvej,7451,21C,9.0196845,56.201371
844799,Stationsvej,7451,21D,9.0197548,56.2013254
844800,Stationsvej,7451,21E,9.0199334,56.2016433
844801,Stationsvej,7451,21F,9.019855,56.2016672
844802,Stationsvej,7451,21G,9.0199703,56.2017651
844803,Stationsvej,7451,21H,9.0200438,56.2017363
844804,Stationsvej,7451,21K,9.0204533,56.20157
844805,Stationsvej,7451,21L,9.0204968,56.2016032
844806,Stationsvej,7451,21M,9.0203217,56.2016683
844807,Stationsvej,7451,21N,9.020275,56.201637
844808,Stationsvej,7451,21P,9.020249,56.2014049
844809,Stationsvej,7451,21R,9.0202938,56.2014402
844810,Stationsvej,7451,21S,9.0201175,56.2015012
844811,Stationsvej,7451,21T,9.02005,56.2014499
844812,Præstegårdvænget,7451,2A,9.0088327,56.2081778
844813,Tranevej,7451,6,9.0099241,56.2039342
844874,Ø Sneptrupvej,7451,20,9.047954,56.2355578
844875,Nørreskovvej,7451,35A,9.091229,56.2418613
844876,Ilskov Hovedgade,7451,10B,9.0897356,56.2391978
844877,Ilskov Hovedgade,7451,12B,9.0907909,56.2388337
844878,Ikastvej,7451,16A,9.0938426,56.2386797
844879,Ikastvej,7451,16B,9.0939883,56.2386198
844880,Ikastvej,7451,16C,9.0937773,56.2386301
844881,Ikastvej,7451,16D,9.0939253,56.2385704
844882,Ikastvej,7451,16E,9.0937133,56.2385809
844883,Ikastvej,7451,16F,9.0938702,56.2385251
844884,Ikastvej,7451,19A,9.094564,56.238812
844885,Ikastvej,7451,34,9.1030691,56.2345804
844886,Ikastvej,7451,48,9.1198913,56.2203527
844887,Ikastvej,7451,51,9.1324418,56.2131766
844888,Østerskovvej,7451,65,9.093501,56.238344
844889,Skåphusvej,7451,3A,9.089242,56.233209
844890,Skåphusvej,7451,42A,9.0861986,56.2327771
844891,Skåphusvej,7451,58,9.0866181,56.2267773
844892,Skåphusvej,7451,60A,9.064253,56.219888
844893,Skåphusvej,7451,60B,9.0811786,56.220627
844894,Granskovvej,7451,7,9.0956804,56.2378698
844895,Granskovvej,7451,11,9.0950146,56.2372951
844896,Granskovvej,7451,19,9.0945612,56.236418
844897,Kiersvej,7451,2,8.9579733,56.2520352
844910,Riskærvej,7451,3,9.0198252,56.2796313
844911,Kærmosevej,7451,1B,8.9939119,56.2585672
844912,Bækvej,7451,12,8.9875406,56.2826082
844914,Hvidmosevej,7451,12,9.024226,56.2612846
844915,Hvidmosevej,7451,14,9.0323513,56.2597113
844916,Hodsagervej,7451,14A,8.999602,56.270315
844917,Hodsagervej,7451,66,8.9755688,56.2738381
844918,Hodsagervej,7451,70,8.9680715,56.2793428
844919,Stalmosevej,7451,5,9.0163467,56.2554779
844920,V Sneptrupvej,7451,3,9.0000412,56.2475431
844921,V Sneptrupvej,7451,18,8.9600344,56.2545655
844922,Gedhusvej,7451,5B,9.0304812,56.2689478
844923,Gedhusvej,7451,15,9.0589123,56.2678214
844924,Faunbjergvej,7451,35,8.9962573,56.2679141
844925,Faunbjergvej,7451,37,8.9967483,56.2678177
844926,Faunbjergvej,7451,37A,8.996774,56.267683
844927,Faunbjergvej,7451,39,8.9970366,56.2676818
844928,Faunbjergvej,7451,41,8.996932,56.267573
844929,Faunbjergvej,7451,47,8.9958525,56.2675163
844930,Faunbjergvej,7451,51,8.9956234,56.2677032
844931,Faunbjergvej,7451,67,8.99619,56.269125
844932,Faunbjergvej,7451,69,8.9962475,56.2692692
844935,Keldsgårdvej,7451,3,8.9396075,56.2160607
844936,Keldsgårdvej,7451,10B,8.9216203,56.2149797
845019,Søparken,7451,1,9.007985,56.210835
845020,Søparken,7451,3,9.007727,56.210843
845021,Søparken,7451,5,9.0071426,56.2107737
845022,Søparken,7451,7,9.0072108,56.2111151
845023,Søparken,7451,9,9.0076726,56.211105
845024,Søparken,7451,11,9.008012,56.211076
845025,Søparken,7451,13,9.0079916,56.2118501
845026,Søparken,7451,17,9.007156,56.21163
845027,Søparken,7451,19,9.0074476,56.2118774
845028,Søparken,7451,21,9.007407,56.212106
845029,Søparken,7451,23,9.0076154,56.2124119
845030,Søparken,7451,25,9.00815,56.212393
845031,Søparken,7451,27,9.008466,56.2121108
845032,Søparken,7451,999,9.006917,56.212048
1532538,Herningvej,7451,63,9.117777,56.272145
1532539,Herningvej,7451,63B,9.120344,56.276145
1607366,Vestermosevej,7451,19,9.0767382,56.1787247
2045762,Ruskærvej,7451,21,9.146202,56.215494
2045763,Ruskærvej,7451,29,9.1250242,56.2256059
2146292,Karupvej,7451,4,9.095538,56.2447248
2147050,Lærkeskovvej,7451,1,9.0907772,56.2345526
2147060,Lærkeskovvej,7451,2,9.0909823,56.2344463
2147064,Lærkeskovvej,7451,3,9.0910831,56.2347571
2147073,Lærkeskovvej,7451,4,9.0912339,56.2346283
2147078,Lærkeskovvej,7451,5,9.0914166,56.2349784
2147082,Lærkeskovvej,7451,6,9.0915236,56.2348228
2147085,Lærkeskovvej,7451,7,9.092411,56.235547
2147093,Lærkeskovvej,7451,8,9.0918132,56.2350178
2147096,Lærkeskovvej,7451,9,9.0927048,56.2357497
2147099,Lærkeskovvej,7451,10,9.0922457,56.235212
2147104,Lærkeskovvej,7451,11,9.0931822,56.2360412
2147108,Lærkeskovvej,7451,12,9.09253,56.235414
2147113,Lærkeskovvej,7451,13,9.0935698,56.2362862
2147116,Lærkeskovvej,7451,14,9.0928179,56.2356013
2147123,Lærkeskovvej,7451,16,9.0931124,56.2357931
2149183,Søtoften,7451,1,9.001785,56.2109654
2149193,Søtoften,7451,2,9.0023564,56.2108558
2149202,Søtoften,7451,3,9.001823,56.211227
2149203,Søtoften,7451,4,9.002506,56.211172
2149215,Søtoften,7451,5,9.0018573,56.2114122
2149218,Søtoften,7451,6,9.0025536,56.2115054
2149223,Søtoften,7451,7,9.001875,56.2116797
2149224,Søtoften,7451,8,9.0026216,56.2117232
2149230,Søtoften,7451,9,9.0020661,56.2119204
2149237,Søtoften,7451,10,9.002667,56.21195
2149238,Søtoften,7451,11,9.0021912,56.2122394
2149244,Søtoften,7451,12,9.002651,56.212177
2149246,Søtoften,7451,13,9.0022322,56.2123992
2149251,Søtoften,7451,14,9.002747,56.212417
2149261,Søtoften,7451,15,9.001783,56.212957
2149265,Søtoften,7451,16,9.0027584,56.2126487
2149274,Søtoften,7451,18,9.0028318,56.2127893
2149282,Søtoften,7451,19,9.002164,56.2132373
2149290,Søtoften,7451,20,9.002709,56.213143
2149359,Søvænget,7451,1,9.0046395,56.2108696
2149363,Søvænget,7451,2,9.0055607,56.2108696
2149366,Søvænget,7451,3,9.0042154,56.2109164
2149375,Søvænget,7451,4,9.0060301,56.2108878
2149377,Søvænget,7451,5,9.003875,56.210886
2149387,Søvænget,7451,6,9.006449,56.210922
2149397,Søvænget,7451,7,9.0032818,56.2109541
2149401,Søvænget,7451,8,9.0061349,56.2111707
2149413,Søvænget,7451,9,9.0037596,56.2112612
2149420,Søvænget,7451,10,9.0054848,56.2110989
2149436,Søvænget,7451,11,9.0043516,56.2112752
2149439,Søvænget,7451,13,9.0047424,56.2111332
2149450,Søvænget,7451,39,9.0032068,56.2115148
2149461,Søvænget,7451,44,9.0054675,56.211593
2149465,Søvænget,7451,46,9.0059416,56.2116009
2149477,Søvænget,7451,48,9.006411,56.211519
2149483,Søvænget,7451,50,9.0062171,56.2118249
2149496,Søvænget,7451,52,9.0063614,56.2119874
2149500,Søvænget,7451,54,9.00638,56.212199
2149508,Søvænget,7451,56,9.0065118,56.2123952
2149519,Søvænget,7451,58,9.0066141,56.2126133
2149524,Søvænget,7451,60,9.0057848,56.2125659
2149539,Søvænget,7451,62,9.005979,56.2123011
2149548,Søvænget,7451,64,9.005829,56.212052
2149559,Søvænget,7451,65,9.0047,56.211632
2149567,Søvænget,7451,66,9.005723,56.211858
2149579,Søvænget,7451,67,9.0043347,56.2116758
2149588,Søvænget,7451,69,9.0038109,56.2117052
2149589,Søvænget,7451,71,9.0037893,56.2118803
2149601,Søvænget,7451,73,9.0037951,56.2120789
2149606,Søvænget,7451,75,9.0039178,56.2123609
2149621,Søvænget,7451,77,9.004017,56.212595
2149628,Søvænget,7451,79,9.0040307,56.2128075
2149640,Søvænget,7451,81,9.0045676,56.2126418
2149656,Søvænget,7451,83,9.0046699,56.2124847
2149664,Søvænget,7451,85,9.004571,56.212299
2149682,Søvænget,7451,87,9.004377,56.211985
2149686,Søvænget,7451,89,9.0048502,56.2119294
2149699,Søvænget,7451,999,9.0042424,56.2114322
2188685,Søengen,7451,1,8.999374,56.21119
2188686,Søengen,7451,2,9.000198,56.211072
2188687,Søengen,7451,3,8.99914,56.211509
2188688,Søengen,7451,4,9.000447,56.211285
2188689,Søengen,7451,5,8.999145,56.211744
2188690,Søengen,7451,6,9.000689,56.211467
2188691,Søengen,7451,7,8.999077,56.211958
2188692,Søengen,7451,8,9.001126,56.211694
2188693,Søengen,7451,9,8.998902,56.212187
2188694,Søengen,7451,10,9.001291,56.211914
2188695,Søengen,7451,11,8.998799,56.212383
2188696,Søengen,7451,12,9.001297,56.212522
2188697,Søengen,7451,13,8.998676,56.212602
2188698,Søengen,7451,14,9.001078,56.212283
2188699,Søengen,7451,15,8.998686,56.21283
2188700,Søengen,7451,16,9.000755,56.212122
2188701,Søengen,7451,17,8.998592,56.213087
2188702,Søengen,7451,18,9.00064,56.21192
2188703,Søengen,7451,19,8.9987398,56.213764
2188704,Søengen,7451,20,9.000368,56.211625
2188705,Søengen,7451,21,8.9988346,56.2134897
2188706,Søengen,7451,22,9.0001678,56.2114276
2188707,Søengen,7451,23,8.999069,56.21322
2188708,Søengen,7451,25,8.999225,56.213022
2188709,Søengen,7451,27,8.9992459,56.2125944
2188710,Søengen,7451,29,8.999384,56.212472
2188711,Søengen,7451,31,8.9994151,56.2122207
2188712,Søengen,7451,33,8.9995021,56.2120337
2188713,Søengen,7451,35,8.9996223,56.2117914
2191762,Gedhusvej,7451,29,9.078531,56.261956
2198075,Keldsgårdvej,7451,17A,9.018044,56.204903
2210940,Gammel Sundsvej,7451,2A,9.040154,56.213541
2213127,Søparken,7451,38,9.008641,56.211435
2213128,Søparken,7451,40,9.009269,56.211937
2213129,Søparken,7451,48,9.009754,56.212013
2213130,Søparken,7451,50,9.010143,56.212048
2213131,Søparken,7451,58,9.010659,56.212197
2213132,Søparken,7451,62,9.010226,56.212304
2213133,Søparken,7451,64,9.009805,56.212252
2213134,Søparken,7451,66,9.009385,56.212313
2213135,Søparken,7451,68,9.009169,56.212115
2219643,Rønne Alle,7451,999,9.001723,56.20725
2219644,Linåparken,7451,1A,8.999397,56.210225
2219645,Vestre Søvej,7451,4A,9.011816,56.215027
2219662,Røjenvej,7451,7,8.996347,56.2211
2219663,Røjenvej,7451,9B,8.9873885,56.2198241
2219664,Røjenvej,7451,30,8.986682,56.242316
2219665,Damtoftevej,7451,6,8.979479,56.200052
2219666,Skivevej,7451,25B,9.011506,56.211154
2219667,Skivevej,7451,29A,9.011247,56.211673
2219684,Kastanievej,7451,5,9.018069,56.203777
2219685,Kastanievej,7451,15,9.017755,56.204629
2219686,Hollingholtvej,7451,35B,8.992022,56.192261
2219687,Stationsvej,7451,16A,9.018955,56.201131
2219688,Stationsvej,7451,16B,9.018898,56.201064
2219689,Stationsvej,7451,18A,9.019022,56.201163
2219690,Stationsvej,7451,18B,9.018825,56.201079
2220981,Skåphusvej,7451,21A,9.10403,56.221902
2220982,Skåphusvej,7451,50A,9.083824,56.233023
2220987,Bækvej,7451,4,8.995989,56.277255
2220989,Mejrupvej,7451,4B,8.997693,56.267055
2236880,Talundvej,7451,6,8.94356,56.263341
2240003,Linnebjergvej,7451,6A,9.106757,56.208972
2240331,Krusbjergvej,7451,6,8.967279,56.2284801
2240332,Krusbjergvej,7451,8,8.970692,56.228195
2240333,Krusbjergvej,7451,12,8.973028,56.226497
2240334,Krusbjergvej,7451,15,8.969912,56.234079
2240335,Krusbjergvej,7451,17,8.971781,56.245581
2242586,Skåphusvej,7451,48,9.081938,56.232547
2252119,Kjærgaardsvej,7451,28,9.013685,56.199967
2252120,Kjærgaardsvej,7451,30,9.013684,56.199892
2252121,Kjærgaardsvej,7451,32,9.013633,56.199821
2252122,Kjærgaardsvej,7451,34,9.013579,56.199716
2252123,Kjærgaardsvej,7451,36,9.013092,56.200144
2252152,Skalmejevej,7451,32,8.995708,56.208253
2252153,Skivevej,7451,47,9.008607,56.218072
