idx,street,postcode,housenumber,lon,lat
768442,Sønder Hjermvej,7560,1,8.674198,56.40373
768443,Sønder Hjermvej,7560,2,8.67492,56.403902
779809,Altonavej,7560,1,8.6815163,56.4693485
779810,Altonavej,7560,2,8.681191,56.4691096
779811,Altonavej,7560,3,8.6821055,56.4693107
779812,Altonavej,7560,5,8.6825122,56.4693989
779813,Altonavej,7560,7,8.6828554,56.469674
779814,Altonavej,7560,9,8.6833581,56.4697572
779815,Altonavej,7560,11,8.6831409,56.4692386
779816,Altonavej,7560,13,8.682485,56.469098
779817,Altonavej,7560,15,8.6819243,56.4689695
779818,Altonavej,7560,17,8.6819732,56.468601
779819,Altonavej,7560,19,8.6822251,56.4687742
779820,Altonavej,7560,21,8.682905,56.4687781
779821,Altonavej,7560,23,8.6832961,56.4688876
779822,Altonavej,7560,25,8.6835807,56.4690568
779823,Altonavej,7560,27,8.683837,56.468554
779824,Altonavej,7560,29,8.6832863,56.4685614
779825,Altonavej,7560,33,8.6820235,56.4682001
779826,Altonavej,7560,35,8.682203,56.467985
779827,Altonavej,7560,37,8.6832324,56.468204
779828,Altonavej,7560,39,8.6838792,56.4683305
779829,Altonavej,7560,41,8.6841433,56.4681212
779830,Altonavej,7560,43,8.6836114,56.4680017
779831,Altonavej,7560,45,8.683122,56.4678773
779832,Altonavej,7560,47,8.6827199,56.4677586
779833,Altonavej,7560,49,8.6822896,56.4676899
779941,Ausumvej,7560,2,8.600043,56.426997
779942,Ausumvej,7560,4,8.601042,56.425878
780366,Bjerregårdsparken,7560,2,8.6364587,56.4354039
780367,Bjerregårdsparken,7560,4,8.6364609,56.4356052
780368,Bjerregårdsparken,7560,6,8.636686,56.4358949
780369,Bjerregårdsparken,7560,8,8.6367303,56.4362046
780370,Bjerregårdsparken,7560,10,8.6367716,56.4365061
780371,Bjerregårdsparken,7560,12,8.636663,56.4367543
780372,Bjerregårdsparken,7560,14,8.6362737,56.4366509
780373,Bjerregårdsparken,7560,16,8.6363223,56.4364396
780374,Bjerregårdsparken,7560,18,8.6363007,56.4362731
780375,Bjerregårdsparken,7560,20,8.6362639,56.4360121
780376,Bjerregårdsparken,7560,22,8.6360222,56.435767
780377,Bjerregårdsparken,7560,24,8.6360052,56.4354991
780378,Bjerregårdsparken,7560,26,8.635242,56.4355234
780379,Bjerregårdsparken,7560,28,8.6353136,56.4356942
780380,Bjerregårdsparken,7560,30,8.6355562,56.4360273
780381,Bjerregårdsparken,7560,32,8.6355349,56.4363513
780382,Bjerregårdsparken,7560,34,8.6354599,56.4366458
780383,Bjerregårdsparken,7560,36,8.6349462,56.4368857
780384,Bjerregårdsparken,7560,38,8.6350043,56.4366799
780385,Bjerregårdsparken,7560,40,8.6350623,56.436474
780386,Bjerregårdsparken,7560,42,8.6351182,56.4362808
780387,Bjerregårdsparken,7560,44,8.634897,56.435939
780388,Bjerregårdsparken,7560,46,8.6348023,56.4356708
780389,Bjerregårdsparken,7560,48,8.6341004,56.4356655
780390,Bjerregårdsparken,7560,50,8.6341621,56.4358766
780391,Bjerregårdsparken,7560,52,8.6343852,56.4362112
780392,Bjerregårdsparken,7560,54,8.6343278,56.4365078
780393,Bjerregårdsparken,7560,56,8.6342921,56.436828
780394,Bjerregårdsparken,7560,58,8.6342913,56.437057
780395,Bjerregårdsparken,7560,60,8.6337347,56.4369953
780396,Bjerregårdsparken,7560,62,8.633785,56.436815
780397,Bjerregårdsparken,7560,64,8.6338367,56.4365727
780398,Bjerregårdsparken,7560,66,8.6339289,56.4363647
780399,Bjerregårdsparken,7560,68,8.6337964,56.4361436
780400,Bjerregårdsparken,7560,70,8.6337169,56.4357895
780401,Bjerregårdsparken,7560,72,8.6328983,56.4357816
780402,Bjerregårdsparken,7560,74,8.6329418,56.4360014
780403,Bjerregårdsparken,7560,76,8.6331443,56.436254
780404,Bjerregårdsparken,7560,78,8.6331023,56.4366406
780405,Bjerregårdsparken,7560,80,8.6330357,56.4368894
780406,Bjerregårdsparken,7560,82,8.6331271,56.4371611
780407,Bjerregårdsparken,7560,84,8.6324871,56.4371844
780408,Bjerregårdsparken,7560,86,8.6325769,56.4369593
780409,Bjerregårdsparken,7560,88,8.6326173,56.4367479
780410,Bjerregårdsparken,7560,90,8.6326421,56.4365254
780411,Bjerregårdsparken,7560,92,8.6325366,56.4362796
780412,Bjerregårdsparken,7560,94,8.6325101,56.4359028
780413,Bjerregårdsparken,7560,96,8.6317611,56.4358985
780414,Bjerregårdsparken,7560,98,8.6318382,56.4360928
780415,Bjerregårdsparken,7560,100,8.6319992,56.4363286
780416,Bjerregårdsparken,7560,102,8.6319196,56.4365799
780417,Bjerregårdsparken,7560,104,8.6318772,56.4368704
780418,Bjerregårdsparken,7560,106,8.6318566,56.4371414
780419,Bjerregårdsparken,7560,108,8.6312123,56.4371539
780420,Bjerregårdsparken,7560,110,8.6312718,56.4369868
780421,Bjerregårdsparken,7560,112,8.6314584,56.4367379
780422,Bjerregårdsparken,7560,114,8.6313276,56.4365483
780423,Bjerregårdsparken,7560,116,8.6313602,56.4363313
780424,Bjerregårdsparken,7560,118,8.6308136,56.4362994
780425,Bjerregårdsparken,7560,120,8.6307597,56.4360246
780426,Bjerregårdsparken,7560,122,8.6312206,56.4360526
780427,Bjerregårdsparken,7560,124,8.6297789,56.4360548
780428,Bjerregårdsparken,7560,126,8.630373,56.4361126
780429,Bjerregårdsparken,7560,128,8.629703,56.4363996
780430,Bjerregårdsparken,7560,130,8.630325,56.436445
780431,Bjerregårdsparken,7560,132,8.6307117,56.4365405
780432,Bjerregårdsparken,7560,134,8.6307166,56.4367175
780433,Bjerregårdsparken,7560,136,8.6300914,56.4368076
780434,Bjerregårdsparken,7560,138,8.6305041,56.4371431
780435,Bjerregårdsparken,7560,140,8.6299427,56.4371154
780436,Bjerregårdsparken,7560,142,8.6295528,56.4369887
780437,Bjerregårdsparken,7560,144,8.6291452,56.4370018
780438,Bjerregårdsparken,7560,146,8.6291556,56.4365968
780439,Bjerregårdsparken,7560,148,8.6292119,56.4363604
780440,Bjerregårdsparken,7560,150,8.6292697,56.4361258
780810,Christiansborgvej,7560,1,8.6302573,56.4379284
780811,Christiansborgvej,7560,2,8.6308283,56.4382068
780812,Christiansborgvej,7560,3,8.6300798,56.4384398
780813,Christiansborgvej,7560,4,8.6305322,56.4389726
780814,Christiansborgvej,7560,5,8.6300576,56.4386416
780815,Christiansborgvej,7560,6,8.6311137,56.4391982
780816,Christiansborgvej,7560,7,8.6299798,56.4390636
780817,Christiansborgvej,7560,8,8.630552,56.4395658
780818,Christiansborgvej,7560,10,8.6298533,56.4402324
780819,Christiansborgvej,7560,12,8.6297102,56.4405224
780820,Christiansborgvej,7560,14,8.629398,56.440876
780824,Dalbyvej,7560,1,8.6179299,56.45337
780825,Dalbyvej,7560,2,8.6218539,56.4499658
780826,Dalbyvej,7560,3,8.634668,56.452582
780827,Dalbyvej,7560,4,8.6227112,56.4510407
780828,Dalbyvej,7560,5,8.636857,56.451885
780829,Dalbyvej,7560,6,8.624699,56.45046
780830,Dalbyvej,7560,8,8.638419,56.451304
781133,Engvej,7560,1,8.6400943,56.4389621
781134,Engvej,7560,2,8.6407444,56.4391086
781135,Engvej,7560,3,8.640311,56.4391888
781136,Engvej,7560,4,8.640221,56.4395972
781137,Engvej,7560,5,8.6399826,56.4391006
781138,Engvej,7560,6,8.640068,56.43975
781139,Engvej,7560,7,8.6396531,56.4393557
781140,Engvej,7560,8,8.6383493,56.4408116
781701,Gartnervej,7560,1,8.6401167,56.4377577
781702,Gartnervej,7560,1A,8.640387,56.437814
781703,Gartnervej,7560,1B,8.6404799,56.4377241
781704,Gartnervej,7560,2,8.6399453,56.4379601
781705,Gartnervej,7560,3,8.639828,56.437693
781706,Gartnervej,7560,4,8.639546,56.437901
781707,Gartnervej,7560,5,8.6393696,56.4376053
781708,Gartnervej,7560,6,8.6392317,56.4377848
781709,Gartnervej,7560,7,8.639127,56.437556
781710,Gartnervej,7560,8,8.6387799,56.4376994
781711,Gartnervej,7560,9,8.6387534,56.4374628
781712,Gartnervej,7560,10,8.63828,56.4376017
781713,Gartnervej,7560,11,8.6383648,56.4374133
781714,Gartnervej,7560,12,8.6379007,56.4375281
781715,Gartnervej,7560,13,8.6380418,56.4373486
781716,Gartnervej,7560,15,8.6374528,56.4372496
781922,Hauboparken,7560,1,8.6341171,56.4420002
781923,Hauboparken,7560,3,8.6343275,56.4420462
781924,Hauboparken,7560,5,8.6342113,56.44182
781925,Hauboparken,7560,7,8.6344202,56.4418643
781926,Hauboparken,7560,9,8.6346411,56.4417146
781927,Hauboparken,7560,11,8.6344386,56.4416741
781928,Hauboparken,7560,13,8.6342507,56.4415969
781929,Hauboparken,7560,15,8.6340594,56.44156
781930,Hauboparken,7560,17,8.6337769,56.4415318
781931,Hauboparken,7560,19,8.6336444,56.441698
781932,Hauboparken,7560,21,8.6335055,56.4418981
781933,Hauboparken,7560,23,8.6332844,56.4418744
781934,Hauboparken,7560,25,8.6334185,56.4416732
781935,Hauboparken,7560,27,8.6334957,56.441509
781936,Hauboparken,7560,29,8.6332591,56.4415066
781937,Hauboparken,7560,31,8.6329262,56.4415145
781938,Hauboparken,7560,33,8.6327001,56.4414951
781939,Hauboparken,7560,35,8.6324703,56.4414829
781940,Hauboparken,7560,37,8.6326794,56.4416988
781941,Hauboparken,7560,39,8.6324648,56.4416742
781942,Hauboparken,7560,41,8.6326766,56.4418658
781943,Hauboparken,7560,43,8.6324398,56.441867
781944,Haubovænget,7560,1,8.6330809,56.4428112
781945,Haubovænget,7560,2,8.6328473,56.4429193
781946,Haubovænget,7560,4,8.6326419,56.4427646
781947,Haubovænget,7560,5,8.6334972,56.4423993
781948,Haubovænget,7560,6,8.6325946,56.4425582
781949,Haubovænget,7560,7,8.6330421,56.4422429
781950,Haubovænget,7560,8,8.6325509,56.4422387
781951,Haubovænget,7560,9,8.6322644,56.4431649
781952,Haubovænget,7560,10,8.6318038,56.4432063
781953,Haubovænget,7560,11,8.6319122,56.4429394
781954,Haubovænget,7560,12,8.631582,56.442964
781955,Haubovænget,7560,13,8.6318338,56.4427258
781956,Haubovænget,7560,14,8.631449,56.4427119
781957,Haubovænget,7560,15,8.6318233,56.4424826
781958,Haubovænget,7560,16,8.6313567,56.4424609
781959,Haubovænget,7560,17,8.6319974,56.442202
781960,Haubovænget,7560,18,8.631404,56.4422432
782123,Hjermvej,7560,63,8.626919,56.446889
782124,Hjermvej,7560,65,8.6276717,56.4434538
782126,Hjermvej,7560,67,8.628072,56.440181
782128,Hjermvej,7560,69,8.629162,56.439986
782138,Hjermvej,7560,90,8.615964,56.453914
782139,Hjermvej,7560,92,8.621586,56.449292
782140,Hjermvej,7560,94,8.622853,56.445891
782141,Hjermvej,7560,96,8.613766,56.447232
782142,Hjermvej,7560,98,8.625816,56.439867
782144,Hjortborgvej,7560,2,8.654795,56.410257
782145,Hjortborgvej,7560,4,8.656921,56.407997
782146,Hjortborgvej,7560,6,8.6588072,56.4061579
782147,Hjortborgvej,7560,8,8.660778,56.403197
782240,Holstebrovej,7560,100,8.5980052,56.4294883
782241,Holstebrovej,7560,101,8.601925,56.429132
782242,Holstebrovej,7560,102,8.5981114,56.4291925
782243,Holstebrovej,7560,103,8.598966,56.42832
782244,Holstebrovej,7560,104,8.5973328,56.4294769
782245,Holstebrovej,7560,106,8.598215,56.428973
782277,Hummelmosevej,7560,1,8.681963,56.429372
782278,Hummelmosevej,7560,2,8.679156,56.427983
782279,Hummelmosevej,7560,3,8.6763168,56.4257346
782280,Hummelmosevej,7560,4,8.6776465,56.4270357
782281,Hummelmosevej,7560,5,8.67621,56.411456
782282,Hummelmosevej,7560,6,8.669723,56.412558
782283,Hummelmosevej,7560,8,8.668978,56.4109
782336,Højgårdsparken,7560,2,8.6460872,56.4385903
782337,Højgårdsparken,7560,4,8.6460886,56.4383801
782338,Højgårdsparken,7560,6,8.6460532,56.4380903
782339,Højgårdsparken,7560,8,8.6460814,56.437717
782340,Højgårdsparken,7560,10,8.6454429,56.4374233
782341,Højgårdsparken,7560,12,8.645425,56.4376395
782342,Højgårdsparken,7560,14,8.6454067,56.4378639
782343,Højgårdsparken,7560,16,8.6454028,56.438092
782344,Højgårdsparken,7560,18,8.6453315,56.4383039
782345,Højgårdsparken,7560,20,8.6449706,56.4382881
782346,Højgårdsparken,7560,22,8.6449458,56.4380497
782347,Højgårdsparken,7560,24,8.6449607,56.437863
782348,Højgårdsparken,7560,26,8.6449763,56.4375911
782349,Højgårdsparken,7560,28,8.6449723,56.4373934
782350,Højgårdsparken,7560,30,8.6443607,56.4373633
782351,Højgårdsparken,7560,32,8.6440846,56.4376217
782352,Højgårdsparken,7560,34,8.6440646,56.4378496
782353,Højgårdsparken,7560,36,8.6440467,56.438065
782354,Højgårdsparken,7560,38,8.6440517,56.4382394
782355,Højgårdsparken,7560,40,8.6436191,56.4381956
782356,Højgårdsparken,7560,42A,8.6435565,56.4380034
782357,Højgårdsparken,7560,42B,8.6435938,56.4378251
782358,Højgårdsparken,7560,44,8.6436153,56.4376376
782359,Højgårdsparken,7560,46,8.6436003,56.4373607
782360,Højgårdsparken,7560,48,8.6434777,56.4370976
782361,Højgårdsparken,7560,50,8.6440311,56.4370173
782362,Højgårdsparken,7560,52,8.6440477,56.4367947
782363,Højgårdsparken,7560,54,8.6435031,56.4367521
782364,Højgårdsparken,7560,56,8.6436013,56.436448
782365,Højgårdsparken,7560,58,8.6441636,56.4364909
782366,Højgårdsparken,7560,60,8.6436914,56.436213
782367,Højgårdsparken,7560,62,8.644235,56.4362421
782368,Højgårdsparken,7560,64,8.6447575,56.4362692
782369,Højgårdsparken,7560,66,8.644626,56.436527
782370,Højgårdsparken,7560,68,8.6445126,56.4368057
782371,Højgårdsparken,7560,70,8.6444846,56.437064
782372,Højgårdsparken,7560,72,8.6453843,56.4370362
782373,Højgårdsparken,7560,74,8.6454248,56.436787
782374,Højgårdsparken,7560,76,8.6454889,56.4366244
782375,Højgårdsparken,7560,78,8.6455322,56.4363501
782376,Højgårdsparken,7560,80,8.6460284,56.4364567
782377,Højgårdsparken,7560,82,8.6459496,56.4366569
782378,Højgårdsparken,7560,84,8.64593,56.4369099
782379,Højgårdsparken,7560,86,8.6458849,56.4370827
782380,Højgårdsparken,7560,88,8.6465567,56.4358936
782381,Højgårdsparken,7560,90,8.6461722,56.4357553
782382,Højgårdsparken,7560,92,8.645696,56.4357073
782383,Højgårdsparken,7560,94,8.6452068,56.435661
782384,Højgårdsparken,7560,96,8.6447208,56.4356138
782385,Højgårdsparken,7560,98,8.6442188,56.4355286
782386,Højgårdsparken,7560,100,8.6442074,56.4354224
782387,Højgårdsparken,7560,100A,8.6435166,56.4353508
782388,Højgårdsparken,7560,102,8.644853,56.4353802
782389,Højgårdsparken,7560,104,8.645037,56.4351142
782390,Højgårdsparken,7560,106,8.644447,56.434924
782391,Højgårdsparken,7560,108,8.6444691,56.4348368
782392,Højgårdsparken,7560,110,8.6450199,56.434848
782393,Højgårdsparken,7560,112,8.6455793,56.4349196
782394,Højgårdsparken,7560,114,8.6454882,56.4351402
782395,Højgårdsparken,7560,116,8.6454132,56.4354006
782396,Højgårdsparken,7560,128A,8.6464613,56.4354242
782497,Højvang,7560,2,8.6426996,56.438552
782498,Højvang,7560,3,8.643447,56.4385211
782499,Højvang,7560,4,8.6429029,56.4384326
782500,Højvang,7560,6,8.6429327,56.4382767
782501,Højvang,7560,8,8.6429472,56.438206
782502,Højvang,7560,10,8.6429496,56.4381189
782517,Jegbjergvej,7560,2,8.62484,56.434269
782518,Jegbjergvej,7560,3,8.6287791,56.4239486
782519,Jegbjergvej,7560,4,8.62468,56.432292
782520,Jegbjergvej,7560,6,8.627928,56.433896
782521,Jegbjergvej,7560,7,8.630025,56.415719
782522,Jegbjergvej,7560,8,8.6269102,56.431395
782523,Jegbjergvej,7560,9,8.62676,56.413186
782524,Jegbjergvej,7560,10,8.628452,56.427268
782525,Jegbjergvej,7560,11,8.630306,56.411168
782526,Jegbjergvej,7560,12,8.6233662,56.4212732
782527,Jegbjergvej,7560,13,8.629385,56.408484
782528,Jegbjergvej,7560,14,8.627381,56.419433
782529,Jegbjergvej,7560,15,8.637767,56.407167
782530,Jegbjergvej,7560,16,8.6220336,56.4167328
782531,Jegbjergvej,7560,18,8.626668,56.414325
782532,Jegbjergvej,7560,20,8.6263341,56.4133671
782533,Jegbjergvej,7560,22,8.6252937,56.409909
782542,Jernbanevej,7560,1,8.6418271,56.4366658
782543,Jernbanevej,7560,2,8.640272,56.438297
782544,Jernbanevej,7560,3,8.6418465,56.4365583
782545,Jernbanevej,7560,4,8.6404296,56.438151
782546,Jernbanevej,7560,5,8.6419576,56.4362562
782547,Jernbanevej,7560,6,8.6406075,56.4379128
782548,Jernbanevej,7560,7,8.642028,56.436064
782549,Jernbanevej,7560,8,8.6409733,56.4376789
782550,Jernbanevej,7560,9,8.6422104,56.4342994
782551,Jernbanevej,7560,10,8.6412369,56.4374104
782552,Jernbanevej,7560,11,8.643146,56.434267
782553,Jernbanevej,7560,12,8.641398,56.437245
782554,Jernbanevej,7560,16,8.6415361,56.4369663
782555,Jernbanevej,7560,18,8.6415948,56.4368171
782556,Jernbanevej,7560,22,8.6415982,56.4364218
782557,Jernbanevej,7560,24,8.6416208,56.4362443
782558,Jernbanevej,7560,26,8.6418399,56.4340697
782559,Jernbanevej,7560,32,8.6392793,56.4339674
782828,Kirkevej,7560,1A,8.637246,56.43762
782829,Kirkevej,7560,1B,8.6374842,56.4376642
782830,Kirkevej,7560,2,8.6368986,56.4375967
782831,Kirkevej,7560,3,8.6373197,56.4374319
782832,Kirkevej,7560,4,8.636937,56.437436
782833,Kirkevej,7560,6,8.6370178,56.4372229
782834,Kirkevej,7560,7,8.6374689,56.4370756
782835,Kirkevej,7560,8,8.6370673,56.4370277
782836,Kirkevej,7560,9,8.6375845,56.4320193
782837,Kirkevej,7560,11,8.643163,56.431786
782838,Kirkevej,7560,13,8.6428108,56.4306928
782839,Kirkevej,7560,15,8.6351231,56.4307091
782840,Kirkevej,7560,16,8.635049,56.433509
782841,Kirkevej,7560,17,8.635681,56.428432
782842,Kirkevej,7560,18A,8.6362302,56.432136
782843,Kirkevej,7560,18B,8.6359363,56.4316126
782844,Kirkevej,7560,19,8.6355289,56.4263352
782845,Kirkevej,7560,20,8.632552,56.431023
782846,Kirkevej,7560,21,8.6349262,56.4262497
782847,Kirkevej,7560,22,8.6315581,56.4307354
782848,Kirkevej,7560,23,8.6342389,56.4229931
783127,Kobberbrovej,7560,1,8.669592,56.439306
783128,Kobberbrovej,7560,2,8.6737819,56.4375753
783129,Kobberbrovej,7560,3,8.671159,56.4394502
783130,Kobberbrovej,7560,4,8.6747251,56.4402493
783136,Kongsgårdvej,7560,1,8.6561149,56.4386093
783137,Kongsgårdvej,7560,2,8.677328,56.4300696
783138,Kongsgårdvej,7560,3,8.6572947,56.4384118
783139,Kongsgårdvej,7560,4,8.683643,56.4306177
783140,Kongsgårdvej,7560,5,8.6580111,56.4382034
783141,Kongsgårdvej,7560,6,8.684077,56.4304466
783142,Kongsgårdvej,7560,7,8.6587488,56.4380268
783143,Kongsgårdvej,7560,8,8.685683,56.428228
783144,Kongsgårdvej,7560,9,8.665288,56.437229
783145,Kongsgårdvej,7560,11,8.683586,56.431072
783146,Kongsgårdvej,7560,13,8.687308,56.429489
783147,Kongsgårdvej,7560,15,8.6910584,56.4293854
783148,Korsbjergvej,7560,2,8.6447866,56.4181826
783199,Kviumvej,7560,1,8.6837342,56.4358597
783200,Kviumvej,7560,2,8.6876027,56.4311842
783201,Kviumvej,7560,3,8.6810427,56.4363667
783202,Kviumvej,7560,4,8.6887615,56.4315714
783203,Kviumvej,7560,5,8.684108,56.4367212
783204,Kviumvej,7560,6,8.685068,56.436883
783205,Kviumvej,7560,7,8.683313,56.4371317
783206,Kviumvej,7560,8,8.6846412,56.4373397
783207,Kviumvej,7560,9,8.6789319,56.4481926
783208,Kviumvej,7560,10,8.6841902,56.441189
783209,Kviumvej,7560,10B,8.6813753,56.4484273
783210,Kviumvej,7560,11,8.6813665,56.4517583
783211,Kviumvej,7560,12,8.6817099,56.4515555
783212,Kviumvej,7560,14,8.6817979,56.451908
783213,Kærgårdmark,7560,1,8.650131,56.428189
783214,Kærgårdmark,7560,2,8.6509365,56.4280193
783215,Kærgårdmark,7560,3,8.6521172,56.4290481
783216,Kærgårdmark,7560,4,8.65439,56.428215
783217,Kærgårdmark,7560,5,8.653691,56.4284492
783218,Kærgårdmark,7560,6,8.662207,56.428403
783219,Kærgårdmark,7560,7,8.659114,56.429243
783220,Kærgårdmark,7560,9,8.6630458,56.4291312
783465,Lindeborgvej,7560,1,8.6450008,56.4398355
783466,Lindeborgvej,7560,2,8.6454393,56.4394661
783467,Lindeborgvej,7560,3,8.6449841,56.4400249
783468,Lindeborgvej,7560,4,8.645427,56.4395926
783469,Lindeborgvej,7560,5,8.6449498,56.4402445
783470,Lindeborgvej,7560,5A,8.6446758,56.4404913
783471,Lindeborgvej,7560,7,8.6447876,56.4409232
783472,Lindeborgvej,7560,9,8.6447272,56.441288
783473,Lindeborgvej,7560,10,8.645419,56.440273
783474,Lindeborgvej,7560,11,8.6447299,56.4417642
783475,Lindeborgvej,7560,11B,8.6403008,56.4463145
783476,Lindeborgvej,7560,12,8.645399,56.440465
783477,Lindeborgvej,7560,13,8.645631,56.449746
783478,Lindeborgvej,7560,15,8.647451,56.449235
783479,Lindeborgvej,7560,16,8.6483266,56.445529
783480,Lindeborgvej,7560,17,8.664268,56.447029
783481,Lindeborgvej,7560,18,8.64643,56.449004
783482,Lindeborgvej,7560,19,8.66736,56.447782
783483,Lindeborgvej,7560,20,8.6487546,56.448823
783484,Lindeborgvej,7560,30,8.674403,56.444473
783515,Lindevænget,7560,1,8.6375402,56.4360102
783516,Lindevænget,7560,2,8.6376243,56.4355891
783517,Lindevænget,7560,3,8.6376228,56.436474
783518,Lindevænget,7560,4,8.6376613,56.435418
783519,Lindevænget,7560,5,8.6377645,56.4362837
783520,Lindevænget,7560,6,8.6377521,56.4352046
783521,Lindevænget,7560,7,8.6379095,56.4360207
783522,Lindevænget,7560,8,8.6378617,56.4350768
783523,Lindevænget,7560,9,8.6384692,56.4361912
783524,Lindevænget,7560,10,8.638284,56.435199
783525,Lindevænget,7560,11,8.6383404,56.4364212
783526,Lindevænget,7560,12,8.6381478,56.4354177
783527,Lindevænget,7560,13,8.6381889,56.4366499
783528,Lindevænget,7560,14,8.63795,56.4357015
783529,Lindevænget,7560,15,8.6376394,56.4368045
783530,Lindevænget,7560,16,8.6386135,56.4358024
783531,Lindevænget,7560,17,8.6380528,56.4368591
783532,Lindevænget,7560,18,8.6387306,56.4356172
783533,Lindevænget,7560,19,8.6384549,56.4370031
783534,Lindevænget,7560,20,8.6387283,56.4354168
783535,Lindevænget,7560,21,8.6385503,56.4367969
783536,Lindevænget,7560,22,8.639079,56.4352663
783537,Lindevænget,7560,23,8.6386656,56.4366144
783538,Lindevænget,7560,24,8.6393083,56.4353944
783539,Lindevænget,7560,25,8.6387968,56.4364042
783540,Lindevænget,7560,26,8.639166,56.43563
783541,Lindevænget,7560,27,8.6389666,56.4362368
783542,Lindevænget,7560,28,8.6390076,56.4358717
783543,Lindevænget,7560,29,8.6396526,56.4363434
783544,Lindevænget,7560,30,8.6394492,56.4360019
783545,Lindevænget,7560,31,8.6394976,56.4365407
783546,Lindevænget,7560,32,8.6397257,56.4358413
783547,Lindevænget,7560,33,8.6393836,56.4367655
783548,Lindevænget,7560,34,8.6398012,56.4356448
783549,Lindevænget,7560,35,8.6392617,56.4369479
783550,Lindevænget,7560,36,8.6398354,56.4354638
783551,Lindevænget,7560,37,8.6391031,56.4371191
783552,Lindevænget,7560,38,8.6403605,56.4356113
783553,Lindevænget,7560,39,8.6396315,56.4371966
783554,Lindevænget,7560,40,8.6401518,56.4358141
783555,Lindevænget,7560,41,8.6396571,56.4369903
783556,Lindevænget,7560,42,8.6400027,56.4360617
783557,Lindevænget,7560,43,8.6397716,56.4368266
783558,Lindevænget,7560,44,8.6406064,56.4362283
783559,Lindevænget,7560,45,8.6399215,56.4366338
783560,Lindevænget,7560,46,8.6407352,56.436036
783561,Lindevænget,7560,47,8.640031,56.4364367
783562,Lindevænget,7560,47B,8.6405024,56.4365907
783563,Lindevænget,7560,48,8.6408122,56.4358413
783564,Lindevænget,7560,49,8.641007,56.4366093
783565,Lindevænget,7560,50,8.6409266,56.4356803
783566,Lindevænget,7560,51,8.6414394,56.4366307
783572,Livbjerggårdvej,7560,1,8.6788825,56.4687627
783573,Livbjerggårdvej,7560,3,8.6791537,56.4688293
783574,Livbjerggårdvej,7560,5,8.6795613,56.4688951
783575,Livbjerggårdvej,7560,7,8.679874,56.4689811
783576,Livbjerggårdvej,7560,9,8.6802695,56.468955
783577,Livbjerggårdvej,7560,11,8.6806991,56.4689304
783578,Livbjerggårdvej,7560,13,8.681178,56.468675
783579,Livbjerggårdvej,7560,15,8.6806155,56.4685492
783580,Livbjerggårdvej,7560,17,8.6801023,56.468482
783581,Livbjerggårdvej,7560,19,8.6796681,56.4684303
783582,Livbjerggårdvej,7560,21,8.6792054,56.4683961
783583,Livbjerggårdvej,7560,23,8.6794089,56.467947
783584,Livbjerggårdvej,7560,25,8.6795835,56.4676709
783585,Livbjerggårdvej,7560,27,8.6799272,56.4679694
783586,Livbjerggårdvej,7560,29,8.6802366,56.4681609
783587,Livbjerggårdvej,7560,31,8.6808164,56.4682636
783588,Livbjerggårdvej,7560,33,8.681291,56.46831
783589,Livbjerggårdvej,7560,35,8.6816005,56.467967
783590,Livbjerggårdvej,7560,37,8.6810765,56.4678898
783591,Livbjerggårdvej,7560,39,8.680528,56.467777
783592,Livbjerggårdvej,7560,41,8.6800805,56.4676624
783593,Livbjerggårdvej,7560,43,8.6797601,56.4672753
783594,Livbjerggårdvej,7560,45,8.6800439,56.4670259
783595,Livbjerggårdvej,7560,47,8.6804187,56.4672466
783596,Livbjerggårdvej,7560,49,8.6809182,56.4672912
783597,Livbjerggårdvej,7560,51,8.6812958,56.4674113
783598,Livbjerggårdvej,7560,53,8.6817432,56.467642
783599,Livbjerggårdvej,7560,57,8.681391,56.467165
783600,Livbjerggårdvej,7560,59,8.6810957,56.4669854
783601,Livbjerggårdvej,7560,61,8.6807097,56.4667619
783602,Livbjerggårdvej,7560,63,8.6801599,56.4666448
783879,Mosevej,7560,1,8.6608169,56.4174189
783880,Mosevej,7560,2,8.6606838,56.4170631
783881,Mosevej,7560,3,8.668489,56.4182677
783882,Mosevej,7560,4,8.661836,56.416792
783916,Møllevangsvej,7560,1,8.6417448,56.4386491
783917,Møllevangsvej,7560,2,8.641485,56.4385152
783918,Møllevangsvej,7560,2A,8.6414413,56.4386566
783919,Møllevangsvej,7560,3,8.6417687,56.4385534
783920,Møllevangsvej,7560,4,8.6414975,56.4383834
783921,Møllevangsvej,7560,5,8.641794,56.4384243
783922,Møllevangsvej,7560,6,8.6415327,56.4382509
783923,Møllevangsvej,7560,7,8.6418344,56.4382488
783924,Møllevangsvej,7560,8,8.6413269,56.4381043
783925,Møllevangsvej,7560,9,8.6418738,56.4380598
783926,Møllevangsvej,7560,10,8.6424582,56.4377634
783927,Møllevangsvej,7560,10A,8.641776,56.43769
783928,Møllevangsvej,7560,11,8.6429602,56.4378863
785175,Skarbyvej,7560,2,8.630435,56.419086
785176,Skarbyvej,7560,3,8.6313377,56.4207145
785177,Skarbyvej,7560,4,8.635981,56.418712
785178,Skarbyvej,7560,5,8.636694,56.420665
785179,Skarbyvej,7560,6,8.637943,56.415631
785180,Skarbyvej,7560,8,8.63767,56.414515
785181,Skarbyvej,7560,9,8.642813,56.418153
785182,Skarbyvej,7560,10,8.6372775,56.4137384
785183,Skarbyvej,7560,11,8.6576762,56.4126302
785184,Skarbyvej,7560,12,8.642117,56.414652
785185,Skarbyvej,7560,14,8.646242,56.415355
785186,Skarbyvej,7560,16,8.647185,56.411294
785187,Skarbyvej,7560,18,8.6509108,56.4140851
785205,Skolevej,7560,1,8.6365678,56.4383781
785206,Skolevej,7560,2,8.637333,56.438384
785207,Skolevej,7560,3,8.6361658,56.4393329
785208,Skolevej,7560,4,8.6369699,56.4385203
785209,Skolevej,7560,5,8.6356624,56.4398082
785210,Skolevej,7560,6,8.6368011,56.4389142
785211,Skolevej,7560,8,8.6368088,56.4391122
785212,Skolevej,7560,16,8.637369,56.4395548
785495,Sofienlundvej,7560,1,8.6431359,56.4665262
785496,Sofienlundvej,7560,2,8.6398789,56.4673773
785497,Sofienlundvej,7560,3,8.646059,56.466443
785498,Sofienlundvej,7560,5,8.6399973,56.4480271
785499,Sofienlundvej,7560,7,8.637446,56.4464579
785500,Sofienlundvej,7560,8,8.637426,56.46544
785501,Sofienlundvej,7560,9,8.634787,56.4454404
785502,Sofienlundvej,7560,10,8.641994,56.464933
785503,Sofienlundvej,7560,12,8.642732,56.4592141
785504,Sofienlundvej,7560,14,8.640133,56.452453
785505,Sofienlundvej,7560,16,8.63606,56.447146
785506,Sofienlundvej,7560,20,8.63232,56.444482
785636,Sportsvej,7560,14,8.5943598,56.4348407
785637,Sportsvej,7560,16,8.594706,56.4347873
785653,Stationsvej,7560,1,8.6395329,56.4387197
785654,Stationsvej,7560,2,8.6398324,56.4388012
785655,Stationsvej,7560,3A,8.6394284,56.4388063
785656,Stationsvej,7560,3B,8.6393846,56.4388416
785657,Stationsvej,7560,3C,8.6393375,56.4388787
785658,Stationsvej,7560,3D,8.639295,56.43891
785659,Stationsvej,7560,4,8.6389837,56.4390983
785660,Stationsvej,7560,6,8.6386058,56.4389556
785661,Stationsvej,7560,8,8.6383519,56.4389413
785662,Stationsvej,7560,9,8.638401,56.438727
785663,Stationsvej,7560,14,8.6371937,56.4386978
785664,Stationsvej,7560,15,8.6376885,56.438587
785665,Stationsvej,7560,16,8.63705,56.438671
786310,Sønder Hjermvej,7560,3,8.6730855,56.4050314
786311,Sønder Hjermvej,7560,3A,8.6725628,56.4046541
786312,Sønder Hjermvej,7560,4,8.671451,56.406797
786313,Sønder Hjermvej,7560,6,8.6610743,56.4161653
786314,Sønder Hjermvej,7560,7,8.666249,56.407389
786315,Sønder Hjermvej,7560,8,8.6601624,56.4173038
786316,Sønder Hjermvej,7560,9,8.661577,56.411106
786317,Sønder Hjermvej,7560,10,8.658336,56.420022
786318,Sønder Hjermvej,7560,11,8.660757,56.413015
786319,Sønder Hjermvej,7560,12,8.6526852,56.4229024
786320,Sønder Hjermvej,7560,13,8.6588392,56.4166001
786321,Sønder Hjermvej,7560,15,8.655237,56.416756
786322,Sønder Hjermvej,7560,17,8.64625,56.421909
786323,Sønder Hjermvej,7560,21,8.643945,56.427424
786352,Tellingvej,7560,1,8.6683585,56.4542734
786353,Tellingvej,7560,2,8.6730769,56.4527005
786354,Tellingvej,7560,3,8.6791238,56.4617112
786355,Tellingvej,7560,3A,8.6787784,56.4633424
786356,Tellingvej,7560,4,8.6747688,56.4528944
786357,Tellingvej,7560,5,8.6809115,56.4646364
786359,Tellingvej,7560,7,8.6828128,56.4638844
786360,Tellingvej,7560,9,8.685955,56.464411
786361,Tellingvej,7560,11,8.686061,56.465974
786362,Tellingvej,7560,13,8.683118,56.465378
786363,Tellingvej,7560,15,8.6815363,56.4612473
786364,Tellingvej,7560,17,8.678659,56.454404
786365,Tellingvej,7560,19,8.683927,56.45294
786670,Tusgårdvej,7560,1,8.6704438,56.433186
786671,Tusgårdvej,7560,2,8.665067,56.433329
786672,Tusgårdvej,7560,3,8.674734,56.428829
786673,Tusgårdvej,7560,4,8.6665703,56.4299309
786674,Tusgårdvej,7560,6,8.666624,56.427977
786675,Tusgårdvej,7560,8,8.6648021,56.4230205
786960,Vestervang,7560,1,8.6365546,56.4371759
786961,Vestervang,7560,2,8.6364687,56.4373517
786962,Vestervang,7560,3,8.6362466,56.4371716
786963,Vestervang,7560,4,8.6358566,56.4373674
786964,Vestervang,7560,5,8.6360072,56.4371251
786965,Vestervang,7560,6,8.6352918,56.4372723
786966,Vestervang,7560,7,8.6357772,56.4370824
786967,Vestervang,7560,8,8.6352745,56.4373664
786968,Vestervang,7560,9,8.6354184,56.4370199
786969,Vestervang,7560,10,8.6353142,56.4374909
786970,Vestervang,7560,11,8.6354426,56.4369169
786971,Vestervang,7560,12,8.6352884,56.4375939
786972,Vestervang,7560,14,8.6349387,56.4371209
786973,Vestervang,7560,16,8.6347906,56.4371323
786974,Vestervang,7560,22,8.6337842,56.437438
786992,Vestre Hovedgade,7560,1,8.6398843,56.4384453
786993,Vestre Hovedgade,7560,2,8.639635,56.4385433
786994,Vestre Hovedgade,7560,3,8.6395376,56.4383667
786995,Vestre Hovedgade,7560,4,8.6393388,56.4385661
786996,Vestre Hovedgade,7560,5,8.639274,56.4383154
786997,Vestre Hovedgade,7560,6,8.6390934,56.4384576
786998,Vestre Hovedgade,7560,7,8.6390588,56.4382684
786999,Vestre Hovedgade,7560,8,8.6390151,56.4384097
787000,Vestre Hovedgade,7560,9,8.638893,56.4382427
787001,Vestre Hovedgade,7560,10,8.6388398,56.4383776
787002,Vestre Hovedgade,7560,11,8.6386871,56.4380979
787003,Vestre Hovedgade,7560,12,8.638642,56.4383407
787004,Vestre Hovedgade,7560,13,8.638182,56.438084
787005,Vestre Hovedgade,7560,14,8.6384332,56.4382965
787006,Vestre Hovedgade,7560,15,8.6378666,56.4380253
787007,Vestre Hovedgade,7560,15A,8.6381036,56.4378067
787008,Vestre Hovedgade,7560,16,8.638208,56.4382574
787009,Vestre Hovedgade,7560,17,8.6376515,56.4380142
787010,Vestre Hovedgade,7560,18,8.6380392,56.4382236
787011,Vestre Hovedgade,7560,19,8.6374395,56.4379672
787012,Vestre Hovedgade,7560,20,8.6378123,56.4381845
787013,Vestre Hovedgade,7560,21,8.6372484,56.4379268
787014,Vestre Hovedgade,7560,22,8.6376501,56.4381516
787015,Vestre Hovedgade,7560,24,8.6374973,56.4381226
787016,Vestre Hovedgade,7560,25,8.6363581,56.437785
787017,Vestre Hovedgade,7560,26,8.6371993,56.4380798
787018,Vestre Hovedgade,7560,27,8.63608,56.4377676
787019,Vestre Hovedgade,7560,28,8.6346779,56.438278
787020,Vestre Hovedgade,7560,28B,8.6340807,56.437974
787021,Vestre Hovedgade,7560,28C,8.6340283,56.4380919
787022,Vestre Hovedgade,7560,28D,8.6339734,56.4382277
787023,Vestre Hovedgade,7560,28E,8.6339126,56.4383526
787024,Vestre Hovedgade,7560,29,8.6358618,56.4377502
787025,Vestre Hovedgade,7560,29B,8.6334461,56.4375959
787026,Vestre Hovedgade,7560,30,8.6335734,56.4379687
787027,Vestre Hovedgade,7560,31,8.6326731,56.437621
787028,Vestre Hovedgade,7560,32,8.633338,56.437976
787029,Vestre Hovedgade,7560,33,8.632184,56.437575
787030,Vestre Hovedgade,7560,34,8.6329937,56.4379498
787031,Vestre Hovedgade,7560,34B,8.6337509,56.4386603
787032,Vestre Hovedgade,7560,34C,8.6337293,56.4388154
787033,Vestre Hovedgade,7560,35,8.6317363,56.4376078
787034,Vestre Hovedgade,7560,36,8.631709,56.438727
787035,Vestre Hovedgade,7560,37,8.6314093,56.4375969
787036,Vestre Hovedgade,7560,39,8.6310191,56.4375824
787037,Vestre Hovedgade,7560,40,8.6294729,56.4379182
787038,Vestre Hovedgade,7560,41,8.6306176,56.4375687
787039,Vestre Hovedgade,7560,43,8.6302614,56.4375565
787040,Vestre Hovedgade,7560,45,8.6299196,56.4375481
787041,Vestre Hovedgade,7560,47,8.629597,56.437535
787042,Vestre Hovedgade,7560,49,8.629155,56.437501
787141,Villemoesvej,7560,1,8.6096886,56.4366206
787142,Villemoesvej,7560,2,8.5972124,56.4352167
787143,Villemoesvej,7560,3,8.62545,56.437462
787144,Villemoesvej,7560,4,8.606719,56.435387
787145,Villemoesvej,7560,8,8.6148352,56.4329113
787146,Villemoesvej,7560,10,8.614675,56.430867
787147,Villemoesvej,7560,12,8.620675,56.436823
787148,Villemoesvej,7560,14,8.622109,56.436984
787149,Villemoesvej,7560,14A,8.621905,56.43691
787150,Villemoesvej,7560,16,8.622579,56.435993
787161,Vinderupvej,7560,11,8.6738714,56.465665
787162,Vinderupvej,7560,13,8.6797649,56.4658219
787164,Vinderupvej,7560,15,8.682394,56.467062
787166,Vinderupvej,7560,17,8.6859727,56.4678568
787168,Vinderupvej,7560,19,8.6956224,56.4692949
787171,Vinderupvej,7560,21,8.6998571,56.4705775
787247,Volstrupby,7560,1,8.652074,56.454918
787248,Volstrupby,7560,2,8.658904,56.453996
787249,Volstrupby,7560,3,8.653866,56.455077
787250,Volstrupby,7560,4,8.661719,56.454474
787251,Volstrupvej,7560,1,8.6643683,56.4624816
787252,Volstrupvej,7560,2,8.659191,56.4654
787253,Volstrupvej,7560,3,8.668269,56.460497
787254,Volstrupvej,7560,4,8.6614911,56.4649321
787255,Volstrupvej,7560,5,8.668629,56.458283
787256,Volstrupvej,7560,6,8.663643,56.452525
787257,Volstrupvej,7560,7,8.673415,56.457368
787258,Volstrupvej,7560,8,8.660201,56.4483653
787259,Volstrupvej,7560,9,8.667856,56.457159
787260,Volstrupvej,7560,11,8.664621,56.450859
787300,Øksenbjergvej,7560,1,8.6873877,56.428218
787301,Øksenbjergvej,7560,2,8.685329,56.426079
787302,Øksenbjergvej,7560,3,8.686295,56.424628
787303,Øksenbjergvej,7560,4,8.683875,56.425405
787304,Øksenbjergvej,7560,5,8.6858074,56.422835
787305,Øksenbjergvej,7560,6,8.679328,56.425459
787306,Øksenbjergvej,7560,9,8.676814,56.424109
787307,Øksenbjergvej,7560,11,8.6731044,56.4248151
787523,Øster Hjermvej,7560,1,8.65578,56.439012
787524,Øster Hjermvej,7560,2,8.6574533,56.4390294
787525,Øster Hjermvej,7560,3,8.654901,56.442972
787526,Øster Hjermvej,7560,4,8.6579628,56.4390948
787527,Øster Hjermvej,7560,5,8.658379,56.439463
787528,Øster Hjermvej,7560,6,8.6583135,56.4391572
787529,Øster Hjermvej,7560,9,8.6684047,56.4439731
787530,Øster Hjermvej,7560,10,8.66558,56.4407183
787531,Øster Hjermvej,7560,11,8.6746645,56.4440018
787532,Øster Hjermvej,7560,12,8.666146,56.439786
787533,Øster Hjermvej,7560,13,8.675201,56.444228
787534,Øster Hjermvej,7560,14,8.6880146,56.4481333
787535,Øster Hjermvej,7560,15,8.6818008,56.4471023
787536,Øster Hjermvej,7560,16,8.688219,56.448229
787537,Øster Hjermvej,7560,17,8.6875313,56.4483136
787538,Øster Hjermvej,7560,18,8.688903,56.447664
787539,Øster Hjermvej,7560,19,8.6895464,56.4488171
787540,Øster Hjermvej,7560,20,8.6886678,56.4483272
787542,Øster Hjermvej,7560,22,8.6888812,56.4483804
787544,Øster Hjermvej,7560,24,8.6903786,56.4472401
787545,Øster Hjermvej,7560,26,8.695022,56.448495
787546,Øster Hjermvej,7560,28,8.695149,56.44526
787547,Øster Hjermvej,7560,30,8.691974,56.443693
787548,Øster Hjermvej,7560,32,8.694759,56.441954
787551,Østervang,7560,2,8.6413774,56.4394525
787552,Østervang,7560,3,8.6407561,56.4396343
787553,Østervang,7560,4,8.6417099,56.4394527
787554,Østervang,7560,5,8.6411524,56.4396938
787555,Østervang,7560,6,8.6420411,56.4394798
787556,Østervang,7560,7,8.6414503,56.4397033
787557,Østervang,7560,8,8.6424558,56.439491
787558,Østervang,7560,9,8.6417637,56.4396942
787559,Østervang,7560,10,8.6428346,56.4395043
787560,Østervang,7560,11,8.6421217,56.4397046
787561,Østervang,7560,12,8.6432174,56.4395025
787562,Østervang,7560,13,8.6424195,56.4397169
787563,Østervang,7560,14,8.643617,56.4395243
787564,Østervang,7560,15,8.6427628,56.4397288
787565,Østervang,7560,16,8.6439945,56.4395322
787566,Østervang,7560,17,8.6430889,56.4397972
787567,Østervang,7560,18,8.6443599,56.439558
787568,Østervang,7560,19,8.6435003,56.4398433
787569,Østervang,7560,20,8.6447032,56.4395691
787570,Østervang,7560,21,8.6441363,56.4398037
787571,Østervang,7560,22,8.6450016,56.4395337
787572,Østervang,7560,23,8.6443769,56.439861
787575,Østre Hovedgade,7560,2,8.6405177,56.4386032
787576,Østre Hovedgade,7560,3,8.6410035,56.4389038
787577,Østre Hovedgade,7560,4,8.6407282,56.4386808
787578,Østre Hovedgade,7560,5,8.6412355,56.4389376
787579,Østre Hovedgade,7560,6,8.6410246,56.4387604
787580,Østre Hovedgade,7560,7,8.6416012,56.4389535
787581,Østre Hovedgade,7560,8,8.6412763,56.4387881
787582,Østre Hovedgade,7560,9,8.6418117,56.4389627
787583,Østre Hovedgade,7560,10,8.6417262,56.4388097
787584,Østre Hovedgade,7560,11,8.6420108,56.4389691
787585,Østre Hovedgade,7560,12,8.6420338,56.4388212
787586,Østre Hovedgade,7560,13,8.642221,56.438976
787587,Østre Hovedgade,7560,13A,8.642216,56.4392
787588,Østre Hovedgade,7560,14,8.6425191,56.4387758
787589,Østre Hovedgade,7560,15,8.6424478,56.4389878
787590,Østre Hovedgade,7560,16,8.6431148,56.4388713
787591,Østre Hovedgade,7560,17,8.64266,56.4389952
787592,Østre Hovedgade,7560,18,8.6434062,56.4388826
787593,Østre Hovedgade,7560,19,8.6429045,56.4390022
787594,Østre Hovedgade,7560,20,8.6436912,56.4388928
787595,Østre Hovedgade,7560,21,8.6431731,56.439015
787596,Østre Hovedgade,7560,22,8.64505,56.4388965
787597,Østre Hovedgade,7560,23,8.6434063,56.4390227
787598,Østre Hovedgade,7560,24,8.6453901,56.4388707
787599,Østre Hovedgade,7560,25,8.643608,56.439034
787600,Østre Hovedgade,7560,26,8.6457403,56.438907
787601,Østre Hovedgade,7560,27,8.6437983,56.4390336
787602,Østre Hovedgade,7560,28,8.6459836,56.438906
787603,Østre Hovedgade,7560,31,8.6444539,56.4390589
787604,Østre Hovedgade,7560,33,8.6447828,56.4390671
787605,Østre Hovedgade,7560,35,8.6451018,56.4390769
787606,Østre Hovedgade,7560,37,8.6455522,56.4390859
787607,Østre Hovedgade,7560,39,8.6458596,56.4391378
787608,Østre Hovedgade,7560,41,8.646161,56.439107
787609,Østre Hovedgade,7560,42,8.6530542,56.4385147
787610,Østre Hovedgade,7560,43,8.6465629,56.4392572
787611,Østre Hovedgade,7560,44,8.6550121,56.4364208
787612,Østre Hovedgade,7560,46,8.6560626,56.4318891
787613,Østre Hovedgade,7560,51,8.6489839,56.4392622
914412,Haubovænget,7560,3,8.6330636,56.4425919
914413,Lindeborgvej,7560,6,8.645687,56.439912
914414,Møllevangsvej,7560,10B,8.641867,56.437387
914415,Christiansborgvej,7560,16,8.629131,56.44125
914416,Skolevej,7560,10,8.6366176,56.4393973
914417,Skolevej,7560,12,8.636891,56.439456
914418,Skolevej,7560,14,8.6370958,56.4394977
914419,Skolevej,7560,18,8.6375763,56.4395961
914420,Skolevej,7560,20,8.6378698,56.439698
914421,Skolevej,7560,22,8.6377828,56.439813
914422,Skolevej,7560,24,8.6374477,56.4397878
914423,Skolevej,7560,26,8.6372408,56.4397452
914424,Skolevej,7560,28,8.636968,56.439689
914425,Skolevej,7560,30,8.6367591,56.4396459
914426,Skolevej,7560,32,8.6364907,56.4395941
914427,Højgårdsparken,7560,1,8.6469346,56.4373359
914428,Højgårdsparken,7560,3,8.646848,56.437595
914429,Skolevej,7560,34,8.6364974,56.4398555
914430,Skolevej,7560,36,8.6370011,56.4399649
914431,Skolevej,7560,38,8.63757,56.439979
914432,Højgårdsparken,7560,5,8.646845,56.437862
914433,Skolevej,7560,40,8.637432,56.440106
914434,Skolevej,7560,42,8.6372176,56.4402634
914435,Højgårdsparken,7560,7,8.646878,56.438246
914436,Højgårdsparken,7560,9,8.646912,56.438475
914437,Skolevej,7560,44,8.637077,56.440389
914438,Skolevej,7560,46,8.636973,56.44018
914439,Højgårdsparken,7560,11,8.646858,56.438748
914440,Skolevej,7560,58,8.6361199,56.4402467
914441,Højgårdsparken,7560,13,8.647378,56.438756
914442,Skolevej,7560,58A,8.6366195,56.440886
914443,Højgårdsparken,7560,15,8.6474407,56.4385104
914444,Højgårdsparken,7560,17,8.647383,56.43825
914445,Højgårdsparken,7560,19,8.647386,56.437877
914446,Højgårdsparken,7560,21,8.647497,56.43761
914447,Højgårdsparken,7560,23,8.647572,56.437317
914448,Højgårdsparken,7560,25,8.648632,56.437118
914449,Højgårdsparken,7560,27,8.648618,56.43738
914450,Højgårdsparken,7560,29,8.648483,56.43764
914451,Højgårdsparken,7560,31,8.648635,56.438067
914452,Højgårdsparken,7560,33,8.6486689,56.4383471
914453,Højgårdsparken,7560,35,8.6487029,56.4386002
914454,Højgårdsparken,7560,37,8.64922,56.438548
914455,Højgårdsparken,7560,39,8.649235,56.438295
914456,Højgårdsparken,7560,41,8.649201,56.4380554
914457,Højgårdsparken,7560,43,8.6491082,56.4376353
914458,Højgårdsparken,7560,45,8.649291,56.437396
914459,Højgårdsparken,7560,47,8.649251,56.437143
914460,Højgårdsparken,7560,49,8.650268,56.437059
914461,Højgårdsparken,7560,51,8.650254,56.437338
914462,Højgårdsparken,7560,53,8.650263,56.437618
914463,Højgårdsparken,7560,55,8.650285,56.438044
914464,Højgårdsparken,7560,57,8.650269,56.438244
914465,Højgårdsparken,7560,59,8.650219,56.438491
914466,Højgårdsparken,7560,61,8.6508688,56.4384856
914467,Højgårdsparken,7560,63,8.650883,56.43824
914468,Højgårdsparken,7560,65,8.6509,56.438057
914469,Højgårdsparken,7560,67,8.650804,56.437613
914470,Højgårdsparken,7560,69,8.650891,56.437395
914471,Højgårdsparken,7560,71,8.650978,56.436941
914472,Højgårdsparken,7560,128B,8.646748,56.435309
914507,Sofienlundvej,7560,4,8.6368532,56.4675667
914593,Engvej,7560,11,8.6394037,56.4396882
914598,Sønder Hjermvej,7560,19,8.64496,56.4268184
914644,Villemoesvej,7560,6,8.6167455,56.4352589
919576,Altonavej,7560,31,8.6826968,56.4684231
2088133,Skarbyvej,7560,1A,8.628171,56.421418
2088134,Skarbyvej,7560,1B,8.6281464,56.4217503
2088135,Skarbyvej,7560,7A,8.6386754,56.4190854
2088136,Skarbyvej,7560,7B,8.639977,56.418659
2224210,Vestre Hovedgade,7560,6A,8.6391,56.43856
2224211,Vestre Hovedgade,7560,6B,8.639124,56.438433
2224212,Vestre Hovedgade,7560,6C,8.639037,56.438615
2224213,Vestre Hovedgade,7560,6D,8.638968,56.438675
2224214,Skolevej,7560,8B,8.636793,56.439063
2224215,Skolevej,7560,8C,8.63711,56.439216
2224216,Skolevej,7560,8D,8.637165,56.439134
2224217,Skolevej,7560,8E,8.637396,56.439239
2224218,Skolevej,7560,8F,8.63757,56.439272
2224219,Skolevej,7560,8G,8.6379621,56.4391961
2224220,Skolevej,7560,8H,8.638138,56.439228
2224221,Skolevej,7560,8K,8.6381122,56.4393805
2224222,Skolevej,7560,8L,8.638059,56.439465
2224223,Skolevej,7560,9,8.634694,56.440707
2240604,Jernbanevej,7560,2A,8.640243,56.43833
2240605,Jernbanevej,7560,2B,8.6403123,56.4382599
2252451,Ausumvej,7560,1A,8.607509,56.429888
2252452,Ausumvej,7560,1B,8.607803,56.426637
2252453,Ausumvej,7560,1C,8.608105,56.423403
2252454,Ausumvej,7560,1D,8.608377,56.420267
