idx,street,postcode,housenumber,lon,lat
770545,Åbergvej,7660,2,8.3115569,56.408966
770546,Åbergvej,7660,8,8.3089433,56.4086864
770575,Åvænget,7660,2,8.3066994,56.412521
770576,Åvænget,7660,4,8.306075,56.4127639
770577,Åvænget,7660,6,8.3057575,56.4131863
770578,Åvænget,7660,9,8.3072362,56.4112073
770579,Åvænget,7660,15,8.3061281,56.4122781
770580,Åvænget,7660,17,8.3059845,56.4124657
770581,Åvænget,7660,31,8.3047535,56.4130992
770582,Åvænget,7660,33,8.3044209,56.4131286
770583,Åvænget,7660,35,8.3042329,56.4132447
770584,Agergårdvej,7660,4,8.2968127,56.4474154
770585,Agergårdvej,7660,5,8.2989914,56.4494316
770586,Agergårdvej,7660,7,8.3023652,56.4491102
770587,Agergårdvej,7660,10,8.3037525,56.4475138
770588,Agergårdvej,7660,12,8.3047971,56.4473253
770589,Agergårdvej,7660,13,8.3053483,56.4477963
770590,Agergårdvej,7660,18,8.3105623,56.4480224
770591,Agergårdvej,7660,24,8.3143025,56.4450898
770592,Agergårdvej,7660,28,8.324861,56.442073
770910,Ballesigvej,7660,7,8.26125,56.388881
770911,Ballesigvej,7660,9,8.2606964,56.3877086
770912,Ballesigvej,7660,11,8.2642449,56.3862325
770940,Bavnehøjvej,7660,10,8.3692595,56.3874609
770941,Bavnehøjvej,7660,12,8.3704506,56.3872581
770942,Bavnehøjvej,7660,14,8.3788189,56.3894533
770943,Bavnehøjvej,7660,16A,8.3727693,56.3917813
770944,Bavnehøjvej,7660,17,8.3671076,56.3916648
770945,Bavnehøjvej,7660,19,8.3637345,56.3931753
770946,Bavnehøjvej,7660,21,8.3689664,56.3944899
770947,Bavnehøjvej,7660,25,8.3717852,56.3973397
771208,Bossenhøjvej,7660,9C,8.3923388,56.4287301
771209,Bossenhøjvej,7660,9D,8.393015,56.4284298
771210,Bossenhøjvej,7660,9F,8.3948954,56.4273124
771211,Bossenhøjvej,7660,13,8.385875,56.428147
771212,Bossenhøjvej,7660,17B,8.3916873,56.427313
771213,Bossenhøjvej,7660,17D,8.3922274,56.4271662
771214,Bossenhøjvej,7660,17E,8.3924552,56.4270761
771215,Bossenhøjvej,7660,17G,8.3929745,56.42692
771216,Bossenhøjvej,7660,17I,8.3938161,56.4266936
771217,Bossenhøjvej,7660,19,8.395458,56.4242602
771218,Bossenhøjvej,7660,21,8.3876159,56.4241819
771219,Bossenhøjvej,7660,23,8.3923232,56.4253082
771220,Bossenhøjvej,7660,29,8.387159,56.421516
771221,Bossenhøjvej,7660,33,8.390802,56.4219769
771222,Bossenhøjvej,7660,35,8.3901998,56.4208006
771223,Bossenhøjvej,7660,39,8.3915859,56.4200502
771224,Bossenhøjvej,7660,41,8.3924278,56.4173831
771225,Bossenhøjvej,7660,43,8.38898,56.4172839
771226,Bossenhøjvej,7660,45,8.3895465,56.4170732
771227,Bossenhøjvej,7660,47,8.380353,56.4209322
771228,Bossenhøjvej,7660,49,8.3790334,56.4197987
771229,Bossenhøjvej,7660,50,8.367746,56.407448
771230,Bossenhøjvej,7660,54,8.364571,56.403767
771231,Bossenhøjvej,7660,57,8.3810159,56.4112327
771264,Brogade,7660,2,8.3100855,56.4108443
771265,Brogade,7660,4A,8.309844,56.411442
771266,Brogade,7660,4B,8.3096471,56.4116044
771267,Brogade,7660,6,8.3093373,56.4117778
771268,Brogade,7660,8,8.3092942,56.4119019
771269,Brogade,7660,9,8.3086968,56.4123794
771270,Brogade,7660,10,8.3092535,56.4120156
771271,Brogade,7660,11,8.3085577,56.4126779
771272,Brogade,7660,12,8.3092475,56.412146
771273,Brogade,7660,13,8.3083922,56.4128044
771274,Brogade,7660,14,8.3091962,56.4122498
771275,Brogade,7660,15,8.3082439,56.4129358
771276,Brogade,7660,16,8.3091069,56.4123847
771277,Brogade,7660,17A,8.3083613,56.4131625
771278,Brogade,7660,18,8.3090422,56.4124939
771279,Brogade,7660,19,8.3082624,56.4133571
771280,Brogade,7660,20,8.308911,56.412691
771281,Brogade,7660,21,8.3081838,56.4135399
771282,Brogade,7660,23,8.3081059,56.4137089
771283,Brogade,7660,24,8.3088715,56.4130162
771284,Brogade,7660,25,8.3080718,56.4138343
771285,Brogade,7660,26,8.3087426,56.413152
771286,Brogade,7660,27,8.3079868,56.4140986
771287,Brogade,7660,29,8.3077773,56.4142395
771288,Brogade,7660,30,8.3088217,56.4134892
771289,Brogade,7660,31,8.3078889,56.4144272
771290,Brogade,7660,33,8.3076347,56.4146128
771291,Brogade,7660,34,8.308577,56.4134965
771292,Brogade,7660,35,8.3077489,56.414778
771293,Brogade,7660,36,8.3085181,56.4136423
771294,Brogade,7660,37,8.3077513,56.4149276
771295,Brogade,7660,38,8.308464,56.4137844
771296,Brogade,7660,39,8.3077029,56.4150957
771297,Brogade,7660,40,8.3084259,56.4139398
771298,Brogade,7660,41,8.3075488,56.4152823
771299,Brogade,7660,42,8.308413,56.4140333
771300,Brogade,7660,43,8.3075611,56.415431
771301,Brogade,7660,44,8.3083453,56.4141643
771302,Brogade,7660,45,8.307483,56.4156262
771303,Brogade,7660,46,8.3083905,56.4142648
771304,Brogade,7660,47,8.3074664,56.415791
771305,Brogade,7660,48,8.3082716,56.4143821
771306,Brogade,7660,49,8.3073939,56.415973
771307,Brogade,7660,50,8.3082359,56.4145194
771308,Brogade,7660,51,8.3071948,56.4162422
771309,Brogade,7660,52,8.3082768,56.4147684
771310,Brogade,7660,53,8.3071485,56.4165439
771311,Brogade,7660,54,8.3081903,56.414942
771312,Brogade,7660,55,8.3070877,56.4167409
771313,Brogade,7660,57A,8.3061846,56.4185614
771314,Brogade,7660,57C,8.3066855,56.4175464
771315,Brogade,7660,58,8.3080636,56.415422
771316,Brogade,7660,59,8.3061796,56.4188881
771317,Brogade,7660,60,8.3081092,56.4156771
771318,Brogade,7660,61,8.3054134,56.418889
771319,Brogade,7660,62,8.3078939,56.4160009
771320,Brogade,7660,63,8.3055401,56.4186434
771321,Brogade,7660,64,8.3078444,56.4161735
771322,Brogade,7660,65,8.3054254,56.4183177
771323,Brogade,7660,66,8.3077786,56.4164365
771324,Brogade,7660,67,8.3057204,56.4193755
771325,Brogade,7660,67A,8.3062745,56.4196804
771326,Brogade,7660,67B,8.3060461,56.4197118
771327,Brogade,7660,68,8.3077068,56.4166948
771328,Brogade,7660,69,8.3060144,56.4207882
771329,Brogade,7660,70,8.3079337,56.4169542
771330,Brogade,7660,72,8.3075853,56.4171179
771331,Brogade,7660,78,8.306758,56.4200199
771332,Brogade,7660,80,8.306718,56.4202226
771333,Brogade,7660,82,8.3066365,56.4206038
771420,Bækmarksbrovej,7660,1,8.3049095,56.4197353
771421,Bækmarksbrovej,7660,3,8.304413,56.419767
771422,Bækmarksbrovej,7660,4,8.303668,56.420839
771423,Bækmarksbrovej,7660,5,8.3026637,56.4197259
771424,Bækmarksbrovej,7660,7,8.3022026,56.419731
771425,Bækmarksbrovej,7660,9,8.3017398,56.419715
771426,Bækmarksbrovej,7660,14,8.298251,56.420808
771427,Bækmarksbrovej,7660,15,8.2945119,56.4184216
771428,Bækmarksbrovej,7660,16,8.297482,56.420941
771429,Bækmarksbrovej,7660,19,8.294375,56.4197577
771430,Bækmarksbrovej,7660,23,8.2914057,56.4197757
771431,Bækmarksbrovej,7660,24,8.2901592,56.4205052
771432,Bækmarksbrovej,7660,25,8.2897375,56.4199513
771433,Bækmarksbrovej,7660,27,8.2880102,56.4170009
771434,Bækmarksbrovej,7660,29,8.285343,56.420283
771435,Bækmarksbrovej,7660,31,8.2851106,56.4174043
771436,Bækmarksbrovej,7660,35,8.28095,56.416471
771437,Bækmarksbrovej,7660,36,8.2797537,56.4216834
771438,Bækmarksbrovej,7660,37,8.278895,56.4198949
771439,Bækmarksbrovej,7660,41,8.2742995,56.4196949
771440,Bækmarksbrovej,7660,42,8.2709358,56.4221034
771441,Bækmarksbrovej,7660,45,8.2700677,56.4179453
771442,Bækmarksbrovej,7660,46,8.2704976,56.4229663
771443,Bækmarksbrovej,7660,47,8.2696622,56.4144301
771444,Bækmarksbrovej,7660,48,8.2730715,56.4244678
771445,Bækmarksbrovej,7660,52,8.268429,56.422274
771446,Bækmarksbrovej,7660,54,8.2680232,56.4236245
771447,Bækmarksbrovej,7660,60,8.2661248,56.4225603
771448,Bækmarksbrovej,7660,64,8.2637492,56.4231677
771449,Bækmarksbrovej,7660,65,8.2632748,56.4203343
771450,Bækmarksbrovej,7660,67,8.2625131,56.4224851
771451,Bækmarksbrovej,7660,69,8.2619611,56.4226216
771452,Bækmarksbrovej,7660,70,8.2621198,56.4229411
771453,Bækmarksbrovej,7660,71,8.2617091,56.422596
771454,Bækmarksbrovej,7660,72,8.2616817,56.4228994
771455,Bækmarksbrovej,7660,73,8.260944,56.4227426
771456,Bækmarksbrovej,7660,74,8.2611841,56.4229874
771487,Bækmarkvej,7660,5,8.3013905,56.4266901
771488,Bækmarkvej,7660,11,8.2973879,56.4268209
771489,Bækmarkvej,7660,14,8.2954621,56.426644
771490,Bækmarkvej,7660,16,8.2953774,56.4252934
771491,Bækmarkvej,7660,17,8.2960261,56.4244704
771492,Bækmarkvej,7660,18,8.2952923,56.4239252
771493,Bækmarkvej,7660,26,8.2949641,56.4205376
771648,Damhusvej,7660,49,8.3258094,56.3808581
771650,Damhusvej,7660,51,8.3257612,56.3822142
771651,Damhusvej,7660,52,8.3263214,56.3839701
771652,Damhusvej,7660,53,8.325112,56.383973
771653,Damhusvej,7660,55,8.324362,56.385477
771654,Damhusvej,7660,59,8.3213054,56.387224
771655,Damhusvej,7660,61,8.31872,56.388262
771656,Damhusvej,7660,67,8.3183413,56.3936014
771657,Damhusvej,7660,68,8.320421,56.394805
771658,Damhusvej,7660,71,8.3189101,56.3961782
771659,Damhusvej,7660,72,8.3191968,56.3966986
771660,Damhusvej,7660,74,8.3191127,56.3974879
771661,Damhusvej,7660,76,8.3186008,56.3980837
771718,Donskærvej,7660,33,8.3867516,56.3979372
771719,Donskærvej,7660,35,8.3834602,56.3944935
771720,Donskærvej,7660,37,8.3824327,56.3929923
771721,Donskærvej,7660,39,8.3901538,56.3925657
771722,Donskærvej,7660,41,8.3839345,56.3959741
771723,Donskærvej,7660,43,8.3840559,56.3993776
771724,Donskærvej,7660,46,8.3809065,56.4017113
771725,Donskærvej,7660,50,8.376992,56.400447
771726,Donskærvej,7660,51,8.374595,56.398914
771727,Donskærvej,7660,55,8.3701475,56.3994457
771728,Donskærvej,7660,56,8.3659504,56.4012909
771729,Donskærvej,7660,57,8.3647729,56.3997899
771730,Donskærvej,7660,60,8.3582809,56.401622
771731,Donskærvej,7660,62,8.3575015,56.401625
771952,Engvej,7660,1,8.3090166,56.4155266
771953,Engvej,7660,2,8.3083847,56.4153232
771954,Engvej,7660,4,8.3088532,56.4151343
771955,Engvej,7660,6,8.3094213,56.4150864
771956,Engvej,7660,8,8.3097832,56.4150885
771957,Engvej,7660,30,8.315398,56.413273
771958,Engvej,7660,35,8.317088,56.417371
771959,Engvej,7660,36,8.328013,56.416068
771960,Fårevej,7660,1,8.2941043,56.4474425
771961,Fårevej,7660,4,8.293493,56.447807
771962,Fårevej,7660,8,8.290918,56.4481219
771963,Fårevej,7660,9,8.287665,56.448035
771964,Fårevej,7660,10,8.2866292,56.4487167
771965,Fårevej,7660,11,8.2882366,56.4458072
771966,Fårevej,7660,14,8.280515,56.4492109
771967,Fårevej,7660,15,8.283931,56.446051
772358,Fjordsidevej,7660,5,8.3158455,56.3964091
772359,Fjordsidevej,7660,6,8.3135256,56.3976594
772360,Fjordsidevej,7660,9,8.3108599,56.3948626
772361,Fjordsidevej,7660,11,8.3087983,56.3920513
772362,Fjordsidevej,7660,13,8.3066617,56.389628
772363,Fjordsidevej,7660,14,8.3037002,56.3894019
772364,Fjordsidevej,7660,17,8.2992971,56.3869302
772365,Fjordsidevej,7660,19,8.3016507,56.383606
772366,Fjordsidevej,7660,20,8.2932464,56.3855889
772367,Fjordsidevej,7660,21,8.294787,56.384995
772377,Flyndermøllevej,7660,2,8.3142648,56.4535083
772378,Flyndermøllevej,7660,3,8.3076197,56.4502536
772379,Flyndermøllevej,7660,5,8.3149709,56.4559333
772380,Flyndermøllevej,7660,7,8.3189151,56.4554711
772381,Flyndermøllevej,7660,8,8.319413,56.455208
772382,Frederiksberg,7660,1,8.3115411,56.4094953
772383,Frederiksberg,7660,2B,8.3109583,56.4094743
772384,Frederiksberg,7660,3,8.3116473,56.4093537
772385,Frederiksberg,7660,4,8.31119,56.4092807
772386,Frederiksberg,7660,7,8.3117817,56.4091843
772387,Frederiksberg,7660,8,8.3115791,56.40879
772388,Frederiksberg,7660,9,8.3119413,56.409022
772389,Frederiksberg,7660,10,8.311829,56.408653
772390,Frederiksberg,7660,11,8.3122971,56.4087387
772391,Frederiksberg,7660,12,8.3119567,56.4084654
772392,Frederiksberg,7660,13,8.312323,56.4085799
772393,Frederiksberg,7660,14,8.3120859,56.4083266
772394,Frederiksberg,7660,15,8.3124872,56.4084503
772395,Frederiksberg,7660,17,8.3126571,56.4081954
772396,Frederiksberg,7660,18,8.3125393,56.407755
772397,Frederiksberg,7660,20,8.3138321,56.4059474
772398,Frederiksberg,7660,21,8.3131871,56.4078584
772399,Frederiksberg,7660,22,8.313971,56.405417
772400,Frederiksberg,7660,24,8.314254,56.4050702
772401,Frederiksberg,7660,26,8.3144879,56.4046408
772402,Frederiksberg,7660,27,8.3148897,56.4056798
772403,Frederiksberg,7660,28,8.3146675,56.4042778
772404,Frederiksberg,7660,40,8.3156648,56.4025989
772405,Frederiksberg,7660,43,8.318392,56.402113
772663,Gåsborgvej,7660,8,8.2877784,56.4264678
772870,Gran Alle,7660,1,8.31357,56.4064995
772871,Gran Alle,7660,5,8.3128168,56.4066163
772872,Gran Alle,7660,17,8.310796,56.407291
772873,Gran Alle,7660,19,8.310467,56.407317
772874,Gran Alle,7660,21,8.309736,56.40755
772884,Grenholmvej,7660,5,8.312713,56.399539
772885,Grenholmvej,7660,7,8.3122538,56.4001607
772886,Grenholmvej,7660,8A,8.3115686,56.4003392
772887,Grenholmvej,7660,8B,8.3116303,56.4003085
772888,Grenholmvej,7660,10,8.3089107,56.3997882
772889,Grenholmvej,7660,14,8.3038755,56.3997173
772890,Grenholmvej,7660,16,8.301639,56.4008206
772891,Grenholmvej,7660,17,8.304047,56.397639
772892,Grenholmvej,7660,19,8.303129,56.396271
772893,Grenholmvej,7660,22,8.291573,56.395585
772894,Grenholmvej,7660,24,8.280754,56.39464
772895,Grenholmvej,7660,25,8.2843,56.390773
772896,Grenholmvej,7660,26,8.2810771,56.3921604
772897,Grenholmvej,7660,29,8.2778147,56.3884712
772943,Grønkærvej,7660,3,8.359696,56.442401
772944,Grønkærvej,7660,5,8.358444,56.440067
772945,Grønkærvej,7660,7,8.3591623,56.4400981
772946,Grønkærvej,7660,11,8.355412,56.4363342
772947,Grønkærvej,7660,13,8.3520093,56.4326109
772948,Grønkærvej,7660,14,8.3551323,56.4404261
772949,Grønkærvej,7660,20,8.3455835,56.4403068
772950,Grønkærvej,7660,24,8.338102,56.438984
772951,Grønkærvej,7660,26,8.327796,56.43689
772952,Grønkærvej,7660,29,8.333922,56.433313
772953,Grønkærvej,7660,30,8.329202,56.43239
772954,Grønkærvej,7660,33,8.3385727,56.4315864
772955,Grønkærvej,7660,35,8.3305153,56.4299844
772956,Grønkærvej,7660,36,8.3254618,56.4291625
772957,Grønkærvej,7660,39,8.3312422,56.4266712
772964,Grønnegade,7660,1,8.3080033,56.4121999
772965,Grønnegade,7660,2,8.307712,56.4127749
772966,Grønnegade,7660,3,8.3063924,56.4134076
772967,Grønnegade,7660,4,8.3070649,56.4130705
772968,Grønnegade,7660,5,8.3061347,56.4137254
772969,Grønnegade,7660,6,8.3072686,56.4132689
772970,Grønnegade,7660,7,8.3063466,56.4139334
772971,Grønnegade,7660,8,8.3069546,56.4133871
772972,Grønnegade,7660,9,8.3062706,56.414167
772973,Grønnegade,7660,10,8.3068809,56.4136088
772974,Grønnegade,7660,11A,8.3061987,56.4143398
772975,Grønnegade,7660,11B,8.3057984,56.4142302
772976,Grønnegade,7660,12,8.3068354,56.4137951
772977,Grønnegade,7660,13,8.3061162,56.4146286
772978,Grønnegade,7660,14,8.3067039,56.4142418
772979,Grønnegade,7660,15,8.3060816,56.4148009
772980,Grønnegade,7660,16,8.3066898,56.4144384
772981,Grønnegade,7660,17,8.3060361,56.4150039
772982,Grønnegade,7660,18,8.3066014,56.4147292
772983,Grønnegade,7660,19,8.3059531,56.4151635
772984,Grønnegade,7660,20,8.3065852,56.4149952
772985,Grønnegade,7660,21,8.3059042,56.4153723
772986,Grønnegade,7660,22,8.3065943,56.4151817
772987,Grønnegade,7660,23,8.3058611,56.4155885
772988,Grønnegade,7660,24,8.3064572,56.4153672
772989,Grønnegade,7660,25,8.3057527,56.4158064
772990,Grønnegade,7660,26,8.3064203,56.4155324
772991,Grønnegade,7660,28,8.3062891,56.415695
773042,Grønsmøllevej,7660,3,8.2702315,56.401615
773043,Grønsmøllevej,7660,4,8.2668356,56.4014947
773044,Grønsmøllevej,7660,7,8.2687279,56.3976925
773045,Grønsmøllevej,7660,8,8.263615,56.396041
773046,Grønsmøllevej,7660,11,8.2659558,56.3955394
773517,Holmgårdvej,7660,1,8.3066367,56.4214911
773518,Holmgårdvej,7660,2,8.3066374,56.4211258
773519,Holmgårdvej,7660,4,8.3071038,56.4212117
773520,Holmgårdvej,7660,13,8.3116602,56.4267108
773521,Holmgårdvej,7660,18,8.3100952,56.4215292
773522,Holmgårdvej,7660,20,8.3111638,56.4213062
773523,Holmgårdvej,7660,30,8.3160152,56.4236705
773524,Holmgårdvej,7660,32,8.3192603,56.4236298
773525,Holmgårdvej,7660,36,8.325193,56.424809
773526,Holmgårdvej,7660,37,8.3250002,56.4252978
773527,Holmgårdvej,7660,39,8.335819,56.4260433
773528,Holmgårdvej,7660,41,8.340252,56.429017
773529,Holmgårdvej,7660,43,8.336038,56.4243
773530,Holmgårdvej,7660,44,8.335889,56.423974
773531,Holmgårdvej,7660,46,8.3338932,56.421117
773532,Holmgårdvej,7660,47,8.3407676,56.422282
773533,Holmgårdvej,7660,49A,8.343145,56.422996
773534,Holmgårdvej,7660,49B,8.343082,56.4229593
773535,Holmgårdvej,7660,55,8.352154,56.416425
773536,Holmgårdvej,7660,57,8.3530042,56.4151209
773537,Holmgårdvej,7660,63,8.3440135,56.4169887
773538,Holmgårdvej,7660,66,8.3425351,56.4158219
773539,Holmgårdvej,7660,73,8.3439452,56.4157201
773540,Holmgårdvej,7660,76,8.337323,56.415915
773541,Holmgårdvej,7660,78,8.3376486,56.4162253
773542,Holmgårdvej,7660,84,8.3462105,56.4111375
773543,Holmgårdvej,7660,88,8.3465737,56.4068836
773544,Holmgårdvej,7660,89,8.360554,56.404087
773545,Holmgårdvej,7660,94,8.3503447,56.4001249
773546,Holmgårdvej,7660,95,8.3606696,56.3993731
773547,Holmgårdvej,7660,99,8.357106,56.398121
773548,Holmgårdvej,7660,101,8.3575559,56.3974012
773549,Holmgårdvej,7660,105,8.3565273,56.3958201
773550,Holmgårdvej,7660,109,8.3558142,56.395557
773551,Holmgårdvej,7660,111,8.355645,56.39539
773552,Holmgårdvej,7660,115,8.3550342,56.3948744
773553,Holmgårdvej,7660,119,8.3545867,56.3945113
773554,Holmgårdvej,7660,123,8.3537919,56.3938082
773555,Holmgårdvej,7660,125,8.353109,56.393605
773556,Holmgårdvej,7660,126,8.352613,56.393577
773557,Holmgårdvej,7660,127,8.3526117,56.3931152
773558,Holmgårdvej,7660,133,8.3519608,56.3927063
773559,Holmgårdvej,7660,135,8.3518152,56.3925452
773560,Holmgårdvej,7660,143,8.3515296,56.3913703
773561,Holmgårdvej,7660,145,8.3510555,56.3911093
773562,Holmgårdvej,7660,146,8.3504232,56.3913234
773563,Holmgårdvej,7660,147,8.3507945,56.3909225
773564,Holmgårdvej,7660,149,8.3516138,56.3907735
773565,Holmgårdvej,7660,153,8.3513053,56.3901768
773566,Holmgårdvej,7660,156,8.349693,56.3894715
773567,Holmgårdvej,7660,162,8.3359777,56.3868101
773568,Holmgårdvej,7660,165,8.3499098,56.387501
773569,Holmgårdvej,7660,166,8.3484644,56.3865432
773570,Holmgårdvej,7660,170,8.347378,56.384691
773571,Holmgårdvej,7660,174,8.3429943,56.3824434
773572,Holmgårdvej,7660,176,8.345794,56.382026
773573,Holmgårdvej,7660,184,8.3363052,56.3816601
773574,Holmgårdvej,7660,186,8.3388103,56.3816008
773575,Holmgårdvej,7660,188,8.3386642,56.3821008
773581,Holmvej,7660,6,8.3747334,56.4218525
773582,Holmvej,7660,10,8.3702677,56.4241462
773583,Holmvej,7660,14,8.3665537,56.4211276
774186,Kattenhøjvej,7660,2,8.3700582,56.4080812
774187,Kattenhøjvej,7660,6,8.3721587,56.4081475
774188,Kattenhøjvej,7660,9,8.3755836,56.409192
774189,Kattenhøjvej,7660,11,8.3856934,56.4089662
774190,Kattenhøjvej,7660,12,8.37894,56.408178
774191,Kattenhøjvej,7660,15,8.3852204,56.4083941
774192,Kattenhøjvej,7660,16,8.3847911,56.4068942
774193,Kattenhøjvej,7660,21,8.390158,56.402528
774194,Kattenhøjvej,7660,23,8.3901924,56.4015719
774195,Kattenhøjvej,7660,24,8.3862236,56.4020514
774588,Korsveje,7660,3,8.3768072,56.4257271
774589,Korsveje,7660,5,8.372918,56.4267024
774590,Krarupvej,7660,13,8.32974,56.392438
774591,Krarupvej,7660,14,8.3293551,56.3907348
774592,Krarupvej,7660,15,8.3310104,56.3920551
774593,Krarupvej,7660,16,8.3323644,56.3919287
774594,Krarupvej,7660,19,8.335288,56.393239
774634,Kræmmergårdvej,7660,2,8.3124,56.4089
774635,Kræmmergårdvej,7660,4,8.3129028,56.4087171
774636,Kræmmergårdvej,7660,5,8.3161659,56.4101768
774637,Kræmmergårdvej,7660,6,8.313489,56.408354
774638,Kræmmergårdvej,7660,7,8.3135903,56.4089833
774639,Kræmmergårdvej,7660,8,8.3133797,56.4081883
774640,Kræmmergårdvej,7660,11,8.31455,56.408519
774641,Kræmmergårdvej,7660,12,8.3142325,56.4079762
774642,Kræmmergårdvej,7660,13,8.314907,56.408844
774643,Kræmmergårdvej,7660,14,8.314763,56.4077469
774644,Kræmmergårdvej,7660,16,8.3151152,56.4075369
774645,Kræmmergårdvej,7660,17,8.3209155,56.4107227
774646,Kræmmergårdvej,7660,18,8.3157807,56.407044
774647,Kræmmergårdvej,7660,30,8.3185796,56.4057117
774648,Kræmmergårdvej,7660,38,8.3195561,56.4031199
774649,Kræmmergårdvej,7660,40,8.3203911,56.4034488
774650,Kræmmergårdvej,7660,42,8.3223457,56.4030726
774651,Kræmmergårdvej,7660,45,8.3276836,56.4064132
774652,Kræmmergårdvej,7660,49,8.3211941,56.4128168
774653,Kræmmergårdvej,7660,50,8.3299342,56.4030201
774654,Kræmmergårdvej,7660,53,8.3371126,56.4043388
774655,Kræmmergårdvej,7660,55,8.3384587,56.4052758
774656,Kræmmergårdvej,7660,57,8.3393033,56.4053159
774657,Kræmmergårdvej,7660,59,8.3409429,56.4047091
774658,Kræmmergårdvej,7660,65,8.3439995,56.4045289
774659,Kræmmergårdvej,7660,67,8.3455537,56.4044423
774660,Kræmmergårdvej,7660,68,8.34668,56.4042602
774661,Kræmmergårdvej,7660,75,8.3492107,56.4051631
774662,Kræmmergårdvej,7660,79,8.352086,56.404158
775266,Meldmosevej,7660,5,8.290398,56.403889
775267,Meldmosevej,7660,9,8.291827,56.400828
775268,Meldmosevej,7660,12,8.2820165,56.3990823
775269,Meldmosevej,7660,13,8.2827445,56.3979057
775451,Møborgåvej,7660,19,8.3661396,56.3801453
775452,Møborgåvej,7660,20,8.3666073,56.3811654
775453,Møborgåvej,7660,25,8.353827,56.385117
775454,Møborgåvej,7660,29,8.3513726,56.386312
775455,Møborgkirkevej,7660,8,8.31894,56.400073
775456,Møborgkirkevej,7660,9,8.3193876,56.4004131
775457,Møborgkirkevej,7660,10,8.3195912,56.3999542
775458,Møborgkirkevej,7660,11,8.3197302,56.4001832
775459,Møborgkirkevej,7660,15,8.322728,56.400821
775460,Møborgkirkevej,7660,19,8.3239423,56.4004859
775461,Møborgkirkevej,7660,20,8.3238026,56.3987836
775462,Møborgkirkevej,7660,21,8.3261448,56.4001985
775463,Møborgkirkevej,7660,22,8.3244898,56.3986807
775464,Møborgkirkevej,7660,27,8.3296516,56.3989592
775465,Møborgkirkevej,7660,28,8.3310008,56.3975381
775466,Møborgkirkevej,7660,29,8.331705,56.3980216
775467,Møborgkirkevej,7660,31,8.3337894,56.3976329
775468,Møborgkirkevej,7660,37,8.335546,56.396394
775469,Møborgkirkevej,7660,38,8.3354051,56.3960461
775470,Møborgkirkevej,7660,39,8.337841,56.399009
775471,Møborgkirkevej,7660,41,8.3358857,56.4000879
775472,Møborgkirkevej,7660,45,8.3380476,56.3959953
775473,Møborgkirkevej,7660,49,8.3396725,56.3947077
775474,Møborgkirkevej,7660,53,8.3411613,56.3954641
775475,Møborgkirkevej,7660,60,8.3462174,56.3912998
775476,Møborgkirkevej,7660,62A,8.3464511,56.3912566
775477,Møborgkirkevej,7660,62B,8.3465929,56.3912324
775478,Møborgkirkevej,7660,62C,8.3467491,56.3912046
775479,Møborgkirkevej,7660,64,8.3471772,56.3911076
775480,Møborgkirkevej,7660,66,8.3475265,56.390946
775481,Møborgkirkevej,7660,70,8.3478769,56.390319
775482,Møborgkirkevej,7660,71,8.3483635,56.3910656
775483,Møborgkirkevej,7660,82,8.3485385,56.3904634
775484,Møborgkirkevej,7660,84A,8.3485946,56.390758
775485,Møborgkirkevej,7660,84B,8.3487926,56.3907061
775486,Møborgkirkevej,7660,86,8.3491427,56.3906439
775487,Møborgkirkevej,7660,87,8.349899,56.390886
775488,Møborgkirkevej,7660,88,8.3495548,56.3905781
775489,Møborgkirkevej,7660,90,8.3498046,56.3904691
775518,Møllevej,7660,1,8.3088008,56.4149373
775519,Møllevej,7660,2,8.3088092,56.4146638
775520,Møllevej,7660,4,8.3091846,56.4146679
775741,Nordenbjergvej,7660,6,8.3550498,56.4080293
775742,Nordenbjergvej,7660,10,8.358567,56.408221
775743,Nordenbjergvej,7660,11,8.3605844,56.4083756
775851,Nødskovvej,7660,5,8.2381684,56.3966348
775852,Nødskovvej,7660,7,8.2421512,56.3963088
775853,Nødskovvej,7660,11,8.2467044,56.3935374
775854,Nødskovvej,7660,13,8.252102,56.393094
775855,Nødskovvej,7660,17,8.2624789,56.3938656
775856,Nødskovvej,7660,19,8.2708648,56.3942205
776060,Ovenmøllevej,7660,3,8.3173072,56.4575027
776061,Ovenmøllevej,7660,5,8.3167979,56.4586933
776062,Ovenmøllevej,7660,6,8.316066,56.461198
776079,Paradisbakken,7660,1,8.305053,56.4160452
776080,Paradisbakken,7660,2,8.3053959,56.416459
776081,Paradisbakken,7660,3,8.304989,56.416321
776082,Paradisbakken,7660,4,8.3052998,56.4168132
776083,Paradisbakken,7660,6,8.3052518,56.4169826
776084,Paradisbakken,7660,7,8.3043888,56.416853
776085,Paradisbakken,7660,8,8.305111,56.417396
776086,Paradisbakken,7660,9,8.3043958,56.4172512
776087,Paradisbakken,7660,11,8.3045593,56.4175813
776088,Paradisbakken,7660,14,8.305124,56.417731
776089,Paradisbakken,7660,16,8.304889,56.417979
776090,Paradisvej,7660,3,8.3051102,56.4157596
776091,Paradisvej,7660,4,8.3062878,56.4164289
776092,Paradisvej,7660,5,8.304811,56.415668
776093,Paradisvej,7660,6,8.3065562,56.4161602
776094,Paradisvej,7660,7,8.3046885,56.4158292
776095,Paradisvej,7660,8,8.3062402,56.4161104
776096,Paradisvej,7660,9,8.3046308,56.4160428
776097,Paradisvej,7660,10,8.30589,56.416118
776098,Paradisvej,7660,12,8.305513,56.4160534
776124,Pindstrupvej,7660,3,8.3143443,56.449203
776125,Pindstrupvej,7660,9,8.315186,56.450828
776239,Præstegårdsvænget,7660,5,8.345065,56.394276
776240,Præstegårdsvænget,7660,6,8.344748,56.393426
776241,Præstegårdsvænget,7660,7,8.34703,56.394962
776242,Præstegårdsvænget,7660,9,8.3502404,56.3955377
776321,Råkærvej,7660,6,8.2990059,56.4302554
776322,Råkærvej,7660,9,8.2915297,56.4306636
776323,Råkærvej,7660,13,8.289487,56.4329851
776324,Råkærvej,7660,17,8.285064,56.432713
776601,Ringkøbingvej,7660,143,8.2961966,56.4612641
776602,Ringkøbingvej,7660,147,8.301217,56.458976
776603,Ringkøbingvej,7660,149,8.295904,56.4591745
776604,Ringkøbingvej,7660,150,8.2949271,56.4567345
776605,Ringkøbingvej,7660,154,8.292166,56.45152
776606,Ringkøbingvej,7660,155,8.3002691,56.453282
776607,Ringkøbingvej,7660,156,8.2838606,56.4538023
776608,Ringkøbingvej,7660,160,8.2944809,56.4483562
776609,Ringkøbingvej,7660,162,8.2950608,56.4443361
776610,Ringkøbingvej,7660,163,8.2976837,56.4400198
776611,Ringkøbingvej,7660,165,8.302139,56.440704
776612,Ringkøbingvej,7660,167,8.296887,56.439144
776613,Ringkøbingvej,7660,168,8.2939757,56.4392136
776614,Ringkøbingvej,7660,170,8.291722,56.435227
776615,Ringkøbingvej,7660,171,8.298684,56.434127
776616,Ringkøbingvej,7660,175,8.3052032,56.430338
776617,Ringkøbingvej,7660,177,8.3113337,56.4317573
776618,Ringkøbingvej,7660,179,8.3083332,56.4228955
776619,Ringkøbingvej,7660,180,8.3042472,56.4238613
776620,Ringkøbingvej,7660,181,8.3058925,56.4231447
776621,Ringkøbingvej,7660,182,8.305358,56.42343
776622,Ringkøbingvej,7660,185,8.3062597,56.4216527
776735,Rødemøllevej,7660,6,8.363068,56.436359
776736,Rødemøllevej,7660,7,8.3633697,56.4355231
776737,Rødemøllevej,7660,9,8.3620535,56.4328388
776738,Rødemøllevej,7660,10,8.3603878,56.4323536
776739,Rødemøllevej,7660,14,8.3571093,56.4312682
776740,Rødemøllevej,7660,15,8.362493,56.4312284
776741,Rødemøllevej,7660,16,8.3615931,56.4317558
776742,Rødemøllevej,7660,17,8.3632281,56.4293826
776743,Rødemøllevej,7660,18,8.3625395,56.429677
776744,Rødemøllevej,7660,20,8.362131,56.4287308
776745,Rødemøllevej,7660,21,8.3666838,56.4285783
776746,Rødemøllevej,7660,26,8.3553273,56.4293781
776747,Rødemøllevej,7660,28,8.353222,56.4286967
776748,Røjgårdvej,7660,3,8.3084404,56.446871
776749,Røjgårdvej,7660,8,8.3048788,56.4428049
776750,Røjgårdvej,7660,12,8.308715,56.442064
776751,Røjgårdvej,7660,15,8.3163485,56.4391963
776752,Røjgårdvej,7660,19,8.3211782,56.4368272
776753,Røjgårdvej,7660,21,8.318434,56.436184
776754,Røjgårdvej,7660,23,8.3196862,56.431776
776755,Røjgårdvej,7660,28,8.316202,56.426678
776851,Saugmandsvej,7660,7,8.3751202,56.4422895
776852,Saugmandsvej,7660,11,8.3801172,56.444087
776853,Saugmandsvej,7660,15,8.3810971,56.4461523
776854,Saugmandsvej,7660,17,8.3825135,56.4509794
776956,Sinkbækvej,7660,12,8.2842833,56.4389843
776957,Sinkbækvej,7660,14,8.281653,56.440374
776958,Sinkbækvej,7660,15,8.286406,56.437964
776959,Sinkbækvej,7660,19,8.2841892,56.4369287
776960,Sinkbækvej,7660,23,8.2809596,56.4365186
776961,Sinkbækvej,7660,24,8.2790808,56.4367668
776962,Sinkbækvej,7660,26,8.271813,56.438374
776963,Sinkbækvej,7660,29,8.278917,56.4332858
776964,Sinkbækvej,7660,32,8.267757,56.43403
776965,Sinkbækvej,7660,37,8.2751815,56.4278782
776966,Sinkbækvej,7660,38,8.2692592,56.4277393
776967,Sinkbækvej,7660,39,8.275578,56.4281709
776968,Sinkbækvej,7660,41,8.2791705,56.430361
776969,Sinkbækvej,7660,42,8.264129,56.427876
776970,Sinkbækvej,7660,43,8.2806615,56.427778
776971,Sinkbækvej,7660,44,8.2568247,56.4333709
776972,Sinkbækvej,7660,48,8.2595409,56.4240954
776973,Sinkbækvej,7660,49,8.2613741,56.424277
777262,Smedegårdvej,7660,1,8.3503001,56.3907743
777263,Smedegårdvej,7660,4,8.3498565,56.3913214
777264,Smedegårdvej,7660,5,8.349486,56.391006
777265,Smedegårdvej,7660,6,8.3501338,56.3916861
777266,Smedegårdvej,7660,7,8.3490426,56.3909966
777267,Smedegårdvej,7660,8,8.3504459,56.3916654
777268,Smedegårdvej,7660,9,8.3491831,56.3911812
777269,Smedegårdvej,7660,10,8.3507364,56.3918559
777270,Smedegårdvej,7660,11,8.3492637,56.3913862
777271,Smedegårdvej,7660,12,8.350213,56.391963
777272,Smedegårdvej,7660,13,8.3493812,56.3915921
777273,Smedegårdvej,7660,14,8.3496563,56.3920226
777274,Smedegårdvej,7660,15,8.349423,56.3917869
777275,Smedegårdvej,7660,16,8.3493069,56.3920739
777293,Smøgen,7660,1,8.3070981,56.4210449
777294,Smøgen,7660,3,8.3071821,56.4208657
777375,Solvangen,7660,1,8.3073967,56.4184347
777376,Solvangen,7660,2,8.3082883,56.4193296
777377,Solvangen,7660,3,8.3072527,56.4187952
777378,Solvangen,7660,5,8.3071822,56.4191145
777379,Solvangen,7660,7,8.307137,56.4193896
777380,Solvangen,7660,15,8.3086573,56.4203946
777381,Sporvej,7660,1,8.3114305,56.4100116
777382,Sporvej,7660,2,8.3114923,56.4097611
777383,Sporvej,7660,3,8.3120431,56.4098842
777706,Sydvangen,7660,2,8.3076438,56.4180092
777707,Sydvangen,7660,3,8.3082617,56.41769
777708,Sydvangen,7660,4,8.3076985,56.4178034
777709,Sydvangen,7660,5,8.3085194,56.4174408
777710,Sydvangen,7660,6,8.3077441,56.4175938
777711,Sydvangen,7660,7,8.308782,56.4172826
777712,Sydvangen,7660,8,8.30778,56.417401
777713,Sydvangen,7660,10,8.3083098,56.417121
777714,Sydvangen,7660,12,8.3085708,56.4169411
777715,Sydvangen,7660,14,8.3086154,56.416734
777816,Søhusvej,7660,1,8.3155391,56.4002301
777817,Søhusvej,7660,2,8.3147434,56.4017557
777818,Søhusvej,7660,4,8.313956,56.402002
777819,Søhusvej,7660,10,8.310224,56.404264
777820,Søhusvej,7660,11,8.308614,56.403491
777821,Søhusvej,7660,14,8.3050303,56.4045842
777822,Søhusvej,7660,15,8.300891,56.402556
777823,Søhusvej,7660,23,8.2874505,56.4076572
777824,Søhusvej,7660,27,8.2820813,56.4083122
777825,Søhusvej,7660,28,8.28078,56.41014
777826,Søhusvej,7660,29,8.2804658,56.4083582
777827,Søhusvej,7660,30,8.2769165,56.4092271
777828,Søhusvej,7660,32,8.2720781,56.4112007
777829,Søhusvej,7660,33,8.2796935,56.4084086
777830,Søhusvej,7660,34,8.2728309,56.4088576
777831,Søhusvej,7660,38,8.26974,56.408705
777832,Søhusvej,7660,41,8.270958,56.4065165
777833,Søhusvej,7660,42,8.259424,56.405506
777834,Søhusvej,7660,46,8.2598795,56.4039798
777835,Søhusvej,7660,47,8.2579222,56.3975644
777836,Søhusvej,7660,50,8.25475,56.4020291
777837,Søhusvej,7660,56,8.237563,56.4042977
777838,Søhusvænget,7660,3,8.3126039,56.4029153
777839,Søhusvænget,7660,4,8.3138365,56.4026148
777840,Søhusvænget,7660,5,8.3119124,56.4031703
777841,Søhusvænget,7660,6,8.3150801,56.4032279
777842,Søhusvænget,7660,7,8.3112991,56.4034374
777843,Søhusvænget,7660,8,8.3139528,56.4033642
777844,Søhusvænget,7660,10,8.31303,56.403307
777977,Søndergårdvej,7660,2,8.3084808,56.4155224
777978,Søndergårdvej,7660,3,8.308578,56.416019
777979,Søndergårdvej,7660,4,8.3086159,56.415649
777980,Søndergårdvej,7660,5,8.3087003,56.416127
777981,Søndergårdvej,7660,6,8.3088512,56.4158068
777982,Søndergårdvej,7660,7,8.3087952,56.4162819
777983,Søndergårdvej,7660,8,8.3088555,56.415916
777984,Søndergårdvej,7660,9,8.3089098,56.4164278
777985,Søndergårdvej,7660,10,8.3090119,56.4160529
777986,Søndergårdvej,7660,11,8.3090999,56.4166593
777987,Søndergårdvej,7660,12A,8.3090993,56.4161563
777988,Søndergårdvej,7660,12B,8.310088,56.4162851
777989,Søndergårdvej,7660,13,8.3092452,56.4168379
777990,Søndergårdvej,7660,14,8.3093487,56.4163557
777991,Søndergårdvej,7660,15,8.3094616,56.417044
777992,Søndergårdvej,7660,16,8.3095681,56.4165197
777993,Søndergårdvej,7660,17,8.3096208,56.4172821
777994,Søndergårdvej,7660,18,8.309709,56.4166723
777995,Søndergårdvej,7660,19,8.309746,56.4174772
777996,Søndergårdvej,7660,20,8.3098602,56.4168249
777997,Søndergårdvej,7660,22,8.310088,56.4169381
777998,Søndergårdvej,7660,24,8.3100996,56.4171653
778716,Tværgade,7660,1,8.307383,56.4138333
778717,Tværgade,7660,2,8.3076697,56.4140652
778718,Tværgade,7660,3,8.307466,56.4136807
778719,Tværgade,7660,4,8.3072822,56.414697
778720,Tværgade,7660,5,8.3075508,56.4133948
778721,Tværgade,7660,6,8.3071064,56.4149182
778722,Tværgade,7660,7,8.3075816,56.4132701
778723,Tværgade,7660,9,8.3076138,56.4130951
778724,Tværgade,7660,10A,8.3069919,56.4142434
778725,Tværgade,7660,10B,8.3070335,56.414086
778726,Tværgade,7660,11,8.3076488,56.4129613
778727,Tværgade,7660,12,8.3067701,56.413953
778783,Ulfsundvej,7660,25,8.2350831,56.4048963
778784,Ulfsundvej,7660,31,8.233453,56.397851
779056,Vilhelmsborgvej,7660,104,8.3916198,56.437661
779057,Vilhelmsborgvej,7660,105,8.3911111,56.4331107
779058,Vilhelmsborgvej,7660,106,8.3849174,56.4352759
779059,Vilhelmsborgvej,7660,107,8.3798756,56.4347548
779060,Vilhelmsborgvej,7660,110,8.3770892,56.4378122
779061,Vilhelmsborgvej,7660,112,8.381997,56.438362
779062,Vilhelmsborgvej,7660,113,8.373599,56.435335
779063,Vilhelmsborgvej,7660,118,8.3694356,56.4391451
779064,Vilhelmsborgvej,7660,120,8.36871,56.439541
779065,Vilhelmsborgvej,7660,122,8.368513,56.439727
779066,Vilhelmsborgvej,7660,126,8.3669634,56.4412895
779067,Vilhelmsborgvej,7660,128,8.3708926,56.4436838
779068,Vilhelmsborgvej,7660,132,8.3732203,56.4461722
779069,Vilhelmsborgvej,7660,138,8.3613634,56.4444166
779070,Vilhelmsborgvej,7660,140,8.361141,56.448105
779071,Vilhelmsborgvej,7660,142,8.3672155,56.4489414
779072,Vilhelmsborgvej,7660,144,8.3709275,56.4503796
779073,Vilhelmsborgvej,7660,146,8.374753,56.450169
779074,Vilhelmsborgvej,7660,149,8.3471359,56.4483729
779075,Vilhelmsborgvej,7660,153,8.3352589,56.4476744
779661,Østkærvej,7660,18,8.3721371,56.4149292
779662,Østkærvej,7660,19,8.367313,56.414248
779663,Østkærvej,7660,20,8.3660638,56.4163236
779664,Østkærvej,7660,24,8.3642687,56.4139667
779665,Østkærvej,7660,27,8.3601259,56.4131016
779666,Østkærvej,7660,30,8.3605765,56.4178834
779667,Østvangen,7660,2,8.3082578,56.4180588
779668,Østvangen,7660,3,8.3098467,56.4185912
779669,Østvangen,7660,4,8.3090842,56.4181417
779670,Østvangen,7660,5,8.310024,56.418853
779671,Østvangen,7660,6,8.309515,56.418217
779672,Østvangen,7660,7,8.309977,56.418887
779673,Østvangen,7660,8,8.3101156,56.4182005
779674,Østvangen,7660,9,8.3100865,56.419039
779675,Østvangen,7660,10,8.3106501,56.4181232
779676,Østvangen,7660,11,8.3100191,56.4191046
779677,Østvangen,7660,13,8.3102153,56.4193011
779678,Østvangen,7660,14A,8.3098733,56.41782
779679,Østvangen,7660,14B,8.3104366,56.4178319
779680,Østvangen,7660,15,8.3102264,56.4193789
779681,Østvangen,7660,16,8.3102225,56.4176126
779682,Østvangen,7660,17,8.3102456,56.4194531
779683,Østvangen,7660,18,8.3105123,56.4174109
779684,Østvangen,7660,19,8.3102634,56.4195211
779685,Østvangen,7660,20,8.3109333,56.4172881
779686,Østvangen,7660,22,8.311246,56.417111
779687,Østvangen,7660,24,8.3116351,56.4174126
779688,Østvangen,7660,26,8.3112808,56.4175169
779689,Østvangen,7660,28,8.3109299,56.4176679
779690,Østvangen,7660,32,8.3116321,56.4180986
779691,Østvangen,7660,34,8.3119683,56.41796
779692,Østvangen,7660,36,8.3122404,56.417815
779693,Østvangen,7660,39A,8.3107095,56.4191772
779694,Østvangen,7660,39B,8.3109067,56.4191836
779695,Østvangen,7660,40,8.3130223,56.41768
779696,Østvangen,7660,41,8.3106575,56.418964
779697,Østvangen,7660,42,8.3127096,56.4180949
779698,Østvangen,7660,43A,8.310431,56.4186031
779699,Østvangen,7660,43B,8.3105451,56.4185627
779700,Østvangen,7660,43C,8.310664,56.418522
779701,Østvangen,7660,44,8.3124052,56.4181935
779702,Østvangen,7660,45,8.31117,56.4183004
779703,Østvangen,7660,46,8.311999,56.41833
779704,Østvangen,7660,47,8.311176,56.4187294
779705,Østvangen,7660,48,8.3122523,56.4186559
779706,Østvangen,7660,49,8.31147,56.418656
779707,Østvangen,7660,51,8.3117086,56.4188327
779708,Østvangen,7660,52,8.3129142,56.4184506
779709,Østvangen,7660,53,8.3115637,56.4188866
779710,Østvangen,7660,54,8.3132708,56.4183394
779711,Østvangen,7660,55,8.3112048,56.4189394
779712,Østvangen,7660,56,8.313934,56.418443
779713,Østvangen,7660,57,8.311297,56.4190241
779714,Østvangen,7660,58,8.313481,56.418652
779715,Østvangen,7660,59,8.3113012,56.4193033
779716,Østvangen,7660,60,8.313128,56.418675
779717,Østvangen,7660,61,8.311462,56.41925
779718,Østvangen,7660,62,8.312601,56.418859
779719,Østvangen,7660,63,8.311946,56.4190557
779720,Østvangen,7660,65,8.3120261,56.4191495
782663,Kattenhøjvej,7660,17,8.396984,56.406871
788516,Brogade,7660,68,8.30768,56.41673
913174,Ringkøbingvej,7660,145A,8.301373,56.461326
913175,Ringkøbingvej,7660,145B,8.304223,56.461512
916083,Brogade,7660,17B,8.3083275,56.4132388
916085,Brogade,7660,28A,8.3086648,56.413258
916087,Brogade,7660,28B,8.3086343,56.4133305
916089,Brogade,7660,56A,8.3080998,56.4152166
916090,Brogade,7660,56B,8.3081105,56.4151603
916091,Brogade,7660,56C,8.3081332,56.4150978
916092,Brogade,7660,56D,8.30831,56.4152084
916127,Kræmmergårdvej,7660,47A,8.3248851,56.4095936
916128,Kræmmergårdvej,7660,47B,8.3234486,56.4087893
916129,Kræmmergårdvej,7660,58,8.3369291,56.4037269
916264,Søhusvej,7660,9,8.310993,56.402119
916265,Søhusvej,7660,13,8.3081344,56.403521
916266,Søhusvej,7660,49,8.2533062,56.3978639
916291,Engvej,7660,28,8.3138739,56.4142724
916292,Engvej,7660,37,8.321819,56.416496
916293,Solvangen,7660,4,8.3081973,56.4188446
916360,Bækmarksbrovej,7660,34,8.2813533,56.422558
916362,Bækmarksbrovej,7660,61B,8.257653,56.415606
916364,Bækmarksbrovej,7660,61C,8.2603662,56.4144334
1875876,Fjordsidevej,7660,10,8.3060082,56.3925718
1875882,Fjordsidevej,7660,18,8.2949899,56.3865901
1881595,Kattenhøjvej,7660,19,8.391006,56.403754
1884090,Bavnehøjvej,7660,1,8.3526166,56.3898877
1884091,Bavnehøjvej,7660,16B,8.3724036,56.3923669
1884092,Bavnehøjvej,7660,18,8.36881,56.392635
1888336,Bossenhøjvej,7660,31,8.3889117,56.420919
1890674,Grønkærvej,7660,27A,8.334547,56.4368071
1890675,Grønkærvej,7660,27B,8.3368955,56.4359238
1893851,Saugmandsvej,7660,18,8.387831,56.447836
2165788,Sækkehusvej,7660,2,8.398909,56.433166
2224187,Ringkøbingvej,7660,151A,8.294937,56.453918
2224248,Østvangen,7660,24B,8.3118836,56.4172829
2224250,Åbergvej,7660,3,8.311111,56.408311
2224251,Åbergvej,7660,12,8.30471,56.407702
2224256,Grenholmvej,7660,23B,8.292861,56.394536
2224266,Fårevej,7660,19A,8.2729309,56.4465475
2224267,Fårevej,7660,19B,8.274509,56.445524
2224273,Vilhelmsborgvej,7660,102A,8.395039,56.435556
2224274,Vilhelmsborgvej,7660,102B,8.395524,56.435448
2224275,Vilhelmsborgvej,7660,102C,8.3958438,56.4353154
2224276,Vilhelmsborgvej,7660,102D,8.396438,56.435144
2224277,Vilhelmsborgvej,7660,102E,8.396832,56.435009
2242282,Damhusvej,7660,60,8.327923,56.392797
2242283,Damhusvej,7660,64,8.323204,56.394676
2252428,Fjordsidevej,7660,12A,8.298489,56.391834
2252433,Grenholmvej,7660,23A,8.294729,56.394112
