idx,street,postcode,housenumber,lon,lat
631797,Arkensvej,7752,1,8.356775,56.915133
631798,Arkensvej,7752,1A,8.357473,56.915781
631799,Arkensvej,7752,2,8.357972,56.916346
631800,Arkensvej,7752,3,8.355976,56.915226
631801,Arkensvej,7752,3A,8.357082,56.914167
631802,Arkensvej,7752,4,8.357495,56.915951
631803,Arkensvej,7752,5,8.355493,56.914823
631804,Arkensvej,7752,6,8.357273,56.916351
631805,Arkensvej,7752,8,8.355857,56.916542
631806,Arkensvej,7752,20,8.354862,56.915513
631807,Arkensvej,7752,22,8.350989,56.915061
632170,Banegårdsvej,7752,1,8.527309,56.892572
632171,Banegårdsvej,7752,6,8.5262433,56.8919957
632172,Banegårdsvej,7752,8,8.5262048,56.891862
632173,Banegårdsvej,7752,10,8.5261169,56.8917109
632174,Banegårdsvej,7752,14,8.526002,56.8913098
632234,Beerstedvej,7752,1,8.5553409,56.9005509
632235,Beerstedvej,7752,1A,8.5573445,56.9049909
632236,Beerstedvej,7752,2,8.5514439,56.8993468
632237,Beerstedvej,7752,3,8.5594268,56.9002261
632238,Beerstedvej,7752,4,8.554542,56.899232
632239,Beerstedvej,7752,5,8.56932,56.902276
632240,Beerstedvej,7752,6,8.563695,56.899774
632241,Beerstedvej,7752,7,8.5762459,56.9033546
632242,Beerstedvej,7752,8,8.56688,56.900761
632243,Beerstedvej,7752,9,8.578425,56.903522
632244,Beerstedvej,7752,9A,8.577859,56.903608
632245,Beerstedvej,7752,10,8.57343,56.899075
632246,Beerstedvej,7752,11,8.579805,56.903564
632248,Beerstedvej,7752,14,8.568994,56.900508
632249,Beerstedvej,7752,16,8.574816,56.902787
632250,Beerstedvej,7752,18,8.5816246,56.903022
632485,Brandbakken,7752,1A,8.5359651,56.8922858
632486,Brandbakken,7752,10,8.5333995,56.8893124
632487,Brandbakken,7752,12,8.532276,56.8886489
632488,Brandbakken,7752,16,8.5323052,56.8879935
632489,Brandbakken,7752,18,8.5334012,56.8884959
632490,Brandbakken,7752,47,8.536755,56.888105
632737,Buen,7752,1,8.5878732,56.8737583
632738,Buen,7752,2,8.5876918,56.8730136
632739,Buen,7752,3,8.5885508,56.8738977
632740,Buen,7752,4,8.587575,56.8727298
632741,Buen,7752,5,8.5891764,56.8733056
632742,Buen,7752,6,8.5875009,56.8724876
632743,Buen,7752,7,8.5894779,56.8734145
632744,Buen,7752,8,8.587315,56.8722641
632745,Buen,7752,9,8.5892929,56.8737677
632746,Buen,7752,10,8.5871385,56.8721098
632747,Buen,7752,11,8.5895875,56.8740401
632748,Buen,7752,13,8.5912823,56.8744463
632749,Buen,7752,14,8.58718,56.872704
632750,Buen,7752,15,8.5903877,56.8725956
632751,Buen,7752,16,8.5868293,56.8725247
632752,Buen,7752,17,8.5893988,56.8725658
632753,Buen,7752,18,8.586537,56.8721766
632754,Buen,7752,19,8.5890555,56.8731287
632755,Buen,7752,20,8.5863718,56.8717877
632756,Buen,7752,21,8.5884949,56.8730119
632757,Buen,7752,22,8.5868674,56.8715559
632758,Buen,7752,23,8.5882804,56.8728782
632759,Buen,7752,31,8.5877168,56.8720332
632760,Buen,7752,41,8.587129,56.8709954
632761,Buen,7752,47,8.588082,56.8692942
632762,Buen,7752,49,8.5860456,56.8702242
632763,Buen,7752,50,8.5812761,56.8705674
632764,Buen,7752,69,8.5800078,56.869717
632773,Bydamsvej,7752,1,8.442645,56.873862
632774,Bydamsvej,7752,2,8.4430846,56.8733316
632775,Bydamsvej,7752,3,8.4416102,56.874688
632776,Bydamsvej,7752,4,8.4430784,56.873485
632777,Bydamsvej,7752,5,8.4413288,56.8748849
632778,Bydamsvej,7752,6,8.4430726,56.8736851
632779,Bydamsvej,7752,7,8.4410354,56.8750543
632780,Bydamsvej,7752,8,8.4425611,56.8744362
632781,Bydamsvej,7752,9,8.4408328,56.875153
632782,Bydamsvej,7752,10,8.4419226,56.8748049
632783,Bydamsvej,7752,11,8.4404398,56.8752236
632784,Bydamsvej,7752,12,8.4413144,56.8752019
632785,Bydamsvej,7752,13,8.4396583,56.8750927
632786,Bydamsvej,7752,14,8.4398179,56.8753469
632787,Bydamsvej,7752,16,8.438625,56.8750898
632788,Bydamsvej,7752,17,8.4391621,56.8748026
632789,Bydamsvej,7752,19,8.4388675,56.8749046
632790,Bydamsvej,7752,23,8.438408,56.8747621
632811,Bygmarksvej,7752,1A,8.45318,56.8669919
632812,Bygmarksvej,7752,1B,8.4535574,56.8670577
632813,Bygmarksvej,7752,2,8.4536912,56.866657
632814,Bygmarksvej,7752,2A,8.453611,56.866479
632815,Bygmarksvej,7752,2B,8.454052,56.866221
632816,Bygmarksvej,7752,2D,8.454535,56.866319
632817,Bygmarksvej,7752,2E,8.4542385,56.866654
632818,Bygmarksvej,7752,3,8.4531885,56.8672719
632819,Bygmarksvej,7752,4,8.454667,56.8668169
632820,Bygmarksvej,7752,5,8.4529637,56.8674219
632821,Bygmarksvej,7752,8,8.4539022,56.8672984
632822,Bygmarksvej,7752,9,8.4525383,56.8678057
632823,Bygmarksvej,7752,10,8.4541782,56.8674778
632824,Bygmarksvej,7752,11,8.4527326,56.8680028
632825,Bygmarksvej,7752,13,8.452813,56.8683493
632826,Bygmarksvej,7752,16,8.453466,56.8676113
632843,Bækkelundsvej,7752,1,8.5908088,56.8884461
632844,Bækkelundsvej,7752,2,8.5913092,56.8885673
632879,Carl Drechslers Vej,7752,4,8.5193492,56.8946292
632880,Carl Drechslers Vej,7752,6,8.5195879,56.8946162
632881,Carl Drechslers Vej,7752,8,8.5197108,56.8945924
632882,Carl Drechslers Vej,7752,10,8.5198858,56.8945813
632883,Carl Drechslers Vej,7752,12,8.5200176,56.8945636
632884,Carl Drechslers Vej,7752,14,8.5202469,56.8945546
632885,Carl Drechslers Vej,7752,16,8.5206323,56.8945477
632886,Carl Drechslers Vej,7752,18,8.5207962,56.894531
632887,Carl Drechslers Vej,7752,20,8.5209719,56.8945206
632888,Carl Drechslers Vej,7752,22,8.5210928,56.8945018
632889,Carl Drechslers Vej,7752,24,8.5212593,56.8944893
632927,Damsgårdvej,7752,1,8.467968,56.85097
632928,Damsgårdvej,7752,3,8.469028,56.851282
633229,Ebenezervej,7752,2,8.3675048,56.9202382
633230,Ebenezervej,7752,4,8.3672035,56.920255
633231,Ebenezervej,7752,6,8.366639,56.920317
633232,Ebenezervej,7752,10,8.3660412,56.9204836
633233,Ebenezervej,7752,11,8.3654904,56.9202711
633234,Ebenezervej,7752,14,8.3657497,56.9208186
633235,Ebenezervej,7752,15,8.3649349,56.9202521
633236,Ebenezervej,7752,16,8.3653423,56.9207541
633237,Ebenezervej,7752,18,8.3654898,56.9209005
633238,Ebenezervej,7752,20,8.3652394,56.9210599
633239,Ebenezervej,7752,22,8.365119,56.92088
633240,Ebenezervej,7752,24,8.3649677,56.9207115
633303,Elstedvej,7752,2,8.587392,56.884713
633304,Elstedvej,7752,4,8.5871345,56.8847521
633305,Elstedvej,7752,6,8.5867919,56.8848261
633306,Elstedvej,7752,8,8.5866028,56.8849287
633307,Elstedvej,7752,10,8.5862538,56.8849574
633308,Elstedvej,7752,11,8.5860939,56.8846769
633309,Elstedvej,7752,12,8.5858627,56.885076
633310,Elstedvej,7752,13,8.5856633,56.8848149
633311,Elstedvej,7752,14,8.58543,56.885173
633312,Elstedvej,7752,18,8.584985,56.885316
633313,Elstedvej,7752,20,8.5844972,56.8854087
633314,Elstedvej,7752,22,8.5841856,56.8855596
633315,Elstedvej,7752,23,8.5844414,56.8850749
633316,Elstedvej,7752,24,8.5840644,56.8866729
633317,Elstedvej,7752,25,8.583949,56.885245
633327,Enehøjvej,7752,1,8.525782,56.888918
633328,Enehøjvej,7752,3,8.5262169,56.888896
633329,Enehøjvej,7752,5,8.5267658,56.8888281
633330,Enehøjvej,7752,9,8.5257158,56.8885448
633331,Enehøjvej,7752,11,8.5261747,56.8885044
633332,Enehøjvej,7752,13,8.5265159,56.8884536
633333,Enehøjvej,7752,15,8.5267725,56.8881687
633334,Enehøjvej,7752,25,8.5248465,56.8882818
633388,Engkærbro,7752,1,8.5613301,56.8720289
633389,Engkærbro,7752,3,8.5671071,56.8721705
633390,Engkærbro,7752,4,8.5700107,56.8733276
633391,Engkærbro,7752,5,8.5668905,56.8738331
633392,Engkærbro,7752,6,8.567059,56.875226
633393,Engkærbro,7752,7,8.557624,56.88013
633394,Engkærbro,7752,8,8.562166,56.875563
633395,Engkærbro,7752,12,8.562062,56.879366
633396,Engkærbro,7752,14,8.563274,56.881573
633397,Engkærbro,7752,18,8.551749,56.884236
633398,Engkærbro,7752,24,8.5547973,56.8860326
633399,Engkærbro,7752,28,8.5516527,56.8851479
633427,Eronsvej,7752,1,8.35041,56.9214652
633428,Eronsvej,7752,5,8.350936,56.922192
633429,Eronsvej,7752,12,8.352342,56.922264
633430,Eronsvej,7752,14,8.352383,56.922989
634061,Gadegårdsvej,7752,1,8.451622,56.859905
634062,Gadegårdsvej,7752,2,8.455348,56.862924
634063,Gadegårdsvej,7752,3,8.4506249,56.8555057
634064,Gadegårdsvej,7752,4,8.4493382,56.8591051
634065,Gadegårdsvej,7752,6,8.448889,56.858079
634066,Gadegårdsvej,7752,8,8.439755,56.853705
634067,Gadegårdsvej,7752,10,8.4389679,56.8553159
634139,Gartnervænget,7752,3,8.521544,56.8915644
634140,Gartnervænget,7752,4,8.520877,56.8915469
634141,Gartnervænget,7752,5,8.5220013,56.891478
634142,Gartnervænget,7752,6,8.5209797,56.8913227
634143,Gartnervænget,7752,7,8.5215519,56.8913493
634144,Gartnervænget,7752,8,8.5208771,56.8911214
634145,Gartnervænget,7752,9,8.5214315,56.8911099
634146,Gartnervænget,7752,10,8.5206819,56.8908994
634147,Gartnervænget,7752,11,8.5220701,56.8909087
634148,Gartnervænget,7752,12,8.5202138,56.8911059
634149,Gartnervænget,7752,13,8.5219572,56.8907544
634150,Gartnervænget,7752,14,8.5201416,56.8909277
634151,Gartnervænget,7752,15,8.5215307,56.8907159
634152,Gartnervænget,7752,16,8.5201548,56.890679
634153,Gartnervænget,7752,17,8.521496,56.890469
634154,Gartnervænget,7752,18,8.5202871,56.8904423
634155,Gartnervænget,7752,19,8.521556,56.8902457
634156,Gartnervænget,7752,19A,8.5219384,56.8904916
634157,Gartnervænget,7752,20,8.5208232,56.8904551
634158,Gisselbækvej,7752,28,8.4910183,56.864116
634159,Gisselbækvej,7752,30,8.491422,56.866753
634160,Gisselbækvej,7752,39,8.483567,56.865486
634161,Gisselbækvej,7752,43,8.4855678,56.8671538
634162,Gisselbækvej,7752,45,8.4902526,56.8686859
634163,Gisselbækvej,7752,51,8.493092,56.870401
634164,Gjersbølvej,7752,2,8.5216143,56.8981943
634165,Gjersbølvej,7752,3,8.52634,56.905466
634166,Gjersbølvej,7752,4,8.5353801,56.9043226
634167,Gjersbølvej,7752,5,8.529445,56.907676
634168,Gjersbølvej,7752,6,8.5314587,56.9071725
634169,Gjersbølvej,7752,7,8.531191,56.910525
634170,Gjersbølvej,7752,8,8.5370395,56.9081943
634171,Gjersbølvej,7752,9,8.533345,56.911308
634172,Gjersbølvej,7752,11,8.5350662,56.9088945
634173,Gjersbølvej,7752,13,8.5418073,56.9098278
634709,Gråhavrevej,7752,1,8.3586419,56.9230491
634710,Gråhavrevej,7752,2,8.3592207,56.9229357
634711,Gråhavrevej,7752,3,8.3580181,56.9231504
634712,Gråhavrevej,7752,4,8.3594084,56.9231973
634713,Gråhavrevej,7752,5,8.357382,56.923236
634714,Gråhavrevej,7752,6,8.3603496,56.9232045
634715,Gråhavrevej,7752,7,8.3578969,56.9235899
634716,Gråhavrevej,7752,8,8.360292,56.9234297
634717,Gråhavrevej,7752,9,8.358095,56.9234766
634718,Gråhavrevej,7752,10,8.3598618,56.9235514
634719,Gråhavrevej,7752,11,8.3586449,56.9236336
634720,Gråhavrevej,7752,12,8.3593542,56.9236696
634721,Gråhavrevej,7752,17,8.358039,56.9238557
634722,Gråhavrevej,7752,18,8.3607567,56.9240316
634723,Gråhavrevej,7752,19,8.3582406,56.9240932
634724,Gråhavrevej,7752,20,8.3603207,56.9241622
634725,Gråhavrevej,7752,21,8.3587047,56.9240721
634726,Gråhavrevej,7752,22,8.3595897,56.9240363
634727,Gråhavrevej,7752,23,8.3588135,56.9243798
634728,Gråhavrevej,7752,24,8.359771,56.9242129
634729,Gråhavrevej,7752,25,8.3583489,56.9246059
634730,Gråhavrevej,7752,26,8.3599979,56.9244343
634731,Gråhavrevej,7752,27,8.3586401,56.924956
634732,Gråhavrevej,7752,29,8.359047,56.924691
634733,Gråhavrevej,7752,31,8.3595677,56.9245813
634889,Gyrupvej,7752,1,8.4245768,56.88073
634890,Gyrupvej,7752,2,8.427141,56.881301
634891,Gyrupvej,7752,3,8.426286,56.8848294
634892,Gyrupvej,7752,4,8.429192,56.882518
634893,Gyrupvej,7752,6,8.426805,56.8847217
634894,Gyrupvej,7752,10,8.4286117,56.886471
634895,Gyrupvej,7752,12,8.4343953,56.8887493
634896,Gyrupvej,7752,14,8.427525,56.891031
634897,Gyrupvej,7752,16,8.4270328,56.8912617
634977,Gærupvej,7752,1,8.607443,56.857631
634978,Gærupvej,7752,2,8.608708,56.854778
634979,Gærupvej,7752,3,8.609018,56.857513
634980,Gærupvej,7752,5,8.611348,56.8571154
634981,Gærupvej,7752,7,8.613164,56.856133
634982,Gærupvej,7752,9,8.610625,56.855478
634983,Gærupvej,7752,11,8.610813,56.854132
634984,Gærupvej,7752,11A,8.611997,56.854531
634985,Gærupvej,7752,13,8.610883,56.852758
634986,Gærupør,7752,1,8.619749,56.866365
634987,Gærupør,7752,2,8.6270631,56.8631371
634988,Gærupør,7752,3,8.623974,56.865564
634989,Gærupør,7752,5,8.6284294,56.8646821
635064,Harring Bro Vej,7752,11,8.531164,56.855769
635065,Harring Bro Vej,7752,12,8.531625,56.855349
635066,Harring Bro Vej,7752,14,8.531633,56.856001
635067,Harring Bro Vej,7752,15,8.524744,56.858848
635068,Harring Bro Vej,7752,16,8.532186,56.857663
635069,Harring Bro Vej,7752,17,8.53268,56.860005
635070,Harring Bro Vej,7752,18,8.537401,56.861589
635071,Harring Bro Vej,7752,19,8.53307,56.86149
635072,Harring Bro Vej,7752,20,8.539318,56.867363
635073,Harring Bro Vej,7752,21,8.533249,56.862612
635074,Harring Bro Vej,7752,22,8.537419,56.867698
635075,Harring Bro Vej,7752,23,8.530152,56.865956
635076,Harring Bro Vej,7752,25,8.533798,56.865338
635077,Harring Bro Vej,7752,27,8.52996,56.8688121
635078,Harring Bro Vej,7752,29,8.535167,56.868769
635079,Harringhedevej,7752,1,8.547097,56.860186
635080,Harringhedevej,7752,2,8.551811,56.861875
635081,Harringhedevej,7752,3,8.54493,56.859273
635082,Harringhedevej,7752,4,8.550681,56.861888
635083,Harringhedevej,7752,5,8.5436534,56.8582031
635084,Harringhedevej,7752,5B,8.542484,56.860091
635085,Harringhedevej,7752,7,8.5350676,56.8640533
635086,Harringhedevej,7752,9,8.532793,56.864001
635087,Harringhedevej,7752,10,8.545962,56.862463
635088,Harringhedevej,7752,11,8.51395,56.865204
635089,Harringhedevej,7752,12,8.546763,56.862053
635090,Harringhedevej,7752,14,8.543813,56.864158
635091,Harringhedevej,7752,16,8.538807,56.864975
635092,Harringhedevej,7752,18,8.526982,56.865434
635093,Harringhedevej,7752,20,8.5161558,56.8666206
635378,Holmegårdsvej,7752,1,8.496215,56.885933
635379,Holmegårdsvej,7752,2,8.501087,56.888029
635380,Holmegårdsvej,7752,3,8.4941887,56.8858591
635381,Holmegårdsvej,7752,5,8.488833,56.885289
635382,Holmegårdsvej,7752,6,8.489401,56.886692
635383,Holmegårdsvej,7752,7,8.488372,56.889935
635384,Holmegårdsvej,7752,9,8.488667,56.891525
635442,Hovedgaden,7752,1,8.5349491,56.8924991
635443,Hovedgaden,7752,3,8.534371,56.8925865
635444,Hovedgaden,7752,4,8.5341324,56.8929073
635445,Hovedgaden,7752,5,8.5334693,56.8926154
635446,Hovedgaden,7752,6,8.5337968,56.8929044
635447,Hovedgaden,7752,8,8.533231,56.892931
635448,Hovedgaden,7752,8B,8.5330527,56.8931537
635449,Hovedgaden,7752,9,8.5323281,56.8926094
635450,Hovedgaden,7752,10,8.5326691,56.8928573
635451,Hovedgaden,7752,11,8.5320459,56.8925969
635452,Hovedgaden,7752,12,8.5323976,56.8928528
635453,Hovedgaden,7752,13,8.5317479,56.8925915
635454,Hovedgaden,7752,14,8.5320952,56.892847
635455,Hovedgaden,7752,15,8.5315085,56.8925892
635456,Hovedgaden,7752,16,8.5317335,56.8928419
635457,Hovedgaden,7752,17,8.5311364,56.89262
635458,Hovedgaden,7752,18,8.531337,56.892838
635459,Hovedgaden,7752,19,8.530888,56.8926183
635460,Hovedgaden,7752,20,8.5310289,56.8928313
635461,Hovedgaden,7752,21,8.5306302,56.8925967
635462,Hovedgaden,7752,22,8.5307404,56.892777
635463,Hovedgaden,7752,23,8.5303781,56.8924999
635464,Hovedgaden,7752,24,8.5305271,56.8927949
635465,Hovedgaden,7752,25,8.5301085,56.8926089
635466,Hovedgaden,7752,26,8.530302,56.8927959
635467,Hovedgaden,7752,27,8.5298274,56.8926057
635468,Hovedgaden,7752,29,8.5296039,56.8926039
635469,Hovedgaden,7752,30,8.52973,56.8927575
635470,Hovedgaden,7752,31,8.5293234,56.8925306
635471,Hovedgaden,7752,32,8.5294739,56.8927573
635472,Hovedgaden,7752,34,8.529224,56.892752
635473,Hovedgaden,7752,35,8.5290532,56.8926003
635474,Hovedgaden,7752,36,8.5290191,56.8927508
635475,Hovedgaden,7752,37,8.5286275,56.8926032
635476,Hovedgaden,7752,38,8.5287506,56.8927478
635477,Hovedgaden,7752,39,8.528359,56.892602
635478,Hovedgaden,7752,40A,8.5282101,56.892788
635479,Hovedgaden,7752,40B,8.5283002,56.8928242
635480,Hovedgaden,7752,41,8.5281083,56.892605
635481,Hovedgaden,7752,42A,8.5271421,56.8927908
635482,Hovedgaden,7752,42B,8.526903,56.8927356
635483,Hovedgaden,7752,44,8.5267053,56.8927834
635484,Hovedgaden,7752,45,8.52563,56.892592
635485,Hovedgaden,7752,46,8.5268425,56.8930056
635486,Hovedgaden,7752,47,8.5254565,56.892596
635487,Hovedgaden,7752,47A,8.5253484,56.8923817
635488,Hovedgaden,7752,48,8.5264499,56.8927387
635489,Hovedgaden,7752,50,8.5262469,56.8927362
635490,Hovedgaden,7752,51,8.5250227,56.8925973
635491,Hovedgaden,7752,52,8.5260663,56.8927386
635492,Hovedgaden,7752,53,8.5247942,56.8925942
635493,Hovedgaden,7752,54,8.525973,56.892735
635494,Hovedgaden,7752,55,8.5245961,56.8925926
635495,Hovedgaden,7752,56,8.525673,56.8927417
635496,Hovedgaden,7752,57,8.5244561,56.8925922
635497,Hovedgaden,7752,58,8.5253052,56.8927762
635498,Hovedgaden,7752,59A,8.524263,56.892591
635499,Hovedgaden,7752,59B,8.524252,56.8922343
635500,Hovedgaden,7752,60,8.525198,56.8927534
635501,Hovedgaden,7752,61,8.5240765,56.8925897
635502,Hovedgaden,7752,63,8.5238288,56.89259
635503,Hovedgaden,7752,65,8.5236228,56.892588
635504,Hovedgaden,7752,66,8.5243318,56.8927396
635505,Hovedgaden,7752,68A,8.5241307,56.8927399
635506,Hovedgaden,7752,68B,8.5240637,56.8927576
635507,Hovedgaden,7752,68C,8.52405,56.89285
635508,Hovedgaden,7752,69,8.5231479,56.8925871
635509,Hovedgaden,7752,70,8.5237781,56.8927319
635510,Hovedgaden,7752,71,8.5226927,56.8925656
635511,Hovedgaden,7752,72,8.5234963,56.8927298
635512,Hovedgaden,7752,74,8.5232065,56.8927289
635513,Hovedgaden,7752,76,8.522968,56.892746
635514,Hovedgaden,7752,78,8.5227515,56.8927328
635515,Hovedgaden,7752,79,8.5210559,56.8924966
635516,Hovedgaden,7752,80,8.5237778,56.8930398
635517,Hovedgaden,7752,81,8.520705,56.8925694
635518,Hovedgaden,7752,82,8.5224246,56.8929971
635519,Hovedgaden,7752,83,8.520275,56.8925434
635520,Hovedgaden,7752,84,8.5224531,56.8927717
635521,Hovedgaden,7752,85,8.520007,56.892545
635522,Hovedgaden,7752,86,8.5222213,56.8927463
635523,Hovedgaden,7752,87,8.519802,56.89255
635524,Hovedgaden,7752,88,8.5219806,56.892749
635525,Hovedgaden,7752,89,8.519531,56.892566
635526,Hovedgaden,7752,90,8.5217233,56.8927438
635527,Hovedgaden,7752,91,8.5192043,56.8925131
635528,Hovedgaden,7752,92A,8.5215278,56.8927446
635529,Hovedgaden,7752,92D,8.5213732,56.8927801
635530,Hovedgaden,7752,93,8.5188714,56.8925166
635531,Hovedgaden,7752,94,8.5211592,56.8927544
635532,Hovedgaden,7752,95,8.5186235,56.8925461
635533,Hovedgaden,7752,96,8.5209066,56.8927529
635534,Hovedgaden,7752,97,8.5184147,56.8925621
635535,Hovedgaden,7752,98,8.52077,56.892754
635536,Hovedgaden,7752,99,8.5182482,56.8925294
635537,Hovedgaden,7752,100,8.5204977,56.8927481
635538,Hovedgaden,7752,101,8.517957,56.8925124
635539,Hovedgaden,7752,102,8.5202587,56.89278
635540,Hovedgaden,7752,103,8.5177343,56.8924694
635541,Hovedgaden,7752,104,8.5200331,56.8927681
635542,Hovedgaden,7752,105,8.517451,56.892537
635543,Hovedgaden,7752,106,8.5196724,56.8927466
635544,Hovedgaden,7752,107,8.5172649,56.8925423
635545,Hovedgaden,7752,108,8.519457,56.892735
635546,Hovedgaden,7752,109,8.5170796,56.8925032
635547,Hovedgaden,7752,110,8.518958,56.89273
635548,Hovedgaden,7752,111,8.5169068,56.8924913
635549,Hovedgaden,7752,112,8.5186573,56.8927373
635550,Hovedgaden,7752,113,8.5166001,56.8924327
635551,Hovedgaden,7752,115,8.5163574,56.8924418
635552,Hovedgaden,7752,116,8.5179454,56.8927898
635553,Hovedgaden,7752,117,8.5161081,56.8923575
635554,Hovedgaden,7752,118,8.5177187,56.8927895
635555,Hovedgaden,7752,119,8.5158874,56.892339
635556,Hovedgaden,7752,120,8.5173095,56.8927762
635557,Hovedgaden,7752,121,8.5155935,56.8923619
635558,Hovedgaden,7752,122,8.5167374,56.8927803
635559,Hovedgaden,7752,123,8.5151734,56.8921843
635560,Hovedgaden,7752,124,8.5163941,56.892774
635561,Hovedgaden,7752,125,8.5143186,56.892258
635562,Hovedgaden,7752,126,8.5160625,56.8927283
635563,Hovedgaden,7752,128,8.5158355,56.8926518
635564,Hovedgaden,7752,130,8.5156017,56.8926264
635565,Hovedgaden,7752,132,8.515251,56.8926062
635566,Hovedgaden,7752,134,8.5148816,56.8926533
635567,Hovedgaden,7752,159,8.5031016,56.8920686
635568,Hovedgaden,7752,160,8.5116451,56.892408
635569,Hovedgaden,7752,161,8.501045,56.8920128
635570,Hovedgaden,7752,162,8.5099092,56.8924208
635571,Hovedgaden,7752,163,8.4987899,56.8920546
635572,Hovedgaden,7752,164,8.505044,56.8923749
635573,Hovedgaden,7752,165,8.4980978,56.8910265
635574,Hovedgaden,7752,166,8.5040472,56.8924671
635575,Hovedgaden,7752,168,8.503942,56.894189
635576,Hovedgaden,7752,169,8.4965652,56.8920784
635577,Hovedgaden,7752,170,8.5031533,56.8925993
635578,Hovedgaden,7752,171,8.4959258,56.8919925
635579,Hovedgaden,7752,172,8.5018712,56.8924289
635580,Hovedgaden,7752,174,8.4985954,56.8938129
635581,Hovedgaden,7752,176,8.4970523,56.8923115
636135,Hørstedvej,7752,1,8.567695,56.865478
636136,Hørstedvej,7752,2,8.566123,56.866135
636137,Hørstedvej,7752,3,8.560205,56.867245
636138,Hørstedvej,7752,4,8.564797,56.869739
636139,Hørstedvej,7752,5,8.557395,56.867365
636140,Hørstedvej,7752,6,8.564182,56.866692
636141,Hørstedvej,7752,7,8.554646,56.86776
636142,Hørstedvej,7752,8,8.559765,56.8703006
636143,Hørstedvej,7752,9,8.529511,56.872142
636144,Hørstedvej,7752,11,8.5255328,56.8723947
636145,Hørstedvej,7752,12,8.540045,56.873034
636146,Hørstedvej,7752,13,8.524747,56.872321
636147,Hørstedvej,7752,15,8.510263,56.873588
636148,Hørstedvej,7752,16,8.5309246,56.872323
636149,Hørstedvej,7752,18,8.528729,56.872629
636150,Hørstedvej,7752,20,8.525583,56.873034
636151,Hørstedvej,7752,21,8.4947678,56.8706814
636152,Hørstedvej,7752,22,8.526017,56.87417
636153,Hørstedvej,7752,23,8.493642,56.870457
636154,Hørstedvej,7752,24,8.517702,56.875066
636155,Hørstedvej,7752,26,8.510241,56.875397
636156,Hørstedvej,7752,27,8.491351,56.870332
636157,Hørstedvej,7752,28,8.506712,56.87466
636158,Hørstedvej,7752,30,8.496479,56.872105
636159,Hørstedvej,7752,31,8.480014,56.870674
636160,Hørstedvej,7752,32,8.493871,56.870933
636161,Hørstedvej,7752,32A,8.49316,56.870707
636162,Hørstedvej,7752,34,8.492919,56.871202
636163,Hørstedvej,7752,35,8.462456,56.870091
636164,Hørstedvej,7752,36,8.492903,56.870924
636165,Hørstedvej,7752,37,8.454986,56.870386
636166,Hørstedvej,7752,38,8.492746,56.870665
636167,Hørstedvej,7752,42,8.477842,56.870739
636168,Hørstedvej,7752,44,8.466533,56.870827
636169,Hørstedvej,7752,47,8.453796,56.870326
636170,Hørstedvej,7752,51,8.453005,56.87031
636171,Hørstedvej,7752,53,8.45272,56.870327
636172,Hørstedvej,7752,55,8.45248,56.870049
636173,Hørstedvej,7752,62,8.451876,56.870618
636174,Hørstedvej,7752,63,8.45198,56.8704033
636175,Hørstedvej,7752,64,8.451531,56.870641
636176,Hørstedvej,7752,65,8.4512099,56.8704344
636177,Hørstedvej,7752,66,8.4510985,56.8706466
636178,Hørstedvej,7752,67,8.450867,56.870441
636179,Hørstedvej,7752,68,8.450902,56.870627
636180,Hørstedvej,7752,70,8.450654,56.870641
636181,Hørstedvej,7752,72,8.450229,56.870707
636182,Hørstedvej,7752,76,8.4499395,56.8704748
636183,Hørstedvej,7752,86,8.449498,56.870087
636184,Håbetsvej,7752,1,8.593469,56.864077
636185,Håbetsvej,7752,2,8.5981656,56.8610639
636186,Håbetsvej,7752,3,8.602043,56.863256
636187,Håbetsvej,7752,4,8.599797,56.862239
636188,Håbetsvej,7752,5,8.600513,56.8628941
636189,Håbetsvej,7752,6,8.600756,56.861999
636190,Håbetsvej,7752,7,8.602371,56.860542
636191,Håbetsvej,7752,9,8.606255,56.858078
636192,Håbetsvej,7752,10,8.601749,56.860709
636193,Håbetsvej,7752,12,8.604575,56.858418
636240,Idrætsvej,7752,1,8.5253633,56.8931798
636241,Idrætsvej,7752,2,8.5256944,56.893175
636242,Idrætsvej,7752,4,8.5256948,56.893402
636243,Idrætsvej,7752,5,8.5253992,56.8936713
636244,Idrætsvej,7752,6,8.525836,56.893795
636245,Idrætsvej,7752,7,8.5254507,56.8937791
636246,Idrætsvej,7752,9,8.5254625,56.8938763
636247,Idrætsvej,7752,10,8.5263109,56.8942059
636248,Idrætsvej,7752,11,8.5255034,56.8939904
636249,Idrætsvej,7752,13,8.5254937,56.8941944
636250,Idrætsvej,7752,15,8.5255265,56.894379
636251,Idrætsvej,7752,17,8.5256345,56.8947337
636252,Idrætsvej,7752,19,8.525499,56.8956978
636368,Istrupvej,7752,8,8.3592921,56.9175038
636369,Istrupvej,7752,10,8.3590924,56.9172198
636370,Istrupvej,7752,14,8.3588062,56.9168231
636371,Istrupvej,7752,16,8.3580104,56.9169297
636372,Istrupvej,7752,18,8.3580972,56.9171722
636373,Istrupvej,7752,20,8.3583559,56.9173348
636374,Istrupvej,7752,21A,8.360005,56.916611
636375,Istrupvej,7752,21B,8.3599555,56.9165553
636376,Istrupvej,7752,21C,8.360133,56.9163754
636377,Istrupvej,7752,22,8.3583893,56.9175547
636378,Istrupvej,7752,23,8.3596108,56.9137319
636379,Istrupvej,7752,24,8.3586149,56.9177129
636380,Istrupvej,7752,26,8.3574252,56.9173837
636381,Istrupvej,7752,29,8.3733276,56.8964627
636382,Istrupvej,7752,34,8.3576687,56.9167716
636383,Istrupvej,7752,36,8.3586386,56.9165777
636384,Istrupvej,7752,38,8.3584113,56.9163348
636385,Istrupvej,7752,40,8.357646,56.915287
636469,Jens Søndergårds Vej,7752,1,8.3665433,56.9244169
636470,Jens Søndergårds Vej,7752,4,8.3704949,56.9293218
636471,Jens Søndergårds Vej,7752,5,8.3658215,56.9280044
636472,Jens Søndergårds Vej,7752,9,8.366153,56.930204
636473,Jens Søndergårds Vej,7752,11,8.369336,56.92975
636495,Jernbanevej,7752,1,8.5279308,56.8924934
636496,Jernbanevej,7752,3,8.5278893,56.8923277
636497,Jernbanevej,7752,5,8.5278236,56.8920907
636498,Jernbanevej,7752,7,8.5276919,56.8919292
636499,Jernbanevej,7752,9,8.5276079,56.8917829
636500,Jernbanevej,7752,11,8.527509,56.8916292
636501,Jernbanevej,7752,13,8.5274132,56.8914947
636502,Jernbanevej,7752,15,8.5272986,56.8913668
636503,Jernbanevej,7752,17,8.527272,56.891206
636504,Jernbanevej,7752,19,8.5269818,56.891005
636505,Jernbanevej,7752,21,8.5268107,56.8909088
636506,Jernbanevej,7752,23,8.5267717,56.890789
636507,Jernbanevej,7752,25,8.5267151,56.890672
636508,Jernbanevej,7752,27,8.5265159,56.8905182
636509,Jernbanevej,7752,29,8.526362,56.8903572
636510,Jernbanevej,7752,30,8.525667,56.890264
636511,Jernbanevej,7752,31,8.526247,56.8901733
636512,Jestrupvej,7752,1,8.477778,56.86561
636513,Jestrupvej,7752,2,8.461275,56.863325
636514,Jestrupvej,7752,3,8.484514,56.86346
636515,Jestrupvej,7752,4,8.462146,56.862612
636516,Jestrupvej,7752,6,8.464543,56.862364
636517,Jestrupvej,7752,8,8.472511,56.863187
636518,Jestrupvej,7752,10,8.479857,56.862255
636656,Kalkværksvej,7752,1,8.4221483,56.9059387
636657,Kalkværksvej,7752,3,8.420983,56.905702
636658,Kalkværksvej,7752,5,8.417173,56.903115
636659,Kalkværksvej,7752,6,8.41814,56.905269
636660,Kalkværksvej,7752,7,8.4054438,56.8917508
636661,Kalkværksvej,7752,8,8.4147399,56.9035774
636662,Kalkværksvej,7752,9,8.3970244,56.8933904
636663,Kalkværksvej,7752,10,8.4116939,56.9018361
636664,Kalkværksvej,7752,12,8.4097033,56.900698
636665,Kalkværksvej,7752,14,8.4040925,56.9001035
636666,Kalkværksvej,7752,16,8.405136,56.897714
636667,Kalkværksvej,7752,18,8.4025408,56.8980818
636668,Kalkværksvej,7752,20,8.396672,56.8982758
636669,Kalkværksvej,7752,22,8.3985818,56.9000983
636670,Kalkværksvej,7752,24,8.3996406,56.9004952
636671,Kalkværksvej,7752,26,8.3958,56.9001752
636672,Kalkværksvej,7752,28A,8.39192,56.896002
636673,Kalkværksvej,7752,28B,8.391969,56.896002
636674,Kallerupvadested,7752,1,8.550178,56.906652
636676,Kallerupvadested,7752,3,8.552514,56.907243
637316,Knattrupvej,7752,1,8.4406825,56.8740091
637317,Knattrupvej,7752,2,8.4471192,56.8772869
637318,Knattrupvej,7752,4,8.4503898,56.8785175
637351,Knudsgårdsvej,7752,1,8.5414629,56.9033008
637352,Knudsgårdsvej,7752,2,8.5410619,56.8988499
637353,Knudsgårdsvej,7752,3,8.5374419,56.9030593
637354,Knudsgårdsvej,7752,5,8.539486,56.9037349
637355,Knudsgårdsvej,7752,6,8.5420906,56.9091918
637356,Kolonihavevej,7752,1,8.5268937,56.8932383
637357,Kolonihavevej,7752,2,8.5273277,56.8934301
637358,Kolonihavevej,7752,3,8.5265739,56.8932434
637359,Kolonihavevej,7752,4,8.5267942,56.8934342
637360,Kolonihavevej,7752,5,8.5260425,56.8932496
637361,Kolonihavevej,7752,6,8.5265657,56.8933931
637362,Kolonihavevej,7752,7,8.5243824,56.8931849
637363,Kolonihavevej,7752,8,8.5263545,56.8933919
637364,Kolonihavevej,7752,9,8.523379,56.893256
637365,Kolonihavevej,7752,10,8.5260514,56.8933961
637366,Kolonihavevej,7752,11,8.5228047,56.8932108
637367,Kolonihavevej,7752,12,8.525288,56.893427
637368,Kolonihavevej,7752,13,8.5218101,56.8932314
637369,Kolonihavevej,7752,14,8.5250971,56.893424
637370,Kolonihavevej,7752,15,8.521317,56.893264
637371,Kolonihavevej,7752,16,8.5249237,56.8934262
637372,Kolonihavevej,7752,17,8.5208222,56.8931977
637373,Kolonihavevej,7752,18,8.5247039,56.8934277
637374,Kolonihavevej,7752,20,8.5244265,56.8934624
637375,Kolonihavevej,7752,20A,8.524204,56.893477
637376,Kolonihavevej,7752,22A,8.524212,56.893685
637377,Kolonihavevej,7752,22B,8.5239154,56.8935394
637378,Kolonihavevej,7752,24,8.523599,56.8935152
637379,Kolonihavevej,7752,26,8.523235,56.8935142
637380,Kolonihavevej,7752,28,8.52293,56.8935151
637381,Kolonihavevej,7752,30,8.5226045,56.8935229
637382,Kolonihavevej,7752,32,8.5222721,56.8935262
637383,Kolonihavevej,7752,34,8.5219394,56.893524
637384,Kolonihavevej,7752,36,8.5216345,56.8935562
637385,Kolonihavevej,7752,38,8.5213009,56.8935828
637386,Kolonihavevej,7752,40,8.5209805,56.8934922
637457,Korshøjvej,7752,6,8.585147,56.902667
637459,Korshøjvej,7752,8,8.5849155,56.9016563
637460,Korshøjvej,7752,9,8.5853899,56.8933166
637461,Korshøjvej,7752,10,8.585625,56.900657
637462,Korshøjvej,7752,12,8.5857205,56.8993857
637463,Korshøjvej,7752,14,8.585616,56.895361
637464,Korshøjvej,7752,16,8.585038,56.894921
637692,Kystvejen,7752,38,8.375819,56.928426
637694,Kystvejen,7752,42,8.377988,56.89591
637695,Kystvejen,7752,43,8.384455,56.922915
637696,Kystvejen,7752,45,8.380214,56.920493
637697,Kystvejen,7752,46,8.387379,56.892945
637698,Kystvejen,7752,47,8.373968,56.920286
637699,Kystvejen,7752,49,8.387012,56.896332
637700,Kærgårdsvej,7752,1,8.4585054,56.8993276
637701,Kærgårdsvej,7752,3,8.458394,56.901636
637702,Kærgårdsvej,7752,4,8.469966,56.9030463
637703,Kærgårdsvej,7752,5,8.454826,56.902316
637704,Kærgårdsvej,7752,9,8.4468069,56.9018796
637705,Kærgårdsvej,7752,26,8.4721348,56.9047338
637706,Kærgårdsvej,7752,30,8.459358,56.91499
637707,Kærgårdsvej,7752,30A,8.4621457,56.9117531
637708,Kærgårdsvej,7752,32,8.4626746,56.9111317
637709,Kærgårdsvej,7752,34,8.460565,56.90332
637710,Kærgårdsvej,7752,36,8.45816,56.905965
637711,Kærgårdsvej,7752,38,8.4560571,56.9059603
637712,Kærgårdsvej,7752,40,8.4548535,56.9071758
637713,Kærgårdsvej,7752,42,8.454337,56.903032
637714,Kærgårdsvej,7752,44,8.4451569,56.9025712
637715,Kærgårdsvej,7752,46,8.4428907,56.9015156
637733,Kærshøjvej,7752,1,8.5557144,56.8602244
637734,Kærshøjvej,7752,2,8.569224,56.858184
637735,Kærshøjvej,7752,3,8.5616,56.859367
637736,Kærshøjvej,7752,4,8.57159,56.857242
637737,Kærshøjvej,7752,8,8.597313,56.854653
637738,Kærshøjvej,7752,9,8.581823,56.859016
637739,Kærshøjvej,7752,10,8.6029537,56.8543982
637740,Kærshøjvej,7752,11,8.583139,56.861838
637741,Kærshøjvej,7752,13,8.587272,56.856332
637742,Kærshøjvej,7752,15,8.591824,56.856197
637743,Kærshøjvej,7752,17,8.592826,56.856241
637748,Kærvej,7752,1,8.518071,56.89307
637749,Kærvej,7752,2,8.5184352,56.8931064
637750,Kærvej,7752,3,8.5181031,56.8932008
637751,Kærvej,7752,4,8.5184666,56.8932206
637752,Kærvej,7752,5,8.5181333,56.8933074
637753,Kærvej,7752,6,8.5185134,56.893325
637754,Kærvej,7752,7,8.5180672,56.8934656
637755,Kærvej,7752,8,8.51861,56.893419
637756,Kærvej,7752,9,8.5181218,56.893665
637757,Kærvej,7752,10,8.518576,56.89352
637758,Kærvej,7752,11,8.5183221,56.8939776
637759,Kærvej,7752,12,8.5189684,56.8936966
637760,Kærvej,7752,14,8.5186908,56.8938581
637761,Kærvej,7752,15,8.5185432,56.8944637
637762,Kærvej,7752,15A,8.518365,56.894311
637763,Kærvej,7752,16,8.5187329,56.8939597
637764,Kærvej,7752,18,8.5187575,56.8940851
637765,Kærvej,7752,20,8.518809,56.894204
637766,Kærvej,7752,22,8.519578,56.894359
637767,Kærvej,7752,24,8.518844,56.894342
637768,Kærvej,7752,26,8.5188827,56.8944446
637769,Kærvej,7752,28,8.5189395,56.8947004
637770,Kærvej,7752,30,8.5194123,56.8949568
637771,Kærvej,7752,41,8.518587,56.895389
637772,Kærvej,7752,43,8.5196096,56.8969793
637773,Kærvej,7752,52,8.5204399,56.8958682
637774,Kærvej,7752,54,8.52091,56.897479
637775,Kågkil,7752,1,8.590948,56.869518
637776,Kågkil,7752,2,8.5876937,56.86076
637777,Kågkil,7752,4,8.5848082,56.860129
637778,Kågkil,7752,5,8.591228,56.8618053
637779,Kågkil,7752,7,8.5931088,56.8596906
637945,Legindvej,7752,37,8.462257,56.858718
637946,Legindvej,7752,39,8.46183,56.856427
637947,Legindvej,7752,41,8.459936,56.860659
637948,Legindvej,7752,46,8.454128,56.865775
637949,Legindvej,7752,48,8.453994,56.8659791
637950,Legindvej,7752,53,8.449702,56.865303
637951,Legindvej,7752,55,8.447601,56.8654
637952,Legindvej,7752,57,8.4446059,56.8651213
637953,Legindvej,7752,59,8.449282,56.865756
637954,Legindvej,7752,61,8.452102,56.865914
637955,Legindvej,7752,63,8.453618,56.865887
637956,Legindvej,7752,68A,8.4542747,56.8671188
637957,Legindvej,7752,73,8.4524,56.867127
637958,Legindvej,7752,75,8.452284,56.86729
637959,Legindvej,7752,78,8.4524808,56.8675709
637960,Legindvej,7752,80,8.452233,56.868093
637961,Legindvej,7752,82,8.451894,56.868544
637962,Legindvej,7752,84,8.451804,56.869168
637963,Legindvej,7752,84A,8.451125,56.869987
637964,Legindvej,7752,86,8.4512785,56.8689283
637965,Legindvej,7752,87,8.450667,56.868584
637966,Legindvej,7752,89,8.449887,56.868708
637967,Legindvej,7752,91,8.450001,56.86882
637968,Legindvej,7752,92,8.448129,56.870528
637969,Legindvej,7752,93,8.450249,56.869017
637970,Legindvej,7752,95,8.450095,56.869134
637971,Legindvej,7752,97,8.449863,56.869245
637972,Legindvej,7752,99,8.449437,56.869348
637973,Legindvej,7752,100,8.4486572,56.8722688
637974,Legindvej,7752,101,8.449119,56.869648
637975,Legindvej,7752,102,8.428169,56.878142
637976,Legindvej,7752,103,8.4483677,56.8700481
637977,Legindvej,7752,104,8.428678,56.880081
637978,Legindvej,7752,105,8.446895,56.869631
637979,Legindvej,7752,106,8.412032,56.885086
637980,Legindvej,7752,107,8.4424112,56.865169
637981,Legindvej,7752,109,8.445623,56.869204
637982,Legindvej,7752,121,8.446263,56.870876
637983,Legindvej,7752,125,8.444818,56.871293
637984,Legindvej,7752,131,8.443944,56.871524
637985,Legindvej,7752,131B,8.444582,56.87176
637986,Legindvej,7752,133,8.4317117,56.8709567
637987,Legindvej,7752,135,8.428494,56.868407
637988,Legindvej,7752,137,8.427537,56.869173
637989,Legindvej,7752,141,8.43728,56.874843
637990,Legindvej,7752,143,8.432957,56.876993
637991,Legindvej,7752,145,8.422599,56.879363
637992,Legindvej,7752,147,8.420595,56.880568
637993,Legindvej,7752,149,8.416436,56.882906
637994,Legindvej,7752,151,8.415487,56.883076
637995,Legindvej,7752,153,8.410537,56.884732
637996,Legindvej,7752,155,8.410047,56.883107
637997,Legindvej,7752,155A,8.406501,56.882426
637998,Legindvej,7752,157,8.408665,56.885062
637999,Legårdsvej,7752,6,8.483895,56.89223
638000,Legårdsvej,7752,8,8.483546,56.892224
638001,Legårdsvej,7752,10,8.482416,56.891828
638002,Legårdsvej,7752,10A,8.4810862,56.8898279
638003,Legårdsvej,7752,12,8.4796442,56.8879955
638004,Legårdsvej,7752,14,8.4795922,56.887082
638005,Legårdsvej,7752,16,8.4786,56.886865
638006,Legårdsvej,7752,18,8.47836,56.885578
638007,Legårdsvej,7752,20,8.475226,56.885118
638008,Legårdsvej,7752,22,8.475398,56.88181
638009,Legårdsvej,7752,24,8.467136,56.880868
638010,Legårdsvej,7752,25,8.4710726,56.8802542
638011,Legårdsvej,7752,27,8.4681781,56.8802603
638012,Legårdsvej,7752,29,8.466031,56.880401
638013,Legårdsvej,7752,30,8.454879,56.880914
638014,Legårdsvej,7752,31,8.4641224,56.8801496
638015,Legårdsvej,7752,33,8.4612257,56.8808814
638016,Legårdsvej,7752,36,8.4376516,56.8802239
638017,Legårdsvej,7752,38,8.4337883,56.8798978
638118,Liljevej,7752,1,8.5908631,56.8887379
638119,Liljevej,7752,3,8.5904275,56.8888087
638120,Liljevej,7752,4,8.5912866,56.8888612
638121,Liljevej,7752,6,8.590649,56.8890122
638122,Liljevej,7752,8,8.5902609,56.8890955
638123,Liljevej,7752,10,8.5898661,56.8891206
638124,Liljevej,7752,12,8.5897372,56.8894237
638125,Liljevej,7752,14,8.5893887,56.8892475
638126,Liljevej,7752,16,8.5890151,56.8892981
638195,Lunegårdsvej,7752,2A,8.5281321,56.8928296
638196,Lunegårdsvej,7752,2B,8.5281902,56.8928584
638197,Lunegårdsvej,7752,3,8.5291609,56.8936927
638198,Lunegårdsvej,7752,4,8.5286005,56.8934487
638199,Lunegårdsvej,7752,5,8.5294718,56.8936842
638200,Lunegårdsvej,7752,6,8.5290427,56.8933581
638201,Lunegårdsvej,7752,7,8.5297519,56.8936801
638202,Lunegårdsvej,7752,8,8.5293135,56.8933735
638203,Lunegårdsvej,7752,9,8.5300446,56.8936768
638204,Lunegårdsvej,7752,10,8.5296519,56.893445
638205,Lunegårdsvej,7752,10A,8.5296403,56.8933193
638206,Lunegårdsvej,7752,11,8.5303304,56.8937367
638207,Lunegårdsvej,7752,12,8.5299078,56.8933909
638208,Lunegårdsvej,7752,13,8.5306113,56.8936867
638209,Lunegårdsvej,7752,14,8.5301344,56.8933889
638210,Lunegårdsvej,7752,15,8.5309259,56.8936806
638211,Lunegårdsvej,7752,16,8.530419,56.893407
638212,Lunegårdsvej,7752,17,8.5312761,56.893648
638213,Lunegårdsvej,7752,18,8.5307182,56.8934042
638214,Lunegårdsvej,7752,19,8.5315547,56.8936941
638215,Lunegårdsvej,7752,20,8.5310911,56.8934088
638216,Lunegårdsvej,7752,21,8.5317899,56.8936996
638217,Lunegårdsvej,7752,22,8.5313369,56.8933911
638218,Lunegårdsvej,7752,23,8.5321189,56.8936574
638219,Lunegårdsvej,7752,24,8.5317539,56.8934004
638220,Lunegårdsvej,7752,25,8.5323817,56.8936785
638221,Lunegårdsvej,7752,26,8.5322049,56.8934075
638222,Lunegårdsvej,7752,27,8.5327048,56.8936999
638223,Lunegårdsvej,7752,28,8.532233,56.893368
638224,Lunegårdsvej,7752,29,8.5330146,56.8936953
638225,Lunegårdsvej,7752,30,8.5323608,56.8933919
638226,Lunegårdsvej,7752,31,8.5333042,56.8936949
638227,Lunegårdsvej,7752,32,8.5324585,56.8933568
638228,Lunegårdsvej,7752,33,8.5336344,56.8936901
638229,Lunegårdsvej,7752,34,8.5325759,56.8934038
638230,Lunegårdsvej,7752,35,8.533925,56.893711
638231,Lunegårdsvej,7752,36,8.532699,56.893348
638232,Lunegårdsvej,7752,37,8.5341929,56.8936949
638233,Lunegårdsvej,7752,38,8.5327866,56.8933854
638234,Lunegårdsvej,7752,40,8.5328923,56.8933451
638265,Lykkens Håb,7752,3,8.3618119,56.9201996
638266,Lykkens Håb,7752,6,8.363613,56.9197931
638267,Lykkens Håb,7752,10,8.3635791,56.9204999
638268,Lykkens Håb,7752,15,8.3632756,56.9209672
638269,Lykkens Håb,7752,17,8.3634414,56.9208174
638270,Lykkens Håb,7752,19,8.3638468,56.9208208
638271,Lykkens Håb,7752,21,8.3638787,56.9210894
638272,Lykkens Håb,7752,23,8.3635221,56.9211616
638273,Lykkens Håb,7752,25,8.3632071,56.9212643
638274,Lykkens Håb,7752,27,8.3633796,56.9215084
638275,Lykkens Håb,7752,29,8.3636895,56.9214436
638276,Lykkens Håb,7752,31,8.3640684,56.9213641
638277,Lykkens Håb,7752,33,8.3641242,56.921189
638278,Lykkens Håb,7752,35,8.3641704,56.9210455
638279,Lykkens Håb,7752,37,8.3642392,56.9208302
638280,Lykkens Håb,7752,39,8.3645074,56.9206597
638556,Marianes Vej,7752,1,8.5497317,56.8930449
638557,Marianes Vej,7752,2,8.546046,56.891034
638558,Marianes Vej,7752,3,8.550007,56.889079
638559,Marianes Vej,7752,4,8.547447,56.889866
638560,Marianes Vej,7752,5,8.551351,56.8871141
638561,Marievej,7752,1,8.5245171,56.891012
638562,Marievej,7752,2,8.5247258,56.8912441
638563,Marievej,7752,3,8.5241688,56.8909864
638564,Marievej,7752,4,8.5245298,56.8913176
638565,Marievej,7752,5,8.5239291,56.8909783
638566,Marievej,7752,6,8.5242613,56.8914156
638567,Marievej,7752,7,8.5236904,56.8910426
638568,Marievej,7752,8,8.5240754,56.8913057
638569,Marievej,7752,9,8.5234257,56.8911141
638570,Marievej,7752,10,8.5238328,56.891321
638731,Meldbjergvej,7752,1,8.597801,56.873067
638732,Meldbjergvej,7752,2,8.600257,56.86654
638733,Meldbjergvej,7752,3,8.5998758,56.8727469
638734,Meldbjergvej,7752,4,8.606049,56.868234
638735,Meldbjergvej,7752,9,8.603393,56.87167
638736,Meldbjergvej,7752,11,8.602066,56.869573
638737,Meldbjergvej,7752,13,8.609531,56.869365
638738,Meldbjergvej,7752,15,8.6130107,56.8673549
638764,Midholmvej,7752,1,8.5058252,56.9017826
638765,Midholmvej,7752,3,8.5085167,56.900404
638766,Midholmvej,7752,4,8.528767,56.89692
638767,Midholmvej,7752,5,8.5093619,56.9001041
638768,Midholmvej,7752,7,8.514666,56.898849
638769,Midholmvej,7752,9,8.517628,56.899845
638770,Midholmvej,7752,11,8.5248315,56.8989969
638771,Midholmvej,7752,13,8.5273974,56.8987054
638772,Midholmvej,7752,15,8.5299241,56.9008376
638773,Midholmvej,7752,17,8.5307995,56.902241
638774,Midholmvej,7752,19,8.530111,56.8974866
638775,Midholmvej,7752,21,8.5313303,56.8972489
638776,Midholmvej,7752,25,8.536087,56.896838
638817,Morten Nielsens Vej,7752,2,8.4427587,56.9012751
638818,Morten Nielsens Vej,7752,3,8.4451075,56.9005224
638819,Morten Nielsens Vej,7752,5,8.4453637,56.9002732
638820,Morten Nielsens Vej,7752,6,8.4451717,56.8998766
638821,Morten Nielsens Vej,7752,7,8.445913,56.90026
638822,Morten Nielsens Vej,7752,9,8.4460526,56.8996605
638823,Morten Nielsens Vej,7752,11,8.4456384,56.8993259
638870,Mosevej,7752,36,8.542076,56.914373
638873,Mosevej,7752,40,8.543174,56.913307
638880,Mosevej,7752,89,8.542641,56.915607
638960,Møgelvej,7752,1,8.57114,56.867728
638961,Møgelvej,7752,2A,8.572053,56.868208
638962,Møgelvej,7752,2B,8.572501,56.868395
638963,Møgelvej,7752,3,8.5731383,56.8709162
638964,Møgelvej,7752,4,8.57251,56.868658
638965,Møgelvej,7752,5,8.575771,56.872739
638966,Møgelvej,7752,6,8.572866,56.868741
638967,Møgelvej,7752,7,8.577772,56.87491
638968,Møgelvej,7752,8,8.57298,56.868975
638969,Møgelvej,7752,9,8.575822,56.876638
638970,Møgelvej,7752,10,8.573292,56.86886
638971,Møgelvej,7752,11,8.574525,56.879334
638972,Møgelvej,7752,13,8.57971,56.880039
638973,Møgelvej,7752,14,8.577432,56.873578
638974,Møgelvej,7752,15,8.5817624,56.8804668
638975,Møgelvej,7752,16,8.579668,56.877417
638976,Møgelvej,7752,17,8.581994,56.880781
638977,Møgelvej,7752,18,8.585815,56.880933
638978,Møgelvej,7752,19,8.579521,56.882343
638979,Møgelvej,7752,20,8.589624,56.882814
638980,Møgelvej,7752,21,8.58224,56.882075
638981,Møgelvej,7752,23,8.584584,56.882531
638982,Møgelvej,7752,24,8.586688,56.883554
638983,Møgelvej,7752,27,8.584887,56.882717
638984,Møgelvej,7752,29,8.585468,56.88309
638985,Møgelvej,7752,30,8.588372,56.884621
638986,Møgelvej,7752,32,8.5887811,56.8848543
638987,Møgelvej,7752,34A,8.588943,56.8849632
638988,Møgelvej,7752,34B,8.5890289,56.8850318
638989,Møgelvej,7752,34C,8.5891271,56.885133
638990,Møgelvej,7752,34D,8.5891898,56.8852058
638991,Møgelvej,7752,35,8.5878521,56.8845776
638992,Møgelvej,7752,36,8.5893829,56.8854679
638993,Møgelvej,7752,37A,8.588003,56.884722
638994,Møgelvej,7752,37B,8.5880824,56.8847893
638995,Møgelvej,7752,37C,8.5882571,56.8848852
638996,Møgelvej,7752,37D,8.5883295,56.8849552
638997,Møgelvej,7752,39,8.5884482,56.8852817
638998,Møgelvej,7752,39A,8.5879863,56.885151
638999,Møgelvej,7752,40,8.590003,56.8854918
639000,Møgelvej,7752,41,8.588874,56.885513
639001,Møgelvej,7752,42,8.589947,56.8859983
639002,Møgelvej,7752,43,8.5890721,56.8856107
639003,Møgelvej,7752,44,8.5901339,56.8861527
639004,Møgelvej,7752,45,8.5890296,56.885833
639005,Møgelvej,7752,46,8.590266,56.8863494
639006,Møgelvej,7752,47,8.5891844,56.8859067
639007,Møgelvej,7752,48,8.5904098,56.8864474
639008,Møgelvej,7752,49,8.5893559,56.8860007
639009,Møgelvej,7752,50,8.5905766,56.8866293
639010,Møgelvej,7752,51,8.5896033,56.8862748
639011,Møgelvej,7752,53,8.5898292,56.8865219
639012,Møgelvej,7752,59,8.5899442,56.8870047
639013,Møgelvej,7752,61,8.5905421,56.8871965
639014,Møgelvej,7752,63A,8.590701,56.887385
639015,Møgelvej,7752,63B,8.5907472,56.887442
639016,Møgelvej,7752,65,8.5908885,56.8875782
639017,Møgelvej,7752,66A,8.5918499,56.8870447
639018,Møgelvej,7752,67,8.59005,56.887612
639019,Møgelvej,7752,68,8.59385,56.8876649
639020,Møgelvej,7752,70,8.5912349,56.8867858
639021,Møgelvej,7752,72,8.5907528,56.8869323
639022,Møgelvej,7752,74,8.590802,56.8870696
639023,Møgelvej,7752,76,8.5910094,56.8872133
639024,Møgelvej,7752,77,8.5910465,56.8877351
639025,Møgelvej,7752,78,8.5910928,56.8874069
639026,Møgelvej,7752,79,8.5913014,56.8880301
639027,Møgelvej,7752,80,8.5912288,56.887561
639028,Møgelvej,7752,81,8.5914286,56.8881877
639029,Møgelvej,7752,82,8.5913866,56.8877314
639030,Møgelvej,7752,83,8.5915782,56.8883293
639031,Møgelvej,7752,84,8.591645,56.8879074
639032,Møgelvej,7752,85,8.591739,56.888529
639033,Møgelvej,7752,86,8.5917263,56.8881264
639034,Møgelvej,7752,87,8.5920417,56.8888393
639035,Møgelvej,7752,88,8.5920623,56.888394
639036,Møgelvej,7752,89,8.5920404,56.8890001
639037,Møgelvej,7752,90,8.592596,56.8882751
639038,Møgelvej,7752,91,8.5911985,56.8891441
639039,Møgelvej,7752,92,8.5921454,56.8885667
639040,Møgelvej,7752,93,8.5924584,56.8894175
639041,Møgelvej,7752,93A,8.5919661,56.8892583
639042,Møgelvej,7752,94,8.5924342,56.8888636
639043,Møgelvej,7752,95,8.592866,56.889751
639044,Møgelvej,7752,96,8.593329,56.888714
639045,Møgelvej,7752,99,8.5931164,56.8901213
639046,Møgelvej,7752,100,8.5926371,56.8890575
639047,Møgelvej,7752,101,8.5926131,56.8901002
639048,Møgelvej,7752,102A,8.592793,56.889165
639049,Møgelvej,7752,102B,8.5928508,56.8892228
639050,Møgelvej,7752,104,8.5935914,56.889831
639051,Møgelvej,7752,106,8.5937687,56.8899863
639052,Møgelvej,7752,108,8.5939396,56.890147
639053,Møgelvej,7752,110,8.5942212,56.8903808
639054,Møgelvej,7752,112,8.5947463,56.8903742
639055,Møgelvej,7752,114,8.5955141,56.8903284
639056,Møgelvej,7752,116,8.5958664,56.8903107
639057,Møgelvej,7752,118,8.595991,56.8905705
639058,Møgelvej,7752,120,8.5957607,56.8909138
639059,Møgelvej,7752,123,8.593515,56.890297
639060,Møgelvej,7752,124,8.5949271,56.8907052
639061,Møgelvej,7752,125,8.5935956,56.8904734
639062,Møgelvej,7752,126,8.5948346,56.8910263
639063,Møgelvej,7752,127,8.5930582,56.8905543
639064,Møgelvej,7752,128,8.5952031,56.8909946
639065,Møgelvej,7752,130,8.5965503,56.8903857
639066,Møgelvej,7752,132,8.5950646,56.891406
639067,Møgelvej,7752,134,8.5953729,56.8913868
639068,Møgelvej,7752,136,8.5956685,56.8913563
639069,Møgelvej,7752,137,8.593504,56.890788
639070,Møgelvej,7752,138,8.5961028,56.8913267
639071,Møgelvej,7752,139,8.593909,56.89069
639072,Møgelvej,7752,140,8.596679,56.891373
639073,Møgelvej,7752,144,8.595534,56.891739
639074,Møgelvej,7752,144A,8.595146,56.891658
639075,Møgelvej,7752,146,8.5954517,56.891988
639076,Møgelvej,7752,150,8.595545,56.892519
639077,Møgelvej,7752,154,8.596678,56.892539
639078,Møgelvej,7752,158,8.5956012,56.8929199
639079,Møgelvej,7752,160,8.595552,56.893132
639080,Møgelvej,7752,161,8.594573,56.891569
639081,Møgelvej,7752,163,8.594766,56.891916
639082,Møgelvej,7752,165,8.594828,56.892301
639083,Møgelvej,7752,167,8.595026,56.89281
639084,Møgelvej,7752,169,8.5951189,56.8930736
639085,Møgelvej,7752,170,8.5965171,56.895056
639086,Møgelvej,7752,171,8.5951887,56.8933038
639087,Møgelvej,7752,171A,8.594986,56.893515
639088,Møgelvej,7752,172,8.5966502,56.8952577
639089,Møgelvej,7752,173,8.595388,56.893743
639090,Møgelvej,7752,174,8.599106,56.898604
639091,Møgelvej,7752,176,8.599634,56.899202
639092,Møgelvej,7752,177,8.593896,56.894551
639093,Møgelvej,7752,178,8.599904,56.899499
639094,Møgelvej,7752,179,8.594276,56.895568
639095,Møgelvej,7752,181,8.5903775,56.8969966
639096,Møgelvej,7752,183,8.5966792,56.8972529
639097,Møgelvej,7752,185,8.592317,56.897857
639098,Møgelvej,7752,187,8.5971559,56.8975649
639162,Møllestræde,7752,1,8.5248735,56.8917438
639163,Møllestræde,7752,2,8.5248351,56.8919839
639164,Møllestræde,7752,3,8.5247083,56.8917829
639165,Møllestræde,7752,4,8.5245914,56.8919947
639166,Møllestræde,7752,5,8.52444,56.891835
639167,Møllestræde,7752,7A,8.5241718,56.8918156
639168,Møllestræde,7752,7B,8.5239438,56.891836
639169,Møllestræde,7752,9,8.5235358,56.8917518
639300,Nabevej,7752,1,8.45568,56.873262
639301,Nabevej,7752,2,8.4606297,56.8746927
639302,Nabevej,7752,3,8.455098,56.875359
639303,Nabevej,7752,4,8.4553837,56.8750984
639350,Niels Juels Vej,7752,1,8.3672688,56.9187949
639351,Niels Juels Vej,7752,2,8.3678368,56.9187066
639352,Niels Juels Vej,7752,7,8.3669479,56.9195364
639353,Niels Juels Vej,7752,9,8.3671672,56.9196846
639354,Niels Juels Vej,7752,12,8.3681703,56.9192235
639355,Niels Juels Vej,7752,14,8.3689444,56.919141
639356,Niels Juels Vej,7752,16,8.3686411,56.9195341
639357,Niels Juels Vej,7752,18A,8.3681373,56.9196172
639358,Niels Juels Vej,7752,18B,8.3683459,56.9197262
639359,Niels Juels Vej,7752,20,8.3679471,56.9200779
639360,Nordmarksvej,7752,1,8.5291946,56.8947751
639361,Nordmarksvej,7752,2,8.528747,56.893728
639362,Nordmarksvej,7752,4,8.529093,56.894265
639363,Nordmarksvej,7752,5,8.5297908,56.8955596
639364,Nordmarksvej,7752,6,8.529591,56.894152
639365,Nordmarksvej,7752,8,8.530245,56.894264
639621,Nyvangsvej,7752,1,8.501992,56.875556
639622,Nyvangsvej,7752,1A,8.512591,56.879532
639623,Nyvangsvej,7752,2,8.503578,56.882828
639624,Nyvangsvej,7752,3,8.498425,56.883295
639625,Nyvangsvej,7752,4,8.507375,56.881799
639626,Nyvangsvej,7752,5,8.4999472,56.8854424
639627,Nyvangsvej,7752,6,8.504062,56.884249
639628,Nyvangsvej,7752,8,8.504426,56.885964
639629,Nyvangsvej,7752,12,8.504893,56.888562
639630,Nyvej,7752,1,8.5296001,56.8921368
639631,Nyvej,7752,1A,8.5298685,56.8922516
639632,Nyvej,7752,2,8.5293665,56.8922771
639633,Nyvej,7752,2A,8.5287172,56.8921344
639634,Nyvej,7752,3,8.5296248,56.8919793
639635,Nyvej,7752,4,8.5292149,56.8921448
639636,Nyvej,7752,5,8.5299224,56.8915475
639637,Nyvej,7752,6,8.5291225,56.8919694
639697,Nørgårdsvej,7752,2,8.590631,56.88818
639698,Nørgårdsvej,7752,3,8.589967,56.887982
639699,Nørgårdsvej,7752,4,8.590125,56.888228
639700,Nørgårdsvej,7752,5,8.589416,56.888092
639701,Nørgårdsvej,7752,6,8.589775,56.888291
639702,Nørgårdsvej,7752,8,8.589465,56.888347
639703,Nørgårdsvej,7752,10,8.58915,56.888362
639704,Nørhå Byvej,7752,1,8.441296,56.90176
639705,Nørhå Byvej,7752,3,8.440972,56.901864
639706,Nørhå Byvej,7752,5,8.440694,56.901966
639707,Nørhå Byvej,7752,6,8.439548,56.903166
639708,Nørhå Byvej,7752,7,8.44031,56.902094
639709,Nørhå Byvej,7752,8,8.43976,56.902969
639710,Nørhå Byvej,7752,9,8.440077,56.902187
639711,Nørhå Byvej,7752,10,8.439441,56.902714
639712,Nørhå Byvej,7752,11,8.439415,56.902447
639713,Nørhå Byvej,7752,12,8.439036,56.902977
639714,Nørhå Byvej,7752,15,8.436501,56.903807
639715,Nørhå Byvej,7752,16,8.437347,56.903868
639716,Nørhå Byvej,7752,17,8.433483,56.905266
639717,Nørhå Byvej,7752,18,8.437046,56.904274
639718,Nørhå Byvej,7752,19,8.432889,56.905419
639719,Nørhå Byvej,7752,21,8.4317829,56.9051962
639720,Nørhå Byvej,7752,22,8.435428,56.905072
639721,Nørhå Byvej,7752,25,8.4295609,56.9062325
639722,Nørhå Byvej,7752,27,8.428531,56.905138
639723,Nørhå Byvej,7752,28,8.430344,56.906404
639724,Nørhå Byvej,7752,29,8.428549,56.905996
639725,Nørhå Byvej,7752,31,8.426283,56.906268
639726,Nørhå Byvej,7752,32,8.429208,56.906427
639727,Nørhå Byvej,7752,36,8.427903,56.906448
639728,Nørhå Byvej,7752,38,8.4274954,56.90643
639729,Nørhå Byvej,7752,42,8.4273387,56.9086889
639730,Nørhå Byvej,7752,44,8.426364,56.906497
639731,Nørhå Byvej,7752,46,8.426045,56.90711
639732,Nørhå Byvej,7752,48,8.426047,56.906565
639733,Nørhå Byvej,7752,50,8.425297,56.906723
639734,Nørhågårdsvej,7752,5,8.425885,56.899194
639735,Nørhågårdsvej,7752,6,8.428332,56.899392
639736,Nørhågårdsvej,7752,7,8.4214379,56.8988873
639737,Nørhågårdsvej,7752,8,8.426296,56.89953
639738,Nørhågårdsvej,7752,9,8.412638,56.898084
639739,Nørhågårdsvej,7752,10,8.425188,56.899619
639740,Nørhågårdsvej,7752,11,8.413096,56.895103
639741,Nørhågårdsvej,7752,12,8.422635,56.899895
639742,Nørhågårdsvej,7752,13,8.41346,56.8950554
639743,Nørhågårdsvej,7752,18,8.391137,56.895294
639998,Oddesundvej,7752,95,8.602277,56.8981
639999,Oddesundvej,7752,97,8.611608,56.896577
640000,Oddesundvej,7752,99,8.618732,56.897652
640001,Oddesundvej,7752,101,8.6145133,56.8943309
640002,Oddesundvej,7752,105,8.600949,56.89754
640003,Oddesundvej,7752,107,8.599388,56.896363
640004,Oddesundvej,7752,109,8.606972,56.895025
640005,Oddesundvej,7752,111,8.5992891,56.8939725
640006,Oddesundvej,7752,113,8.599596,56.892179
640007,Oddesundvej,7752,115,8.601686,56.891112
640008,Oddesundvej,7752,119,8.5981348,56.8906743
640009,Oddesundvej,7752,121,8.597101,56.888128
640010,Oddesundvej,7752,121A,8.596891,56.887917
640011,Oddesundvej,7752,123,8.596189,56.88441
640012,Oddesundvej,7752,125,8.595125,56.882239
640013,Oddesundvej,7752,127,8.571647,56.867219
640014,Oddesundvej,7752,129,8.571198,56.866585
640015,Oddesundvej,7752,131,8.5702179,56.8653348
640016,Oddesundvej,7752,135,8.564807,56.862808
640018,Oddesundvej,7752,137,8.561904,56.861158
640019,Oddesundvej,7752,139,8.558672,56.857507
640021,Oddesundvej,7752,141,8.5500633,56.8576801
640023,Oddesundvej,7752,143,8.546904,56.85635
640034,Oddesundvej,7752,166,8.5982387,56.8959125
640035,Oddesundvej,7752,172,8.596288,56.892151
640036,Oddesundvej,7752,176,8.591061,56.878073
640037,Oddesundvej,7752,178,8.579158,56.871211
640038,Oddesundvej,7752,180,8.570381,56.867102
640039,Oddesundvej,7752,182,8.561594,56.862966
640040,Oddesundvej,7752,184,8.5487819,56.8582504
640041,Oddesundvej,7752,186,8.539388,56.855545
640042,Oddesundvej,7752,188,8.549927,56.858235
640604,Prøvensvej,7752,1,8.3593019,56.9200434
640605,Prøvensvej,7752,2,8.3601509,56.9198974
640606,Prøvensvej,7752,3,8.3588547,56.9202236
640607,Prøvensvej,7752,4,8.3602486,56.9200897
640608,Prøvensvej,7752,5,8.3590318,56.920547
640609,Prøvensvej,7752,6,8.3599,56.920235
640610,Prøvensvej,7752,7,8.3595303,56.9203707
640611,Prøvensvej,7752,10,8.3605918,56.9203671
640612,Prøvensvej,7752,11,8.3598883,56.9207941
640613,Prøvensvej,7752,12,8.3608367,56.9205589
640614,Prøvensvej,7752,14,8.3603508,56.9208117
640615,Prøvensvej,7752,16,8.36107,56.9208178
640616,Prøvensvej,7752,17,8.3600405,56.9211633
640617,Prøvensvej,7752,18,8.3610877,56.9208684
640618,Prøvensvej,7752,20,8.3610989,56.9209284
640619,Prøvensvej,7752,22,8.3611098,56.9209809
640620,Prøvensvej,7752,24,8.3611182,56.9210337
640621,Prøvensvej,7752,26,8.361124,56.9210822
640622,Prøvensvej,7752,28,8.3605953,56.9211514
640862,Rosenvænget,7752,1,8.5219951,56.8917322
640863,Rosenvænget,7752,2,8.5222445,56.8920186
640864,Rosenvænget,7752,3,8.5215873,56.8917729
640865,Rosenvænget,7752,4,8.5218516,56.8920451
640866,Rosenvænget,7752,5,8.5208976,56.8918013
640867,Rosenvænget,7752,6,8.5213736,56.892133
640868,Rosenvænget,7752,8,8.5211312,56.8920684
640869,Rosenvænget,7752,8A,8.5209215,56.8920727
640870,Rosenvænget,7752,8B,8.520995,56.892152
640871,Rosenvænget,7752,8C,8.5210904,56.8922549
640872,Rosenvænget,7752,9,8.5204382,56.8917984
640873,Rosenvænget,7752,10,8.5204037,56.8921075
640874,Rosenvænget,7752,12,8.5199399,56.8921286
640875,Rosenvænget,7752,14,8.5195723,56.8921068
640876,Rosenvænget,7752,15,8.5199753,56.8917826
640877,Rosenvænget,7752,16,8.5192086,56.8921422
640878,Rosenvænget,7752,17,8.5198947,56.8915824
640879,Rosenvænget,7752,18,8.518708,56.8921262
640880,Rosenvænget,7752,19,8.519841,56.8913146
640881,Rosenvænget,7752,20,8.5183253,56.892171
640882,Rosenvænget,7752,21,8.5192828,56.8913768
640883,Rosenvænget,7752,22,8.5178774,56.8921671
640884,Rosenvænget,7752,23,8.5193861,56.891562
640885,Rosenvænget,7752,24,8.5173339,56.8921832
640886,Rosenvænget,7752,25,8.5193021,56.8917883
640887,Rosenvænget,7752,26,8.5170053,56.8921551
640888,Rosenvænget,7752,27,8.5188339,56.8917975
640889,Rosenvænget,7752,28,8.5165223,56.8921526
640890,Rosenvænget,7752,29,8.5187907,56.8915934
640891,Rosenvænget,7752,30,8.5160336,56.8921321
640892,Rosenvænget,7752,31,8.5187408,56.8913255
640893,Rosenvænget,7752,32,8.5156445,56.8920959
640894,Rosenvænget,7752,33,8.5182417,56.8913338
640895,Rosenvænget,7752,35,8.5182445,56.8915858
640896,Rosenvænget,7752,37,8.5182427,56.8917676
640897,Rosenvænget,7752,39,8.5177961,56.8918132
640898,Rosenvænget,7752,41,8.5177563,56.8915415
640899,Rosenvænget,7752,43,8.5176553,56.8913145
640900,Rosenvænget,7752,45,8.5172371,56.8913242
640901,Rosenvænget,7752,47,8.5171467,56.8915903
640902,Rosenvænget,7752,49,8.5170908,56.8917926
640903,Rosenvænget,7752,51,8.5167833,56.8917818
640904,Rosenvænget,7752,53,8.5167293,56.8915665
640905,Rosenvænget,7752,55,8.516521,56.891316
640906,Rosenvænget,7752,57,8.5160718,56.8913347
640907,Rosenvænget,7752,59,8.5160229,56.8915771
640908,Rosenvænget,7752,61,8.5160889,56.8917601
640909,Rosenvænget,7752,63,8.5156129,56.8917496
640910,Rosenvænget,7752,65,8.515659,56.8915453
640911,Rosenvænget,7752,67,8.5156345,56.8912838
640912,Rosenvænget,7752,69,8.5150304,56.891331
640913,Rosenvænget,7752,71,8.5150354,56.8915408
640914,Rosenvænget,7752,73,8.514962,56.891769
640915,Rosenvænget,7752,75,8.5154237,56.8911772
641028,Rævebakken,7752,7,8.608628,56.8835716
641055,Røde Anes Vej,7752,1,8.4951169,56.8920599
641056,Røde Anes Vej,7752,2,8.4967392,56.8924167
641057,Røde Anes Vej,7752,3,8.495723,56.893605
641058,Røde Anes Vej,7752,4,8.4966097,56.8926486
641059,Røde Anes Vej,7752,5,8.496471,56.898253
641060,Røde Anes Vej,7752,6,8.500666,56.898714
641061,Røde Anes Vej,7752,7,8.496684,56.899631
641063,Røde Anes Vej,7752,9,8.4962334,56.9008153
641065,Røde Anes Vej,7752,11,8.4970174,56.9031183
641067,Røde Anes Vej,7752,13,8.4970615,56.9036532
641204,Sarasvej,7752,1,8.3533668,56.9233891
641205,Sarasvej,7752,2,8.3545865,56.9234201
641206,Sarasvej,7752,4,8.354861,56.923931
641207,Sarasvej,7752,5,8.3539859,56.9238566
641208,Sarasvej,7752,6,8.3546093,56.9237583
641209,Sarasvej,7752,7,8.353351,56.9239138
641210,Sarasvej,7752,8,8.3549855,56.9235023
641211,Sarasvej,7752,9,8.3528536,56.9237657
641212,Sarasvej,7752,10,8.3554369,56.9235496
641213,Sarasvej,7752,11,8.3531172,56.9241516
641214,Sarasvej,7752,12,8.3556958,56.9233998
641215,Sarasvej,7752,14,8.3560904,56.9233639
641216,Sarasvej,7752,15,8.3541734,56.9241619
641217,Sarasvej,7752,16,8.3565818,56.9233017
641218,Sarasvej,7752,17,8.354931,56.9244423
641219,Sarasvej,7752,21,8.3556308,56.9246266
641220,Sarasvej,7752,23,8.3549202,56.9249037
641221,Sarasvej,7752,25,8.3552388,56.9250668
641222,Sarasvej,7752,27,8.3557598,56.9252023
641223,Sarasvej,7752,28,8.3563629,56.9241643
641224,Sarasvej,7752,30,8.3557813,56.9242553
641225,Sarasvej,7752,31,8.3558384,56.9249367
641226,Sarasvej,7752,33,8.3564184,56.9246725
641227,Sarasvej,7752,35,8.356981,56.9246758
641228,Sarasvej,7752,37,8.3574956,56.924606
641229,Sarasvej,7752,39,8.357903,56.924936
641230,Sarasvej,7752,41,8.357365,56.924989
641231,Sarasvej,7752,43,8.356915,56.925114
641401,Sigurd Müllers Vej,7752,10,8.5253874,56.8892832
641402,Sigurd Müllers Vej,7752,11,8.527084,56.88783
641403,Sigurd Müllers Vej,7752,13A,8.5233357,56.8885571
641404,Sigurd Müllers Vej,7752,15,8.5225846,56.8870882
641571,Skadholmvej,7752,1,8.5111898,56.8996156
641572,Skadholmvej,7752,2,8.5148506,56.9046676
641573,Skadholmvej,7752,3,8.5110915,56.9015731
641574,Skadholmvej,7752,3A,8.5109595,56.9020397
641575,Skadholmvej,7752,5,8.5106686,56.9030666
641576,Skadholmvej,7752,7,8.5079794,56.9051977
641577,Skadholmvej,7752,11,8.5159848,56.907709
641578,Skadholmvej,7752,13,8.5205596,56.905782
641924,Skyumbjergevej,7752,1,8.554702,56.854574
641925,Skyumbjergevej,7752,3,8.556299,56.854984
641969,Skyumvej,7752,71,8.6219132,56.8692392
641970,Skyumvej,7752,72,8.613407,56.864555
641971,Skyumvej,7752,73,8.621274,56.867416
641972,Skyumvej,7752,75,8.617266,56.862594
641973,Skyumvej,7752,76,8.611639,56.861936
641974,Skyumvej,7752,77,8.62039,56.863149
641975,Skyumvej,7752,78,8.603774,56.856567
641976,Skyumvej,7752,79,8.620391,56.862252
641977,Skyumvej,7752,81,8.6249917,56.8634242
641978,Skyumvej,7752,83,8.62028,56.859479
641979,Skyumvej,7752,89,8.606641,56.8542891
642034,Snedstedvej,7752,1A,8.5951509,56.889209
642035,Snedstedvej,7752,1B,8.5950856,56.8890659
642036,Snedstedvej,7752,2,8.5954445,56.8900269
642037,Snedstedvej,7752,3A,8.5950883,56.8888166
642038,Snedstedvej,7752,3B,8.5948439,56.8888489
642039,Snedstedvej,7752,5A,8.5946374,56.8888501
642040,Snedstedvej,7752,5B,8.5944089,56.8888822
642041,Snedstedvej,7752,6,8.595663,56.889501
642042,Snedstedvej,7752,7A,8.5946125,56.8890309
642043,Snedstedvej,7752,7B,8.5946626,56.8891349
642044,Snedstedvej,7752,9A,8.5947213,56.8892578
642045,Snedstedvej,7752,10,8.5949255,56.8901057
642046,Snedstedvej,7752,12,8.5947157,56.8898694
642047,Snedstedvej,7752,13,8.5943077,56.8893178
642048,Snedstedvej,7752,14,8.5946781,56.889591
642049,Snedstedvej,7752,15A,8.5936966,56.889278
642050,Snedstedvej,7752,15B,8.5933421,56.8893026
642051,Snedstedvej,7752,16,8.5942729,56.8895632
642052,Snedstedvej,7752,17,8.593117,56.889405
642053,Snedstedvej,7752,18,8.5938856,56.8895563
642054,Snedstedvej,7752,20,8.5937573,56.8896234
642055,Snedstedvej,7752,21,8.5914938,56.8895812
642056,Snedstedvej,7752,22,8.5936043,56.8895431
642057,Snedstedvej,7752,23,8.5911812,56.8896464
642058,Snedstedvej,7752,25,8.5909442,56.8896783
642059,Snedstedvej,7752,26,8.5924832,56.8896569
642060,Snedstedvej,7752,27,8.5905455,56.8892297
642061,Snedstedvej,7752,29,8.5905036,56.8895794
642062,Snedstedvej,7752,30,8.5918398,56.8897394
642063,Snedstedvej,7752,31,8.5904739,56.889715
642064,Snedstedvej,7752,32,8.5916722,56.8897605
642065,Snedstedvej,7752,33,8.5901348,56.8897702
642066,Snedstedvej,7752,34,8.5914297,56.8898282
642067,Snedstedvej,7752,35,8.5896649,56.889831
642068,Snedstedvej,7752,36,8.5911326,56.8898769
642069,Snedstedvej,7752,37,8.5892856,56.8898505
642070,Snedstedvej,7752,38,8.590801,56.889922
642071,Snedstedvej,7752,61,8.5835551,56.8897181
642072,Snedstedvej,7752,62,8.5903608,56.8899872
642073,Snedstedvej,7752,63,8.5766365,56.8882747
642074,Snedstedvej,7752,64,8.5900067,56.8900216
642075,Snedstedvej,7752,65,8.5737657,56.8909093
642076,Snedstedvej,7752,66,8.5897979,56.8900528
642077,Snedstedvej,7752,67,8.5729884,56.8882007
642078,Snedstedvej,7752,68,8.589357,56.890119
642079,Snedstedvej,7752,69,8.5698025,56.8913169
642080,Snedstedvej,7752,71,8.5688334,56.8893203
642081,Snedstedvej,7752,73,8.5624857,56.8906314
642082,Snedstedvej,7752,75,8.5575121,56.8908093
642083,Snedstedvej,7752,75A,8.5593009,56.8923752
642084,Snedstedvej,7752,77,8.5568512,56.892145
642085,Snedstedvej,7752,79,8.5538853,56.8929831
642086,Snedstedvej,7752,81,8.5542723,56.8914449
642087,Snedstedvej,7752,92,8.5859241,56.8904942
642088,Snedstedvej,7752,93,8.5467319,56.8933457
642089,Snedstedvej,7752,94,8.5838071,56.8907251
642090,Snedstedvej,7752,96,8.584117,56.892195
642091,Snedstedvej,7752,98,8.583665,56.891067
642092,Snedstedvej,7752,99,8.5389907,56.8923477
642093,Snedstedvej,7752,100,8.5777246,56.8909864
642094,Snedstedvej,7752,102,8.5784241,56.8934706
642095,Snedstedvej,7752,104,8.5741103,56.8957888
642096,Snedstedvej,7752,106,8.5685305,56.8937598
642097,Snedstedvej,7752,108,8.5661356,56.8921595
642098,Snedstedvej,7752,110,8.5613869,56.8944071
642099,Snedstedvej,7752,112,8.5560777,56.8932966
642100,Snedstedvej,7752,114,8.5543769,56.8934453
642101,Snedstedvej,7752,116,8.552584,56.893444
642102,Snedstedvej,7752,118,8.5499744,56.8936242
642103,Snedstedvej,7752,120,8.5495482,56.893546
642104,Snedstedvej,7752,122,8.5491263,56.8934582
642105,Snedstedvej,7752,124,8.5484344,56.8935384
642106,Snedstedvej,7752,126,8.548098,56.893666
642107,Snedstedvej,7752,128,8.5472849,56.8935486
642108,Snedstedvej,7752,130,8.5467837,56.893639
642109,Snedstedvej,7752,132,8.5464874,56.8937083
642110,Snedstedvej,7752,136,8.5418199,56.8947956
642111,Snedstedvej,7752,138,8.5407389,56.8942231
642112,Snedstedvej,7752,140,8.541028,56.8950813
642113,Snedstedvej,7752,142,8.5362773,56.8932044
642114,Snedstedvej,7752,144,8.5357572,56.8931942
642391,Stagstrup Skolevej,7752,2,8.585522,56.875332
642392,Stagstrup Skolevej,7752,3,8.585067,56.874882
642393,Stagstrup Skolevej,7752,5,8.584128,56.874717
642394,Stagstrup Skolevej,7752,7,8.583449,56.875238
642395,Stagstrup Skolevej,7752,9,8.582749,56.875197
642396,Stagstrup Skolevej,7752,11,8.580355,56.876205
642397,Stagstrup Skolevej,7752,13,8.579921,56.87608
642405,Stampemøllevej,7752,3,8.525095,56.906112
642406,Stampemøllevej,7752,4,8.5226339,56.9091869
642407,Stampemøllevej,7752,6,8.524271,56.905558
642449,Stenbjerg Kirke Vej,7752,6,8.367433,56.918369
642450,Stenbjerg Kirke Vej,7752,8,8.36673,56.918659
642451,Stenbjerg Kirke Vej,7752,9,8.367685,56.918149
642452,Stenbjerg Kirke Vej,7752,10,8.365433,56.918658
642453,Stenbjerg Kirke Vej,7752,10A,8.366042,56.918809
642454,Stenbjerg Kirke Vej,7752,11,8.3673615,56.9181684
642455,Stenbjerg Kirke Vej,7752,13,8.367051,56.918183
642456,Stenbjerg Kirke Vej,7752,14,8.362537,56.919559
642457,Stenbjerg Kirke Vej,7752,14A,8.36251,56.919444
642458,Stenbjerg Kirke Vej,7752,15,8.366721,56.918195
642459,Stenbjerg Kirke Vej,7752,16,8.362041,56.919599
642460,Stenbjerg Kirke Vej,7752,18,8.361156,56.919644
642461,Stenbjerg Kirke Vej,7752,19,8.365724,56.916917
642462,Stenbjerg Kirke Vej,7752,20,8.3605541,56.9198184
642463,Stenbjerg Kirke Vej,7752,21,8.36533,56.918143
642464,Stenbjerg Kirke Vej,7752,25,8.363796,56.918602
642465,Stenbjerg Kirke Vej,7752,27,8.362835,56.918931
642466,Stenbjerg Kirke Vej,7752,28,8.358387,56.920442
642467,Stenbjerg Kirke Vej,7752,30,8.358512,56.920737
642468,Stenbjerg Kirke Vej,7752,32,8.358599,56.920894
642469,Stenbjerg Kirke Vej,7752,33,8.362581,56.919082
642470,Stenbjerg Kirke Vej,7752,34,8.35868,56.921148
642471,Stenbjerg Kirke Vej,7752,35,8.361791,56.919355
642472,Stenbjerg Kirke Vej,7752,36,8.358636,56.921284
642473,Stenbjerg Kirke Vej,7752,41,8.359207,56.919502
642474,Stenbjerg Kirke Vej,7752,42,8.358408,56.92157
642475,Stenbjerg Kirke Vej,7752,43,8.359186,56.919235
642476,Stenbjerg Kirke Vej,7752,44A,8.358137,56.9218299
642477,Stenbjerg Kirke Vej,7752,44B,8.3581623,56.9217381
642478,Stenbjerg Kirke Vej,7752,45,8.358946,56.919128
642479,Stenbjerg Kirke Vej,7752,46,8.357766,56.922066
642480,Stenbjerg Kirke Vej,7752,47B,8.358743,56.919433
642481,Stenbjerg Kirke Vej,7752,47C,8.358881,56.919639
642482,Stenbjerg Kirke Vej,7752,48,8.35748,56.922201
642483,Stenbjerg Kirke Vej,7752,49,8.35911,56.919791
642484,Stenbjerg Kirke Vej,7752,50,8.3571962,56.9223541
642485,Stenbjerg Kirke Vej,7752,52,8.3568037,56.922329
642486,Stenbjerg Kirke Vej,7752,53,8.357822,56.920162
642487,Stenbjerg Kirke Vej,7752,54,8.357173,56.922707
642488,Stenbjerg Kirke Vej,7752,55A,8.357875,56.920296
642489,Stenbjerg Kirke Vej,7752,55B,8.357891,56.920337
642490,Stenbjerg Kirke Vej,7752,56,8.356431,56.922415
642491,Stenbjerg Kirke Vej,7752,57,8.358025,56.920489
642492,Stenbjerg Kirke Vej,7752,60,8.356008,56.922511
642493,Stenbjerg Kirke Vej,7752,62,8.35578,56.922569
642494,Stenbjerg Kirke Vej,7752,64,8.35542,56.922657
642495,Stenbjerg Kirke Vej,7752,66,8.354955,56.922771
642496,Stenbjerg Kirke Vej,7752,69,8.358085,56.920557
642497,Stenbjerg Kirke Vej,7752,71,8.35817,56.920797
642498,Stenbjerg Kirke Vej,7752,73,8.3576,56.920737
642499,Stenbjerg Kirke Vej,7752,74,8.35274,56.92344
642500,Stenbjerg Kirke Vej,7752,76,8.352501,56.923878
642501,Stenbjerg Kirke Vej,7752,77,8.3568164,56.9208284
642502,Stenbjerg Kirke Vej,7752,78,8.351982,56.92363
642503,Stenbjerg Kirke Vej,7752,80,8.351502,56.923773
642504,Stenbjerg Kirke Vej,7752,81,8.357795,56.921327
642505,Stenbjerg Kirke Vej,7752,82,8.351058,56.923895
642506,Stenbjerg Kirke Vej,7752,83,8.357768,56.921647
642507,Stenbjerg Kirke Vej,7752,84,8.350701,56.923984
642508,Stenbjerg Kirke Vej,7752,85,8.357546,56.921865
642509,Stenbjerg Kirke Vej,7752,86,8.350397,56.92407
642510,Stenbjerg Kirke Vej,7752,87,8.357124,56.921987
642511,Stenbjerg Kirke Vej,7752,88,8.349976,56.924172
642512,Stenbjerg Kirke Vej,7752,89,8.356715,56.922106
642513,Stenbjerg Kirke Vej,7752,90,8.349585,56.924267
642514,Stenbjerg Kirke Vej,7752,91,8.3563332,56.9222174
642515,Stenbjerg Kirke Vej,7752,92,8.349027,56.924402
642516,Stenbjerg Kirke Vej,7752,93,8.355992,56.922269
642517,Stenbjerg Kirke Vej,7752,94,8.348679,56.924493
642518,Stenbjerg Kirke Vej,7752,95,8.3557299,56.922335
642519,Stenbjerg Kirke Vej,7752,96,8.34687,56.925386
642520,Stenbjerg Kirke Vej,7752,99,8.354548,56.922635
642521,Stenbjerg Kirke Vej,7752,101,8.354151,56.922774
642522,Stenbjerg Kirke Vej,7752,103,8.353653,56.92295
642523,Stenbjerg Kirke Vej,7752,105,8.353246,56.922819
642524,Stenbjerg Kirke Vej,7752,117,8.3460205,56.9253377
642525,Stenbjerg Kirke Vej,7752,127,8.34337,56.926563
642526,Stenbjergvej,7752,2,8.365377,56.921938
642527,Stenbjergvej,7752,2A,8.339068,56.928119
642528,Stenbjergvej,7752,3,8.3551573,56.9271158
642529,Stenbjergvej,7752,4,8.366803,56.922584
642530,Stenbjergvej,7752,6,8.3976683,56.9102686
642531,Stenbjergvej,7752,7A,8.37293,56.920153
642532,Stenbjergvej,7752,9,8.376601,56.918407
642533,Stenbjergvej,7752,10,8.392466,56.910966
642534,Stenbjergvej,7752,12,8.393416,56.910816
642535,Stenbjergvej,7752,13,8.4223752,56.9076829
642536,Stenbjergvej,7752,14,8.396846,56.910272
642537,Stenbjergvej,7752,15,8.423503,56.907098
642538,Stenbjergvej,7752,16,8.397201,56.910216
642539,Stenbjergvej,7752,20B,8.399729,56.906375
642540,Stenbjergvej,7752,21,8.442399,56.899817
642541,Stenbjergvej,7752,22,8.4094253,56.9082778
642542,Stenbjergvej,7752,25,8.4513212,56.8985851
642543,Stenbjergvej,7752,27,8.45806,56.898248
642544,Stenbjergvej,7752,28,8.414957,56.9081
642545,Stenbjergvej,7752,30,8.4165696,56.9070752
642546,Stenbjergvej,7752,31,8.470732,56.899925
642547,Stenbjergvej,7752,33,8.472613,56.899918
642548,Stenbjergvej,7752,34,8.423825,56.906273
642549,Stenbjergvej,7752,35,8.467845,56.896714
642550,Stenbjergvej,7752,37,8.472625,56.895941
642551,Stenbjergvej,7752,38,8.444971,56.898763
642552,Stenbjergvej,7752,39,8.4743786,56.8958382
642553,Stenbjergvej,7752,41,8.481363,56.895109
642554,Stenbjergvej,7752,42,8.449587,56.893999
642555,Stenbjergvej,7752,44,8.458977,56.897397
642556,Stenbjergvej,7752,49,8.484941,56.894435
642557,Stenbjergvej,7752,50,8.469553,56.895908
642558,Stenbjergvej,7752,51,8.486658,56.898234
642559,Stenbjergvej,7752,55,8.4888963,56.893472
642560,Stenbjergvej,7752,56,8.493368,56.891505
642561,Stenbjergvej,7752,58,8.492749,56.889502
642562,Stenbjergvej,7752,61,8.555593,56.888151
642563,Stenbjergvej,7752,62,8.498418,56.890246
642564,Stenbjergvej,7752,63,8.563888,56.887687
642565,Stenbjergvej,7752,64,8.512758,56.885507
642566,Stenbjergvej,7752,65,8.570878,56.887666
642567,Stenbjergvej,7752,65A,8.5734161,56.8869422
642568,Stenbjergvej,7752,66,8.514304,56.885197
642569,Stenbjergvej,7752,68,8.514774,56.886192
642570,Stenbjergvej,7752,70,8.531454,56.884219
642571,Stenbjergvej,7752,71,8.57713,56.885884
642572,Stenbjergvej,7752,73,8.578195,56.886403
642573,Stenbjergvej,7752,78,8.566467,56.885531
642574,Stenbjergvej,7752,82,8.568579,56.882941
642575,Stenbjergvej,7752,84,8.569403,56.88548
642697,Strandgårdsvej,7752,2B,8.3592148,56.9221077
642698,Strandgårdsvej,7752,3,8.3597048,56.9228212
642699,Strandgårdsvej,7752,4,8.36178,56.9225187
642700,Strandgårdsvej,7752,5,8.3601415,56.9227443
642701,Strandgårdsvej,7752,7,8.3606965,56.9227594
642702,Strandgårdsvej,7752,9,8.3609509,56.9232229
642703,Strandgårdsvej,7752,11,8.3610345,56.9234719
642704,Strandgårdsvej,7752,13,8.3617373,56.9227438
642705,Strandgårdsvej,7752,15,8.3630428,56.9227243
642753,Sundbyvej,7752,1,8.597641,56.889358
642754,Sundbyvej,7752,2,8.600124,56.888936
642755,Sundbyvej,7752,3,8.602284,56.889269
642756,Sundbyvej,7752,4,8.607147,56.888159
642757,Sundbyvej,7752,5,8.601401,56.890341
642758,Sundbyvej,7752,7,8.6039047,56.8922681
642759,Sundbyvej,7752,8,8.608483,56.886968
642760,Sundbyvej,7752,9,8.60327,56.889454
642761,Sundbyvej,7752,11,8.605157,56.889549
642762,Sundbyvej,7752,13,8.605972,56.889608
642763,Sundbyvej,7752,15,8.607652,56.888562
642764,Sundbyvej,7752,17,8.6081573,56.8880613
642765,Sundbyvej,7752,19,8.610119,56.886983
642766,Sundbyvej,7752,23,8.610986,56.885311
642779,Svankjærvej,7752,1,8.5068352,56.8925397
642780,Svankjærvej,7752,2,8.508625,56.894383
642781,Svankjærvej,7752,3,8.5122273,56.8975732
642782,Svankjærvej,7752,4,8.511256,56.895542
642783,Svankjærvej,7752,6,8.513211,56.896704
642784,Svankjærvej,7752,8,8.5133949,56.8982254
642870,Sømærkevej,7752,1,8.3579594,56.9197052
642871,Sømærkevej,7752,2,8.3577007,56.9200022
642872,Sømærkevej,7752,4,8.3570531,56.9197379
642873,Sømærkevej,7752,6,8.3565216,56.920024
642874,Sømærkevej,7752,6A,8.3559443,56.9201019
642875,Sømærkevej,7752,8,8.3555384,56.920094
642876,Sømærkevej,7752,9,8.3576763,56.9194434
642877,Sømærkevej,7752,10,8.3549969,56.9201712
642878,Sømærkevej,7752,11,8.3568093,56.9191993
642879,Sømærkevej,7752,12,8.3549506,56.9205064
642880,Sømærkevej,7752,14,8.3543002,56.9202014
642881,Sømærkevej,7752,16,8.353745,56.9203057
642882,Sømærkevej,7752,18,8.3531604,56.9203651
642883,Sømærkevej,7752,20,8.3527388,56.9204231
642884,Sømærkevej,7752,22,8.3520276,56.9205918
642885,Sømærkevej,7752,23,8.3548753,56.9199396
642886,Sømærkevej,7752,24,8.351394,56.9206121
642887,Sømærkevej,7752,26,8.3505147,56.920619
642888,Sømærkevej,7752,27,8.354174,56.9196547
642889,Sømærkevej,7752,28,8.349233,56.9207145
642890,Sømærkevej,7752,30,8.3487256,56.9208443
642891,Sømærkevej,7752,31A,8.3532674,56.9195801
642892,Sømærkevej,7752,33,8.35242,56.91951
642893,Sømærkevej,7752,34,8.3490572,56.9212737
642894,Sømærkevej,7752,36,8.3480663,56.9209337
642895,Sømærkevej,7752,38,8.3481564,56.9215892
642896,Sømærkevej,7752,40,8.347612,56.9212688
642897,Sømærkevej,7752,43,8.3509859,56.9192193
642898,Sømærkevej,7752,44,8.3467905,56.9215697
642899,Sømærkevej,7752,45,8.3507699,56.9187943
642900,Sømærkevej,7752,46,8.347133,56.921899
642901,Sømærkevej,7752,47,8.3502481,56.9189914
642902,Sømærkevej,7752,48,8.3472191,56.9221733
642903,Sømærkevej,7752,49,8.3502379,56.9193425
642904,Sømærkevej,7752,50,8.3466948,56.9222439
642905,Sømærkevej,7752,52,8.3461577,56.9217882
642906,Sømærkevej,7752,54,8.3456665,56.9217879
642907,Sømærkevej,7752,55,8.3505446,56.9203459
642908,Sømærkevej,7752,56,8.346046,56.922357
642909,Sømærkevej,7752,57,8.35008,56.920332
642910,Sømærkevej,7752,58,8.3455558,56.9225293
642911,Sømærkevej,7752,60,8.3449364,56.9220276
642912,Sømærkevej,7752,61,8.3489991,56.9201959
642913,Sømærkevej,7752,62,8.3446828,56.9223629
642914,Sømærkevej,7752,63,8.3485703,56.9203684
642915,Sømærkevej,7752,64A,8.344285,56.922619
642916,Sømærkevej,7752,64B,8.3441313,56.9224011
642917,Sømærkevej,7752,65,8.3478395,56.9202538
642918,Sømærkevej,7752,66,8.343661,56.9228379
642919,Sømærkevej,7752,67,8.3480245,56.9204676
642920,Sømærkevej,7752,68,8.343217,56.922706
642921,Sømærkevej,7752,68A,8.3417434,56.9229134
642922,Sømærkevej,7752,70,8.342847,56.922576
642923,Sømærkevej,7752,72,8.3430736,56.9220791
642924,Sømærkevej,7752,74,8.3437912,56.9221376
642925,Sømærkevej,7752,75,8.3471127,56.9197692
642926,Sømærkevej,7752,76A,8.34515,56.9215752
642927,Sømærkevej,7752,76B,8.3446368,56.9217345
642928,Sømærkevej,7752,77,8.3470593,56.9194488
642929,Sømærkevej,7752,78,8.3440927,56.9216513
642930,Sømærkevej,7752,85,8.3458958,56.9204194
642931,Sømærkevej,7752,85A,8.3465917,56.9198767
642932,Sømærkevej,7752,87,8.3464192,56.9208581
642933,Sømærkevej,7752,89,8.3458713,56.9208266
642934,Sømærkevej,7752,91,8.3452918,56.9209161
642935,Sømærkevej,7752,93,8.3452889,56.9205455
642936,Sømærkevej,7752,95,8.344718,56.9208404
642937,Sømærkevej,7752,97,8.3441396,56.9211761
642938,Søndergade,7752,1,8.5230041,56.8922062
642939,Søndergade,7752,1A,8.5230059,56.8919867
642940,Søndergade,7752,2,8.5226968,56.8922851
642941,Søndergade,7752,2A,8.522572,56.892316
642942,Søndergade,7752,4,8.5226012,56.8921488
642943,Søndergade,7752,6,8.522459,56.891993
642944,Søndergade,7752,7,8.522935,56.8915717
642945,Søndergade,7752,8,8.522606,56.891673
642946,Søndergade,7752,9,8.5229122,56.8914596
642947,Søndergade,7752,10,8.5225806,56.8915086
642948,Søndergade,7752,11,8.5228877,56.8913473
642949,Søndergade,7752,12,8.522563,56.8913821
642950,Søndergade,7752,13,8.5228612,56.8911696
642951,Søndergade,7752,14,8.5225632,56.8912887
642952,Søndergade,7752,15,8.5229035,56.8910458
642953,Søndergade,7752,16,8.5224796,56.8911196
642954,Søndergade,7752,16A,8.5221446,56.8911189
642955,Søndergade,7752,17A,8.522816,56.890952
642956,Søndergade,7752,17B,8.522808,56.890903
642957,Søndergade,7752,17C,8.522803,56.890865
642958,Søndergade,7752,18,8.5224959,56.8908948
642959,Søndergade,7752,19,8.5229714,56.8906758
642960,Søndergade,7752,20,8.5224286,56.8906858
642961,Søndergade,7752,21,8.5228137,56.8904808
642962,Søndergade,7752,22,8.5223183,56.8904169
642963,Søndergade,7752,23,8.5227628,56.8903492
642964,Søndergade,7752,24,8.5224114,56.8901808
642965,Søndergade,7752,25,8.5228051,56.8902268
642966,Søndergade,7752,26,8.5223957,56.8900012
642967,Søndergade,7752,27,8.5228573,56.8900861
642994,Sønderhå Hedevej,7752,1,8.443814,56.860469
642995,Sønderhå Hedevej,7752,2,8.441643,56.861074
642996,Sønderhå Hedevej,7752,3,8.4391,56.860184
642997,Sønderhå Hedevej,7752,4,8.441913,56.864079
642998,Sønderhå Hedevej,7752,5,8.434136,56.860467
642999,Sønderhå Hedevej,7752,6,8.438377,56.864676
643000,Sønderhå Hedevej,7752,7,8.430141,56.85992
643001,Sønderhå Hedevej,7752,8,8.438109,56.862826
643002,Sønderhå Hedevej,7752,9,8.421389,56.859473
643003,Sønderhå Hedevej,7752,10,8.436302,56.86491
643004,Sønderhå Hedevej,7752,12,8.436094,56.862998
643005,Sønderhå Hedevej,7752,14,8.4325781,56.8615829
643006,Sønderhå Hedevej,7752,16,8.427301,56.863247
643007,Søndermarken,7752,1,8.5260504,56.8898622
643008,Søndermarken,7752,2,8.5259461,56.8895974
643009,Søndermarken,7752,3,8.526319,56.8900009
643010,Søndermarken,7752,4,8.5263207,56.8896661
643011,Søndermarken,7752,5,8.5265826,56.8900209
643012,Søndermarken,7752,6,8.5267082,56.8896946
643013,Søndermarken,7752,7,8.5267825,56.8900249
643014,Søndermarken,7752,8,8.5270873,56.8897082
643015,Søndermarken,7752,9,8.5269866,56.8900333
643016,Søndermarken,7752,10,8.5274551,56.8897375
643017,Søndermarken,7752,11,8.5272036,56.8900434
643018,Søndermarken,7752,12,8.5278677,56.8897772
643019,Søndermarken,7752,13,8.5274938,56.8900636
643020,Søndermarken,7752,15,8.5279162,56.8900714
643021,Søndermarken,7752,17,8.5279395,56.8899473
643088,Søvej,7752,1,8.4269175,56.8729586
643089,Søvej,7752,2,8.4281911,56.877573
643090,Søvej,7752,3,8.4193359,56.8743095
643091,Søvej,7752,5,8.4192044,56.8755863
643092,Søvej,7752,7,8.41477,56.875595
643316,Tidselborgvej,7752,1,8.457079,56.864829
643317,Tidselborgvej,7752,4,8.4661656,56.8685277
643523,Todbølvej,7752,1,8.5492683,56.9016618
643524,Todbølvej,7752,2,8.546595,56.894882
643525,Todbølvej,7752,3,8.547117,56.906142
643526,Todbølvej,7752,4,8.5501276,56.9030051
643527,Todbølvej,7752,5,8.547445,56.90828
643528,Todbølvej,7752,6,8.5502759,56.9044321
643529,Todbølvej,7752,7,8.5476618,56.9096018
643530,Todbølvej,7752,7A,8.5475,56.9106767
643531,Todbølvej,7752,8,8.547748,56.908563
643532,Todbølvej,7752,9,8.547704,56.911882
643533,Todbølvej,7752,10,8.5499281,56.912219
643534,Todbølvej,7752,11,8.546904,56.91335
643535,Todbølvej,7752,12A,8.548125,56.911596
643536,Todbølvej,7752,12C,8.5482893,56.9116798
643537,Todbølvej,7752,13,8.5476837,56.913575
643538,Todbølvej,7752,14,8.547989,56.913385
643540,Todbølvej,7752,16,8.5496472,56.9142568
643542,Todbølvej,7752,18,8.556146,56.9142158
643931,Trombakken,7752,3,8.534914,56.892194
643932,Trombakken,7752,4,8.5344994,56.892055
643933,Trombakken,7752,5,8.5349327,56.8920214
643934,Trombakken,7752,6,8.5344873,56.8918299
643935,Trombakken,7752,7,8.5349488,56.8918339
643936,Trombakken,7752,8,8.5345696,56.8916354
643937,Trombakken,7752,9,8.5351474,56.8916123
643938,Trædholmvej,7752,1,8.570998,56.861946
643939,Trædholmvej,7752,2,8.569256,56.8643104
643940,Trædholmvej,7752,3,8.5744046,56.8626496
643941,Trædholmvej,7752,5,8.5761117,56.8617214
644062,Tyrhovevej,7752,1,8.4682441,56.8741779
644063,Tyrhovevej,7752,2,8.4731431,56.8721023
644064,Tyrhovevej,7752,3,8.4702541,56.8756647
644065,Tyrhovevej,7752,4,8.475034,56.876333
644066,Tyrhovevej,7752,6,8.47522,56.877889
644067,Tyskebakken,7752,1,8.4400187,56.9027387
644068,Tyskebakken,7752,2A,8.4436711,56.9050926
644069,Tyskebakken,7752,3,8.4407584,56.9038039
644070,Tyskebakken,7752,4,8.4467471,56.9069426
644072,Tyskebakken,7752,6,8.456041,56.9106
644076,Tyskebakken,7752,12,8.451647,56.911409
644077,Tyskebakken,7752,14,8.449946,56.90999
644126,Tøvlingvej,7752,21,8.508314,56.865905
644127,Tøvlingvej,7752,23,8.5090686,56.8664348
644128,Tøvlingvej,7752,25,8.506099,56.8667502
644129,Tøvlingvej,7752,27,8.5162788,56.8745739
644130,Tøvlingvej,7752,28,8.511129,56.864981
644131,Tøvlingvej,7752,29,8.517601,56.875938
644132,Tøvlingvej,7752,29A,8.515567,56.8781463
644133,Tøvlingvej,7752,30,8.51401,56.87045
644134,Tøvlingvej,7752,31,8.51853,56.878419
644135,Tøvlingvej,7752,32,8.519961,56.876142
644136,Tøvlingvej,7752,33,8.520416,56.881817
644137,Tøvlingvej,7752,34,8.5209134,56.8784592
644138,Tøvlingvej,7752,35,8.5204049,56.8826323
644139,Tøvlingvej,7752,36,8.5206814,56.880291
644140,Tøvlingvej,7752,37,8.5207677,56.8830317
644141,Tøvlingvej,7752,39,8.5211308,56.8837945
644142,Tøvlingvej,7752,40,8.5211689,56.8824173
644143,Tøvlingvej,7752,41,8.5210147,56.8845674
644144,Tøvlingvej,7752,42,8.5211715,56.8826002
644145,Tøvlingvej,7752,44,8.5212353,56.8827684
644146,Tøvlingvej,7752,46,8.521539,56.883687
644147,Tøvlingvej,7752,48,8.5217644,56.8838566
644148,Tøvlingvej,7752,50,8.5217694,56.8840332
644149,Tøvlingvej,7752,52,8.5225481,56.8841771
644150,Tøvlingvej,7752,54,8.5217749,56.8842354
644151,Tøvlingvej,7752,56,8.5217162,56.8844452
644152,Tøvlingvej,7752,58,8.5217218,56.8846236
644153,Tøvlingvej,7752,60,8.5217405,56.884832
644154,Tøvlingvej,7752,62,8.5217724,56.8850041
644184,Uhrbrandsmindevej,7752,1,8.545943,56.874913
644185,Uhrbrandsmindevej,7752,3,8.54968,56.875055
644186,Uhrbrandsmindevej,7752,5,8.551514,56.874921
644187,Uhrbrandsmindevej,7752,7,8.5542808,56.8744726
644188,Uhrbrandsmindevej,7752,9,8.556409,56.874673
644230,Vandhøjvej,7752,1,8.5231323,56.8897859
644231,Vandhøjvej,7752,2,8.5235832,56.8900525
644232,Vandhøjvej,7752,3,8.5228732,56.8897875
644233,Vandhøjvej,7752,4,8.5237296,56.8904258
644234,Vandhøjvej,7752,5,8.5224517,56.8898386
644235,Vandhøjvej,7752,6,8.5237541,56.8906021
644236,Vandhøjvej,7752,7,8.521962,56.889784
644237,Vandhøjvej,7752,8,8.524016,56.890761
644238,Vandhøjvej,7752,9,8.5216492,56.8897833
644239,Vandhøjvej,7752,10A,8.5232667,56.8900949
644240,Vandhøjvej,7752,11,8.521194,56.8897862
644241,Vandhøjvej,7752,12,8.521902,56.890046
644242,Vandhøjvej,7752,16,8.5215641,56.8899974
644243,Vandhøjvej,7752,20,8.5206407,56.8900664
644244,Vandhøjvej,7752,22,8.5202599,56.8900062
644245,Vandhøjvej,7752,23,8.5204749,56.8897911
644246,Vandhøjvej,7752,24,8.5199387,56.8900092
644247,Vandhøjvej,7752,25,8.5204368,56.889615
644248,Vandhøjvej,7752,27,8.5203344,56.8894152
644249,Vandhøjvej,7752,28,8.5191901,56.8900788
644250,Vandhøjvej,7752,29,8.5198191,56.8894926
644251,Vandhøjvej,7752,30,8.5194093,56.8900749
644252,Vandhøjvej,7752,31,8.519845,56.889818
644253,Vandhøjvej,7752,32,8.5196304,56.8900878
644254,Vandhøjvej,7752,34,8.5196094,56.8902533
644255,Vandhøjvej,7752,35,8.5192294,56.8897686
644256,Vandhøjvej,7752,36,8.5196023,56.8903711
644257,Vandhøjvej,7752,37,8.5191945,56.889564
644258,Vandhøjvej,7752,38,8.5196039,56.8905391
644259,Vandhøjvej,7752,40,8.5192935,56.8905198
644260,Vandhøjvej,7752,41,8.5187973,56.8890132
644261,Vandhøjvej,7752,42,8.5193037,56.8903772
644262,Vandhøjvej,7752,43,8.5185698,56.8898556
644263,Vandhøjvej,7752,44,8.519296,56.8902583
644264,Vandhøjvej,7752,45,8.5175769,56.8897698
644265,Vandhøjvej,7752,46,8.5195885,56.8907176
644266,Vandhøjvej,7752,48,8.5196232,56.8907798
644267,Vandhøjvej,7752,50,8.5195873,56.8908527
644268,Vandhøjvej,7752,52,8.5195485,56.8909158
644269,Vandhøjvej,7752,54,8.5195824,56.8909847
644270,Vandhøjvej,7752,56,8.5196267,56.8910562
644271,Vandhøjvej,7752,58,8.5192607,56.891101
644272,Vandhøjvej,7752,60,8.5190039,56.8910429
644273,Vandhøjvej,7752,62,8.5190503,56.8909828
644274,Vandhøjvej,7752,64,8.51901,56.8909181
644275,Vandhøjvej,7752,66,8.5190447,56.8908494
644276,Vandhøjvej,7752,68,8.5190859,56.890785
644277,Vandhøjvej,7752,70,8.5190465,56.8907208
644278,Vandhøjvej,7752,72,8.5186365,56.8910762
644279,Vandhøjvej,7752,74,8.5183097,56.8910869
644280,Vandhøjvej,7752,76,8.518116,56.891085
644281,Vandhøjvej,7752,78,8.5179247,56.891086
644282,Vandhøjvej,7752,80,8.5177031,56.8910689
644283,Vandhøjvej,7752,82,8.5174308,56.8911103
644284,Vandhøjvej,7752,83,8.514988,56.888066
644285,Vandhøjvej,7752,84,8.5179955,56.8909009
644286,Vandhøjvej,7752,86A,8.5182542,56.8908743
644287,Vandhøjvej,7752,86B,8.5184769,56.8908758
644288,Vandhøjvej,7752,88,8.5187961,56.8903316
644289,Vandhøjvej,7752,90,8.5185337,56.8904255
644290,Vandhøjvej,7752,92,8.5188279,56.890488
644291,Vandhøjvej,7752,94,8.5185545,56.8906526
644292,Vandhøjvej,7752,96,8.5181345,56.8906891
644293,Vandhøjvej,7752,98,8.5181288,56.8905573
644294,Vandhøjvej,7752,100,8.5181219,56.8904376
644295,Vandhøjvej,7752,102,8.5180861,56.8903168
644296,Vandhøjvej,7752,104,8.5180351,56.890092
644297,Vandhøjvej,7752,106,8.5182361,56.8900731
644298,Vandhøjvej,7752,108,8.5184182,56.8900714
644299,Vandhøjvej,7752,110,8.5186135,56.8900812
644300,Vandhøjvej,7752,112,8.5188145,56.890083
644301,Vandhøjvej,7752,120,8.5128538,56.8902185
644306,Vangsgade,7752,1,8.5258368,56.8921625
644307,Vangsgade,7752,1A,8.5260912,56.8923185
644308,Vangsgade,7752,2,8.5250391,56.8923361
644309,Vangsgade,7752,2B,8.5256079,56.8923247
644310,Vangsgade,7752,3,8.5257716,56.8919519
644311,Vangsgade,7752,4,8.525571,56.8921664
644312,Vangsgade,7752,5,8.525741,56.891869
644313,Vangsgade,7752,6,8.525525,56.891913
644314,Vangsgade,7752,8,8.5252349,56.8917801
644315,Vangsgade,7752,9,8.5256291,56.8914768
644316,Vangsgade,7752,10,8.5253551,56.8916502
644317,Vangsgade,7752,11A,8.5256432,56.8913856
644318,Vangsgade,7752,11B,8.5256373,56.8913383
644319,Vangsgade,7752,12,8.5253308,56.8915499
644320,Vangsgade,7752,13,8.5255924,56.8911978
644321,Vangsgade,7752,14,8.5252924,56.891433
644322,Vangsgade,7752,15,8.5255226,56.8911007
644323,Vangsgade,7752,16,8.5252452,56.8913084
644324,Vangsgade,7752,17,8.5254786,56.8909491
644325,Vangsgade,7752,18,8.5251239,56.8911929
644326,Vangsgade,7752,19,8.525345,56.890803
644327,Vangsgade,7752,20,8.5250396,56.8910295
644328,Vangsgade,7752,21,8.5252542,56.8907167
644329,Vangsgade,7752,22,8.5251003,56.8908778
644330,Vangsgade,7752,23,8.5249957,56.8903884
644331,Vangsgade,7752,24,8.524985,56.8907899
644332,Vangsgade,7752,25,8.5248306,56.8903005
644333,Vangsgade,7752,26,8.524855,56.890663
644334,Vangsgade,7752,27,8.524818,56.8901547
644335,Vangsgade,7752,28,8.5246198,56.8905504
644336,Vangsgade,7752,29,8.5246153,56.8900739
644337,Vangsgade,7752,30,8.5245118,56.8903924
644338,Vangsgade,7752,31,8.5243771,56.8899261
644339,Vangsgade,7752,32,8.5243895,56.8903019
644340,Vangsgade,7752,33,8.524163,56.88974
644341,Vangsgade,7752,34,8.524121,56.890288
644342,Vangsgade,7752,35,8.5240539,56.8895271
644343,Vangsgade,7752,36,8.5240168,56.8900901
644344,Vangsgade,7752,38,8.5238789,56.889796
644345,Vangsgade,7752,40,8.5235806,56.889662
644346,Vangsgade,7752,42,8.5233149,56.8894803
644347,Vangsgade,7752,60,8.5227059,56.8887626
644348,Vangsgade,7752,80,8.5216032,56.8875258
644349,Vangsgade,7752,82,8.5215424,56.887388
644350,Vangsgade,7752,90,8.5210355,56.8865654
644352,Ved Dammen,7752,1,8.5343577,56.8931448
644353,Ved Dammen,7752,3,8.5343018,56.8933603
644354,Ved Dammen,7752,4,8.535912,56.8941461
644355,Ved Dammen,7752,30,8.5398387,56.8968968
644356,Ved Dammen,7752,30A,8.537944,56.914576
644357,Ved Dammen,7752,32,8.539585,56.8973933
644358,Ved Dammen,7752,33,8.5355503,56.8956332
644359,Ved Dammen,7752,34,8.5398191,56.897356
644360,Ved Dammen,7752,35,8.5359251,56.8960169
644361,Ved Dammen,7752,36,8.5400278,56.8974191
644362,Ved Dammen,7752,37,8.538866,56.89759
644363,Ved Dammen,7752,38,8.545063,56.90007
644364,Ved Dammen,7752,39,8.5410933,56.8985227
644365,Ved Dammen,7752,40,8.5468318,56.9010963
644366,Ved Dammen,7752,41,8.5441107,56.8999833
644846,Vilsundvej,7752,51,8.612831,56.878383
644847,Vilsundvej,7752,53,8.609895,56.875621
644848,Vilsundvej,7752,55,8.603836,56.878585
644849,Vilsundvej,7752,57,8.612325,56.880671
644850,Vilsundvej,7752,59,8.60271,56.882906
644851,Vilsundvej,7752,61,8.60128,56.881802
644852,Vilsundvej,7752,63,8.5980706,56.8835618
644890,Villesvej,7752,4,8.531161,56.892318
644891,Villesvej,7752,6,8.5303804,56.8923217
644892,Villesvej,7752,10,8.5322768,56.8921606
644893,Villesvej,7752,12,8.5322031,56.8919826
644973,Vinkelvej,7752,1,8.520419,56.893031
644974,Vinkelvej,7752,2,8.520774,56.893053
644975,Vinkelvej,7752,3,8.52043,56.893296
644976,Vinkelvej,7752,5,8.5201339,56.8933027
644977,Vinkelvej,7752,6,8.5207026,56.8936613
644978,Vinkelvej,7752,6A,8.520846,56.894118
644979,Vinkelvej,7752,7,8.519812,56.893379
644980,Vinkelvej,7752,8A,8.520339,56.893699
644981,Vinkelvej,7752,8B,8.520096,56.894042
644982,Vinkelvej,7752,10,8.520024,56.893663
644983,Vinkelvej,7752,12,8.519548,56.893635
644984,Vinkelvej,7752,14,8.519279,56.893652
645358,Øland Bro Vej,7752,1,8.5413608,56.8752423
645359,Øland Bro Vej,7752,1A,8.5400227,56.8765202
645360,Øland Bro Vej,7752,2,8.5423263,56.8759585
645361,Øland Bro Vej,7752,3,8.5388762,56.8777348
645362,Øland Bro Vej,7752,4,8.5422843,56.8763777
645363,Øland Bro Vej,7752,5,8.5393333,56.8791517
645364,Øland Bro Vej,7752,7,8.5347866,56.8784259
645365,Øland Bro Vej,7752,8,8.5444201,56.8832759
645366,Øland Bro Vej,7752,9,8.5380921,56.8807812
645367,Øland Bro Vej,7752,10,8.545126,56.882687
645368,Øland Bro Vej,7752,12,8.5480119,56.8838829
645369,Øland Bro Vej,7752,13,8.54095,56.881965
645370,Øland Bro Vej,7752,15,8.538191,56.882154
645371,Øland Bro Vej,7752,17,8.541818,56.883521
645416,Øster Alle,7752,3,8.528052,56.891225
645417,Øster Alle,7752,4,8.527641,56.890562
645418,Øster Alle,7752,10,8.530701,56.890989
645419,Øster Alle,7752,15,8.531328,56.891693
645841,Åbrovej,7752,38,8.4568613,56.8537103
645842,Åbrovej,7752,65,8.458872,56.846264
645843,Åbrovej,7752,67,8.4591851,56.8462573
645844,Åbrovej,7752,69,8.456664,56.85052
645845,Åbrovej,7752,71,8.45527,56.855226
645849,Årup Byvej,7752,1,8.492777,56.89198
645850,Årup Byvej,7752,14,8.4873346,56.8930114
645851,Årup Byvej,7752,16,8.486922,56.892737
645852,Årup Byvej,7752,17,8.486512,56.892604
645853,Årup Byvej,7752,18,8.486623,56.892798
645854,Årup Byvej,7752,19,8.486148,56.89264
645855,Årup Byvej,7752,22,8.485724,56.893024
645856,Årup Byvej,7752,24,8.485328,56.892952
645857,Årup Byvej,7752,26,8.485072,56.89299
645858,Årup Byvej,7752,31,8.483493,56.893113
645859,Årup Byvej,7752,34,8.484498,56.893136
645860,Årup Byvej,7752,36,8.484145,56.89319
645861,Årup Byvej,7752,36A,8.484916,56.893574
645862,Årup Byvej,7752,38,8.483837,56.893288
645863,Årup Byvej,7752,43,8.481424,56.894147
645864,Årup Byvej,7752,44,8.483617,56.893707
645865,Årup Byvej,7752,48,8.4827,56.893997
645866,Årupmøllevej,7752,1,8.48521,56.876614
645867,Årupmøllevej,7752,2,8.493664,56.879443
645868,Årupmøllevej,7752,4,8.489791,56.879421
645869,Årupmøllevej,7752,6,8.487158,56.8801
937247,Stenbjerg Kirke Vej,7752,68,8.3542246,56.9231453
937248,Stenbjerg Kirke Vej,7752,97A,8.3551707,56.9224572
937249,Stenbjerg Kirke Vej,7752,97B,8.3552085,56.9221902
937251,Stenbjergvej,7752,7,8.3715854,56.9207929
937252,Stenbjergvej,7752,8,8.3868416,56.9118572
937253,Stenbjergvej,7752,11,8.418831,56.9091331
937254,Stenbjergvej,7752,32,8.4198528,56.9071361
937255,Stenbjergvej,7752,36,8.428794,56.9041258
937256,Stenbjergvej,7752,45,8.4831852,56.8950328
937257,Stenbjergvej,7752,48,8.4610512,56.8974178
1738429,Vestervigvej,7752,171,8.4775572,56.833234
1738433,Vestervigvej,7752,173,8.4916248,56.8364231
1738439,Vestervigvej,7752,175,8.5044509,56.8398725
1738443,Vestervigvej,7752,177,8.506431,56.8414247
1738447,Vestervigvej,7752,179,8.5129694,56.8413817
1738448,Vestervigvej,7752,180,8.4821337,56.831465
1738450,Vestervigvej,7752,181,8.5136611,56.8413859
1738453,Vestervigvej,7752,182,8.5005262,56.8378216
1738454,Vestervigvej,7752,184,8.5025997,56.8373344
1738457,Vestervigvej,7752,186,8.5050432,56.8378299
1738458,Vestervigvej,7752,188,8.50601,56.837748
1738460,Vestervigvej,7752,190,8.5071003,56.8396384
1738462,Vestervigvej,7752,192,8.5075133,56.8378751
1738464,Vestervigvej,7752,194,8.507427,56.8398119
1738466,Vestervigvej,7752,196,8.5093163,56.8385307
1738468,Vestervigvej,7752,198,8.5096596,56.8398947
1738472,Vestervigvej,7752,200,8.510109,56.839388
1738474,Vestervigvej,7752,202,8.5110787,56.8395854
1738799,Oddesundvej,7752,131B,8.5725309,56.8644229
1738803,Oddesundvej,7752,139A,8.5573328,56.8578741
1738805,Oddesundvej,7752,161,8.5443821,56.8534546
1738807,Oddesundvej,7752,163,8.547203,56.851819
1738809,Oddesundvej,7752,165,8.5421879,56.853207
1738810,Oddesundvej,7752,167,8.5128247,56.8365168
1738813,Oddesundvej,7752,169,8.510834,56.835084
1738815,Oddesundvej,7752,171,8.506939,56.832078
1738817,Oddesundvej,7752,171B,8.5103783,56.8313966
1738818,Oddesundvej,7752,173,8.5012926,56.8266418
1738839,Oddesundvej,7752,200,8.5334109,56.8461654
1738841,Oddesundvej,7752,200B,8.5209897,56.8415512
1738848,Oddesundvej,7752,202,8.5139186,56.8383616
1738853,Oddesundvej,7752,204,8.511395,56.837484
1738860,Oddesundvej,7752,206,8.510735,56.836371
1738870,Oddesundvej,7752,208,8.510201,56.8362894
1738875,Oddesundvej,7752,210,8.5095839,56.836194
1738880,Oddesundvej,7752,212,8.5079208,56.835362
1738884,Oddesundvej,7752,214,8.504604,56.83034
1738888,Oddesundvej,7752,216,8.502996,56.828737
1738894,Oddesundvej,7752,218,8.5022795,56.8286324
1738898,Oddesundvej,7752,220,8.4981764,56.8267756
1798993,Møgelvej,7752,102C,8.592937,56.889326
1798996,Møgelvej,7752,102D,8.5929948,56.8893838
1799001,Møgelvej,7752,185A,8.5904923,56.8977872
1807285,Hovedgaden,7752,28A,8.5301312,56.8927651
1807290,Hovedgaden,7752,28B,8.529996,56.892767
1807291,Hovedgaden,7752,28C,8.529973,56.892842
1807294,Hovedgaden,7752,73A,8.522308,56.892576
1807295,Hovedgaden,7752,73B,8.522194,56.892574
1807297,Hovedgaden,7752,73C,8.522069,56.892576
1807298,Hovedgaden,7752,73D,8.521921,56.892575
1807301,Hovedgaden,7752,73E,8.521767,56.892574
1807304,Hovedgaden,7752,73F,8.521616,56.892575
1807305,Hovedgaden,7752,73G,8.521527,56.892577
1807307,Hovedgaden,7752,73H,8.5213803,56.8925715
1862733,Snedstedvej,7752,75B,8.559839,56.8924906
1862736,Snedstedvej,7752,97,8.5426189,56.8935462
1894914,Sømærkevej,7752,25,8.353954,56.920015
1894915,Sømærkevej,7752,25B,8.353678,56.919903
1894916,Sømærkevej,7752,29,8.3534414,56.9198041
1894917,Sømærkevej,7752,31,8.3533013,56.9200541
1894918,Sømærkevej,7752,59,8.3496297,56.9202723
1894919,Sømærkevej,7752,85B,8.3461298,56.920121
1908437,Legindvej,7752,1,8.489842,56.850312
1908438,Legindvej,7752,2,8.489486,56.850661
1908439,Legindvej,7752,3,8.48948,56.850476
1908440,Legindvej,7752,5,8.4892092,56.8504984
1908441,Legindvej,7752,6,8.4886854,56.8507569
1908442,Legindvej,7752,7,8.4889018,56.8505452
1908443,Legindvej,7752,8,8.4882183,56.8507796
1908444,Legindvej,7752,9,8.488569,56.850379
1908445,Legindvej,7752,10,8.4875732,56.8508451
1908446,Legindvej,7752,11,8.48837,56.8505866
1908447,Legindvej,7752,12,8.4873248,56.8508709
1908448,Legindvej,7752,13,8.488156,56.850626
1908449,Legindvej,7752,14,8.4869945,56.8509093
1908450,Legindvej,7752,15,8.487566,56.850691
1908451,Legindvej,7752,16,8.4867315,56.8509357
1908452,Legindvej,7752,17,8.4872545,56.8506982
1908453,Legindvej,7752,19,8.487047,56.850721
1908454,Legindvej,7752,139,8.4372314,56.872864
1908455,Legindvej,7752,139A,8.4378664,56.8729559
1914221,Tårnvej,7752,1,8.4907536,56.8501713
1914222,Tårnvej,7752,2,8.4905307,56.8500531
1914223,Tårnvej,7752,3,8.4910149,56.8500652
1914224,Tårnvej,7752,5,8.4911668,56.8500316
1914225,Tårnvej,7752,6,8.4909366,56.8499234
1914226,Tårnvej,7752,7,8.491346,56.8499709
1914227,Tårnvej,7752,8,8.4911248,56.84987
1914228,Tårnvej,7752,9,8.4915654,56.8499491
1914229,Tårnvej,7752,10,8.4913367,56.8498003
1914230,Tårnvej,7752,11,8.4916655,56.8498549
1914231,Tårnvej,7752,12,8.4916052,56.8497088
1914232,Tårnvej,7752,13,8.4918104,56.8498131
1914233,Tårnvej,7752,14,8.4918222,56.8496291
1914234,Tårnvej,7752,15,8.492019,56.849749
1914235,Tårnvej,7752,16,8.4917884,56.8493171
1914236,Tårnvej,7752,17,8.4922348,56.8496712
1914237,Tårnvej,7752,18,8.4921339,56.8495315
1914238,Tårnvej,7752,19,8.492457,56.850298
1914239,Tårnvej,7752,20,8.4921906,56.8487442
1914240,Tårnvej,7752,21,8.4928375,56.8495413
1914241,Tårnvej,7752,22,8.4924244,56.8494037
1914242,Tårnvej,7752,23,8.4930918,56.8494187
1914243,Tårnvej,7752,24,8.4929481,56.8492277
1914244,Tårnvej,7752,25,8.4932891,56.849356
1914245,Tårnvej,7752,26,8.4932179,56.8491394
1914246,Tårnvej,7752,27,8.4935653,56.8493126
1914247,Tårnvej,7752,28,8.4934931,56.8490431
1914248,Tårnvej,7752,29,8.493756,56.8491964
1914249,Tårnvej,7752,30,8.4937871,56.8489556
1914250,Tårnvej,7752,31,8.4940846,56.8491934
1914251,Tårnvej,7752,32,8.4940631,56.8488552
1914252,Tårnvej,7752,33,8.4946892,56.8494594
1914253,Tårnvej,7752,35,8.4946034,56.8489213
1914254,Tårnvej,7752,36,8.4944541,56.8486305
1914255,Tårnvej,7752,37,8.4948715,56.8488389
1914256,Tårnvej,7752,38,8.4944748,56.848258
1914257,Tårnvej,7752,39,8.4951152,56.8487727
1914258,Tårnvej,7752,40,8.495009,56.848528
1914259,Tårnvej,7752,41,8.4953543,56.8486699
1914260,Tårnvej,7752,42,8.4952288,56.848466
1914261,Tårnvej,7752,43,8.4957473,56.8486808
1914262,Tårnvej,7752,44,8.4958356,56.8483096
1914263,Tårnvej,7752,45,8.4963701,56.8487741
1914264,Tårnvej,7752,47,8.496521,56.848435
1914265,Tårnvej,7752,48,8.4963248,56.8481535
1914266,Tårnvej,7752,49,8.4974312,56.8482067
1914267,Tårnvej,7752,50,8.4965615,56.8480816
1914268,Tårnvej,7752,51,8.497673,56.848069
1914269,Tårnvej,7752,52,8.4968209,56.8480204
1914270,Tårnvej,7752,53,8.4979434,56.8480579
1914271,Tårnvej,7752,54,8.4970789,56.8479743
1914272,Tårnvej,7752,56,8.497278,56.847941
1914273,Tårnvej,7752,57,8.4983629,56.8484525
1914274,Tårnvej,7752,58,8.4974409,56.8478539
1914275,Tårnvej,7752,59,8.4988547,56.8480206
1914276,Tårnvej,7752,60,8.4977387,56.8478683
1914277,Tårnvej,7752,61,8.4993706,56.8482203
1928617,Skyumvej,7752,100,8.5965033,56.8505659
1928618,Skyumvej,7752,101,8.6028678,56.8484971
1928619,Skyumvej,7752,102,8.5926602,56.8467609
1928620,Skyumvej,7752,103,8.5993368,56.8485743
1928621,Skyumvej,7752,104,8.587422,56.844186
1928622,Skyumvej,7752,105,8.596856,56.8441545
1928623,Skyumvej,7752,106,8.5789862,56.8384993
1928624,Skyumvej,7752,107,8.5970221,56.8417546
1928625,Skyumvej,7752,108,8.5733275,56.8362128
1928626,Skyumvej,7752,109,8.5887837,56.8416577
1928627,Skyumvej,7752,110,8.5658718,56.8323175
1928628,Skyumvej,7752,111,8.5900008,56.8393803
1928629,Skyumvej,7752,112,8.5645034,56.8324049
1928630,Skyumvej,7752,112A,8.5624267,56.8330546
1928631,Skyumvej,7752,113,8.5926551,56.840079
1928632,Skyumvej,7752,114,8.5634973,56.8308866
1928633,Skyumvej,7752,115,8.5985535,56.8373081
1928634,Skyumvej,7752,116,8.563022,56.8305963
1928635,Skyumvej,7752,117,8.5749828,56.8363948
1928636,Skyumvej,7752,118,8.561683,56.830643
1928637,Skyumvej,7752,119,8.5682981,56.8330536
1928638,Skyumvej,7752,120,8.5604374,56.8296864
1928639,Skyumvej,7752,121,8.5619784,56.8296619
1928640,Skyumvej,7752,122,8.560097,56.829691
1928641,Skyumvej,7752,123,8.5583202,56.8282942
1928642,Skyumvej,7752,123B,8.552699,56.824644
1928643,Skyumvej,7752,124,8.5486328,56.8291957
1928644,Skyumvej,7752,125,8.5584629,56.8260299
1928645,Skyumvej,7752,126,8.5481436,56.8278359
1928646,Skyumvej,7752,127,8.5492536,56.8222431
1928647,Skyumvej,7752,128,8.5450109,56.8261218
1928648,Skyumvej,7752,129,8.5466243,56.8242265
1928649,Skyumvej,7752,130,8.5428276,56.8255547
1928650,Skyumvej,7752,131,8.5440323,56.822436
1928651,Skyumvej,7752,132,8.5397341,56.8215602
1928652,Skyumvej,7752,133,8.547037,56.8208238
1928653,Skyumvej,7752,134,8.5381172,56.8233218
1928654,Skyumvej,7752,135,8.5478532,56.818673
1928655,Skyumvej,7752,136,8.5372119,56.8205586
1941616,Hørstedvej,7752,7A,8.548248,56.869382
1941620,Hørstedvej,7752,12A,8.5493411,56.8709437
1941624,Hørstedvej,7752,17,8.503876,56.872119
1941626,Hørstedvej,7752,19,8.49974,56.871756
1984318,Algade,7752,2,8.526392,56.845939
1984319,Algade,7752,3A,8.526454,56.845677
1984322,Algade,7752,3B,8.52672,56.845672
1984324,Algade,7752,4,8.526208,56.845832
1984325,Algade,7752,5,8.526312,56.845578
1984326,Algade,7752,6,8.52586,56.845622
1984327,Algade,7752,7,8.526164,56.845484
1984328,Algade,7752,8,8.525713,56.845521
1984329,Algade,7752,9,8.526124,56.845309
1984330,Algade,7752,10,8.525505,56.845409
1984331,Algade,7752,11,8.525863,56.845231
1984332,Algade,7752,12,8.525302,56.845269
1984333,Algade,7752,13,8.525684,56.845102
1984334,Algade,7752,14,8.5251,56.845138
1984335,Algade,7752,15,8.525329,56.84486
1984336,Algade,7752,15A,8.525778,56.844791
1984337,Algade,7752,16,8.525031,56.845088
1984338,Algade,7752,17,8.525198,56.844781
1984339,Algade,7752,18,8.524712,56.844896
1984340,Algade,7752,19,8.525041,56.844719
1984341,Algade,7752,21,8.524856,56.844473
1984342,Algade,7752,22,8.52391,56.844368
1984343,Algade,7752,23,8.524586,56.844325
1984344,Algade,7752,24,8.523662,56.844199
1984345,Algade,7752,25,8.524388,56.844194
1984346,Algade,7752,26,8.523408,56.844031
1984347,Algade,7752,28,8.523188,56.843883
1984348,Algade,7752,29,8.523574,56.843714
1984349,Algade,7752,30,8.522756,56.843675
1984350,Algade,7752,31,8.52329,56.843517
1984351,Algade,7752,32,8.522546,56.843532
1984352,Algade,7752,33,8.52275,56.84309
1984353,Algade,7752,34,8.522384,56.843343
1984354,Algade,7752,35,8.522333,56.84242
1984355,Algade,7752,36,8.522151,56.843193
1984356,Algade,7752,40,8.521342,56.843529
1984357,Algade,7752,41,8.521636,56.842605
1984358,Algade,7752,42,8.518951,56.843297
1984359,Algade,7752,43,8.521412,56.842305
1984360,Algade,7752,45,8.521055,56.842179
1984361,Algade,7752,47,8.520915,56.842006
1984362,Algade,7752,49,8.520533,56.841841
1984363,Algade,7752,63,8.519625,56.841651
1984364,Algade,7752,65,8.51766,56.84051
1996198,Borgergade,7752,1,8.5263045,56.8461534
1996199,Borgergade,7752,1A,8.5264341,56.8460492
1996200,Borgergade,7752,2,8.5267922,56.8463108
1996202,Borgergade,7752,3,8.5260158,56.8461929
1996204,Borgergade,7752,4,8.5264736,56.8462904
1996205,Borgergade,7752,4B,8.5265397,56.8463914
1996206,Borgergade,7752,5,8.5258012,56.8462248
1996207,Borgergade,7752,6A,8.526214,56.8463283
1996208,Borgergade,7752,6B,8.5262681,56.8464193
1996209,Borgergade,7752,6C,8.5263215,56.8465081
1996210,Borgergade,7752,7A,8.525495,56.8462458
1996211,Borgergade,7752,7B,8.5251717,56.8460357
1996212,Borgergade,7752,8,8.525834,56.846386
1996213,Borgergade,7752,9,8.5249231,56.846343
1996214,Borgergade,7752,10,8.5255473,56.8464409
1996215,Borgergade,7752,11,8.5245347,56.8463708
1996216,Borgergade,7752,12,8.525217,56.8464997
1996217,Borgergade,7752,13,8.5242204,56.8464484
1996218,Borgergade,7752,14,8.5249357,56.8465607
1996219,Borgergade,7752,15,8.5238659,56.8464994
1996222,Borgergade,7752,16,8.5246581,56.8466324
1996223,Borgergade,7752,17,8.5237031,56.8465321
1996224,Borgergade,7752,18,8.5241931,56.8467547
1996225,Borgergade,7752,19,8.5233805,56.8466022
1996226,Borgergade,7752,20,8.5242838,56.8471515
1996227,Borgergade,7752,21,8.5230784,56.8466514
1996228,Borgergade,7752,22,8.5238085,56.8468134
1996229,Borgergade,7752,23,8.522672,56.8467503
1996230,Borgergade,7752,24,8.5233396,56.8468554
1996231,Borgergade,7752,25,8.522269,56.8467816
1996232,Borgergade,7752,26,8.523508,56.84719
1996233,Borgergade,7752,27,8.5217949,56.8468582
1996234,Borgergade,7752,28,8.5229608,56.846915
1996236,Borgergade,7752,28A,8.52282,56.8470364
1996237,Borgergade,7752,28B,8.522875,56.8471374
1996238,Borgergade,7752,28C,8.5229284,56.8472459
1996240,Borgergade,7752,30,8.522355,56.8470328
1996242,Borgergade,7752,32,8.5221005,56.8470617
1996243,Borgergade,7752,34,8.5217128,56.8471352
1996244,Borgergade,7752,36,8.5214764,56.8472638
1996245,Borgergade,7752,38,8.5211825,56.847173
1996246,Borgergade,7752,40,8.5207779,56.8472058
1996247,Borgergade,7752,44,8.5203425,56.8472403
1996249,Borgergade,7752,46,8.5196549,56.8472663
2007113,Odinsvej,7752,1,8.519214,56.8449422
2007114,Odinsvej,7752,2,8.5180629,56.8452189
2007115,Odinsvej,7752,3,8.519054,56.8446773
2007116,Odinsvej,7752,4,8.5180717,56.8454437
2007118,Odinsvej,7752,5,8.5186505,56.8446328
2007119,Odinsvej,7752,6,8.5179373,56.8456697
2007120,Odinsvej,7752,7,8.5186034,56.8449178
2007121,Odinsvej,7752,8,8.5175932,56.8455692
2007122,Odinsvej,7752,9,8.5181604,56.8449056
2007125,Odinsvej,7752,10,8.5174676,56.8454381
2007126,Odinsvej,7752,11,8.5180394,56.8446413
2007127,Odinsvej,7752,12,8.5175582,56.8452278
2007130,Odinsvej,7752,13,8.517644,56.844616
2007131,Odinsvej,7752,14,8.517075,56.845133
2007133,Odinsvej,7752,15,8.5175633,56.8448967
2007134,Odinsvej,7752,16,8.5168943,56.8454434
2007137,Odinsvej,7752,17,8.51704,56.8448952
2007138,Odinsvej,7752,18,8.5167416,56.8456273
2007139,Odinsvej,7752,19,8.5169932,56.8446105
2007140,Odinsvej,7752,20,8.5161634,56.8456124
2007141,Odinsvej,7752,21,8.5165643,56.8445926
2007143,Odinsvej,7752,22,8.516177,56.84542
2007144,Odinsvej,7752,23,8.5165,56.8448558
2007145,Odinsvej,7752,24,8.5162367,56.8452197
2007147,Odinsvej,7752,25,8.5160604,56.8448032
2007149,Odinsvej,7752,26,8.5154919,56.845182
2007151,Odinsvej,7752,27,8.5159165,56.8445563
2007153,Odinsvej,7752,28,8.5155024,56.8453937
2007154,Odinsvej,7752,29,8.5155089,56.8445719
2007155,Odinsvej,7752,30,8.5155472,56.84561
2007157,Odinsvej,7752,31,8.5154404,56.8448245
2007158,Odinsvej,7752,32,8.5149657,56.845495
2007160,Odinsvej,7752,33,8.5149826,56.8447853
2007162,Odinsvej,7752,34,8.5149623,56.8452865
2007164,Odinsvej,7752,35,8.5147834,56.8445597
2007165,Odinsvej,7752,36,8.5150132,56.8451412
2012657,Knakkergårdsvej,7752,1,8.5670528,56.830868
2012658,Knakkergårdsvej,7752,2,8.5717566,56.8298332
2012659,Knakkergårdsvej,7752,3,8.5751395,56.834645
2012660,Knakkergårdsvej,7752,4,8.5718337,56.832096
2012661,Knakkergårdsvej,7752,5,8.5775737,56.8364393
2012662,Knakkergårdsvej,7752,6,8.573508,56.833416
2012663,Knakkergårdsvej,7752,7,8.5776408,56.8366112
2012664,Knakkergårdsvej,7752,9,8.5778526,56.8369072
2012665,Knakkergårdsvej,7752,11,8.577226,56.837021
2012666,Knakkergårdsvej,7752,13,8.576877,56.837056
2012667,Knakkergårdsvej,7752,15,8.5770936,56.8372081
2012668,Knakkergårdsvej,7752,17,8.577385,56.837197
2012669,Knakkergårdsvej,7752,18,8.57774,56.834895
2012670,Knakkergårdsvej,7752,18B,8.58525,56.8344435
2012671,Knakkergårdsvej,7752,19,8.5780103,56.8371961
2012672,Knakkergårdsvej,7752,20,8.5774711,56.8357406
2012673,Knakkergårdsvej,7752,21,8.5781138,56.8373351
2012675,Knakkergårdsvej,7752,23,8.578202,56.837456
2012677,Knakkergårdsvej,7752,26,8.577779,56.836249
2012678,Knakkergårdsvej,7752,28,8.5779022,56.8364345
2012680,Knakkergårdsvej,7752,29,8.579168,56.83777
2012681,Knakkergårdsvej,7752,30,8.5779983,56.8366336
2012683,Knakkergårdsvej,7752,31,8.5801991,56.8378928
2012684,Knakkergårdsvej,7752,32,8.5781406,56.8368456
2012685,Knakkergårdsvej,7752,33,8.5820075,56.8379831
2012687,Knakkergårdsvej,7752,34,8.578156,56.837008
2012688,Knakkergårdsvej,7752,35,8.586284,56.837276
2012689,Knakkergårdsvej,7752,36,8.5784067,56.8371744
2012690,Knakkergårdsvej,7752,37,8.587689,56.83744
2012692,Knakkergårdsvej,7752,38,8.578584,56.837354
2012693,Knakkergårdsvej,7752,39,8.5936334,56.8360928
2012695,Knakkergårdsvej,7752,40,8.5789969,56.8374727
2012696,Knakkergårdsvej,7752,42,8.579287,56.837541
2012697,Knakkergårdsvej,7752,44,8.583159,56.837511
2035808,Nyhåbsvej,7752,1,8.4904359,56.8498867
2035809,Nyhåbsvej,7752,2,8.490153,56.849976
2035810,Nyhåbsvej,7752,3,8.4903573,56.8497486
2035811,Nyhåbsvej,7752,4,8.4900173,56.8498428
2035812,Nyhåbsvej,7752,5,8.4902822,56.8495674
2035813,Nyhåbsvej,7752,6,8.4898931,56.8496683
2035814,Nyhåbsvej,7752,7,8.490148,56.849428
2035815,Nyhåbsvej,7752,8,8.4898798,56.8494271
2035816,Nyhåbsvej,7752,9,8.4900751,56.8491837
2035817,Nyhåbsvej,7752,10,8.4897505,56.849167
2035818,Nyhåbsvej,7752,11,8.490002,56.8490326
2035819,Nyhåbsvej,7752,12,8.4896767,56.8489254
2035820,Nyhåbsvej,7752,13,8.4900284,56.8488768
2035821,Nyhåbsvej,7752,14,8.4895958,56.8487691
2035822,Nyhåbsvej,7752,15,8.4897024,56.8483985
2035823,Nyhåbsvej,7752,16,8.489528,56.848629
2035824,Nyhåbsvej,7752,17,8.4896704,56.8482628
2035825,Nyhåbsvej,7752,18,8.4894045,56.8483931
2035827,Nyhåbsvej,7752,19,8.4897505,56.8481072
2035829,Nyhåbsvej,7752,20,8.4890265,56.8477717
2035830,Nyhåbsvej,7752,21,8.4894981,56.84796
2035833,Nyhåbsvej,7752,22,8.4889721,56.8476391
2035835,Nyhåbsvej,7752,23,8.4895091,56.8478222
2035837,Nyhåbsvej,7752,24,8.4889005,56.8474734
2035838,Nyhåbsvej,7752,25,8.489514,56.847623
2035840,Nyhåbsvej,7752,26,8.488664,56.847191
2035842,Nyhåbsvej,7752,27,8.489417,56.8474008
2035844,Nyhåbsvej,7752,28,8.488635,56.8469857
2035846,Nyhåbsvej,7752,30,8.488582,56.846879
2035848,Nyhåbsvej,7752,31,8.4892774,56.8471317
2035850,Nyhåbsvej,7752,32,8.4883317,56.8463727
2035851,Nyhåbsvej,7752,32A,8.4881515,56.8466298
2035852,Nyhåbsvej,7752,33,8.4891917,56.8469592
2035871,Tøvlingvej,7752,1,8.4982099,56.8516197
2035872,Tøvlingvej,7752,3,8.5002987,56.854553
2035873,Tøvlingvej,7752,4,8.5008879,56.8540717
2035874,Tøvlingvej,7752,5,8.4990548,56.8563443
2035875,Tøvlingvej,7752,6,8.5049214,56.8547022
2035878,Tøvlingvej,7752,7,8.5026927,56.8610407
2035879,Tøvlingvej,7752,8,8.5066935,56.8543581
2035882,Tøvlingvej,7752,10,8.5077144,56.8555717
2035885,Tøvlingvej,7752,12,8.503211,56.858575
2035889,Tøvlingvej,7752,14,8.5048554,56.8608094
2035890,Tøvlingvej,7752,21B,8.5057996,56.8658338
2038415,Sarasvej,7752,3,8.3535669,56.9235671
2038416,Sarasvej,7752,18,8.3568921,56.9232192
2038417,Sarasvej,7752,20,8.3569451,56.9236771
2038418,Sarasvej,7752,22,8.3562707,56.9238076
2038419,Sarasvej,7752,24,8.3556412,56.9238771
2038420,Sarasvej,7752,26,8.3569481,56.9241189
2038421,Sarasvej,7752,32,8.3567539,56.9243859
2038422,Sarasvej,7752,34,8.3575678,56.9243187
2038423,Sarasvej,7752,36,8.3575237,56.924081
2047098,Røde Anes Vej,7752,9A,8.4903642,56.9041797
2048677,Buen,7752,47A,8.586121,56.864896
2051748,Kærvej,7752,2A,8.5182858,56.8928302
2068227,Ved Parken,7752,1,8.5272124,56.8464026
2068228,Ved Parken,7752,2,8.5273771,56.8462102
2068229,Ved Parken,7752,3,8.527745,56.846619
2068230,Ved Parken,7752,4,8.5276569,56.8463327
2068231,Ved Parken,7752,5,8.528072,56.8468284
2068232,Ved Parken,7752,6,8.5279443,56.8464792
2068233,Ved Parken,7752,7,8.5283005,56.8469242
2068234,Ved Parken,7752,7B,8.5285221,56.8472004
2068235,Ved Parken,7752,8,8.5282677,56.8466002
2068236,Ved Parken,7752,9,8.5294727,56.8473817
2068237,Ved Parken,7752,10,8.5288873,56.8468794
2068238,Ved Parken,7752,11,8.529785,56.847539
2068239,Ved Parken,7752,12,8.5291678,56.846997
2068241,Ved Parken,7752,13,8.5300708,56.8478744
2068242,Ved Parken,7752,14,8.5295831,56.8471958
2068245,Ved Parken,7752,15,8.5303889,56.847982
2068246,Ved Parken,7752,16,8.5300504,56.8473977
2068248,Ved Parken,7752,18,8.5305208,56.8476999
2068249,Ved Parken,7752,19,8.5305777,56.8483142
2068250,Ved Parken,7752,20,8.5309341,56.847921
2068251,Ved Parken,7752,21,8.5308307,56.8484434
2068252,Ved Parken,7752,22,8.5310485,56.8480509
2068253,Ved Parken,7752,23,8.5310972,56.8486567
2068254,Ved Parken,7752,24,8.5313916,56.8481669
2068255,Ved Parken,7752,25,8.5310812,56.8488392
2068256,Ved Parken,7752,26,8.5316216,56.847811
2068257,Ved Parken,7752,27,8.5315072,56.8489652
2068258,Ved Parken,7752,28,8.5316941,56.8485184
2068259,Ved Parken,7752,35,8.534599,56.850743
2068438,Hybenvej,7752,1,8.4968542,56.8486552
2068439,Hybenvej,7752,2,8.497196,56.848426
2068440,Hybenvej,7752,3,8.4973395,56.8495338
2068441,Hybenvej,7752,4,8.497296,56.848602
2068442,Hybenvej,7752,6,8.4975559,56.8488703
2068443,Hybenvej,7752,8,8.4976929,56.8490739
2068444,Hybenvej,7752,10,8.497715,56.849269
2068445,Hybenvej,7752,12,8.498313,56.84949
2068447,Hybenvej,7752,20,8.4987389,56.849993
2068515,Istrupvej,7752,12,8.3587947,56.9170638
2068652,Prøvensvej,7752,15,8.3593955,56.9212066
2068738,Atriumvej,7752,1,8.519763,56.845502
2068739,Atriumvej,7752,2,8.519915,56.845177
2068740,Atriumvej,7752,3,8.520145,56.845493
2068741,Atriumvej,7752,4,8.519935,56.845104
2068742,Atriumvej,7752,5,8.520504,56.845538
2068743,Atriumvej,7752,6,8.519948,56.845034
2068744,Atriumvej,7752,7,8.520826,56.84558
2068745,Atriumvej,7752,8,8.519954,56.844962
2068746,Atriumvej,7752,9,8.521263,56.845504
2068747,Atriumvej,7752,10,8.520288,56.844979
2068750,Atriumvej,7752,11,8.521599,56.845639
2068751,Atriumvej,7752,12,8.520282,56.845052
2068753,Atriumvej,7752,14,8.520273,56.845122
2068756,Atriumvej,7752,16,8.52026,56.845192
2068757,Atriumvej,7752,18,8.520851,56.845219
2068760,Atriumvej,7752,20,8.520856,56.845148
2068763,Atriumvej,7752,22,8.520868,56.845079
2068765,Atriumvej,7752,24,8.520886,56.845006
2068769,Atriumvej,7752,26,8.521225,56.845024
2068771,Atriumvej,7752,28,8.521211,56.845092
2068774,Atriumvej,7752,30,8.521204,56.845165
2068778,Atriumvej,7752,32,8.521191,56.845238
2068780,Atriumvej,7752,34,8.5217,56.845302
2068832,Årup Byvej,7752,39,8.4819593,56.8932846
2068969,Svinget,7752,1,8.53114,56.845872
2068970,Svinget,7752,2,8.5325146,56.8459354
2068971,Svinget,7752,2B,8.5320624,56.8457383
2068972,Svinget,7752,5,8.5323721,56.8461679
2068973,Svinget,7752,7,8.5328013,56.846341
2068974,Svinget,7752,9,8.5330897,56.8465229
2068975,Svinget,7752,11,8.5335525,56.8467236
2068976,Svinget,7752,13,8.5339795,56.8468059
2068977,Svinget,7752,15,8.5343962,56.8468481
2069004,Trædholmvej,7752,10,8.5667368,56.8557328
2069005,Trædholmvej,7752,11,8.570607,56.853545
2069101,Degnevænget,7752,1,8.5305324,56.8458284
2069102,Degnevænget,7752,1A,8.5303842,56.8455634
2069104,Degnevænget,7752,1B,8.5304827,56.8456732
2069106,Degnevænget,7752,2A,8.5312225,56.8460813
2069108,Degnevænget,7752,2B,8.5313057,56.8461853
2069111,Degnevænget,7752,3,8.5306608,56.845993
2069112,Degnevænget,7752,4,8.5314838,56.8463646
2069115,Degnevænget,7752,5,8.5315593,56.8468022
2069117,Degnevænget,7752,6,8.5317417,56.8465977
2069121,Degnevænget,7752,7,8.5320621,56.8470404
2069123,Degnevænget,7752,8,8.5320613,56.8464729
2069125,Degnevænget,7752,9,8.5323988,56.8471894
2069128,Degnevænget,7752,10,8.5321441,56.8467716
2069131,Degnevænget,7752,11,8.532606,56.8473159
2069132,Degnevænget,7752,12,8.5324392,56.8466254
2069135,Degnevænget,7752,14,8.5325741,56.8469474
2069137,Degnevænget,7752,16,8.5329109,56.8468061
2069139,Degnevænget,7752,18,8.5330676,56.8470591
2069140,Degnevænget,7752,20,8.5332935,56.8469599
2069144,Degnevænget,7752,22,8.533517,56.847125
2069194,Ebenezervej,7752,5,8.366278,56.920013
2069277,Hørdumvej,7752,1,8.5170639,56.8470769
2069280,Hørdumvej,7752,2,8.5180751,56.8473307
2069283,Hørdumvej,7752,4,8.5149888,56.8482197
2069285,Hørdumvej,7752,6,8.513244,56.847047
2069287,Hørdumvej,7752,8,8.511326,56.8470659
2069291,Hørdumvej,7752,10,8.508356,56.847242
2069292,Hørdumvej,7752,12,8.5057577,56.8474913
2069296,Hørdumvej,7752,14,8.506968,56.849484
2069298,Hørdumvej,7752,16,8.5047624,56.8481679
2069302,Hørdumvej,7752,18,8.50391,56.850868
2069306,Hørdumvej,7752,20,8.5006617,56.8486264
2069685,Markstien,7752,4,8.4876367,56.8491766
2069688,Markstien,7752,6,8.4875641,56.84905
2069690,Markstien,7752,8,8.4876072,56.8487326
2069842,Kirkestien,7752,1,8.5228023,56.846445
2069843,Kirkestien,7752,2,8.5223573,56.8465261
2069844,Kirkestien,7752,3,8.5225563,56.8462854
2069845,Kirkestien,7752,4,8.5219373,56.8464149
2069932,Limfjordsgade,7752,1,8.527762,56.8460309
2069935,Limfjordsgade,7752,2,8.5282726,56.8457158
2069936,Limfjordsgade,7752,3,8.5279596,56.8460032
2069939,Limfjordsgade,7752,4,8.5286675,56.8455748
2069941,Limfjordsgade,7752,4A,8.528819,56.845572
2069943,Limfjordsgade,7752,4B,8.52889,56.845563
2069944,Limfjordsgade,7752,5,8.5282973,56.845924
2069945,Limfjordsgade,7752,6,8.5288052,56.8454397
2069946,Limfjordsgade,7752,7,8.5285981,56.8458493
2069947,Limfjordsgade,7752,8,8.529162,56.845551
2069948,Limfjordsgade,7752,9,8.529452,56.846115
2069949,Limfjordsgade,7752,10,8.5294006,56.8454162
2069950,Limfjordsgade,7752,11,8.5297279,56.845608
2069951,Limfjordsgade,7752,12,8.5297378,56.8453307
2069952,Limfjordsgade,7752,13,8.530031,56.845542
2069953,Limfjordsgade,7752,14,8.5299913,56.8452056
2069954,Limfjordsgade,7752,15,8.5311817,56.8454655
2069955,Limfjordsgade,7752,16,8.5301733,56.8448657
2069956,Limfjordsgade,7752,18,8.5303369,56.8452048
2069957,Limfjordsgade,7752,20,8.530639,56.8451464
2070053,Enehøjvej,7752,2,8.525067,56.88865
2070055,Enehøjvej,7752,4,8.5244098,56.8886379
2070057,Enehøjvej,7752,17,8.5263318,56.8881976
2070059,Enehøjvej,7752,21,8.525981,56.888279
2070061,Enehøjvej,7752,23,8.5255036,56.8883134
2070093,Legårdsvej,7752,2,8.485658,56.892722
2070095,Legårdsvej,7752,4,8.485857,56.892696
2070098,Legårdsvej,7752,28,8.4601774,56.8826526
2070099,Legårdsvej,7752,29A,8.4637321,56.8769733
2070100,Legårdsvej,7752,32,8.4463522,56.8796294
2070101,Legårdsvej,7752,34,8.438862,56.879933
2070102,Legårdsvej,7752,35,8.4433475,56.87918
2070164,Meldbjergvej,7752,5,8.596883,56.871642
2070213,Toften,7752,1,8.5242062,56.8429419
2070214,Toften,7752,2,8.5232168,56.8428694
2070218,Toften,7752,5,8.525589,56.8435159
2070220,Toften,7752,9,8.5251947,56.8429089
2070270,Kastanievej,7752,1,8.5301558,56.8472933
2070272,Kastanievej,7752,3,8.5304459,56.8471462
2070273,Kastanievej,7752,5,8.5306892,56.8470226
2070276,Kastanievej,7752,7,8.530887,56.846926
2070277,Kastanievej,7752,9,8.5311112,56.8468579
2070340,Lavlundsvej,7752,1,8.5722534,56.8394318
2070341,Lavlundsvej,7752,2,8.581067,56.84366
2070342,Lavlundsvej,7752,4,8.5773857,56.8463916
2070343,Lavlundsvej,7752,6,8.5781312,56.8480031
2070517,Skyumbjergevej,7752,2,8.5452156,56.8543202
2070519,Skyumbjergevej,7752,4,8.5533324,56.8535094
2070523,Skyumbjergevej,7752,5,8.560789,56.8531427
2070525,Skyumbjergevej,7752,6,8.5724029,56.8492658
2070527,Skyumbjergevej,7752,7,8.5704452,56.8499693
2070528,Skyumbjergevej,7752,9,8.5812073,56.8525487
2070529,Skyumbjergevej,7752,10,8.584639,56.8450281
2070530,Skyumbjergevej,7752,11,8.5896056,56.8489166
2070531,Skyumbjergevej,7752,11B,8.5892744,56.8451822
2070532,Skyumbjergevej,7752,12,8.5920096,56.8453368
2070533,Skyumbjergevej,7752,13,8.5917785,56.8514189
2070766,Bjergvej,7752,1,8.609059,56.847946
2070810,Lavendelvej,7752,1,8.519548,56.846216
2070815,Lavendelvej,7752,2A,8.5195772,56.845912
2070818,Lavendelvej,7752,2B,8.5195682,56.845797
2070819,Lavendelvej,7752,3,8.5198584,56.846264
2070825,Lavendelvej,7752,4,8.5199816,56.8459042
2070828,Lavendelvej,7752,5,8.520278,56.846234
2070830,Lavendelvej,7752,6,8.5203067,56.8459136
2070834,Lavendelvej,7752,7,8.520723,56.846194
2070836,Lavendelvej,7752,8,8.5207142,56.84593
2070838,Lavendelvej,7752,9,8.52102,56.846261
2070839,Lavendelvej,7752,10,8.5211112,56.8459081
2070841,Lavendelvej,7752,11,8.521433,56.846177
2070842,Lavendelvej,7752,12,8.5214931,56.845955
2070955,Hyldebærvænget,7752,6,8.520271,56.847859
2070959,Hyldebærvænget,7752,21,8.5210114,56.8478303
2070961,Hyldebærvænget,7752,23,8.5212178,56.84783
2070966,Hyldebærvænget,7752,25,8.5216235,56.8479907
2070970,Hyldebærvænget,7752,27,8.5216178,56.8479026
2070971,Hyldebærvænget,7752,29,8.5215937,56.8477327
2070975,Hyldebærvænget,7752,31,8.5215933,56.8476369
2070977,Hyldebærvænget,7752,33,8.5212285,56.8476366
2070980,Hyldebærvænget,7752,35,8.5210595,56.8476379
2070992,Årupmøllevej,7752,8,8.483523,56.888002
2071128,Jens Mullis Vænge,7752,1,8.576167,56.824207
2071129,Jens Mullis Vænge,7752,2,8.57563,56.824452
2071130,Jens Mullis Vænge,7752,3,8.576246,56.823992
2071131,Jens Mullis Vænge,7752,4,8.5756306,56.8242169
2071132,Jens Mullis Vænge,7752,5,8.5762385,56.8237504
2071133,Jens Mullis Vænge,7752,6,8.575743,56.824007
2071134,Jens Mullis Vænge,7752,7,8.576214,56.823537
2071135,Jens Mullis Vænge,7752,8,8.5756733,56.8237906
2071136,Jens Mullis Vænge,7752,10,8.575815,56.823528
2071230,Nørhågårdsvej,7752,1,8.4355425,56.898267
2071345,Banevej,7752,2,8.488921,56.849077
2071346,Banevej,7752,4,8.488833,56.848967
2071347,Banevej,7752,6,8.488726,56.84883
2071348,Banevej,7752,8,8.488645,56.8487045
2071351,Banevej,7752,10,8.488519,56.848563
2071352,Banevej,7752,12,8.488431,56.848442
2071354,Banevej,7752,14,8.488344,56.848323
2071357,Banevej,7752,16,8.488235,56.848056
2071598,Tyskebakken,7752,2,8.4427712,56.9052709
2071649,Idylvej,7752,2,8.4889253,56.849326
2071650,Idylvej,7752,3,8.4868134,56.8488806
2071651,Idylvej,7752,5,8.4868139,56.8494696
2071652,Idylvej,7752,9,8.4860933,56.8495876
2071653,Idylvej,7752,11,8.485712,56.8494269
2071988,Thorsvej,7752,1,8.5235845,56.8446148
2071992,Thorsvej,7752,2,8.523965,56.844936
2071995,Thorsvej,7752,3,8.5231584,56.8445854
2072000,Thorsvej,7752,4,8.5229805,56.8449122
2072001,Thorsvej,7752,5,8.5228909,56.8445693
2072004,Thorsvej,7752,7,8.5220139,56.8445198
2072007,Thorsvej,7752,12,8.5221906,56.8448297
2072009,Thorsvej,7752,13,8.5212946,56.844323
2072011,Thorsvej,7752,14,8.5217527,56.8447902
2072013,Thorsvej,7752,15,8.5203898,56.8444121
2072015,Thorsvej,7752,16,8.5214765,56.8447739
2072017,Thorsvej,7752,18A,8.5210634,56.8447463
2072018,Thorsvej,7752,18B,8.5210606,56.844856
2072021,Thorsvej,7752,20,8.5205068,56.8446524
2072024,Thorsvej,7752,21,8.5183299,56.8442019
2072026,Thorsvej,7752,23,8.51553,56.844222
2072029,Thorsvej,7752,25,8.5140673,56.8433226
2072031,Thorsvej,7752,26,8.513998,56.844409
2072032,Thorsvej,7752,28,8.5149199,56.8459723
2072133,Irupvej,7752,1,8.5149934,56.8380252
2072134,Irupvej,7752,2,8.529229,56.833198
2072135,Irupvej,7752,2B,8.529496,56.8333288
2072136,Irupvej,7752,2C,8.5299328,56.8334462
2072137,Irupvej,7752,4,8.5476688,56.8320756
2072138,Irupvej,7752,5,8.540756,56.836238
2072139,Irupvej,7752,6,8.5481188,56.8300236
2072140,Irupvej,7752,7,8.554672,56.831951
2072141,Irupvej,7752,8,8.5582409,56.8299788
2072142,Irupvej,7752,9,8.5591662,56.8298301
2072143,Irupvej,7752,10,8.5585855,56.8295191
2072144,Irupvej,7752,11,8.559451,56.8300332
2072209,Gisselbækvej,7752,4,8.482179,56.840554
2072210,Gisselbækvej,7752,5,8.478233,56.8400573
2072211,Gisselbækvej,7752,6,8.4828059,56.8438168
2072212,Gisselbækvej,7752,7,8.484655,56.850359
2072213,Gisselbækvej,7752,8,8.4863981,56.8553129
2072214,Gisselbækvej,7752,9,8.485326,56.8532329
2072215,Gisselbækvej,7752,10,8.4871528,56.8565801
2072216,Gisselbækvej,7752,11,8.4856016,56.8534642
2072217,Gisselbækvej,7752,12,8.490828,56.857597
2072218,Gisselbækvej,7752,13,8.48451,56.853852
2072219,Gisselbækvej,7752,14,8.489708,56.859423
2072220,Gisselbækvej,7752,15A,8.485699,56.854454
2072221,Gisselbækvej,7752,15B,8.4854472,56.8547008
2072222,Gisselbækvej,7752,16,8.48998,56.8603361
2072223,Gisselbækvej,7752,17,8.4851065,56.8556365
2072224,Gisselbækvej,7752,19,8.485794,56.856847
2072225,Gisselbækvej,7752,21,8.4854452,56.859232
2072226,Gisselbækvej,7752,23,8.4871361,56.8595214
2072227,Gisselbækvej,7752,25,8.487114,56.860641
2072323,Idrætsvej,7752,12,8.5263401,56.894022
2072324,Idrætsvej,7752,14,8.526592,56.893863
2072325,Idrætsvej,7752,16,8.526933,56.893851
2072326,Idrætsvej,7752,18,8.527219,56.893857
2072327,Idrætsvej,7752,20,8.527505,56.893984
2072328,Idrætsvej,7752,22,8.527191,56.894173
2072329,Idrætsvej,7752,24,8.526969,56.894033
2072330,Idrætsvej,7752,26,8.5281389,56.8945259
2072331,Idrætsvej,7752,42,8.52763,56.8949182
2072332,Idrætsvej,7752,44,8.5277848,56.8948957
2072333,Idrætsvej,7752,46,8.527517,56.8947279
2072334,Idrætsvej,7752,48,8.527695,56.894686
2072335,Idrætsvej,7752,50,8.527303,56.894529
2072336,Idrætsvej,7752,52,8.527476,56.894525
2072337,Idrætsvej,7752,54,8.5267452,56.8944654
2072338,Idrætsvej,7752,56,8.5269549,56.8944624
2072339,Idrætsvej,7752,58,8.5268066,56.8946979
2072340,Idrætsvej,7752,60,8.5270054,56.8946887
2072341,Idrætsvej,7752,62,8.5268842,56.8949088
2072342,Idrætsvej,7752,64,8.527082,56.8949237
2072343,Idrætsvej,7752,66,8.5272457,56.894913
2072344,Idrætsvej,7752,76,8.5261395,56.8950907
2072345,Idrætsvej,7752,78,8.526797,56.895303
2072346,Idrætsvej,7752,80,8.5288475,56.8955742
2072427,Damsgårdvej,7752,5,8.4866005,56.8472017
2072428,Damsgårdvej,7752,6,8.471941,56.850713
2072429,Damsgårdvej,7752,7,8.4879083,56.8469231
2072430,Damsgårdvej,7752,8,8.4795711,56.8485407
2072431,Damsgårdvej,7752,8B,8.4822494,56.847664
2072432,Kågkil,7752,3,8.5959567,56.8665162
2072433,Kågkil,7752,9,8.590231,56.859824
2072527,Limfjordsvangen,7752,1,8.5728078,56.8259945
2072533,Limfjordsvangen,7752,3,8.5731781,56.8258536
2072537,Limfjordsvangen,7752,5,8.5735114,56.8257434
2072538,Limfjordsvangen,7752,7,8.5738474,56.8255918
2072541,Limfjordsvangen,7752,9,8.5742038,56.8254625
2072542,Limfjordsvangen,7752,11,8.5745,56.8253318
2072543,Limfjordsvangen,7752,13,8.574798,56.825224
2072544,Limfjordsvangen,7752,15,8.5751475,56.8250899
2072545,Limfjordsvangen,7752,17,8.5755374,56.8249547
2072546,Limfjordsvangen,7752,19,8.5758128,56.824837
2072547,Limfjordsvangen,7752,21,8.5761779,56.8246887
2072548,Limfjordsvangen,7752,23,8.5765108,56.8245577
2072549,Limfjordsvangen,7752,25,8.5768415,56.8244278
2072550,Limfjordsvangen,7752,27,8.5772298,56.8242815
2072551,Limfjordsvangen,7752,29,8.5775587,56.8241343
2072606,Tinggårdsvej,7752,1,8.565986,56.8439132
2072607,Tinggårdsvej,7752,2,8.5682405,56.8376519
2072608,Tinggårdsvej,7752,3,8.5624935,56.8444938
2072609,Tinggårdsvej,7752,4,8.5704495,56.8406536
2072610,Tinggårdsvej,7752,4B,8.567756,56.8410535
2072611,Tinggårdsvej,7752,5,8.5668077,56.8450941
2072612,Tinggårdsvej,7752,6,8.5670561,56.8444427
2072613,Tinggårdsvej,7752,7,8.5684546,56.8474033
2072614,Tinggårdsvej,7752,8,8.5680727,56.8455487
2072615,Tinggårdsvej,7752,9,8.5683249,56.8494018
2072616,Tinggårdsvej,7752,10,8.569368,56.847388
2072680,Kirsebærvænget,7752,1,8.5224205,56.8487258
2072681,Kirsebærvænget,7752,2,8.521412,56.8482509
2072682,Kirsebærvænget,7752,3,8.523091,56.848817
2072683,Kirsebærvænget,7752,5,8.522452,56.8490452
2072684,Kirsebærvænget,7752,7,8.523026,56.8492119
2072685,Kirsebærvænget,7752,9,8.5225252,56.8493503
2072686,Kirsebærvænget,7752,11,8.5226291,56.849737
2072687,Kirsebærvænget,7752,15,8.5233229,56.8493808
2072688,Kirsebærvænget,7752,17,8.5231583,56.8497819
2072689,Kirsebærvænget,7752,19,8.5238393,56.8494333
2072690,Kirsebærvænget,7752,21,8.5245423,56.8497413
2072691,Kirsebærvænget,7752,23,8.524891,56.8497704
2072692,Kirsebærvænget,7752,25,8.5251456,56.849404
2072693,Kirsebærvænget,7752,27,8.5243804,56.8494039
2072694,Kirsebærvænget,7752,29,8.5252376,56.8490522
2072695,Kirsebærvænget,7752,31,8.524614,56.84925
2072696,Kirsebærvænget,7752,33,8.5253668,56.848794
2072697,Kirsebærvænget,7752,35,8.5246751,56.8488324
2072698,Kirsebærvænget,7752,37,8.5235488,56.8488157
2072699,Kirsebærvænget,7752,39,8.5241701,56.8488249
2072700,Kirsebærvænget,7752,75,8.527038,56.849469
2072701,Kirsebærvænget,7752,77,8.527805,56.8489996
2072702,Kirsebærvænget,7752,79,8.52819,56.848618
2072754,Biblioteksvej,7752,1,8.5193965,56.8469502
2072755,Biblioteksvej,7752,2,8.5193445,56.8466341
2072756,Biblioteksvej,7752,3,8.519693,56.846956
2072757,Biblioteksvej,7752,4,8.5197541,56.8466363
2072758,Biblioteksvej,7752,5,8.520113,56.8469589
2072759,Biblioteksvej,7752,6,8.520197,56.846634
2072760,Biblioteksvej,7752,7,8.5205251,56.8469207
2072761,Biblioteksvej,7752,8,8.5205387,56.84659
2072762,Biblioteksvej,7752,9,8.5209116,56.846907
2072763,Biblioteksvej,7752,10,8.5209619,56.8465623
2072764,Biblioteksvej,7752,11,8.5213054,56.8468906
2072765,Biblioteksvej,7752,12,8.5213625,56.8465814
2072789,Stendalsvej,7752,1,8.5764925,56.8350829
2072790,Stendalsvej,7752,2,8.5823552,56.832428
2072791,Stendalsvej,7752,3,8.585984,56.8319326
2072792,Stendalsvej,7752,4,8.5827244,56.8295929
2072793,Stendalsvej,7752,5,8.585537,56.8301309
2072800,Solitudevej,7752,1,8.5309638,56.8474604
2072801,Solitudevej,7752,2,8.5303172,56.8475005
2072802,Solitudevej,7752,3,8.5312824,56.8473483
2072803,Solitudevej,7752,5,8.5315594,56.8472534
2072804,Gudnæsstrandvej,7752,1,8.5357695,56.8195598
2072805,Gudnæsstrandvej,7752,2,8.5345512,56.8191722
2072806,Gudnæsstrandvej,7752,3,8.534921,56.819028
2072807,Gudnæsstrandvej,7752,5,8.536691,56.818133
2072808,Gudnæsstrandvej,7752,7,8.534514,56.818248
2072809,Gudnæsstrandvej,7752,9,8.5339512,56.8184717
2072810,Gudnæsstrandvej,7752,11,8.533574,56.818567
2072811,Gudnæsstrandvej,7752,13,8.533306,56.8185209
2072812,Gudnæsstrandvej,7752,15,8.5329479,56.8183896
2072818,Solsikkevej,7752,2,8.5275714,56.8453236
2072819,Solsikkevej,7752,4,8.5275386,56.8452507
2072820,Solsikkevej,7752,6,8.5274976,56.8451567
2072821,Solsikkevej,7752,8,8.5272723,56.8451876
2072822,Solsikkevej,7752,10,8.527321,56.8452779
2072823,Solsikkevej,7752,12,8.5273672,56.8453591
2072824,Solsikkevej,7752,14,8.527634,56.8448872
2072826,Solsikkevej,7752,16,8.5276021,56.8448159
2072828,Solsikkevej,7752,18,8.5275519,56.8447147
2072830,Solsikkevej,7752,19,8.5281623,56.8448394
2072831,Solsikkevej,7752,20,8.5273365,56.8447516
2072832,Solsikkevej,7752,21,8.528159,56.8449057
2072833,Solsikkevej,7752,22,8.5273824,56.8448439
2072834,Solsikkevej,7752,23,8.5281641,56.8449706
2072835,Solsikkevej,7752,24,8.5274222,56.8449209
2072836,Solsikkevej,7752,25,8.5281582,56.8450307
2072837,Solsikkevej,7752,26,8.5270612,56.8449673
2072838,Solsikkevej,7752,27,8.5285115,56.8448151
2072839,Solsikkevej,7752,28,8.527037,56.8448963
2072840,Solsikkevej,7752,29,8.5286186,56.8448196
2072841,Solsikkevej,7752,30,8.5269811,56.8448056
2072842,Solsikkevej,7752,31,8.5287478,56.8448171
2072843,Solsikkevej,7752,32,8.5267624,56.844833
2072844,Solsikkevej,7752,33,8.5288799,56.844819
2072845,Solsikkevej,7752,34,8.5268088,56.844923
2072846,Solsikkevej,7752,35,8.529107,56.8447876
2072847,Solsikkevej,7752,36,8.526838,56.8449976
2072848,Solsikkevej,7752,37,8.5292253,56.8447864
2072849,Solsikkevej,7752,39,8.529349,56.8447867
2072850,Solsikkevej,7752,41,8.5294784,56.8447856
2072851,Solsikkevej,7752,43,8.5282685,56.8444526
2073092,Rønnebærvænget,7752,1,8.5226011,56.8483722
2073093,Rønnebærvænget,7752,2,8.5222308,56.8483218
2073094,Rønnebærvænget,7752,3,8.5225948,56.8482553
2073095,Rønnebærvænget,7752,4,8.5222354,56.848232
2073096,Rønnebærvænget,7752,5,8.522601,56.8481296
2073097,Rønnebærvænget,7752,6,8.5221585,56.8481052
2073098,Rønnebærvænget,7752,7,8.5226077,56.8479951
2073099,Rønnebærvænget,7752,8,8.5221654,56.8479884
2073100,Rønnebærvænget,7752,9,8.5225273,56.8478444
2073101,Rønnebærvænget,7752,10,8.522043,56.847832
2073102,Rønnebærvænget,7752,11,8.5225414,56.8477167
2073103,Rønnebærvænget,7752,12,8.5220507,56.8477148
2073104,Rønnebærvænget,7752,13,8.5223611,56.8475421
2073105,Rønnebærvænget,7752,15,8.522181,56.847539
2073106,Rønnebærvænget,7752,17,8.5220007,56.8475368
2073111,Harring Bro Vej,7752,13,8.52139,56.860036
2073112,Harring Bro Vej,7752,13A,8.520942,56.864786
2073113,Harring Bro Vej,7752,13B,8.519447,56.863478
2073114,Harring Bro Vej,7752,13C,8.517918,56.862109
2073154,Fuglhøjgårdvej,7752,1,8.5147595,56.850879
2073160,Fuglhøjgårdvej,7752,1B,8.514592,56.850886
2073164,Fuglhøjgårdvej,7752,2,8.519668,56.8527366
2073166,Fuglhøjgårdvej,7752,3,8.5155962,56.8553316
2073171,Fuglhøjgårdvej,7752,4,8.5208857,56.8531164
2073173,Fuglhøjgårdvej,7752,5,8.514028,56.855506
2073176,Fuglhøjgårdvej,7752,6,8.517974,56.855104
2073251,Plantagevej,7752,10,8.5263525,56.8482073
2073253,Plantagevej,7752,12,8.5255861,56.8478141
2073495,Kongens Borer,7752,1,8.573714,56.825222
2073496,Kongens Borer,7752,2,8.5732203,56.8254077
2073497,Kongens Borer,7752,4,8.5730718,56.8251669
2073498,Kongens Borer,7752,5,8.573508,56.8247931
2073499,Kongens Borer,7752,6,8.5730364,56.8249706
2073500,Kongens Borer,7752,7,8.5733405,56.8245366
2073501,Kongens Borer,7752,8,8.572936,56.824705
2073502,Kongens Borer,7752,9,8.5732617,56.8243297
2073503,Kongens Borer,7752,10,8.572839,56.824445
2073532,Højbjerggårdsvej,7752,1,8.4980795,56.8414813
2073533,Højbjerggårdsvej,7752,2,8.505271,56.844317
2073534,Højbjerggårdsvej,7752,3,8.493035,56.840774
2073535,Højbjerggårdsvej,7752,4,8.4954472,56.8418465
2073569,Årbækvej,7752,2,8.558349,56.851738
2073570,Årbækvej,7752,6,8.5544487,56.8495116
2073573,Årbækvej,7752,8,8.557955,56.8475724
2073577,Årbækvej,7752,10,8.562139,56.8481844
2073625,Bøgevej,7752,1,8.5286106,56.8490196
2073628,Bøgevej,7752,3,8.5285605,56.8492299
2073640,Kærshøjvej,7752,6,8.573755,56.856577
2073642,Kærshøjvej,7752,11A,8.5850846,56.8576634
2073694,Skadholmvej,7752,5A,8.5070636,56.9045308
2073771,Præstevænget,7752,1,8.5228973,56.8443013
2073772,Præstevænget,7752,2,8.5222949,56.8445287
2073773,Præstevænget,7752,3,8.522616,56.8441318
2073774,Præstevænget,7752,4,8.5220368,56.8441891
2073775,Præstevænget,7752,5,8.5222335,56.8438673
2073776,Præstevænget,7752,6,8.5215814,56.8437396
2073777,Præstevænget,7752,7,8.5219788,56.8436731
2073778,Præstevænget,7752,9,8.5217931,56.8434995
2073800,Over Reese,7752,1,8.5748692,56.8247101
2073802,Over Reese,7752,2,8.5742774,56.8249571
2073804,Over Reese,7752,3,8.5748556,56.8244798
2073805,Over Reese,7752,4,8.5742394,56.824718
2073806,Over Reese,7752,5,8.5747223,56.8242793
2073807,Over Reese,7752,6,8.5741341,56.8244724
2073808,Over Reese,7752,7,8.5747261,56.8240211
2073809,Over Reese,7752,8,8.5742688,56.8242914
2073810,Over Reese,7752,9,8.574668,56.8238558
2073811,Over Reese,7752,10,8.574189,56.8240039
2073812,Over Reese,7752,11,8.5745862,56.8236118
2073813,Over Reese,7752,12,8.5741616,56.8237663
2073858,Blommevænget,7752,1,8.521267,56.8488089
2073859,Blommevænget,7752,2,8.5217845,56.8487348
2073860,Blommevænget,7752,3,8.5213364,56.8491516
2073861,Blommevænget,7752,4,8.5217646,56.8489969
2073862,Blommevænget,7752,5,8.5214407,56.8494966
2073863,Blommevænget,7752,6,8.521874,56.849346
2073864,Blommevænget,7752,7,8.5215246,56.8497027
2073865,Blommevænget,7752,10,8.5221893,56.8497797
2073896,Niels Juels Vej,7752,27,8.36772,56.9206926
2073897,Niels Juels Vej,7752,29,8.3674138,56.9207905
2073898,Niels Juels Vej,7752,31,8.366952,56.9209193
2073899,Niels Juels Vej,7752,33,8.3665604,56.9210618
2073900,Niels Juels Vej,7752,39,8.367992,56.921076
2073901,Niels Juels Vej,7752,41,8.3683696,56.9213669
2073902,Niels Juels Vej,7752,43,8.3676632,56.9214696
2073903,Niels Juels Vej,7752,49,8.366123,56.921622
2073929,Helsevej,7752,1,8.5198921,56.8447322
2073930,Helsevej,7752,2,8.51909,56.8452807
2073931,Helsevej,7752,4,8.5189768,56.8454777
2073932,Helsevej,7752,6,8.5189153,56.8456762
2073933,Helsevej,7752,8,8.5189837,56.8461537
2073934,Helsevej,7752,8B,8.5188343,56.8458322
2073935,Helsevej,7752,10,8.5189084,56.8462514
2073936,Helsevej,7752,12A,8.5189402,56.8464899
2073937,Helsevej,7752,12B,8.5188586,56.8464799
2073938,Helsevej,7752,12C,8.5187765,56.8464764
2073939,Helsevej,7752,12D,8.5189229,56.846561
2073940,Helsevej,7752,12E,8.5188411,56.846554
2073941,Helsevej,7752,12F,8.518757,56.8465474
2073942,Helsevej,7752,14,8.5188471,56.8467379
2073943,Helsevej,7752,16,8.5187719,56.8469899
2073965,Kløvervej,7752,2,8.5255192,56.8443417
2073992,Kærgårdsvej,7752,7,8.4473263,56.9013493
2073993,Kærgårdsvej,7752,24,8.481568,56.903651
2074008,Møllevangen,7752,1,8.4958511,56.8478969
2074009,Møllevangen,7752,2,8.4953078,56.8481632
2074010,Møllevangen,7752,3,8.4955437,56.8477432
2074011,Møllevangen,7752,4,8.4950717,56.847887
2074012,Møllevangen,7752,5,8.494544,56.845967
2074013,Møllevangen,7752,6,8.4945843,56.8479924
2074014,Møllevangen,7752,14,8.4935665,56.8478722
2074015,Møllevangen,7752,16,8.4942155,56.8477661
2074016,Møllevangen,7752,18,8.494628,56.847727
2074017,Møllevangen,7752,20,8.4949107,56.8476522
2074068,Harringhedevej,7752,6,8.549068,56.862185
2074069,Harringhedevej,7752,8,8.5468455,56.8628654
2074070,Harringhedevej,7752,16B,8.5394011,56.8659723
2074076,Knudsgårdsvej,7752,1A,8.5397677,56.9009075
2074106,Tøttrupvej,7752,2,8.5360413,56.8401026
2074107,Tøttrupvej,7752,4,8.5387205,56.8408294
2074108,Tøttrupvej,7752,4B,8.539039,56.839352
2074109,Tøttrupvej,7752,5,8.55388,56.8435268
2074110,Tøttrupvej,7752,6,8.541035,56.8408481
2074111,Tøttrupvej,7752,7,8.5534077,56.8463907
2074112,Tøttrupvej,7752,8,8.5397289,56.8423329
2074113,Tøttrupvej,7752,9,8.5513435,56.8480816
2074114,Tøttrupvej,7752,10,8.5410624,56.8426261
2074115,Tøttrupvej,7752,11,8.5530957,56.83997
2074116,Tøttrupvej,7752,12,8.5659241,56.8354049
2074117,Tøttrupvej,7752,12A,8.5668916,56.8359618
2074118,Tøttrupvej,7752,13,8.5693245,56.8364686
2074119,Tøttrupvej,7752,14,8.5683948,56.8357928
2074120,Tøttrupvej,7752,15,8.5715308,56.8364886
2074121,Tøttrupvej,7752,16,8.5717136,56.8355224
2074122,Tøttrupvej,7752,17,8.5728029,56.8359856
2074123,Østerstrandsvej,7752,1,8.5701027,56.8274997
2074124,Østerstrandsvej,7752,2,8.5627208,56.8287254
2074125,Østerstrandsvej,7752,3,8.5710308,56.8232694
2074126,Østerstrandsvej,7752,4,8.5711776,56.8248468
2074127,Østerstrandsvej,7752,6,8.5673953,56.8222362
2074128,Østerstrandsvej,7752,8,8.5659454,56.8204079
2074164,Vibberstoftvej,7752,1,8.5098416,56.8341816
2074165,Vibberstoftvej,7752,2,8.5158711,56.8305461
2074166,Vibberstoftvej,7752,3,8.5201596,56.832232
2074167,Vibberstoftvej,7752,4,8.5157051,56.8301028
2074168,Vibberstoftvej,7752,5,8.5219004,56.8316733
2074169,Vibberstoftvej,7752,6,8.5158399,56.8248523
2074170,Vibberstoftvej,7752,7,8.5227026,56.8305654
2074171,Vibberstoftvej,7752,8,8.5088534,56.8204677
2074172,Vibberstoftvej,7752,9,8.5264751,56.8275016
2074173,Vibberstoftvej,7752,11,8.519892,56.82961
2074174,Vibberstoftvej,7752,11B,8.528775,56.8248576
2074175,Vibberstoftvej,7752,11C,8.5289972,56.8243734
2074176,Vibberstoftvej,7752,13,8.5165065,56.8202781
2074322,Svankjærvej,7752,1A,8.5099197,56.8932292
2074332,Engkærbro,7752,7B,8.554076,56.87932
2074333,Engkærbro,7752,7C,8.553095,56.877719
2074336,Engkærbro,7752,9,8.5493645,56.8840012
2074338,Engkærbro,7752,15,8.549111,56.885694
2074341,Engkærbro,7752,16,8.556892,56.883717
2074377,Banegårdsvej,7752,1A,8.5272577,56.8925939
2074378,Banegårdsvej,7752,1B,8.5271527,56.8924382
2074379,Banegårdsvej,7752,1C,8.527111,56.8923312
2074380,Banegårdsvej,7752,3,8.5265027,56.8917631
2074381,Banegårdsvej,7752,12,8.525717,56.891602
2074397,Stadionvej,7752,1A,8.5273859,56.8466879
2074398,Stadionvej,7752,1B,8.5269671,56.8467956
2074399,Stadionvej,7752,1C,8.5267462,56.8469554
2074400,Stadionvej,7752,1D,8.5258304,56.8473978
2074401,Stadionvej,7752,2,8.5277909,56.8468914
2074402,Stadionvej,7752,3A,8.5274631,56.8470686
2074403,Stadionvej,7752,3B,8.5274956,56.8469856
2074404,Stadionvej,7752,3C,8.5275583,56.847094
2074405,Stadionvej,7752,3D,8.5272013,56.8471944
2074406,Stadionvej,7752,4,8.5278575,56.8470076
2074407,Stadionvej,7752,5,8.5275474,56.8472481
2074408,Stadionvej,7752,6,8.5280585,56.8472525
2074409,Stadionvej,7752,7,8.5277162,56.8473693
2074410,Stadionvej,7752,8,8.5281355,56.8474998
2074411,Stadionvej,7752,9,8.5279292,56.8476793
2074412,Stadionvej,7752,10,8.5281734,56.8476468
2074413,Stadionvej,7752,11,8.5285735,56.8488104
2074414,Stadionvej,7752,12,8.5283917,56.8477654
2074415,Stadionvej,7752,16,8.5286128,56.8481806
2074416,Stadionvej,7752,18,8.5286881,56.8484106
2074417,Stadionvej,7752,20,8.5293177,56.848682
2074418,Stadionvej,7752,24,8.5293322,56.8490426
2074444,Strandgårdsvej,7752,1A,8.3576688,56.9226455
2074445,Strandgårdsvej,7752,1B,8.3583783,56.9226569
2074460,Gadegårdsvej,7752,2A,8.454409,56.86251
2074463,Plovmarksvej,7752,1,8.5769401,56.8358375
2074464,Plovmarksvej,7752,2,8.577147,56.836108
2074465,Plovmarksvej,7752,3,8.5762865,56.835985
2074466,Plovmarksvej,7752,4,8.576659,56.836155
2074467,Plovmarksvej,7752,5,8.5757424,56.8362662
2074468,Plovmarksvej,7752,6,8.5765901,56.8364426
2074469,Plovmarksvej,7752,8,8.5766403,56.8366403
2074545,Iruplundvej,7752,1,8.4899083,56.8438937
2074547,Iruplundvej,7752,2,8.487997,56.8295934
2074548,Iruplundvej,7752,3,8.490909,56.843831
2074551,Iruplundvej,7752,4,8.484924,56.82798
2074552,Iruplundvej,7752,5,8.490948,56.843651
2074556,Iruplundvej,7752,7,8.4899928,56.843564
2074559,Iruplundvej,7752,9,8.4895357,56.8329967
2074563,Iruplundvej,7752,11,8.488973,56.831237
2074567,Iruplundvej,7752,13A,8.4899285,56.8289903
2074674,Sportsvej,7752,1,8.4904764,56.8506559
2074675,Sportsvej,7752,3,8.4906925,56.8508173
2074676,Sportsvej,7752,10,8.49088,56.850531
2074677,Sportsvej,7752,12,8.4914304,56.8507028
2074678,Sportsvej,7752,12A,8.4913736,56.8504151
2074679,Sportsvej,7752,14,8.491338,56.851049
2074680,Sportsvej,7752,16,8.4913947,56.8511707
2074681,Sportsvej,7752,18,8.4914883,56.8512807
2074682,Sportsvej,7752,20,8.4916452,56.8514355
2074683,Sportsvej,7752,22,8.4917875,56.8515704
2074684,Sportsvej,7752,24,8.4918961,56.8517118
2074685,Sportsvej,7752,26,8.4939715,56.8533138
2074697,Elstedvej,7752,15,8.585273,56.884924
2074698,Elstedvej,7752,21,8.584817,56.8849173
2174245,Følhøjvej,7752,1,8.5155838,56.8399839
2174252,Følhøjvej,7752,3,8.5145686,56.8395676
2175122,Egetoften,7752,1,8.5847503,56.8394322
2175128,Egetoften,7752,3,8.5846708,56.8386714
2175136,Egetoften,7752,5,8.583815,56.837813
2187372,Stenbjerg Parken,7752,10,8.3614192,56.9165973
2187375,Stenbjerg Parken,7752,11,8.3622674,56.9171692
2187377,Stenbjerg Parken,7752,12,8.361932,56.91648
2187379,Stenbjerg Parken,7752,13,8.3626927,56.9170798
2187381,Stenbjerg Parken,7752,14,8.36219,56.916732
2235066,Rosenvænget,7752,6B,8.521234,56.892171
2235882,Vandhøjvej,7752,23A,8.519576,56.889803
2235883,Vandhøjvej,7752,114,8.517523,56.890497
2235884,Vandhøjvej,7752,116,8.517053,56.890705
2236090,Sarasvej,7752,1B,8.353662,56.923289
2236274,Kærvej,7752,2B,8.5184462,56.8928132
2236510,Søndermarken,7752,2A,8.526893,56.8898
2236531,Enehøjvej,7752,6,8.524163,56.88837
2236532,Legårdsvej,7752,36B,8.435966,56.880082
2236556,Sigurd Müllers Vej,7752,13B,8.522537,56.887611
2236557,Møllestræde,7752,1B,8.523103,56.892086
2236559,Thorsvej,7752,27,8.5127127,56.8465179
2236566,Solsikkevej,7752,2A,8.52771,56.845754
2236567,Rævebakken,7752,1,8.610808,56.882821
2236568,Rævebakken,7752,2,8.610749,56.883308
2236573,Øster Alle,7752,3A,8.528943,56.891247
2236574,Øster Alle,7752,4A,8.529134,56.89076
2236575,Øster Alle,7752,10A,8.531613,56.891088
2236576,Øster Alle,7752,12,8.53266,56.891125
2236583,Nyvej,7752,1B,8.529461,56.892517
2236584,Kløvervej,7752,3,8.527157,56.84426
2236585,Liljevej,7752,5,8.589966,56.888753
2236587,Gærupvej,7752,7A,8.624003,56.857659
2236591,Gyrupvej,7752,10A,8.428548,56.887377
2236996,Snedstedvej,7752,39,8.5880133,56.8898594
2237784,Stenbjerg Parken,7752,1,8.3600631,56.9175621
2237785,Stenbjerg Parken,7752,2,8.359525,56.917098
2237786,Stenbjerg Parken,7752,3,8.360646,56.917625
2237787,Stenbjerg Parken,7752,4,8.360071,56.91699
2237788,Stenbjerg Parken,7752,5,8.361127,56.917512
2237789,Stenbjerg Parken,7752,6,8.360577,56.916856
2237790,Stenbjerg Parken,7752,7,8.361509,56.917399
2237791,Stenbjerg Parken,7752,8,8.360993,56.91674
2237792,Stenbjerg Parken,7752,9,8.361849,56.917309
2239253,Hovedgaden,7752,62A,8.524838,56.892771
2239254,Hovedgaden,7752,62B,8.524872,56.892974
2239255,Hovedgaden,7752,62C,8.524601,56.892966
2239256,Hovedgaden,7752,62D,8.524564,56.892769
2241390,Stenbjerg Kirke Vej,7752,51,8.358233,56.919942
2242660,Skadholmvej,7752,9,8.514174,56.909422
2242672,Engkærbro,7752,11,8.550986,56.884041
2242728,Thorsvej,7752,25A,8.512938,56.844014
2242738,Nyvangsvej,7752,10,8.504344,56.886776
2242779,Hovedgaden,7752,43A,8.5263411,56.8924926
2242780,Hovedgaden,7752,43B,8.526326,56.892439
2242781,Hovedgaden,7752,43C,8.526016,56.892431
2242782,Hovedgaden,7752,43D,8.526036,56.892488
2242783,Hovedgaden,7752,43E,8.526125,56.892494
2243060,Kærshøjvej,7752,5,8.575117,56.859093
2255449,Limfjordsgade,7752,17A,8.53192,56.845243
2255451,Stadionvej,7752,32,8.529473,56.849383
2255480,Nordmarksvej,7752,3,8.5294976,56.8950746
2255492,Stenbjerg Kirke Vej,7752,79A,8.356622,56.921054
2255493,Stenbjerg Kirke Vej,7752,79B,8.355969,56.921013
2255494,Stenbjerg Kirke Vej,7752,79C,8.3563218,56.9211249
2255495,Sømærkevej,7752,99,8.339316,56.918728
