idx,street,postcode,housenumber,lon,lat
629458,Stokholmvej,7830,38,8.869375,56.519067
767690,Stendisvej,7830,34,8.809698,56.4149
767694,Stendisvej,7830,53,8.82176,56.407324
769757,Viborgvej,7830,285,8.865198,56.396074
779721,Åvej,7830,10,8.711838,56.475446
779722,Åvej,7830,11,8.7114791,56.475301
779723,Åvej,7830,15,8.7111996,56.4751967
779724,Åvej,7830,17,8.7110133,56.4752247
779725,Åvej,7830,19,8.7112476,56.4753608
779726,Åvej,7830,21,8.7111191,56.4753681
779727,Åvej,7830,22,8.70891,56.474808
779728,Åvej,7830,23,8.7109876,56.4753672
779729,Åvej,7830,25,8.7108244,56.4753498
779730,Åvej,7830,26,8.70827,56.474696
779731,Åvej,7830,27,8.7106515,56.4752962
779732,Åvej,7830,28,8.7080089,56.4747027
779733,Åvej,7830,29,8.710398,56.475216
779734,Åvej,7830,30,8.7073267,56.4745644
779735,Åvej,7830,31,8.7101931,56.475088
779736,Åvej,7830,32,8.7070596,56.4745491
779737,Åvej,7830,34,8.7067461,56.4744434
779738,Åvej,7830,36,8.706548,56.4742952
779739,Åvej,7830,37,8.709573,56.4748667
779740,Åvej,7830,38,8.706201,56.474347
779741,Åvej,7830,39,8.7090708,56.4743982
779742,Åvej,7830,41,8.7087913,56.474443
779743,Åvej,7830,43,8.7089167,56.4741752
779744,Åvej,7830,45,8.7090699,56.4739742
779745,Åvej,7830,45B,8.7083386,56.4744028
779746,Åvej,7830,45C,8.7076263,56.4743582
779747,Åvej,7830,47,8.7067296,56.4740784
779748,Åvej,7830,49,8.707089,56.474058
781227,Fjordbakken,7830,10,8.7012849,56.4674175
781228,Fjordbakken,7830,11,8.7018633,56.466924
783158,Kragelundvej,7830,1,8.7004819,56.4612556
783159,Kragelundvej,7830,2,8.6984623,56.4681652
783160,Kragelundvej,7830,3,8.700447,56.4588044
783161,Kragelundvej,7830,4,8.6926632,56.466151
783162,Kragelundvej,7830,5,8.6977381,56.4547405
783163,Kragelundvej,7830,6,8.696343,56.465037
783164,Kragelundvej,7830,7,8.699969,56.4538507
783165,Kragelundvej,7830,8,8.693154,56.462251
783166,Kragelundvej,7830,9,8.6934131,56.4544035
783167,Kragelundvej,7830,10,8.699428,56.461974
783168,Kragelundvej,7830,11,8.691346,56.452275
783169,Kragelundvej,7830,12,8.6945522,56.455868
783170,Kragelundvej,7830,14,8.690339,56.454664
783171,Kragelundvej,7830,16,8.6902316,56.4535626
785455,Snødervej,7830,2,8.6932476,56.4709193
785456,Snødervej,7830,4,8.6927957,56.4708611
785457,Snødervej,7830,6,8.6925872,56.4712086
785458,Snødervej,7830,8,8.6920746,56.471128
785459,Snødervej,7830,10,8.6922387,56.4707933
785460,Snødervej,7830,12,8.6918187,56.4707499
785461,Snødervej,7830,14,8.6917019,56.4710412
785462,Snødervej,7830,16,8.691126,56.4709238
785463,Snødervej,7830,18,8.6912721,56.4706688
785464,Snødervej,7830,20,8.6907343,56.4706067
785465,Snødervej,7830,22,8.6908488,56.4702579
785466,Snødervej,7830,24,8.6914281,56.47037
785467,Snødervej,7830,26,8.6917997,56.4704092
785468,Snødervej,7830,28,8.692228,56.470486
785469,Snødervej,7830,30,8.6927535,56.4705677
785470,Snødervej,7830,32,8.6932743,56.4706457
785471,Snødervej,7830,34,8.693424,56.470227
785472,Snødervej,7830,36,8.693034,56.470217
785473,Snødervej,7830,38,8.6925511,56.4700363
785474,Snødervej,7830,40,8.6920438,56.470028
785475,Snødervej,7830,42,8.6915889,56.4700021
785476,Snødervej,7830,44,8.6909667,56.4698863
785477,Snødervej,7830,46,8.6906532,56.4697314
785478,Snødervej,7830,48,8.690648,56.4694404
785479,Snødervej,7830,50,8.691379,56.469537
785480,Snødervej,7830,52,8.6918506,56.4695897
785481,Snødervej,7830,54,8.6923258,56.4696698
785482,Snødervej,7830,56,8.6927976,56.4697543
785483,Snødervej,7830,58,8.6933034,56.469829
785484,Snødervej,7830,60,8.693688,56.469516
785485,Snødervej,7830,62,8.6930145,56.4693823
785486,Snødervej,7830,64,8.692531,56.4693
785487,Snødervej,7830,66,8.6919041,56.4692598
785488,Snødervej,7830,68,8.6914785,56.4692108
785489,Snødervej,7830,70,8.690918,56.469116
785490,Snødervej,7830,72,8.691098,56.468751
785491,Snødervej,7830,74,8.6914837,56.4688588
785492,Snødervej,7830,76,8.6921452,56.4689828
785493,Snødervej,7830,78,8.6926182,56.4690027
785494,Snødervej,7830,80,8.693192,56.4690865
785561,Sommerstedvej,7830,1,8.686109,56.470149
785562,Sommerstedvej,7830,2,8.68542,56.470119
785563,Sommerstedvej,7830,3,8.6861403,56.4698589
785564,Sommerstedvej,7830,4,8.6854858,56.4698311
785565,Sommerstedvej,7830,5,8.68664,56.469898
785566,Sommerstedvej,7830,6,8.684884,56.4699702
785567,Sommerstedvej,7830,7,8.6865188,56.4703249
785568,Sommerstedvej,7830,8,8.6843323,56.4698944
785569,Sommerstedvej,7830,9,8.6869926,56.4703637
785570,Sommerstedvej,7830,10,8.6837775,56.4698509
785571,Sommerstedvej,7830,11,8.6871883,56.4700878
785572,Sommerstedvej,7830,12,8.6844916,56.469522
785573,Sommerstedvej,7830,13,8.6877272,56.4701589
785574,Sommerstedvej,7830,14,8.6850108,56.4695264
785575,Sommerstedvej,7830,15,8.6874868,56.470383
785576,Sommerstedvej,7830,16,8.6857015,56.4694693
785577,Sommerstedvej,7830,17,8.6879829,56.4705047
785578,Sommerstedvej,7830,18,8.6859542,56.4691511
785579,Sommerstedvej,7830,19,8.6886001,56.4703118
785580,Sommerstedvej,7830,21,8.6891543,56.4703688
785581,Sommerstedvej,7830,23,8.6892228,56.4700679
785582,Sommerstedvej,7830,24,8.6846757,56.4687402
785583,Sommerstedvej,7830,25A,8.6881564,56.4699608
785584,Sommerstedvej,7830,26,8.6851929,56.4688254
785585,Sommerstedvej,7830,27,8.687433,56.4697309
785586,Sommerstedvej,7830,28,8.6859135,56.4688613
785587,Sommerstedvej,7830,29,8.6869905,56.4696809
785588,Sommerstedvej,7830,30,8.6860307,56.4686706
785589,Sommerstedvej,7830,31,8.6864547,56.4695766
785590,Sommerstedvej,7830,32,8.6852817,56.4685077
785591,Sommerstedvej,7830,33,8.686385,56.4692827
785592,Sommerstedvej,7830,34,8.6845675,56.4683992
785593,Sommerstedvej,7830,35,8.6870517,56.4693269
785594,Sommerstedvej,7830,36,8.6847785,56.4681433
785595,Sommerstedvej,7830,37,8.6876198,56.4694711
785596,Sommerstedvej,7830,38,8.6851946,56.468202
785597,Sommerstedvej,7830,39,8.6882094,56.4695708
785598,Sommerstedvej,7830,41,8.6886178,56.4697308
785599,Sommerstedvej,7830,43,8.689279,56.469714
785600,Sommerstedvej,7830,45,8.6894719,56.4693912
785601,Sommerstedvej,7830,46,8.6866374,56.4676907
785602,Sommerstedvej,7830,47,8.6889309,56.469294
785603,Sommerstedvej,7830,48,8.6855464,56.4676624
785604,Sommerstedvej,7830,49,8.6883737,56.4691966
785605,Sommerstedvej,7830,50,8.6849986,56.4677555
785606,Sommerstedvej,7830,51,8.6878643,56.4690819
785607,Sommerstedvej,7830,55,8.6867729,56.4689529
785608,Sommerstedvej,7830,57,8.6869327,56.4686434
785609,Sommerstedvej,7830,59,8.6874224,56.4687255
785610,Sommerstedvej,7830,61,8.6880029,56.4688264
785611,Sommerstedvej,7830,63,8.6885375,56.4688477
785612,Sommerstedvej,7830,65,8.6891519,56.4689574
785613,Sommerstedvej,7830,67,8.6896678,56.4690372
785614,Sommerstedvej,7830,69,8.6898778,56.468598
785615,Sommerstedvej,7830,71,8.6898846,56.4681723
785616,Sommerstedvej,7830,73,8.6894047,56.4681982
785617,Sommerstedvej,7830,75,8.6892044,56.468539
785618,Sommerstedvej,7830,77,8.6888461,56.4685706
785619,Sommerstedvej,7830,79,8.6888667,56.4681441
785620,Sommerstedvej,7830,81,8.6884395,56.4681141
785621,Sommerstedvej,7830,83,8.6881959,56.4684477
785622,Sommerstedvej,7830,85,8.6877154,56.4683396
785623,Sommerstedvej,7830,87,8.6879946,56.468011
785624,Sommerstedvej,7830,89,8.6873526,56.4679592
785625,Sommerstedvej,7830,91,8.6871491,56.4682663
786358,Tellingvej,7830,6,8.6897565,56.4520199
787541,Øster Hjermvej,7830,21,8.696012,56.450505
787543,Øster Hjermvej,7830,23,8.7046603,56.452014
787549,Øster Hjermvej,7830,34,8.7011273,56.4468089
896768,Viborgvej,7830,300,8.876205,56.396407
896769,Viborgvej,7830,301,8.866064,56.396535
896770,Viborgvej,7830,302,8.893558,56.396886
896771,Viborgvej,7830,303,8.873177,56.396723
896772,Viborgvej,7830,304,8.902173,56.396351
896773,Viborgvej,7830,305,8.879766,56.397273
896774,Viborgvej,7830,306,8.910188,56.397966
896775,Viborgvej,7830,306A,8.910036,56.398002
896776,Viborgvej,7830,307,8.882656,56.397443
896777,Viborgvej,7830,308,8.915905,56.398397
896778,Viborgvej,7830,309,8.89228,56.399698
896779,Viborgvej,7830,311,8.894862,56.398285
896780,Viborgvej,7830,312,8.921593,56.396889
896781,Viborgvej,7830,313,8.897493,56.400104
896782,Viborgvej,7830,314,8.927759,56.398527
896783,Viborgvej,7830,315,8.927599,56.401201
896784,Viborgvej,7830,316,8.925084,56.394519
896785,Viborgvej,7830,317,8.945836,56.401953
896786,Viborgvej,7830,317A,8.945987,56.401963
896787,Viborgvej,7830,318,8.932633,56.391352
896788,Viborgvej,7830,318A,8.930076,56.393646
896789,Viborgvej,7830,319,8.946379,56.401988
896790,Viborgvej,7830,320,8.930007,56.394298
896791,Viborgvej,7830,321,8.947048,56.402187
896792,Viborgvej,7830,322,8.935022,56.400915
896793,Viborgvej,7830,323,8.947453,56.402145
896794,Viborgvej,7830,325,8.948018,56.40222
896795,Viborgvej,7830,326,8.937945,56.395729
896796,Viborgvej,7830,327,8.948744,56.403926
896797,Viborgvej,7830,328,8.935916,56.400699
896798,Viborgvej,7830,329,8.949597,56.402224
896799,Viborgvej,7830,330,8.944763,56.401579
896800,Viborgvej,7830,331,8.949921,56.402251
896801,Viborgvej,7830,332,8.948032,56.401467
896802,Viborgvej,7830,333,8.951983,56.402476
896803,Viborgvej,7830,334,8.948734,56.401855
896804,Viborgvej,7830,335,8.952779,56.402456
896805,Viborgvej,7830,337,8.957665,56.402777
896806,Viborgvej,7830,338,8.9497,56.401891
896807,Viborgvej,7830,339,8.958623,56.402826
896808,Viborgvej,7830,340,8.950628,56.401928
896809,Viborgvej,7830,341,8.959098,56.403139
896810,Viborgvej,7830,342,8.951445,56.401883
896811,Viborgvej,7830,343,8.959638,56.402985
896812,Viborgvej,7830,344,8.952775,56.402076
896814,Viborgvej,7830,346,8.953438,56.402062
896815,Viborgvej,7830,348,8.955615,56.402246
896816,Viborgvej,7830,350,8.956853,56.402331
896817,Viborgvej,7830,352,8.955462,56.401107
896818,Viborgvej,7830,354,8.957512,56.402408
896819,Viborgvej,7830,356,8.958194,56.401968
908614,Vindelevgård,7830,1,8.794427,56.475265
908615,Vindelevgård,7830,2,8.794439,56.475682
908616,Vindelevgård,7830,3,8.794264,56.47503
908617,Vindelevgård,7830,4,8.794785,56.475606
908618,Vindelevgård,7830,5,8.794152,56.474811
908619,Vindelevgård,7830,6,8.794947,56.475868
908620,Vindelevgård,7830,7,8.794083,56.474561
908621,Vindelevgård,7830,8,8.795144,56.476006
908622,Vindelevgård,7830,9,8.793946,56.474305
908623,Vindelevgård,7830,10,8.794764,56.476088
908624,Vindelevgård,7830,11,8.794093,56.475305
908625,Vindelevgård,7830,12,8.794234,56.476216
908626,Vindelevgård,7830,13,8.793969,56.475094
908627,Vindelevgård,7830,14,8.794071,56.476032
908628,Vindelevgård,7830,15,8.793798,56.474881
908629,Vindelevgård,7830,16,8.793883,56.475744
908630,Vindelevgård,7830,17,8.793645,56.474662
908631,Vindelevgård,7830,18,8.792889,56.475977
908632,Vindelevgård,7830,19,8.793461,56.474441
908633,Vindelevgård,7830,20,8.793399,56.475895
908634,Vindelevgård,7830,21,8.793525,56.475374
908635,Vindelevgård,7830,22,8.793589,56.476186
908636,Vindelevgård,7830,23,8.793159,56.475267
908637,Vindelevgård,7830,24,8.793724,56.476411
908638,Vindelevgård,7830,25,8.793045,56.475043
908639,Vindelevgård,7830,26,8.793304,56.476396
908640,Vindelevgård,7830,27,8.792913,56.474814
908641,Vindelevgård,7830,28,8.792884,56.476505
908642,Vindelevgård,7830,29,8.792782,56.47457
908643,Vindelevgård,7830,30,8.792724,56.476313
908644,Vindelevgård,7830,31,8.792956,56.475524
908645,Vindelevgård,7830,32,8.792556,56.476069
908646,Vindelevgård,7830,33,8.792833,56.475322
908647,Vindelevgård,7830,34,8.791958,56.476133
908648,Vindelevgård,7830,35,8.792681,56.475115
908649,Vindelevgård,7830,36,8.792148,56.476436
908650,Vindelevgård,7830,37,8.792499,56.474866
908651,Vindelevgård,7830,38,8.79233,56.476692
908652,Vindelevgård,7830,39,8.792342,56.474634
908653,Vindelevgård,7830,40,8.791894,56.476716
908654,Vindelevgård,7830,41,8.792223,56.475739
908655,Vindelevgård,7830,42,8.791489,56.476783
908656,Vindelevgård,7830,43,8.792193,56.475452
908657,Vindelevgård,7830,44,8.791311,56.476576
908658,Vindelevgård,7830,45,8.792026,56.47526
908659,Vindelevgård,7830,46,8.79104,56.476418
908660,Vindelevgård,7830,47,8.791789,56.475033
908661,Vindelevgård,7830,48,8.791574,56.476211
908662,Vindelevgård,7830,49,8.791647,56.47481
908663,Vindelevgård,7830,50,8.790524,56.47653
908664,Vindelevgård,7830,51,8.791848,56.475729
908665,Vindelevgård,7830,52,8.790724,56.47671
908666,Vindelevgård,7830,53,8.791709,56.475533
908667,Vindelevgård,7830,54,8.790808,56.476934
908668,Vindelevgård,7830,55,8.791576,56.475336
908669,Vindelevgård,7830,56,8.790537,56.477078
908670,Vindelevgård,7830,57,8.791449,56.475118
908671,Vindelevgård,7830,58,8.790076,56.477152
908672,Vindelevgård,7830,59,8.791268,56.47492
908673,Vindelevgård,7830,60,8.78991,56.47687
908674,Vindelevgård,7830,61,8.791121,56.475926
908675,Vindelevgård,7830,62,8.789785,56.476693
908676,Vindelevgård,7830,63,8.79099,56.475735
908677,Vindelevgård,7830,64,8.790083,56.476609
908678,Vindelevgård,7830,65,8.790839,56.475515
908679,Vindelevgård,7830,67,8.790756,56.475288
908680,Vindelevgård,7830,69,8.790562,56.475054
908681,Vindelevgård,7830,70,8.793007,56.473148
908682,Vindelevgård,7830,71,8.790734,56.475953
908683,Vindelevgård,7830,72,8.793135,56.4734
908684,Vindelevgård,7830,73,8.790614,56.475772
908685,Vindelevgård,7830,74,8.793299,56.47364
908686,Vindelevgård,7830,75,8.790428,56.475571
908687,Vindelevgård,7830,76,8.793508,56.473818
908688,Vindelevgård,7830,77,8.79032,56.475352
908689,Vindelevgård,7830,78,8.793676,56.474085
908690,Vindelevgård,7830,79,8.790165,56.475155
908691,Vindelevgård,7830,80,8.792667,56.473277
908692,Vindelevgård,7830,81,8.790104,56.476182
908693,Vindelevgård,7830,82,8.792839,56.473455
908694,Vindelevgård,7830,83,8.789879,56.475945
908695,Vindelevgård,7830,84,8.792996,56.473693
908696,Vindelevgård,7830,85,8.789698,56.475765
908697,Vindelevgård,7830,86,8.793129,56.473922
908698,Vindelevgård,7830,87,8.789623,56.475505
908699,Vindelevgård,7830,88,8.793303,56.474146
908700,Vindelevgård,7830,89,8.78943,56.475292
908701,Vindelevgård,7830,90,8.791907,56.473412
908702,Vindelevgård,7830,91,8.789677,56.476269
908703,Vindelevgård,7830,92,8.792053,56.473629
908704,Vindelevgård,7830,93,8.789496,56.476018
908705,Vindelevgård,7830,94,8.792187,56.473865
908706,Vindelevgård,7830,95,8.789364,56.47581
908707,Vindelevgård,7830,96,8.792412,56.474076
908708,Vindelevgård,7830,97,8.78922,56.475574
908709,Vindelevgård,7830,98,8.792585,56.4743
908710,Vindelevgård,7830,99,8.789069,56.475346
908711,Vindelevgård,7830,100,8.791539,56.473463
908712,Vindelevgård,7830,101,8.788964,56.476382
908713,Vindelevgård,7830,102,8.791748,56.47371
908714,Vindelevgård,7830,103,8.788784,56.476202
908715,Vindelevgård,7830,104,8.791902,56.473925
908716,Vindelevgård,7830,105,8.788685,56.475947
908717,Vindelevgård,7830,106,8.792024,56.47416
908718,Vindelevgård,7830,107,8.788566,56.475737
908719,Vindelevgård,7830,108,8.792186,56.474385
908720,Vindelevgård,7830,109,8.7884,56.475497
908721,Vindelevgård,7830,110,8.790858,56.473635
908722,Vindelevgård,7830,111,8.788519,56.476504
908723,Vindelevgård,7830,112,8.791008,56.47389
908724,Vindelevgård,7830,114,8.79114,56.474086
908725,Vindelevgård,7830,115,8.788256,56.47604
908726,Vindelevgård,7830,116,8.791324,56.474323
908727,Vindelevgård,7830,117,8.788095,56.475805
908728,Vindelevgård,7830,118,8.791457,56.474533
908729,Vindelevgård,7830,119,8.787974,56.475579
908730,Vindelevgård,7830,120,8.790447,56.473708
908731,Vindelevgård,7830,121,8.791337,56.473076
908732,Vindelevgård,7830,122,8.790607,56.473963
908733,Vindelevgård,7830,123,8.791676,56.472943
908734,Vindelevgård,7830,124,8.790746,56.47414
908735,Vindelevgård,7830,125,8.792094,56.472949
908736,Vindelevgård,7830,126,8.790908,56.474369
908737,Vindelevgård,7830,127,8.792437,56.472889
908738,Vindelevgård,7830,128,8.791033,56.474551
908739,Vindelevgård,7830,129,8.792929,56.472734
908740,Vindelevgård,7830,130,8.789753,56.473876
908741,Vindelevgård,7830,132,8.789832,56.474117
908742,Vindelevgård,7830,133,8.792158,56.472609
908743,Vindelevgård,7830,134,8.789983,56.474334
908744,Vindelevgård,7830,135,8.791588,56.472735
908745,Vindelevgård,7830,136,8.790217,56.474541
908746,Vindelevgård,7830,137,8.79108,56.472805
908747,Vindelevgård,7830,138,8.790291,56.474776
908748,Vindelevgård,7830,139,8.79093,56.472379
908749,Vindelevgård,7830,140,8.78938,56.473957
908750,Vindelevgård,7830,141,8.791467,56.472446
908751,Vindelevgård,7830,142,8.789494,56.474165
908752,Vindelevgård,7830,143,8.791962,56.472366
908753,Vindelevgård,7830,144,8.789595,56.474403
908754,Vindelevgård,7830,145,8.792449,56.472193
908755,Vindelevgård,7830,146,8.789843,56.474633
908756,Vindelevgård,7830,148,8.789987,56.474839
908757,Vindelevgård,7830,149,8.792082,56.471971
908758,Vindelevgård,7830,150,8.78869,56.474108
908759,Vindelevgård,7830,151,8.791696,56.472092
908760,Vindelevgård,7830,152,8.788717,56.474355
908761,Vindelevgård,7830,154,8.788866,56.474573
908762,Vindelevgård,7830,155,8.791205,56.472152
908763,Vindelevgård,7830,156,8.789077,56.474768
908764,Vindelevgård,7830,157,8.790102,56.472525
908765,Vindelevgård,7830,158,8.789238,56.474994
908766,Vindelevgård,7830,159,8.789982,56.47222
908767,Vindelevgård,7830,160,8.788271,56.474189
908768,Vindelevgård,7830,161,8.789586,56.472567
908769,Vindelevgård,7830,162,8.788426,56.474408
908770,Vindelevgård,7830,163,8.789454,56.472289
908771,Vindelevgård,7830,164,8.788561,56.474625
908772,Vindelevgård,7830,165,8.788978,56.472381
908773,Vindelevgård,7830,166,8.788719,56.474864
908774,Vindelevgård,7830,167,8.789138,56.472641
908775,Vindelevgård,7830,168,8.788875,56.47508
908776,Vindelevgård,7830,169,8.788618,56.472755
908777,Vindelevgård,7830,170,8.787489,56.474353
908778,Vindelevgård,7830,171,8.78844,56.472492
908779,Vindelevgård,7830,172,8.78765,56.474568
908780,Vindelevgård,7830,173,8.788059,56.472577
908781,Vindelevgård,7830,174,8.787786,56.474795
908782,Vindelevgård,7830,175,8.78828,56.472831
908783,Vindelevgård,7830,176,8.788025,56.475034
908784,Vindelevgård,7830,177,8.788535,56.473124
908785,Vindelevgård,7830,178,8.788382,56.475145
908786,Vindelevgård,7830,179,8.789065,56.472986
908787,Vindelevgård,7830,180,8.787066,56.474385
908788,Vindelevgård,7830,181,8.789464,56.472776
908789,Vindelevgård,7830,182,8.787292,56.474625
908790,Vindelevgård,7830,183,8.789861,56.472759
908791,Vindelevgård,7830,184,8.787414,56.474824
908792,Vindelevgård,7830,186,8.787577,56.475125
908793,Vindelevgård,7830,187,8.790342,56.472903
908794,Vindelevgård,7830,188,8.787669,56.475314
908795,Vindelevgård,7830,189,8.790118,56.473024
908796,Vindelevgård,7830,190,8.792292,56.47114
908797,Vindelevgård,7830,191,8.789623,56.473125
908798,Vindelevgård,7830,192,8.791802,56.471252
908799,Vindelevgård,7830,193,8.789236,56.473261
908800,Vindelevgård,7830,194,8.791806,56.471482
908801,Vindelevgård,7830,195,8.788731,56.473413
908802,Vindelevgård,7830,196,8.792348,56.471433
908803,Vindelevgård,7830,197,8.788926,56.473586
908804,Vindelevgård,7830,198,8.792174,56.470452
908805,Vindelevgård,7830,199,8.789343,56.473585
908806,Vindelevgård,7830,200,8.791781,56.470523
908807,Vindelevgård,7830,201,8.789846,56.473454
908808,Vindelevgård,7830,202,8.7913,56.470619
908809,Vindelevgård,7830,203,8.790192,56.473271
908810,Vindelevgård,7830,204,8.790849,56.47063
908811,Vindelevgård,7830,205,8.79364,56.472366
908812,Vindelevgård,7830,206,8.790443,56.47078
908813,Vindelevgård,7830,206B,8.78991,56.470873
908814,Vindelevgård,7830,207,8.788349,56.473786
908815,Vindelevgård,7830,208,8.789501,56.470986
908816,Vindelevgård,7830,209,8.788205,56.473801
908817,Vindelevgård,7830,210,8.789136,56.471083
908818,Vindelevgård,7830,211,8.788277,56.473615
908819,Vindelevgård,7830,211A,8.787987,56.473724
908821,Vindelevgård,7830,212,8.788797,56.471214
908824,Vindelevgård,7830,213,8.788074,56.473678
908825,Vindelevgård,7830,214,8.788941,56.471593
908827,Vindelevgård,7830,215,8.788141,56.473522
908828,Vindelevgård,7830,216,8.789234,56.471822
908831,Vindelevgård,7830,217,8.788116,56.47349
908833,Vindelevgård,7830,218,8.789723,56.471804
908834,Vindelevgård,7830,219,8.788092,56.473458
908837,Vindelevgård,7830,220,8.789467,56.471386
908838,Vindelevgård,7830,221,8.787972,56.473343
908840,Vindelevgård,7830,222,8.789812,56.471282
908841,Vindelevgård,7830,223,8.78803,56.47333
908843,Vindelevgård,7830,224,8.790279,56.471159
908844,Vindelevgård,7830,225,8.788088,56.473316
908845,Vindelevgård,7830,226,8.790488,56.471459
908846,Vindelevgård,7830,227,8.787515,56.473183
908847,Vindelevgård,7830,228,8.789456,56.47144
908849,Vindelevgård,7830,229,8.787458,56.473108
908851,Vindelevgård,7830,230,8.791096,56.471715
908852,Vindelevgård,7830,231,8.787345,56.472958
908854,Vindelevgård,7830,232,8.790958,56.471429
908856,Vindelevgård,7830,233,8.787291,56.472842
908858,Vindelevgård,7830,234,8.790621,56.470998
908860,Vindelevgård,7830,235,8.78757,56.472775
908862,Vindelevgård,7830,236,8.791321,56.47091
908864,Vindelevgård,7830,237,8.787683,56.472899
908866,Vindelevgård,7830,239,8.787739,56.472973
908868,Vindelevgård,7830,240,8.791928,56.47078
908870,Vindelevgård,7830,241,8.787863,56.473113
908872,Vindelevgård,7830,242,8.792284,56.47071
908874,Vindelevgård,7830,244,8.787586,56.471835
908875,Vindelevgård,7830,246,8.787779,56.472169
908878,Vindelevgård,7830,248,8.788136,56.47205
908879,Vindelevgård,7830,250,8.787966,56.471784
908881,Vindelevgård,7830,251,8.787614,56.473774
908882,Vindelevgård,7830,252,8.788437,56.471729
908885,Vindelevgård,7830,253,8.787558,56.4737
908887,Vindelevgård,7830,254,8.788442,56.471311
908888,Vindelevgård,7830,255,8.787466,56.47357
908891,Vindelevgård,7830,256,8.788096,56.471465
908892,Vindelevgård,7830,257,8.787204,56.473622
908894,Vindelevgård,7830,258,8.787652,56.471462
908897,Vindelevgård,7830,259,8.787287,56.473732
908898,Vindelevgård,7830,260,8.787274,56.471524
908900,Vindelevgård,7830,261,8.78737,56.473864
908902,Vindelevgård,7830,262,8.786706,56.471673
908904,Vindelevgård,7830,263,8.787442,56.47396
908906,Vindelevgård,7830,264,8.786284,56.471668
908908,Vindelevgård,7830,265,8.786737,56.473956
908910,Vindelevgård,7830,266,8.785732,56.47171
908911,Vindelevgård,7830,267,8.786399,56.473289
908914,Vindelevgård,7830,268,8.786096,56.471962
908916,Vindelevgård,7830,270,8.786404,56.472198
908917,Vindelevgård,7830,271,8.793727,56.472399
908920,Vindelevgård,7830,272,8.786392,56.472562
908921,Vindelevgård,7830,274,8.786985,56.47245
908923,Vindelevgård,7830,275,8.79587,56.468391
908926,Vindelevgård,7830,276,8.786784,56.472226
908927,Vindelevgård,7830,278,8.786649,56.472006
908958,Vesterlund,7830,1,8.773716,56.47668
908959,Vesterlund,7830,2A,8.773286,56.477078
908961,Vesterlund,7830,2B,8.773052,56.476717
908963,Vesterlund,7830,3,8.773537,56.476517
908964,Vesterlund,7830,4,8.772585,56.476711
908966,Vesterlund,7830,5,8.772455,56.47605
908968,Vesterlund,7830,6,8.772847,56.476334
908970,Vesterlund,7830,8,8.772366,56.476335
908971,Vesterlund,7830,9,8.771595,56.4752
908973,Vesterlund,7830,10,8.77172,56.476466
908974,Vesterlund,7830,11,8.771404,56.475461
908976,Vesterlund,7830,12,8.771897,56.476714
908977,Vesterlund,7830,13,8.771609,56.475703
908978,Vesterlund,7830,14,8.772026,56.477095
908979,Vesterlund,7830,15,8.77172,56.475906
908980,Vesterlund,7830,16,8.772155,56.477266
908981,Vesterlund,7830,17,8.771849,56.476108
908982,Vesterlund,7830,18,8.771687,56.477259
908983,Vesterlund,7830,19,8.771083,56.476278
908984,Vesterlund,7830,20,8.771594,56.477122
908985,Vesterlund,7830,21,8.770951,56.476041
908986,Vesterlund,7830,22,8.771468,56.47685
908987,Vesterlund,7830,23,8.770852,56.475825
908988,Vesterlund,7830,24,8.77133,56.476583
908989,Vesterlund,7830,25,8.770771,56.475641
908990,Vesterlund,7830,26,8.770566,56.476747
908991,Vesterlund,7830,27,8.770324,56.475952
908992,Vesterlund,7830,28,8.770781,56.476955
908993,Vesterlund,7830,29,8.770496,56.476171
908994,Vesterlund,7830,30,8.770893,56.477214
908995,Vesterlund,7830,31,8.770651,56.476377
908996,Vesterlund,7830,32,8.770912,56.477369
908997,Vesterlund,7830,33,8.770052,56.476479
908998,Vesterlund,7830,35,8.7698,56.476268
908999,Vesterlund,7830,36,8.770433,56.477233
909000,Vesterlund,7830,37,8.769461,56.476574
909001,Vesterlund,7830,38,8.77033,56.477023
909002,Vesterlund,7830,40,8.770192,56.476778
909004,Vesterlund,7830,42,8.769536,56.476933
909005,Vesterlund,7830,43,8.773266,56.476166
909008,Vesterlund,7830,44,8.769585,56.477171
909009,Vesterlund,7830,45,8.773617,56.476118
909010,Vesterlund,7830,46,8.769769,56.477404
909012,Vesterlund,7830,47,8.774068,56.476037
909014,Vesterlund,7830,48,8.770231,56.477655
909015,Vesterlund,7830,49,8.774151,56.476159
909017,Vesterlund,7830,50,8.76951,56.477688
909019,Vesterlund,7830,51,8.774234,56.47628
909020,Vesterlund,7830,52,8.769326,56.477472
909022,Vesterlund,7830,53,8.774355,56.476489
909024,Vesterlund,7830,54,8.769188,56.47723
909025,Vesterlund,7830,55,8.774946,56.476825
909027,Vesterlund,7830,56,8.769027,56.477009
909029,Vesterlund,7830,57,8.774892,56.476729
909030,Vesterlund,7830,58,8.768342,56.477152
909032,Vesterlund,7830,59,8.774849,56.476602
909033,Vesterlund,7830,60,8.768478,56.477346
909034,Vesterlund,7830,61,8.774764,56.476481
909035,Vesterlund,7830,62,8.768658,56.477594
909036,Vesterlund,7830,63,8.774682,56.47636
909037,Vesterlund,7830,64,8.768687,56.477765
909038,Vesterlund,7830,65,8.774551,56.476246
909039,Vesterlund,7830,66,8.768401,56.47788
909040,Vesterlund,7830,67,8.774467,56.476127
909041,Vesterlund,7830,68,8.768194,56.477667
909042,Vesterlund,7830,69,8.774382,56.476006
909043,Vesterlund,7830,70,8.768117,56.477379
909044,Vesterlund,7830,72,8.767268,56.477614
909045,Vesterlund,7830,74,8.767367,56.477817
909046,Vesterlund,7830,76,8.767379,56.478042
909047,Vesterlund,7830,78,8.772915,56.47578
909048,Vesterlund,7830,78A,8.77308,56.4756
909049,Vesterlund,7830,80,8.772665,56.475068
909050,Vesterlund,7830,82A,8.772224,56.475122
909051,Vesterlund,7830,82C,8.77246,56.475712
909052,Vesterlund,7830,84,8.77336,56.475899
909054,Vesterlund,7830,86,8.773835,56.475786
909056,Vesterlund,7830,88,8.773751,56.475663
909057,Vesterlund,7830,90,8.773669,56.47554
909058,Vesterlund,7830,92,8.773628,56.47541
909060,Vesterlund,7830,94,8.773547,56.475289
909061,Vesterlund,7830,96,8.77346,56.475168
909063,Vesterlund,7830,98,8.773424,56.475038
909065,Vesterlund,7830,100,8.773342,56.474917
909066,Vesterlund,7830,102,8.773257,56.474797
909067,Vesterlund,7830,104,8.773662,56.474894
909068,Vesterlund,7830,106,8.773744,56.475014
909070,Vesterlund,7830,108,8.773779,56.475144
909071,Vesterlund,7830,110,8.773865,56.475265
909072,Vesterlund,7830,112,8.77395,56.475387
909075,Vesterlund,7830,114,8.773986,56.475513
909076,Vesterlund,7830,116,8.77407,56.475637
909078,Vesterlund,7830,118,8.774155,56.475758
909079,Vesterlund,7830,120,8.774718,56.475653
909081,Vesterlund,7830,122,8.774612,56.475454
909083,Vesterlund,7830,124,8.774496,56.475241
909085,Vesterlund,7830,126,8.774398,56.475055
909086,Vesterlund,7830,128,8.774163,56.474853
909087,Vesterlund,7830,130,8.774603,56.474869
909089,Vesterlund,7830,132,8.774712,56.475081
909090,Vesterlund,7830,134,8.774827,56.475287
909091,Vesterlund,7830,136,8.774935,56.47546
909092,Vesterlund,7830,138,8.775045,56.475645
909093,Vesterlund,7830,140,8.775138,56.475842
909094,Vesterlund,7830,142,8.775243,56.476032
909095,Havevej,7830,1A,8.77679,56.478478
909096,Havevej,7830,1B,8.776422,56.478612
909097,Havevej,7830,3,8.776264,56.478773
909098,Havevej,7830,4,8.776649,56.47891
909099,Havevej,7830,5,8.775911,56.478896
909100,Havevej,7830,6,8.776354,56.478957
909101,Havevej,7830,7,8.775611,56.478835
909102,Havevej,7830,8,8.775924,56.479022
909103,Havevej,7830,9,8.775493,56.47885
909104,Havevej,7830,12,8.775464,56.479173
909105,Havevej,7830,12A,8.775314,56.479102
909106,Havevej,7830,12B,8.775382,56.479193
909107,Havevej,7830,13,8.77504,56.479007
909108,Havevej,7830,14,8.775191,56.479121
909109,Havevej,7830,15,8.774747,56.479042
909110,Havevej,7830,16,8.77497,56.479218
909111,Havevej,7830,17,8.774634,56.479057
909112,Havevej,7830,18,8.77472,56.479179
909113,Havevej,7830,19,8.774348,56.479093
909114,Havevej,7830,20,8.774467,56.479209
909115,Havevej,7830,21,8.774246,56.479104
909116,Havevej,7830,22,8.774339,56.479225
909117,Havevej,7830,23A,8.773979,56.479119
909118,Havevej,7830,23B,8.7739088,56.4789716
909119,Havevej,7830,23C,8.7736749,56.4790111
909120,Havevej,7830,24,8.774029,56.479264
909121,Havevej,7830,25,8.773659,56.479183
909122,Havevej,7830,26,8.773705,56.479308
909123,Havevej,7830,27,8.773541,56.479198
909124,Havevej,7830,28,8.773586,56.479324
909125,Havevej,7830,29,8.773217,56.479162
909126,Havevej,7830,29A,8.773028,56.479188
909127,Havevej,7830,30,8.773268,56.479364
909128,Havevej,7830,31,8.772845,56.47929
909129,Havevej,7830,32,8.772995,56.479403
909130,Havevej,7830,33,8.772692,56.47931
909131,Havevej,7830,34,8.772732,56.479439
909132,Havevej,7830,35,8.772432,56.479339
909133,Havevej,7830,36,8.772515,56.479462
909134,Havevej,7830,37,8.772222,56.479368
909135,Havevej,7830,38,8.772249,56.479494
909136,Havevej,7830,39,8.772014,56.479398
909137,Havevej,7830,40,8.771998,56.479527
909138,Havevej,7830,41,8.77178,56.479428
909139,Havevej,7830,42,8.771791,56.479588
909140,Havevej,7830,43,8.771559,56.479433
909141,Havevej,7830,44,8.771486,56.479683
909142,Havevej,7830,45,8.771281,56.479449
909143,Havevej,7830,46,8.771119,56.479662
909144,Havevej,7830,47,8.77084,56.479517
909145,Toften,7830,1,8.7772,56.476711
909146,Toften,7830,2,8.776893,56.476515
909147,Toften,7830,3A,8.777682,56.476631
909148,Toften,7830,3B,8.777727,56.47677
909149,Toften,7830,3C,8.777785,56.476908
909150,Toften,7830,3D,8.777823,56.477047
909151,Toften,7830,3E,8.777814,56.477217
909152,Toften,7830,3F,8.77809,56.47719
909153,Toften,7830,4,8.777453,56.476425
909154,Toften,7830,5,8.778181,56.476555
909155,Toften,7830,6,8.778077,56.476306
909156,Toften,7830,7,8.778665,56.476508
909157,Toften,7830,8,8.778308,56.47622
909158,Toften,7830,9,8.778311,56.476775
909159,Toften,7830,10,8.778625,56.476199
909160,Toften,7830,11,8.778893,56.476646
909161,Toften,7830,12,8.778964,56.476166
909162,Toften,7830,13,8.77895,56.476874
909163,Toften,7830,14,8.778526,56.475873
909164,Toften,7830,15,8.778462,56.477007
909165,Toften,7830,16,8.778959,56.475752
909166,Toften,7830,17,8.778626,56.477123
909167,Toften,7830,18,8.779389,56.475727
909168,Toften,7830,19,8.779025,56.477134
909169,Toften,7830,20,8.779353,56.476102
909170,Toften,7830,21,8.779615,56.477093
909171,Toften,7830,22,8.77966,56.47603
909172,Toften,7830,23,8.779513,56.476894
909173,Toften,7830,24,8.780027,56.475959
909174,Toften,7830,25,8.779415,56.476697
909175,Toften,7830,26,8.78046,56.475915
909176,Toften,7830,27,8.779257,56.476426
909177,Toften,7830,28,8.779891,56.47562
909178,Toften,7830,29,8.779917,56.476297
909179,Toften,7830,30,8.780203,56.475543
909180,Toften,7830,31,8.77991,56.476536
909181,Toften,7830,32,8.78076,56.475455
909182,Toften,7830,33,8.780071,56.47672
909183,Toften,7830,34,8.781078,56.475432
909184,Toften,7830,35,8.780096,56.476901
909185,Toften,7830,36,8.780998,56.475824
909186,Toften,7830,37,8.780454,56.476854
909187,Toften,7830,38,8.78139,56.475758
909188,Toften,7830,39,8.780755,56.4768
909189,Toften,7830,40,8.781851,56.475625
909190,Toften,7830,41,8.780581,56.476618
909191,Toften,7830,43,8.780371,56.476437
909192,Toften,7830,45,8.780379,56.476222
909193,Solparken,7830,1,8.778863,56.475404
909194,Solparken,7830,2,8.77841,56.475479
909195,Solparken,7830,3,8.778818,56.475203
909196,Solparken,7830,4,8.77788,56.475511
909197,Solparken,7830,5,8.778713,56.474981
909198,Solparken,7830,6,8.778265,56.475273
909199,Solparken,7830,7,8.778544,56.474768
909200,Solparken,7830,8,8.777772,56.475308
909201,Solparken,7830,9,8.778501,56.474513
909202,Solparken,7830,10,8.777607,56.475142
909203,Solparken,7830,11,8.780062,56.475207
909204,Solparken,7830,12,8.77798,56.475054
909205,Solparken,7830,13,8.77991,56.475025
909206,Solparken,7830,14,8.778119,56.474824
909207,Solparken,7830,15,8.779922,56.47476
909208,Solparken,7830,16,8.777522,56.474889
909209,Solparken,7830,17,8.779667,56.474569
909210,Solparken,7830,18,8.777416,56.474709
909211,Solparken,7830,19,8.77969,56.47433
909212,Solparken,7830,20,8.777977,56.474597
909213,Solparken,7830,21,8.779433,56.474138
909214,Solparken,7830,22,8.779588,56.47527
909215,Solparken,7830,23,8.779428,56.473905
909216,Solparken,7830,24,8.779481,56.475082
909217,Solparken,7830,25,8.781197,56.475002
909218,Solparken,7830,26,8.779397,56.474848
909219,Solparken,7830,27,8.781048,56.474804
909220,Solparken,7830,27A,8.781368,56.474752
909221,Solparken,7830,28,8.779232,56.47461
909222,Solparken,7830,29,8.780972,56.474579
909223,Solparken,7830,30,8.779165,56.474414
909224,Solparken,7830,31,8.780959,56.47438
909225,Solparken,7830,32,8.779001,56.474171
909226,Solparken,7830,33,8.780675,56.474151
909227,Solparken,7830,34,8.778932,56.473988
909228,Solparken,7830,35,8.780617,56.473917
909229,Solparken,7830,36,8.780801,56.475107
909230,Solparken,7830,38,8.78067,56.474864
909231,Solparken,7830,40,8.780529,56.474667
909232,Solparken,7830,42,8.780446,56.474449
909233,Solparken,7830,44,8.780321,56.474212
909234,Solparken,7830,46,8.780211,56.474017
909235,Solparken,7830,48,8.780097,56.473798
909236,Grønningen,7830,1,8.783227,56.476879
909237,Grønningen,7830,5,8.783014,56.475817
909238,Grønningen,7830,7,8.782496,56.475179
909239,Grønningen,7830,7A,8.782646,56.475242
909240,Grønningen,7830,7B,8.782696,56.475207
909241,Grønningen,7830,7C,8.782776,56.475163
909242,Grønningen,7830,7D,8.782847,56.475137
909243,Grønningen,7830,7E,8.782915,56.475113
909244,Grønningen,7830,7F,8.782565,56.475314
909245,Grønningen,7830,7G,8.782535,56.475358
909246,Grønningen,7830,7H,8.782499,56.475419
909247,Grønningen,7830,7I,8.782493,56.475477
909248,Grønningen,7830,7J,8.782503,56.475546
909249,Grønningen,7830,8,8.782689,56.477272
909250,Grønningen,7830,10,8.782591,56.477272
909251,Grønningen,7830,12,8.782442,56.477273
909252,Grønningen,7830,14,8.782639,56.477098
909253,Grønningen,7830,16,8.782521,56.477098
909254,Grønningen,7830,18,8.782413,56.477099
909255,Grønningen,7830,19,8.78204,56.474581
909256,Grønningen,7830,20,8.782518,56.476924
909257,Grønningen,7830,21,8.782298,56.473808
909258,Grønningen,7830,22,8.782396,56.476925
909259,Grønningen,7830,23,8.78183,56.473821
909260,Grønningen,7830,24,8.782264,56.476927
909261,Grønningen,7830,26,8.782226,56.477327
909262,Grønningen,7830,28,8.782101,56.477326
909263,Grønningen,7830,30,8.782008,56.477328
909264,Grønningen,7830,32,8.781748,56.47738
909265,Grønningen,7830,34,8.781627,56.477382
909266,Grønningen,7830,36,8.781493,56.477382
909267,Grønningen,7830,38,8.781615,56.477208
909268,Grønningen,7830,40,8.781491,56.477208
909269,Grønningen,7830,42,8.781362,56.47721
909270,Grønningen,7830,44,8.782189,56.476363
909271,Søndergade,7830,1,8.779344,56.481588
909272,Søndergade,7830,2A,8.77899,56.481711
909273,Søndergade,7830,2C,8.778982,56.481813
909274,Søndergade,7830,2D,8.77889,56.481776
909275,Søndergade,7830,3,8.779248,56.481462
909276,Søndergade,7830,4A,8.778949,56.481602
909277,Søndergade,7830,4B,8.778769,56.481593
909278,Søndergade,7830,4D,8.778734,56.48164
909279,Søndergade,7830,5,8.779161,56.481308
909280,Søndergade,7830,6A,8.778892,56.481457
909281,Søndergade,7830,6B,8.778739,56.481509
909282,Søndergade,7830,6C,8.778604,56.481474
909283,Søndergade,7830,7,8.779355,56.481101
909284,Søndergade,7830,8,8.77882,56.481336
909285,Søndergade,7830,10,8.778775,56.48126
909286,Søndergade,7830,11A,8.778897,56.480837
909287,Søndergade,7830,11B,8.778828,56.480716
909288,Søndergade,7830,12,8.778728,56.481182
909289,Søndergade,7830,13,8.778748,56.480576
909290,Søndergade,7830,14,8.778564,56.481051
909291,Søndergade,7830,15,8.778656,56.480414
909292,Søndergade,7830,16,8.778573,56.480911
909293,Søndergade,7830,17,8.778587,56.480292
909294,Søndergade,7830,18,8.778524,56.480823
909295,Søndergade,7830,19,8.778507,56.480182
909296,Søndergade,7830,19A,8.77853,56.480218
909297,Søndergade,7830,20,8.778499,56.480737
909298,Søndergade,7830,20A,8.778313,56.48079
909299,Søndergade,7830,20B,8.778297,56.48076
909300,Søndergade,7830,21,8.778462,56.480111
909301,Søndergade,7830,22,8.778415,56.480645
909302,Søndergade,7830,23,8.778318,56.479846
909303,Søndergade,7830,24,8.778363,56.480554
909304,Søndergade,7830,25,8.778229,56.479697
909305,Søndergade,7830,26,8.778293,56.480431
909306,Søndergade,7830,27,8.77817,56.479598
909307,Søndergade,7830,27A,8.778149,56.479563
909308,Søndergade,7830,29A,8.778283,56.479451
909309,Søndergade,7830,29C,8.778661,56.479344
909310,Søndergade,7830,30,8.778177,56.480269
909311,Søndergade,7830,32,8.777971,56.479876
909312,Søndergade,7830,32A,8.777954,56.480002
909313,Søndergade,7830,32B,8.777945,56.479924
909314,Søndergade,7830,33,8.778221,56.478841
909315,Søndergade,7830,34,8.777903,56.479765
909316,Søndergade,7830,34A,8.77793,56.479809
909317,Søndergade,7830,36,8.777813,56.479606
909318,Søndergade,7830,36A,8.777845,56.479663
909319,Søndergade,7830,37,8.777654,56.478703
909320,Søndergade,7830,38,8.777751,56.479496
909321,Søndergade,7830,38A,8.777112,56.479638
909322,Søndergade,7830,39,8.777606,56.478625
909323,Søndergade,7830,40,8.777697,56.479397
909324,Søndergade,7830,41,8.777541,56.478516
909325,Søndergade,7830,43,8.777471,56.478368
909326,Søndergade,7830,44,8.777557,56.479165
909327,Søndergade,7830,45,8.777425,56.478297
909328,Søndergade,7830,46A,8.777505,56.479068
909329,Søndergade,7830,46B,8.777473,56.479017
909330,Søndergade,7830,47,8.777385,56.478217
909331,Søndergade,7830,48,8.777429,56.478946
909332,Søndergade,7830,49,8.777297,56.47802
909333,Søndergade,7830,50,8.777368,56.478833
909334,Søndergade,7830,51,8.777351,56.477736
909335,Søndergade,7830,52,8.777267,56.478648
909336,Søndergade,7830,53,8.777252,56.477576
909337,Søndergade,7830,54,8.777201,56.47853
909338,Søndergade,7830,54A,8.777139,56.47842
909339,Søndergade,7830,55,8.776975,56.47749
909340,Søndergade,7830,57,8.777062,56.47732
909341,Søndergade,7830,59,8.776959,56.477167
909342,Søndergade,7830,61,8.776843,56.477009
909343,Søndergade,7830,62,8.776798,56.477837
909344,Søndergade,7830,63,8.776783,56.476842
909345,Søndergade,7830,64,8.776687,56.477628
909346,Søndergade,7830,66,8.776617,56.477549
909347,Søndergade,7830,68,8.776558,56.477406
909348,Søndergade,7830,69,8.776391,56.47627
909349,Søndergade,7830,70,8.77645,56.477215
909350,Søndergade,7830,71,8.7763,56.476116
909351,Søndergade,7830,72,8.776307,56.477073
909352,Sevelvej,7830,1,8.778786,56.480016
909353,Sevelvej,7830,1A,8.778655,56.480033
909354,Sevelvej,7830,2,8.778697,56.479843
909355,Sevelvej,7830,3,8.779048,56.479955
909356,Sevelvej,7830,4,8.778907,56.479762
909357,Sevelvej,7830,6,8.779146,56.479616
909358,Sevelvej,7830,7,8.779631,56.479823
909359,Sevelvej,7830,8,8.779488,56.479671
909360,Sevelvej,7830,9,8.779868,56.479801
909361,Sevelvej,7830,9A,8.780032,56.479871
909362,Sevelvej,7830,10,8.779798,56.479444
909363,Sevelvej,7830,10A,8.780063,56.479456
909364,Sevelvej,7830,11,8.780165,56.479713
909365,Sevelvej,7830,12,8.780328,56.479501
909366,Sevelvej,7830,13,8.78063,56.479665
909367,Sevelvej,7830,15,8.78109,56.479528
909368,Sevelvej,7830,16A,8.780821,56.479363
909369,Sevelvej,7830,16B,8.780782,56.47929
909370,Sevelvej,7830,16C,8.780936,56.479327
909371,Sevelvej,7830,17,8.781404,56.479458
909372,Sevelvej,7830,18,8.781283,56.479298
909373,Sevelvej,7830,19,8.781578,56.479423
909374,Sevelvej,7830,20,8.781417,56.479264
909375,Sevelvej,7830,21,8.781799,56.479373
909376,Sevelvej,7830,22,8.781509,56.479246
909377,Sevelvej,7830,23,8.782008,56.479321
909378,Sevelvej,7830,24,8.781696,56.479168
909379,Sevelvej,7830,26,8.782043,56.479109
909380,Sevelvej,7830,27,8.782647,56.479361
909381,Sevelvej,7830,28,8.782273,56.479047
909382,Sevelvej,7830,30,8.782559,56.479022
909383,Sevelvej,7830,31,8.784111,56.478893
909384,Sevelvej,7830,32,8.782898,56.478883
909385,Sevelvej,7830,33,8.784359,56.478837
909386,Sevelvej,7830,34,8.783173,56.478844
909387,Sevelvej,7830,35,8.784796,56.478741
909388,Sevelvej,7830,36,8.783482,56.478796
909389,Sevelvej,7830,37,8.785036,56.478692
909390,Sevelvej,7830,38,8.783843,56.478709
909391,Sevelvej,7830,39,8.785323,56.478635
909392,Sevelvej,7830,40,8.784152,56.478672
909393,Sevelvej,7830,41,8.785586,56.478587
909394,Sevelvej,7830,42,8.784379,56.478599
909395,Sevelvej,7830,43,8.785688,56.478565
909396,Sevelvej,7830,44,8.784695,56.478532
909397,Sevelvej,7830,45,8.785954,56.478505
909398,Sevelvej,7830,46,8.784961,56.478491
909399,Sevelvej,7830,47,8.786066,56.478482
909400,Sevelvej,7830,48,8.785195,56.478461
909401,Sevelvej,7830,49,8.786433,56.478396
909402,Sevelvej,7830,50,8.785622,56.478351
909403,Sevelvej,7830,51,8.787038,56.478659
909404,Sevelvej,7830,51A,8.788571,56.479938
909405,Sevelvej,7830,52,8.785928,56.47828
909406,Sevelvej,7830,54,8.78616,56.478227
909407,Sevelvej,7830,56,8.786629,56.478136
909408,Sevelvej,7830,57,8.787582,56.478163
909409,Sevelvej,7830,58,8.787003,56.47808
909410,Sevelvej,7830,59,8.787795,56.478098
909411,Sevelvej,7830,60,8.787273,56.477982
909412,Sevelvej,7830,61,8.788335,56.478327
909413,Sevelvej,7830,62,8.787494,56.477967
909414,Sevelvej,7830,63,8.789455,56.478744
909415,Sevelvej,7830,64,8.78767,56.47793
909416,Sevelvej,7830,65,8.789057,56.478462
909417,Sevelvej,7830,66,8.787889,56.477855
909418,Sevelvej,7830,67,8.791339,56.477394
909419,Sevelvej,7830,67A,8.79285,56.477271
909420,Sevelvej,7830,68,8.788499,56.47774
909421,Sevelvej,7830,69,8.798209,56.475976
909422,Sevelvej,7830,70,8.788898,56.477653
909423,Sevelvej,7830,71,8.799354,56.476029
909424,Sevelvej,7830,72,8.797807,56.475729
909425,Sevelvej,7830,72B,8.801896,56.475389
909426,Sevelvej,7830,73,8.801158,56.476449
909427,Sevelvej,7830,74,8.81062,56.474195
909428,Sevelvej,7830,75,8.802558,56.47632
909429,Sevelvej,7830,75A,8.802355,56.476502
909430,Sevelvej,7830,76,8.816168,56.472559
909431,Sevelvej,7830,77,8.815795,56.474327
909432,Sevelvej,7830,78,8.827092,56.471214
909433,Sevelvej,7830,79,8.825786,56.473512
909434,Sevelvej,7830,80,8.832526,56.469056
909435,Sevelvej,7830,81,8.838422,56.468791
909436,Sevelvej,7830,82,8.838732,56.465048
909437,Sevelvej,7830,83,8.840423,56.466944
909438,Sevelvej,7830,84,8.848236,56.462657
909439,Sevelvej,7830,85,8.85512,56.462517
909440,Tværgade,7830,1,8.776555,56.480237
909441,Tværgade,7830,2,8.776339,56.480401
909442,Tværgade,7830,3,8.776525,56.480184
909443,Tværgade,7830,7,8.776918,56.479815
909444,Tværgade,7830,9,8.776473,56.479847
909445,Tværgade,7830,11,8.776259,56.479627
909446,Tværgade,7830,13,8.776116,56.47942
909447,Tværgade,7830,13A,8.776287,56.479367
909448,Tværgade,7830,13B,8.77668,56.479383
909449,Tværgade,7830,15,8.776587,56.479218
909450,Tværgade,7830,17,8.776015,56.479231
909451,Tværgade,7830,20,8.77549,56.479818
909452,Tværgade,7830,22,8.775444,56.479737
909453,Tværgade,7830,24,8.775352,56.479638
909454,Tværgade,7830,26,8.775538,56.479608
909455,Tværgade,7830,28,8.775668,56.479584
909456,Tværgade,7830,30,8.775852,56.479554
909457,Tværgade,7830,32,8.775869,56.479648
909458,Tværgade,7830,34,8.775917,56.479738
909459,Tværgade,7830,36,8.775843,56.479341
909460,Tværgade,7830,38,8.775813,56.479279
909461,Tværgade,7830,40,8.775703,56.479072
909462,Tværgade,7830,40A,8.775624,56.479067
909463,Tværgade,7830,40B,8.775565,56.479076
909464,Tværgade,7830,40C,8.775506,56.479086
909465,Bjertparken,7830,1,8.775385,56.472614
909466,Bjertparken,7830,2,8.773967,56.471694
909467,Bjertparken,7830,3,8.774824,56.472688
909468,Bjertparken,7830,4,8.776629,56.472278
909469,Bjertparken,7830,5,8.774661,56.472928
909470,Bjertparken,7830,6,8.777402,56.471691
909471,Bjertparken,7830,7,8.77514,56.472913
909472,Bjertparken,7830,8,8.777894,56.471503
909473,Bjertparken,7830,9,8.775045,56.47311
909474,Bjertparken,7830,10,8.778431,56.47145
909475,Bjertparken,7830,11,8.775052,56.473313
909476,Bjertparken,7830,12,8.779268,56.47129
909477,Bjertparken,7830,13,8.775126,56.473509
909478,Bjertparken,7830,14,8.779922,56.471093
909479,Bjertparken,7830,15,8.775234,56.473671
909480,Bjertparken,7830,16,8.77981,56.471503
909481,Bjertparken,7830,17,8.77532,56.473831
909482,Bjertparken,7830,18,8.77935,56.471575
909483,Bjertparken,7830,19,8.775585,56.474166
909484,Bjertparken,7830,20,8.778551,56.471754
909485,Bjertparken,7830,21,8.775418,56.474195
909486,Bjertparken,7830,22,8.778086,56.471876
909487,Bjertparken,7830,23,8.77553,56.474386
909488,Bjertparken,7830,24,8.777624,56.472154
909489,Bjertparken,7830,25,8.775657,56.474372
909490,Bjertparken,7830,26,8.77743,56.472383
909491,Bjertparken,7830,27,8.77591,56.474346
909492,Bjertparken,7830,29,8.776037,56.474332
909493,Bjertparken,7830,31,8.775994,56.474077
909494,Bjertparken,7830,33,8.775941,56.473983
909495,Bjertparken,7830,37,8.775644,56.473613
909496,Bjertparken,7830,39,8.775576,56.47339
909497,Bjertparken,7830,41,8.775668,56.473123
909498,Bjertparken,7830,43,8.775755,56.472936
909499,Bjertparken,7830,45,8.776041,56.47268
909500,Bjertparken,7830,47,8.776707,56.472748
909501,Bjertparken,7830,49,8.776675,56.472993
909502,Bjertparken,7830,51,8.776549,56.47325
909503,Bjertparken,7830,53,8.776393,56.473625
909504,Bjertparken,7830,55,8.776246,56.473943
909505,Bjertparken,7830,57,8.776781,56.474185
909506,Bjertparken,7830,59,8.777284,56.474144
909507,Bjertparken,7830,61,8.777349,56.474006
909508,Bjertparken,7830,63,8.777053,56.474064
909509,Bjertparken,7830,65,8.777099,56.473966
909510,Bjertparken,7830,67,8.776701,56.474012
909511,Bjertparken,7830,69,8.776748,56.473914
909512,Bjertparken,7830,71,8.776774,56.473788
909513,Bjertparken,7830,73,8.776844,56.473376
909514,Bjertparken,7830,75,8.777064,56.473118
909515,Bjertparken,7830,77,8.777196,56.472849
909516,Bjertparken,7830,79,8.777888,56.472905
909517,Bjertparken,7830,81,8.777689,56.473159
909518,Bjertparken,7830,83,8.777561,56.47346
909519,Bjertparken,7830,85,8.777424,56.473789
909520,Bjertparken,7830,87,8.77769,56.474061
909521,Bjertparken,7830,89,8.777771,56.473856
909522,Bjertparken,7830,91,8.777842,56.473636
909523,Bjertparken,7830,93,8.778077,56.473379
909524,Bjertparken,7830,95,8.778165,56.473178
909525,Bjertparken,7830,97,8.7783,56.472932
909526,Bjertparken,7830,99,8.778771,56.473109
909527,Bjertparken,7830,101,8.77903,56.473213
909528,Bjertparken,7830,103,8.779348,56.47301
909529,Bjertparken,7830,105,8.780378,56.471174
909530,Banevænget,7830,1,8.769573,56.479984
909531,Banevænget,7830,2,8.769136,56.479928
909532,Banevænget,7830,3,8.769482,56.479741
909533,Banevænget,7830,4,8.768832,56.479918
909534,Banevænget,7830,5,8.769384,56.479525
909535,Banevænget,7830,6,8.768762,56.479771
909536,Banevænget,7830,7,8.769278,56.47931
909537,Banevænget,7830,8,8.768987,56.479717
909538,Banevænget,7830,9,8.769167,56.47909
909539,Banevænget,7830,9A,8.769072,56.478901
909540,Banevænget,7830,9B,8.769041,56.478833
909541,Banevænget,7830,9C,8.768991,56.478712
909542,Banevænget,7830,9D,8.768968,56.478662
909543,Banevænget,7830,9E,8.768945,56.478612
909544,Banevænget,7830,9F,8.769157,56.478511
909545,Banevænget,7830,9G,8.769184,56.478568
909546,Banevænget,7830,9H,8.769235,56.478671
909547,Banevænget,7830,9K,8.769265,56.478739
909548,Banevænget,7830,9L,8.769318,56.478841
909549,Banevænget,7830,9M,8.769355,56.478924
909550,Banevænget,7830,9N,8.769399,56.479057
909551,Banevænget,7830,10,8.768795,56.479609
909552,Banevænget,7830,12,8.76862,56.479526
909553,Banevænget,7830,14,8.768573,56.479434
909554,Banevænget,7830,16,8.768812,56.479382
909555,Banevænget,7830,18,8.768554,56.479272
909556,Banevænget,7830,20,8.768439,56.479178
909557,Banevænget,7830,22,8.768393,56.479082
909558,Banevænget,7830,24,8.768629,56.479026
909559,Banevænget,7830,26,8.768538,56.478893
909560,Banevænget,7830,28,8.768295,56.478874
909561,Banevænget,7830,30,8.768241,56.478758
909562,Banevænget,7830,32,8.768505,56.478678
909563,Banevænget,7830,34,8.768213,56.478663
909564,Banevænget,7830,36,8.768156,56.478545
909565,Banevænget,7830,38,8.768099,56.478451
909566,Banevænget,7830,40,8.768361,56.478461
909567,Sønderparken,7830,1,8.775936,56.477793
909568,Sønderparken,7830,1A,8.776303,56.477764
909569,Sønderparken,7830,3,8.775928,56.477698
909570,Sønderparken,7830,5,8.775858,56.477579
909571,Sønderparken,7830,7,8.77577,56.477496
909572,Sønderparken,7830,9,8.775658,56.4776
909573,Sønderparken,7830,11,8.775672,56.477695
909574,Sønderparken,7830,13,8.775741,56.477884
909575,Sønderparken,7830,15,8.775594,56.477935
909576,Skolevej,7830,1,8.784613,56.479071
909577,Skolevej,7830,2,8.784976,56.479135
909578,Skolevej,7830,3,8.784644,56.479136
909579,Skolevej,7830,4,8.78503,56.479296
909580,Skolevej,7830,5,8.784719,56.479334
909581,Skolevej,7830,6,8.785139,56.479464
909582,Skolevej,7830,7,8.784812,56.47946
909583,Skolevej,7830,8,8.785189,56.479638
909584,Skolevej,7830,9,8.784733,56.479738
909585,Skolevej,7830,9A,8.784947,56.479916
909586,Skolevej,7830,10,8.785266,56.479788
909587,Skolevej,7830,11,8.785071,56.48004
909588,Skolevej,7830,12,8.785342,56.479932
909589,Skolevej,7830,13,8.785163,56.480221
909590,Skolevej,7830,14,8.78545,56.480046
909591,Skolevej,7830,15,8.78525,56.480398
909592,Skolevej,7830,16,8.785437,56.480172
909593,Skolevej,7830,17,8.785316,56.480534
909594,Skolevej,7830,18,8.785499,56.480295
909595,Skolevej,7830,19,8.785422,56.480748
909596,Skolevej,7830,20,8.785698,56.480395
909597,Skolevej,7830,20A,8.78562,56.480512
909598,Skolevej,7830,21,8.785504,56.480919
909599,Skolevej,7830,22,8.785688,56.480668
909600,Skolevej,7830,23,8.785579,56.481064
909601,Skolevej,7830,24,8.785863,56.48079
909602,Skolevej,7830,25,8.785661,56.48128
909603,Skolevej,7830,26,8.785821,56.480937
909604,Skolevej,7830,27,8.785752,56.481415
909605,Skolevej,7830,28,8.785918,56.481134
909606,Skolevej,7830,30,8.785991,56.481272
909607,Skolevej,7830,32,8.786103,56.481393
909608,Skolevej,7830,34,8.786165,56.481518
909609,Skolevej,7830,36,8.786193,56.481674
909610,Engparken,7830,2,8.773006,56.478713
909611,Engparken,7830,4,8.772949,56.478614
909612,Engparken,7830,6,8.772892,56.478515
909613,Engparken,7830,8,8.773579,56.478632
909614,Engparken,7830,10,8.773522,56.478534
909615,Engparken,7830,12,8.773466,56.478435
909616,Engparken,7830,14,8.774154,56.47856
909617,Engparken,7830,16,8.774098,56.478461
909618,Engparken,7830,18,8.774042,56.478363
909619,Engparken,7830,20,8.774732,56.478484
909620,Engparken,7830,22,8.774675,56.478386
909621,Engparken,7830,24,8.774619,56.478288
909622,Engparken,7830,26,8.775307,56.478411
909623,Engparken,7830,28,8.77525,56.478313
909624,Engparken,7830,30,8.775194,56.478214
909625,Birkevej,7830,1,8.773172,56.477653
909626,Birkevej,7830,2A,8.773639,56.477583
909627,Birkevej,7830,2B,8.774946,56.477707
909628,Birkevej,7830,3,8.77279,56.47772
909629,Birkevej,7830,4,8.773774,56.477794
909630,Birkevej,7830,5,8.77238,56.477791
909631,Birkevej,7830,6,8.773487,56.477839
909632,Birkevej,7830,7,8.772144,56.477821
909633,Birkevej,7830,8,8.773171,56.477896
909634,Birkevej,7830,9,8.771691,56.47789
909635,Birkevej,7830,10,8.772828,56.477948
909636,Birkevej,7830,11,8.771355,56.477969
909637,Birkevej,7830,12,8.772495,56.478015
909638,Birkevej,7830,13,8.771015,56.478045
909639,Birkevej,7830,13A,8.770661,56.478106
909640,Birkevej,7830,14,8.772236,56.478061
909641,Birkevej,7830,15,8.771203,56.478275
909642,Birkevej,7830,16,8.771832,56.478157
909643,Birkevej,7830,18,8.77166,56.478369
909644,Birkevej,7830,19,8.771348,56.478624
909645,Birkevej,7830,20,8.771752,56.478534
909646,Birkevej,7830,21,8.77103,56.478684
909647,Birkevej,7830,22,8.772227,56.478742
909648,Birkevej,7830,23,8.770505,56.478753
909649,Birkevej,7830,24,8.771898,56.478766
909650,Birkevej,7830,26,8.77158,56.478833
909651,Birkevej,7830,28,8.771239,56.478931
909652,Birkevej,7830,30,8.770841,56.478943
909653,Kapelvej,7830,1,8.780624,56.479019
909654,Kapelvej,7830,3,8.780571,56.478869
909655,Kapelvej,7830,3A,8.780554,56.478796
909656,Kapelvej,7830,4,8.780546,56.47935
909657,Kapelvej,7830,5,8.780428,56.478653
909658,Kapelvej,7830,6,8.780517,56.479297
909659,Kapelvej,7830,7,8.780357,56.478504
909660,Kapelvej,7830,8,8.780488,56.479244
909661,Kapelvej,7830,9,8.780281,56.478377
909662,Kapelvej,7830,10,8.78046,56.479192
909663,Kapelvej,7830,11,8.780028,56.477903
909664,Kapelvej,7830,12,8.780431,56.479139
909665,Kapelvej,7830,14,8.780403,56.479086
909666,Kapelvej,7830,16,8.780261,56.478829
909667,Kapelvej,7830,18,8.780166,56.478611
909668,Handbjergvej,7830,2,8.775943,56.476945
909669,Handbjergvej,7830,4,8.775632,56.47701
909670,Handbjergvej,7830,5,8.774609,56.476895
909671,Handbjergvej,7830,6,8.775384,56.477065
909672,Handbjergvej,7830,7,8.774352,56.476954
909673,Handbjergvej,7830,8,8.775116,56.477111
909674,Handbjergvej,7830,9,8.774076,56.477004
909675,Handbjergvej,7830,10,8.774866,56.477154
909676,Handbjergvej,7830,11,8.77378,56.477054
909677,Handbjergvej,7830,12,8.774686,56.477253
909678,Handbjergvej,7830,15,8.77284,56.477216
909679,Handbjergvej,7830,16,8.774276,56.477452
909680,Handbjergvej,7830,18,8.768776,56.478221
909681,Handbjergvej,7830,19,8.766491,56.47798
909682,Handbjergvej,7830,20,8.75031,56.476528
909683,Handbjergvej,7830,21,8.75092,56.474818
909684,Handbjergvej,7830,23,8.74892,56.475945
909685,Bækkevej,7830,1,8.777853,56.475937
909686,Bækkevej,7830,2,8.77749,56.476192
909687,Bækkevej,7830,4,8.777377,56.475975
909688,Bækkevej,7830,6,8.776653,56.47588
909689,Bækkevej,7830,8,8.777182,56.475761
909690,Bækkevej,7830,10,8.777157,56.47555
909691,Bækkevej,7830,12,8.776516,56.475623
909692,Bækkevej,7830,14,8.776307,56.475467
909693,Bækkevej,7830,16,8.776953,56.475353
909694,Bækkevej,7830,18,8.776764,56.475098
909695,Bækkevej,7830,20,8.776295,56.475205
909696,Bækkevej,7830,22,8.776112,56.475021
909697,Bækkevej,7830,24,8.77656,56.474944
909698,Østergade,7830,1,8.777855,56.477863
909699,Østergade,7830,3,8.778129,56.477813
909700,Østergade,7830,3A,8.77844,56.477852
909701,Østergade,7830,4,8.778081,56.477657
909702,Østergade,7830,5,8.778728,56.47777
909703,Østergade,7830,7,8.778955,56.477713
909704,Østergade,7830,8,8.778679,56.477501
909705,Østergade,7830,9,8.779119,56.477684
909706,Østergade,7830,10,8.778898,56.477463
909707,Østergade,7830,11,8.779363,56.477625
909708,Østergade,7830,12,8.779031,56.47744
909709,Østergade,7830,14,8.779329,56.477322
909710,Østergade,7830,16,8.77959,56.477287
909711,Enghavevej,7830,1,8.782512,56.478345
909712,Enghavevej,7830,2,8.782289,56.478606
909713,Enghavevej,7830,2A,8.782094,56.478476
909714,Enghavevej,7830,3,8.782467,56.47815
909715,Enghavevej,7830,4,8.782119,56.478274
909716,Enghavevej,7830,5,8.782384,56.477994
909717,Enghavevej,7830,6,8.782038,56.478151
909718,Enghavevej,7830,7,8.782308,56.477848
909719,Enghavevej,7830,8,8.78196,56.477993
909720,Enghavevej,7830,9,8.782231,56.477697
909721,Enghavevej,7830,10,8.781857,56.47781
909722,Enghavevej,7830,11,8.782193,56.477517
909723,Enghavevej,7830,12,8.781731,56.477686
909724,Engvej,7830,1,8.770972,56.480039
909725,Engvej,7830,2,8.770422,56.480351
909726,Engvej,7830,2A,8.770806,56.480395
909727,Engvej,7830,3,8.770991,56.479871
909728,Engvej,7830,4,8.770602,56.480121
909729,Engvej,7830,5,8.770609,56.47917
909730,Engvej,7830,6,8.770428,56.479868
909731,Engvej,7830,7,8.770333,56.478528
909732,Engvej,7830,8,8.770397,56.479629
909733,Engvej,7830,9,8.770248,56.478342
909734,Engvej,7830,10,8.770107,56.479393
909735,Engvej,7830,11,8.770241,56.478137
909736,Engvej,7830,12,8.769942,56.479189
909737,Engvej,7830,14,8.770087,56.478994
909738,Engvej,7830,16,8.770036,56.478861
909739,Engvej,7830,18,8.7699,56.478708
909740,Engvej,7830,20,8.769886,56.478531
909741,Engvej,7830,22,8.769773,56.478408
909742,Engvej,7830,24,8.769772,56.478175
909743,Kirkegade,7830,1,8.778186,56.478382
909744,Kirkegade,7830,2,8.777979,56.478282
909745,Kirkegade,7830,4,8.778346,56.478218
909746,Kirkegade,7830,6,8.778566,56.478182
909747,Kirkegade,7830,8,8.778752,56.47815
909748,Kirkegade,7830,8A,8.778866,56.478129
909749,Kirkegade,7830,10,8.779043,56.4781
909750,Kirkegade,7830,12,8.779214,56.478024
909751,Enghaven,7830,2,8.782868,56.478255
909752,Enghaven,7830,4,8.783016,56.478232
909753,Enghaven,7830,6,8.783131,56.478255
909754,Enghaven,7830,8,8.783161,56.478318
909755,Enghaven,7830,10,8.783209,56.47841
909756,Enghaven,7830,12,8.783248,56.478495
909757,Enghaven,7830,14,8.783291,56.47858
909758,Enghaven,7830,16,8.783025,56.478426
909759,Enghaven,7830,18,8.782702,56.478476
909760,Halvej,7830,1,8.786487,56.477032
909761,Halvej,7830,2A,8.783901,56.476171
909762,Halvej,7830,2B,8.784737,56.476759
909763,Halvej,7830,2C,8.785042,56.476713
909764,Industrivej,7830,1,8.758465,56.474678
909765,Industrivej,7830,2,8.75888,56.476467
909766,Industrivej,7830,4,8.758761,56.47628
909767,Industrivej,7830,6,8.758385,56.475803
909768,Industrivej,7830,8,8.757751,56.474743
909769,Industrivej,7830,8A,8.755999,56.475008
909770,Industrivej,7830,10,8.762229,56.471071
909771,Parallelvej,7830,1,8.76331,56.477222
909772,Parallelvej,7830,3,8.759785,56.476708
909773,Parallelvej,7830,5,8.756862,56.476483
919019,Vester Trabjergvej,7830,10,8.779881,56.428041
919020,Vester Trabjergvej,7830,14,8.779342,56.42973
919021,Vester Trabjergvej,7830,16,8.779065,56.429228
919022,Vester Trabjergvej,7830,18,8.780138,56.429457
919023,Vester Trabjergvej,7830,19,8.776432,56.432504
919024,Vester Trabjergvej,7830,20,8.785708,56.426952
919025,Vester Trabjergvej,7830,20A,8.786359,56.427312
919026,Vester Trabjergvej,7830,22,8.789284,56.428368
919027,Vester Trabjergvej,7830,22A,8.779409,56.43023
919028,Vester Trabjergvej,7830,24,8.778869,56.430199
919029,Vester Trabjergvej,7830,26,8.777628,56.432043
919030,Vester Trabjergvej,7830,28,8.777124,56.432137
919031,Vester Trabjergvej,7830,30,8.776791,56.432704
919037,Stendisvej,7830,1,8.777357,56.43518
919038,Stendisvej,7830,2,8.777721,56.434964
919039,Stendisvej,7830,4A,8.778074,56.434893
919040,Stendisvej,7830,4B,8.778198,56.434877
919041,Stendisvej,7830,4C,8.778257,56.434705
919042,Stendisvej,7830,4D,8.77813,56.434684
919043,Stendisvej,7830,4E,8.778037,56.434668
919044,Stendisvej,7830,5,8.777862,56.435237
919045,Stendisvej,7830,6,8.778581,56.434846
919046,Stendisvej,7830,7,8.778303,56.435032
919047,Stendisvej,7830,8,8.779029,56.434733
919048,Stendisvej,7830,10,8.779556,56.43474
919049,Stendisvej,7830,11,8.77882,56.434971
919050,Stendisvej,7830,12,8.780266,56.434671
919051,Stendisvej,7830,13,8.779062,56.434945
919052,Stendisvej,7830,14,8.780523,56.434669
919053,Stendisvej,7830,15,8.779789,56.434945
919054,Stendisvej,7830,17,8.780161,56.434985
919055,Stendisvej,7830,18,8.781282,56.434626
919056,Stendisvej,7830,19,8.781044,56.435002
919057,Stendisvej,7830,21,8.78705,56.436385
919058,Stendisvej,7830,22,8.795589,56.42841
919059,Stendisvej,7830,23,8.795037,56.4327
919060,Stendisvej,7830,24,8.81184,56.423371
919061,Stendisvej,7830,25,8.803854,56.429633
919062,Stendisvej,7830,26,8.812952,56.422408
919063,Stendisvej,7830,27,8.806452,56.425745
919064,Stendisvej,7830,28,8.81911,56.4177
919065,Stendisvej,7830,29,8.81271,56.423684
919066,Stendisvej,7830,30,8.820979,56.416805
919067,Stendisvej,7830,31,8.814423,56.42205
919068,Stendisvej,7830,32,8.811901,56.415274
919069,Stendisvej,7830,33,8.819133,56.418888
919070,Stendisvej,7830,33A,8.819318,56.418466
919071,Stendisvej,7830,35,8.82154,56.417682
919072,Stendisvej,7830,36,8.814255,56.413206
919073,Stendisvej,7830,37,8.82387,56.425679
919074,Stendisvej,7830,38,8.818495,56.41475
919075,Stendisvej,7830,39,8.828104,56.42132
919076,Stendisvej,7830,40,8.816834,56.411211
919077,Stendisvej,7830,41,8.829829,56.420541
919078,Stendisvej,7830,42,8.813397,56.410541
919079,Stendisvej,7830,43,8.821838,56.416948
919080,Stendisvej,7830,45,8.82211,56.416647
919081,Stendisvej,7830,47,8.822,56.416096
919082,Stendisvej,7830,49,8.820917,56.41276
919083,Stendisvej,7830,51,8.822738,56.408398
919084,Stendisvej,7830,53A,8.821773,56.407699
919113,Ryde Møllevej,7830,1,8.758765,56.430934
919114,Ryde Møllevej,7830,2,8.761869,56.442392
919115,Ryde Møllevej,7830,3,8.757697,56.428907
919116,Ryde Møllevej,7830,4,8.754241,56.439675
919117,Ryde Møllevej,7830,5,8.758259,56.426809
919118,Ryde Møllevej,7830,6,8.759029,56.435279
919119,Ryde Møllevej,7830,7,8.756555,56.426409
919120,Ryde Møllevej,7830,8,8.758979,56.43406
919121,Ryde Møllevej,7830,9,8.749813,56.426305
919122,Ryde Møllevej,7830,10,8.753605,56.436181
919123,Ryde Møllevej,7830,11,8.747278,56.427748
919124,Ryde Møllevej,7830,12,8.752527,56.434741
919125,Ryde Møllevej,7830,14,8.756137,56.432477
919126,Ryde Møllevej,7830,16,8.749544,56.43413
919127,Ryde Møllevej,7830,18,8.75223,56.43063
919128,Ryde Møllevej,7830,20,8.752149,56.429284
919129,Ryde Møllevej,7830,22,8.750382,56.429539
919130,Ryde Møllevej,7830,24,8.751052,56.428059
919131,Ryde Møllevej,7830,26,8.743411,56.430596
919132,Ryde Møllevej,7830,28,8.745494,56.427796
919133,Ryde Møllevej,7830,28A,8.745441,56.427914
919134,Øster Stendisvej,7830,1,8.823466,56.416041
919135,Øster Stendisvej,7830,2,8.822804,56.415677
919136,Øster Stendisvej,7830,3,8.82437,56.4158
919137,Øster Stendisvej,7830,4,8.824853,56.414503
919138,Øster Stendisvej,7830,5,8.825484,56.415734
919139,Øster Stendisvej,7830,6,8.82519,56.410981
919140,Øster Stendisvej,7830,7,8.848937,56.414143
919141,Øster Stendisvej,7830,8,8.847469,56.408344
919142,Øster Stendisvej,7830,9,8.848402,56.412421
919143,Øster Stendisvej,7830,10,8.852365,56.407764
919160,Stendyssevej,7830,1,8.836557,56.421518
919161,Stendyssevej,7830,2,8.829035,56.416876
919162,Stendyssevej,7830,3,8.839014,56.422411
919163,Stendyssevej,7830,4,8.832062,56.418181
919164,Skavevej,7830,1,8.844059,56.421548
919165,Skavevej,7830,2,8.846785,56.425777
919166,Skavevej,7830,2A,8.846843,56.425959
919167,Skavevej,7830,3,8.841018,56.417527
919168,Skavevej,7830,4,8.838554,56.426609
919169,Skavevej,7830,5,8.840411,56.41487
919170,Skavevej,7830,6,8.840305,56.423641
919171,Skavevej,7830,7,8.83794,56.413197
919172,Skavevej,7830,8,8.826627,56.410373
919177,Sanggårdvej,7830,3,8.775853,56.428764
919240,Østergårdvej,7830,1,8.724871,56.440727
919241,Østergårdvej,7830,3,8.725639,56.437354
919242,Østergårdvej,7830,4,8.728964,56.42939
919243,Østergårdvej,7830,5,8.726166,56.436817
919245,Østergårdvej,7830,7,8.731903,56.435088
919246,Holstebrovej,7830,2,8.773909,56.473
919247,Holstebrovej,7830,3,8.774129,56.471165
919248,Holstebrovej,7830,4,8.773535,56.472253
919249,Holstebrovej,7830,5,8.774467,56.469147
919250,Holstebrovej,7830,6,8.773097,56.471483
919251,Holstebrovej,7830,8,8.770959,56.471479
919252,Holstebrovej,7830,9,8.771502,56.466
919253,Holstebrovej,7830,10,8.771499,56.469606
919254,Holstebrovej,7830,11,8.769119,56.463202
919255,Holstebrovej,7830,12,8.770263,56.466426
919256,Holstebrovej,7830,13,8.782198,56.459988
919257,Holstebrovej,7830,14,8.769855,56.466496
919258,Holstebrovej,7830,15,8.773766,56.461252
919259,Holstebrovej,7830,16,8.767705,56.465146
919260,Holstebrovej,7830,17,8.770797,56.460998
919261,Holstebrovej,7830,18,8.76381,56.463353
919262,Holstebrovej,7830,19,8.767935,56.457631
919263,Holstebrovej,7830,20,8.7594,56.462246
919264,Holstebrovej,7830,21,8.759085,56.451069
919265,Holstebrovej,7830,22,8.766586,56.459463
919266,Holstebrovej,7830,22A,8.766524,56.459575
919267,Holstebrovej,7830,22B,8.766352,56.459602
919268,Holstebrovej,7830,23,8.752906,56.451182
919269,Holstebrovej,7830,24,8.764826,56.459909
919270,Holstebrovej,7830,25,8.738665,56.446691
919271,Holstebrovej,7830,26,8.762805,56.46018
919272,Holstebrovej,7830,27,8.738845,56.446063
919273,Holstebrovej,7830,28,8.75717,56.461389
919274,Holstebrovej,7830,29,8.732075,56.444039
919275,Holstebrovej,7830,30,8.755404,56.462174
919276,Holstebrovej,7830,31,8.727404,56.444315
919277,Holstebrovej,7830,32,8.75977,56.459551
919278,Holstebrovej,7830,33,8.72034,56.437585
919279,Holstebrovej,7830,34,8.766412,56.458827
919280,Holstebrovej,7830,35,8.720723,56.435637
919281,Holstebrovej,7830,36,8.76305,56.452849
919282,Holstebrovej,7830,37,8.72197,56.434772
919283,Holstebrovej,7830,38,8.761376,56.45301
919284,Holstebrovej,7830,38A,8.76265,56.45203
919285,Holstebrovej,7830,38B,8.761034,56.453653
919286,Holstebrovej,7830,38C,8.761415,56.452157
919287,Holstebrovej,7830,38D,8.761094,56.453997
919288,Holstebrovej,7830,38E,8.761324,56.453961
919289,Holstebrovej,7830,39,8.724095,56.432767
919290,Holstebrovej,7830,40,8.755787,56.452439
919291,Holstebrovej,7830,41,8.727762,56.432129
919292,Holstebrovej,7830,42,8.733298,56.454046
919293,Holstebrovej,7830,43,8.719016,56.430785
919294,Holstebrovej,7830,44,8.731617,56.45491
919295,Holstebrovej,7830,45,8.714202,56.429462
919296,Holstebrovej,7830,46,8.733404,56.446976
919297,Holstebrovej,7830,47,8.711835,56.428874
919298,Holstebrovej,7830,48,8.732099,56.452067
919299,Holstebrovej,7830,50,8.717826,56.436044
919300,Holstebrovej,7830,52,8.711421,56.432356
919301,Holstebrovej,7830,54,8.707939,56.431083
919302,Holstebrovej,7830,56,8.709405,56.431939
919303,Holstebrovej,7830,58,8.709285,56.426831
919308,Viborgvej,7830,358A,8.9600229,56.3971186
919337,Snødervej,7830,82,8.6937535,56.4690217
919403,Strandlyst,7830,1,8.715192,56.472822
919405,Strandlyst,7830,2,8.716101,56.473648
919407,Strandlyst,7830,3,8.715032,56.472623
919410,Strandlyst,7830,4,8.716165,56.473398
919412,Strandlyst,7830,5,8.714974,56.472384
919414,Strandlyst,7830,7,8.714582,56.472174
919415,Strandlyst,7830,9,8.714264,56.472268
919416,Strandlyst,7830,11,8.714268,56.472537
919417,Strandlyst,7830,13,8.714395,56.472716
919418,Strandlyst,7830,15,8.714448,56.472987
919419,Strandlyst,7830,17,8.714838,56.472967
919420,Strandlyst,7830,19,8.713916,56.473104
919421,Strandlyst,7830,21,8.71383,56.472857
919422,Strandlyst,7830,22,8.713819,56.473471
919423,Strandlyst,7830,23,8.713948,56.472611
919424,Strandlyst,7830,24,8.714217,56.473423
919425,Strandlyst,7830,25,8.713694,56.472329
919426,Strandlyst,7830,26,8.714529,56.473696
919427,Strandlyst,7830,27,8.713136,56.472346
919428,Strandlyst,7830,28,8.714044,56.473827
919429,Strandlyst,7830,29,8.7127,56.47242
919430,Strandlyst,7830,30,8.714647,56.473943
919431,Strandlyst,7830,31,8.712829,56.47263
919432,Strandlyst,7830,32,8.7143,56.474038
919433,Strandlyst,7830,33,8.713354,56.472633
919434,Strandlyst,7830,34,8.713811,56.474189
919435,Strandlyst,7830,35,8.713351,56.473133
919436,Strandlyst,7830,36,8.713147,56.474292
919437,Strandlyst,7830,38,8.713072,56.474068
919438,Strandlyst,7830,40,8.71351,56.473928
919439,Strandlyst,7830,42,8.713336,56.473661
919440,Strandlyst,7830,43,8.712352,56.47324
919441,Strandlyst,7830,44,8.712805,56.473775
919442,Strandlyst,7830,45,8.712297,56.472921
919443,Strandlyst,7830,46,8.712649,56.473486
919444,Strandlyst,7830,47,8.712256,56.472652
919445,Strandlyst,7830,48,8.71181,56.473631
919446,Strandlyst,7830,49,8.712142,56.472459
919447,Strandlyst,7830,50,8.71223,56.473637
919448,Strandlyst,7830,51,8.711733,56.472494
919449,Strandlyst,7830,52,8.712244,56.473798
919450,Strandlyst,7830,53,8.711692,56.472749
919451,Strandlyst,7830,54,8.711808,56.473917
919452,Strandlyst,7830,55,8.71174,56.472932
919453,Strandlyst,7830,56,8.712007,56.474207
919454,Strandlyst,7830,57,8.711832,56.473196
919455,Strandlyst,7830,58,8.712527,56.474072
919456,Strandlyst,7830,59,8.711093,56.473178
919457,Strandlyst,7830,60,8.712654,56.474407
919458,Strandlyst,7830,61,8.711074,56.472906
919459,Strandlyst,7830,62,8.712241,56.474545
919460,Strandlyst,7830,63,8.710883,56.472734
919461,Strandlyst,7830,64,8.711732,56.474651
919462,Strandlyst,7830,65,8.710658,56.472458
919463,Strandlyst,7830,66,8.711631,56.474452
919464,Strandlyst,7830,67,8.710315,56.472539
919465,Strandlyst,7830,68,8.711224,56.474351
919466,Strandlyst,7830,69,8.710251,56.472722
919467,Strandlyst,7830,70,8.710802,56.474323
919468,Strandlyst,7830,71,8.710383,56.472989
919469,Strandlyst,7830,72,8.710777,56.474136
919470,Strandlyst,7830,73,8.710489,56.473143
919471,Strandlyst,7830,74,8.711189,56.474113
919472,Strandlyst,7830,75,8.7098966,56.4733276
919473,Strandlyst,7830,76,8.711256,56.473797
919474,Strandlyst,7830,77,8.709882,56.47303
919475,Strandlyst,7830,78,8.711226,56.473506
919476,Strandlyst,7830,79,8.709779,56.472846
919477,Strandlyst,7830,80,8.710719,56.473514
919478,Strandlyst,7830,81,8.709546,56.472641
919479,Strandlyst,7830,82,8.710832,56.473719
919480,Strandlyst,7830,83,8.708937,56.472692
919481,Strandlyst,7830,84,8.710439,56.473949
919482,Strandlyst,7830,85,8.709185,56.472981
919483,Strandlyst,7830,86,8.710278,56.473569
919484,Strandlyst,7830,87,8.709366,56.473193
919485,Strandlyst,7830,89,8.7095,56.473377
919486,Sommerstedvej,7830,20,8.6852044,56.4691876
919487,Sommerstedvej,7830,22,8.6845767,56.4691413
919488,Sommerstedvej,7830,40,8.6857609,56.468278
919489,Sommerstedvej,7830,42,8.6861476,56.4683416
919490,Sommerstedvej,7830,53,8.6873492,56.4690578
919491,Vigen,7830,1,8.715332,56.471376
919492,Vigen,7830,2,8.713161,56.471735
919493,Vigen,7830,3,8.71419,56.471449
919494,Vigen,7830,4,8.713673,56.471766
919495,Vigen,7830,6,8.714146,56.471819
919496,Vigen,7830,8,8.712546,56.471945
919497,Vigen,7830,10,8.712216,56.471892
919498,Vigen,7830,12,8.711585,56.471905
919499,Vigen,7830,14,8.711681,56.471625
919500,Vigen,7830,16,8.711692,56.471423
919501,Vigen,7830,18,8.712215,56.471524
919502,Vigen,7830,20,8.712479,56.471623
919503,Vigen,7830,22,8.710976,56.47132
919504,Vigen,7830,24,8.710891,56.471538
919505,Vigen,7830,26,8.710989,56.471749
919506,Vigen,7830,28,8.711049,56.471954
919507,Vigen,7830,30,8.710459,56.472012
919508,Vigen,7830,32,8.710355,56.471704
919509,Vigen,7830,34,8.710393,56.471489
919510,Vigen,7830,36,8.710407,56.471212
919511,Vigen,7830,38,8.709794,56.47109
919512,Vigen,7830,40,8.709709,56.471369
919513,Vigen,7830,42,8.70971,56.471587
919514,Vigen,7830,44,8.709708,56.471792
919515,Vigen,7830,46,8.709821,56.472038
919516,Vigen,7830,48,8.70923,56.472037
919517,Vigen,7830,50,8.709145,56.471856
919518,Vigen,7830,52,8.708969,56.471621
919519,Vigen,7830,54,8.708991,56.471447
919520,Vigen,7830,56,8.70906,56.4712
919521,Vigen,7830,58,8.709094,56.470976
919522,Vigen,7830,60,8.708515,56.470894
919523,Vigen,7830,62,8.708404,56.471106
919524,Vigen,7830,64,8.708317,56.471377
919525,Vigen,7830,66,8.708414,56.471578
919526,Vigen,7830,68,8.708389,56.471757
919527,Vigen,7830,70,8.708626,56.472007
919528,Vigen,7830,72,8.707764,56.471752
919529,Vigen,7830,74,8.70776,56.4715
919530,Vigen,7830,76,8.707763,56.471259
919531,Vigen,7830,78,8.707827,56.471021
919532,Vigen,7830,80,8.707975,56.4708
919533,Vigen,7830,82,8.707236,56.470613
919534,Vigen,7830,84,8.707087,56.470932
919535,Vigen,7830,86,8.707034,56.47122
919536,Vigen,7830,88,8.706998,56.471459
919537,Vigen,7830,90,8.706532,56.471225
919538,Vigen,7830,92,8.70652,56.47089
919539,Vigen,7830,94,8.706147,56.470774
919540,Vigen,7830,96,8.705719,56.47043
919541,Vigen,7830,98,8.706153,56.470496
919542,Vigen,7830,100,8.706545,56.470631
919543,Strandvejen,7830,1,8.723253,56.472592
919544,Strandvejen,7830,3,8.723727,56.47299
919545,Strandvejen,7830,5,8.723323,56.473172
919546,Strandvejen,7830,6,8.723831,56.473235
919547,Strandvejen,7830,7,8.722594,56.473292
919548,Strandvejen,7830,8,8.72339,56.473341
919549,Strandvejen,7830,9,8.722245,56.473421
919550,Strandvejen,7830,10,8.723131,56.473391
919551,Strandvejen,7830,11,8.721952,56.473488
919552,Strandvejen,7830,12A,8.72272,56.473651
919553,Strandvejen,7830,12B,8.72239,56.473815
919554,Strandvejen,7830,13,8.721555,56.473519
919555,Strandvejen,7830,14A,8.721652,56.473816
919556,Strandvejen,7830,14B,8.721475,56.473858
919557,Strandvejen,7830,16A,8.721244,56.473896
919558,Strandvejen,7830,16B,8.721067,56.473939
919559,Strandvejen,7830,17,8.720667,56.473772
919560,Strandvejen,7830,18A,8.720867,56.474006
919561,Strandvejen,7830,18B,8.720708,56.474044
919562,Strandvejen,7830,20,8.720381,56.47411
919563,Strandvejen,7830,21,8.7199,56.473958
919564,Strandvejen,7830,23,8.719255,56.474171
919565,Strandvejen,7830,25,8.718989,56.474256
919566,Strandvejen,7830,27,8.718517,56.474348
919567,Strandvejen,7830,30,8.719079,56.474424
919568,Strandvejen,7830,31,8.717565,56.474601
919569,Strandvejen,7830,32,8.718284,56.474678
919570,Strandvejen,7830,33,8.717071,56.474561
919571,Strandvejen,7830,34,8.717349,56.474984
919572,Strandvejen,7830,35,8.713575,56.475585
919573,Strandvejen,7830,36,8.716272,56.475698
919574,Strandvejen,7830,37,8.713334,56.475383
919575,Strandvejen,7830,38,8.716161,56.475246
919577,Strandvejen,7830,40,8.714041,56.4758
919578,Strandvejen,7830,40A,8.714293,56.475704
919579,Strandvejen,7830,42,8.713137,56.475567
919580,Fjordparken,7830,2,8.7215,56.469174
919581,Fjordparken,7830,6,8.721175,56.469694
919582,Fjordparken,7830,8,8.721129,56.469454
919583,Fjordparken,7830,10,8.721077,56.469174
919584,Fjordparken,7830,12,8.72028,56.469239
919585,Fjordparken,7830,14,8.72032,56.469532
919586,Fjordparken,7830,16,8.720362,56.469732
919587,Fjordparken,7830,18,8.719945,56.469753
919588,Fjordparken,7830,20,8.71991,56.469551
919589,Fjordparken,7830,22,8.719872,56.469345
919590,Fjordparken,7830,24,8.719236,56.469342
919591,Fjordparken,7830,26,8.71931,56.469596
919592,Fjordparken,7830,26A,8.719452,56.469605
919593,Fjordparken,7830,26B,8.719207,56.469555
919594,Fjordparken,7830,28,8.719281,56.469835
919595,Fjordparken,7830,30,8.718698,56.46985
919596,Kirkevej,7830,1,8.723702,56.471794
919597,Kirkevej,7830,2,8.723123,56.471821
919598,Kirkevej,7830,4,8.723068,56.471715
919599,Kirkevej,7830,6,8.723017,56.471612
919600,Kirkevej,7830,7,8.723354,56.471716
919601,Kirkevej,7830,8,8.722959,56.471493
919602,Kirkevej,7830,9,8.723257,56.471553
919603,Kirkevej,7830,10,8.722866,56.471312
919604,Kirkevej,7830,10A,8.722611,56.471298
919606,Kirkevej,7830,10B,8.722834,56.471308
919607,Kirkevej,7830,11,8.723315,56.471367
919608,Kirkevej,7830,12,8.722612,56.470987
919609,Kirkevej,7830,13,8.723146,56.471215
919610,Kirkevej,7830,14,8.722537,56.470712
919611,Kirkevej,7830,15,8.723009,56.470861
919612,Kirkevej,7830,16,8.722392,56.47058
919613,Kirkevej,7830,17,8.72287,56.470621
919614,Kirkevej,7830,18,8.722141,56.470415
919615,Kirkevej,7830,19,8.722804,56.470433
919616,Kirkevej,7830,20,8.72199,56.470106
919617,Kirkevej,7830,21,8.722671,56.47029
919618,Kirkevej,7830,22,8.72191,56.469892
919619,Kirkevej,7830,23,8.722568,56.470122
919620,Kirkevej,7830,24,8.721818,56.469707
919621,Kirkevej,7830,25,8.722438,56.46996
919622,Kirkevej,7830,27,8.722378,56.469822
919623,Kirkevej,7830,28,8.720647,56.468605
919624,Kirkevej,7830,29,8.722308,56.469638
919625,Kirkevej,7830,31,8.722229,56.469423
919626,Kirkevej,7830,33,8.722597,56.469184
919627,Kirkevej,7830,34,8.72127,56.467832
919628,Kirkevej,7830,35,8.72219,56.464105
919629,Kirkevej,7830,36,8.721327,56.467603
919630,Kirkevej,7830,37,8.722709,56.456187
919631,Kirkevej,7830,39,8.723288,56.450306
919632,Kirkevej,7830,40,8.721086,56.467078
919633,Kirkevej,7830,42,8.721138,56.459635
919634,Kirkevej,7830,44,8.714255,56.458533
919635,Kirkevej,7830,46,8.709643,56.460268
919636,Kirkevej,7830,48,8.721659,56.455886
919637,Kirkevej,7830,50,8.721283,56.454214
919638,Kirkevej,7830,52,8.722306,56.448582
919639,Kirkevej,7830,54A,8.72209,56.447933
919640,Kirkevej,7830,54B,8.722123,56.448004
919641,Kirkevej,7830,54C,8.722163,56.448104
919642,Kirkevej,7830,56,8.721635,56.447963
919643,Kirkevej,7830,56A,8.721155,56.447608
919644,Kirkevej,7830,58,8.716666,56.444248
919645,Kirkevej,7830,60,8.713372,56.442627
919646,Kirkevej,7830,62,8.717921,56.44385
919647,Kirkevej,7830,64,8.720861,56.44469
919723,Fjordboen,7830,1,8.716373,56.474048
919724,Fjordboen,7830,3,8.716261,56.473886
919725,Fjordboen,7830,4,8.716397,56.474862
919726,Fjordboen,7830,5,8.715787,56.473922
919727,Fjordboen,7830,6,8.716263,56.474662
919728,Fjordboen,7830,7,8.715618,56.474145
919729,Fjordboen,7830,8,8.716021,56.474506
919730,Fjordboen,7830,9,8.715772,56.474302
919731,Fjordboen,7830,11,8.715413,56.474348
919732,Fjordboen,7830,13,8.714859,56.474449
919733,Fjordboen,7830,14,8.715795,56.47499
919734,Fjordboen,7830,15,8.715212,56.474068
919735,Fjordboen,7830,16,8.715434,56.475062
919736,Fjordboen,7830,17,8.714865,56.474152
919737,Fjordboen,7830,18,8.71506,56.475204
919738,Fjordboen,7830,19,8.714356,56.474291
919739,Fjordboen,7830,20,8.714766,56.475282
919740,Fjordboen,7830,21,8.713925,56.474334
919741,Fjordboen,7830,22,8.714598,56.475348
919742,Fjordboen,7830,23,8.713349,56.474541
919743,Fjordboen,7830,24,8.714344,56.475395
919744,Fjordboen,7830,25,8.71293,56.474579
919745,Fjordboen,7830,26,8.714113,56.47544
919746,Fjordboen,7830,27,8.712689,56.47463
919747,Fjordboen,7830,28B,8.713852,56.475546
919748,Fjordboen,7830,30,8.713663,56.475405
919749,Fjordboen,7830,32,8.713718,56.475145
919750,Fjordboen,7830,34,8.713341,56.475184
919751,Fjordboen,7830,38,8.713612,56.474944
919752,Fjordboen,7830,40,8.713479,56.474788
919753,Fjordboen,7830,42,8.713079,56.474841
919754,Fjordglimt,7830,1,8.721176,56.469996
919755,Fjordglimt,7830,2,8.721314,56.470533
919756,Fjordglimt,7830,3,8.721442,56.470182
919758,Fjordglimt,7830,4,8.721486,56.470811
919759,Fjordglimt,7830,5,8.720671,56.470318
919760,Fjordglimt,7830,6,8.721634,56.47114
919761,Fjordglimt,7830,7,8.720501,56.470019
919762,Fjordglimt,7830,8,8.721288,56.471101
919763,Fjordglimt,7830,9,8.720119,56.470152
919764,Fjordglimt,7830,10,8.721125,56.470928
919765,Fjordglimt,7830,11,8.720327,56.47036
919766,Fjordglimt,7830,12,8.720983,56.470657
919767,Fjordglimt,7830,13,8.719652,56.470463
919768,Fjordglimt,7830,14,8.720377,56.470761
919769,Fjordglimt,7830,15,8.719467,56.470185
919770,Fjordglimt,7830,16,8.720619,56.471044
919771,Fjordglimt,7830,18,8.720813,56.471254
919772,Fjordglimt,7830,19,8.719163,56.47064
919773,Fjordglimt,7830,20,8.720354,56.471231
919774,Fjordglimt,7830,22,8.720185,56.471025
919775,Fjordglimt,7830,24,8.720046,56.470806
919776,Landtingvej,7830,1,8.783221,56.521886
919777,Landtingvej,7830,2,8.782763,56.522025
919778,Landtingvej,7830,3,8.782915,56.521689
919779,Landtingvej,7830,4,8.782664,56.521852
919780,Landtingvej,7830,5,8.782547,56.521583
919781,Landtingvej,7830,6,8.782256,56.521653
919782,Landtingvej,7830,7,8.782107,56.521349
919783,Landtingvej,7830,8,8.781998,56.521493
919784,Landtingvej,7830,9,8.775225,56.518124
919785,Landtingvej,7830,10,8.781665,56.521418
919786,Landtingvej,7830,11,8.77314,56.512081
919787,Landtingvej,7830,12,8.781586,56.521252
919788,Landtingvej,7830,13,8.768198,56.512593
919789,Landtingvej,7830,14,8.779076,56.52079
919790,Landtingvej,7830,15,8.763045,56.511434
919791,Landtingvej,7830,16,8.778205,56.520867
919792,Landtingvej,7830,16A,8.778439,56.520934
919793,Landtingvej,7830,17,8.761593,56.510112
919794,Landtingvej,7830,18,8.777847,56.521034
919795,Landtingvej,7830,19,8.758303,56.508079
919796,Landtingvej,7830,20,8.771559,56.52144
919797,Landtingvej,7830,21,8.759431,56.506688
919798,Landtingvej,7830,21A,8.759907,56.506578
919799,Landtingvej,7830,22,8.779434,56.520236
919800,Landtingvej,7830,23,8.755155,56.497495
919801,Landtingvej,7830,24,8.767483,56.515509
919802,Landtingvej,7830,26,8.758282,56.513194
919803,Landtingvej,7830,27,8.748996,56.489794
919804,Landtingvej,7830,29,8.747158,56.489454
919805,Landtingvej,7830,30,8.757353,56.508742
919806,Landtingvej,7830,31,8.75152,56.484899
919807,Landtingvej,7830,32,8.759738,56.505108
919808,Landtingvej,7830,33,8.75656,56.482659
919809,Landtingvej,7830,34,8.757468,56.503786
919810,Landtingvej,7830,35,8.752253,56.483512
919811,Landtingvej,7830,36,8.750983,56.498125
919812,Landtingvej,7830,37,8.750141,56.478331
919813,Landtingvej,7830,38,8.748948,56.496062
919814,Landtingvej,7830,39,8.749044,56.476689
919815,Landtingvej,7830,40,8.74591,56.493512
919816,Landtingvej,7830,42,8.746287,56.492087
919817,Landtingvej,7830,44,8.745459,56.491342
919818,Landtingvej,7830,46,8.746261,56.49021
919819,Landtingvej,7830,48,8.746202,56.48203
919820,Øster Hjermvej,7830,23A,8.707321,56.452878
919821,Øster Hjermvej,7830,25,8.705015,56.44799
919822,Øster Hjermvej,7830,27,8.705441,56.447641
919823,Øster Hjermvej,7830,29,8.707083,56.447344
919824,Øster Hjermvej,7830,31,8.708017,56.448577
919825,Øster Hjermvej,7830,33,8.711633,56.450425
919826,Øster Hjermvej,7830,35,8.718285,56.449657
919827,Øster Hjermvej,7830,36,8.702136,56.441982
919828,Øster Hjermvej,7830,37,8.710883,56.452941
919829,Øster Hjermvej,7830,38,8.708251,56.446157
919830,Øster Hjermvej,7830,39,8.710557,56.454401
919831,Øster Hjermvej,7830,40,8.710107,56.446812
919832,Øster Hjermvej,7830,41,8.715729,56.453558
919833,Øster Hjermvej,7830,42,8.714537,56.446081
919834,Øster Hjermvej,7830,43,8.716448,56.452533
919835,Øster Hjermvej,7830,44,8.717214,56.446647
919836,Helleå,7830,1,8.716384,56.475105
919837,Helleå,7830,2,8.717376,56.47522
919838,Helleå,7830,3,8.716495,56.475244
919839,Helleå,7830,4,8.717722,56.475143
919840,Helleå,7830,5,8.716584,56.475405
919841,Helleå,7830,6,8.717993,56.47555
919842,Helleå,7830,7,8.716849,56.475466
919843,Helleå,7830,8,8.717734,56.475584
919844,Helleå,7830,9,8.717007,56.475617
919845,Helleå,7830,10,8.717376,56.475645
919846,Helleå,7830,11,8.716738,56.475669
919847,Helleå,7830,12,8.717271,56.475493
919848,Helleå,7830,14,8.717017,56.475263
919849,Engtoften,7830,1,8.721233,56.473199
919850,Engtoften,7830,2,8.72074,56.473358
919851,Engtoften,7830,3,8.720902,56.472996
919852,Engtoften,7830,4,8.720535,56.473106
919853,Engtoften,7830,5,8.720948,56.472728
919854,Engtoften,7830,6,8.720032,56.47301
919855,Engtoften,7830,7,8.72077,56.472508
919856,Engtoften,7830,8,8.720064,56.472717
919857,Engtoften,7830,9,8.720652,56.472336
919858,Engtoften,7830,10,8.720006,56.472452
919859,Engtoften,7830,12,8.719628,56.472287
919860,Brovænget,7830,1,8.722766,56.472928
919861,Brovænget,7830,2,8.722445,56.473041
919862,Brovænget,7830,2A,8.72241,56.472997
919863,Brovænget,7830,2B,8.722338,56.472909
919864,Brovænget,7830,3,8.722678,56.472736
919865,Brovænget,7830,4,8.7218,56.473009
919866,Brovænget,7830,5,8.722139,56.472676
919867,Brovænget,7830,6,8.721688,56.473129
919868,Brovænget,7830,7,8.721835,56.472498
919869,Brovænget,7830,8,8.721385,56.472795
919870,Brovænget,7830,9,8.72149,56.472417
919871,Brovænget,7830,11,8.721013,56.472398
919872,Rydevej,7830,1,8.776488,56.435246
919873,Rydevej,7830,2,8.77702,56.435399
919874,Rydevej,7830,3,8.776254,56.435377
919875,Rydevej,7830,4,8.776445,56.435589
919876,Rydevej,7830,5,8.775041,56.43563
919877,Rydevej,7830,6,8.776243,56.435732
919878,Rydevej,7830,7,8.769384,56.436842
919879,Rydevej,7830,8,8.775956,56.435826
919880,Rydevej,7830,9,8.768392,56.436529
919881,Rydevej,7830,10,8.770013,56.438254
919882,Rydevej,7830,11,8.7658,56.437426
919883,Rydevej,7830,12,8.767066,56.444036
919884,Rydevej,7830,13,8.76923,56.438121
919885,Rydevej,7830,14,8.764919,56.444434
919886,Rydevej,7830,15,8.76545,56.445981
919887,Rydevej,7830,16,8.767295,56.446459
919888,Rydevej,7830,17,8.765644,56.446124
919889,Rydevej,7830,18,8.767834,56.446708
919890,Rydevej,7830,19,8.766416,56.446648
919891,Rydevej,7830,20,8.76781,56.447619
919892,Rydevej,7830,21,8.765258,56.449179
919893,Rydevej,7830,22,8.76714,56.44925
919894,Handbjerg Hovgårdvej,7830,1,8.731073,56.465142
919895,Handbjerg Hovgårdvej,7830,3,8.731088,56.464721
919896,Handbjerg Hovgårdvej,7830,5,8.733421,56.46451
919897,Handbjerg Hovgårdvej,7830,5B,8.731415,56.464069
919898,Handbjerg Hovgårdvej,7830,5C,8.731289,56.463884
919900,Runddelen,7830,1,8.712993,56.475384
919901,Runddelen,7830,2A,8.71274,56.475416
919902,Runddelen,7830,2B,8.712549,56.475352
919903,Runddelen,7830,3,8.71286,56.475216
919904,Runddelen,7830,4,8.7122818,56.4752493
919905,Runddelen,7830,5,8.712759,56.475073
919906,Runddelen,7830,6,8.712066,56.47512
919907,Runddelen,7830,7,8.712625,56.474888
919908,Runddelen,7830,8,8.711811,56.474994
919909,Runddelen,7830,9,8.712534,56.474728
919910,Runddelen,7830,10,8.711665,56.474886
919911,Runddelen,7830,11A,8.71225,56.474752
919912,Runddelen,7830,11B,8.712082,56.47482
919913,Bøgevej,7830,1,8.748997,56.449257
919914,Bøgevej,7830,2,8.748484,56.44996
919915,Bøgevej,7830,3,8.759592,56.447097
919916,Bøgevej,7830,4,8.746781,56.44482
919917,Bøgevej,7830,5,8.761197,56.445929
919918,Bøgevej,7830,6,8.748675,56.449072
919919,Bøgevej,7830,8,8.751282,56.442498
919920,Mosevej,7830,1,8.780113,56.484723
919921,Mosevej,7830,1A,8.779633,56.484365
919922,Mosevej,7830,3,8.779803,56.484612
919924,Mosevej,7830,4,8.78035,56.485542
919926,Mosevej,7830,5,8.779503,56.484837
919927,Mosevej,7830,7,8.779194,56.484866
919928,Mosevej,7830,8,8.77926,56.48512
919929,Mosevej,7830,9,8.778801,56.484716
919930,Mosevej,7830,10,8.779,56.485141
919931,Mosevej,7830,11,8.778753,56.484959
919932,Mosevej,7830,12,8.778799,56.485197
919933,Mosevej,7830,13,8.778481,56.48503
919934,Mosevej,7830,14,8.778534,56.485309
919935,Mosevej,7830,16,8.778261,56.485338
919936,Mosevej,7830,17,8.777412,56.485214
919937,Mosevej,7830,18,8.77801,56.485446
919938,Mosevej,7830,19,8.776908,56.485253
919939,Mosevej,7830,20,8.777701,56.485457
919940,Mosevej,7830,21,8.77646,56.485348
919941,Mosevej,7830,22,8.777266,56.48548
919942,Mosevej,7830,23A,8.775271,56.485299
919943,Mosevej,7830,23B,8.775029,56.485613
919944,Mosevej,7830,25,8.768402,56.483641
919945,Mosevej,7830,27,8.76087,56.486597
919946,Mosevej,7830,29,8.756699,56.486221
919947,Mosevej,7830,31,8.747542,56.487147
919948,Mosevej,7830,36,8.776049,56.487708
919949,Mosevej,7830,38,8.753977,56.489529
919950,Salshøjvej,7830,1,8.772269,56.468287
919951,Salshøjvej,7830,2,8.771531,56.467745
919952,Salshøjvej,7830,3,8.782857,56.465809
919953,Salshøjvej,7830,4,8.775678,56.467345
919954,Salshøjvej,7830,5,8.785182,56.464764
919955,Salshøjvej,7830,6,8.792113,56.457935
919956,Salshøjvej,7830,7,8.782095,56.465822
919957,Salshøjvej,7830,8,8.789756,56.454893
919958,Salshøjvej,7830,9,8.785796,56.463695
919959,Salshøjvej,7830,10,8.794053,56.45283
919960,Salshøjvej,7830,11,8.793678,56.457542
919961,Salshøjvej,7830,11A,8.795495,56.457112
919962,Salshøjvej,7830,13,8.812307,56.446641
919963,Salshøjvej,7830,14,8.798839,56.452906
919964,Salshøjvej,7830,16,8.816618,56.442346
919965,Salshøjvej,7830,18,8.836904,56.43172
919966,Salshøjvej,7830,20,8.838803,56.429352
919967,Vester Alle,7830,1,8.774442,56.47955
919968,Vester Alle,7830,3,8.773919,56.479644
919969,Vester Alle,7830,4,8.775046,56.479619
919970,Vester Alle,7830,5,8.773339,56.479738
919971,Vester Alle,7830,6,8.774816,56.479657
919972,Vester Alle,7830,7,8.773019,56.47978
919973,Vester Alle,7830,8,8.774604,56.479688
919974,Vester Alle,7830,9,8.77258,56.479842
919975,Vester Alle,7830,10,8.774391,56.479729
919976,Vester Alle,7830,11,8.772253,56.479884
919977,Vester Alle,7830,12,8.774166,56.479764
919978,Vester Alle,7830,13,8.771914,56.479929
919979,Vester Alle,7830,14,8.773957,56.479799
919980,Vester Alle,7830,16,8.773741,56.479833
919981,Vester Alle,7830,18,8.773583,56.479936
919982,Vester Alle,7830,18A,8.773373,56.480019
919983,Vester Alle,7830,20,8.773147,56.479999
919984,Vester Alle,7830,22,8.772985,56.480019
919985,Vester Alle,7830,24,8.772748,56.480051
919986,Vester Alle,7830,26,8.772591,56.480071
919987,Vester Alle,7830,28,8.77235,56.480102
919988,Vester Alle,7830,30,8.772193,56.480123
919989,Vester Alle,7830,32,8.771953,56.480155
919990,Vester Alle,7830,34,8.771798,56.480176
919991,Vester Alle,7830,36,8.77156,56.480207
919992,Vester Alle,7830,38,8.771398,56.480226
919993,Vester Alle,7830,40,8.771191,56.480265
919994,Fjordbakken,7830,1,8.717683,56.464282
919995,Fjordbakken,7830,2,8.719698,56.46503
919996,Fjordbakken,7830,3,8.715251,56.464442
919997,Fjordbakken,7830,4,8.715468,56.465641
919998,Fjordbakken,7830,6,8.715349,56.467328
919999,Fjordbakken,7830,7,8.712096,56.46561
920000,Fjordbakken,7830,8,8.706313,56.467063
920001,Fjordbakken,7830,9,8.710991,56.465034
920002,Strandvænget,7830,2,8.714796,56.475495
920003,Strandvænget,7830,4,8.714869,56.475626
920004,Strandvænget,7830,6,8.715138,56.475438
920005,Strandvænget,7830,8,8.715275,56.475577
920006,Strandvænget,7830,10,8.715482,56.475372
920007,Strandvænget,7830,12,8.715705,56.475273
920008,Strandvænget,7830,14,8.715829,56.47545
920009,Strandvænget,7830,16,8.715955,56.475625
920010,Ulstrupvej,7830,1,8.768572,56.44832
920011,Ulstrupvej,7830,2,8.774025,56.447518
920012,Ulstrupvej,7830,3,8.778656,56.449095
920013,Ulstrupvej,7830,4,8.775975,56.444596
920014,Ulstrupvej,7830,5,8.779791,56.449584
920015,Ulstrupvej,7830,5A,8.784503,56.448802
920016,Ulstrupvej,7830,7,8.776065,56.447439
920017,Lundvej,7830,1,8.717577,56.438052
920018,Lundvej,7830,2,8.716195,56.43898
920019,Lundvej,7830,3,8.715198,56.437621
920020,Lundvej,7830,4,8.709748,56.443713
920021,Lundvej,7830,5,8.710712,56.437477
920022,Lundvej,7830,6,8.710305,56.442454
920023,Lundvej,7830,8,8.709659,56.440109
920024,Lundvej,7830,10,8.707838,56.438207
920025,Møllevej,7830,1A,8.779265,56.483147
920026,Møllevej,7830,2,8.77971,56.483237
920027,Møllevej,7830,2A,8.779433,56.483291
920028,Møllevej,7830,3,8.778608,56.483287
920029,Møllevej,7830,4,8.77916,56.48338
920030,Møllevej,7830,5,8.778357,56.483313
920031,Møllevej,7830,5A,8.777781,56.483082
920032,Møllevej,7830,5B,8.777674,56.482908
920033,Møllevej,7830,5C,8.777296,56.482634
920034,Møllevej,7830,5D,8.7782272,56.4829898
920035,Møllevej,7830,6,8.778948,56.483376
920036,Møllevej,7830,7,8.777948,56.483385
920037,Møllevej,7830,8,8.778749,56.483429
920038,Møllevej,7830,9,8.77763,56.483378
920039,Møllevej,7830,10,8.778547,56.483448
920040,Møllevej,7830,11,8.77738,56.483487
920041,Møllevej,7830,12,8.778169,56.483598
920042,Møllevej,7830,13,8.777037,56.483518
920043,Møllevej,7830,13A,8.776597,56.483577
920044,Møllevej,7830,14,8.777041,56.48378
920045,Møllevej,7830,14A,8.777219,56.483747
920046,Møllevej,7830,14B,8.776863,56.483813
920047,Møllevej,7830,15,8.775984,56.483675
920048,Møllevej,7830,16,8.776375,56.483978
920049,Møllevej,7830,17,8.775698,56.483738
920050,Møllevej,7830,18,8.776038,56.484041
920051,Møllevej,7830,19,8.775346,56.483795
920052,Møllevej,7830,20,8.775491,56.484064
920053,Møllevej,7830,21,8.774366,56.484006
920054,Møllevej,7830,22,8.77508,56.48414
920055,Møllevej,7830,23,8.771593,56.480939
920056,Møllevej,7830,24,8.774772,56.484199
920057,Møllevej,7830,26,8.771469,56.482251
920058,Struervej,7830,1,8.765763,56.467751
920059,Struervej,7830,2,8.727642,56.473089
920060,Struervej,7830,3,8.767061,56.468087
920061,Struervej,7830,5,8.753016,56.467594
920062,Struervej,7830,9,8.7431898,56.4716382
920063,Struervej,7830,11,8.736645,56.472203
920064,Struervej,7830,13,8.73103,56.472308
920065,Struervej,7830,15,8.721416,56.471543
920066,Struervej,7830,17,8.720318,56.471505
920067,Struervej,7830,19,8.718929,56.471295
920068,Struervej,7830,21,8.716411,56.470907
920069,Struervej,7830,23,8.712616,56.468492
920070,Struervej,7830,25,8.7143547,56.4690854
920071,Struervej,7830,27,8.709832,56.469329
921662,Nylandsvej,7830,2,8.781154,56.479867
921663,Nylandsvej,7830,3,8.780898,56.480043
921664,Nylandsvej,7830,4,8.781245,56.480009
921665,Nylandsvej,7830,5A,8.780453,56.480154
921666,Nylandsvej,7830,5B,8.780323,56.480176
921667,Nylandsvej,7830,5C,8.780192,56.480198
921668,Nylandsvej,7830,5D,8.780264,56.480087
921669,Nylandsvej,7830,6,8.781325,56.480162
921670,Nylandsvej,7830,7,8.779918,56.48018
921671,Nylandsvej,7830,8,8.78139,56.480307
921672,Nylandsvej,7830,10,8.781572,56.4804
921673,Nylandsvej,7830,11,8.78099,56.480976
921674,Nylandsvej,7830,12,8.78152,56.480537
921675,Nylandsvej,7830,13A,8.781514,56.481183
921676,Nylandsvej,7830,14,8.781811,56.480917
921677,Nylandsvej,7830,14A,8.7818899,56.4807109
921678,Nylandsvej,7830,15,8.781614,56.481313
921679,Nylandsvej,7830,16,8.781868,56.481066
921680,Nylandsvej,7830,17,8.781707,56.481465
921681,Nylandsvej,7830,18,8.781865,56.481202
921682,Nylandsvej,7830,19,8.781675,56.481596
921683,Nylandsvej,7830,20,8.781937,56.481337
921684,Nylandsvej,7830,22,8.782206,56.481482
921685,Nylandsvej,7830,24,8.782069,56.481569
921686,Nylandsvej,7830,26,8.782122,56.481695
921687,Nylandsvej,7830,28,8.782197,56.481815
921688,Nørregade,7830,1,8.779273,56.482109
921689,Nørregade,7830,2,8.779692,56.482262
921690,Nørregade,7830,2A,8.779848,56.482449
921691,Nørregade,7830,3,8.779328,56.482215
921692,Nørregade,7830,4,8.779968,56.482723
921693,Nørregade,7830,4A,8.780002,56.482785
921694,Nørregade,7830,5,8.779434,56.482379
921695,Nørregade,7830,6,8.780095,56.482955
921696,Nørregade,7830,8,8.780183,56.4831
921697,Nørregade,7830,9,8.779588,56.482686
921698,Nørregade,7830,9A,8.779413,56.482735
921699,Nørregade,7830,9B,8.779391,56.482786
921700,Nørregade,7830,9C,8.779247,56.482717
921701,Nørregade,7830,9D,8.779243,56.482795
921702,Nørregade,7830,10,8.780313,56.483292
921703,Nørregade,7830,10A,8.780293,56.483266
921704,Nørregade,7830,10B,8.780332,56.483318
921705,Nørregade,7830,7,8.779513,56.482521
921706,Nørregade,7830,12,8.780737,56.483261
921707,Nørregade,7830,13,8.779781,56.483007
921708,Nørregade,7830,13A,8.779787,56.483065
921709,Nørregade,7830,13B,8.779715,56.483078
921710,Nørregade,7830,13C,8.779644,56.48309
921711,Nørregade,7830,13D,8.779573,56.483103
921712,Nørregade,7830,14,8.780586,56.483627
921713,Nørregade,7830,15,8.7799,56.483231
921714,Nørregade,7830,15A,8.779945,56.483303
921715,Nørregade,7830,16,8.780656,56.483721
921716,Nørregade,7830,17,8.780017,56.483414
921717,Nørregade,7830,18A,8.780707,56.48378
921718,Nørregade,7830,18B,8.780729,56.483806
921719,Nørregade,7830,18C,8.780752,56.483832
921720,Nørregade,7830,18D,8.780774,56.483858
921721,Nørregade,7830,19,8.780111,56.483498
921722,Nørregade,7830,20,8.780864,56.48396
921723,Nørregade,7830,21,8.780265,56.48373
921724,Nørregade,7830,23,8.780414,56.483857
921725,Nørregade,7830,24,8.781098,56.484208
921726,Nørregade,7830,25,8.78057,56.484174
921727,Nørregade,7830,25A,8.780553,56.48404
921728,Nørregade,7830,25B,8.780512,56.483992
921729,Nørregade,7830,25C,8.780386,56.484056
921730,Nørregade,7830,26,8.781207,56.484345
921731,Nørregade,7830,27,8.780771,56.484293
921732,Nørregade,7830,28,8.78146,56.48463
921733,Nørregade,7830,29,8.780926,56.484463
921734,Nørregade,7830,30,8.781659,56.484806
921735,Nørregade,7830,31,8.780995,56.484547
921736,Nørregade,7830,31A,8.781042,56.484603
921737,Nørregade,7830,32,8.781799,56.484974
921738,Nørregade,7830,33,8.781236,56.484839
921739,Nørregade,7830,34,8.78194,56.485147
921740,Nørregade,7830,35,8.781374,56.484994
921741,Nørregade,7830,36,8.782391,56.485297
921742,Nørregade,7830,37,8.781454,56.48515
921743,Nørregade,7830,37A,8.781532,56.485308
921744,Nørregade,7830,39,8.781719,56.485428
921745,Nørgårdsvej,7830,1A,8.782121,56.48207
921746,Nørgårdsvej,7830,1B,8.782381,56.482065
921747,Nørgårdsvej,7830,1C,8.782108,56.48209
921748,Nørgårdsvej,7830,1D,8.782313,56.482087
921749,Nørgårdsvej,7830,3,8.782606,56.48208
921750,Nørgårdsvej,7830,3A,8.782821,56.482152
921751,Nørgårdsvej,7830,4,8.779891,56.481699
921752,Nørgårdsvej,7830,5,8.783002,56.482311
921753,Nørgårdsvej,7830,6A,8.780276,56.48163
921754,Nørgårdsvej,7830,6B,8.780533,56.481527
921755,Nørgårdsvej,7830,7,8.783015,56.482062
921756,Nørgårdsvej,7830,8,8.780287,56.481772
921757,Nørgårdsvej,7830,9,8.783227,56.482117
921758,Nørgårdsvej,7830,10,8.780618,56.481839
921759,Nørgårdsvej,7830,11,8.783489,56.482246
921760,Nørgårdsvej,7830,12,8.780811,56.481886
921761,Nørgårdsvej,7830,13A,8.783652,56.48265
921762,Nørgårdsvej,7830,13B,8.783751,56.482656
921763,Nørgårdsvej,7830,13C,8.783852,56.482665
921764,Nørgårdsvej,7830,14,8.781059,56.481929
921765,Nørgårdsvej,7830,14A,8.781324,56.481895
921766,Nørgårdsvej,7830,15,8.78381,56.482415
921767,Nørgårdsvej,7830,16,8.781786,56.481909
921768,Nørgårdsvej,7830,17,8.783918,56.482265
921769,Nørgårdsvej,7830,18,8.782417,56.481914
921770,Nørgårdsvej,7830,19,8.784136,56.48217
921771,Nørgårdsvej,7830,20,8.782685,56.481922
921772,Nørgårdsvej,7830,21,8.784363,56.482159
921773,Nørgårdsvej,7830,22,8.782978,56.481917
921774,Nørgårdsvej,7830,23,8.784705,56.482059
921775,Nørgårdsvej,7830,25,8.785044,56.482035
921776,Nørgårdsvej,7830,26,8.783824,56.4819
921777,Nørgårdsvej,7830,27,8.785534,56.482006
921778,Nørgårdsvej,7830,28,8.78433,56.481879
921779,Nørgårdsvej,7830,29,8.785835,56.482039
921780,Nørgårdsvej,7830,30,8.784604,56.481839
921781,Nørgårdsvej,7830,32,8.784887,56.481872
921782,Nørgårdsvej,7830,33,8.786979,56.481974
921783,Nørgårdsvej,7830,34,8.785294,56.481863
921784,Nørgårdsvej,7830,36,8.78581,56.481831
921785,Grønnegade,7830,1,8.781845,56.484539
921786,Grønnegade,7830,2,8.78218,56.484401
921787,Grønnegade,7830,3,8.782496,56.484725
921788,Grønnegade,7830,4,8.782431,56.484468
921789,Grønnegade,7830,5,8.782708,56.484921
921790,Grønnegade,7830,6,8.782591,56.484488
921791,Grønnegade,7830,6A,8.78282,56.484286
921792,Grønnegade,7830,7,8.782877,56.484691
921793,Grønnegade,7830,8,8.782898,56.4842
921794,Grønnegade,7830,9,8.783066,56.484522
921795,Grønnegade,7830,10,8.782952,56.484063
921796,Grønnegade,7830,11,8.783423,56.484459
921797,Grønnegade,7830,13,8.783347,56.484219
921798,Grønnegade,7830,15,8.783521,56.48408
921799,Grønnegade,7830,17,8.78356,56.483946
921800,Grønnegade,7830,19,8.783665,56.48381
921801,Grønnegade,7830,21,8.783798,56.48368
921802,Lillegade,7830,1,8.784515,56.482396
921803,Lillegade,7830,2,8.784733,56.482397
921804,Lillegade,7830,3,8.784506,56.482586
921805,Lillegade,7830,4,8.784759,56.482473
921806,Lillegade,7830,5,8.784597,56.48277
921807,Lillegade,7830,6,8.785101,56.482612
921808,Lillegade,7830,7,8.784687,56.482877
921809,Lillegade,7830,8,8.784948,56.482852
921810,Lillegade,7830,12,8.78536,56.483019
921811,Østervang,7830,1,8.788425,56.477669
921812,Østervang,7830,2,8.787608,56.477595
921813,Østervang,7830,3,8.78818,56.477563
921814,Østervang,7830,4,8.787384,56.477407
921815,Østervang,7830,5,8.787881,56.477377
921816,Østervang,7830,6,8.787165,56.477229
921817,Østervang,7830,7,8.787709,56.477216
921818,Østervang,7830,8,8.787075,56.477099
921819,Østervang,7830,9,8.787621,56.477098
921820,Østervang,7830,11,8.787466,56.476896
921821,Østervang,7830,13,8.787244,56.476713
921822,Nørre Alle,7830,1,8.782078,56.483309
921823,Nørre Alle,7830,2,8.782581,56.483283
921824,Nørre Alle,7830,3,8.781996,56.483478
921825,Nørre Alle,7830,4,8.782404,56.483489
921826,Nørre Alle,7830,5,8.7819,56.483651
921827,Nørre Alle,7830,5A,8.78135,56.483527
921828,Nørre Alle,7830,6,8.782537,56.483736
921829,Nørre Alle,7830,7,8.781476,56.483716
921830,Nørre Alle,7830,8,8.782449,56.483895
921831,Nørre Alle,7830,9,8.78156,56.48405
921832,Nørre Alle,7830,10,8.782063,56.48397
921833,Nørre Alle,7830,12,8.781907,56.484087
921834,Nørre Alle,7830,14,8.781758,56.484274
921835,Mosekrogen,7830,1,8.774988,56.48349
921836,Mosekrogen,7830,2,8.774888,56.483881
921837,Mosekrogen,7830,3,8.77489,56.483318
921838,Mosekrogen,7830,4,8.774746,56.483706
921839,Mosekrogen,7830,5,8.774841,56.48314
921840,Mosekrogen,7830,6,8.774469,56.483511
921841,Mosekrogen,7830,7,8.774626,56.482996
921842,Mosekrogen,7830,8,8.774196,56.483282
921843,Mosekrogen,7830,9,8.774506,56.482823
921844,Mosekrogen,7830,10,8.774117,56.483123
921845,Mosekrogen,7830,11,8.774453,56.482643
921846,Mosekrogen,7830,12,8.774056,56.482956
921847,Mosekrogen,7830,13,8.774387,56.482406
921848,Mosekrogen,7830,14,8.773947,56.4828
921849,Mosekrogen,7830,15,8.774354,56.482246
921850,Mosekrogen,7830,16,8.773859,56.482624
921851,Mosekrogen,7830,17,8.775038,56.482146
921852,Mosekrogen,7830,18,8.773827,56.48242
921853,Mosekrogen,7830,19,8.775207,56.482298
921854,Mosekrogen,7830,20,8.773746,56.482234
921855,Mosekrogen,7830,21,8.775302,56.482464
921856,Mosekrogen,7830,22,8.773543,56.482115
921857,Mosekrogen,7830,23,8.7754,56.482625
921858,Mosekrogen,7830,24,8.773882,56.482022
921859,Mosekrogen,7830,25,8.775377,56.482836
921860,Mosekrogen,7830,26,8.774207,56.48199
921861,Mosekrogen,7830,27,8.775606,56.482988
921862,Mosekrogen,7830,28,8.774553,56.481933
921863,Mosekrogen,7830,29,8.775661,56.483152
921864,Mosekrogen,7830,30,8.774934,56.481869
921865,Mosekrogen,7830,31,8.775812,56.483353
921866,Mosekrogen,7830,32,8.774818,56.481639
921867,Mosekrogen,7830,34,8.774237,56.481569
921868,Mosekrogen,7830,36,8.773771,56.481585
921869,Mosekrogen,7830,38,8.77335,56.481664
921870,Mosekrogen,7830,40,8.773203,56.481425
921871,Mosekrogen,7830,42,8.773582,56.481405
921872,Mosekrogen,7830,44,8.773822,56.481373
921873,Mosekrogen,7830,46,8.774071,56.48134
921874,Hasselholtvej,7830,1,8.785317,56.48839
921875,Hasselholtvej,7830,2,8.785977,56.487605
921876,Hasselholtvej,7830,3,8.793582,56.48623
921877,Hasselholtvej,7830,4,8.792444,56.485639
921878,Hasselholtvej,7830,5,8.79981,56.484535
921879,Hasselholtvej,7830,5A,8.801037,56.486314
921880,Hasselholtvej,7830,6,8.795382,56.485044
921881,Hasselholtvej,7830,7,8.80333,56.488085
921882,Hasselholtvej,7830,8,8.800919,56.480875
921883,Hasselholtvej,7830,9,8.80875,56.488497
921884,Hasselholtvej,7830,10,8.806921,56.482309
921885,Hasselholtvej,7830,12,8.811735,56.482842
921886,Hasselholtvej,7830,13,8.808482,56.486426
921887,Hasselholtvej,7830,15,8.80663,56.484347
921888,Hasselholtvej,7830,17,8.811931,56.486339
921889,Hasselholtvej,7830,19,8.813684,56.488653
921890,Hasselholtvej,7830,21,8.8139349,56.4841984
921891,Møllersvej,7830,1,8.782228,56.479669
921892,Møllersvej,7830,3,8.782302,56.479787
921893,Møllersvej,7830,4,8.782721,56.479973
921894,Møllersvej,7830,5,8.782338,56.479858
921895,Møllersvej,7830,6,8.782793,56.480107
921896,Møllersvej,7830,7,8.782231,56.479997
921897,Møllersvej,7830,8,8.782866,56.480248
921898,Møllersvej,7830,9,8.782374,56.480145
921899,Møllersvej,7830,10,8.782937,56.480389
921900,Møllersvej,7830,11,8.782533,56.480304
921901,Møllersvej,7830,12,8.783113,56.480695
921902,Møllersvej,7830,13,8.782645,56.48044
921903,Møllersvej,7830,14,8.783184,56.480842
921904,Møllersvej,7830,15,8.782641,56.480566
921905,Møllersvej,7830,16,8.783251,56.480974
921906,Møllersvej,7830,17,8.782712,56.480716
921907,Møllersvej,7830,18,8.783323,56.481079
921908,Møllersvej,7830,19,8.782765,56.480874
921909,Møllersvej,7830,20,8.783397,56.48124
921910,Møllersvej,7830,21,8.782865,56.480992
921911,Møllersvej,7830,22,8.783454,56.481348
921912,Møllersvej,7830,23,8.782947,56.481119
921913,Møllersvej,7830,24,8.78357,56.481497
921914,Møllersvej,7830,25,8.783081,56.481243
921915,Møllersvej,7830,26,8.78363,56.481677
921916,Møllersvej,7830,27,8.783157,56.481387
921917,Møllersvej,7830,29,8.783247,56.48155
921918,Møllersvej,7830,33,8.783412,56.481889
921919,Ålykkevej,7830,1,8.786105,56.482279
921920,Ålykkevej,7830,2,8.786478,56.482137
921921,Ålykkevej,7830,3,8.786174,56.482447
921922,Ålykkevej,7830,4,8.786672,56.482351
921923,Ålykkevej,7830,5,8.786222,56.482587
921924,Ålykkevej,7830,6,8.786674,56.482525
921925,Ålykkevej,7830,7,8.786253,56.482768
921926,Ålykkevej,7830,8,8.786766,56.482711
921927,Ålykkevej,7830,9,8.78645,56.482974
921928,Ålykkevej,7830,10,8.78682,56.482841
921929,Ålykkevej,7830,11,8.787416,56.48333
921930,Ålykkevej,7830,11A,8.784543,56.482986
921931,Ålykkevej,7830,12,8.787577,56.482796
921932,Ålykkevej,7830,14,8.788154,56.482725
921933,Ålykkevej,7830,20,8.789988,56.482683
921934,Ålykkevej,7830,41,8.786784,56.483534
921935,Vestervang,7830,1,8.776902,56.48322
921936,Vestervang,7830,2,8.776558,56.483347
921937,Vestervang,7830,3,8.776795,56.483024
921938,Vestervang,7830,4,8.77646,56.48318
921939,Vestervang,7830,5,8.776691,56.482845
921940,Vestervang,7830,6,8.776313,56.482957
921941,Vestervang,7830,7,8.776546,56.482547
921942,Vestervang,7830,8,8.776218,56.482752
921943,Vestervang,7830,9,8.776387,56.482315
921944,Vestervang,7830,10,8.776123,56.482582
921945,Vestervang,7830,11,8.7762,56.482041
921946,Vestervang,7830,12,8.775984,56.4824
921947,Vestervang,7830,13,8.776043,56.481759
921948,Vestervang,7830,14,8.775779,56.482174
921949,Vestervang,7830,16,8.77572,56.481943
921950,Vestervang,7830,18,8.775583,56.481709
921951,Voldgade,7830,1,8.775555,56.484408
921952,Voldgade,7830,2,8.775965,56.484353
921953,Voldgade,7830,3,8.775495,56.484589
921954,Voldgade,7830,4,8.775971,56.484549
921955,Voldgade,7830,5,8.7755,56.484772
921956,Voldgade,7830,6,8.775975,56.484708
921957,Voldgade,7830,7,8.77496,56.484645
921958,Voldgade,7830,8,8.775996,56.484844
921959,Voldgade,7830,9,8.77489,56.484852
921960,Voldgade,7830,10,8.775997,56.484998
921961,Voldgade,7830,11,8.77503,56.485216
921962,Voldgade,7830,12,8.775991,56.485207
921963,Voldgade,7830,13,8.775573,56.485013
921964,Voldgade,7830,15,8.775581,56.485182
921965,Voldgade,7830,17,8.775587,56.485381
921966,Åparken,7830,1,8.784394,56.483851
921967,Åparken,7830,2,8.784852,56.483888
921968,Åparken,7830,3,8.784161,56.484112
921969,Åparken,7830,4,8.784689,56.484092
921970,Åparken,7830,6,8.784437,56.484282
921971,Åparken,7830,8,8.783907,56.484451
921972,Åparken,7830,10,8.783858,56.484639
921973,Åparken,7830,12,8.78356,56.484834
921974,Vestergade,7830,3,8.777418,56.480147
921975,Vestergade,7830,5,8.777277,56.480179
921976,Vestergade,7830,6,8.777348,56.480304
921977,Vestergade,7830,7,8.777103,56.480223
921978,Vestergade,7830,8,8.777159,56.480336
921979,Vestergade,7830,9,8.776905,56.480269
921980,Vestergade,7830,10,8.777011,56.480369
921981,Vestergade,7830,11,8.77676,56.4803
921982,Vestergade,7830,12,8.776734,56.480433
921983,Vestergade,7830,13,8.776339,56.480401
921984,Vestergade,7830,13A,8.776225,56.480239
921985,Vestergade,7830,14,8.776517,56.480525
921986,Anlægsvej,7830,1,8.776829,56.481105
921987,Anlægsvej,7830,3,8.777088,56.481043
921988,Anlægsvej,7830,4,8.77712,56.480877
921989,Anlægsvej,7830,5,8.777519,56.480961
921990,Anlægsvej,7830,6,8.777435,56.480819
921991,Vinjes Torv,7830,1,8.78009,56.481895
921992,Agovej,7830,1A,8.777723,56.483734
921993,Agovej,7830,1B,8.777605,56.483723
921994,Agovej,7830,2,8.778006,56.483844
921995,Agovej,7830,4A,8.778529,56.484004
921996,Agovej,7830,4B,8.778967,56.4842
921997,Agovej,7830,5,8.777579,56.484124
921998,Agovej,7830,6,8.777906,56.484234
921999,Agovej,7830,7,8.777603,56.484288
922000,Agovej,7830,8,8.777855,56.484577
922001,Agovej,7830,9,8.777495,56.484442
922002,Agovej,7830,10,8.77819,56.484905
922003,Agovej,7830,11,8.777533,56.484625
922004,Agovej,7830,13,8.777476,56.484742
922005,Agovej,7830,15,8.777325,56.484955
922006,Agovej,7830,15A,8.776887,56.484957
922007,Skivevej,7830,1,8.775668,56.49007
922008,Skivevej,7830,2,8.782306,56.485593
922009,Skivevej,7830,3,8.76991,56.493688
922010,Skivevej,7830,4,8.787162,56.490221
922011,Skivevej,7830,5,8.773947,56.490997
922012,Skivevej,7830,6,8.797852,56.492008
922013,Skivevej,7830,7,8.780981,56.489165
922014,Skivevej,7830,8,8.793603,56.491583
922015,Skivevej,7830,9,8.784653,56.488924
922016,Skivevej,7830,10,8.791592,56.490007
922017,Skivevej,7830,11,8.784815,56.489146
922018,Skivevej,7830,12,8.788608,56.491376
922019,Skivevej,7830,13,8.784964,56.489348
922020,Skivevej,7830,14,8.790463,56.493263
922021,Skivevej,7830,16,8.790237,56.49446
922022,Skivevej,7830,17,8.785301,56.489673
922023,Skivevej,7830,18,8.795756,56.500218
922024,Skivevej,7830,19,8.780453,56.492358
922025,Skivevej,7830,20,8.800893,56.500638
922026,Skivevej,7830,20A,8.802829,56.502666
922027,Skivevej,7830,22,8.798866,56.503455
922028,Skivevej,7830,23,8.791163,56.496293
922029,Skivevej,7830,24,8.801028,56.504265
922030,Skivevej,7830,24A,8.799941,56.503678
922031,Skivevej,7830,25,8.792415,56.500259
922032,Skivevej,7830,26,8.804366,56.503796
922033,Skivevej,7830,27,8.795826,56.501395
922034,Skivevej,7830,28,8.811317,56.516898
922035,Skivevej,7830,29,8.796487,56.501605
922036,Skivevej,7830,30,8.812776,56.518347
922037,Skivevej,7830,31,8.796855,56.502146
922038,Skivevej,7830,32,8.81296,56.520393
922039,Skivevej,7830,33,8.797332,56.502434
922040,Skivevej,7830,34,8.815075,56.522527
922041,Skivevej,7830,35,8.791425,56.503242
922042,Skivevej,7830,36,8.818607,56.527125
922043,Skivevej,7830,37,8.793017,56.50302
922044,Skivevej,7830,39,8.795243,56.503139
922045,Skivevej,7830,41,8.786511,56.508931
922046,Skivevej,7830,42,8.823925,56.528069
922047,Skivevej,7830,43,8.797281,56.504307
922048,Skivevej,7830,44,8.824228,56.530374
922049,Skivevej,7830,45,8.799144,56.5046
922050,Skivevej,7830,46,8.824053,56.532137
922051,Skivevej,7830,47,8.807294,56.515073
922052,Skivevej,7830,48,8.834147,56.541211
922053,Skivevej,7830,49,8.806064,56.515592
922054,Skivevej,7830,49A,8.805288,56.515734
922055,Skivevej,7830,50,8.836969,56.54043
922056,Skivevej,7830,51,8.804484,56.516454
922057,Skivevej,7830,52,8.83875,56.538063
922058,Skivevej,7830,53,8.808745,56.515939
922059,Skivevej,7830,55,8.810998,56.518672
922060,Skivevej,7830,63,8.800459,56.525696
922061,Skivevej,7830,65,8.805988,56.523813
922062,Skivevej,7830,67,8.812571,56.525514
922063,Skivevej,7830,69,8.815817,56.524622
922064,Skivevej,7830,71,8.816485,56.525423
922065,Skivevej,7830,73,8.808142,56.526552
922066,Skivevej,7830,75,8.817304,56.52628
922067,Skivevej,7830,77,8.81744,56.526446
922068,Skivevej,7830,79,8.811866,56.528436
922069,Skivevej,7830,81,8.815298,56.528968
922070,Skivevej,7830,83,8.816266,56.531446
922071,Skivevej,7830,85,8.829733,56.544563
922072,Skivevej,7830,87,8.831653,56.54554
922073,Skivevej,7830,89,8.841377,56.546535
922074,Købmagerstræde,7830,6,8.778202,56.482669
922075,Købmagerstræde,7830,7,8.778299,56.482019
922076,Købmagerstræde,7830,8,8.777957,56.482701
922077,Købmagerstræde,7830,10,8.778102,56.482321
922078,Sportsvej,7830,1,8.787157,56.480678
922079,Skovlundvej,7830,1,8.802372,56.472858
922080,Skovlundvej,7830,2,8.796975,56.475293
922081,Skovlundvej,7830,3,8.804716,56.46987
922082,Skovlundvej,7830,4,8.796271,56.475222
922083,Skovlundvej,7830,5,8.803173,56.468394
922084,Skovlundvej,7830,6,8.795189,56.4732
922085,Skovlundvej,7830,7,8.807304,56.464932
922086,Skovlundvej,7830,8,8.797785,56.469811
922087,Skovlundvej,7830,10,8.795696,56.470932
922088,Skovlundvej,7830,12,8.801095,56.47148
922089,Skovlundvej,7830,14,8.803738,56.46602
922090,Skovlundvej,7830,16,8.802066,56.464496
922091,Skovlundvej,7830,18,8.805403,56.464337
922092,Stationsvej,7830,1,8.780893,56.482639
922093,Stationsvej,7830,2,8.781788,56.482679
922094,Stationsvej,7830,2A,8.781915,56.482711
922095,Stationsvej,7830,3,8.781398,56.482855
922096,Stationsvej,7830,4,8.782654,56.482902
922097,Stationsvej,7830,4A,8.782548,56.482857
922098,Stationsvej,7830,4B,8.782812,56.482902
922099,Stationsvej,7830,4C,8.783038,56.482952
922100,Stationsvej,7830,4D,8.78312,56.482977
922101,Stationsvej,7830,4E,8.783861,56.483131
922102,Stationsvej,7830,5,8.781609,56.483034
922103,Stationsvej,7830,6,8.78427,56.483526
922104,Stationsvej,7830,7,8.781928,56.483086
922105,Stationsvej,7830,9,8.782225,56.483154
922106,Stationsvej,7830,11,8.78306,56.483582
922107,Stationsvej,7830,13,8.78346,56.483506
1890193,Fuglebakken,7830,1,8.920495,56.407852
1890195,Fuglebakken,7830,2,8.920497,56.406578
1890198,Fuglebakken,7830,3,8.92011,56.407878
1890200,Fuglebakken,7830,4,8.920732,56.407021
1890203,Fuglebakken,7830,5,8.919619,56.407795
1890205,Fuglebakken,7830,6,8.92111,56.406964
1890208,Fuglebakken,7830,7,8.9197,56.408008
1890210,Fuglebakken,7830,8,8.921548,56.406904
1890212,Fuglebakken,7830,9,8.919779,56.408341
1890215,Fuglebakken,7830,9A,8.919697,56.408245
1890217,Fuglebakken,7830,9B,8.919886,56.408243
1890219,Fuglebakken,7830,10,8.921489,56.406574
1890221,Fuglebakken,7830,11,8.920241,56.408229
1890224,Fuglebakken,7830,12,8.921962,56.406523
1890226,Fuglebakken,7830,13,8.92078,56.408148
1890228,Fuglebakken,7830,15,8.920904,56.408394
1890231,Fuglebakken,7830,17,8.920394,56.408487
1890234,Fuglebakken,7830,18,8.92204,56.406896
1890235,Fuglebakken,7830,19,8.920038,56.408573
1890237,Fuglebakken,7830,20,8.922179,56.407222
1890240,Fuglebakken,7830,21,8.919993,56.40878
1890241,Fuglebakken,7830,22,8.92242,56.407534
1890244,Fuglebakken,7830,23,8.920497,56.40888
1890246,Fuglebakken,7830,23A,8.920396,56.408784
1890247,Fuglebakken,7830,23B,8.920591,56.40878
1890249,Fuglebakken,7830,24,8.922141,56.407992
1890250,Fuglebakken,7830,25,8.920919,56.408649
1890251,Fuglebakken,7830,26A,8.921891,56.407485
1890252,Fuglebakken,7830,26B,8.921854,56.407383
1890253,Fuglebakken,7830,27,8.921185,56.408968
1890254,Fuglebakken,7830,28A,8.921784,56.407223
1890255,Fuglebakken,7830,28B,8.921737,56.407119
1890256,Fuglebakken,7830,29,8.920675,56.409088
1890258,Fuglebakken,7830,30,8.921189,56.407189
1890259,Fuglebakken,7830,31,8.920263,56.409161
1890260,Fuglebakken,7830,32,8.920813,56.407342
1890262,Fuglebakken,7830,33,8.920393,56.409333
1890264,Fuglebakken,7830,34,8.921086,56.407699
1890266,Fuglebakken,7830,36,8.921596,56.408172
1890267,Fuglebakken,7830,37,8.921282,56.409258
1890269,Fuglebakken,7830,38,8.921698,56.408776
1890271,Fuglebakken,7830,44,8.921697,56.409072
1890386,Kildebakken,7830,1,8.744951,56.52531
1890390,Kildebakken,7830,2,8.745186,56.525664
1890391,Kildebakken,7830,3,8.744665,56.525152
1890392,Kildebakken,7830,5,8.744698,56.524922
1890393,Kildebakken,7830,7,8.744545,56.52469
1890395,Kildebakken,7830,9,8.744033,56.524677
1890398,Kildebakken,7830,10,8.745141,56.526566
1890402,Kildebakken,7830,11,8.744065,56.52499
1890404,Kildebakken,7830,12,8.744456,56.526578
1890407,Kildebakken,7830,13,8.744188,56.525173
1890410,Kildebakken,7830,14,8.744393,56.526388
1890414,Kildebakken,7830,15,8.744261,56.525432
1890417,Kildebakken,7830,16,8.744448,56.526182
1890419,Kildebakken,7830,17,8.743365,56.525501
1890423,Kildebakken,7830,18,8.744335,56.525953
1890428,Kildebakken,7830,19,8.743478,56.525279
1890429,Kildebakken,7830,20,8.744336,56.525767
1890432,Kildebakken,7830,21,8.743387,56.525027
1890435,Kildebakken,7830,22,8.743617,56.525797
1890441,Kildebakken,7830,23,8.743142,56.524773
1890449,Kildebakken,7830,24,8.743507,56.526086
1890452,Kildebakken,7830,25,8.742467,56.524851
1890458,Kildebakken,7830,26,8.743524,56.526311
1890464,Kildebakken,7830,27,8.7426,56.525084
1890466,Kildebakken,7830,28,8.743612,56.526512
1890470,Kildebakken,7830,29,8.742759,56.525347
1890472,Kildebakken,7830,30,8.743623,56.526719
1890473,Kildebakken,7830,31,8.74287,56.525558
1890474,Kildebakken,7830,32,8.743179,56.526752
1890475,Kildebakken,7830,33,8.742004,56.525659
1890476,Kildebakken,7830,34,8.743035,56.526592
1890477,Kildebakken,7830,35,8.741793,56.525446
1890478,Kildebakken,7830,36,8.742889,56.526322
1890479,Kildebakken,7830,37,8.741898,56.525197
1890480,Kildebakken,7830,38,8.742923,56.526122
1890483,Kildebakken,7830,39,8.741836,56.525
1890486,Kildebakken,7830,40,8.742684,56.525884
1890488,Kildebakken,7830,41,8.74133,56.525032
1890490,Kildebakken,7830,42,8.742093,56.525945
1890492,Kildebakken,7830,43,8.741385,56.525283
1890495,Kildebakken,7830,44,8.74211,56.526168
1890496,Kildebakken,7830,45,8.741335,56.525497
1890498,Kildebakken,7830,46,8.742143,56.526414
1890500,Kildebakken,7830,47,8.74121,56.525729
1890501,Kildebakken,7830,48,8.742099,56.526637
1890503,Kildebakken,7830,49,8.740544,56.525823
1890505,Kildebakken,7830,50,8.742165,56.526909
1890507,Kildebakken,7830,51,8.740457,56.525554
1890509,Kildebakken,7830,53,8.74047,56.525295
1890511,Kildebakken,7830,54,8.741625,56.526853
1890513,Kildebakken,7830,55,8.740288,56.525137
1890516,Kildebakken,7830,56,8.74158,56.526472
1890518,Kildebakken,7830,57,8.739598,56.525174
1890522,Kildebakken,7830,58,8.741395,56.52623
1890525,Kildebakken,7830,59,8.739645,56.525426
1890530,Kildebakken,7830,60,8.741474,56.52607
1890535,Kildebakken,7830,61,8.73968,56.525634
1890537,Kildebakken,7830,62,8.740635,56.52613
1890544,Kildebakken,7830,63,8.739715,56.52591
1890550,Kildebakken,7830,64,8.740743,56.526333
1890552,Kildebakken,7830,66,8.740684,56.526586
1890557,Kildebakken,7830,68,8.740922,56.526764
1890562,Kildebakken,7830,70,8.740789,56.527033
1890565,Kildebakken,7830,72,8.740078,56.527089
1890570,Kildebakken,7830,74,8.740054,56.526885
1890574,Kildebakken,7830,76,8.740117,56.526627
1890581,Kildebakken,7830,78,8.740037,56.526382
1890584,Kildebakken,7830,80,8.739912,56.526185
1890677,Djeldvej,7830,1,8.869744,56.456839
1890678,Djeldvej,7830,2,8.868962,56.456886
1890681,Djeldvej,7830,3,8.86943,56.457
1890682,Djeldvej,7830,4,8.868651,56.456673
1890684,Djeldvej,7830,4A,8.868106,56.456862
1890685,Djeldvej,7830,5,8.869274,56.456888
1890686,Djeldvej,7830,6,8.8686,56.456563
1890687,Djeldvej,7830,7,8.869089,56.456722
1890690,Djeldvej,7830,7A,8.869163,56.456709
1890691,Djeldvej,7830,8,8.868562,56.456439
1890693,Djeldvej,7830,9,8.869547,56.456312
1890694,Djeldvej,7830,10,8.868458,56.456313
1890695,Djeldvej,7830,11A,8.86889,56.456443
1890696,Djeldvej,7830,11B,8.868843,56.456356
1890698,Djeldvej,7830,12,8.868235,56.456117
1890699,Djeldvej,7830,13,8.868753,56.45623
1890701,Djeldvej,7830,14,8.868162,56.455976
1890702,Djeldvej,7830,15,8.86869,56.456108
1890704,Djeldvej,7830,16,8.868342,56.455845
1890706,Djeldvej,7830,17,8.868657,56.45597
1890707,Djeldvej,7830,18,8.868262,56.455395
1890709,Djeldvej,7830,20,8.868394,56.454903
1890710,Djeldvej,7830,20A,8.865728,56.45494
1890711,Djeldvej,7830,21,8.869208,56.453201
1890713,Djeldvej,7830,22,8.867823,56.451195
1890714,Djeldvej,7830,23,8.869062,56.452916
1890716,Djeldvej,7830,24,8.867238,56.451019
1890717,Djeldvej,7830,24A,8.866277,56.450744
1890718,Djeldvej,7830,24B,8.867188,56.450534
1890720,Djeldvej,7830,25,8.867747,56.449135
1890722,Djeldvej,7830,26,8.863942,56.451059
1890723,Djeldvej,7830,26A,8.867058,56.449909
1890725,Djeldvej,7830,26B,8.8667509,56.449761
1890728,Djeldvej,7830,27,8.866361,56.447324
1890730,Djeldvej,7830,28,8.863497,56.443967
1890734,Djeldvej,7830,29,8.862072,56.438302
1890735,Djeldvej,7830,30,8.858907,56.443695
1890738,Djeldvej,7830,31,8.862049,56.437734
1890742,Djeldvej,7830,32,8.857387,56.440312
1890744,Djeldvej,7830,33,8.858285,56.436893
1890747,Djeldvej,7830,34,8.859401,56.439654
1890748,Djeldvej,7830,35,8.858063,56.436659
1890752,Djeldvej,7830,36,8.85523,56.438737
1890755,Djeldvej,7830,37,8.85789,56.436387
1890757,Djeldvej,7830,38,8.857612,56.436707
1890758,Djeldvej,7830,39,8.85845,56.436135
1890760,Djeldvej,7830,40,8.857638,56.436425
1890762,Djeldvej,7830,41,8.857847,56.436142
1890763,Djeldvej,7830,42,8.857536,56.436193
1890765,Djeldvej,7830,43,8.857751,56.435868
1890766,Djeldvej,7830,44,8.857429,56.435869
1890769,Djeldvej,7830,45,8.857629,56.43555
1890770,Djeldvej,7830,46,8.856455,56.43583
1890772,Djeldvej,7830,47,8.857547,56.435244
1890773,Djeldvej,7830,48,8.856886,56.435781
1890774,Djeldvej,7830,49,8.857538,56.435104
1890775,Djeldvej,7830,50,8.857363,56.435651
1890776,Djeldvej,7830,52,8.85721,56.435231
1890777,Djeldvej,7830,53,8.857439,56.434568
1890778,Djeldvej,7830,54,8.856978,56.434949
1890779,Djeldvej,7830,55,8.861077,56.433797
1890780,Djeldvej,7830,56,8.849393,56.43372
1890781,Djeldvej,7830,57,8.860419,56.431885
1890782,Djeldvej,7830,58,8.854966,56.433238
1890783,Djeldvej,7830,59,8.856179,56.433522
1890784,Djeldvej,7830,60,8.850421,56.429864
1890785,Djeldvej,7830,61,8.855474,56.432995
1890786,Djeldvej,7830,62,8.847503,56.430379
1890787,Djeldvej,7830,63,8.854247,56.431876
1890788,Djeldvej,7830,65,8.863513,56.429924
1890789,Djeldvej,7830,67,8.857248,56.430691
1890790,Djeldvej,7830,69,8.849551,56.427374
1894846,Søvejen,7830,1,8.916344,56.407726
1894848,Søvejen,7830,2,8.916915,56.408085
1894849,Søvejen,7830,3,8.916513,56.408056
1894851,Søvejen,7830,4,8.916995,56.408266
1894853,Søvejen,7830,5,8.916612,56.408469
1894856,Søvejen,7830,6,8.917178,56.408485
1894857,Søvejen,7830,7,8.916831,56.408769
1894859,Søvejen,7830,8,8.917242,56.408816
1894862,Søvejen,7830,9,8.917292,56.409246
1894863,Søvejen,7830,10,8.917578,56.408934
1894865,Søvejen,7830,11,8.917737,56.409409
1894866,Søvejen,7830,12,8.918446,56.409379
1894869,Søvejen,7830,13,8.918128,56.409566
1894871,Søvejen,7830,14,8.920252,56.409841
1894873,Søvejen,7830,15,8.919541,56.410134
1894874,Søvejen,7830,16,8.920528,56.409802
1894875,Søvejen,7830,17,8.9201,56.410165
1894876,Søvejen,7830,18,8.920768,56.409896
1894877,Søvejen,7830,19,8.920778,56.410114
1894878,Søvejen,7830,20,8.921042,56.409892
1894879,Søvejen,7830,21,8.921591,56.410229
1894880,Søvejen,7830,22,8.921658,56.409916
1894881,Søvejen,7830,23,8.920768,56.410423
1894882,Søvejen,7830,24,8.923386,56.410289
1894883,Søvejen,7830,25,8.920129,56.41068
1894884,Søvejen,7830,27,8.920457,56.411067
1894885,Søvejen,7830,27B,8.920329,56.412243
1894886,Søvejen,7830,29,8.92108,56.41075
1894887,Søvejen,7830,31,8.922456,56.410531
1895524,Tophøjvej,7830,1A,8.916809,56.407682
1895525,Tophøjvej,7830,1B,8.917081,56.407688
1895526,Tophøjvej,7830,2,8.916551,56.407387
1895527,Tophøjvej,7830,3,8.917416,56.407556
1895528,Tophøjvej,7830,4,8.91683,56.407324
1895529,Tophøjvej,7830,5,8.917762,56.407467
1895530,Tophøjvej,7830,6,8.917087,56.407212
1895531,Tophøjvej,7830,7,8.918899,56.407214
1895532,Tophøjvej,7830,8,8.917313,56.407209
1895533,Tophøjvej,7830,9,8.921111,56.406156
1895534,Tophøjvej,7830,10,8.917624,56.407178
1895535,Tophøjvej,7830,11,8.923417,56.40498
1895536,Tophøjvej,7830,12,8.91789,56.407022
1895537,Tophøjvej,7830,13,8.931802,56.40625
1895538,Tophøjvej,7830,14,8.91824,56.406887
1895539,Tophøjvej,7830,16,8.918551,56.406749
1895540,Tophøjvej,7830,18,8.918988,56.406549
1895541,Tophøjvej,7830,22,8.919466,56.406312
1895542,Tophøjvej,7830,24,8.919719,56.406241
1895543,Tophøjvej,7830,26,8.919488,56.404039
1895544,Tophøjvej,7830,26A,8.922225,56.404913
1895545,Tophøjvej,7830,28,8.923666,56.403113
1895691,Skolegade,7830,1,8.914591,56.404287
1895692,Skolegade,7830,2,8.916079,56.407746
1895693,Skolegade,7830,3,8.916013,56.406768
1895695,Skolegade,7830,3A,8.915844,56.406892
1895696,Skolegade,7830,4,8.915751,56.407803
1895699,Skolegade,7830,5,8.9162,56.407528
1895700,Skolegade,7830,6,8.915503,56.407852
1895701,Skolegade,7830,7,8.915925,56.407581
1895703,Skolegade,7830,8,8.915278,56.407896
1895705,Skolegade,7830,9,8.915572,56.407653
1895706,Skolegade,7830,10,8.914916,56.407958
1895708,Skolegade,7830,11,8.915276,56.407716
1895709,Skolegade,7830,12,8.914579,56.408016
1895710,Skolegade,7830,13,8.914985,56.407767
1895713,Skolegade,7830,14,8.913762,56.408149
1895714,Skolegade,7830,15,8.914524,56.40786
1895716,Skolegade,7830,16,8.913053,56.408343
1895717,Skolegade,7830,17A,8.914385,56.40749
1895719,Skolegade,7830,19,8.913767,56.407904
1895720,Skolegade,7830,21,8.912886,56.40797
1895721,Skolegade,7830,23,8.912811,56.407652
1895723,Skolegade,7830,25,8.911467,56.407908
1896027,Kirkevænget,7830,1,8.918079,56.407373
1896028,Kirkevænget,7830,2,8.918822,56.40788
1896029,Kirkevænget,7830,3,8.918205,56.407669
1896030,Kirkevænget,7830,4,8.918928,56.408142
1896031,Kirkevænget,7830,5,8.917703,56.407766
1896032,Kirkevænget,7830,6,8.919067,56.408342
1896033,Kirkevænget,7830,7,8.917482,56.408034
1896034,Kirkevænget,7830,8,8.919074,56.408537
1896035,Kirkevænget,7830,9,8.917846,56.407996
1896041,Kirkevænget,7830,10,8.919375,56.408854
1896046,Kirkevænget,7830,11,8.918339,56.407961
1896048,Kirkevænget,7830,12,8.919307,56.409098
1896053,Kirkevænget,7830,13,8.918464,56.408202
1896054,Kirkevænget,7830,14,8.919376,56.40923
1896059,Kirkevænget,7830,15,8.918579,56.408399
1896062,Kirkevænget,7830,17,8.918681,56.408585
1896065,Kirkevænget,7830,18,8.919609,56.409696
1896069,Kirkevænget,7830,19,8.918771,56.408757
1896074,Kirkevænget,7830,21,8.918855,56.408977
1896075,Kirkevænget,7830,23,8.91898,56.409266
1896077,Kirkevænget,7830,25,8.919222,56.409514
1896078,Kirkevænget,7830,27,8.91929,56.409648
1896861,Trevældvej,7830,1,8.928973,56.421185
1896869,Trevældvej,7830,2,8.930453,56.416767
1896873,Trevældvej,7830,3,8.933255,56.420087
1896877,Trevældvej,7830,4,8.951551,56.423315
1896883,Trevældvej,7830,5,8.931621,56.420917
1896890,Trevældvej,7830,7,8.939964,56.426323
1896903,Trevældvej,7830,11,8.929673,56.428726
1896913,Trevældvej,7830,13,8.941649,56.429388
1897098,Bjergbyvej,7830,1,8.945255,56.402009
1897101,Bjergbyvej,7830,3,8.944707,56.402316
1897102,Bjergbyvej,7830,4,8.945333,56.402285
1897104,Bjergbyvej,7830,5,8.944535,56.402498
1897109,Bjergbyvej,7830,6,8.945046,56.402468
1897112,Bjergbyvej,7830,7,8.944127,56.402624
1897114,Bjergbyvej,7830,8,8.944418,56.403154
1897118,Bjergbyvej,7830,9,8.943642,56.402842
1897121,Bjergbyvej,7830,10,8.937473,56.407356
1897125,Bjergbyvej,7830,11,8.943418,56.403124
1897128,Bjergbyvej,7830,12,8.938073,56.415362
1897131,Bjergbyvej,7830,13,8.941906,56.404082
1897133,Bjergbyvej,7830,14,8.936277,56.416003
1897135,Bjergbyvej,7830,15,8.93274,56.409585
1897137,Bjergbyvej,7830,16,8.917617,56.421006
1897139,Bjergbyvej,7830,17,8.923701,56.419219
1897141,Bjergbyvej,7830,18,8.916767,56.420976
1897143,Bjergbyvej,7830,18A,8.916598,56.420608
1897145,Bjergbyvej,7830,18C,8.91893,56.424383
1897147,Bjergbyvej,7830,19,8.922022,56.415195
1897148,Bjergbyvej,7830,20,8.907615,56.42544
1897149,Bjergbyvej,7830,21,8.899021,56.429029
1897150,Bjergbyvej,7830,22,8.912367,56.429173
1897151,Bjergbyvej,7830,24,8.901665,56.430604
1897153,Bjergbyvej,7830,24A,8.902554,56.430239
1897154,Bjergbyvej,7830,26,8.900154,56.431905
1897155,Bjergbyvej,7830,28,8.90733,56.434128
1897156,Bjergbyvej,7830,30,8.900253,56.432824
1897158,Bjergbyvej,7830,32,8.898145,56.433854
1899297,Bjørnkjærvej,7830,1,8.946178,56.40153
1899300,Bjørnkjærvej,7830,2,8.945608,56.401525
1899302,Bjørnkjærvej,7830,3,8.946448,56.40022
1899304,Bjørnkjærvej,7830,4,8.945668,56.399815
1899305,Bjørnkjærvej,7830,5,8.946869,56.399601
1899306,Bjørnkjærvej,7830,6,8.945852,56.3992
1899307,Bjørnkjærvej,7830,7,8.947331,56.397838
1899308,Bjørnkjærvej,7830,8,8.946347,56.397561
1899309,Bjørnkjærvej,7830,9,8.951603,56.394869
1899310,Bjørnkjærvej,7830,10,8.947029,56.394283
1899311,Bjørnkjærvej,7830,11,8.948271,56.391838
1899312,Bjørnkjærvej,7830,12,8.948155,56.384708
1899313,Bjørnkjærvej,7830,13,8.951692,56.387344
1899314,Bjørnkjærvej,7830,15,8.950593,56.384681
1899399,Vinkelvej,7830,1,8.918838,56.40625
1899403,Vinkelvej,7830,2,8.918327,56.4065
1899404,Vinkelvej,7830,3,8.918205,56.406242
1899407,Vinkelvej,7830,4,8.917917,56.406611
1899411,Vinkelvej,7830,5,8.917819,56.40633
1899412,Vinkelvej,7830,6,8.91764,56.406769
1899416,Vinkelvej,7830,7,8.917431,56.406473
1899419,Vinkelvej,7830,8,8.917216,56.406859
1899422,Vinkelvej,7830,8A,8.917226,56.406923
1899424,Vinkelvej,7830,8B,8.917099,56.406844
1899427,Vinkelvej,7830,9,8.917183,56.406252
1899428,Vinkelvej,7830,10,8.916808,56.406937
1899432,Vinkelvej,7830,11,8.916717,56.406252
1899434,Vinkelvej,7830,12,8.916425,56.407026
1899436,Vinkelvej,7830,13,8.91692,56.406567
1899438,Vinkelvej,7830,15,8.91644,56.40669
1899522,Lerskrænten,7830,2,8.745566,56.528198
1899523,Lerskrænten,7830,4,8.74533,56.528435
1899525,Lerskrænten,7830,6,8.745448,56.52865
1899528,Lerskrænten,7830,7,8.745676,56.527246
1899530,Lerskrænten,7830,8,8.745816,56.528802
1899532,Lerskrænten,7830,9,8.745584,56.526955
1899535,Lerskrænten,7830,10,8.746212,56.528742
1899536,Lerskrænten,7830,11,8.744933,56.52703
1899540,Lerskrænten,7830,12,8.745724,56.529064
1899543,Lerskrænten,7830,13,8.744827,56.527276
1899544,Lerskrænten,7830,14,8.74522,56.52917
1899545,Lerskrænten,7830,15,8.745065,56.527463
1899546,Lerskrænten,7830,16,8.744821,56.52891
1899547,Lerskrænten,7830,17,8.745132,56.527719
1899548,Lerskrænten,7830,18,8.744926,56.528719
1899549,Lerskrænten,7830,19,8.745171,56.527941
1899550,Lerskrænten,7830,20,8.744894,56.528484
1899552,Lerskrænten,7830,21,8.744475,56.528016
1899555,Lerskrænten,7830,22,8.744792,56.528286
1899557,Lerskrænten,7830,23,8.744552,56.527756
1899560,Lerskrænten,7830,24,8.743965,56.528334
1899561,Lerskrænten,7830,25,8.74421,56.527567
1899563,Lerskrænten,7830,26,8.744148,56.528561
1899566,Lerskrænten,7830,27,8.74411,56.527359
1899567,Lerskrænten,7830,28,8.744206,56.528762
1899569,Lerskrænten,7830,29,8.744088,56.527116
1899570,Lerskrænten,7830,30,8.744197,56.52901
1899573,Lerskrænten,7830,31,8.743573,56.527137
1899575,Lerskrænten,7830,32,8.744158,56.529272
1899576,Lerskrænten,7830,33,8.743703,56.527369
1899579,Lerskrænten,7830,34,8.743422,56.529344
1899580,Lerskrænten,7830,35,8.743678,56.527616
1899583,Lerskrænten,7830,36,8.743406,56.529092
1899585,Lerskrænten,7830,37,8.743866,56.527832
1899587,Lerskrænten,7830,38,8.743268,56.528869
1899588,Lerskrænten,7830,39,8.743921,56.528067
1899589,Lerskrænten,7830,40,8.743223,56.528664
1899590,Lerskrænten,7830,41,8.742867,56.528162
1899591,Lerskrænten,7830,42,8.74311,56.528431
1899592,Lerskrænten,7830,43,8.742863,56.527939
1899593,Lerskrænten,7830,44,8.742643,56.528471
1899594,Lerskrænten,7830,45,8.742759,56.527717
1899595,Lerskrænten,7830,46,8.742625,56.528716
1899596,Lerskrænten,7830,47,8.742732,56.527497
1899597,Lerskrænten,7830,48,8.742695,56.52894
1899598,Lerskrænten,7830,49,8.742771,56.527218
1899599,Lerskrænten,7830,50,8.742686,56.529165
1899600,Lerskrænten,7830,51,8.74212,56.527307
1899601,Lerskrænten,7830,52,8.742594,56.529421
1899602,Lerskrænten,7830,53,8.742014,56.527553
1899603,Lerskrænten,7830,54,8.741843,56.529493
1899604,Lerskrænten,7830,55,8.742071,56.527792
1899605,Lerskrænten,7830,56,8.741795,56.529271
1899606,Lerskrænten,7830,57,8.742287,56.527974
1899607,Lerskrænten,7830,58,8.741672,56.529038
1899608,Lerskrænten,7830,59,8.742398,56.52819
1899609,Lerskrænten,7830,60,8.74158,56.528817
1899611,Lerskrænten,7830,61,8.741721,56.528261
1899614,Lerskrænten,7830,62,8.741686,56.528608
1899616,Lerskrænten,7830,63,8.741451,56.528089
1899618,Lerskrænten,7830,64,8.741206,56.528708
1899620,Lerskrænten,7830,65,8.741293,56.527856
1899624,Lerskrænten,7830,67,8.741359,56.527601
1899626,Lerskrænten,7830,69,8.741244,56.527403
1899628,Lerskrænten,7830,71,8.740367,56.527464
1899630,Lerskrænten,7830,73,8.740286,56.527752
1899633,Lerskrænten,7830,75,8.740369,56.527974
1899635,Lerskrænten,7830,77,8.740619,56.528169
1899637,Lerskrænten,7830,79,8.740625,56.528403
1903664,Hækvej,7830,4,8.951539,56.409895
1903667,Hækvej,7830,7,8.948765,56.404568
1903793,Skråvej,7830,1,8.914086,56.408249
1903794,Skråvej,7830,3,8.91475,56.408436
1903882,Kokborgvej,7830,1,8.895222,56.427053
1903887,Kokborgvej,7830,2,8.888802,56.427246
1903891,Kokborgvej,7830,3,8.896104,56.425536
1903895,Kokborgvej,7830,4,8.892498,56.426792
1903897,Kokborgvej,7830,5,8.89703,56.420398
1903901,Kokborgvej,7830,6,8.89154,56.423515
1903904,Kokborgvej,7830,7,8.899486,56.419708
1903907,Kokborgvej,7830,8,8.89867,56.417615
1903910,Kokborgvej,7830,9,8.899771,56.417188
1903912,Kokborgvej,7830,9A,8.900355,56.417083
1903913,Kokborgvej,7830,10,8.896028,56.417031
1903914,Kokborgvej,7830,11,8.910051,56.414382
1903915,Kokborgvej,7830,12,8.895672,56.415454
1903916,Kokborgvej,7830,13,8.914573,56.414107
1903917,Kokborgvej,7830,14,8.898711,56.415526
1903918,Kokborgvej,7830,15,8.915115,56.413483
1903919,Kokborgvej,7830,16,8.906072,56.415125
1903920,Kokborgvej,7830,17,8.9132,56.412095
1904031,Bakkevej,7830,1,8.918577,56.409911
1904032,Bakkevej,7830,3,8.918133,56.409967
1904033,Bakkevej,7830,11,8.915837,56.410134
1904071,Virkelyst,7830,1,8.921687,56.405187
1904072,Virkelyst,7830,2,8.92089,56.405653
1904073,Virkelyst,7830,4,8.920336,56.405686
1904074,Virkelyst,7830,6,8.919895,56.405049
1904410,Herrupvej,7830,2,8.902394,56.404206
1904411,Herrupvej,7830,4,8.906821,56.405568
1904412,Herrupvej,7830,6,8.908212,56.40548
1904413,Herrupvej,7830,8,8.903988,56.401268
1904501,Vester Herrupvej,7830,2,8.908633,56.409111
1904502,Vester Herrupvej,7830,4,8.905931,56.410501
1904503,Vester Herrupvej,7830,5,8.899959,56.409376
1904504,Vester Herrupvej,7830,6,8.904397,56.409659
1904505,Vester Herrupvej,7830,7,8.898799,56.409485
1904506,Vester Herrupvej,7830,8,8.900987,56.410036
1904507,Vester Herrupvej,7830,9,8.896095,56.409192
1904508,Vester Herrupvej,7830,12,8.898898,56.409722
1904509,Vester Herrupvej,7830,14,8.89717,56.409733
1904510,Vester Herrupvej,7830,16,8.895927,56.409795
1904511,Vester Herrupvej,7830,18,8.892194,56.410588
1904553,Nautrupvej,7830,1,8.869586,56.452694
1904554,Nautrupvej,7830,2,8.869184,56.451917
1904555,Nautrupvej,7830,4,8.870425,56.452064
1904558,Nautrupvej,7830,6,8.870842,56.452017
1904560,Nautrupvej,7830,8,8.871367,56.45212
1904561,Nautrupvej,7830,10,8.871746,56.452141
1904563,Nautrupvej,7830,11,8.87205,56.452331
1904564,Nautrupvej,7830,13,8.872302,56.452298
1904565,Nautrupvej,7830,14,8.874339,56.449036
1904566,Nautrupvej,7830,15,8.872925,56.452275
1904567,Nautrupvej,7830,16,8.876838,56.448468
1904568,Nautrupvej,7830,18,8.876318,56.451355
1904569,Nautrupvej,7830,18A,8.882756,56.448308
1904570,Nautrupvej,7830,20,8.8843,56.444342
1904571,Nautrupvej,7830,22,8.885328,56.441061
1904572,Nautrupvej,7830,24,8.883143,56.439413
1904573,Nautrupvej,7830,26,8.885149,56.437621
1904574,Nautrupvej,7830,27,8.877692,56.45185
1904575,Nautrupvej,7830,28,8.889564,56.435359
1904576,Nautrupvej,7830,30,8.890529,56.433374
1904577,Nautrupvej,7830,31,8.878993,56.451758
1904578,Nautrupvej,7830,32,8.891066,56.432852
1904579,Nautrupvej,7830,35,8.89357,56.442789
1904580,Nautrupvej,7830,37,8.907257,56.4404
1904581,Nautrupvej,7830,39,8.903355,56.438169
1904582,Nautrupvej,7830,41,8.888534,56.439905
1904583,Nautrupvej,7830,43,8.894702,56.435499
1908195,Østparken,7830,1,8.79169,56.520281
1908196,Østparken,7830,2,8.791809,56.520633
1908197,Østparken,7830,3,8.791258,56.520292
1908198,Østparken,7830,4,8.791762,56.520861
1908199,Østparken,7830,5,8.790796,56.520258
1908200,Østparken,7830,6,8.791932,56.521153
1908201,Østparken,7830,7,8.790423,56.520386
1908202,Østparken,7830,8,8.791904,56.521384
1908203,Østparken,7830,9,8.789922,56.520425
1908204,Østparken,7830,10,8.79147,56.521373
1908205,Østparken,7830,11,8.789544,56.520457
1908206,Østparken,7830,12,8.791354,56.521193
1908207,Østparken,7830,13,8.789081,56.520496
1908208,Østparken,7830,14,8.791299,56.520934
1908209,Østparken,7830,15,8.792113,56.522509
1908210,Østparken,7830,16,8.791207,56.520683
1908211,Østparken,7830,17,8.792056,56.522265
1908212,Østparken,7830,18,8.790587,56.520699
1908213,Østparken,7830,19,8.79214,56.522032
1908214,Østparken,7830,20,8.790715,56.520985
1908215,Østparken,7830,21,8.792053,56.521757
1908216,Østparken,7830,22,8.790861,56.521232
1908217,Østparken,7830,23,8.791583,56.521797
1908218,Østparken,7830,24,8.790746,56.521476
1908219,Østparken,7830,25,8.791644,56.522024
1908220,Østparken,7830,26,8.790446,56.5215
1908221,Østparken,7830,27,8.791724,56.522323
1908222,Østparken,7830,28,8.790285,56.521287
1908223,Østparken,7830,29,8.791805,56.522549
1908224,Østparken,7830,30,8.790224,56.521026
1908225,Østparken,7830,31,8.791084,56.522671
1908226,Østparken,7830,32,8.790112,56.520769
1908227,Østparken,7830,33,8.791012,56.522409
1908228,Østparken,7830,34,8.789473,56.52079
1908229,Østparken,7830,35,8.79094,56.522102
1908230,Østparken,7830,36,8.78954,56.521033
1908231,Østparken,7830,37,8.790879,56.521895
1908232,Østparken,7830,38,8.789762,56.521317
1908233,Østparken,7830,39A,8.790426,56.521838
1908234,Østparken,7830,39B,8.790493,56.521931
1908235,Østparken,7830,40,8.789683,56.521581
1908236,Østparken,7830,41A,8.790537,56.522088
1908237,Østparken,7830,41B,8.790521,56.522187
1908238,Østparken,7830,42,8.789274,56.52156
1908239,Østparken,7830,43A,8.790561,56.522336
1908240,Østparken,7830,43B,8.790626,56.522429
1908241,Østparken,7830,44,8.7892,56.521318
1908242,Østparken,7830,45A,8.790674,56.522587
1908243,Østparken,7830,45B,8.790659,56.522684
1908244,Østparken,7830,46,8.789117,56.521073
1908245,Østparken,7830,47,8.790173,56.522762
1908246,Østparken,7830,48,8.789068,56.520812
1908247,Østparken,7830,49,8.790025,56.522434
1908248,Østparken,7830,50,8.79303,56.521268
1908249,Østparken,7830,51,8.789864,56.52223
1908250,Østparken,7830,53,8.789865,56.521935
1908251,Østparken,7830,55,8.789399,56.521968
1908252,Østparken,7830,57,8.789442,56.522197
1908253,Østparken,7830,57A,8.789303,56.522208
1908254,Østparken,7830,57B,8.789287,56.522315
1908255,Østparken,7830,59,8.789538,56.522552
1908256,Østparken,7830,59A,8.789316,56.522413
1908257,Østparken,7830,59B,8.789399,56.522563
1908258,Østparken,7830,61,8.789602,56.522745
1924857,Geddalvej,7830,1,8.782562,56.522041
1924858,Geddalvej,7830,1A,8.782575,56.522156
1924860,Geddalvej,7830,2,8.783135,56.522162
1924862,Geddalvej,7830,2A,8.783111,56.52248
1924864,Geddalvej,7830,3,8.782417,56.522226
1924866,Geddalvej,7830,4,8.78283,56.522235
1924869,Geddalvej,7830,5,8.782307,56.522255
1924870,Geddalvej,7830,6,8.782604,56.522303
1924873,Geddalvej,7830,7,8.781909,56.521922
1924876,Geddalvej,7830,8,8.782358,56.522399
1924878,Geddalvej,7830,9,8.781765,56.521773
1924880,Geddalvej,7830,10,8.782121,56.522487
1924883,Geddalvej,7830,11,8.781486,56.521725
1924885,Geddalvej,7830,14,8.78176,56.522696
1924887,Geddalvej,7830,15,8.781767,56.522017
1924889,Geddalvej,7830,16,8.781551,56.522853
1924891,Geddalvej,7830,17,8.781996,56.522324
1924894,Geddalvej,7830,18,8.78135,56.522965
1924895,Geddalvej,7830,19,8.781536,56.522302
1924898,Geddalvej,7830,21,8.781342,56.522684
1924900,Geddalvej,7830,22,8.781449,56.523378
1924902,Geddalvej,7830,23,8.780804,56.522497
1924904,Geddalvej,7830,24,8.780655,56.523399
1924906,Geddalvej,7830,25,8.781146,56.522844
1924909,Geddalvej,7830,27,8.780962,56.522977
1924911,Geddalvej,7830,29,8.780669,56.523106
1924913,Geddalvej,7830,33,8.779855,56.523272
1924915,Geddalvej,7830,36,8.778089,56.52412
1924917,Geddalvej,7830,38,8.778908,56.526432
1924920,Geddalvej,7830,40,8.782933,56.528328
1924921,Geddalvej,7830,41,8.778199,56.523822
1924923,Geddalvej,7830,42,8.773318,56.53293
1924925,Geddalvej,7830,43,8.777743,56.52392
1924928,Geddalvej,7830,44,8.772896,56.535158
1924930,Geddalvej,7830,45,8.777166,56.523996
1924932,Geddalvej,7830,46,8.771988,56.535846
1924935,Geddalvej,7830,47,8.776841,56.524078
1924936,Geddalvej,7830,47A,8.77644,56.523748
1924939,Geddalvej,7830,48,8.766782,56.537721
1924942,Geddalvej,7830,49,8.773602,56.524631
1924943,Geddalvej,7830,50,8.764039,56.538309
1924945,Geddalvej,7830,51,8.771836,56.524871
1924946,Geddalvej,7830,52,8.763044,56.538409
1924950,Geddalvej,7830,52A,8.762908,56.538442
1924955,Geddalvej,7830,53,8.774581,56.528614
1924956,Geddalvej,7830,54,8.761181,56.538766
1924961,Geddalvej,7830,55,8.773098,56.530672
1924964,Geddalvej,7830,56,8.764702,56.540467
1924967,Geddalvej,7830,58,8.760402,56.542393
1924971,Geddalvej,7830,59,8.759954,56.539539
1924974,Geddalvej,7830,60,8.761269,56.542802
1924977,Geddalvej,7830,61,8.759618,56.539773
1924982,Geddalvej,7830,63,8.758476,56.540599
1924986,Geddalvej,7830,65,8.759091,56.541008
1924988,Geddalvej,7830,67,8.761511,56.543046
1924990,Geddalvej,7830,69,8.766065,56.544138
1924992,Geddalvej,7830,71,8.766947,56.544329
1924994,Geddalvej,7830,73,8.765358,56.543769
1924995,Geddalvej,7830,75,8.767755,56.543874
1924996,Geddalvej,7830,77,8.768406,56.544133
1939621,Egebjergvej,7830,1,8.813226,56.53498
1939625,Egebjergvej,7830,1A,8.816679,56.534057
1939626,Egebjergvej,7830,1B,8.81769,56.534094
1939628,Egebjergvej,7830,1C,8.817658,56.534071
1939630,Egebjergvej,7830,2,8.822847,56.5341
1939633,Egebjergvej,7830,3,8.809821,56.535994
1939635,Egebjergvej,7830,4,8.821367,56.533848
1939637,Egebjergvej,7830,5,8.807763,56.536993
1939641,Egebjergvej,7830,6,8.818947,56.534865
1939645,Egebjergvej,7830,7,8.807292,56.537178
1939646,Egebjergvej,7830,8,8.815799,56.535084
1939651,Egebjergvej,7830,9,8.806662,56.537295
1939654,Egebjergvej,7830,10,8.815589,56.535358
1939656,Egebjergvej,7830,11,8.806348,56.537533
1939660,Egebjergvej,7830,12,8.8136,56.535671
1939664,Egebjergvej,7830,13,8.803196,56.538529
1939666,Egebjergvej,7830,14,8.813317,56.535702
1939668,Egebjergvej,7830,15,8.800746,56.538664
1939671,Egebjergvej,7830,16,8.811197,56.539319
1939672,Egebjergvej,7830,18,8.811211,56.537458
1939675,Egebjergvej,7830,19,8.799306,56.540036
1939676,Egebjergvej,7830,20,8.808524,56.536917
1939680,Egebjergvej,7830,21,8.798402,56.539987
1939682,Egebjergvej,7830,22,8.808263,56.537013
1939684,Egebjergvej,7830,23,8.789029,56.538274
1939686,Egebjergvej,7830,24,8.807688,56.537243
1939688,Egebjergvej,7830,25,8.790158,56.539802
1939690,Egebjergvej,7830,26,8.807791,56.538129
1939691,Egebjergvej,7830,27,8.785227,56.539912
1939692,Egebjergvej,7830,28,8.808195,56.538612
1939694,Egebjergvej,7830,29,8.781703,56.539859
1939695,Egebjergvej,7830,30,8.808312,56.538866
1939697,Egebjergvej,7830,31,8.774862,56.542345
1939698,Egebjergvej,7830,33,8.774035,56.542569
1939700,Egebjergvej,7830,34,8.807073,56.537569
1939701,Egebjergvej,7830,35,8.773166,56.542861
1939703,Egebjergvej,7830,36,8.806337,56.53845
1939705,Egebjergvej,7830,37,8.771794,56.543114
1939706,Egebjergvej,7830,38,8.804778,56.538549
1939708,Egebjergvej,7830,40,8.804219,56.538711
1939709,Egebjergvej,7830,42,8.803495,56.538978
1939710,Egebjergvej,7830,44,8.803181,56.539061
1939712,Egebjergvej,7830,46,8.802751,56.539619
1939713,Egebjergvej,7830,48,8.804734,56.543889
1939715,Egebjergvej,7830,50,8.802642,56.544485
1939718,Egebjergvej,7830,52,8.802555,56.543157
1939719,Egebjergvej,7830,52B,8.800836,56.539902
1939724,Egebjergvej,7830,54,8.798089,56.540391
1939725,Egebjergvej,7830,56,8.786056,56.542349
1939728,Egebjergvej,7830,58,8.783369,56.542782
1939731,Egebjergvej,7830,60,8.781304,56.542585
1939732,Egebjergvej,7830,62,8.784085,56.542525
1939735,Egebjergvej,7830,64,8.779253,56.542607
1939739,Egebjergvej,7830,66,8.775073,56.543143
1939741,Egebjergvej,7830,68,8.773402,56.543391
1990685,Hulvej,7830,2,8.744062,56.523882
1990687,Hulvej,7830,3,8.744703,56.523135
1990689,Hulvej,7830,4,8.744246,56.524109
1990691,Hulvej,7830,5,8.744741,56.522943
1990693,Hulvej,7830,6,8.744459,56.524298
1990695,Hulvej,7830,7,8.744175,56.522871
1990697,Hulvej,7830,8,8.743685,56.524372
1990700,Hulvej,7830,9,8.744058,56.523123
1990702,Hulvej,7830,10,8.7436,56.524146
1990703,Hulvej,7830,11,8.744006,56.523332
1990704,Hulvej,7830,12,8.743503,56.523907
1990705,Hulvej,7830,13,8.743936,56.523532
1990706,Hulvej,7830,14,8.742753,56.523991
1990707,Hulvej,7830,15,8.743221,56.523641
1990708,Hulvej,7830,16,8.74261,56.524216
1990709,Hulvej,7830,17,8.74323,56.523413
1990710,Hulvej,7830,18,8.743004,56.524425
1990711,Hulvej,7830,19,8.743214,56.523157
1990712,Hulvej,7830,20,8.74215,56.524491
1990713,Hulvej,7830,21,8.743223,56.52292
1990714,Hulvej,7830,22,8.742087,56.524316
1990715,Hulvej,7830,23,8.742424,56.523011
1990716,Hulvej,7830,24,8.742054,56.524086
1990717,Hulvej,7830,25,8.742615,56.523315
1990718,Hulvej,7830,26,8.741076,56.524134
1990719,Hulvej,7830,27,8.742557,56.523528
1990720,Hulvej,7830,28,8.741196,56.524389
1990721,Hulvej,7830,29,8.74228,56.523741
1990726,Hulvej,7830,30,8.74134,56.524612
1990729,Hulvej,7830,31,8.741681,56.52372
1990734,Hulvej,7830,32,8.740799,56.524661
1990737,Hulvej,7830,33,8.741552,56.523506
1990740,Hulvej,7830,34,8.740606,56.524453
1990742,Hulvej,7830,35,8.741643,56.523324
1990744,Hulvej,7830,36,8.740629,56.524223
1990746,Hulvej,7830,37,8.741769,56.523089
1990748,Hulvej,7830,39,8.741095,56.523602
1990749,Hulvej,7830,41,8.74108,56.523826
2006331,Vesterled,7830,2,8.869332,56.457227
2006333,Vesterled,7830,3,8.868607,56.457167
2006335,Vesterled,7830,4,8.869078,56.457259
2006336,Vesterled,7830,5,8.868416,56.457197
2006339,Vesterled,7830,6,8.868798,56.457304
2006340,Vesterled,7830,7,8.868163,56.457234
2006343,Vesterled,7830,8,8.868538,56.457346
2006347,Vesterled,7830,9,8.867963,56.457266
2006348,Vesterled,7830,10A,8.868356,56.457375
2006352,Vesterled,7830,12,8.867986,56.457462
2006355,Vesterled,7830,14,8.86772,56.45751
2006357,Vesterled,7830,15,8.867351,56.456995
2006360,Vesterled,7830,16,8.867232,56.45756
2006364,Vesterled,7830,17,8.866581,56.457372
2006367,Vesterled,7830,18,8.866971,56.457601
2006373,Vesterled,7830,19,8.8663,56.457465
2006376,Vesterled,7830,20,8.867196,56.45786
2006387,Vesterled,7830,21,8.866071,56.457507
2006393,Vesterled,7830,22,8.866923,56.458523
2006397,Vesterled,7830,23,8.865815,56.457551
2006401,Vesterled,7830,25,8.865483,56.45761
2006408,Vesterled,7830,27,8.864973,56.457696
2006410,Vesterled,7830,28,8.866677,56.457651
2006414,Vesterled,7830,29,8.861365,56.4585
2006416,Vesterled,7830,30,8.866446,56.457691
2006417,Vesterled,7830,32,8.866013,56.457727
2006418,Vesterled,7830,34,8.865643,56.457813
2006419,Vesterled,7830,36,8.8653,56.457859
2006420,Vesterled,7830,38,8.865101,56.458005
2006421,Vesterled,7830,38A,8.866047,56.458637
2006422,Vesterled,7830,40,8.863535,56.458333
2006423,Vesterled,7830,42,8.860782,56.459551
2006424,Vesterled,7830,44,8.860355,56.459743
2006425,Vesterled,7830,46,8.859863,56.459956
2006426,Vesterled,7830,48,8.857325,56.460766
2011926,Skrænten,7830,1,8.870434,56.45512
2011930,Skrænten,7830,2,8.870666,56.455348
2011932,Skrænten,7830,3,8.870058,56.455122
2011935,Skrænten,7830,4,8.8702,56.455444
2011938,Skrænten,7830,5,8.869613,56.455123
2011940,Skrænten,7830,6,8.869781,56.455448
2011944,Skrænten,7830,7,8.869169,56.455162
2011945,Skrænten,7830,8,8.869371,56.455389
2011948,Skrænten,7830,9,8.871173,56.45489
2011952,Skrænten,7830,10,8.871757,56.454809
2011953,Skrænten,7830,11,8.87124,56.455095
2011954,Skrænten,7830,12,8.871795,56.455019
2011956,Skrænten,7830,13,8.871287,56.455329
2011961,Skrænten,7830,14,8.871941,56.455216
2011962,Skrænten,7830,15,8.871492,56.455532
2011965,Skrænten,7830,16,8.872032,56.4554
2011969,Skrænten,7830,17,8.872829,56.454693
2011970,Skrænten,7830,18,8.873265,56.454591
2011973,Skrænten,7830,19,8.872359,56.454777
2011975,Skrænten,7830,20,8.873474,56.454837
2011976,Skrænten,7830,21,8.872727,56.454952
2011981,Skrænten,7830,22,8.873562,56.455069
2011982,Skrænten,7830,23,8.872772,56.455152
2011984,Skrænten,7830,24,8.873399,56.455225
2011986,Skrænten,7830,25,8.872675,56.455453
2011987,Skrænten,7830,26,8.874724,56.454248
2011991,Skrænten,7830,27,8.873848,56.45439
2011993,Skrænten,7830,28,8.874834,56.454424
2011994,Skrænten,7830,29,8.874075,56.454581
2011997,Skrænten,7830,30,8.874997,56.454615
2011998,Skrænten,7830,31,8.874048,56.454798
2012000,Skrænten,7830,32,8.875121,56.454885
2012001,Skrænten,7830,33,8.874155,56.455006
2012002,Skrænten,7830,34,8.875174,56.455152
2012005,Skrænten,7830,35,8.874301,56.455215
2012014,Skrænten,7830,44,8.8760677,56.4537413
2012017,Skrænten,7830,46,8.8768659,56.4536065
2012019,Skrænten,7830,47,8.8767711,56.4539304
2012020,Skrænten,7830,48,8.8773917,56.4542179
2012022,Skrænten,7830,49,8.8776457,56.454507
2012024,Skrænten,7830,50,8.8781595,56.453759
2012027,Skrænten,7830,51,8.8781073,56.4543004
2012029,Skrænten,7830,53,8.8785077,56.4541231
2012034,Skrænten,7830,55,8.8788955,56.4539455
2018659,Ålvej,7830,1,8.836597,56.484567
2018660,Ålvej,7830,1A,8.837059,56.484359
2018661,Ålvej,7830,1B,8.836412,56.484026
2018662,Ålvej,7830,2,8.825944,56.486942
2018663,Ålvej,7830,3,8.835879,56.48467
2018664,Ålvej,7830,4,8.821826,56.490742
2018666,Ålvej,7830,5,8.833319,56.484971
2018667,Ålvej,7830,5A,8.833749,56.484875
2018670,Ålvej,7830,6,8.817834,56.491332
2018671,Ålvej,7830,7,8.833005,56.484552
2018672,Ålvej,7830,8,8.817536,56.492333
2018673,Ålvej,7830,9,8.83219,56.484878
2018674,Ålvej,7830,10,8.821796,56.492469
2018675,Ålvej,7830,11,8.828655,56.482514
2018676,Ålvej,7830,13,8.829779,56.48515
2018679,Ålvej,7830,14,8.81742,56.492769
2018680,Ålvej,7830,15,8.818399,56.489211
2018683,Ålvej,7830,16,8.827073,56.497099
2018686,Ålvej,7830,17,8.817672,56.490386
2018688,Ålvej,7830,18,8.829458,56.497097
2018690,Ålvej,7830,19,8.814865,56.491511
2018691,Ålvej,7830,20,8.828216,56.498345
2018692,Ålvej,7830,21,8.814277,56.491173
2018693,Ålvej,7830,21A,8.810093,56.490167
2018694,Ålvej,7830,22,8.816041,56.495122
2018695,Ålvej,7830,23,8.810651,56.494052
2018696,Ålvej,7830,24,8.808625,56.495372
2018697,Ålvej,7830,25,8.808709,56.491444
2018698,Ålvej,7830,26,8.795621,56.496909
2018699,Ålvej,7830,27,8.810658,56.492511
2018700,Ålvej,7830,29,8.808453,56.494931
2018701,Ålvej,7830,31,8.80276,56.495078
2018702,Ålvej,7830,33,8.792679,56.495935
2019648,Vinderupvej,7830,1,8.784051,56.521893
2019651,Vinderupvej,7830,2,8.783824,56.521772
2019653,Vinderupvej,7830,3,8.784488,56.521767
2019655,Vinderupvej,7830,4,8.784236,56.521635
2019659,Vinderupvej,7830,5,8.784665,56.521714
2019660,Vinderupvej,7830,6,8.784939,56.521439
2019663,Vinderupvej,7830,7,8.784933,56.521601
2019664,Vinderupvej,7830,8,8.785388,56.521329
2019665,Vinderupvej,7830,10,8.785748,56.521277
2019667,Vinderupvej,7830,11A,8.785703,56.521524
2019671,Vinderupvej,7830,11B,8.785751,56.521578
2019678,Vinderupvej,7830,11C,8.785799,56.521632
2019680,Vinderupvej,7830,12,8.786196,56.52111
2019687,Vinderupvej,7830,13,8.785984,56.521739
2019691,Vinderupvej,7830,14,8.786553,56.520965
2019693,Vinderupvej,7830,15,8.786114,56.521704
2019698,Vinderupvej,7830,16,8.786901,56.520826
2019707,Vinderupvej,7830,17,8.786243,56.521668
2019711,Vinderupvej,7830,18,8.787244,56.520687
2019713,Vinderupvej,7830,19,8.786373,56.521633
2019716,Vinderupvej,7830,20,8.787837,56.520085
2019718,Vinderupvej,7830,22,8.789355,56.518055
2019722,Vinderupvej,7830,24,8.790192,56.517901
2019725,Vinderupvej,7830,25,8.786926,56.52149
2019730,Vinderupvej,7830,26,8.791025,56.517764
2019733,Vinderupvej,7830,27,8.789782,56.520112
2019737,Vinderupvej,7830,28,8.793123,56.517506
2019738,Vinderupvej,7830,29,8.790653,56.519831
2019739,Vinderupvej,7830,30,8.793729,56.516503
2019740,Vinderupvej,7830,32,8.796361,56.51285
2032904,Vester Egebjergvej,7830,1,8.791497,56.528288
2032906,Vester Egebjergvej,7830,2,8.7935,56.529881
2032908,Vester Egebjergvej,7830,3,8.791218,56.530717
2032910,Vester Egebjergvej,7830,4,8.792019,56.532568
2032912,Vester Egebjergvej,7830,5,8.790388,56.530934
2032913,Vester Egebjergvej,7830,6,8.797067,56.533724
2032914,Vester Egebjergvej,7830,6A,8.79835,56.539243
2032916,Vester Egebjergvej,7830,7,8.784886,56.530635
2032918,Vester Egebjergvej,7830,8,8.79844,56.539562
2032919,Vester Egebjergvej,7830,9,8.785851,56.532291
2032921,Vester Egebjergvej,7830,10A,8.798861,56.539477
2032923,Vester Egebjergvej,7830,10B,8.799052,56.539445
2032924,Vester Egebjergvej,7830,11,8.784223,56.533591
2032925,Vester Egebjergvej,7830,12,8.799479,56.539318
2032926,Vester Egebjergvej,7830,14,8.799643,56.538859
2032928,Vester Egebjergvej,7830,15,8.788077,56.531264
2032930,Vester Egebjergvej,7830,16,8.797244,56.542213
2032931,Vester Egebjergvej,7830,17,8.791772,56.53293
2032932,Vester Egebjergvej,7830,18,8.800071,56.54806
2032934,Vester Egebjergvej,7830,19,8.787391,56.532029
2032935,Vester Egebjergvej,7830,21,8.788516,56.533555
2032936,Vester Egebjergvej,7830,23,8.792294,56.534611
2032938,Vester Egebjergvej,7830,25,8.793019,56.535557
2032940,Vester Egebjergvej,7830,27,8.781472,56.535977
2032941,Vester Egebjergvej,7830,29,8.779134,56.534892
2032943,Vester Egebjergvej,7830,31,8.777577,56.535101
2032945,Vester Egebjergvej,7830,33,8.778237,56.53653
2032946,Vester Egebjergvej,7830,35,8.79765,56.538951
2032948,Vester Egebjergvej,7830,37,8.797997,56.539826
2032949,Vester Egebjergvej,7830,39,8.796982,56.540708
2032951,Vester Egebjergvej,7830,41,8.794908,56.542266
2033027,Søgårdvej,7830,1,8.869557,56.457214
2033029,Søgårdvej,7830,2,8.870556,56.457368
2033031,Søgårdvej,7830,3,8.870253,56.457384
2033033,Søgårdvej,7830,4,8.870954,56.457591
2033035,Søgårdvej,7830,5,8.870526,56.457611
2033037,Søgårdvej,7830,5A,8.870243,56.457645
2033038,Søgårdvej,7830,11,8.872149,56.459317
2033040,Søgårdvej,7830,11A,8.871932,56.459423
2033043,Søgårdvej,7830,11B,8.872722,56.459302
2033044,Søgårdvej,7830,13,8.878418,56.462839
2033046,Søgårdvej,7830,15,8.880207,56.461253
2033049,Søgårdvej,7830,16,8.872644,56.458541
2033050,Søgårdvej,7830,17,8.881086,56.464428
2033051,Søgårdvej,7830,18,8.873148,56.458827
2033054,Søgårdvej,7830,19,8.88417,56.462857
2033055,Søgårdvej,7830,20,8.873598,56.458737
2033058,Søgårdvej,7830,21,8.884588,56.463598
2033059,Søgårdvej,7830,23,8.888847,56.464554
2033060,Søgårdvej,7830,25,8.889246,56.464408
2033061,Søgårdvej,7830,26,8.876825,56.459104
2033062,Søgårdvej,7830,27,8.891927,56.465297
2033063,Søgårdvej,7830,28,8.87895,56.459867
2033064,Søgårdvej,7830,29,8.891494,56.465983
2033065,Søgårdvej,7830,30A,8.88732,56.462717
2033066,Søgårdvej,7830,30B,8.887099,56.462477
2033067,Søgårdvej,7830,32,8.893129,56.464761
2033068,Søgårdvej,7830,33,8.893389,56.465704
2033069,Søgårdvej,7830,34A,8.897069,56.453576
2033070,Søgårdvej,7830,34B,8.898517,56.454486
2033071,Søgårdvej,7830,35,8.898091,56.466368
2033072,Søgårdvej,7830,36,8.894518,56.464963
2033073,Søgårdvej,7830,38,8.897582,56.465295
2033953,Kirkebakken,7830,2,8.873936,56.457308
2033954,Kirkebakken,7830,4,8.874087,56.457537
2033955,Kirkebakken,7830,6,8.874141,56.457742
2033956,Kirkebakken,7830,7,8.873646,56.457845
2033957,Kirkebakken,7830,8,8.874231,56.457929
2033958,Kirkebakken,7830,9,8.873841,56.457985
2033959,Kirkebakken,7830,10,8.874334,56.458104
2033960,Kirkebakken,7830,11,8.873925,56.458186
2033961,Kirkebakken,7830,12,8.874457,56.458345
2033962,Kirkebakken,7830,13,8.874069,56.458442
2033963,Kirkebakken,7830,14,8.874558,56.458538
2033964,Kirkebakken,7830,15,8.87415,56.458604
2033965,Kirkebakken,7830,16,8.875122,56.458605
2033966,Kirkebakken,7830,17,8.874279,56.458809
2033967,Kirkebakken,7830,19,8.874645,56.458838
2033968,Kirkebakken,7830,20,8.875026,56.458005
2033969,Kirkebakken,7830,21,8.875076,56.458878
2033970,Kirkebakken,7830,22,8.874968,56.457733
2033971,Kirkebakken,7830,23,8.875823,56.458943
2033972,Kirkebakken,7830,24,8.874909,56.457521
2033973,Kirkebakken,7830,25,8.875662,56.458772
2033974,Kirkebakken,7830,26,8.874837,56.457369
2033975,Kirkebakken,7830,26A,8.874627,56.45731
2033976,Kirkebakken,7830,26B,8.874779,56.457266
2033977,Kirkebakken,7830,27,8.875632,56.458384
2033978,Kirkebakken,7830,29A,8.875593,56.458226
2033979,Kirkebakken,7830,29B,8.875564,56.458068
2033980,Kirkebakken,7830,31A,8.875486,56.45792
2033981,Kirkebakken,7830,31B,8.87546,56.45783
2033982,Kirkebakken,7830,33,8.875355,56.457651
2033983,Kirkebakken,7830,35,8.875295,56.457362
2033984,Kirkebakken,7830,37,8.875201,56.45711
2034586,Ejsingholmvej,7830,1,8.767128,56.518471
2034589,Ejsingholmvej,7830,2,8.763171,56.521003
2034594,Ejsingholmvej,7830,3,8.763148,56.51817
2034596,Ejsingholmvej,7830,4,8.763135,56.518706
2034599,Ejsingholmvej,7830,5,8.75254,56.517947
2034600,Ejsingholmvej,7830,6,8.760284,56.522568
2034603,Ejsingholmvej,7830,7,8.749492,56.518725
2034604,Ejsingholmvej,7830,8,8.7555,56.521672
2034606,Ejsingholmvej,7830,10,8.745889,56.523366
2034609,Ejsingholmvej,7830,12,8.745749,56.524028
2034610,Ejsingholmvej,7830,13,8.747632,56.518593
2034613,Ejsingholmvej,7830,14,8.746265,56.526336
2034614,Ejsingholmvej,7830,15,8.745161,56.523316
2034616,Ejsingholmvej,7830,16,8.747406,56.529134
2034617,Ejsingholmvej,7830,17,8.745013,56.52395
2034620,Ejsingholmvej,7830,18,8.751579,56.529248
2034621,Ejsingholmvej,7830,19,8.745271,56.525933
2034625,Ejsingholmvej,7830,20,8.758238,56.526316
2034629,Ejsingholmvej,7830,21,8.746126,56.527729
2034633,Ejsingholmvej,7830,21A,8.745862,56.527662
2034635,Ejsingholmvej,7830,21B,8.745865,56.527588
2034639,Ejsingholmvej,7830,21C,8.745902,56.527706
2034642,Ejsingholmvej,7830,21D,8.745816,56.527536
2034645,Ejsingholmvej,7830,22,8.764585,56.526076
2034648,Ejsingholmvej,7830,23,8.746183,56.528386
2034651,Ejsingholmvej,7830,25,8.746014,56.529785
2034653,Ejsingholmvej,7830,27,8.745615,56.53008
2034656,Ejsingholmvej,7830,29,8.750458,56.530038
2034658,Ejsingholmvej,7830,31,8.752562,56.529468
2034660,Ejsingholmvej,7830,33,8.755387,56.529234
2034662,Ejsingholmvej,7830,35,8.758267,56.530384
2042487,Ålskovvej,7830,1,8.790489,56.496143
2042490,Ålskovvej,7830,2,8.789646,56.496509
2042492,Ålskovvej,7830,3,8.790206,56.496155
2042494,Ålskovvej,7830,4,8.789124,56.498947
2042496,Ålskovvej,7830,5,8.789549,56.496181
2042498,Ålskovvej,7830,5A,8.788582,56.496112
2042499,Ålskovvej,7830,5B,8.787755,56.49598
2042502,Ålskovvej,7830,6,8.785978,56.497589
2042503,Ålskovvej,7830,7,8.783015,56.494994
2042505,Ålskovvej,7830,8,8.779558,56.498894
2042506,Ålskovvej,7830,9,8.784992,56.49699
2042507,Ålskovvej,7830,10,8.775821,56.500343
2042508,Ålskovvej,7830,11,8.781972,56.497801
2042509,Ålskovvej,7830,12,8.776045,56.502443
2042510,Ålskovvej,7830,13,8.774983,56.495703
2042511,Ålskovvej,7830,14,8.773091,56.499874
2042513,Ålskovvej,7830,15,8.776212,56.497761
2042514,Ålskovvej,7830,16,8.768564,56.499812
2042515,Ålskovvej,7830,17,8.77371,56.499471
2042516,Ålskovvej,7830,18,8.766079,56.504211
2042517,Ålskovvej,7830,18A,8.766427,56.5044
2042518,Ålskovvej,7830,19,8.768626,56.497918
2042519,Ålskovvej,7830,20,8.768657,56.507704
2042520,Ålskovvej,7830,21,8.766863,56.500163
2042521,Ålskovvej,7830,22,8.771655,56.50696
2042522,Ålskovvej,7830,23,8.765291,56.499031
2042523,Ålskovvej,7830,25,8.763292,56.500018
2042524,Ålskovvej,7830,27,8.766123,56.500763
2042525,Ålskovvej,7830,29,8.764729,56.502082
2045812,Gammel Landevej,7830,1,8.783739,56.522313
2045813,Gammel Landevej,7830,2A,8.783855,56.522185
2045814,Gammel Landevej,7830,2B,8.783727,56.522129
2045816,Gammel Landevej,7830,2C,8.783694,56.522049
2045818,Gammel Landevej,7830,2D,8.783763,56.521968
2045820,Gammel Landevej,7830,3,8.783883,56.522393
2045823,Gammel Landevej,7830,5,8.783925,56.522685
2045825,Gammel Landevej,7830,6,8.784049,56.522287
2045826,Gammel Landevej,7830,7,8.78476,56.522863
2045827,Gammel Landevej,7830,8,8.784457,56.522391
2045828,Gammel Landevej,7830,9,8.785143,56.522966
2045829,Gammel Landevej,7830,10,8.786365,56.522549
2045830,Gammel Landevej,7830,11,8.785546,56.5232118
2045831,Gammel Landevej,7830,12,8.785654,56.522982
2045832,Gammel Landevej,7830,13,8.785811,56.52329
2045833,Gammel Landevej,7830,14,8.7859171,56.5231089
2045834,Gammel Landevej,7830,16,8.786112,56.5232
2045835,Gammel Landevej,7830,17,8.786114,56.523752
2045836,Gammel Landevej,7830,18,8.786303,56.523324
2045837,Gammel Landevej,7830,19,8.786799,56.524116
2045838,Gammel Landevej,7830,20,8.786947,56.523572
2045840,Gammel Landevej,7830,22,8.788351,56.523209
2045841,Gammel Landevej,7830,23,8.804397,56.532522
2045842,Gammel Landevej,7830,24,8.787585,56.524001
2045844,Gammel Landevej,7830,25,8.825374,56.542079
2045846,Gammel Landevej,7830,26,8.78782,56.523087
2045848,Gammel Landevej,7830,27,8.826565,56.542857
2045850,Gammel Landevej,7830,28,8.787734,56.524411
2045851,Gammel Landevej,7830,30,8.797469,56.527762
2045853,Gammel Landevej,7830,32,8.799501,56.528022
2045854,Gammel Landevej,7830,34,8.804717,56.53195
2049020,Stokholmvej,7830,1,8.838465,56.490348
2049024,Stokholmvej,7830,3,8.837236,56.493346
2049026,Stokholmvej,7830,4,8.839103,56.485453
2049031,Stokholmvej,7830,5,8.836029,56.49842
2049033,Stokholmvej,7830,6,8.838847,56.486238
2049036,Stokholmvej,7830,7,8.847008,56.505207
2049039,Stokholmvej,7830,8,8.839191,56.487602
2049043,Stokholmvej,7830,9,8.845967,56.506602
2049045,Stokholmvej,7830,10,8.839304,56.488294
2049048,Stokholmvej,7830,11,8.860192,56.516242
2049049,Stokholmvej,7830,12,8.840579,56.499774
2049054,Stokholmvej,7830,13,8.861197,56.516671
2049056,Stokholmvej,7830,14,8.848401,56.50275
2049058,Stokholmvej,7830,15,8.861916,56.516929
2049062,Stokholmvej,7830,16,8.849953,56.50369
2049068,Stokholmvej,7830,17,8.864667,56.517895
2049072,Stokholmvej,7830,20,8.860732,56.503569
2049073,Stokholmvej,7830,22,8.848218,56.504306
2049079,Stokholmvej,7830,24,8.848497,56.509189
2049082,Stokholmvej,7830,26,8.851232,56.511593
2049085,Stokholmvej,7830,28,8.856653,56.511811
2049087,Stokholmvej,7830,30,8.853148,56.512511
2049093,Stokholmvej,7830,32,8.861076,56.516265
2049094,Stokholmvej,7830,34,8.861894,56.516511
2049126,Lauhedevej,7830,1,8.813552,56.540659
2049128,Lauhedevej,7830,2,8.819487,56.541142
2049130,Lauhedevej,7830,3,8.815915,56.5414
2049133,Lauhedevej,7830,4,8.818626,56.543744
2049135,Lauhedevej,7830,5,8.816025,56.541983
2049138,Lauhedevej,7830,6,8.819952,56.548183
2049139,Lauhedevej,7830,7,8.818233,56.540886
2049142,Lauhedevej,7830,8,8.815071,56.54769
2049143,Lauhedevej,7830,9,8.818111,56.541582
2049146,Lauhedevej,7830,10,8.815024,56.549309
2049148,Lauhedevej,7830,11,8.815658,56.545914
2049149,Lauhedevej,7830,12,8.816455,56.550439
2049152,Lauhedevej,7830,13,8.810687,56.545734
2049154,Lauhedevej,7830,15,8.816208,56.554355
2049156,Lauhedevej,7830,17,8.81932,56.556339
2049160,Lauhedevej,7830,19,8.828229,56.558915
2049162,Lauhedevej,7830,21,8.822114,56.553678
2049166,Lauhedevej,7830,23,8.826076,56.553083
2049168,Lauhedevej,7830,25,8.828885,56.553559
2049170,Lauhedevej,7830,27,8.832101,56.555636
2049172,Lauhedevej,7830,29,8.839624,56.558187
2049213,Møgelvangvej,7830,1,8.849155,56.426176
2049214,Møgelvangvej,7830,2,8.852744,56.423154
2049215,Møgelvangvej,7830,2A,8.851158,56.423536
2049217,Møgelvangvej,7830,3,8.851906,56.424428
2049219,Møgelvangvej,7830,4,8.86137,56.417683
2049220,Møgelvangvej,7830,5,8.85414,56.426932
2049221,Møgelvangvej,7830,6,8.863915,56.416096
2049224,Møgelvangvej,7830,7,8.859584,56.423068
2049227,Møgelvangvej,7830,8,8.865645,56.414227
2049228,Møgelvangvej,7830,9,8.857819,56.42134
2049232,Møgelvangvej,7830,10,8.869452,56.413297
2049236,Møgelvangvej,7830,12,8.874238,56.411579
2049238,Møgelvangvej,7830,13,8.864966,56.416931
2049240,Møgelvangvej,7830,14,8.865529,56.405425
2049242,Møgelvangvej,7830,14A,8.865937,56.399498
2049246,Møgelvangvej,7830,15,8.868511,56.415741
2049247,Møgelvangvej,7830,16,8.875992,56.411077
2049250,Møgelvangvej,7830,17,8.874223,56.412816
2049254,Møgelvangvej,7830,18,8.8814,56.407961
2049257,Møgelvangvej,7830,19,8.877469,56.411504
2049258,Møgelvangvej,7830,20,8.884559,56.406174
2049261,Møgelvangvej,7830,21,8.881912,56.409571
2049562,Skoletoften,7830,1,8.866819,56.456908
2049563,Skoletoften,7830,2,8.866399,56.45709
2049564,Skoletoften,7830,3,8.866644,56.45623
2049565,Skoletoften,7830,6,8.866412,56.456942
2049566,Skoletoften,7830,8,8.866348,56.456788
2049567,Skoletoften,7830,10,8.866286,56.456658
2049568,Skoletoften,7830,12,8.86613,56.456534
2049569,Skoletoften,7830,14,8.866062,56.456402
2049571,Skoletoften,7830,16,8.866002,56.456058
2049573,Skoletoften,7830,16A,8.865766,56.456175
2049575,Skoletoften,7830,18,8.865962,56.455851
2049576,Skoletoften,7830,20,8.866349,56.455833
2049577,Skoletoften,7830,22,8.866556,56.455789
2049578,Skoletoften,7830,26,8.86708,56.455753
2049579,Skoletoften,7830,28,8.867382,56.455713
2049580,Skoletoften,7830,30,8.867696,56.455671
2049583,Skoletoften,7830,32,8.868075,56.455641
2049585,Skoletoften,7830,34,8.868293,56.455549
2049665,Hjerlhedevej,7830,1,8.871181,56.458293
2049671,Hjerlhedevej,7830,2,8.87159,56.458782
2049674,Hjerlhedevej,7830,2A,8.871769,56.459048
2049678,Hjerlhedevej,7830,3,8.870931,56.458726
2049680,Hjerlhedevej,7830,4,8.871472,56.467281
2049683,Hjerlhedevej,7830,5,8.870901,56.459119
2049684,Hjerlhedevej,7830,6,8.86928,56.473582
2049686,Hjerlhedevej,7830,7,8.865392,56.464013
2049687,Hjerlhedevej,7830,8,8.862744,56.47669
2049688,Hjerlhedevej,7830,8A,8.862925,56.47662
2049689,Hjerlhedevej,7830,9,8.866928,56.465976
2049690,Hjerlhedevej,7830,10,8.865216,56.47655
2049691,Hjerlhedevej,7830,11,8.862465,56.471267
2049692,Hjerlhedevej,7830,12,8.863832,56.478872
2049693,Hjerlhedevej,7830,13,8.85922,56.473179
2049694,Hjerlhedevej,7830,14,8.870195,56.484941
2049695,Hjerlhedevej,7830,14B,8.86957,56.484927
2049696,Hjerlhedevej,7830,16,8.870487,56.486228
2049699,Hjerlhedevej,7830,16A,8.870682,56.48622
2049702,Hjerlhedevej,7830,16B,8.870339,56.486221
2049704,Hjerlhedevej,7830,16C,8.870278,56.486113
2049855,Sevelskovbyvej,7830,1,8.856654,56.436885
2049858,Sevelskovbyvej,7830,2,8.857501,56.437133
2049860,Sevelskovbyvej,7830,3,8.848528,56.43802
2049862,Sevelskovbyvej,7830,4,8.848672,56.438844
2049864,Sevelskovbyvej,7830,5,8.840675,56.439393
2049866,Sevelskovbyvej,7830,6,8.848015,56.438886
2049869,Sevelskovbyvej,7830,7,8.835578,56.435748
2049870,Sevelskovbyvej,7830,8,8.847874,56.440038
2049872,Sevelskovbyvej,7830,9,8.833813,56.438097
2049873,Sevelskovbyvej,7830,10,8.844672,56.441679
2049878,Sevelskovbyvej,7830,11,8.828445,56.430751
2049883,Sevelskovbyvej,7830,12,8.828317,56.437331
2049885,Sevelskovbyvej,7830,13,8.823788,56.431245
2049891,Sevelskovbyvej,7830,14,8.824067,56.437016
2049896,Sevelskovbyvej,7830,16,8.82299,56.433705
2049898,Sevelskovbyvej,7830,18,8.821193,56.430641
2049901,Sevelskovbyvej,7830,20,8.817748,56.431413
2049953,Klostervej,7830,1,8.871942,56.457398
2049954,Klostervej,7830,2,8.869707,56.457066
2049955,Klostervej,7830,3,8.872104,56.457034
2049956,Klostervej,7830,4,8.869984,56.457078
2049957,Klostervej,7830,6,8.870229,56.457023
2049959,Klostervej,7830,8,8.870704,56.45695
2049960,Klostervej,7830,9,8.874059,56.457099
2049961,Klostervej,7830,10,8.87134,56.456994
2049962,Klostervej,7830,11,8.874277,56.457089
2049964,Klostervej,7830,12,8.871587,56.456918
2049966,Klostervej,7830,13,8.874625,56.457057
2049967,Klostervej,7830,14,8.872097,56.456684
2049969,Klostervej,7830,16,8.87252,56.455963
2049970,Klostervej,7830,20,8.872754,56.456527
2049971,Klostervej,7830,22,8.872802,56.456801
2049972,Klostervej,7830,24,8.873425,56.456836
2049974,Klostervej,7830,26,8.873865,56.456895
2049976,Klostervej,7830,28,8.874242,56.456876
2049977,Klostervej,7830,30,8.874629,56.456857
2050010,Hvidemosevej,7830,9,8.86125,56.517636
2050012,Hvidemosevej,7830,11,8.86059,56.517488
2050015,Hvidemosevej,7830,13,8.858724,56.516527
2050017,Hvidemosevej,7830,14,8.860865,56.518157
2050022,Hvidemosevej,7830,15,8.858406,56.515909
2050023,Hvidemosevej,7830,16,8.860346,56.518135
2050026,Hvidemosevej,7830,17,8.857603,56.515593
2050028,Hvidemosevej,7830,18,8.860197,56.518446
2050032,Hvidemosevej,7830,19,8.851554,56.512863
2050034,Hvidemosevej,7830,20,8.85903,56.519163
2050036,Hvidemosevej,7830,21,8.850418,56.512974
2050038,Hvidemosevej,7830,22,8.842401,56.522887
2050040,Hvidemosevej,7830,23,8.842401,56.515462
2050044,Hvidemosevej,7830,24,8.819242,56.511633
2050046,Hvidemosevej,7830,25,8.817668,56.507413
2050049,Hvidemosevej,7830,26,8.814646,56.513607
2050052,Hvidemosevej,7830,27,8.815296,56.508036
2050074,Højbjergvej,7830,1,8.780783,56.440838
2050075,Højbjergvej,7830,2,8.78056,56.434953
2050076,Højbjergvej,7830,3,8.786068,56.444385
2050077,Højbjergvej,7830,4,8.780374,56.437446
2050078,Højbjergvej,7830,5,8.788843,56.445448
2050079,Højbjergvej,7830,6,8.781538,56.440146
2050080,Højbjergvej,7830,8,8.786839,56.441288
2050081,Højbjergvej,7830,9,8.787837,56.446188
2050082,Højbjergvej,7830,10,8.793069,56.443095
2050083,Højbjergvej,7830,11,8.792003,56.449426
2050084,Højbjergvej,7830,12,8.797127,56.442626
2050085,Højbjergvej,7830,13,8.80012,56.447785
2050086,Højbjergvej,7830,14,8.792906,56.446651
2050087,Højbjergvej,7830,14A,8.798852,56.447491
2050088,Højbjergvej,7830,16,8.797425,56.445312
2050089,Højbjergvej,7830,16A,8.799423,56.445072
2050090,Højbjergvej,7830,18,8.802516,56.447273
2050091,Højbjergvej,7830,20,8.804873,56.447053
2050118,Skolevænget,7830,1,8.777152,56.434868
2050119,Skolevænget,7830,2,8.776699,56.435078
2050120,Skolevænget,7830,3A,8.777317,56.434719
2050121,Skolevænget,7830,3B,8.777265,56.434757
2050122,Skolevænget,7830,3C,8.777311,56.434658
2050123,Skolevænget,7830,4,8.776958,56.434717
2050124,Skolevænget,7830,5,8.777451,56.43454
2050125,Skolevænget,7830,6,8.777058,56.43457
2050126,Skolevænget,7830,7,8.77754,56.434296
2050127,Skolevænget,7830,8,8.777209,56.434346
2050128,Skolevænget,7830,9,8.777722,56.434098
2050129,Skolevænget,7830,9A,8.778126,56.433503
2050130,Skolevænget,7830,10,8.777366,56.434121
2050131,Skolevænget,7830,11,8.779348,56.432163
2050132,Skolevænget,7830,12,8.777416,56.433907
2050133,Skolevænget,7830,13,8.785189,56.430375
2050134,Skolevænget,7830,14,8.776811,56.433622
2050135,Skolevænget,7830,16,8.776452,56.434287
2050227,Pilevænget,7830,1,8.743905,56.521715
2050230,Pilevænget,7830,2,8.744427,56.521758
2050231,Pilevænget,7830,3,8.743287,56.522036
2050232,Pilevænget,7830,4,8.74487,56.521814
2050233,Pilevænget,7830,5,8.743164,56.522322
2050234,Pilevænget,7830,6,8.745344,56.52187
2050235,Pilevænget,7830,7,8.743568,56.522416
2050237,Pilevænget,7830,8,8.745821,56.521964
2050238,Pilevænget,7830,9,8.743662,56.522106
2050241,Pilevænget,7830,10,8.745536,56.522268
2050243,Pilevænget,7830,12,8.745457,56.522596
2050244,Pilevænget,7830,14,8.745054,56.522544
2050247,Pilevænget,7830,16,8.745062,56.522234
2050249,Pilevænget,7830,18,8.744605,56.522184
2050251,Pilevænget,7830,20,8.74463,56.522429
2050252,Pilevænget,7830,22,8.744092,56.522389
2050253,Pilevænget,7830,24,8.744065,56.522123
2050274,Solsortevej,7830,1,8.744838,56.521014
2050278,Solsortevej,7830,2,8.745025,56.520647
2050282,Solsortevej,7830,3,8.745479,56.521053
2050286,Solsortevej,7830,4,8.745636,56.520752
2050291,Solsortevej,7830,5,8.745481,56.521274
2050295,Solsortevej,7830,6,8.745754,56.520509
2050298,Solsortevej,7830,7,8.745419,56.521498
2050303,Solsortevej,7830,8,8.745521,56.520238
2050307,Solsortevej,7830,9,8.745788,56.521522
2050312,Solsortevej,7830,10,8.74593,56.520045
2050320,Solsortevej,7830,11,8.746055,56.521345
2050325,Solsortevej,7830,12,8.7467,56.520129
2050334,Solsortevej,7830,13,8.746186,56.521062
2050335,Solsortevej,7830,14,8.746629,56.520328
2050344,Solsortevej,7830,16,8.746454,56.52057
2050348,Solsortevej,7830,18,8.746303,56.520837
2050372,Tjørnevej,7830,1,8.77226,56.434509
2050373,Tjørnevej,7830,2,8.771938,56.433948
2050375,Tjørnevej,7830,3,8.772608,56.434731
2050376,Tjørnevej,7830,4,8.772267,56.433869
2050377,Tjørnevej,7830,5,8.772923,56.434917
2050378,Tjørnevej,7830,6,8.772691,56.433766
2050379,Tjørnevej,7830,7,8.773267,56.435177
2050380,Tjørnevej,7830,8,8.772966,56.433598
2050381,Tjørnevej,7830,8A,8.772965,56.43369
2050382,Tjørnevej,7830,8B,8.772978,56.433525
2050383,Tjørnevej,7830,9,8.773022,56.435278
2050384,Tjørnevej,7830,10,8.772735,56.434064
2050385,Tjørnevej,7830,12,8.772726,56.434323
2050389,Tjørnevej,7830,14,8.772424,56.434115
2050393,Tjørnevej,7830,16,8.773151,56.434666
2050398,Tjørnevej,7830,18,8.773878,56.434751
2050404,Tjørnevej,7830,20,8.773477,56.434876
2050538,Drosselvej,7830,1,8.744233,56.520537
2050542,Drosselvej,7830,2,8.7441,56.520938
2050548,Drosselvej,7830,3,8.744163,56.52024
2050554,Drosselvej,7830,4,8.743436,56.521136
2050561,Drosselvej,7830,5,8.743716,56.520281
2050565,Drosselvej,7830,6,8.743379,56.520842
2050568,Drosselvej,7830,7,8.743646,56.520494
2050574,Drosselvej,7830,8,8.743024,56.52078
2050576,Drosselvej,7830,9,8.74308,56.520447
2050581,Drosselvej,7830,10,8.742881,56.521045
2050588,Drosselvej,7830,11,8.743105,56.520161
2050591,Drosselvej,7830,12,8.742197,56.521033
2050595,Drosselvej,7830,13,8.742368,56.519972
2050600,Drosselvej,7830,14,8.742329,56.52085
2050602,Drosselvej,7830,15,8.742362,56.520195
2050604,Drosselvej,7830,16,8.742389,56.520647
2050606,Drosselvej,7830,17,8.742361,56.520424
2050640,Hvolbækvej,7830,1,8.773516,56.43308
2050641,Hvolbækvej,7830,1A,8.773303,56.432954
2050644,Hvolbækvej,7830,1B,8.773289,56.433056
2050647,Hvolbækvej,7830,1C,8.773426,56.433151
2050648,Hvolbækvej,7830,2A,8.77273,56.433185
2050651,Hvolbækvej,7830,2B,8.772635,56.432906
2050653,Hvolbækvej,7830,2C,8.772538,56.432567
2050655,Hvolbækvej,7830,3,8.773782,56.432953
2050656,Hvolbækvej,7830,4,8.767726,56.430504
2050659,Hvolbækvej,7830,5,8.774209,56.432853
2050660,Hvolbækvej,7830,7,8.774628,56.432843
2050663,Hvolbækvej,7830,9,8.774614,56.43261
2050666,Hvolbækvej,7830,11,8.774218,56.432637
2050667,Hvolbækvej,7830,13,8.773638,56.432688
2050670,Hvolbækvej,7830,15,8.77318,56.432735
2050673,Hvolbækvej,7830,17,8.773193,56.432285
2050674,Hvolbækvej,7830,19,8.773522,56.432342
2050676,Hvolbækvej,7830,21,8.773978,56.432291
2050678,Hvolbækvej,7830,23,8.774457,56.432278
2050679,Hvolbækvej,7830,31,8.773089,56.432084
2050702,Hovgårdvej,7830,1,8.83739,56.48384
2050703,Hovgårdvej,7830,2,8.83644,56.483376
2050704,Hovgårdvej,7830,3,8.837019,56.48355
2050705,Hovgårdvej,7830,4,8.833571,56.480626
2050706,Hovgårdvej,7830,5,8.837522,56.483647
2050707,Hovgårdvej,7830,6,8.833843,56.477388
2050708,Hovgårdvej,7830,7,8.837894,56.483531
2050709,Hovgårdvej,7830,8,8.833637,56.472635
2050710,Hovgårdvej,7830,9,8.837313,56.483375
2050711,Hovgårdvej,7830,11,8.836808,56.483172
2050712,Hovgårdvej,7830,13,8.840557,56.478292
2050713,Hovgårdvej,7830,15,8.836386,56.48069
2050714,Hovgårdvej,7830,17,8.841245,56.474942
2050715,Hovgårdvej,7830,19,8.841582,56.472363
2050716,Hovgårdvej,7830,21,8.842726,56.471343
2050717,Hovgårdvej,7830,23,8.836903,56.47333
2050833,Lærkevej,7830,1,8.744363,56.518612
2050834,Lærkevej,7830,2,8.743734,56.518621
2050837,Lærkevej,7830,3,8.744838,56.518689
2050841,Lærkevej,7830,4,8.743118,56.518489
2050844,Lærkevej,7830,5,8.745319,56.518754
2050847,Lærkevej,7830,6,8.743388,56.51824
2050850,Lærkevej,7830,7,8.745287,56.518344
2050852,Lærkevej,7830,8,8.743839,56.518153
2050856,Lærkevej,7830,9,8.744908,56.51833
2050864,Lærkevej,7830,10,8.743737,56.517963
2050867,Lærkevej,7830,11,8.744437,56.51831
2050875,Lærkevej,7830,12,8.743803,56.517759
2050879,Lærkevej,7830,13,8.744471,56.517956
2050884,Lærkevej,7830,14,8.744264,56.517594
2051000,Vibevej,7830,1,8.744567,56.519641
2051004,Vibevej,7830,2,8.744365,56.519932
2051009,Vibevej,7830,3,8.744107,56.519225
2051014,Vibevej,7830,4,8.743937,56.519912
2051015,Vibevej,7830,5,8.743932,56.519511
2051020,Vibevej,7830,6,8.743402,56.519807
2051023,Vibevej,7830,7,8.74357,56.519178
2051026,Vibevej,7830,8,8.742825,56.519753
2051030,Vibevej,7830,9,8.74352,56.519508
2051033,Vibevej,7830,10,8.742415,56.519736
2051036,Vibevej,7830,11,8.743015,56.519458
2051038,Vibevej,7830,13,8.743226,56.519092
2051042,Vibevej,7830,15,8.742626,56.519103
2051044,Vibevej,7830,17,8.742478,56.519421
2051179,Fasanvej,7830,1,8.743285,56.521356
2051180,Fasanvej,7830,2,8.742768,56.521841
2051181,Fasanvej,7830,3,8.7426,56.521466
2051182,Fasanvej,7830,4,8.742456,56.522067
2051183,Fasanvej,7830,5,8.742106,56.521247
2051184,Fasanvej,7830,6,8.742527,56.522309
2051185,Fasanvej,7830,7,8.742049,56.521467
2051187,Fasanvej,7830,8,8.742397,56.522509
2051189,Fasanvej,7830,9,8.742009,56.521674
2051191,Fasanvej,7830,10,8.742285,56.522738
2051193,Fasanvej,7830,12,8.741769,56.522741
2051195,Fasanvej,7830,14,8.741826,56.522563
2051196,Fasanvej,7830,16,8.741901,56.52233
2051199,Fasanvej,7830,18,8.741947,56.522124
2051200,Fasanvej,7830,20,8.742004,56.521914
2051211,Pilevang,7830,1,8.870221,56.451903
2051212,Pilevang,7830,2,8.869826,56.451337
2051213,Pilevang,7830,3,8.870117,56.451708
2051214,Pilevang,7830,4,8.869891,56.451051
2051215,Pilevang,7830,5,8.870333,56.451417
2051216,Pilevang,7830,6,8.869778,56.450857
2051217,Pilevang,7830,7,8.870361,56.451194
2051218,Pilevang,7830,8,8.869665,56.450704
2051219,Pilevang,7830,9,8.870318,56.450974
2051220,Pilevang,7830,10,8.86954,56.450415
2051221,Pilevang,7830,11,8.870335,56.450742
2051223,Pilevang,7830,13,8.870085,56.45056
2051227,Pilevang,7830,15,8.869935,56.450349
2051300,Højvang,7830,1,8.869463,56.451384
2051301,Højvang,7830,2,8.869042,56.451676
2051302,Højvang,7830,3,8.869093,56.451202
2051303,Højvang,7830,4,8.868832,56.451518
2051304,Højvang,7830,5,8.868957,56.450976
2051305,Højvang,7830,6,8.868607,56.451359
2051306,Højvang,7830,7,8.868856,56.450716
2051308,Højvang,7830,8,8.868414,56.451114
2051310,Højvang,7830,9,8.8687,56.450514
2051311,Højvang,7830,10,8.868463,56.450917
2051314,Højvang,7830,11,8.868615,56.450333
2051316,Højvang,7830,12,8.868328,56.450681
2051317,Højvang,7830,14,8.868232,56.450504
2051321,Højvang,7830,16,8.868161,56.450314
2051440,Sønder Svenstrupvej,7830,1,8.792195,56.465854
2051441,Sønder Svenstrupvej,7830,2,8.789896,56.461557
2051443,Sønder Svenstrupvej,7830,3,8.796849,56.462762
2051445,Sønder Svenstrupvej,7830,4,8.80238,56.459211
2051447,Sønder Svenstrupvej,7830,5,8.811445,56.453183
2051448,Sønder Svenstrupvej,7830,6,8.807935,56.45414
2051449,Sønder Svenstrupvej,7830,7,8.815096,56.452578
2051452,Sønder Svenstrupvej,7830,8,8.814534,56.450206
2051454,Sønder Svenstrupvej,7830,9,8.817282,56.451326
2051456,Sønder Svenstrupvej,7830,10,8.821484,56.460223
2051460,Sønder Svenstrupvej,7830,11,8.817629,56.453869
2051464,Sønder Svenstrupvej,7830,13,8.820026,56.457102
2051668,Halalle,7830,5,8.870216,56.458547
2051672,Halalle,7830,7,8.870184,56.458478
2051673,Halalle,7830,8,8.868757,56.457879
2051678,Halalle,7830,9,8.870158,56.458412
2051683,Halalle,7830,10,8.869444,56.457512
2051684,Halalle,7830,11,8.870127,56.458346
2051689,Halalle,7830,13,8.870099,56.45828
2051692,Halalle,7830,17,8.869962,56.457986
2051697,Halalle,7830,19,8.869931,56.457915
2051703,Halalle,7830,21,8.869902,56.457849
2051706,Halalle,7830,23,8.869872,56.457783
2051753,Blakshøjvej,7830,1,8.80717,56.497063
2051756,Blakshøjvej,7830,2,8.811199,56.495824
2051758,Blakshøjvej,7830,4,8.810236,56.496939
2051759,Blakshøjvej,7830,6,8.810651,56.498175
2051760,Blakshøjvej,7830,8,8.825276,56.501547
2051761,Blakshøjvej,7830,10,8.823895,56.505068
2051762,Blakshøjvej,7830,12,8.819344,56.504905
2051763,Blakshøjvej,7830,14,8.816917,56.502566
2051764,Blakshøjvej,7830,16,8.809144,56.506498
2051765,Blakshøjvej,7830,18,8.806404,56.509528
2051803,Svendshedevej,7830,2,8.867279,56.444279
2051804,Svendshedevej,7830,3,8.874011,56.441196
2051806,Svendshedevej,7830,4,8.867438,56.441665
2051807,Svendshedevej,7830,5,8.87203,56.4401
2051808,Svendshedevej,7830,6,8.873183,56.426955
2051812,Svendshedevej,7830,7,8.870584,56.434416
2051813,Svendshedevej,7830,8,8.876767,56.425698
2051816,Svendshedevej,7830,9,8.870022,56.432912
2051817,Svendshedevej,7830,11,8.870979,56.428618
2051821,Svendshedevej,7830,13,8.876607,56.426554
2051823,Svendshedevej,7830,15,8.879886,56.42504
2051914,Svenstrupvej,7830,1,8.830056,56.468956
2051915,Svenstrupvej,7830,2,8.828671,56.469627
2051916,Svenstrupvej,7830,3,8.819837,56.465163
2051917,Svenstrupvej,7830,4,8.827001,56.469354
2051918,Svenstrupvej,7830,5,8.812862,56.462977
2051919,Svenstrupvej,7830,6,8.823174,56.469244
2051920,Svenstrupvej,7830,7,8.814915,56.462172
2051921,Svenstrupvej,7830,8,8.81092,56.466332
2051922,Svenstrupvej,7830,9,8.813637,56.460781
2051923,Svenstrupvej,7830,10,8.808246,56.463324
2052025,Lindholtvej,7830,1,8.826361,56.460684
2052027,Lindholtvej,7830,2A,8.826248,56.467351
2052028,Lindholtvej,7830,2B,8.826343,56.467563
2052030,Lindholtvej,7830,3,8.826262,56.457837
2052031,Lindholtvej,7830,4,8.827291,56.455629
2052033,Lindholtvej,7830,5,8.829497,56.457361
2052034,Lindholtvej,7830,6,8.828206,56.45255
2052036,Lindholtvej,7830,8,8.818505,56.446814
2052037,Lindholtvej,7830,10,8.818347,56.444498
2052039,Lindholtvej,7830,12,8.824466,56.444413
2052076,Adelvej,7830,1A,8.871198,56.456744
2052080,Adelvej,7830,1B,8.871181,56.456641
2052085,Adelvej,7830,1C,8.871126,56.456497
2052088,Adelvej,7830,3,8.871092,56.456374
2052094,Adelvej,7830,4,8.870814,56.456279
2052099,Adelvej,7830,5,8.871045,56.456133
2052104,Adelvej,7830,6,8.8690013,56.4558008
2052107,Adelvej,7830,7,8.871093,56.455912
2052111,Adelvej,7830,9,8.870796,56.455729
2052115,Adelvej,7830,11,8.8707893,56.4559721
2052118,Adelvej,7830,13,8.870399,56.455827
2052209,Hustedvej,7830,1,8.863915,56.452203
2052210,Hustedvej,7830,2,8.86722,56.452976
2052213,Hustedvej,7830,3,8.857913,56.450969
2052215,Hustedvej,7830,5,8.855359,56.451779
2052216,Hustedvej,7830,6,8.864818,56.453094
2052217,Hustedvej,7830,7,8.852376,56.450944
2052219,Hustedvej,7830,8,8.862595,56.45312
2052220,Hustedvej,7830,9,8.850766,56.450862
2052222,Hustedvej,7830,10,8.86092,56.455276
2052223,Hustedvej,7830,12,8.853845,56.45486
2052395,Nørre Sahlvej,7830,1,8.8470586,56.4842609
2052399,Nørre Sahlvej,7830,2,8.849771,56.483537
2052403,Nørre Sahlvej,7830,3,8.850225,56.484447
2052405,Nørre Sahlvej,7830,4,8.857406,56.487264
2052407,Nørre Sahlvej,7830,5,8.855245,56.487575
2052408,Nørre Sahlvej,7830,6,8.852019,56.489379
2052409,Nørre Sahlvej,7830,8,8.852364,56.493362
2052411,Nørre Sahlvej,7830,10,8.846814,56.492814
2052413,Nørre Sahlvej,7830,12,8.842686,56.492452
2052447,Birke Alle,7830,1,8.779447,56.434377
2052449,Birke Alle,7830,2,8.778036,56.434189
2052452,Birke Alle,7830,3,8.779968,56.434382
2052453,Birke Alle,7830,4,8.778474,56.434249
2052454,Birke Alle,7830,6,8.778811,56.434266
2052456,Birke Alle,7830,8,8.779534,56.434171
2052458,Birke Alle,7830,10,8.779939,56.434162
2052460,Birke Alle,7830,12,8.780245,56.434158
2052461,Birke Alle,7830,14,8.780632,56.43404
2052510,Vindelevvej,7830,1,8.786704,56.471029
2052511,Vindelevvej,7830,4,8.785535,56.470222
2052512,Vindelevvej,7830,5,8.786448,56.468394
2052513,Vindelevvej,7830,6,8.782687,56.469718
2052514,Vindelevvej,7830,7,8.780941,56.468126
2052515,Vindelevvej,7830,8,8.781494,56.469224
2052516,Vindelevvej,7830,10,8.77967,56.470298
2052756,Skovbrynet,7830,3,8.835148,56.484408
2052758,Skovbrynet,7830,5,8.83507,56.484249
2052760,Skovbrynet,7830,6,8.832963,56.483117
2052762,Skovbrynet,7830,7,8.834939,56.483839
2052764,Skovbrynet,7830,8,8.833632,56.482659
2052765,Skovbrynet,7830,9,8.834742,56.483524
2052766,Skovbrynet,7830,11,8.834881,56.483382
2052767,Skovbrynet,7830,11A,8.834618,56.483193
2052768,Skovbrynet,7830,13,8.834676,56.482918
2052873,Jattrupvej,7830,1,8.890458,56.465069
2052875,Jattrupvej,7830,2,8.890912,56.465493
2052876,Jattrupvej,7830,3,8.885293,56.46664
2052879,Jattrupvej,7830,4,8.889986,56.466557
2052881,Jattrupvej,7830,6,8.885136,56.469911
2052883,Jattrupvej,7830,8,8.882053,56.472289
2052884,Jattrupvej,7830,10,8.881592,56.472826
2052886,Jattrupvej,7830,12,8.878691,56.477276
2052959,Baunehøjvej,7830,2,8.818716,56.439208
2052961,Baunehøjvej,7830,3,8.815723,56.439127
2052964,Baunehøjvej,7830,4,8.816165,56.43953
2052965,Baunehøjvej,7830,5,8.810583,56.436426
2052968,Baunehøjvej,7830,6,8.810004,56.439309
2052969,Baunehøjvej,7830,8,8.805403,56.440102
2052971,Baunehøjvej,7830,10,8.802836,56.442247
2052974,Baunehøjvej,7830,12,8.798643,56.438548
2052975,Baunehøjvej,7830,14,8.794171,56.437621
2053011,Stubbergårdvej,7830,1,8.878203,56.458713
2053012,Hailkjærvej,7830,1,8.850858,56.466747
2053013,Hailkjærvej,7830,2,8.853908,56.472446
2053014,Stubbergårdvej,7830,2,8.876288,56.458972
2053015,Stubbergårdvej,7830,3,8.881198,56.458614
2053016,Hailkjærvej,7830,3,8.845951,56.468902
2053018,Hailkjærvej,7830,5,8.851297,56.467962
2053019,Stubbergårdvej,7830,5,8.881833,56.457764
2053020,Hailkjærvej,7830,7,8.851367,56.470328
2053022,Stubbergårdvej,7830,7,8.884033,56.456918
2053023,Hailkjærvej,7830,9,8.847611,56.47136
2053026,Hailkjærvej,7830,11,8.851733,56.472733
2053029,Hailkjærvej,7830,13,8.854223,56.475556
2053101,Skovvej,7830,1,8.869352,56.454502
2053104,Skovvej,7830,3,8.869833,56.45447
2053111,Skovvej,7830,4,8.869682,56.454205
2053119,Skovvej,7830,5,8.870207,56.454384
2053123,Skovvej,7830,6,8.869923,56.453952
2053130,Skovvej,7830,8,8.870288,56.454126
2053137,Skovvej,7830,10,8.870711,56.453959
2053177,Skovhusvej,7830,1,8.855816,56.444882
2053178,Skovhusvej,7830,2,8.858187,56.446615
2053179,Skovhusvej,7830,4,8.854487,56.446506
2053180,Skovhusvej,7830,8,8.840629,56.444239
2053181,Skovhusvej,7830,10,8.830656,56.442797
2053182,Skovhusvej,7830,12,8.826957,56.44145
2053199,Torndalvej,7830,1,8.758479,56.538495
2053200,Torndalvej,7830,2,8.757421,56.539632
2053204,Torndalvej,7830,3,8.756855,56.539048
2053211,Torndalvej,7830,3A,8.757171,56.539163
2053215,Torndalvej,7830,4,8.75101,56.538948
2053217,Mågevej,7830,1,8.744728,56.519247
2053218,Torndalvej,7830,5,8.755703,56.538951
2053219,Mågevej,7830,2,8.745361,56.519324
2053224,Mågevej,7830,3,8.744055,56.521237
2053226,Torndalvej,7830,6,8.749349,56.532437
2053227,Mågevej,7830,4,8.74515,56.519692
2053232,Mågevej,7830,6,8.745028,56.520061
2053234,Mågevej,7830,8,8.745048,56.520369
2053237,Mågevej,7830,10,8.744707,56.521345
2053332,Svendshøjvej,7830,1,8.878535,56.419235
2053339,Svendshøjvej,7830,2,8.882027,56.423326
2053345,Svendshøjvej,7830,3,8.881451,56.421162
2053349,Svendshøjvej,7830,4,8.884813,56.430381
2053358,Svendshøjvej,7830,5,8.880831,56.422111
2053368,Svendshøjvej,7830,6,8.88584,56.431633
2053372,Svendshøjvej,7830,7,8.882163,56.426384
2053381,Svendshøjvej,7830,11,8.878787,56.432076
2053390,Svendshøjvej,7830,13,8.884443,56.431792
2053427,Buligvej,7830,1,8.835222,56.482328
2053432,Buligvej,7830,2,8.835612,56.483073
2053435,Buligvej,7830,2A,8.8351569,56.4829629
2053437,Buligvej,7830,3,8.833747,56.482077
2053439,Buligvej,7830,4,8.833459,56.482445
2053441,Buligvej,7830,5,8.827617,56.478474
2053443,Buligvej,7830,6,8.824556,56.482463
2053484,Baunebakken,7830,1,8.869307,56.450274
2053488,Baunebakken,7830,2,8.867872,56.450012
2053493,Baunebakken,7830,4,8.86831,56.449977
2053500,Baunebakken,7830,6,8.868769,56.449986
2053501,Baunebakken,7830,8,8.869229,56.449965
2053510,Baunebakken,7830,10,8.869607,56.449953
2053519,Baunebakken,7830,12,8.870092,56.45001
2053653,Hellesvej,7830,1,8.78353,56.521378
2053654,Hellesvej,7830,2,8.782323,56.521152
2053655,Hellesvej,7830,4,8.782704,56.521083
2053658,Hellesvej,7830,6,8.783224,56.521142
2053659,Hellesvej,7830,8,8.78357,56.521134
2053664,Hellesvej,7830,10,8.783916,56.521211
2053666,Hellesvej,7830,12,8.784566,56.521428
2053708,Rydbjergvej,7830,1,8.776021,56.432809
2053710,Rydbjergvej,7830,2,8.761963,56.435826
2053713,Rydbjergvej,7830,3,8.775434,56.432721
2053716,Rydbjergvej,7830,5,8.775097,56.432861
2053717,Rydbjergvej,7830,19,8.771656,56.433581
2053720,Rydbjergvej,7830,21,8.770911,56.433599
2053722,Rydbjergvej,7830,23,8.763417,56.4329
2053814,Lyngsøparken,7830,1,8.872221,56.45816
2053815,Lyngsøparken,7830,2,8.872117,56.457944
2053816,Lyngsøparken,7830,3,8.872354,56.458216
2053817,Lyngsøparken,7830,5,8.872592,56.458163
2053818,Lyngsøparken,7830,7,8.872571,56.45811
2053819,Lyngsøparken,7830,9,8.87254,56.458035
2053873,Skaun,7830,1,8.825161,56.533928
2053876,Skaun,7830,2,8.828666,56.532062
2053881,Skaun,7830,3,8.83002,56.533597
2053883,Skaun,7830,4,8.830179,56.527526
2053884,Skaun,7830,5,8.842607,56.532351
2053885,Skaun,7830,6,8.831721,56.528833
2054012,Kløvertoften,7830,1,8.775158,56.436107
2054013,Kløvertoften,7830,2,8.775656,56.436025
2054014,Kløvertoften,7830,3,8.775477,56.436268
2054015,Kløvertoften,7830,4,8.775885,56.436241
2054016,Kløvertoften,7830,5,8.775565,56.436523
2054017,Kløvertoften,7830,7,8.77573,56.436659
2054034,Syrenvej,7830,1,8.77869,56.434488
2054037,Syrenvej,7830,2,8.778397,56.434529
2054043,Syrenvej,7830,3,8.779165,56.434028
2054048,Syrenvej,7830,4,8.778472,56.434397
2054051,Syrenvej,7830,6,8.778643,56.434074
2054173,Feldevej,7830,1,8.794675,56.434751
2054174,Feldevej,7830,3,8.800803,56.434791
2054175,Feldevej,7830,5,8.804572,56.433287
2054176,Feldevej,7830,7,8.807516,56.434078
2054177,Feldevej,7830,9,8.811988,56.430794
2054309,Hedegårdvej,7830,1,8.8863884,56.4334872
2054311,Hedegårdvej,7830,2,8.878123,56.436929
2054312,Hedegårdvej,7830,3,8.881581,56.434584
2054315,Hedegårdvej,7830,5,8.879172,56.433359
2054317,Hedegårdvej,7830,7,8.875872,56.434124
2054350,Tværmosevej,7830,1,8.810715,56.520015
2054352,Tværmosevej,7830,2,8.811794,56.521279
2054353,Tværmosevej,7830,10,8.807975,56.521324
2054356,Tværmosevej,7830,11,8.808296,56.516887
2054357,Tværmosevej,7830,17,8.804151,56.519503
2054377,Råstvej,7830,1,8.754636,56.510537
2054380,Råstvej,7830,3,8.748878,56.512208
2054382,Råstvej,7830,5,8.747286,56.514642
2054385,Råstvej,7830,7,8.747814,56.51562
2054388,Råstvej,7830,9,8.747862,56.518013
2054452,Agerbækvej,7830,2,8.838087,56.483861
2054455,Agerbækvej,7830,4,8.850245,56.477667
2054458,Agerbækvej,7830,6,8.854132,56.47964
2054481,Hvejnkjærvej,7830,1,8.848204,56.454157
2054483,Hvejnkjærvej,7830,2,8.848363,56.458488
2054485,Hvejnkjærvej,7830,3,8.846619,56.450994
2054486,Hvejnkjærvej,7830,4,8.841572,56.451995
2054487,Hvejnkjærvej,7830,6,8.844659,56.449191
2054558,Vesterhedevej,7830,1,8.843326,56.45628
2054559,Vesterhedevej,7830,2,8.837963,56.456504
2054560,Vesterhedevej,7830,4,8.835557,56.45596
2054573,Lykkegårdvej,7830,1,8.749311,56.506958
2054576,Lykkegårdvej,7830,4,8.748193,56.510243
2054578,Lykkegårdvej,7830,6,8.750042,56.508872
2054598,Strøkærvej,7830,1,8.834612,56.445069
2054601,Strøkærvej,7830,1B,8.840093,56.445445
2054605,Strøkærvej,7830,2,8.837621,56.446883
2054609,Strøkærvej,7830,4,8.83561,56.446082
2054832,Stokholmvej,7830,18,8.8706,56.499719
2054833,Stokholmvej,7830,36,8.874773,56.519234
2054896,Fjordvej,7830,1,8.747107,56.518661
2096116,Lindbjergvej,7830,1,8.704885,56.430209
2096117,Lindbjergvej,7830,2,8.713157,56.436454
2096118,Lindbjergvej,7830,3,8.703835,56.432156
2096119,Lindbjergvej,7830,4,8.705597,56.435394
2096120,Lindbjergvej,7830,5,8.704562,56.434888
2096121,Lindbjergvej,7830,6,8.699366,56.43685
2096122,Lindbjergvej,7830,7,8.696485,56.434629
2096124,Lindbjergvej,7830,8,8.698194,56.439875
2151281,Degnevænget,7830,1,8.872992,56.458102
2151284,Degnevænget,7830,2,8.873272,56.458016
2151290,Degnevænget,7830,3,8.873044,56.458248
2151299,Degnevænget,7830,4,8.873324,56.45816
2151302,Degnevænget,7830,5,8.873104,56.458428
2151312,Degnevænget,7830,6,8.873397,56.458341
2151321,Degnevænget,7830,7,8.873155,56.458573
2151324,Degnevænget,7830,8,8.873449,56.458486
2153380,Præstevej,7830,2,8.907275,56.463724
2153385,Præstevej,7830,2A,8.908497,56.463411
2153386,Præstevej,7830,4,8.908588,56.462979
2153406,Reberbanen,7830,2,8.781115,56.483228
2153599,Sydbanevej,7830,1,8.777383,56.480333
2153896,Thorupgaard,7830,1,8.775598,56.476737
2153914,Thorupgaard,7830,2,8.775185,56.47656
2153921,Thorupgaard,7830,3,8.775712,56.476719
2153935,Thorupgaard,7830,4,8.775135,56.476466
2153943,Thorupgaard,7830,5,8.775938,56.476682
2153951,Thorupgaard,7830,6,8.775089,56.476383
2153960,Thorupgaard,7830,7,8.77601,56.476632
2153976,Thorupgaard,7830,8,8.775054,56.476313
2153987,Thorupgaard,7830,9,8.775957,56.47653
2153992,Thorupgaard,7830,10,8.775245,56.476287
2154002,Thorupgaard,7830,12,8.775399,56.476263
2154010,Thorupgaard,7830,15,8.775766,56.476446
2154023,Thorupgaard,7830,19,8.77554,56.476668
2154031,Thorupgaard,7830,21,8.775632,56.476654
2154036,Thorupgaard,7830,23,8.775724,56.476639
2154051,Thorupgaard,7830,25,8.775833,56.476561
2154054,Thorupgaard,7830,27,8.775817,56.47653
2158049,Mejeriparken,7830,1,8.9160798,56.4084682
2158059,Mejeriparken,7830,2,8.915846,56.4088525
2158065,Mejeriparken,7830,3,8.915668,56.408377
2158078,Mejeriparken,7830,4,8.9160151,56.4090683
2213048,Nørre Bjertvej,7830,46,8.759945,56.471631
2223915,Viborgvej,7830,303A,8.874857,56.39673
2224085,Havevej,7830,11A,8.775233,56.478981
2224086,Havevej,7830,11B,8.775168,56.47899
2224087,Grønningen,7830,44C,8.781265,56.47648
2224088,Sevelvej,7830,65A,8.791647,56.477601
2224334,Stendisvej,7830,23A,8.800842,56.430031
2224349,Kirkevej,7830,54D,8.721725,56.448133
2224388,Vestergade,7830,15,8.773806,56.480591
2236245,Møgelvangvej,7830,11A,8.8678511,56.4223808
2236275,Svendshedevej,7830,4A,8.865128,56.423843
2236276,Svendshedevej,7830,4B,8.86241,56.425285
2236277,Lindholtvej,7830,1A,8.830018,56.464359
2240613,Øster Stendisvej,7830,6A,8.834855,56.410584
2240620,Holstebrovej,7830,19A,8.776332,56.456263
2242751,Nørregade,7830,11,8.779588,56.482819
2242793,Hjerlhedevej,7830,10A,8.866992,56.477245
2243072,Møgeltoften,7830,2,8.781561,56.520922
2252178,Bjertparken,7830,28,8.777939,56.472455
2252179,Bjertparken,7830,30,8.778121,56.472262
2252180,Bjertparken,7830,32,8.778396,56.472095
2252181,Bjertparken,7830,34,8.77876,56.471979
2252182,Bjertparken,7830,36,8.7794972,56.4718487
2252183,Bjertparken,7830,38,8.779837,56.471799
2252184,Bjertparken,7830,40,8.77973,56.472181
2252185,Bjertparken,7830,42,8.779252,56.472269
2252186,Bjertparken,7830,44,8.778835,56.472356
2252187,Bjertparken,7830,46,8.778552,56.472548
2252195,Hasselholtvej,7830,21A,8.814131,56.484529
2252203,Nørre Bjertvej,7830,9B,8.764475,56.474787
2252205,Sevelvej,7830,20A,8.7813327,56.4790969
2252213,Vesterled,7830,10,8.868411,56.457461
