idx,street,postcode,housenumber,lon,lat
435074,Agatvej,8541,1,10.296737,56.258796
435075,Agatvej,8541,2,10.296949,56.25843
435076,Agatvej,8541,3,10.296984,56.258893
435077,Agatvej,8541,4,10.297259,56.258575
435078,Agatvej,8541,5,10.297259,56.259016
435079,Agatvej,8541,6,10.297489,56.258681
435080,Agatvej,8541,7,10.297478,56.259193
435081,Agatvej,8541,8,10.297738,56.258858
435082,Agatvej,8541,9,10.297705,56.259366
435083,Agatvej,8541,10,10.297902,56.258991
435084,Agatvej,8541,11,10.297912,56.25953
435085,Agatvej,8541,12,10.2981,56.259164
435086,Agatvej,8541,14,10.298358,56.259305
435087,Agatvej,8541,16,10.298573,56.259514
435733,Ametystvej,8541,1,10.295706,56.259962
435734,Ametystvej,8541,3,10.295537,56.260161
435735,Ametystvej,8541,4,10.296159,56.259661
435736,Ametystvej,8541,5,10.295902,56.260261
435737,Ametystvej,8541,6,10.296469,56.259716
435738,Ametystvej,8541,7,10.296088,56.26003
435739,Ametystvej,8541,8,10.296877,56.259779
435740,Ametystvej,8541,9,10.296421,56.259999
435741,Ametystvej,8541,10,10.297389,56.259684
435742,Ametystvej,8541,11,10.296276,56.260311
435743,Ametystvej,8541,12,10.297508,56.259867
435744,Ametystvej,8541,13,10.29662,56.260384
435745,Ametystvej,8541,14,10.297925,56.259826
435746,Ametystvej,8541,15,10.296768,56.260144
435747,Ametystvej,8541,16,10.298143,56.259721
435748,Ametystvej,8541,17,10.29727,56.260206
435749,Ametystvej,8541,19,10.296984,56.260416
435750,Ametystvej,8541,21,10.297356,56.260506
435751,Ametystvej,8541,23,10.297786,56.260578
435752,Ametystvej,8541,25,10.297909,56.26037
435753,Ametystvej,8541,27,10.298051,56.260126
435754,Ametystvej,8541,29,10.298483,56.260054
435755,Ametystvej,8541,31,10.298719,56.259899
436068,Anton Mejers Vej,8541,4,10.335429,56.245262
436069,Anton Mejers Vej,8541,6,10.335858,56.245113
436070,Anton Mejers Vej,8541,12,10.336962,56.244971
436071,Anton Mejers Vej,8541,16,10.337769,56.243547
437006,Bakketoften,8541,18,10.301866,56.256698
437007,Bakketoften,8541,20,10.301559,56.256383
437270,Balle Skovvej,8541,1,10.257701,56.29652
437271,Balle Skovvej,8541,3,10.256995,56.293867
437275,Bals Mark,8541,1,10.259537,56.302301
437276,Bals Mark,8541,2,10.265001,56.305426
437277,Bals Mark,8541,3,10.259125,56.30603
437278,Bals Mark,8541,4,10.262535,56.305573
438013,Begoniavej,8541,1,10.298482,56.261573
438014,Begoniavej,8541,2,10.298976,56.261675
438015,Begoniavej,8541,3,10.298214,56.261517
438016,Begoniavej,8541,4,10.299282,56.261721
438017,Begoniavej,8541,5,10.297877,56.261444
438018,Begoniavej,8541,6,10.299563,56.261763
438019,Begoniavej,8541,7,10.297518,56.261385
438020,Begoniavej,8541,9,10.297185,56.261357
438021,Begoniavej,8541,11,10.298234,56.261899
438022,Begoniavej,8541,12,10.298716,56.26201
438023,Begoniavej,8541,13,10.298139,56.261882
438024,Begoniavej,8541,14,10.298874,56.262049
438025,Begoniavej,8541,15,10.298054,56.261869
438026,Begoniavej,8541,16,10.299018,56.262075
438027,Begoniavej,8541,17,10.297972,56.261852
438028,Begoniavej,8541,18,10.299161,56.2621
438029,Begoniavej,8541,19,10.297885,56.261839
438030,Begoniavej,8541,20,10.299303,56.26213
438031,Begoniavej,8541,21,10.297808,56.2618
438032,Begoniavej,8541,23,10.297715,56.261778
438033,Begoniavej,8541,25,10.297632,56.261766
438034,Begoniavej,8541,27,10.297545,56.261749
438035,Begoniavej,8541,29,10.297453,56.261732
438036,Begoniavej,8541,31,10.297167,56.261703
438037,Begoniavej,8541,33,10.297076,56.261686
438038,Begoniavej,8541,35,10.296991,56.261669
438039,Begoniavej,8541,37,10.296907,56.261652
438040,Begoniavej,8541,39,10.296822,56.261639
438041,Begoniavej,8541,41,10.296741,56.2616
438042,Begoniavej,8541,43,10.296662,56.261583
438043,Begoniavej,8541,45,10.296568,56.261566
438044,Begoniavej,8541,47,10.296486,56.261549
438045,Begoniavej,8541,49,10.296403,56.261532
438085,Bendstrupvej,8541,25,10.262145,56.278459
438087,Bendstrupvej,8541,37,10.26677,56.276781
438088,Bendstrupvej,8541,45,10.269449,56.27705
438089,Bendstrupvej,8541,51,10.270412,56.277427
438090,Bendstrupvej,8541,52,10.269461,56.276093
438091,Bendstrupvej,8541,63,10.271764,56.276007
438092,Bendstrupvej,8541,74,10.274769,56.275059
438093,Bendstrupvej,8541,75,10.275327,56.275592
438094,Bendstrupvej,8541,76,10.274866,56.274757
438095,Bendstrupvej,8541,81,10.2752,56.278773
438096,Bendstrupvej,8541,83,10.277222,56.278471
438097,Bendstrupvej,8541,92,10.279964,56.2755
438098,Bendstrupvej,8541,105,10.280191,56.279631
438099,Bendstrupvej,8541,115,10.284906,56.276531
438100,Bendstrupvej,8541,118,10.29227,56.278014
438101,Bendstrupvej,8541,120,10.293403,56.278267
438117,Berberisvej,8541,4,10.309283,56.273405
438118,Berberisvej,8541,8,10.309636,56.273752
438119,Berberisvej,8541,10,10.309865,56.27396
438120,Berberisvej,8541,12,10.310107,56.27412
438121,Berberisvej,8541,14,10.310273,56.274293
438122,Berberisvej,8541,16,10.310465,56.27448
438123,Berberisvej,8541,17,10.310173,56.275035
438124,Berberisvej,8541,18,10.310697,56.274657
438125,Berberisvej,8541,19,10.310178,56.275309
438126,Berberisvej,8541,19A,10.310553,56.275211
438127,Berberisvej,8541,20,10.311316,56.275145
438128,Berberisvej,8541,21,10.310615,56.275467
438129,Berberisvej,8541,22,10.311446,56.275368
438130,Berberisvej,8541,24,10.311577,56.275591
439344,Blishønevej,8541,1,10.345744,56.255371
439345,Blishønevej,8541,2,10.345473,56.255684
439346,Blishønevej,8541,3,10.345297,56.255353
439347,Blishønevej,8541,4,10.345143,56.255643
439348,Blishønevej,8541,5,10.34491,56.255304
439349,Blishønevej,8541,6,10.344776,56.255606
439350,Blishønevej,8541,7,10.344383,56.25526
439351,Blishønevej,8541,8,10.344328,56.255544
439352,Blishønevej,8541,9,10.343998,56.255237
439353,Blishønevej,8541,10,10.343911,56.255521
439354,Blishønevej,8541,11,10.343561,56.255148
439355,Blishønevej,8541,12,10.343329,56.255465
439356,Blishønevej,8541,14,10.34299,56.25545
439789,Bondehaven,8541,4,10.302975,56.267272
439790,Bondehaven,8541,5A,10.303042,56.264454
439791,Bondehaven,8541,5B,10.30319,56.264619
439792,Bondehaven,8541,5C,10.303308,56.264815
439793,Bondehaven,8541,5D,10.303644,56.264573
439794,Bondehaven,8541,7A,10.304089,56.264304
439795,Bondehaven,8541,7B,10.303731,56.264339
439796,Bondehaven,8541,7C,10.303564,56.264143
439797,Bondehaven,8541,7D,10.303442,56.263906
439798,Bondehaven,8541,8,10.299938,56.261508
439799,Bondehaven,8541,9A,10.303935,56.263901
439800,Bondehaven,8541,9B,10.304299,56.263978
439801,Bondehaven,8541,9E,10.304326,56.263618
439802,Bondehaven,8541,9F,10.303964,56.263604
439803,Bondehaven,8541,9G,10.303668,56.263558
439804,Bondehaven,8541,10,10.299929,56.261746
439805,Bondehaven,8541,11A,10.303298,56.26349
439806,Bondehaven,8541,11B,10.302824,56.263535
439807,Bondehaven,8541,11C,10.302797,56.263742
439808,Bondehaven,8541,11D,10.302865,56.263948
439809,Bondehaven,8541,11E,10.302915,56.26415
439810,Bondehaven,8541,12,10.300325,56.261751
439811,Bondehaven,8541,14,10.300607,56.262031
439812,Bondehaven,8541,16,10.29954,56.261413
439813,Bondehaven,8541,17,10.302052,56.262222
439814,Bondehaven,8541,18,10.299164,56.261341
439815,Bondehaven,8541,19A,10.301277,56.261665
439816,Bondehaven,8541,19B,10.301407,56.261749
439817,Bondehaven,8541,19C,10.301856,56.261811
439818,Bondehaven,8541,20,10.298701,56.261224
439819,Bondehaven,8541,21,10.302084,56.261548
439820,Bondehaven,8541,22,10.298323,56.261233
439821,Bondehaven,8541,23,10.301734,56.261476
439822,Bondehaven,8541,24,10.298053,56.261132
439823,Bondehaven,8541,25,10.301435,56.26142
439824,Bondehaven,8541,26,10.297685,56.261051
439825,Bondehaven,8541,27,10.301183,56.261324
439826,Bondehaven,8541,28,10.297382,56.26096
439827,Bondehaven,8541,29,10.300926,56.261286
439828,Bondehaven,8541,30,10.296985,56.260982
439829,Bondehaven,8541,32,10.296733,56.260886
439830,Bondehaven,8541,33,10.293935,56.259989
439831,Bondehaven,8541,34,10.296245,56.260765
439832,Bondehaven,8541,35,10.293311,56.259875
439833,Bondehaven,8541,36,10.295856,56.260764
439834,Bondehaven,8541,38,10.295575,56.260642
439835,Bondehaven,8541,40,10.29519,56.260646
439836,Bondehaven,8541,42,10.294904,56.260523
439837,Bondehaven,8541,44,10.294521,56.260518
439838,Bondehaven,8541,46,10.294242,56.260395
439839,Bondehaven,8541,48,10.293863,56.260381
439840,Bondehaven,8541,50,10.293421,56.260251
439841,Bondehaven,8541,52,10.293048,56.260241
443196,Bøgehøj,8541,1,10.314539,56.282681
443197,Bøgehøj,8541,2,10.315455,56.28259
443198,Bøgehøj,8541,4,10.323193,56.283483
443199,Bøgehøj,8541,5,10.314517,56.283508
443200,Bøgehøj,8541,7,10.314055,56.283764
443201,Bøgehøj,8541,9,10.31425,56.283798
444510,Ceresvej,8541,1B,10.317297,56.278945
444511,Ceresvej,8541,1C,10.317484,56.279212
444512,Ceresvej,8541,2,10.317878,56.279078
444513,Ceresvej,8541,3,10.317777,56.27934
444514,Ceresvej,8541,4,10.318062,56.279274
444817,Christiansminde,8541,1,10.30253,56.269105
444818,Christiansminde,8541,2,10.302653,56.268838
444819,Christiansminde,8541,3,10.303103,56.269265
444820,Christiansminde,8541,4,10.3031,56.268838
444821,Christiansminde,8541,5,10.303112,56.269431
444822,Christiansminde,8541,6,10.303049,56.268583
444823,Christiansminde,8541,7,10.303657,56.269574
444824,Christiansminde,8541,8,10.303638,56.268599
444825,Christiansminde,8541,9,10.304086,56.269592
444826,Christiansminde,8541,10,10.303744,56.268778
444827,Christiansminde,8541,11,10.304028,56.269336
444828,Christiansminde,8541,12,10.303693,56.268971
444829,Christiansminde,8541,13,10.303663,56.269228
445671,Den Gamle Skolesti,8541,1,10.314797,56.281752
445672,Den Gamle Skolesti,8541,3,10.314815,56.281366
445673,Den Gamle Skolesti,8541,5,10.315652,56.281514
445978,Drorupvej,8541,2,10.257726,56.295064
445979,Drorupvej,8541,4,10.258413,56.295277
446230,Edderfuglevej,8541,1,10.341386,56.259318
446231,Edderfuglevej,8541,3,10.341078,56.259353
446232,Edderfuglevej,8541,4,10.340894,56.259791
446233,Edderfuglevej,8541,5,10.340754,56.259352
446234,Edderfuglevej,8541,6,10.34055,56.259664
446235,Edderfuglevej,8541,7,10.340465,56.259323
446236,Edderfuglevej,8541,8,10.34032,56.259671
446237,Edderfuglevej,8541,9,10.340094,56.259359
446238,Edderfuglevej,8541,10,10.339948,56.25968
446239,Edderfuglevej,8541,11,10.341469,56.258904
446240,Edderfuglevej,8541,12,10.339567,56.259702
446241,Edderfuglevej,8541,13,10.34116,56.258903
446242,Edderfuglevej,8541,14,10.339214,56.25971
446243,Edderfuglevej,8541,15,10.340833,56.258938
446244,Edderfuglevej,8541,16,10.338904,56.259736
446245,Edderfuglevej,8541,16A,10.338496,56.259722
446246,Edderfuglevej,8541,17,10.340511,56.258928
446247,Edderfuglevej,8541,18,10.338167,56.259784
446248,Edderfuglevej,8541,19,10.340191,56.258927
446249,Edderfuglevej,8541,20,10.337808,56.259725
446250,Edderfuglevej,8541,21,10.33984,56.258917
446251,Edderfuglevej,8541,22,10.337401,56.25981
446252,Edderfuglevej,8541,24,10.337015,56.259815
446253,Edderfuglevej,8541,25,10.339589,56.259351
446254,Edderfuglevej,8541,27,10.339283,56.259354
446255,Edderfuglevej,8541,29,10.338939,56.259344
446256,Edderfuglevej,8541,31,10.338631,56.259325
446257,Edderfuglevej,8541,33,10.338276,56.259428
446258,Edderfuglevej,8541,35,10.337844,56.259424
446259,Edderfuglevej,8541,37,10.337452,56.259432
446922,Egevej,8541,1,10.309721,56.273131
446923,Egevej,8541,1A,10.309657,56.272938
447386,Elishøj,8541,1,10.301788,56.270555
447387,Elishøj,8541,2,10.302168,56.270128
447388,Elishøj,8541,3,10.302225,56.27042
447389,Elishøj,8541,4,10.302719,56.270186
447390,Elishøj,8541,5,10.302537,56.270435
447391,Elishøj,8541,6,10.302753,56.269821
447392,Elishøj,8541,7,10.302851,56.270508
447393,Elishøj,8541,8,10.303203,56.269866
447394,Elishøj,8541,9,10.303191,56.270531
447395,Elishøj,8541,10,10.303127,56.270195
447396,Elishøj,8541,11,10.303585,56.270558
447397,Elishøj,8541,12,10.303491,56.270186
447398,Elishøj,8541,13,10.303863,56.270609
447399,Elishøj,8541,14,10.303606,56.269862
447400,Elishøj,8541,15,10.304298,56.270623
447401,Elishøj,8541,16,10.303968,56.269934
447402,Elishøj,8541,17,10.304502,56.270728
447403,Elishøj,8541,18,10.303909,56.270267
447404,Elishøj,8541,19,10.304853,56.270756
447405,Elishøj,8541,20,10.304216,56.270269
447406,Elishøj,8541,22,10.304295,56.269958
447407,Elishøj,8541,24,10.30458,56.27031
447921,Elmely,8541,3,10.30788,56.267409
447922,Elmely,8541,4,10.308088,56.266589
447923,Elmely,8541,5,10.308238,56.267342
447924,Elmely,8541,6,10.307835,56.267099
447925,Elmely,8541,8,10.308129,56.267055
447926,Elmely,8541,10,10.308456,56.266994
449401,Engskovbakken,8541,1,10.307692,56.257976
449402,Engskovbakken,8541,2,10.304914,56.257924
449403,Engskovbakken,8541,4,10.305003,56.257937
449404,Engskovbakken,8541,6,10.305086,56.257945
449405,Engskovbakken,8541,7,10.308091,56.258255
449406,Engskovbakken,8541,8,10.305178,56.257953
449407,Engskovbakken,8541,9,10.308228,56.258267
449408,Engskovbakken,8541,10,10.305317,56.257965
449409,Engskovbakken,8541,11,10.308276,56.258293
449410,Engskovbakken,8541,12,10.305415,56.257977
449411,Engskovbakken,8541,13,10.308357,56.25827
449412,Engskovbakken,8541,14,10.305515,56.257985
449413,Engskovbakken,8541,15,10.30851,56.258264
449414,Engskovbakken,8541,16,10.30474,56.257688
449415,Engskovbakken,8541,17,10.30863,56.258253
449416,Engskovbakken,8541,18,10.304828,56.257696
449417,Engskovbakken,8541,19,10.308684,56.258271
449418,Engskovbakken,8541,20,10.304894,56.257722
449419,Engskovbakken,8541,21,10.308725,56.258234
449420,Engskovbakken,8541,22,10.30495,56.257708
449421,Engskovbakken,8541,23,10.308814,56.258234
449422,Engskovbakken,8541,24,10.305042,56.257716
449423,Engskovbakken,8541,25,10.308922,56.258246
449424,Engskovbakken,8541,26,10.305146,56.257729
449425,Engskovbakken,8541,27,10.308957,56.258214
449426,Engskovbakken,8541,28,10.305217,56.257755
449427,Engskovbakken,8541,29,10.309093,56.258204
449428,Engskovbakken,8541,30,10.305294,56.257741
449429,Engskovbakken,8541,31,10.309042,56.258227
449430,Engskovbakken,8541,32,10.305416,56.257753
449431,Engskovbakken,8541,33,10.309224,56.258189
449432,Engskovbakken,8541,34,10.305445,56.257775
449433,Engskovbakken,8541,35,10.309317,56.258174
449434,Engskovbakken,8541,36,10.305535,56.257765
449435,Engskovbakken,8541,37,10.309271,56.258202
449436,Engskovbakken,8541,38,10.304754,56.257526
449437,Engskovbakken,8541,39,10.309412,56.258169
449438,Engskovbakken,8541,40,10.304847,56.257534
449439,Engskovbakken,8541,41,10.309946,56.25819
449440,Engskovbakken,8541,42,10.304924,56.257547
449441,Engskovbakken,8541,43,10.309899,56.258155
449442,Engskovbakken,8541,44,10.305008,56.257555
449443,Engskovbakken,8541,45,10.309854,56.258115
449444,Engskovbakken,8541,46,10.305088,56.257559
449445,Engskovbakken,8541,47,10.309986,56.258172
449446,Engskovbakken,8541,48,10.305174,56.257571
449447,Engskovbakken,8541,49,10.309951,56.258141
449448,Engskovbakken,8541,50,10.305266,56.257579
449449,Engskovbakken,8541,51,10.309905,56.258101
449450,Engskovbakken,8541,52,10.305347,56.257587
449451,Engskovbakken,8541,53,10.309804,56.25807
449452,Engskovbakken,8541,54,10.304767,56.257499
449453,Engskovbakken,8541,55,10.309741,56.258022
449454,Engskovbakken,8541,56,10.304856,56.257512
449455,Engskovbakken,8541,57,10.309688,56.257973
449456,Engskovbakken,8541,58,10.304937,56.25752
449457,Engskovbakken,8541,59,10.309615,56.257924
449458,Engskovbakken,8541,60,10.305016,56.257528
449459,Engskovbakken,8541,61,10.309574,56.257889
449460,Engskovbakken,8541,62,10.305101,56.257536
449461,Engskovbakken,8541,63,10.309528,56.257844
449462,Engskovbakken,8541,64,10.305188,56.257544
449463,Engskovbakken,8541,65,10.310329,56.258038
449464,Engskovbakken,8541,66,10.305277,56.257552
449465,Engskovbakken,8541,67,10.310286,56.257998
449466,Engskovbakken,8541,68,10.305357,56.257556
449467,Engskovbakken,8541,69,10.310244,56.257976
449468,Engskovbakken,8541,70,10.305939,56.257806
449469,Engskovbakken,8541,71,10.310201,56.257936
449470,Engskovbakken,8541,72,10.306046,56.257818
449471,Engskovbakken,8541,73,10.310127,56.257883
449472,Engskovbakken,8541,74,10.306094,56.25784
449473,Engskovbakken,8541,75,10.310093,56.257856
449474,Engskovbakken,8541,76,10.306159,56.257826
449475,Engskovbakken,8541,77,10.31005,56.257825
449476,Engskovbakken,8541,78,10.306271,56.257838
449477,Engskovbakken,8541,79,10.309975,56.257754
449478,Engskovbakken,8541,80,10.306329,56.25786
449479,Engskovbakken,8541,81,10.309986,56.257803
449480,Engskovbakken,8541,82,10.306405,56.25785
449481,Engskovbakken,8541,83,10.3094,56.257738
449482,Engskovbakken,8541,84,10.306499,56.257858
449483,Engskovbakken,8541,85,10.309347,56.257693
449484,Engskovbakken,8541,86,10.306551,56.257885
449485,Engskovbakken,8541,87,10.309294,56.257653
449486,Engskovbakken,8541,88,10.306626,56.257875
449487,Engskovbakken,8541,89,10.30924,56.257605
449488,Engskovbakken,8541,90,10.305789,56.258009
449489,Engskovbakken,8541,91,10.309186,56.25756
449490,Engskovbakken,8541,92,10.305887,56.258017
449491,Engskovbakken,8541,93,10.309127,56.257511
449492,Engskovbakken,8541,94,10.305984,56.25803
449493,Engskovbakken,8541,95,10.30906,56.257458
449494,Engskovbakken,8541,96,10.306066,56.258038
449495,Engskovbakken,8541,97,10.309007,56.257414
449496,Engskovbakken,8541,98,10.306144,56.258046
449497,Engskovbakken,8541,99,10.30895,56.257369
449498,Engskovbakken,8541,100,10.306275,56.258058
449499,Engskovbakken,8541,101,10.309726,56.25755
449500,Engskovbakken,8541,102,10.306364,56.258071
449501,Engskovbakken,8541,103,10.309656,56.257501
449502,Engskovbakken,8541,104,10.306453,56.258079
449503,Engskovbakken,8541,105,10.309635,56.257479
449504,Engskovbakken,8541,106,10.306545,56.258087
449505,Engskovbakken,8541,107,10.30959,56.257448
449506,Engskovbakken,8541,108,10.30663,56.258095
449507,Engskovbakken,8541,109,10.309538,56.257408
449508,Engskovbakken,8541,110,10.306895,56.258128
449509,Engskovbakken,8541,111,10.309514,56.257386
449510,Engskovbakken,8541,112,10.306999,56.258136
449511,Engskovbakken,8541,113,10.309434,56.257324
449512,Engskovbakken,8541,114,10.307071,56.258153
449513,Engskovbakken,8541,115,10.30937,56.257271
449514,Engskovbakken,8541,116,10.307146,56.258161
449515,Engskovbakken,8541,117,10.309346,56.257248
449516,Engskovbakken,8541,118,10.307218,56.258156
449517,Engskovbakken,8541,119,10.309274,56.257182
449518,Engskovbakken,8541,120,10.307321,56.258168
449519,Engskovbakken,8541,121,10.308686,56.257278
449520,Engskovbakken,8541,122,10.307249,56.257963
449521,Engskovbakken,8541,123,10.308562,56.257261
449522,Engskovbakken,8541,124,10.307214,56.257913
449523,Engskovbakken,8541,125,10.30848,56.257253
449524,Engskovbakken,8541,126,10.307283,56.257877
449525,Engskovbakken,8541,127,10.308405,56.257245
449526,Engskovbakken,8541,128,10.307247,56.257823
449527,Engskovbakken,8541,129,10.308325,56.257237
449528,Engskovbakken,8541,130,10.307303,56.257782
449529,Engskovbakken,8541,131,10.308227,56.257224
449530,Engskovbakken,8541,132,10.307267,56.257729
449531,Engskovbakken,8541,133,10.308882,56.257038
449532,Engskovbakken,8541,134,10.307334,56.257692
449533,Engskovbakken,8541,135,10.308761,56.257035
449534,Engskovbakken,8541,136,10.307303,56.257647
449535,Engskovbakken,8541,137,10.308771,56.257007
449536,Engskovbakken,8541,138,10.307353,56.257607
449537,Engskovbakken,8541,139,10.308614,56.257018
449538,Engskovbakken,8541,140,10.307318,56.257553
449539,Engskovbakken,8541,141,10.308632,56.256995
449540,Engskovbakken,8541,142,10.307389,56.257525
449541,Engskovbakken,8541,143,10.308448,56.257006
449542,Engskovbakken,8541,145,10.308457,56.256975
449543,Engskovbakken,8541,147,10.308306,56.25699
449544,Engskovbakken,8541,149,10.308313,56.256967
449545,Engskovbakken,8541,151,10.308193,56.256969
449546,Engskovbakken,8541,153,10.307889,56.257273
449547,Engskovbakken,8541,155,10.30779,56.257305
449548,Engskovbakken,8541,157,10.307725,56.257329
449549,Engskovbakken,8541,159,10.307661,56.257352
449550,Engskovbakken,8541,161,10.307598,56.257375
449551,Engskovbakken,8541,163,10.307503,56.257412
449552,Engskovbakken,8541,165,10.307797,56.257022
449553,Engskovbakken,8541,167,10.307698,56.257077
449554,Engskovbakken,8541,169,10.30767,56.257051
449555,Engskovbakken,8541,171,10.307573,56.257123
449556,Engskovbakken,8541,173,10.307536,56.257101
449557,Engskovbakken,8541,175,10.307437,56.257152
449558,Engskovvej,8541,1,10.311586,56.262773
449559,Engskovvej,8541,2,10.309815,56.261664
449560,Engskovvej,8541,4,10.309716,56.261665
449561,Engskovvej,8541,6,10.309597,56.261667
449562,Engskovvej,8541,8,10.309475,56.261672
449563,Engskovvej,8541,10,10.309379,56.261673
449564,Engskovvej,8541,12,10.309264,56.261688
449565,Engskovvej,8541,14,10.309158,56.261689
449566,Engskovvej,8541,16A,10.308889,56.261688
449567,Engskovvej,8541,16B,10.308882,56.261634
449568,Engskovvej,8541,16C,10.30888,56.261562
449569,Engskovvej,8541,18A,10.309043,56.261488
449570,Engskovvej,8541,18B,10.309038,56.261439
449571,Engskovvej,8541,18C,10.309038,56.261367
449572,Engskovvej,8541,20,10.309322,56.261369
449573,Engskovvej,8541,22,10.309541,56.261371
449574,Engskovvej,8541,23,10.312862,56.260675
449575,Engskovvej,8541,24A,10.309826,56.261368
449576,Engskovvej,8541,24B,10.309822,56.261471
449577,Engskovvej,8541,25,10.313354,56.260755
449578,Engskovvej,8541,26,10.311312,56.261064
449579,Engskovvej,8541,27,10.313739,56.26058
449580,Engskovvej,8541,28,10.31131,56.261141
449581,Engskovvej,8541,29,10.31409,56.260617
449582,Engskovvej,8541,30,10.311311,56.261231
449583,Engskovvej,8541,31,10.314398,56.260609
449584,Engskovvej,8541,32,10.31115,56.261381
449585,Engskovvej,8541,34,10.311144,56.261516
449586,Engskovvej,8541,35,10.314396,56.260344
449587,Engskovvej,8541,36,10.310876,56.261568
449588,Engskovvej,8541,37,10.31433,56.260102
449589,Engskovvej,8541,38,10.310668,56.261565
449590,Engskovvej,8541,39,10.313896,56.260228
449591,Engskovvej,8541,40,10.310406,56.261514
449592,Engskovvej,8541,41,10.313607,56.260321
449593,Engskovvej,8541,42,10.310407,56.26138
449594,Engskovvej,8541,43,10.313223,56.260334
449595,Engskovvej,8541,44,10.310287,56.260967
449596,Engskovvej,8541,45,10.313529,56.259895
449597,Engskovvej,8541,46,10.310495,56.26097
449598,Engskovvej,8541,47,10.31508,56.258172
449599,Engskovvej,8541,48,10.310648,56.260964
449600,Engskovvej,8541,50,10.310836,56.260962
449601,Engskovvej,8541,52,10.310974,56.260965
449602,Engskovvej,8541,54,10.311122,56.260968
449603,Engskovvej,8541,56,10.311311,56.260961
449604,Engskovvej,8541,58,10.312283,56.260596
449605,Engskovgård,8541,2,10.307955,56.25999
449606,Engskovgård,8541,6,10.306594,56.260023
449607,Engskovgård,8541,8,10.306638,56.260085
449608,Engskovgård,8541,10,10.30667,56.26013
449609,Engskovgård,8541,12,10.306704,56.260179
449610,Engskovgård,8541,14,10.306739,56.260232
449611,Engskovgård,8541,16,10.306775,56.260286
449612,Engskovgård,8541,18,10.30679,56.260358
449613,Engskovgård,8541,20,10.306829,56.260411
449614,Engskovgård,8541,22,10.306878,56.260455
449615,Engskovgård,8541,24,10.306948,56.260571
449616,Engskovgård,8541,26,10.307129,56.260529
449617,Engskovgård,8541,28,10.307258,56.260519
449618,Engskovgård,8541,30,10.307349,56.260513
449619,Engskovgård,8541,32,10.307452,56.260503
449620,Engskovgård,8541,34,10.307545,56.260498
449621,Engskovgård,8541,36,10.307643,56.260488
449622,Engskovgård,8541,38,10.307735,56.260482
449623,Engskovgård,8541,40,10.30783,56.260477
449624,Engskovgård,8541,42,10.307932,56.260471
449625,Engskovgård,8541,44,10.308058,56.260461
449626,Engskovgård,8541,46,10.308158,56.260455
449627,Engskovgård,8541,48,10.308345,56.260548
449628,Engskovgård,8541,50,10.308506,56.26056
449629,Engskovgård,8541,52,10.308497,56.260362
449630,Engskovgård,8541,54,10.308584,56.260298
449631,Engskovgård,8541,56,10.308709,56.26018
449632,Engskovgård,8541,58,10.308791,56.260116
449633,Engskovgård,8541,60,10.309039,56.260037
449634,Engskovgård,8541,62,10.309204,56.260049
449635,Engskovgård,8541,64,10.309419,56.26006
449636,Engskovgård,8541,66,10.309587,56.260072
449637,Engskovgård,8541,68,10.309513,56.260383
449638,Engskovgård,8541,70,10.309325,56.260362
449639,Engskovgård,8541,72,10.309109,56.26032
449640,Engskovgård,8541,74,10.308911,56.260596
449641,Engskovgård,8541,76,10.309052,56.260603
449642,Engskovgård,8541,78,10.309304,56.260618
449643,Engskovgård,8541,80,10.309468,56.26063
449644,Engskovgård,8541,82,10.309695,56.260637
449645,Engskovgård,8541,84,10.30982,56.260644
449646,Engskovgård,8541,86,10.309957,56.260656
449647,Engskovgård,8541,88,10.310212,56.260667
449648,Engskovgård,8541,90,10.31034,56.260675
449649,Engskovgård,8541,92,10.310478,56.260682
449650,Engskovgård,8541,94,10.310611,56.260681
449651,Engskovgård,8541,96,10.310583,56.260538
449652,Engskovgård,8541,98,10.31057,56.260466
449653,Engskovgård,8541,106,10.309779,56.260326
449654,Engskovgård,8541,108,10.309914,56.260324
449655,Engskovgård,8541,110,10.310063,56.260318
449656,Engskovgård,8541,112,10.310548,56.260345
449657,Engskovgård,8541,114,10.310521,56.260273
449658,Engskovgård,8541,116,10.310497,56.260206
449659,Engskovgård,8541,118,10.310484,56.260139
449660,Engskovgård,8541,120,10.309819,56.260168
449661,Engskovgård,8541,122,10.309957,56.260167
449662,Engskovgård,8541,124,10.310102,56.260156
449663,Engskovgård,8541,126,10.309857,56.260015
449664,Engskovgård,8541,128,10.309993,56.26
449665,Engskovgård,8541,130,10.310149,56.25999
449666,Engskovgård,8541,132,10.310331,56.259934
449667,Engskovgård,8541,134,10.310495,56.259914
449718,Engskovtoften,8541,1,10.306741,56.259635
449719,Engskovtoften,8541,2,10.30599,56.259467
449720,Engskovtoften,8541,3,10.307166,56.259558
449721,Engskovtoften,8541,4,10.305914,56.259275
449722,Engskovtoften,8541,5,10.307577,56.259442
449723,Engskovtoften,8541,6,10.305878,56.258965
449724,Engskovtoften,8541,7,10.308047,56.259347
449725,Engskovtoften,8541,8,10.305742,56.258778
449726,Engskovtoften,8541,9,10.308317,56.259339
449727,Engskovtoften,8541,10,10.305728,56.258545
449728,Engskovtoften,8541,11,10.308783,56.259177
449729,Engskovtoften,8541,12,10.306252,56.25858
449730,Engskovtoften,8541,13,10.309134,56.259097
449731,Engskovtoften,8541,14,10.306678,56.258593
449732,Engskovtoften,8541,15,10.309702,56.259064
449733,Engskovtoften,8541,16,10.307204,56.258641
449734,Engskovtoften,8541,17,10.310066,56.259069
449735,Engskovtoften,8541,18,10.307732,56.258712
449736,Engskovtoften,8541,19,10.310447,56.258845
449737,Engskovtoften,8541,20,10.308034,56.258821
449738,Engskovtoften,8541,21,10.310363,56.258626
449739,Engskovtoften,8541,22,10.307009,56.259043
449740,Engskovtoften,8541,24,10.306772,56.258884
449741,Engskovtoften,8541,26,10.306329,56.258875
449742,Engskovtoften,8541,28,10.306474,56.25908
449743,Engskovtoften,8541,30,10.306555,56.259286
449744,Engskovtoften,8541,32,10.307035,56.259245
449745,Engskovtoften,8541,34,10.308197,56.259049
449746,Engskovtoften,8541,36,10.308592,56.258955
449747,Engskovtoften,8541,38,10.308413,56.258714
449748,Engskovtoften,8541,40,10.308952,56.258641
449749,Engskovtoften,8541,42,10.309117,56.258873
449750,Engskovtoften,8541,44,10.309549,56.258769
451957,Fresiavej,8541,1,10.305774,56.266218
451958,Fresiavej,8541,3,10.305346,56.266218
451959,Fresiavej,8541,4,10.30568,56.26656
451960,Fresiavej,8541,5,10.304936,56.266173
451961,Fresiavej,8541,6,10.305225,56.266569
451962,Fresiavej,8541,7,10.304559,56.266127
451963,Fresiavej,8541,8,10.304869,56.266542
451964,Fresiavej,8541,10,10.304531,56.266491
451965,Fresiavej,8541,12,10.304107,56.266455
452107,Fruensbakke,8541,1,10.319145,56.276023
452108,Fruensbakke,8541,2,10.319237,56.27582
452109,Fruensbakke,8541,3,10.319112,56.276077
452110,Fruensbakke,8541,4,10.319259,56.27577
452111,Fruensbakke,8541,5,10.319095,56.276122
452112,Fruensbakke,8541,6,10.319281,56.27572
452113,Fruensbakke,8541,7,10.31907,56.276167
452114,Fruensbakke,8541,8,10.319306,56.275675
452115,Fruensbakke,8541,9,10.319058,56.276222
452116,Fruensbakke,8541,10,10.319597,56.275488
452117,Fruensbakke,8541,11,10.319033,56.276262
452118,Fruensbakke,8541,12,10.319676,56.275492
452119,Fruensbakke,8541,13,10.319682,56.2763
452120,Fruensbakke,8541,14,10.319775,56.275468
452121,Fruensbakke,8541,15,10.319707,56.27626
452122,Fruensbakke,8541,16,10.319864,56.275467
452123,Fruensbakke,8541,17,10.319733,56.27621
452124,Fruensbakke,8541,18,10.319947,56.275471
452125,Fruensbakke,8541,19,10.319758,56.276156
452126,Fruensbakke,8541,20,10.32004,56.27547
452127,Fruensbakke,8541,21,10.319763,56.276012
452128,Fruensbakke,8541,22,10.320281,56.275476
452129,Fruensbakke,8541,23,10.319823,56.275845
452130,Fruensbakke,8541,24,10.320378,56.27548
452131,Fruensbakke,8541,25,10.319909,56.275849
452132,Fruensbakke,8541,26,10.320463,56.275452
452133,Fruensbakke,8541,27,10.320004,56.275825
452134,Fruensbakke,8541,28,10.320549,56.275455
452135,Fruensbakke,8541,29,10.320103,56.275824
452136,Fruensbakke,8541,30,10.320629,56.275459
452137,Fruensbakke,8541,31,10.320277,56.275827
452138,Fruensbakke,8541,32,10.320724,56.275458
452139,Fruensbakke,8541,32A,10.321193,56.275368
452140,Fruensbakke,8541,33,10.320357,56.27583
452141,Fruensbakke,8541,34,10.321013,56.275549
452142,Fruensbakke,8541,35,10.320453,56.275834
452143,Fruensbakke,8541,36,10.321068,56.275594
452144,Fruensbakke,8541,37,10.320545,56.275837
452145,Fruensbakke,8541,38,10.32112,56.275633
452146,Fruensbakke,8541,39,10.320739,56.275912
452147,Fruensbakke,8541,40,10.321176,56.275673
452148,Fruensbakke,8541,41,10.320788,56.275956
452149,Fruensbakke,8541,42,10.321286,56.275762
452150,Fruensbakke,8541,43,10.320838,56.275996
452151,Fruensbakke,8541,44,10.321335,56.275797
452152,Fruensbakke,8541,45,10.320892,56.27604
452153,Fruensbakke,8541,46,10.321389,56.275837
452154,Fruensbakke,8541,48,10.321439,56.275877
452155,Fruensbakke,8541,50,10.321494,56.275917
452156,Fruensbakke,8541,52,10.321543,56.275961
452157,Fruenshøj,8541,1,10.320167,56.276565
452737,Fyrrevænget,8541,1,10.307837,56.273883
452738,Fyrrevænget,8541,2,10.308258,56.274184
452739,Fyrrevænget,8541,3,10.30733,56.273974
452740,Fyrrevænget,8541,4,10.308612,56.274508
452741,Fyrrevænget,8541,5,10.306658,56.273972
452742,Fyrrevænget,8541,6,10.308788,56.274776
452743,Fyrrevænget,8541,7,10.306035,56.273951
452744,Fyrrevænget,8541,8,10.308379,56.274731
452745,Fyrrevænget,8541,9,10.305571,56.273983
452746,Fyrrevænget,8541,10,10.308013,56.274546
452747,Fyrrevænget,8541,11,10.305021,56.274052
452748,Fyrrevænget,8541,12,10.307717,56.274307
452749,Fyrrevænget,8541,14,10.306996,56.274292
452750,Fyrrevænget,8541,16,10.306346,56.274299
452751,Fyrrevænget,8541,18,10.306068,56.274288
452752,Fyrrevænget,8541,20,10.305596,56.274271
453325,Gartnerhaven,8541,1,10.306339,56.263557
453326,Gartnerhaven,8541,3,10.305923,56.263516
453327,Gartnerhaven,8541,4,10.306979,56.263914
453328,Gartnerhaven,8541,5,10.305889,56.263961
453329,Gartnerhaven,8541,5A,10.305471,56.263539
453330,Gartnerhaven,8541,5B,10.305698,56.263775
453331,Gartnerhaven,8541,7,10.306357,56.263812
453332,Gartnerhaven,8541,8,10.307442,56.264048
453333,Gartnerhaven,8541,9,10.30642,56.263983
453334,Gartnerhaven,8541,11,10.306238,56.264178
453335,Gartnerhaven,8541,13,10.305672,56.264624
453336,Gartnerhaven,8541,22,10.306374,56.265115
453337,Gartnerhaven,8541,24,10.305773,56.265081
453338,Gartnerhaven,8541,25,10.304645,56.263808
453339,Gartnerhaven,8541,26,10.305607,56.265307
453340,Gartnerhaven,8541,27,10.304934,56.264456
453341,Gartnerhaven,8541,29,10.30515,56.264598
453342,Gartnerhaven,8541,31,10.305293,56.2647
453343,Gartnerhaven,8541,33,10.305433,56.264802
453344,Gartnerhaven,8541,35,10.305061,56.265089
453345,Gartnerhaven,8541,36,10.304704,56.265977
453346,Gartnerhaven,8541,37,10.305206,56.264984
453347,Gartnerhaven,8541,39,10.304881,56.264848
453348,Gartnerhaven,8541,41,10.304425,56.264835
453349,Gartnerhaven,8541,43,10.304599,56.264721
453350,Gartnerhaven,8541,45,10.304162,56.264617
453351,Gartnerhaven,8541,47,10.304038,56.264722
453352,Gartnerhaven,8541,49,10.303897,56.264804
453353,Gartnerhaven,8541,51,10.303758,56.2649
453354,Gartnerhaven,8541,53,10.304109,56.264959
453355,Gartnerhaven,8541,55,10.304273,56.265039
453356,Gartnerhaven,8541,57,10.304438,56.265122
453357,Gartnerhaven,8541,59,10.304602,56.265201
453358,Gartnerhaven,8541,61,10.304752,56.265317
453359,Gartnerhaven,8541,63,10.304295,56.265672
453360,Gartnerhaven,8541,65,10.304445,56.265576
453361,Gartnerhaven,8541,67,10.304562,56.265489
453362,Gartnerhaven,8541,69,10.304231,56.265367
453363,Gartnerhaven,8541,71,10.304055,56.265288
453364,Gartnerhaven,8541,73,10.303873,56.265213
453365,Gartnerhaven,8541,103,10.303728,56.266105
454031,Grankoglevej,8541,1,10.313346,56.27506
454032,Grankoglevej,8541,3,10.31302,56.275167
454033,Grankoglevej,8541,4,10.313574,56.275601
454034,Grankoglevej,8541,5,10.313048,56.275562
454035,Grankoglevej,8541,6,10.313586,56.275714
454036,Grankoglevej,8541,7,10.31307,56.275912
454037,Grankoglevej,8541,8,10.313603,56.275902
454038,Grankoglevej,8541,9,10.313032,56.276137
454039,Grankoglevej,8541,10,10.313625,56.276176
454040,Grankrogen,8541,1A,10.312491,56.275222
454041,Grankrogen,8541,1B,10.312246,56.275346
454042,Grankrogen,8541,2,10.312559,56.275738
454043,Grankrogen,8541,3,10.312115,56.275585
454044,Grankrogen,8541,4,10.312274,56.275912
454045,Grankrogen,8541,6,10.31202,56.276108
454046,Grankrogen,8541,7,10.310847,56.275689
454047,Grankrogen,8541,9,10.310448,56.275711
454048,Grankrogen,8541,10,10.311302,56.276075
454049,Grankrogen,8541,12,10.311044,56.276104
454050,Grankrogen,8541,14,10.310579,56.276114
454051,Grankrogen,8541,16,10.310571,56.275916
454204,Grenåvej,8541,631A,10.299232,56.252701
454205,Grenåvej,8541,631B,10.299718,56.253324
454206,Grenåvej,8541,631K,10.300041,56.252499
454207,Grenåvej,8541,637,10.29901,56.255214
454208,Grenåvej,8541,641,10.303001,56.259508
454209,Grenåvej,8541,644,10.30495,56.258292
454210,Grenåvej,8541,649,10.306092,56.261645
454211,Grenåvej,8541,650,10.305393,56.259312
454212,Grenåvej,8541,651,10.306397,56.261772
454213,Grenåvej,8541,653,10.306035,56.262127
454214,Grenåvej,8541,655,10.30684,56.262365
454215,Grenåvej,8541,657,10.307085,56.262623
454216,Grenåvej,8541,660,10.306697,56.261064
454217,Grenåvej,8541,661,10.306602,56.262714
454218,Grenåvej,8541,662,10.306647,56.261244
454219,Grenåvej,8541,664A,10.307927,56.261298
454220,Grenåvej,8541,664B,10.308154,56.261152
454221,Grenåvej,8541,664C,10.308153,56.261057
454222,Grenåvej,8541,664D,10.308268,56.260917
454223,Grenåvej,8541,664E,10.308388,56.260916
454224,Grenåvej,8541,664F,10.308529,56.260937
454225,Grenåvej,8541,664G,10.308601,56.260981
454226,Grenåvej,8541,664H,10.308636,56.261048
454227,Grenåvej,8541,664K,10.308636,56.26112
454228,Grenåvej,8541,664L,10.308629,56.26121
454229,Grenåvej,8541,664M,10.30863,56.261277
454230,Grenåvej,8541,664N,10.308617,56.261358
454231,Grenåvej,8541,664P,10.308621,56.261434
454232,Grenåvej,8541,664R,10.308246,56.261438
454233,Grenåvej,8541,664S,10.308133,56.261556
454234,Grenåvej,8541,665,10.307323,56.262944
454235,Grenåvej,8541,666,10.306891,56.261538
454236,Grenåvej,8541,667,10.307444,56.263163
454237,Grenåvej,8541,668,10.306939,56.261654
454238,Grenåvej,8541,669,10.307557,56.263328
454239,Grenåvej,8541,671,10.307614,56.263404
454240,Grenåvej,8541,674,10.30712,56.262115
454241,Grenåvej,8541,675,10.30782,56.263963
454242,Grenåvej,8541,677,10.308078,56.2641
454243,Grenåvej,8541,678,10.307812,56.263159
454244,Grenåvej,8541,679,10.308169,56.264225
454245,Grenåvej,8541,680,10.308494,56.263417
454246,Grenåvej,8541,681,10.306761,56.264783
454247,Grenåvej,8541,681B,10.307945,56.264609
454248,Grenåvej,8541,681C,10.30804,56.264783
454249,Grenåvej,8541,681D,10.307887,56.264915
454250,Grenåvej,8541,681E,10.308118,56.264917
454251,Grenåvej,8541,681F,10.308021,56.264981
454252,Grenåvej,8541,681G,10.307825,56.265028
454253,Grenåvej,8541,681H,10.307625,56.265071
454254,Grenåvej,8541,681K,10.307455,56.265099
454255,Grenåvej,8541,681L,10.307331,56.265029
454256,Grenåvej,8541,681M,10.307485,56.264852
454257,Grenåvej,8541,681N,10.307405,56.264853
454258,Grenåvej,8541,681P,10.307136,56.264815
454259,Grenåvej,8541,681R,10.30717,56.264932
454260,Grenåvej,8541,682,10.308353,56.26349
454261,Grenåvej,8541,683,10.308739,56.265773
454262,Grenåvej,8541,684,10.308087,56.263556
454263,Grenåvej,8541,686A,10.308483,56.263961
454264,Grenåvej,8541,686B,10.308589,56.263937
454265,Grenåvej,8541,686C,10.308462,56.263934
454266,Grenåvej,8541,686D,10.308573,56.26391
454267,Grenåvej,8541,686E,10.3087,56.263918
454268,Grenåvej,8541,686F,10.308674,56.263891
454269,Grenåvej,8541,687,10.308973,56.266224
454270,Grenåvej,8541,688,10.308672,56.26435
454271,Grenåvej,8541,689,10.30903,56.266412
454272,Grenåvej,8541,690,10.308737,56.264448
454273,Grenåvej,8541,691A,10.309097,56.266677
454274,Grenåvej,8541,691B,10.308825,56.26659
454275,Grenåvej,8541,692,10.309014,56.264701
454276,Grenåvej,8541,693,10.309162,56.266878
454277,Grenåvej,8541,694,10.309184,56.264928
454278,Grenåvej,8541,695,10.309358,56.2676
454279,Grenåvej,8541,697,10.309316,56.268
454280,Grenåvej,8541,698,10.309934,56.26816
454281,Grenåvej,8541,700,10.310226,56.268574
454282,Grenåvej,8541,701,10.310042,56.270697
454283,Grenåvej,8541,702,10.310923,56.270998
454284,Grenåvej,8541,703,10.310354,56.271188
454285,Grenåvej,8541,704,10.31097,56.271199
454286,Grenåvej,8541,705,10.310438,56.271506
454287,Grenåvej,8541,706,10.311172,56.271363
454288,Grenåvej,8541,708,10.31101,56.271572
454289,Grenåvej,8541,709A,10.310164,56.271971
454290,Grenåvej,8541,709B,10.310225,56.271948
454291,Grenåvej,8541,709C,10.309783,56.271661
454292,Grenåvej,8541,710,10.310927,56.271784
454293,Grenåvej,8541,711,10.310825,56.272445
454294,Grenåvej,8541,712,10.311396,56.271896
454295,Grenåvej,8541,713,10.310947,56.272615
454296,Grenåvej,8541,714,10.311282,56.272207
454297,Grenåvej,8541,715,10.311066,56.272748
454298,Grenåvej,8541,716,10.311697,56.272077
454299,Grenåvej,8541,717,10.311251,56.272899
454300,Grenåvej,8541,718,10.311612,56.272441
454301,Grenåvej,8541,719,10.311597,56.272994
454302,Grenåvej,8541,719A,10.311727,56.273177
454303,Grenåvej,8541,719B,10.311794,56.273235
454304,Grenåvej,8541,719C,10.311867,56.273297
454305,Grenåvej,8541,719D,10.311548,56.273017
454306,Grenåvej,8541,719E,10.311634,56.273084
454307,Grenåvej,8541,719F,10.311685,56.273065
454308,Grenåvej,8541,719G,10.311778,56.273149
454309,Grenåvej,8541,719H,10.311852,56.273212
454310,Grenåvej,8541,719J,10.311921,56.273274
454311,Grenåvej,8541,721,10.312071,56.273398
454312,Grenåvej,8541,723,10.312537,56.273676
454313,Grenåvej,8541,725,10.312694,56.273877
454314,Grenåvej,8541,727,10.312695,56.274061
454315,Grenåvej,8541,727A,10.312536,56.274116
454316,Grenåvej,8541,727B,10.312892,56.274198
454317,Grenåvej,8541,728,10.312714,56.273238
454318,Grenåvej,8541,729,10.312923,56.274418
454319,Grenåvej,8541,730,10.312966,56.273505
454320,Grenåvej,8541,731,10.313325,56.274638
454321,Grenåvej,8541,732,10.313205,56.273727
454322,Grenåvej,8541,733,10.313529,56.274793
454323,Grenåvej,8541,734,10.313387,56.273905
454324,Grenåvej,8541,735,10.313815,56.274889
454325,Grenåvej,8541,736,10.313744,56.27413
454326,Grenåvej,8541,737,10.314087,56.275138
454327,Grenåvej,8541,738,10.313918,56.274304
454328,Grenåvej,8541,738B,10.314456,56.274082
454329,Grenåvej,8541,738C,10.314423,56.273912
454330,Grenåvej,8541,738D,10.315002,56.273928
454331,Grenåvej,8541,739,10.314288,56.275324
454332,Grenåvej,8541,740,10.314105,56.274509
454333,Grenåvej,8541,741,10.314558,56.275492
454334,Grenåvej,8541,742,10.314614,56.274881
454335,Grenåvej,8541,742A,10.315794,56.27476
454336,Grenåvej,8541,742B,10.315555,56.274587
454337,Grenåvej,8541,742C,10.315275,56.274523
454338,Grenåvej,8541,742D,10.315116,56.274543
454339,Grenåvej,8541,743,10.31464,56.275635
454340,Grenåvej,8541,745,10.314925,56.276203
454341,Grenåvej,8541,746A,10.314822,56.275143
454342,Grenåvej,8541,746B,10.314895,56.275205
454343,Grenåvej,8541,746C,10.314959,56.275259
454344,Grenåvej,8541,746D,10.315021,56.275316
454345,Grenåvej,8541,746E,10.315086,56.27537
454346,Grenåvej,8541,746F,10.315147,56.275436
454347,Grenåvej,8541,746G,10.314933,56.275142
454348,Grenåvej,8541,746H,10.314993,56.275195
454349,Grenåvej,8541,746K,10.315062,56.275253
454350,Grenåvej,8541,746L,10.315127,56.275311
454351,Grenåvej,8541,746M,10.315195,56.275373
454352,Grenåvej,8541,747A,10.315347,56.276881
454353,Grenåvej,8541,747B,10.315365,56.276935
454354,Grenåvej,8541,747C,10.315379,56.276988
454355,Grenåvej,8541,747D,10.315394,56.277042
454356,Grenåvej,8541,747E,10.31547,56.277077
454357,Grenåvej,8541,747F,10.315587,56.277
454358,Grenåvej,8541,747G,10.315776,56.277272
454359,Grenåvej,8541,747H,10.315693,56.277304
454360,Grenåvej,8541,747K,10.315581,56.277341
454361,Grenåvej,8541,747L,10.315488,56.277369
454362,Grenåvej,8541,747M,10.316179,56.277573
454363,Grenåvej,8541,747N,10.316095,56.277605
454364,Grenåvej,8541,747P,10.315994,56.277638
454365,Grenåvej,8541,747R,10.315894,56.27767
454366,Grenåvej,8541,748A,10.315625,56.275481
454367,Grenåvej,8541,748B,10.315837,56.275775
454368,Grenåvej,8541,751,10.316633,56.277285
454369,Grenåvej,8541,752,10.316339,56.276017
454370,Grenåvej,8541,753,10.316801,56.277432
454371,Grenåvej,8541,755,10.316992,56.277596
454372,Grenåvej,8541,755A,10.316738,56.277572
454373,Grenåvej,8541,756,10.316701,56.276938
454374,Grenåvej,8541,759,10.317251,56.277867
454375,Grenåvej,8541,761,10.317248,56.278051
454376,Grenåvej,8541,762A,10.317399,56.27747
454377,Grenåvej,8541,762D,10.318201,56.277039
454378,Grenåvej,8541,763,10.317446,56.278283
454379,Grenåvej,8541,765,10.317654,56.278438
454380,Grenåvej,8541,766,10.317598,56.277706
454381,Grenåvej,8541,767A,10.317881,56.278561
454382,Grenåvej,8541,767B,10.317702,56.278617
454383,Grenåvej,8541,767C,10.317561,56.278668
454384,Grenåvej,8541,768,10.318691,56.277654
454385,Grenåvej,8541,769,10.318166,56.278621
454386,Grenåvej,8541,770,10.31902,56.278154
454387,Grenåvej,8541,771,10.318335,56.278866
454388,Grenåvej,8541,772,10.318082,56.278173
454389,Grenåvej,8541,773,10.31855,56.278967
454390,Grenåvej,8541,774,10.318145,56.278226
454391,Grenåvej,8541,775,10.318656,56.279106
454392,Grenåvej,8541,776,10.318301,56.278359
454393,Grenåvej,8541,777,10.318944,56.279305
454394,Grenåvej,8541,778,10.318638,56.278558
454395,Grenåvej,8541,779,10.319154,56.279509
454396,Grenåvej,8541,780,10.318925,56.278712
454397,Grenåvej,8541,780B,10.319076,56.278854
454398,Grenåvej,8541,781,10.31936,56.279678
454399,Grenåvej,8541,782,10.31915,56.278575
454400,Grenåvej,8541,783,10.319525,56.27982
454401,Grenåvej,8541,784,10.319341,56.27908
454402,Grenåvej,8541,785,10.319662,56.279989
454403,Grenåvej,8541,786,10.319464,56.279218
454404,Grenåvej,8541,787,10.319807,56.280181
454405,Grenåvej,8541,788A,10.319581,56.279491
454406,Grenåvej,8541,788B,10.320323,56.279312
454407,Grenåvej,8541,789,10.319937,56.280372
454408,Grenåvej,8541,789A,10.319393,56.280513
454409,Grenåvej,8541,790,10.319775,56.279655
454410,Grenåvej,8541,791,10.318625,56.280566
454411,Grenåvej,8541,792,10.320139,56.279822
454412,Grenåvej,8541,793A,10.319898,56.280593
454413,Grenåvej,8541,793B,10.319729,56.280653
454414,Grenåvej,8541,793C,10.320216,56.280473
454415,Grenåvej,8541,793D,10.320161,56.280491
454416,Grenåvej,8541,793E,10.320083,56.280506
454417,Grenåvej,8541,793F,10.320023,56.280529
454418,Grenåvej,8541,793G,10.320261,56.280715
454419,Grenåvej,8541,793H,10.32038,56.280714
454420,Grenåvej,8541,793K,10.320479,56.280856
454421,Grenåvej,8541,794,10.320362,56.279923
454422,Grenåvej,8541,795A,10.320029,56.281068
454423,Grenåvej,8541,795C,10.31983,56.281119
454424,Grenåvej,8541,796,10.320389,56.280071
454425,Grenåvej,8541,798,10.320619,56.280154
454426,Grenåvej,8541,799,10.320287,56.281299
454427,Grenåvej,8541,800,10.320782,56.280251
454428,Grenåvej,8541,801,10.320578,56.281228
454429,Grenåvej,8541,802,10.320754,56.280391
454430,Grenåvej,8541,803,10.320807,56.281086
454431,Grenåvej,8541,804,10.320986,56.280545
454432,Grenåvej,8541,806,10.321125,56.280715
454433,Grenåvej,8541,808,10.321378,56.280887
454434,Grenåvej,8541,810,10.321577,56.281074
454435,Grenåvej,8541,824,10.322474,56.281994
454436,Grenåvej,8541,824A,10.322594,56.282146
454437,Grenåvej,8541,826,10.322732,56.282256
454438,Grenåvej,8541,836,10.323903,56.283165
454439,Grenåvej,8541,838,10.324885,56.284111
454440,Grenåvej,8541,840,10.325253,56.284444
457539,Havbakken,8541,1,10.339478,56.257182
457540,Havbakken,8541,3,10.339572,56.256669
457541,Havbakken,8541,5,10.339145,56.256579
457542,Havbakken,8541,7,10.338687,56.256575
457543,Havbakken,8541,9,10.338263,56.256692
457544,Havbakken,8541,11,10.338079,56.256955
459275,Hjelmagerparken,8541,360A,10.319896,56.277309
459276,Hjelmagerparken,8541,360B,10.319846,56.277327
459277,Hjelmagerparken,8541,362A,10.319967,56.277371
459278,Hjelmagerparken,8541,362B,10.319914,56.277389
459279,Hjelmagerparken,8541,364A,10.320046,56.277437
459280,Hjelmagerparken,8541,364B,10.319993,56.277452
459281,Hjelmagerparken,8541,366A,10.320112,56.277504
459282,Hjelmagerparken,8541,366B,10.320061,56.277514
459283,Hjelmagerparken,8541,368A,10.320158,56.27758
459284,Hjelmagerparken,8541,368B,10.320089,56.277594
459285,Hjelmagerparken,8541,370A,10.320195,56.277652
459286,Hjelmagerparken,8541,370B,10.320143,56.277661
459287,Hjelmagerparken,8541,372A,10.320242,56.27775
459288,Hjelmagerparken,8541,372B,10.320206,56.277755
459289,Hjelmagerparken,8541,372C,10.320173,56.277755
459290,Hjelmagerparken,8541,374A,10.32027,56.27783
459291,Hjelmagerparken,8541,374B,10.320233,56.277835
459292,Hjelmagerparken,8541,374C,10.320198,56.27784
459293,Hjelmagerparken,8541,376A,10.320328,56.27792
459294,Hjelmagerparken,8541,376B,10.320291,56.277925
459295,Hjelmagerparken,8541,376C,10.32026,56.277938
459296,Hjelmagerparken,8541,378A,10.320395,56.277991
459297,Hjelmagerparken,8541,378B,10.320361,56.278
459298,Hjelmagerparken,8541,378C,10.320333,56.278014
459299,Hjelmagerparken,8541,380A,10.320493,56.278066
459300,Hjelmagerparken,8541,380B,10.320469,56.27808
459301,Hjelmagerparken,8541,380C,10.32045,56.278094
459302,Hjelmagerparken,8541,382A,10.320613,56.278119
459303,Hjelmagerparken,8541,382B,10.320586,56.278137
459304,Hjelmagerparken,8541,382C,10.320562,56.278151
459305,Hjelmagerparken,8541,384A,10.320751,56.278171
459306,Hjelmagerparken,8541,384C,10.32072,56.278208
459307,Hjelmagerparken,8541,386A,10.320894,56.278201
459308,Hjelmagerparken,8541,386B,10.32088,56.278219
459309,Hjelmagerparken,8541,386C,10.320862,56.278242
459310,Hjelmagerparken,8541,388A,10.321091,56.278222
459311,Hjelmagerparken,8541,388B,10.321087,56.278244
459312,Hjelmagerparken,8541,388C,10.32109,56.278266
459313,Hjelmagerparken,8541,390A,10.321243,56.278224
459314,Hjelmagerparken,8541,390B,10.321242,56.278242
459315,Hjelmagerparken,8541,390C,10.321244,56.278265
459316,Hjelmagerparken,8541,392A,10.321416,56.278214
459317,Hjelmagerparken,8541,392B,10.32142,56.278236
459318,Hjelmagerparken,8541,392C,10.321427,56.278258
459319,Hjelmagerparken,8541,394A,10.321562,56.278199
459320,Hjelmagerparken,8541,394B,10.321568,56.278221
459321,Hjelmagerparken,8541,394C,10.321577,56.278243
459322,Hjelmagerparken,8541,396A,10.320386,56.277596
459323,Hjelmagerparken,8541,396B,10.320449,56.27759
459324,Hjelmagerparken,8541,398A,10.320535,56.277693
459325,Hjelmagerparken,8541,398B,10.320602,56.277688
459326,Hjelmagerparken,8541,400A,10.320572,56.277805
459327,Hjelmagerparken,8541,400B,10.320634,56.2778
459328,Hjelmagerparken,8541,402A,10.320707,56.277938
459329,Hjelmagerparken,8541,402B,10.320748,56.277911
459330,Hjelmagerparken,8541,404A,10.320859,56.278013
459331,Hjelmagerparken,8541,404B,10.3209,56.277985
459332,Hjelmagerparken,8541,406A,10.321088,56.27806
459333,Hjelmagerparken,8541,406B,10.321091,56.278019
459334,Hjelmagerparken,8541,408A,10.321294,56.278058
459335,Hjelmagerparken,8541,408B,10.321292,56.278017
459336,Hjelmagerparken,8541,410,10.32169,56.278031
459337,Hjelmagerparken,8541,412,10.322782,56.27788
459338,Hjelmagerparken,8541,414,10.322806,56.277925
459339,Hjelmagerparken,8541,416,10.322833,56.277969
459340,Hjelmagerparken,8541,418,10.322832,56.27801
459341,Hjelmagerparken,8541,420,10.322718,56.278213
459342,Hjelmagerparken,8541,422,10.322864,56.277911
459343,Hjelmagerparken,8541,424,10.323111,56.277814
459344,Hjelmagerparken,8541,426,10.323145,56.277863
459345,Hjelmagerparken,8541,428,10.32317,56.277907
459346,Hjelmagerparken,8541,430,10.323218,56.277979
459347,Hjelmagerparken,8541,432,10.323248,56.278023
459348,Hjelmagerparken,8541,434,10.323277,56.278068
459349,Hjelmagerparken,8541,436,10.323268,56.278122
459350,Hjelmagerparken,8541,438,10.32308,56.278241
459351,Hjelmagerparken,8541,440,10.323103,56.278294
459352,Hjelmagerparken,8541,442,10.323025,56.278318
459353,Hjelmagerparken,8541,444,10.323042,56.278376
459354,Hjelmagerparken,8541,446,10.322986,56.278453
459355,Hjelmagerparken,8541,448,10.32307,56.278497
459356,Hjelmagerparken,8541,450,10.323043,56.278547
459357,Hjelmagerparken,8541,452,10.323115,56.278582
459358,Hjelmagerparken,8541,454,10.323157,56.278685
459359,Hjelmagerparken,8541,456,10.323218,56.278724
459360,Hjelmagerparken,8541,458,10.323213,56.278778
459361,Hjelmagerparken,8541,466,10.323475,56.277747
459362,Hjelmagerparken,8541,468,10.323537,56.277782
459363,Hjelmagerparken,8541,470,10.323535,56.277836
459364,Hjelmagerparken,8541,472,10.323595,56.277867
459365,Hjelmagerparken,8541,474,10.323583,56.277916
459366,Hjelmagerparken,8541,476,10.323652,56.278023
459367,Hjelmagerparken,8541,478,10.323679,56.278073
459368,Hjelmagerparken,8541,480,10.323708,56.278122
459369,Hjelmagerparken,8541,482,10.323739,56.278171
459370,Hjelmagerparken,8541,484,10.323663,56.278208
459371,Hjelmagerparken,8541,486,10.323594,56.278357
459372,Hjelmagerparken,8541,488,10.323521,56.278407
459373,Hjelmagerparken,8541,490,10.323538,56.27846
459374,Hjelmagerparken,8541,492,10.323472,56.278497
459375,Hjelmagerparken,8541,494,10.323512,56.278537
459376,Hjelmagerparken,8541,496,10.323499,56.278587
459377,Hjelmagerparken,8541,498,10.323633,56.27868
459378,Hjelmagerparken,8541,500,10.323612,56.278734
459379,Hjelmagerparken,8541,502,10.323692,56.278773
459380,Hjelmagerparken,8541,504,10.32361,56.278424
459381,Hjelmagerparken,8541,506,10.32377,56.278063
459382,Hjelmagerparken,8541,508,10.323592,56.277777
459383,Hjelmagerparken,8541,510,10.323852,56.277671
459384,Hjelmagerparken,8541,512,10.323925,56.277702
459385,Hjelmagerparken,8541,514,10.323904,56.277756
459386,Hjelmagerparken,8541,516,10.323974,56.277791
459387,Hjelmagerparken,8541,518,10.324038,56.277885
459388,Hjelmagerparken,8541,520,10.324013,56.277934
459389,Hjelmagerparken,8541,522,10.324087,56.277969
459390,Hjelmagerparken,8541,524,10.324065,56.278019
459391,Hjelmagerparken,8541,526,10.324139,56.278054
459392,Hjelmagerparken,8541,528,10.324139,56.278184
459393,Hjelmagerparken,8541,530,10.324221,56.27822
459394,Hjelmagerparken,8541,532,10.324164,56.278265
459395,Hjelmagerparken,8541,534,10.324189,56.278314
459396,Hjelmagerparken,8541,536,10.324042,56.278451
459397,Hjelmagerparken,8541,538,10.324089,56.278504
459398,Hjelmagerparken,8541,540,10.324062,56.278554
459399,Hjelmagerparken,8541,542,10.324135,56.278589
459400,Hjelmagerparken,8541,544,10.32416,56.278701
459401,Hjelmagerparken,8541,546,10.324226,56.278736
459402,Hjelmagervej,8541,1B,10.317715,56.276977
459403,Hjelmagervej,8541,1C,10.318132,56.275863
459404,Hjelmagervej,8541,3A,10.322358,56.275454
459405,Hjelmagervej,8541,3B,10.322369,56.275544
459406,Hjelmagervej,8541,5B,10.324709,56.275303
459407,Hjelmagervej,8541,6,10.319599,56.274724
459408,Hjelmagervej,8541,6A,10.318897,56.274799
459409,Hjelmagervej,8541,6B,10.320058,56.2748
459410,Hjelmagervej,8541,6C,10.320326,56.274285
459411,Hjelmagervej,8541,6D,10.318703,56.273619
459412,Hjelmagervej,8541,7,10.327167,56.274459
459413,Hjelmagervej,8541,8,10.323715,56.275192
459414,Hjelmagervej,8541,9,10.326301,56.274046
459415,Hjelmagervej,8541,9A,10.328759,56.274006
459416,Hjelmagervej,8541,10,10.323958,56.275077
459417,Hjelmagervej,8541,19,10.32394,56.266685
459418,Hjelmagervej,8541,24,10.325298,56.268571
459419,Hjelmagervej,8541,25,10.316431,56.265858
459420,Hjelmagervej,8541,32,10.32356,56.267947
459421,Hjelmagervej,8541,40,10.315786,56.267069
459422,Hjelmagervænget,8541,2,10.322857,56.280534
461729,Hunderosevej,8541,2,10.306912,56.26834
461730,Hunderosevej,8541,4,10.306615,56.26859
461731,Hunderosevej,8541,6,10.306223,56.268545
461732,Hunderosevej,8541,7,10.305361,56.267786
461733,Hunderosevej,8541,8,10.305837,56.268567
461734,Hunderosevej,8541,9,10.305335,56.267988
461735,Hunderosevej,8541,10,10.305641,56.268299
461736,Hunderosevej,8541,11A,10.304791,56.267724
461737,Hunderosevej,8541,11B,10.304765,56.267922
461738,Hunderosevej,8541,12,10.305212,56.268281
461739,Hunderosevej,8541,13,10.304412,56.267692
461740,Hunderosevej,8541,14,10.305016,56.268508
461741,Hunderosevej,8541,15,10.304318,56.267936
461742,Hunderosevej,8541,16,10.30463,56.268449
461743,Hunderosevej,8541,18,10.304615,56.26822
461994,Hybenrosevej,8541,1,10.3057,56.270199
461995,Hybenrosevej,8541,2,10.306161,56.270154
461996,Hybenrosevej,8541,3,10.305731,56.270374
461997,Hybenrosevej,8541,4,10.30635,56.270345
461998,Hybenrosevej,8541,5,10.305918,56.270561
461999,Hybenrosevej,8541,6,10.30659,56.270536
462000,Hybenrosevej,8541,7,10.305911,56.270961
462001,Hybenrosevej,8541,8,10.306585,56.270823
462002,Hybenrosevej,8541,9,10.306131,56.270918
463723,Ibisvej,8541,1,10.336085,56.259654
463724,Ibisvej,8541,3,10.335974,56.259394
463725,Ibisvej,8541,4,10.335447,56.259328
463726,Ibisvej,8541,5,10.336033,56.259214
463727,Ibisvej,8541,6,10.335492,56.259175
463728,Ibisvej,8541,7,10.336245,56.259073
463729,Ibisvej,8541,8,10.335608,56.259021
463730,Ibisvej,8541,9,10.336338,56.25891
463731,Ibisvej,8541,10,10.335667,56.25885
463732,Ibisvej,8541,11,10.336288,56.258695
463733,Ibisvej,8541,12,10.33576,56.258682
463734,Ibisvej,8541,13,10.336418,56.258545
463735,Ibisvej,8541,14,10.335849,56.258515
463736,Ibisvej,8541,15,10.33663,56.258395
463737,Ibisvej,8541,16,10.33592,56.258348
463738,Ibisvej,8541,17,10.336571,56.258188
463739,Ibisvej,8541,18,10.336005,56.258177
463740,Ibisvej,8541,20,10.336086,56.257933
464316,Jadevej,8541,1,10.297271,56.258059
464317,Jadevej,8541,2,10.297391,56.257738
464318,Jadevej,8541,3,10.29758,56.258168
464319,Jadevej,8541,4,10.297683,56.257511
464320,Jadevej,8541,5,10.297749,56.258373
464321,Jadevej,8541,6,10.298049,56.257633
464322,Jadevej,8541,7,10.297976,56.258514
464323,Jadevej,8541,8,10.297752,56.257878
464324,Jadevej,8541,9,10.298137,56.258669
464325,Jadevej,8541,10,10.298141,56.257951
464326,Jadevej,8541,11,10.298352,56.258824
464327,Jadevej,8541,12,10.298373,56.258119
464328,Jadevej,8541,13,10.298641,56.258979
464329,Jadevej,8541,14,10.298574,56.258247
464330,Jadevej,8541,15,10.298788,56.259121
464331,Jadevej,8541,16,10.298739,56.258407
464332,Jadevej,8541,17,10.298974,56.259379
464333,Jadevej,8541,18,10.299022,56.258597
464334,Jadevej,8541,20,10.299142,56.25874
464335,Jadevej,8541,22,10.299367,56.258904
464336,Jadevej,8541,24,10.29956,56.259077
464337,Jadevej,8541,26,10.299879,56.259316
464338,Jadevej,8541,28,10.300104,56.259484
464339,Jadevej,8541,29,10.300077,56.260069
464340,Jadevej,8541,30,10.300435,56.259751
464341,Jadevej,8541,31,10.300216,56.260234
464342,Jadevej,8541,32,10.300643,56.259964
464343,Jadevej,8541,33,10.300184,56.260485
464344,Jadevej,8541,34,10.30079,56.260165
464345,Jadevej,8541,35,10.300227,56.260701
464346,Jadevej,8541,36,10.300779,56.260394
464347,Jadevej,8541,37,10.299721,56.260616
464348,Jadevej,8541,38,10.300831,56.260595
464349,Jadevej,8541,39,10.299373,56.260548
464350,Jadevej,8541,41,10.298996,56.260449
464351,Jadevej,8541,43,10.298731,56.260402
464352,Jadevej,8541,44,10.300749,56.26079
464353,Jadevej,8541,45,10.298321,56.260397
464354,Jadevej,8541,46,10.301446,56.260957
464355,Jadevej,8541,47,10.298105,56.260669
464356,Jadevej,8541,48,10.300558,56.261191
464357,Jadevej,8541,49,10.298434,56.260711
464358,Jadevej,8541,51,10.298793,56.260788
464359,Jadevej,8541,53,10.299129,56.260856
464360,Jadevej,8541,55,10.299462,56.260911
464361,Jadevej,8541,57,10.299751,56.260966
464362,Jadevej,8541,59,10.300078,56.261035
466871,Kaløvej,8541,40,10.239297,56.301284
466872,Kaløvej,8541,42,10.240424,56.299489
466873,Kaløvej,8541,44,10.240992,56.301161
466874,Kaløvej,8541,46,10.241697,56.302535
466875,Kaløvej,8541,47,10.244804,56.30316
466876,Kaløvej,8541,48,10.25789,56.30328
466877,Kaløvej,8541,51,10.265076,56.302505
466878,Kaløvej,8541,52,10.266736,56.300804
466879,Kaløvej,8541,53,10.272045,56.30677
466880,Kaløvej,8541,54,10.270151,56.300594
468281,Kirkemosevej,8541,1,10.301762,56.268098
468282,Kirkemosevej,8541,3,10.293709,56.276408
468283,Kirkemosevej,8541,4,10.302408,56.268518
468284,Kirkemosevej,8541,5,10.295109,56.277148
468285,Kirkemosevej,8541,7,10.294385,56.277915
468286,Kirkemosevej,8541,8,10.302484,56.269276
468287,Kirkemosevej,8541,9,10.294923,56.278044
468288,Kirkemosevej,8541,10,10.302437,56.269461
468289,Kirkemosevej,8541,11,10.295038,56.278313
468290,Kirkemosevej,8541,12,10.30219,56.269814
468291,Kirkemosevej,8541,16,10.301757,56.270739
468292,Kirkepladsen,8541,2,10.308443,56.262649
468293,Kirkepladsen,8541,4,10.308863,56.262896
468294,Kirkepladsen,8541,5,10.308708,56.263213
468295,Kirkepladsen,8541,7,10.309068,56.263317
468296,Kirkepladsen,8541,9,10.309434,56.263425
469358,Kløvervangen,8541,1,10.293193,56.260482
469359,Kløvervangen,8541,3,10.293142,56.260658
469360,Kløvervangen,8541,4,10.293491,56.261032
469361,Kløvervangen,8541,5,10.292978,56.260844
469362,Kløvervangen,8541,6,10.293361,56.261361
469363,Kløvervangen,8541,7,10.292943,56.261015
469364,Kløvervangen,8541,9,10.292843,56.261218
469365,Kløvervangen,8541,10,10.293042,56.262209
469366,Kløvervangen,8541,11,10.292718,56.261471
469367,Kløvervangen,8541,12,10.292953,56.262628
469368,Kløvervangen,8541,13,10.292664,56.261678
469369,Kløvervangen,8541,14,10.293196,56.262953
469370,Kløvervangen,8541,15,10.292506,56.261887
469371,Kløvervangen,8541,16,10.293598,56.263016
469372,Kløvervangen,8541,17,10.292426,56.262067
469373,Kløvervangen,8541,18,10.293925,56.262995
469374,Kløvervangen,8541,19,10.292362,56.262252
469375,Kløvervangen,8541,20,10.294214,56.263239
469376,Kløvervangen,8541,21,10.292348,56.262432
469377,Kløvervangen,8541,22,10.294591,56.263235
469378,Kløvervangen,8541,23,10.292335,56.26263
469379,Kløvervangen,8541,25,10.292291,56.26281
469380,Kløvervangen,8541,26,10.295109,56.263023
469381,Kløvervangen,8541,27,10.29246,56.263082
469382,Kløvervangen,8541,28,10.295106,56.262861
469383,Kløvervangen,8541,29,10.292057,56.26323
469384,Kløvervangen,8541,30,10.295611,56.262578
469385,Kløvervangen,8541,31,10.292459,56.263639
469386,Kløvervangen,8541,32,10.295666,56.262797
469387,Kløvervangen,8541,33A,10.293559,56.263587
469388,Kløvervangen,8541,33B,10.293668,56.263582
469389,Kløvervangen,8541,33C,10.293794,56.26359
469390,Kløvervangen,8541,34,10.295814,56.262966
469391,Kløvervangen,8541,35A,10.293892,56.263575
469392,Kløvervangen,8541,35B,10.294027,56.263578
469393,Kløvervangen,8541,35C,10.294143,56.263577
469394,Kløvervangen,8541,36,10.295778,56.263142
469395,Kløvervangen,8541,37A,10.294276,56.263575
469396,Kløvervangen,8541,37B,10.294395,56.263579
469397,Kløvervangen,8541,37C,10.294513,56.263582
469398,Kløvervangen,8541,38,10.296344,56.263096
469399,Kløvervangen,8541,39A,10.294638,56.263585
469400,Kløvervangen,8541,39B,10.29476,56.263588
469401,Kløvervangen,8541,39C,10.294873,56.263587
469402,Kløvervangen,8541,40,10.296415,56.26287
469403,Kløvervangen,8541,41A,10.294983,56.263573
469404,Kløvervangen,8541,41B,10.295105,56.263549
469405,Kløvervangen,8541,41C,10.295213,56.263539
469406,Kløvervangen,8541,43,10.295199,56.263683
469407,Kløvervangen,8541,44,10.296344,56.262498
469408,Kløvervangen,8541,45,10.295284,56.263695
469409,Kløvervangen,8541,46,10.296272,56.262274
469410,Kløvervangen,8541,47,10.295229,56.263741
469411,Kløvervangen,8541,48,10.296903,56.26242
469412,Kløvervangen,8541,49,10.295322,56.263771
469413,Kløvervangen,8541,49A,10.295267,56.263812
469414,Kløvervangen,8541,49B,10.29533,56.263843
469415,Kløvervangen,8541,49C,10.29529,56.263884
469416,Kløvervangen,8541,50,10.297034,56.26268
469417,Kløvervangen,8541,51,10.295846,56.263532
469418,Kløvervangen,8541,52,10.297074,56.262854
469419,Kløvervangen,8541,54,10.297154,56.26302
469420,Kløvervangen,8541,55,10.296047,56.263844
469421,Kløvervangen,8541,56,10.297697,56.262965
469422,Kløvervangen,8541,57,10.296478,56.263791
469423,Kløvervangen,8541,58,10.297985,56.262872
469424,Kløvervangen,8541,59,10.296756,56.263869
469425,Kløvervangen,8541,60,10.298326,56.262882
469426,Kløvervangen,8541,61,10.296391,56.26349
469427,Kløvervangen,8541,62,10.298637,56.262878
469428,Kløvervangen,8541,63,10.296701,56.263519
469429,Kløvervangen,8541,64,10.299177,56.262805
469430,Kløvervangen,8541,65,10.297085,56.263402
469431,Kløvervangen,8541,67,10.297481,56.263448
469432,Kløvervangen,8541,68,10.299305,56.262503
469433,Kløvervangen,8541,69,10.297143,56.263725
469434,Kløvervangen,8541,70,10.299847,56.26278
469435,Kløvervangen,8541,71,10.297625,56.26377
469436,Kløvervangen,8541,72,10.299821,56.262695
469437,Kløvervangen,8541,73,10.298021,56.263662
469438,Kløvervangen,8541,74,10.299711,56.26235
469439,Kløvervangen,8541,75,10.298409,56.263649
469440,Kløvervangen,8541,76,10.299711,56.26227
469441,Kløvervangen,8541,77,10.297957,56.263339
469442,Kløvervangen,8541,78,10.299768,56.262085
469443,Kløvervangen,8541,79,10.298343,56.263268
469444,Kløvervangen,8541,80,10.299899,56.262079
469445,Kløvervangen,8541,81,10.298797,56.263241
469446,Kløvervangen,8541,82,10.300024,56.262037
469447,Kløvervangen,8541,83,10.299185,56.263277
469448,Kløvervangen,8541,84,10.300167,56.262036
469449,Kløvervangen,8541,85,10.298885,56.26355
469450,Kløvervangen,8541,86,10.300177,56.262274
469451,Kløvervangen,8541,87,10.299322,56.263612
469452,Kløvervangen,8541,88,10.300044,56.262275
469453,Kløvervangen,8541,89,10.299653,56.263524
469454,Kløvervangen,8541,90,10.300481,56.262441
469455,Kløvervangen,8541,91,10.300202,56.263504
469456,Kløvervangen,8541,92,10.300339,56.262456
469457,Kløvervangen,8541,93,10.299646,56.263169
469458,Kløvervangen,8541,94,10.300225,56.262507
469459,Kløvervangen,8541,95,10.300038,56.263061
469460,Kløvervangen,8541,96,10.300094,56.262517
469461,Kløvervangen,8541,97,10.300342,56.263049
469462,Kløvervangen,8541,98,10.300542,56.262679
469463,Kløvervangen,8541,99,10.300628,56.263253
469464,Kløvervangen,8541,100,10.300409,56.262689
469465,Kløvervangen,8541,101,10.300775,56.263462
469466,Kløvervangen,8541,102,10.300291,56.26274
469467,Kløvervangen,8541,103,10.301148,56.263454
469468,Kløvervangen,8541,104,10.300166,56.262746
469469,Kløvervangen,8541,105,10.301588,56.263409
469470,Kløvervangen,8541,107,10.301539,56.263167
469471,Kløvervangen,8541,108,10.301064,56.262422
469472,Kløvervangen,8541,109,10.30144,56.26297
469473,Kløvervangen,8541,111,10.301113,56.263064
470236,Krajbjergvej,8541,1,10.29342,56.278572
470237,Krajbjergvej,8541,2,10.293935,56.278809
470238,Krajbjergvej,8541,3,10.293457,56.279102
470239,Krajbjergvej,8541,4,10.294508,56.279131
470240,Krajbjergvej,8541,5,10.28577,56.286568
470241,Krajbjergvej,8541,6,10.295447,56.279822
470242,Krajbjergvej,8541,7,10.283026,56.289081
470243,Krajbjergvej,8541,8,10.29148,56.282218
470244,Krajbjergvej,8541,10,10.285949,56.287083
471903,Landlyst,8541,1,10.308879,56.276307
471904,Landlyst,8541,4,10.309914,56.276435
471905,Landlyst,8541,6,10.309954,56.276803
471906,Landlyst,8541,7,10.309231,56.276856
471907,Landlyst,8541,9,10.308606,56.276737
471908,Landlyst,8541,10A,10.310456,56.277373
471909,Landlyst,8541,15,10.30895,56.277344
471910,Landlyst,8541,17,10.30929,56.277102
471911,Landlyst,8541,19,10.309509,56.277244
471912,Landlyst,8541,20,10.3108,56.278246
471913,Landlyst,8541,21,10.309638,56.277431
471914,Landlyst,8541,23,10.309725,56.277614
471915,Landlyst,8541,25,10.309051,56.277536
471916,Landlyst,8541,31,10.309141,56.278169
471917,Landlyst,8541,33,10.309928,56.277828
471918,Landlyst,8541,35,10.309972,56.278034
471919,Landlyst,8541,37,10.309141,56.278384
471920,Landlyst,8541,39,10.310153,56.278275
473811,Lindå Møllevej,8541,1,10.247375,56.299342
473812,Lindå Møllevej,8541,2,10.247031,56.299225
473813,Lindå Møllevej,8541,3,10.247714,56.298355
473814,Lindå Møllevej,8541,5,10.247691,56.297646
473815,Lindå Møllevej,8541,6,10.246638,56.298658
473816,Lindå Møllevej,8541,7,10.24732,56.29702
473817,Lindå Møllevej,8541,8,10.247275,56.298683
473818,Lindå Møllevej,8541,9,10.24725,56.296019
473819,Lindå Møllevej,8541,10,10.247191,56.298163
473820,Lindå Møllevej,8541,11,10.247458,56.295294
473821,Lindå Møllevej,8541,12,10.247137,56.297786
473822,Lindå Møllevej,8541,14,10.244737,56.296988
473880,Lobeliavej,8541,1,10.293199,56.261749
473881,Lobeliavej,8541,3,10.2935,56.261813
473882,Lobeliavej,8541,4,10.293623,56.261421
473883,Lobeliavej,8541,5,10.293774,56.261932
473884,Lobeliavej,8541,6,10.293938,56.261526
473885,Lobeliavej,8541,7,10.294103,56.261964
473886,Lobeliavej,8541,8,10.29424,56.261622
473887,Lobeliavej,8541,9,10.294371,56.262029
473888,Lobeliavej,8541,10,10.29457,56.261641
473889,Lobeliavej,8541,11,10.294749,56.262079
473890,Lobeliavej,8541,12,10.294977,56.261672
473891,Lobeliavej,8541,13,10.295042,56.262134
473892,Lobeliavej,8541,14,10.29535,56.261682
473893,Lobeliavej,8541,16,10.295294,56.261871
473981,Lomvievej,8541,1,10.337485,56.259207
473982,Lomvievej,8541,3,10.337743,56.25898
473983,Lomvievej,8541,5,10.338235,56.258952
473984,Lomvievej,8541,6,10.336529,56.259415
473985,Lomvievej,8541,7,10.338543,56.258859
473986,Lomvievej,8541,8,10.336736,56.259198
473987,Lomvievej,8541,9,10.339021,56.258863
473988,Lomvievej,8541,10,10.337023,56.259064
473989,Lomvievej,8541,11,10.339234,56.258636
473990,Lomvievej,8541,11A,10.339403,56.258468
473991,Lomvievej,8541,12,10.337085,56.258897
473992,Lomvievej,8541,13,10.338833,56.258438
473993,Lomvievej,8541,14,10.337105,56.258749
473994,Lomvievej,8541,15,10.338377,56.258582
473995,Lomvievej,8541,16,10.337257,56.258608
473996,Lomvievej,8541,17,10.337782,56.258656
473997,Lomvievej,8541,18,10.337291,56.258446
473998,Lomvievej,8541,19,10.337847,56.258368
473999,Lomvievej,8541,20,10.337238,56.258249
474000,Lomvievej,8541,22,10.337494,56.258048
475073,Lærkebakken,8541,2,10.310425,56.272351
475074,Lærkebakken,8541,6,10.30917,56.272952
475075,Lærkebakken,8541,8,10.309009,56.273125
475187,Løgten Østervej,8541,1,10.313828,56.266851
475188,Løgten Østervej,8541,3,10.313517,56.266635
475189,Løgten Østervej,8541,5,10.313454,56.266429
475190,Løgten Østervej,8541,7,10.313383,56.266209
475191,Løgten Østervej,8541,9,10.312877,56.266232
475192,Løgten Østervej,8541,11,10.31248,56.266237
475193,Løgten Østervej,8541,13,10.312971,56.266528
475194,Løgten Østervej,8541,15,10.313125,56.266787
475195,Løgten Østervej,8541,17,10.31355,56.267191
475196,Løgten Østervej,8541,19,10.313762,56.267459
475197,Løgten Østervej,8541,21,10.314201,56.267306
475198,Løgten Østervej,8541,23,10.313967,56.267124
475199,Løgtenvej,8541,93,10.316425,56.294584
476028,Manbjergvej,8541,1A,10.311512,56.276913
476029,Manbjergvej,8541,1B,10.311149,56.277024
476030,Manbjergvej,8541,2,10.31215,56.27696
476031,Manbjergvej,8541,3,10.311668,56.277275
476032,Manbjergvej,8541,5,10.311226,56.27736
476033,Manbjergvej,8541,6,10.312447,56.27768
476034,Manbjergvej,8541,6A,10.312341,56.277856
476035,Manbjergvej,8541,7,10.311352,56.277615
476036,Manbjergvej,8541,8,10.31253,56.278052
476037,Manbjergvej,8541,9,10.311769,56.277602
476038,Manbjergvej,8541,10,10.312559,56.278249
476039,Manbjergvej,8541,11,10.31177,56.277822
476040,Manbjergvej,8541,12,10.312618,56.278424
476041,Manbjergvej,8541,13,10.311829,56.278015
476042,Manbjergvej,8541,14,10.312809,56.27862
476043,Manbjergvej,8541,16,10.312904,56.278803
476044,Manbjergvej,8541,20,10.313074,56.279399
476045,Manbjergvej,8541,22,10.313282,56.279657
476046,Manbjergvej,8541,24,10.313349,56.279845
476047,Manbjergvej,8541,25,10.312367,56.279159
476048,Manbjergvej,8541,26,10.313421,56.280055
476049,Manbjergvej,8541,27,10.312367,56.279473
476050,Manbjergvej,8541,28,10.313542,56.280279
476051,Manbjergvej,8541,30,10.313773,56.280483
476052,Manbjergvej,8541,32,10.314046,56.280732
476053,Manbjergvej,8541,34,10.314504,56.280691
476054,Manbjergvej,8541,41,10.313193,56.280893
476055,Manbjergvej,8541,43,10.313638,56.281059
476056,Manbjergvej,8541,44,10.315824,56.280093
476057,Manbjergvej,8541,45,10.314014,56.281145
476058,Manbjergvej,8541,46,10.316054,56.279911
476059,Manbjergvej,8541,47,10.314339,56.281097
476060,Manbjergvej,8541,48,10.316255,56.279589
476061,Manbjergvej,8541,50,10.31582,56.279617
476062,Manbjergvej,8541,51,10.314804,56.281043
476063,Manbjergvej,8541,53,10.315113,56.280954
476064,Manbjergvej,8541,60,10.314229,56.279979
476065,Manbjergvej,8541,62,10.314027,56.279734
476066,Manbjergvej,8541,63,10.316408,56.280226
476067,Manbjergvej,8541,65,10.316762,56.280096
476068,Manbjergvej,8541,67,10.317063,56.280066
476069,Manbjergvej,8541,69,10.316996,56.279815
476070,Manbjergvej,8541,71,10.317327,56.27943
476071,Manbjergvej,8541,73,10.316844,56.279525
476072,Manbjergvej,8541,74,10.316106,56.279245
476073,Manbjergvej,8541,75,10.316821,56.279264
476074,Manbjergvej,8541,77,10.316659,56.279091
476075,Manbjergvej,8541,79,10.316517,56.278904
476076,Manbjergvej,8541,81,10.316312,56.278699
476077,Manbjergvej,8541,84,10.315471,56.278533
476078,Manbjergvej,8541,92,10.314605,56.277747
476079,Manbjergvej,8541,93,10.31518,56.277638
476080,Manbjergvej,8541,94,10.314284,56.27762
476081,Manbjergvej,8541,95,10.315037,56.277473
476082,Manbjergvej,8541,96,10.31387,56.277615
476083,Manbjergvej,8541,97,10.314958,56.277191
476084,Manbjergvej,8541,98,10.313545,56.277614
476085,Manbjergvej,8541,99,10.314509,56.277272
476086,Manbjergvej,8541,100,10.313173,56.277645
476087,Manbjergvej,8541,102,10.312802,56.277636
476088,Manbjergvej,8541,113,10.312283,56.277295
477634,Morgenfruevej,8541,3,10.293295,56.262588
477635,Morgenfruevej,8541,4,10.293355,56.262287
477636,Morgenfruevej,8541,5,10.293568,56.262612
477637,Morgenfruevej,8541,6,10.293681,56.262324
477638,Morgenfruevej,8541,7,10.293936,56.262681
477639,Morgenfruevej,8541,8,10.294054,56.26236
477640,Morgenfruevej,8541,9,10.294193,56.262781
477641,Morgenfruevej,8541,10,10.29447,56.26241
477642,Morgenfruevej,8541,11,10.294493,56.262751
477643,Morgenfruevej,8541,12,10.294837,56.262428
477995,Mosrosevej,8541,1,10.306425,56.267145
477996,Mosrosevej,8541,3,10.306121,56.267054
477997,Mosrosevej,8541,4,10.306327,56.267515
477998,Mosrosevej,8541,5,10.305751,56.267072
477999,Mosrosevej,8541,6,10.305915,56.267569
478000,Mosrosevej,8541,7,10.305397,56.267044
478001,Mosrosevej,8541,8,10.305605,56.267491
478002,Mosrosevej,8541,9,10.305075,56.266984
478003,Mosrosevej,8541,10,10.305251,56.267351
478004,Mosrosevej,8541,11,10.304726,56.26688
478005,Mosrosevej,8541,12,10.304953,56.267336
478006,Mosrosevej,8541,13,10.304368,56.266844
478007,Mosrosevej,8541,14,10.30457,56.267313
478008,Mosrosevej,8541,15,10.304024,56.266712
478009,Mosrosevej,8541,16,10.304205,56.26742
478010,Mosrosevej,8541,17,10.303878,56.266952
478011,Mosrosevej,8541,18,10.304086,56.267233
478640,Møllegården,8541,1,10.318998,56.280086
478641,Møllegården,8541,5,10.318666,56.280381
478642,Møllegården,8541,7,10.319077,56.280332
478873,Mågebakken,8541,1,10.34587,56.254821
478874,Mågebakken,8541,3,10.345406,56.254732
478875,Mågebakken,8541,4,10.34532,56.255102
478876,Mågebakken,8541,5,10.345052,56.254754
478877,Mågebakken,8541,6,10.344858,56.25503
478878,Mågebakken,8541,7,10.344642,56.254691
478879,Mågebakken,8541,8,10.344587,56.25497
478880,Mågebakken,8541,10,10.344043,56.254922
478964,Nabovej,8541,1,10.247745,56.298925
478965,Nabovej,8541,2,10.2477,56.298764
478966,Nabovej,8541,3,10.254933,56.29733
478967,Nabovej,8541,4,10.248541,56.298594
478968,Nabovej,8541,5,10.257459,56.297093
478969,Nabovej,8541,6,10.250032,56.298332
478970,Nabovej,8541,8,10.252577,56.296648
478971,Nabovej,8541,10,10.252998,56.296653
478972,Nabovej,8541,12,10.253876,56.29655
480484,Ny Studstrupvej,8541,3A,10.310869,56.267022
480485,Ny Studstrupvej,8541,3B,10.310899,56.267498
480486,Ny Studstrupvej,8541,3C,10.311425,56.26778
480487,Ny Studstrupvej,8541,3D,10.31223,56.267632
480488,Ny Studstrupvej,8541,5A,10.311668,56.266389
480489,Ny Studstrupvej,8541,5B,10.311784,56.266374
480490,Ny Studstrupvej,8541,12,10.335553,56.25439
480491,Ny Studstrupvej,8541,14A,10.34105,56.251918
480492,Ny Studstrupvej,8541,15,10.319854,56.263521
480493,Ny Studstrupvej,8541,17,10.322245,56.263181
481438,Nørholtvej,8541,5,10.281822,56.27358
484156,Plantagen,8541,1,10.306093,56.272504
484157,Plantagen,8541,2,10.307814,56.273564
484158,Plantagen,8541,3,10.305461,56.272524
484159,Plantagen,8541,4,10.307427,56.273474
484160,Plantagen,8541,5,10.306824,56.272887
484161,Plantagen,8541,6,10.307108,56.273459
484162,Plantagen,8541,7,10.306416,56.272887
484163,Plantagen,8541,8,10.306347,56.273508
484164,Plantagen,8541,9,10.30604,56.272909
484165,Plantagen,8541,10,10.307182,56.273171
484166,Plantagen,8541,11,10.305751,56.272917
484167,Plantagen,8541,12,10.306904,56.273223
484168,Plantagen,8541,13,10.305364,56.272925
484169,Plantagen,8541,14,10.306426,56.27322
484170,Plantagen,8541,15,10.304492,56.272638
484171,Plantagen,8541,16,10.305872,56.273194
484172,Plantagen,8541,17,10.304747,56.27281
484173,Plantagen,8541,18,10.305404,56.273167
484174,Plantagen,8541,19,10.304571,56.273059
484175,Plantagen,8541,20,10.305585,56.273404
484176,Plantagen,8541,22,10.304992,56.273509
484177,Plantagen,8541,24,10.304811,56.273255
485148,Præstekravevej,8541,1,10.335813,56.257909
485149,Præstekravevej,8541,2,10.335612,56.257453
485150,Præstekravevej,8541,4,10.335855,56.25745
485151,Præstekravevej,8541,5,10.336594,56.257878
485152,Præstekravevej,8541,6,10.336323,56.25749
485153,Præstekravevej,8541,7,10.336866,56.257911
485154,Præstekravevej,8541,8,10.336675,56.257563
485155,Præstekravevej,8541,9,10.337182,56.257935
485156,Præstekravevej,8541,10,10.33694,56.257578
485157,Præstekravevej,8541,12,10.337282,56.257601
485158,Præstekravevej,8541,13,10.338033,56.258056
485159,Præstekravevej,8541,14,10.337573,56.257621
485160,Præstekravevej,8541,15,10.338418,56.25807
485161,Præstekravevej,8541,16,10.33779,56.257695
485162,Præstekravevej,8541,17,10.338814,56.258097
485163,Præstekravevej,8541,18,10.338105,56.2577
485164,Præstekravevej,8541,19,10.33923,56.258097
485165,Præstekravevej,8541,20,10.338448,56.257723
485166,Præstekravevej,8541,21,10.339675,56.258114
485167,Præstekravevej,8541,22,10.338797,56.257756
485168,Præstekravevej,8541,23,10.339613,56.258286
485169,Præstekravevej,8541,24,10.339155,56.257734
485170,Præstekravevej,8541,25,10.340005,56.258246
485171,Præstekravevej,8541,26,10.339589,56.257819
485172,Præstekravevej,8541,27,10.342693,56.258518
485173,Præstekravevej,8541,28,10.339908,56.257829
485174,Præstekravevej,8541,29,10.343072,56.258437
485175,Præstekravevej,8541,30A,10.34029,56.257784
485176,Præstekravevej,8541,30B,10.340344,56.257451
485177,Præstekravevej,8541,30C,10.340576,56.257139
485178,Præstekravevej,8541,31,10.343304,56.258619
485179,Præstekravevej,8541,32,10.340977,56.257166
485180,Præstekravevej,8541,32B,10.34135,56.257238
485181,Præstekravevej,8541,32C,10.341375,56.257485
485182,Præstekravevej,8541,33,10.343896,56.258657
485183,Præstekravevej,8541,34,10.341017,56.257511
485184,Præstekravevej,8541,34B,10.340813,56.257693
485185,Præstekravevej,8541,35,10.343723,56.258452
485186,Præstekravevej,8541,36,10.340812,56.257922
485187,Præstekravevej,8541,38,10.341231,56.257936
485188,Præstekravevej,8541,40,10.341652,56.257954
485189,Præstekravevej,8541,42,10.342323,56.258036
485190,Præstekravevej,8541,44,10.342692,56.258073
485191,Præstekravevej,8541,46,10.342985,56.258101
485192,Præstekravevej,8541,48,10.343408,56.258034
486489,Rosenbakken,8541,1,10.309751,56.270269
486490,Rosenbakken,8541,2,10.308982,56.270865
486491,Rosenbakken,8541,3,10.309225,56.270328
486492,Rosenbakken,8541,4,10.308426,56.271534
486493,Rosenbakken,8541,5,10.308858,56.270359
486494,Rosenbakken,8541,7,10.308512,56.270443
486572,Rosenhaven,8541,1,10.309474,56.269099
486573,Rosenhaven,8541,3,10.309272,56.268944
486574,Rosenhaven,8541,5,10.308946,56.269167
486575,Rosenhaven,8541,7,10.305709,56.269804
486576,Rosenhaven,8541,9,10.305141,56.269913
486887,Rosenvænget,8541,2,10.313523,56.273333
486888,Rosenvænget,8541,4,10.31381,56.273222
486889,Rosenvænget,8541,6,10.314137,56.273151
486890,Rosenvænget,8541,8,10.314469,56.273054
488221,Rødegevej,8541,1,10.308669,56.275784
488222,Rødegevej,8541,2,10.308128,56.275888
488223,Rødegevej,8541,3,10.309013,56.27574
488224,Rødegevej,8541,4,10.307769,56.275955
488225,Rødegevej,8541,5,10.309355,56.275704
488226,Rødegevej,8541,6,10.307384,56.27604
488227,Rødegevej,8541,7,10.309585,56.275666
488228,Rødegevej,8541,8,10.307126,56.276052
488229,Rødegevej,8541,9,10.309311,56.275404
488230,Rødegevej,8541,10,10.306686,56.27602
488231,Rødegevej,8541,11,10.309268,56.275211
488232,Rødegevej,8541,12,10.306711,56.275836
488233,Rødegevej,8541,13,10.308694,56.275222
488234,Rødegevej,8541,14,10.307091,56.275737
488235,Rødegevej,8541,15,10.30867,56.275469
488236,Rødegevej,8541,16,10.307498,56.275675
488237,Rødegevej,8541,17,10.30814,56.275466
488238,Rødegevej,8541,18,10.307253,56.275498
488239,Rødegevej,8541,19,10.308002,56.275229
488240,Rødegevej,8541,20,10.306698,56.275409
488241,Rødegevej,8541,21,10.307843,56.2751
488242,Rødegevej,8541,22,10.306633,56.27523
488243,Rødegevej,8541,23,10.307232,56.275111
488244,Rødegevej,8541,24,10.306526,56.275069
488245,Rødegevej,8541,25,10.307633,56.274923
488246,Rødegevej,8541,26,10.306451,56.274832
488247,Rødegevej,8541,28,10.30691,56.274733
488248,Rødegevej,8541,30,10.307322,56.274679
489543,Safirvej,8541,1,10.294237,56.259658
489544,Safirvej,8541,3,10.294442,56.259467
489545,Safirvej,8541,4,10.293837,56.259281
489546,Safirvej,8541,5,10.294492,56.259274
489547,Safirvej,8541,6,10.293984,56.259072
489548,Safirvej,8541,7,10.294634,56.259088
489549,Safirvej,8541,9,10.294704,56.258854
489550,Safirvej,8541,10,10.294222,56.258701
489551,Safirvej,8541,11,10.294808,56.258641
489552,Safirvej,8541,12,10.294363,56.258489
489553,Safirvej,8541,13,10.295074,56.258436
489554,Safirvej,8541,14,10.294572,56.258284
489555,Safirvej,8541,15,10.295235,56.258147
489556,Safirvej,8541,16,10.294802,56.25795
489557,Safirvej,8541,17,10.295341,56.257913
489558,Safirvej,8541,18,10.294863,56.257733
489559,Safirvej,8541,19,10.2956,56.25769
489560,Safirvej,8541,20,10.295026,56.257516
489561,Safirvej,8541,21,10.295657,56.2575
489562,Safirvej,8541,22,10.295301,56.257199
489563,Safirvej,8541,23,10.295783,56.257342
489564,Safirvej,8541,24,10.295485,56.256954
489565,Safirvej,8541,25,10.29601,56.257137
489566,Safirvej,8541,26A,10.29559,56.25671
489567,Safirvej,8541,26B,10.295412,56.256667
489568,Safirvej,8541,26C,10.295728,56.256502
489569,Safirvej,8541,26D,10.29554,56.256459
489570,Safirvej,8541,26E,10.29597,56.256307
489571,Safirvej,8541,26F,10.295694,56.256242
489572,Safirvej,8541,27,10.296158,56.256987
489573,Safirvej,8541,28,10.296103,56.256611
489574,Safirvej,8541,30,10.29645,56.256701
489758,Sanatorievej,8541,6,10.336085,56.260328
489759,Sanatorievej,8541,8,10.336421,56.260207
489760,Sanatorievej,8541,10,10.336733,56.260217
489761,Sanatorievej,8541,12,10.337065,56.260155
489762,Sanatorievej,8541,14,10.337465,56.260142
489763,Sanatorievej,8541,16,10.337798,56.260121
489764,Sanatorievej,8541,18,10.338166,56.260085
489765,Sanatorievej,8541,20,10.338712,56.260115
489766,Sanatorievej,8541,22,10.33909,56.260116
489767,Sanatorievej,8541,24,10.339377,56.260135
489768,Sanatorievej,8541,28,10.340082,56.260091
489769,Sanatorievej,8541,32,10.340516,56.260001
489770,Sanatorievej,8541,34,10.34084,56.260074
489771,Sanatorievej,8541,38,10.342974,56.260172
490274,Segaltvej,8541,4,10.31379,56.282176
490275,Segaltvej,8541,5,10.311123,56.278395
490276,Segaltvej,8541,6A,10.314148,56.282748
490277,Segaltvej,8541,6B,10.313731,56.282851
490278,Segaltvej,8541,8,10.314088,56.283153
490279,Segaltvej,8541,10,10.313591,56.283751
490280,Segaltvej,8541,12,10.313353,56.283915
490281,Segaltvej,8541,14,10.313367,56.284284
490282,Segaltvej,8541,16,10.31301,56.284669
490283,Segaltvej,8541,16A,10.31306,56.285001
490284,Segaltvej,8541,18,10.312817,56.285547
490285,Segaltvej,8541,49,10.309956,56.278749
490286,Segaltvej,8541,51,10.310257,56.279011
490287,Segaltvej,8541,53,10.310484,56.279246
490288,Segaltvej,8541,55,10.310631,56.279415
490289,Segaltvej,8541,57,10.310148,56.279501
490290,Segaltvej,8541,59,10.309867,56.279338
490291,Segaltvej,8541,61,10.309734,56.279075
490292,Segaltvej,8541,63,10.309512,56.278888
490293,Segaltvej,8541,65,10.309389,56.278611
490294,Segaltvej,8541,161,10.312637,56.28107
490295,Segaltvej,8541,301,10.313293,56.282447
490296,Segaltvej,8541,303,10.31337,56.282581
490297,Segaltvej,8541,307,10.313384,56.282787
490298,Segaltvej,8541,311,10.312637,56.28289
490299,Segaltvej,8541,325,10.307567,56.282099
490300,Segaltvej,8541,349,10.312286,56.28323
490301,Segaltvej,8541,351,10.31315,56.283244
490302,Segaltvej,8541,377,10.312906,56.28374
490303,Segaltvej,8541,385,10.312857,56.283997
490304,Segaltvej,8541,389,10.312789,56.284231
490305,Segaltvej,8541,391,10.312569,56.284413
490306,Segaltvej,8541,393,10.31256,56.284557
490307,Segaltvej,8541,395,10.312479,56.28472
490308,Segaltvej,8541,451,10.311757,56.286587
490309,Segaltvej,8541,501,10.318938,56.287234
490310,Segaltvej,8541,505,10.322866,56.285485
494656,Skovlundvej,8541,1,10.31855,56.250183
494657,Skovlundvej,8541,3,10.317861,56.249925
494658,Skovlundvej,8541,5,10.312543,56.244379
494659,Skovlundvej,8541,7,10.313493,56.243277
494660,Skovlundvej,8541,7A,10.317748,56.239004
494661,Skovlundvej,8541,9,10.313141,56.24227
494662,Skovlundvej,8541,10,10.308372,56.250821
494663,Skovlundvej,8541,11,10.311959,56.242835
494664,Skovlundvej,8541,12,10.303588,56.248229
494665,Skovlundvej,8541,13,10.310454,56.242824
494666,Skovlundvej,8541,15,10.308094,56.244368
494667,Skovlundvej,8541,16,10.301221,56.245307
494668,Skovlundvej,8541,17,10.304088,56.245165
494669,Skovlundvej,8541,21,10.301232,56.243465
494670,Skovlundvej,8541,25,10.300111,56.24146
494671,Skovlundvej,8541,27,10.299983,56.241178
494672,Skovlundvej,8541,29,10.299431,56.240245
494673,Skovlundvej,8541,31,10.300709,56.24316
496613,Smedestien,8541,4,10.312996,56.279035
496614,Smedestien,8541,5,10.313481,56.279295
496615,Smedestien,8541,6,10.313471,56.278878
496616,Smedestien,8541,8,10.313807,56.278793
496617,Smedestien,8541,10,10.313579,56.278531
496618,Smedestien,8541,12,10.313502,56.278338
496619,Smedestien,8541,14,10.313964,56.278252
496620,Smedestien,8541,16,10.314165,56.278426
496621,Smedestien,8541,17,10.315517,56.27895
496622,Smedestien,8541,18,10.314174,56.278749
496623,Smedestien,8541,19,10.315811,56.278862
496624,Smedestien,8541,20,10.314457,56.278679
496625,Smedestien,8541,22,10.314844,56.278634
496626,Smedestien,8541,24,10.315117,56.278582
497624,Solvænget,8541,1A,10.31205,56.272787
497625,Solvænget,8541,1B,10.312152,56.272912
497626,Solvænget,8541,1C,10.312343,56.272824
497627,Solvænget,8541,1D,10.312513,56.272656
497628,Solvænget,8541,2,10.312178,56.272485
497629,Solvænget,8541,2A,10.312525,56.272418
497630,Solvænget,8541,3,10.312913,56.272598
497631,Solvænget,8541,4,10.312457,56.272239
497632,Solvænget,8541,5,10.313117,56.27274
497633,Solvænget,8541,6,10.312487,56.27205
497634,Solvænget,8541,7,10.313426,56.272903
497635,Solvænget,8541,8,10.31252,56.271821
497636,Solvænget,8541,9,10.313887,56.272732
497637,Solvænget,8541,10,10.312966,56.271713
497638,Solvænget,8541,11,10.313677,56.272536
497639,Solvænget,8541,12,10.312976,56.271933
497640,Solvænget,8541,13,10.313564,56.272362
497641,Solvænget,8541,14,10.313153,56.27207
497642,Solvænget,8541,16,10.313236,56.272244
498522,Stationsstien,8541,2A,10.306922,56.263645
498523,Stationsstien,8541,2B,10.306936,56.263582
498524,Stationsstien,8541,2C,10.306932,56.26351
498525,Stationsstien,8541,2D,10.30693,56.263452
498526,Stationsstien,8541,2E,10.306897,56.263371
498527,Stationsstien,8541,2F,10.306896,56.263317
498528,Stationsstien,8541,2G,10.306906,56.263245
498529,Stationsstien,8541,2H,10.306902,56.263182
498530,Stationsstien,8541,4,10.306427,56.263174
498531,Stationsstien,8541,5,10.30675,56.263027
498532,Stationsstien,8541,6,10.306026,56.263142
498533,Stationsstien,8541,7,10.306375,56.262945
498534,Stationsstien,8541,8,10.305877,56.263126
498535,Stationsstien,8541,9,10.306022,56.262944
498536,Stationsstien,8541,9A,10.306044,56.262756
498537,Stationsstien,8541,10,10.305628,56.263106
498538,Stationsstien,8541,12,10.305079,56.263233
498539,Stationsstien,8541,13,10.30542,56.262861
498540,Stationsstien,8541,14,10.304882,56.262997
498541,Stationsstien,8541,15,10.30549,56.26251
498542,Stationsstien,8541,17,10.304889,56.262691
498543,Stationsvangen,8541,5,10.302137,56.259764
498544,Stationsvangen,8541,64,10.303417,56.263125
498545,Stationsvangen,8541,66,10.30334,56.262685
498546,Stationsvangen,8541,67,10.303281,56.261212
498547,Stationsvangen,8541,68,10.302968,56.262608
498548,Stationsvangen,8541,69,10.303053,56.26064
498549,Stationsvangen,8541,70,10.302468,56.262685
498550,Stationsvangen,8541,73,10.302577,56.260981
498551,Stationsvangen,8541,10,10.305102,56.261951
499803,Stenvendervej,8541,2,10.344475,56.257164
499804,Stenvendervej,8541,3,10.344408,56.256769
499805,Stenvendervej,8541,4,10.344233,56.257059
499806,Stenvendervej,8541,5,10.344139,56.256759
499807,Stenvendervej,8541,6,10.34387,56.257103
499808,Stenvendervej,8541,7,10.343791,56.256722
499809,Stenvendervej,8541,8,10.343554,56.257133
499810,Stenvendervej,8541,9,10.343457,56.256663
499811,Stenvendervej,8541,10,10.343243,56.257083
499812,Stenvendervej,8541,11,10.343197,56.256625
499813,Stenvendervej,8541,13,10.342681,56.256554
499814,Stenvendervej,8541,15,10.342413,56.256535
499815,Stenvendervej,8541,16,10.342155,56.256843
499816,Stenvendervej,8541,17,10.342088,56.256507
499817,Stenvendervej,8541,18,10.341853,56.256815
499818,Stenvendervej,8541,19,10.341783,56.256497
499819,Stenvendervej,8541,20,10.341512,56.256756
499820,Stenvendervej,8541,21,10.341498,56.256464
499821,Stenvendervej,8541,22,10.341206,56.256791
499822,Stenvendervej,8541,23,10.341224,56.256426
499823,Stenvendervej,8541,24,10.340948,56.256717
500452,Strandløbervej,8541,1,10.346076,56.254262
500453,Strandløbervej,8541,3,10.345708,56.254221
500454,Strandløbervej,8541,4,10.345655,56.254455
500455,Strandløbervej,8541,6,10.344986,56.254494
500847,Studstrup Strandvej,8541,2,10.343912,56.258082
500848,Studstrup Strandvej,8541,4,10.343938,56.257812
500849,Studstrup Strandvej,8541,5,10.344452,56.257991
500850,Studstrup Strandvej,8541,6,10.344272,56.257472
500851,Studstrup Strandvej,8541,7,10.344529,56.257855
500852,Studstrup Strandvej,8541,12,10.345074,56.256358
500853,Studstrup Strandvej,8541,15,10.345196,56.256896
500854,Studstrup Strandvej,8541,17,10.345309,56.256737
500855,Studstrup Strandvej,8541,19,10.345412,56.256588
500856,Studstrup Strandvej,8541,20,10.345739,56.255146
500857,Studstrup Strandvej,8541,24,10.345904,56.254596
500858,Studstrup Strandvej,8541,27,10.346573,56.255389
500859,Studstrup Strandvej,8541,28,10.34618,56.253996
500860,Studstrup Strandvej,8541,29,10.346236,56.255145
500861,Studstrup Strandvej,8541,31,10.346312,56.254916
500862,Studstrup Strandvej,8541,33,10.346445,56.254604
500863,Studstrup Strandvej,8541,35,10.346488,56.254365
500864,Studstrup Strandvej,8541,39,10.346634,56.253995
500865,Studstrup Strandvej,8541,41,10.346695,56.253766
500866,Studstrupvej,8541,1,10.319278,56.250934
500867,Studstrupvej,8541,2,10.320729,56.250335
500868,Studstrupvej,8541,2A,10.321455,56.251423
500869,Studstrupvej,8541,3,10.319621,56.250737
500870,Studstrupvej,8541,4,10.321978,56.251359
500871,Studstrupvej,8541,5,10.319952,56.250963
500872,Studstrupvej,8541,6,10.325885,56.252297
500873,Studstrupvej,8541,7,10.322982,56.252386
500874,Studstrupvej,8541,8,10.330099,56.253559
500875,Studstrupvej,8541,9,10.329993,56.253933
500876,Studstrupvej,8541,10,10.331039,56.253468
500877,Studstrupvej,8541,11,10.334051,56.256765
500878,Studstrupvej,8541,11A,10.334694,56.257265
500879,Studstrupvej,8541,13A,10.334274,56.260509
500880,Studstrupvej,8541,13B,10.334426,56.260656
500881,Studstrupvej,8541,13C,10.334408,56.260741
500882,Studstrupvej,8541,13D,10.334415,56.260853
500883,Studstrupvej,8541,13E,10.334398,56.260935
500884,Studstrupvej,8541,13F,10.334354,56.261061
500885,Studstrupvej,8541,13G,10.33428,56.261138
500886,Studstrupvej,8541,13H,10.334672,56.260563
500887,Studstrupvej,8541,15,10.334994,56.260654
500888,Studstrupvej,8541,17A,10.333079,56.261057
500889,Studstrupvej,8541,17B,10.333456,56.261228
500890,Studstrupvej,8541,17C,10.333146,56.261366
500891,Studstrupvej,8541,17D,10.333031,56.261583
500892,Studstrupvej,8541,18,10.335093,56.259516
500893,Studstrupvej,8541,20,10.335473,56.260267
500894,Studstrupvej,8541,21A,10.333933,56.2616
500895,Studstrupvej,8541,21B,10.333882,56.26165
500896,Studstrupvej,8541,22,10.334441,56.265225
500897,Studstrupvej,8541,23,10.333699,56.2618
500898,Studstrupvej,8541,24,10.338786,56.264688
500899,Studstrupvej,8541,25,10.333276,56.261966
500900,Studstrupvej,8541,26,10.338921,56.264682
500901,Studstrupvej,8541,27,10.333041,56.262153
500902,Studstrupvej,8541,29,10.332568,56.262545
500903,Studstrupvej,8541,30,10.333322,56.266526
500904,Studstrupvej,8541,40,10.334826,56.268019
502552,Tagmosevej,8541,1,10.310723,56.263483
502553,Tagmosevej,8541,2,10.313126,56.26432
502554,Tagmosevej,8541,3,10.311132,56.263632
502555,Tagmosevej,8541,5,10.311346,56.263823
502556,Tagmosevej,8541,7,10.311621,56.264116
502557,Tagmosevej,8541,9,10.311795,56.264348
502558,Tagmosevej,8541,11,10.312174,56.264331
502559,Tagmosevej,8541,13,10.312609,56.264595
502560,Tagmosevej,8541,15,10.313005,56.264793
502561,Tagmosevej,8541,17,10.313278,56.26493
502562,Tagmosevej,8541,19,10.313528,56.26508
502563,Tagmosevej,8541,21A,10.312676,56.265399
502564,Tagmosevej,8541,21B,10.311909,56.265636
502565,Tagmosevej,8541,21C,10.312048,56.26581
502566,Tagmosevej,8541,21D,10.312609,56.265696
502567,Tagmosevej,8541,21E,10.313023,56.26562
502568,Tagmosevej,8541,21F,10.313425,56.265476
502569,Tagmosevej,8541,21G,10.313731,56.265581
502570,Tagmosevej,8541,21H,10.314007,56.265313
502571,Tagmosevej,8541,21I,10.314291,56.265521
502902,Terosevej,8541,1,10.308448,56.269294
502903,Terosevej,8541,2,10.307623,56.269451
502904,Terosevej,8541,3,10.308289,56.269107
502905,Terosevej,8541,4,10.307545,56.269286
502906,Terosevej,8541,5,10.308161,56.268915
502907,Terosevej,8541,6,10.307378,56.269054
502908,Terosevej,8541,7,10.308078,56.268736
502909,Terosevej,8541,8,10.307436,56.26886
502910,Terosevej,8541,9,10.307952,56.26854
502911,Terosevej,8541,10,10.307239,56.268682
502912,Terosevej,8541,11,10.307825,56.268353
502913,Terosevej,8541,11B,10.308524,56.268336
502914,Terosevej,8541,11C,10.308648,56.268555
502915,Terosevej,8541,11D,10.308981,56.268736
502916,Terosevej,8541,11E,10.309481,56.268686
502917,Terosevej,8541,11F,10.309143,56.268442
502918,Terosevej,8541,11G,10.309081,56.268245
502919,Terosevej,8541,11H,10.308933,56.268103
502920,Terosevej,8541,12,10.307163,56.268476
502921,Terosevej,8541,13,10.307761,56.268088
502922,Terosevej,8541,15,10.307534,56.267915
502923,Terosevej,8541,17,10.307439,56.267723
502924,Terosevej,8541,18,10.306891,56.267801
502925,Terosevej,8541,19,10.307334,56.267522
502926,Terosevej,8541,20,10.306792,56.267622
502927,Terosevej,8541,21,10.307203,56.267272
502928,Terosevej,8541,23,10.307199,56.267011
502929,Terosevej,8541,25,10.306975,56.26687
502930,Terosevej,8541,26,10.306208,56.266712
502931,Terosevej,8541,27,10.306756,56.266657
502932,Terosevej,8541,28,10.306126,56.266529
502933,Terosevej,8541,29,10.306695,56.266487
502934,Terosevej,8541,30,10.305412,56.265943
502935,Terosevej,8541,31,10.306581,56.266295
502936,Terosevej,8541,32,10.304929,56.265777
502937,Terosevej,8541,33,10.306366,56.266117
502938,Terosevej,8541,35,10.306247,56.26593
502939,Terosevej,8541,37,10.306554,56.26572
502940,Terosevej,8541,39,10.306806,56.265537
502941,Terosevej,8541,41,10.306419,56.265339
502942,Terosevej,8541,43,10.306166,56.265544
502943,Terosevej,8541,45,10.305923,56.265686
502944,Terosevej,8541,47,10.305252,56.265433
503609,Tinghøjvej,8541,90,10.265456,56.278079
503610,Tinghøjvej,8541,92,10.266441,56.278505
503611,Tinghøjvej,8541,111,10.265578,56.280131
503612,Tinghøjvej,8541,112,10.268315,56.280669
503613,Tinghøjvej,8541,114,10.266603,56.280458
503959,Tjørnebakken,8541,2,10.310042,56.263423
503960,Tjørnebakken,8541,3A,10.309786,56.263713
503961,Tjørnebakken,8541,3B,10.309828,56.263803
503962,Tjørnebakken,8541,3C,10.309865,56.263919
503963,Tjørnebakken,8541,4,10.310139,56.263651
503964,Tjørnebakken,8541,5A,10.309911,56.264044
503965,Tjørnebakken,8541,5B,10.309949,56.264156
503966,Tjørnebakken,8541,6,10.310361,56.264152
503967,Tjørnebakken,8541,7A,10.310036,56.264322
503968,Tjørnebakken,8541,7B,10.310156,56.264433
503969,Tjørnebakken,8541,8,10.310893,56.264007
503970,Tjørnebakken,8541,9A,10.310268,56.264553
503971,Tjørnebakken,8541,9B,10.310384,56.264664
503972,Tjørnebakken,8541,10,10.310682,56.264535
503973,Tjørnebakken,8541,11,10.311105,56.264661
503974,Tjørnebakken,8541,12,10.31107,56.26441
503975,Tjørnebakken,8541,14,10.311393,56.264307
503976,Tjørnebakken,8541,15,10.311593,56.264462
503986,Tjørnehegnet,8541,10,10.308784,56.263504
503987,Tjørnehegnet,8541,12,10.308789,56.263585
503988,Tjørnehegnet,8541,14,10.309155,56.263725
503989,Tjørnehegnet,8541,16,10.309211,56.26385
503990,Tjørnehegnet,8541,18,10.30929,56.263975
503991,Tjørnehegnet,8541,20,10.309449,56.26418
503992,Tjørnehegnet,8541,22,10.3095,56.264309
503993,Tjørnehegnet,8541,24,10.309554,56.264435
503994,Tjørnehegnet,8541,26,10.309601,56.264569
503995,Tjørnehegnet,8541,28,10.309684,56.264694
503996,Tjørnehegnet,8541,30,10.309742,56.264824
503997,Tjørnehegnet,8541,32,10.309769,56.264963
504276,Topasvej,8541,1,10.295251,56.260106
504277,Topasvej,8541,2,10.294564,56.260028
504278,Topasvej,8541,3,10.295357,56.259862
504279,Topasvej,8541,4,10.294714,56.259815
504280,Topasvej,8541,5,10.295766,56.259575
504281,Topasvej,8541,6,10.294966,56.259651
504282,Topasvej,8541,7,10.29586,56.259439
504283,Topasvej,8541,8,10.295032,56.259448
504284,Topasvej,8541,9,10.295978,56.259249
504285,Topasvej,8541,10,10.295208,56.259271
504286,Topasvej,8541,11,10.296211,56.259027
504287,Topasvej,8541,12,10.295337,56.259099
504288,Topasvej,8541,13,10.29623,56.258797
504289,Topasvej,8541,14,10.295388,56.258918
504290,Topasvej,8541,15,10.296361,56.258612
504291,Topasvej,8541,16,10.295503,56.258742
504292,Topasvej,8541,17,10.296636,56.258344
504293,Topasvej,8541,18,10.295658,56.258529
504294,Topasvej,8541,19,10.29667,56.258137
504295,Topasvej,8541,20,10.29577,56.258384
504296,Topasvej,8541,21,10.296838,56.257946
504297,Topasvej,8541,22,10.295966,56.258185
504298,Topasvej,8541,22A,10.296111,56.257967
504299,Topasvej,8541,23,10.297037,56.257648
504300,Topasvej,8541,24,10.296231,56.257701
504301,Topasvej,8541,25,10.297179,56.257453
504302,Topasvej,8541,26,10.296374,56.257565
504303,Topasvej,8541,27,10.297342,56.257285
504304,Topasvej,8541,28,10.29638,56.25734
504305,Topasvej,8541,29,10.297147,56.257071
504306,Topasvej,8541,30,10.296532,56.257145
504307,Topasvej,8541,31,10.296818,56.256841
505848,Trekærvej,8541,1,10.306848,56.286325
505849,Trekærvej,8541,3,10.306071,56.28791
506528,Tronkærvej,8541,125,10.280513,56.272942
506529,Tronkærvej,8541,129,10.281711,56.273114
506530,Tronkærvej,8541,135,10.283043,56.272592
506531,Tronkærvej,8541,137,10.284007,56.272484
506532,Tronkærvej,8541,150,10.288423,56.270798
506533,Tronkærvej,8541,159,10.290497,56.270767
506534,Tronkærvej,8541,174,10.289095,56.267776
506535,Tronkærvej,8541,221,10.302687,56.26789
506536,Tronkærvej,8541,223,10.302842,56.268082
506537,Tronkærvej,8541,225,10.302902,56.26827
506538,Tronkærvej,8541,227,10.303592,56.268393
506539,Tronkærvej,8541,229,10.303456,56.268214
506540,Tronkærvej,8541,231,10.303361,56.268004
506541,Tronkærvej,8541,233,10.303202,56.267817
509381,Vibeengen,8541,1,10.345311,56.256009
509382,Vibeengen,8541,3,10.344949,56.256013
509383,Vibeengen,8541,4,10.344716,56.256272
509384,Vibeengen,8541,5,10.34468,56.255971
509385,Vibeengen,8541,6,10.344454,56.256337
509386,Vibeengen,8541,7,10.344335,56.255934
509387,Vibeengen,8541,8,10.344163,56.256237
509388,Vibeengen,8541,9,10.344085,56.255915
509389,Vibeengen,8541,10,10.343719,56.256292
509390,Vibeengen,8541,11,10.343767,56.255869
509391,Vibeengen,8541,12,10.343443,56.256317
509392,Vibeengen,8541,13,10.343409,56.255832
509393,Vibeengen,8541,15,10.343081,56.255827
509394,Vibeengen,8541,16,10.34259,56.256209
509395,Vibeengen,8541,17,10.342808,56.25578
509396,Vibeengen,8541,18,10.342277,56.25615
509397,Vibeengen,8541,19,10.342467,56.255761
509398,Vibeengen,8541,20,10.341968,56.256095
509399,Vibeengen,8541,21,10.342151,56.255715
509400,Vibeengen,8541,22,10.3415,56.2561
509810,Vildrosevej,8541,1,10.308637,56.269665
509811,Vildrosevej,8541,2,10.30943,56.269504
509812,Vildrosevej,8541,3,10.308716,56.269848
509813,Vildrosevej,8541,4,10.309485,56.269674
509814,Vildrosevej,8541,5,10.30881,56.270009
509815,Vildrosevej,8541,6,10.30955,56.269911
510034,Vinrosevej,8541,1,10.306883,56.269603
510035,Vinrosevej,8541,2,10.30629,56.269699
510036,Vinrosevej,8541,3,10.306776,56.269415
510037,Vinrosevej,8541,4,10.306089,56.269544
510038,Vinrosevej,8541,5,10.30665,56.269205
510039,Vinrosevej,8541,6,10.305939,56.269307
510040,Vinrosevej,8541,7,10.306562,56.269049
510041,Vinrosevej,8541,8,10.305436,56.269366
510042,Vinrosevej,8541,9,10.306553,56.268802
510043,Vinrosevej,8541,10,10.305235,56.269615
510044,Vinrosevej,8541,11,10.306043,56.268973
510045,Vinrosevej,8541,12,10.304955,56.269573
510046,Vinrosevej,8541,13,10.305702,56.268919
510047,Vinrosevej,8541,14,10.304852,56.269292
510048,Vinrosevej,8541,15,10.305362,56.268895
510049,Vinrosevej,8541,17,10.305042,56.268863
510050,Vinrosevej,8541,19,10.304687,56.268835
510051,Vintergækvej,8541,1,10.295979,56.261078
510052,Vintergækvej,8541,2,10.296685,56.261138
510053,Vintergækvej,8541,3,10.295617,56.261041
510054,Vintergækvej,8541,4,10.296605,56.261336
510055,Vintergækvej,8541,5,10.295292,56.260941
510056,Vintergækvej,8541,6,10.296204,56.261448
510057,Vintergækvej,8541,7,10.294931,56.26086
510058,Vintergækvej,8541,8,10.295894,56.261402
510059,Vintergækvej,8541,9,10.29448,56.260819
510060,Vintergækvej,8541,10,10.295554,56.261338
510061,Vintergækvej,8541,11,10.294109,56.260697
510062,Vintergækvej,8541,12,10.295219,56.261292
510063,Vintergækvej,8541,13,10.293806,56.260665
510064,Vintergækvej,8541,14,10.294883,56.261219
510065,Vintergækvej,8541,16,10.294556,56.261146
510066,Vintergækvej,8541,18,10.294243,56.261091
510067,Vintergækvej,8541,20,10.293808,56.261105
510068,Violskrænten,8541,1,10.311561,56.270896
510069,Violskrænten,8541,2,10.312354,56.270857
510070,Violskrænten,8541,3,10.311908,56.27087
510071,Violskrænten,8541,4,10.312408,56.271027
510072,Violskrænten,8541,5,10.31169,56.271115
510073,Violskrænten,8541,6,10.312469,56.271206
510074,Violskrænten,8541,7,10.311653,56.271329
510075,Violskrænten,8541,8,10.312742,56.271401
510076,Violskrænten,8541,10,10.312209,56.271451
510751,Vorrevej,8541,1,10.314542,56.276328
510752,Vorrevej,8541,2,10.314816,56.276599
510753,Vorrevej,8541,3,10.31403,56.276378
510754,Vorrevej,8541,3A,10.314048,56.276082
510755,Vorrevej,8541,4,10.31458,56.276709
510756,Vorrevej,8541,5,10.313679,56.2764
510757,Vorrevej,8541,6,10.314389,56.276725
510758,Vorrevej,8541,7,10.313107,56.276438
510759,Vorrevej,8541,8,10.314275,56.27674
510760,Vorrevej,8541,10,10.314061,56.276755
510761,Vorrevej,8541,12,10.313788,56.276794
510762,Vorrevej,8541,14,10.313233,56.276805
510763,Vorrevej,8541,16,10.312806,56.276782
510764,Vorrevej,8541,18,10.312452,56.27679
510765,Vorrevej,8541,21,10.310678,56.276351
510766,Vorrevej,8541,24,10.30842,56.276519
510767,Vorrevej,8541,26,10.308093,56.276464
510768,Vorrevej,8541,28,10.307755,56.276512
510769,Vorrevej,8541,28B,10.302422,56.27731
510770,Vorrevej,8541,28C,10.302006,56.277332
510771,Vorrevej,8541,30,10.296862,56.278819
510772,Vorrevej,8541,30A,10.296156,56.278741
510773,Vorrevej,8541,32A,10.295351,56.278597
510774,Vorrevej,8541,32B,10.294926,56.27875
510775,Vorrevej,8541,33,10.295903,56.278092
510776,Vorrevej,8541,34,10.294891,56.278521
510777,Vorrevej,8541,35,10.294801,56.278347
510778,Vorrevej,8541,37,10.294523,56.278358
510779,Vorrevej,8541,38,10.2946,56.278528
510780,Vorrevej,8541,39,10.294217,56.27829
510781,Vorrevej,8541,39A,10.293927,56.278396
510782,Vorrevej,8541,40,10.294113,56.278596
510783,Vorrevej,8541,41,10.293806,56.2782
510784,Vosnæsvej,8541,1,10.327253,56.28365
510785,Vosnæsvej,8541,2,10.33308,56.280555
510786,Vosnæsvej,8541,3,10.350424,56.282604
510787,Vosnæsvej,8541,4,10.335151,56.281988
510788,Vosnæsvej,8541,5,10.354068,56.282722
510789,Vosnæsvej,8541,6,10.350548,56.282284
510790,Vosnæsvej,8541,7,10.354042,56.282915
510791,Vosnæsvej,8541,8,10.350958,56.282257
510792,Vosnæsvej,8541,9,10.354426,56.283644
510793,Vosnæsvej,8541,10,10.35161,56.282219
510794,Vosnæsvej,8541,12,10.351908,56.282202
510795,Vosnæsvej,8541,14,10.352635,56.282154
510796,Vosnæsvej,8541,16,10.353199,56.282125
510797,Vosnæsvej,8541,18,10.35318,56.282013
510798,Vosnæsvej,8541,22,10.354145,56.281468
510799,Vosnæsvej,8541,24,10.382655,56.283116
510800,Vosnæsvej,8541,26,10.384031,56.281914
510801,Vosnæsvej,8541,28,10.384471,56.28159
510802,Vosnæsvej,8541,32,10.385669,56.280728
511101,Æblerosevej,8541,1,10.307195,56.269932
511102,Æblerosevej,8541,2,10.307758,56.269813
511103,Æblerosevej,8541,3,10.307172,56.270143
511104,Æblerosevej,8541,4,10.307843,56.269997
511105,Æblerosevej,8541,5,10.307322,56.27033
511106,Æblerosevej,8541,6,10.307917,56.270171
511107,Æblerosevej,8541,7,10.307279,56.270672
511108,Æblerosevej,8541,8,10.308078,56.270462
511109,Æblerosevej,8541,9,10.307645,56.270619
511200,Ønsbækvej,8541,3,10.341792,56.259866
511201,Ønsbækvej,8541,5,10.342153,56.259916
511202,Ønsbækvej,8541,7,10.342486,56.259643
511203,Ønsbækvej,8541,9,10.342036,56.259589
511204,Ønsbækvej,8541,10,10.340927,56.258528
511205,Ønsbækvej,8541,11,10.341985,56.259397
511206,Ønsbækvej,8541,12,10.341476,56.258522
511207,Ønsbækvej,8541,12A,10.341717,56.258411
511208,Ønsbækvej,8541,13,10.341988,56.259163
511209,Ønsbækvej,8541,14,10.341929,56.257699
511210,Ønsbækvej,8541,15,10.341978,56.258979
511211,Ønsbækvej,8541,16A,10.34191,56.25738
511212,Ønsbækvej,8541,16B,10.342,56.257204
511213,Ønsbækvej,8541,17,10.34253,56.259279
511214,Ønsbækvej,8541,18,10.342415,56.256953
511215,Ønsbækvej,8541,19,10.342844,56.259455
511216,Ønsbækvej,8541,21,10.343197,56.259146
511217,Ønsbækvej,8541,22,10.342876,56.256256
511218,Ønsbækvej,8541,23A,10.34386,56.258954
511219,Ønsbækvej,8541,23B,10.343738,56.258789
511220,Ønsbækvej,8541,25,10.342218,56.258662
511221,Ønsbækvej,8541,31,10.342559,56.257688
511222,Ønsbækvej,8541,33,10.342973,56.257733
511223,Ønsbækvej,8541,33A,10.343403,56.257805
511224,Ønsbækvej,8541,35,10.343693,56.257491
511225,Ønsbækvej,8541,37,10.343156,56.257412
511226,Ønsbækvej,8541,39,10.342709,56.257372
511227,Ønsbækvej,8541,41,10.34291,56.257024
511938,Østergårds Alle,8541,1,10.312222,56.264748
511939,Østergårds Alle,8541,2,10.312546,56.265059
511940,Østergårds Alle,8541,3,10.311839,56.26486
511941,Østergårds Alle,8541,4,10.312232,56.265134
511942,Østergårds Alle,8541,5,10.311565,56.264948
511943,Østergårds Alle,8541,6,10.312012,56.265271
511944,Østergårds Alle,8541,7,10.311315,56.265094
511945,Østergårds Alle,8541,8,10.311679,56.265365
513277,Åstrup Strandvej,8541,59A,10.333124,56.244208
513278,Åstrup Strandvej,8541,59B,10.332759,56.245187
513279,Åstrup Strandvej,8541,61,10.333136,56.246086
513280,Åstrup Strandvej,8541,62,10.334938,56.243048
513281,Åstrup Strandvej,8541,62B,10.336376,56.242929
513282,Åstrup Strandvej,8541,64,10.334852,56.244648
513283,Åstrup Strandvej,8541,64A,10.334864,56.244787
513284,Åstrup Strandvej,8541,66,10.335026,56.245037
513285,Åstrup Strandvej,8541,68A,10.342174,56.244322
513286,Åstrup Strandvej,8541,70,10.322628,56.250179
513287,Åstrup Strandvej,8541,72,10.32237,56.249899
513288,Åstrupgårdvej,8541,4,10.326778,56.262557
513289,Åstrupgårdvej,8541,5,10.326405,56.262624
513290,Åstrupgårdvej,8541,6,10.33164,56.262478
513291,Åstrupgårdvej,8541,6A,10.331934,56.262354
513292,Åstrupgårdvej,8541,7,10.329749,56.263932
513293,Åstrupgårdvej,8541,8,10.332242,56.262256
513294,Åstrupgårdvej,8541,10,10.332433,56.262254
513295,Åstrupvej,8541,1,10.318526,56.251328
513296,Åstrupvej,8541,5,10.316819,56.255332
787958,Grenåvej,8541,765A,10.31713,56.278718
787959,Grenåvej,8541,763A,10.316782,56.278515
787960,Grenåvej,8541,757A,10.316619,56.277793
787961,Grenåvej,8541,757B,10.316507,56.277803
787962,Grenåvej,8541,757C,10.316435,56.277858
787963,Grenåvej,8541,757D,10.316323,56.277868
787964,Grenåvej,8541,757F,10.316174,56.277919
787965,Grenåvej,8541,757E,10.316264,56.277914
787966,Segaltvej,8541,147,10.311934,56.281172
787967,Segaltvej,8541,157,10.311881,56.280548
787968,Segaltvej,8541,145A,10.311396,56.281321
787969,Segaltvej,8541,145D,10.31167,56.281305
787970,Segaltvej,8541,143,10.311134,56.281266
787971,Segaltvej,8541,75,10.311852,56.2802556
787972,Segaltvej,8541,91,10.311642,56.279616
787973,Segaltvej,8541,93,10.311575,56.279477
787974,Segaltvej,8541,105,10.310806,56.279679
787975,Segaltvej,8541,107A,10.310529,56.279641
787976,Segaltvej,8541,107D,10.310251,56.279694
787977,Segaltvej,8541,113,10.310472,56.279961
787978,Segaltvej,8541,111,10.310156,56.279906
787979,Segaltvej,8541,109,10.310123,56.279834
787982,Grenåvej,8541,643,10.305788,56.260498
787983,Grenåvej,8541,645B,10.305494,56.260214
787984,Grenåvej,8541,645C,10.305324,56.260216
787985,Grenåvej,8541,645D,10.305136,56.260339
787986,Grenåvej,8541,645E,10.30513,56.260438
787987,Grenåvej,8541,645F,10.305129,56.260541
787988,Grenåvej,8541,645G,10.305119,56.260649
787989,Grenåvej,8541,645H,10.305113,56.260766
787990,Grenåvej,8541,645K,10.305108,56.260865
787991,Grenåvej,8541,645L,10.305496,56.260987
787992,Grenåvej,8541,645M,10.3057354,56.2609749
787993,Grenåvej,8541,645A,10.30552,56.260676
787994,Grenåvej,8541,647A,10.306165,56.261236
787995,Grenåvej,8541,647B,10.306058,56.261196
787996,Grenåvej,8541,647C,10.305937,56.261229
787997,Grenåvej,8541,647D,10.305829,56.261194
787998,Grenåvej,8541,647E,10.305718,56.261222
787999,Grenåvej,8541,647F,10.305612,56.261188
788000,Grenåvej,8541,647G,10.305493,56.26122
788001,Grenåvej,8541,647H,10.305385,56.261186
788002,Grenåvej,8541,647K,10.305273,56.261218
788003,Grenåvej,8541,647L,10.305164,56.261188
788004,Grenåvej,8541,647M,10.305065,56.26122
788005,Stationsvangen,8541,85,10.304258,56.261763
788006,Stationsvangen,8541,89,10.30417,56.261886
788007,Stationsvangen,8541,93,10.3041,56.261981
788008,Stationsvangen,8541,91,10.304135,56.261931
788009,Stationsvangen,8541,87,10.304211,56.261827
788010,Stationsvangen,8541,79,10.303804,56.261813
788011,Stationsvangen,8541,81,10.303866,56.261768
788012,Stationsvangen,8541,83,10.303929,56.261722
788013,Stationsvangen,8541,77,10.303636,56.261653
788014,Stationsvangen,8541,75,10.303566,56.261672
788015,Stationsvangen,8541,53,10.304197,56.261468
788016,Stationsvangen,8541,57,10.304019,56.261443
788017,Stationsvangen,8541,61,10.303833,56.261418
788018,Stationsvangen,8541,65,10.303653,56.261388
788019,Stationsvangen,8541,41,10.304118,56.261271
788020,Stationsvangen,8541,55,10.304104,56.261455
788021,Stationsvangen,8541,59,10.303919,56.26143
788022,Stationsvangen,8541,63,10.303743,56.261401
788023,Stationsvangen,8541,43,10.304023,56.261254
788024,Stationsvangen,8541,45,10.303924,56.261237
788025,Stationsvangen,8541,49,10.303743,56.261212
788026,Stationsvangen,8541,47,10.303839,56.261224
788027,Stationsvangen,8541,51,10.30367,56.261195
788028,Stationsvangen,8541,31,10.304148,56.261082
788029,Stationsvangen,8541,33,10.304046,56.261065
788030,Stationsvangen,8541,37,10.303813,56.261022
788031,Stationsvangen,8541,35,10.303926,56.261039
788032,Stationsvangen,8541,39,10.303709,56.261001
788033,Stationsvangen,8541,29,10.30411,56.260884
788034,Stationsvangen,8541,17,10.303739,56.260637
788035,Stationsvangen,8541,23,10.303924,56.260756
788036,Stationsvangen,8541,25,10.303986,56.2608
788037,Stationsvangen,8541,27,10.304052,56.260845
788038,Stationsvangen,8541,21,10.303868,56.260721
788039,Stationsvangen,8541,19,10.303805,56.260681
788040,Stationsvangen,8541,15B,10.304103,56.260646
788041,Stationsvangen,8541,15A,10.304073,56.260611
788042,Stationsvangen,8541,13B,10.304029,56.260553
788043,Stationsvangen,8541,13A,10.304005,56.260522
788044,Stationsvangen,8541,11B,10.30395,56.260455
788045,Stationsvangen,8541,11A,10.303921,56.260419
788046,Stationsvangen,8541,9B,10.304309,56.260545
788047,Stationsvangen,8541,9A,10.304311,56.260491
788048,Stationsvangen,8541,7B,10.304322,56.260406
788049,Stationsvangen,8541,7A,10.304323,56.260343
788050,Elmely,8541,7,10.308742,56.267323
788051,Terosevej,8541,11K,10.308844,56.267861
788052,Terosevej,8541,11L,10.308682,56.267688
788053,Terosevej,8541,11M,10.308167,56.267814
788054,Terosevej,8541,11N,10.308338,56.267988
788056,Grenåvej,8541,758,10.316852,56.277085
788057,Grenåvej,8541,760,10.316981,56.27721
788058,Grenåvej,8541,764,10.317491,56.277564
788059,Grenåvej,8541,762B,10.317934,56.277128
788060,Grenåvej,8541,762C,10.31808,56.277086
788061,Vorrevej,8541,9,10.312806,56.276459
788062,Vorrevej,8541,11,10.312472,56.276467
788063,Vorrevej,8541,13,10.312155,56.276475
788064,Vorrevej,8541,15,10.3117292,56.2764614
788065,Vorrevej,8541,17,10.311407,56.276474
788066,Vorrevej,8541,19,10.31106,56.276473
788067,Landlyst,8541,11,10.308748,56.276946
788068,Landlyst,8541,13,10.308754,56.277184
788069,Landlyst,8541,27,10.309066,56.277689
788070,Landlyst,8541,29,10.309149,56.277962
788071,Landlyst,8541,8,10.310175,56.276945
788072,Landlyst,8541,10,10.310152,56.27721
788073,Landlyst,8541,12,10.310376,56.277558
788074,Landlyst,8541,14,10.310481,56.277755
788075,Landlyst,8541,16,10.310564,56.277934
788076,Landlyst,8541,18,10.310591,56.278091
788077,Segaltvej,8541,39,10.310442,56.278577
788078,Segaltvej,8541,41,10.310538,56.278639
788079,Segaltvej,8541,43,10.310634,56.278719
788080,Segaltvej,8541,45,10.310713,56.278786
788081,Segaltvej,8541,47,10.3108148,56.2788519
788082,Segaltvej,8541,21,10.311235,56.278695
788083,Segaltvej,8541,37,10.311451,56.279245
788084,Segaltvej,8541,23,10.311273,56.278762
788085,Segaltvej,8541,25,10.3113042,56.2788237
788086,Segaltvej,8541,27,10.311315,56.278896
788087,Segaltvej,8541,29,10.311349,56.278968
788088,Segaltvej,8541,31,10.311387,56.279035
788089,Segaltvej,8541,33,10.311393,56.279102
788090,Segaltvej,8541,35,10.311424,56.2791732
788091,Segaltvej,8541,107B,10.310431,56.27966
788092,Segaltvej,8541,107C,10.3103288,56.2796794
788093,Segaltvej,8541,103,10.310884,56.279826
788094,Segaltvej,8541,101,10.310961,56.279987
788095,Segaltvej,8541,99,10.311365,56.279915
788096,Segaltvej,8541,97,10.311229,56.27976
788097,Segaltvej,8541,95,10.31115,56.279576
788100,Bakketoften,8541,12,10.3001506,56.2568415
788101,Bakketoften,8541,1,10.30266,56.25638
788102,Bakketoften,8541,26,10.2999249,56.2566196
788103,Bakketoften,8541,15,10.298672,56.256139
788105,Gartnerhaven,8541,15,10.30553,56.264527
788106,Gartnerhaven,8541,17,10.305408,56.264425
788107,Gartnerhaven,8541,19,10.3052599,56.2643269
788108,Gartnerhaven,8541,21,10.30513,56.2642305
788109,Gartnerhaven,8541,23,10.304988,56.264123
788110,Gartnerhaven,8541,75,10.303317,56.265067
788111,Gartnerhaven,8541,77,10.303349,56.265143
788112,Gartnerhaven,8541,79,10.303381,56.265214
788113,Gartnerhaven,8541,81,10.303344,56.265291
788114,Gartnerhaven,8541,83,10.303365,56.265363
788115,Gartnerhaven,8541,85,10.303398,56.265434
788116,Gartnerhaven,8541,87,10.303426,56.265501
788117,Gartnerhaven,8541,89,10.303453,56.265573
788118,Gartnerhaven,8541,91,10.303494,56.265644
788119,Gartnerhaven,8541,93,10.303619,56.26576
788120,Gartnerhaven,8541,101,10.304061,56.265917
788121,Gartnerhaven,8541,97,10.303837,56.265838
788122,Gartnerhaven,8541,95,10.303733,56.265799
788123,Gartnerhaven,8541,99,10.303942,56.265873
788125,Fruenshøj,8541,2,10.320146,56.276169
788126,Fruenshøj,8541,10,10.321178,56.276644
788127,Fruenshøj,8541,12,10.321585,56.276446
788128,Fruenshøj,8541,14,10.321216,56.276324
788129,Fruenshøj,8541,16,10.321713,56.276135
788130,Fruenshøj,8541,18,10.322038,56.276271
788131,Fruenshøj,8541,20,10.322316,56.276452
788132,Fruenshøj,8541,22,10.321943,56.27668
788133,Fruenshøj,8541,32,10.323124,56.276883
788134,Fruenshøj,8541,42,10.323422,56.277114
788135,Fruenshøj,8541,44,10.323633,56.277372
788136,Fruenshøj,8541,46,10.323276,56.277493
788137,Fruenshøj,8541,48,10.322788,56.277606
788138,Fruenshøj,8541,34,10.322765,56.277009
788139,Fruenshøj,8541,36,10.322318,56.277175
788140,Fruenshøj,8541,38,10.322597,56.277354
788141,Fruenshøj,8541,40,10.323051,56.277226
788142,Fruenshøj,8541,24,10.321645,56.276859
788143,Fruenshøj,8541,26,10.321961,56.276986
788144,Fruenshøj,8541,28,10.322326,56.276766
788145,Fruenshøj,8541,30,10.322755,56.276622
788162,Segaltvej,8541,131,10.310876,56.280725
788163,Segaltvej,8541,141,10.311099,56.281208
788164,Segaltvej,8541,145B,10.311491,56.281338
788165,Segaltvej,8541,145C,10.311575,56.281274
792559,Engskovvænget,8541,2A,10.304422,56.256869
792560,Engskovvænget,8541,2B,10.304412,56.256829
792561,Engskovvænget,8541,4A,10.304401,56.256793
792562,Engskovvænget,8541,4B,10.30441,56.256748
792563,Engskovvænget,8541,6A,10.304378,56.256712
792564,Engskovvænget,8541,6B,10.304366,56.256672
792565,Engskovvænget,8541,8A,10.304358,56.256627
792566,Engskovvænget,8541,8B,10.304343,56.256587
792567,Engskovvænget,8541,10,10.304335,56.256475
792568,Engskovvænget,8541,12,10.304324,56.256439
792569,Engskovvænget,8541,14,10.304314,56.256403
792570,Engskovvænget,8541,16,10.304305,56.256363
792571,Engskovvænget,8541,18,10.304294,56.256322
792572,Engskovvænget,8541,20,10.304279,56.256282
792573,Engskovvænget,8541,22,10.304268,56.256242
792574,Engskovvænget,8541,24,10.304255,56.256206
792575,Engskovvænget,8541,26,10.304248,56.256175
792576,Engskovvænget,8541,28,10.304242,56.25608
792577,Engskovvænget,8541,30,10.30423,56.256045
792578,Engskovvænget,8541,32,10.304219,56.256004
792579,Engskovvænget,8541,34,10.304236,56.255964
792580,Engskovvænget,8541,36,10.3042,56.255928
792581,Engskovvænget,8541,38,10.304187,56.255888
792582,Engskovvænget,8541,40,10.304175,56.255838
792583,Engskovvænget,8541,42,10.304164,56.255803
792584,Engskovvænget,8541,44,10.304891,56.255755
792585,Engskovvænget,8541,46,10.304881,56.255786
792586,Engskovvænget,8541,48,10.304869,56.255827
792587,Engskovvænget,8541,50,10.304857,56.255863
792588,Engskovvænget,8541,52,10.304846,56.255903
792589,Engskovvænget,8541,54,10.304859,56.255953
792590,Engskovvænget,8541,56,10.30482,56.255993
792591,Engskovvænget,8541,58,10.304806,56.256038
792592,Engskovvænget,8541,60,10.304795,56.256075
792593,Engskovvænget,8541,62,10.30499,56.256396
792594,Engskovvænget,8541,64,10.305018,56.256346
792595,Engskovvænget,8541,66,10.305054,56.256292
792596,Engskovvænget,8541,68,10.305082,56.256242
792597,Engskovvænget,8541,70,10.305103,56.256202
792598,Engskovvænget,8541,72,10.305227,56.256128
792599,Engskovvænget,8541,74,10.305252,56.256083
792600,Engskovvænget,8541,76,10.30528,56.256033
792601,Engskovvænget,8541,78,10.305297,56.255993
792602,Engskovvænget,8541,80,10.305331,56.255943
792603,Engskovvænget,8541,82,10.305438,56.255852
792604,Engskovvænget,8541,84,10.305463,56.255802
792605,Engskovvænget,8541,86,10.305487,56.255757
792606,Engskovvænget,8541,88,10.305515,56.255703
792607,Engskovvænget,8541,90,10.305538,56.255658
792608,Engskovvænget,8541,92,10.306305,56.255794
792609,Engskovvænget,8541,94,10.306253,56.255835
792610,Engskovvænget,8541,96,10.306201,56.255875
792611,Engskovvænget,8541,98,10.306146,56.255912
792612,Engskovvænget,8541,100,10.305979,56.255999
792613,Engskovvænget,8541,102,10.305924,56.25604
792614,Engskovvænget,8541,104,10.305866,56.256081
792615,Engskovvænget,8541,108,10.305522,56.256619
792616,Engskovvænget,8541,110,10.305583,56.256583
792617,Engskovvænget,8541,112,10.30564,56.256551
792618,Engskovvænget,8541,114,10.305708,56.256514
792619,Engskovvænget,8541,116,10.305771,56.256482
792620,Engskovvænget,8541,118,10.305933,56.256426
792621,Engskovvænget,8541,120,10.30599,56.256394
792622,Engskovvænget,8541,122,10.306059,56.256353
792623,Engskovvænget,8541,124,10.306129,56.256321
792624,Engskovvænget,8541,126,10.306198,56.25628
792625,Engskovvænget,8541,128,10.30639,56.256224
792626,Engskovvænget,8541,130,10.306455,56.256187
792627,Engskovvænget,8541,132,10.306523,56.256151
792628,Engskovvænget,8541,134,10.306586,56.256114
792629,Engskovvænget,8541,136,10.306652,56.256077
792630,Engskovvænget,8541,138,10.307078,56.256387
792631,Engskovvænget,8541,140,10.30699,56.256415
792632,Engskovvænget,8541,142,10.306896,56.256439
792633,Engskovvænget,8541,144,10.306814,56.256462
792634,Engskovvænget,8541,146,10.306728,56.256485
792635,Engskovvænget,8541,148,10.306646,56.256509
792636,Engskovvænget,8541,150,10.306564,56.256532
792637,Engskovvænget,8541,152,10.30558,56.256933
792638,Engskovvænget,8541,154,10.305678,56.256919
792639,Engskovvænget,8541,156,10.305773,56.256904
792640,Engskovvænget,8541,158,10.305869,56.25689
792641,Engskovvænget,8541,160,10.305962,56.256875
792642,Engskovvænget,8541,162,10.306157,56.256882
792643,Engskovvænget,8541,164,10.306257,56.256868
792644,Engskovvænget,8541,166,10.306359,56.256853
792645,Engskovvænget,8541,168,10.306453,56.256839
792646,Engskovvænget,8541,170,10.306545,56.256824
792647,Engskovvænget,8541,172,10.306734,56.256831
792648,Engskovvænget,8541,174,10.306838,56.256817
792649,Engskovvænget,8541,176,10.306932,56.256802
792650,Engskovvænget,8541,178,10.307029,56.256783
792651,Engskovvænget,8541,180,10.307129,56.256769
792652,Engskovvænget,8541,182,10.306299,56.2572
792653,Engskovvænget,8541,184,10.306403,56.257203
792654,Engskovvænget,8541,186,10.306499,56.257202
792655,Engskovvænget,8541,188,10.3066,56.257206
792656,Engskovvænget,8541,190,10.306703,56.257205
792657,Engskovvænget,8541,192,10.306821,56.257203
795144,Engskovvænget,8541,106,10.30581,56.256149
795881,Grenåvej,8541,615,10.298654,56.241888
795882,Grenåvej,8541,623,10.300092,56.245638
795883,Grenåvej,8541,625,10.300078,56.246078
795884,Grenåvej,8541,627,10.301573,56.251652
795885,Grenåvej,8541,627A,10.300351,56.250851
795886,Grenåvej,8541,629,10.299648,56.251775
795887,Grenåvej,8541,631D,10.300281,56.253254
795888,Grenåvej,8541,631E,10.300627,56.253261
795889,Grenåvej,8541,631F,10.300545,56.253096
795890,Grenåvej,8541,631G,10.300104,56.252903
795891,Grenåvej,8541,631H,10.300393,56.252859
795892,Grenåvej,8541,633A,10.300944,56.252216
795893,Grenåvej,8541,633B,10.301449,56.252569
795894,Grenåvej,8541,635A,10.301074,56.25411
795895,Grenåvej,8541,635B,10.298526,56.25331
795896,Grenåvej,8541,645N,10.305948,56.260973
795897,Grenåvej,8541,646A,10.30526,56.258249
795898,Grenåvej,8541,646B,10.305253,56.258303
795899,Grenåvej,8541,646C,10.305325,56.258342
795900,Grenåvej,8541,646D,10.305318,56.258396
795901,Grenåvej,8541,646E,10.305389,56.25844
795902,Grenåvej,8541,647N,10.305494,56.261557
795903,Grenåvej,8541,647P,10.305876,56.261486
795904,Grenåvej,8541,648A,10.305258,56.25855
795905,Grenåvej,8541,648B,10.305255,56.258604
795906,Grenåvej,8541,648C,10.305326,56.258648
795907,Grenåvej,8541,648D,10.305321,56.258706
795908,Grenåvej,8541,648E,10.305396,56.25875
795909,Grenåvej,8541,648F,10.305264,56.258851
795910,Grenåvej,8541,648G,10.30526,56.258905
795911,Grenåvej,8541,648H,10.305331,56.258949
795912,Grenåvej,8541,648K,10.305329,56.259007
795913,Grenåvej,8541,652,10.303752,56.254491
795914,Grenåvej,8541,653A,10.306284,56.261944
795915,Grenåvej,8541,659,10.306698,56.262506
795916,Grenåvej,8541,681A,10.30742,56.264547
795917,Grenåvej,8541,699B,10.309987,56.269516
795918,Grenåvej,8541,700A,10.310536,56.269645
795919,Grenåvej,8541,707,10.310033,56.272171
795920,Grenåvej,8541,724,10.312369,56.273004
795921,Grenåvej,8541,726,10.312446,56.273075
795922,Grenåvej,8541,734A,10.313868,56.273761
795923,Grenåvej,8541,738E,10.315114,56.273734
795924,Grenåvej,8541,738F,10.315406,56.273943
795925,Grenåvej,8541,744,10.316193,56.275466
795926,Grenåvej,8541,754,10.316591,56.276796
795927,Grenåvej,8541,757G,10.31636,56.277809
795928,Grenåvej,8541,758A,10.317311,56.276927
795929,Grenåvej,8541,762,10.317179,56.277365
795930,Grenåvej,8541,768A,10.317759,56.277862
795931,Grenåvej,8541,795B,10.319943,56.281091
795932,Grenåvej,8541,795D,10.319725,56.281147
795933,Grenåvej,8541,795E,10.319736,56.28099
795934,Grenåvej,8541,795F,10.319682,56.280932
795935,Grenåvej,8541,795G,10.319643,56.280879
795936,Grenåvej,8541,795H,10.319748,56.281417
795937,Grenåvej,8541,797A,10.318907,56.280922
795938,Grenåvej,8541,797B,10.318963,56.28098
795939,Grenåvej,8541,797C,10.319008,56.281038
795940,Grenåvej,8541,797D,10.319061,56.281096
795941,Grenåvej,8541,797E,10.319116,56.281212
795942,Grenåvej,8541,797F,10.3191685,56.2812705
795943,Grenåvej,8541,797G,10.3192172,56.2813332
795944,Grenåvej,8541,797H,10.319271,56.281395
795945,Grenåvej,8541,797K,10.319364,56.281605
795946,Grenåvej,8541,797L,10.319474,56.281577
795947,Grenåvej,8541,797M,10.319592,56.281549
795948,Grenåvej,8541,797N,10.319688,56.281525
795949,Grenåvej,8541,797P,10.320024,56.281445
795950,Grenåvej,8541,797R,10.319982,56.281387
795951,Grenåvej,8541,797S,10.319933,56.281338
795952,Grenåvej,8541,805,10.320578,56.281733
795953,Grenåvej,8541,812,10.321793,56.281175
795954,Grenåvej,8541,814,10.321906,56.281326
795955,Grenåvej,8541,816,10.322084,56.281468
795956,Grenåvej,8541,818,10.32215,56.281742
795957,Grenåvej,8541,820,10.322274,56.28183
795958,Grenåvej,8541,822,10.322329,56.281879
795959,Grenåvej,8541,828,10.323029,56.282411
795960,Grenåvej,8541,830,10.323261,56.282619
795961,Grenåvej,8541,832,10.323511,56.282846
795962,Grenåvej,8541,834,10.323761,56.283014
798798,Studstrupvej,8541,8A,10.330263,56.253216
798799,Studstrupvej,8541,11B,10.330563,56.257305
798800,Studstrupvej,8541,19A,10.334038,56.261347
798801,Studstrupvej,8541,19B,10.333956,56.261429
798802,Studstrupvej,8541,20A,10.335475,56.260438
798803,Studstrupvej,8541,42,10.332345,56.267916
802829,Præstekravevej,8541,25B,10.340357,56.258201
802830,Præstekravevej,8541,25C,10.340891,56.258268
802831,Edderfuglevej,8541,23,10.339564,56.25905
802832,Ønsbækvej,8541,2,10.34123,56.259962
802833,Ønsbækvej,8541,4,10.341309,56.259759
802834,Ønsbækvej,8541,12B,10.341447,56.258288
802835,Ønsbækvej,8541,27,10.342378,56.258346
802836,Stenvendervej,8541,1,10.344746,56.256837
802840,Studstrup Strandvej,8541,1,10.344287,56.258244
802841,Studstrup Strandvej,8541,3,10.344384,56.258108
802842,Studstrup Strandvej,8541,9,10.34488,56.257645
802843,Studstrup Strandvej,8541,13,10.345229,56.257246
802844,Studstrup Strandvej,8541,21,10.345726,56.25618
802845,Studstrup Strandvej,8541,23,10.345905,56.255814
802846,Studstrup Strandvej,8541,25,10.346066,56.255588
802847,Studstrup Strandvej,8541,37,10.346576,56.254167
802849,Ibisvej,8541,2,10.335312,56.259662
802851,Sanatorievej,8541,30,10.340308,56.260152
802852,Havbakken,8541,1A,10.339827,56.256787
802853,Åstrupgårdvej,8541,5A,10.327104,56.262981
802854,Åstrupgårdvej,8541,11,10.331196,56.262892
806070,Hjelmagervænget,8541,1,10.323436,56.280699
806071,Hjelmagervænget,8541,3,10.323593,56.280855
806072,Hjelmagervænget,8541,4,10.322708,56.280347
806073,Hjelmagervænget,8541,5,10.323072,56.281058
806074,Hjelmagervænget,8541,6,10.322541,56.280111
806075,Hjelmagervænget,8541,7,10.323279,56.281244
806076,Hjelmagervænget,8541,8,10.322361,56.279924
806077,Hjelmagervænget,8541,9,10.32355,56.281143
806078,Hjelmagervænget,8541,10,10.322278,56.279763
806079,Hjelmagervænget,8541,11,10.323903,56.281026
806080,Hjelmagervænget,8541,12,10.322141,56.279567
806081,Hjelmagervænget,8541,13,10.324276,56.280915
806082,Hjelmagervænget,8541,14,10.321965,56.279421
806083,Hjelmagervænget,8541,15,10.324069,56.280697
806084,Hjelmagervænget,8541,16,10.321826,56.279269
806085,Hjelmagervænget,8541,17,10.323825,56.280511
806086,Hjelmagervænget,8541,18,10.321521,56.279133
806087,Hjelmagervænget,8541,19,10.324064,56.280149
806088,Hjelmagervænget,8541,20,10.321093,56.278972
806089,Hjelmagervænget,8541,21,10.324289,56.280335
806090,Hjelmagervænget,8541,22,10.321409,56.278883
806091,Hjelmagervænget,8541,23,10.324535,56.280494
806092,Hjelmagervænget,8541,24,10.321675,56.278808
806093,Hjelmagervænget,8541,25,10.324589,56.280808
806094,Hjelmagervænget,8541,26,10.322123,56.278961
806095,Hjelmagervænget,8541,27,10.324934,56.280692
806096,Hjelmagervænget,8541,28,10.322231,56.279153
806097,Hjelmagervænget,8541,29,10.325256,56.280581
806098,Hjelmagervænget,8541,30,10.322409,56.279344
806099,Hjelmagervænget,8541,31,10.324897,56.280324
806100,Hjelmagervænget,8541,32,10.322579,56.279527
806101,Hjelmagervænget,8541,33,10.324639,56.280138
806102,Hjelmagervænget,8541,34,10.322787,56.279682
806103,Hjelmagervænget,8541,35,10.324308,56.279939
806104,Hjelmagervænget,8541,36,10.322955,56.279864
806105,Hjelmagervænget,8541,37,10.323937,56.279822
806106,Hjelmagervænget,8541,38,10.323113,56.279988
806107,Hjelmagervænget,8541,39,10.324193,56.279577
806108,Hjelmagervænget,8541,40,10.323225,56.280122
806109,Hjelmagervænget,8541,41,10.324493,56.279726
806110,Hjelmagervænget,8541,42,10.323277,56.280337
806111,Hjelmagervænget,8541,43,10.324843,56.279848
806112,Hjelmagervænget,8541,45,10.325135,56.280016
806113,Hjelmagervænget,8541,47,10.325292,56.280248
806114,Hjelmagervænget,8541,49,10.325559,56.28047
806115,Hjelmagervænget,8541,51,10.326022,56.280316
806116,Hjelmagervænget,8541,53,10.325803,56.280175
806117,Hjelmagervænget,8541,55,10.325584,56.279957
806118,Hjelmagervænget,8541,57,10.325372,56.27973
806119,Hjelmagervænget,8541,59,10.325114,56.279522
806120,Hjelmagervænget,8541,61,10.324793,56.279408
806121,Trekærvej,8541,1A,10.306122,56.28613
806122,Den Gamle Skolesti,8541,3A,10.315195,56.281232
806123,Den Gamle Skolesti,8541,20,10.318098,56.279705
806124,Smedestien,8541,7,10.313814,56.279211
806125,Smedestien,8541,9,10.314134,56.27914
806126,Smedestien,8541,11,10.31451,56.279127
806127,Smedestien,8541,13,10.314809,56.279048
806128,Smedestien,8541,15,10.31517,56.27899
806129,Vosnæsvej,8541,4A,10.344212,56.275268
806130,Vosnæsvej,8541,9A,10.348015,56.282873
806131,Vosnæsvej,8541,11,10.355913,56.28245
806132,Vosnæsvej,8541,20,10.354197,56.281849
806133,Segaltvej,8541,77,10.311527,56.280349
806134,Segaltvej,8541,79,10.311207,56.280398
806135,Segaltvej,8541,81,10.311128,56.280214
806136,Segaltvej,8541,83,10.311452,56.280157
806137,Segaltvej,8541,85,10.311789,56.280131
806138,Segaltvej,8541,87,10.31173,56.279894
806139,Segaltvej,8541,89,10.311663,56.279755
806140,Segaltvej,8541,115,10.310503,56.280023
806141,Segaltvej,8541,117,10.310558,56.280131
806142,Segaltvej,8541,119,10.310595,56.280189
806143,Segaltvej,8541,121,10.310675,56.280327
806144,Segaltvej,8541,123,10.310703,56.280394
806145,Segaltvej,8541,125,10.310748,56.280497
806146,Segaltvej,8541,127,10.310782,56.280564
806147,Segaltvej,8541,129,10.310843,56.280662
806148,Segaltvej,8541,133,10.311042,56.280876
806149,Segaltvej,8541,135,10.311135,56.280924
806150,Segaltvej,8541,137,10.311281,56.280995
806151,Segaltvej,8541,139,10.311369,56.281043
806152,Segaltvej,8541,149,10.311836,56.280998
806153,Segaltvej,8541,151,10.311609,56.280829
806154,Segaltvej,8541,153,10.311374,56.280702
806155,Segaltvej,8541,155,10.311618,56.280591
806156,Segaltvej,8541,353,10.31272,56.283185
806157,Segaltvej,8541,355,10.312668,56.283401
806158,Segaltvej,8541,357,10.313054,56.28351
806159,Segaltvej,8541,375,10.31311,56.283635
806160,Segaltvej,8541,397,10.312099,56.284836
806161,Segaltvej,8541,401,10.311802,56.284255
806162,Segaltvej,8541,403,10.31177,56.284507
806163,Segaltvej,8541,405,10.311702,56.284701
806193,Safirvej,8541,2,10.293712,56.259457
806194,Safirvej,8541,2A,10.293591,56.25975
806195,Safirvej,8541,2B,10.293745,56.259592
806196,Safirvej,8541,8,10.294205,56.258868
811179,Åstrup Strandvej,8541,68B,10.342116,56.244386
811180,Åstrup Strandvej,8541,68C,10.341908,56.244482
811181,Åstrup Strandvej,8541,69,10.319472,56.249503
811206,Anton Mejers Vej,8541,14A,10.336247,56.244723
811207,Anton Mejers Vej,8541,14B,10.337375,56.244616
812029,Stationsvangen,8541,97,10.302532,56.26211
812030,Ametystvej,8541,33,10.299057,56.259841
812031,Ametystvej,8541,35,10.299341,56.259704
812032,Jadevej,8541,25,10.299663,56.259619
812033,Jadevej,8541,27,10.299915,56.259823
812034,Engskovvej,8541,33,10.315071,56.260405
812035,Engskovvej,8541,62,10.312196,56.259824
812036,Engskovvej,8541,64,10.311566,56.257719
812037,Engskovvej,8541,66,10.313512,56.258548
812038,Engskovvej,8541,68,10.313266,56.255275
812039,Engskovbakken,8541,3,10.307849,56.258037
812040,Engskovbakken,8541,5,10.307944,56.258171
812041,Bakketoften,8541,2,10.30248,56.257065
812042,Bakketoften,8541,3,10.301947,56.256149
812043,Bakketoften,8541,6,10.301825,56.257198
812044,Bakketoften,8541,7,10.301506,56.255957
812045,Bakketoften,8541,8,10.300915,56.257391
812046,Bakketoften,8541,9,10.300717,56.256028
812047,Bakketoften,8541,11,10.30003,56.255963
812048,Bakketoften,8541,13,10.299228,56.256066
812049,Bakketoften,8541,24,10.300298,56.256562
831115,Tronkærgårdsvej,8541,1,10.302039,56.264667
831116,Tronkærgårdsvej,8541,3,10.30132,56.264644
831117,Tronkærgårdsvej,8541,5,10.301529,56.264443
831118,Tronkærgårdsvej,8541,7,10.301658,56.264203
831119,Tronkærgårdsvej,8541,9,10.301227,56.264055
831120,Tronkærgårdsvej,8541,11,10.301012,56.264233
831121,Tronkærgårdsvej,8541,13,10.300686,56.264204
831122,Tronkærgårdsvej,8541,15,10.300777,56.263988
831123,Tronkærgårdsvej,8541,17,10.300386,56.263817
831124,Tronkærgårdsvej,8541,19,10.300175,56.264081
831125,Tronkærgårdsvej,8541,21,10.299985,56.26432
831126,Tronkærgårdsvej,8541,23,10.299674,56.264651
831127,Tronkærgårdsvej,8541,25,10.300051,56.264625
831128,Tronkærgårdsvej,8541,27,10.300463,56.264607
831129,Tronkærgårdsvej,8541,29,10.300768,56.264588
831130,Tronkærgårdsvej,8541,31,10.298932,56.264843
831131,Tronkærgårdsvej,8541,33,10.299125,56.264616
831132,Tronkærgårdsvej,8541,35,10.299209,56.2644
831133,Tronkærgårdsvej,8541,37,10.299329,56.264008
831134,Tronkærgårdsvej,8541,39,10.298715,56.264001
831135,Tronkærgårdsvej,8541,41,10.298166,56.263966
831136,Tronkærgårdsvej,8541,43,10.298064,56.264147
831137,Tronkærgårdsvej,8541,45,10.29858,56.264285
831138,Tronkærgårdsvej,8541,47,10.298447,56.26452
831139,Tronkærgårdsvej,8541,49,10.298004,56.264442
831140,Tronkærgårdsvej,8541,51,10.29759,56.264323
831141,Tronkærgårdsvej,8541,53,10.297515,56.264063
831142,Tronkærgårdsvej,8541,55,10.297035,56.264113
831143,Tronkærgårdsvej,8541,57,10.297043,56.264324
831144,Tronkærgårdsvej,8541,59,10.296584,56.264432
831145,Tronkærgårdsvej,8541,61,10.296518,56.264154
831146,Tronkærgårdsvej,8541,63,10.296061,56.264177
831147,Tronkærgårdsvej,8541,65,10.29601,56.26451
831148,Tronkærgårdsvej,8541,67,10.296139,56.264818
831149,Tronkærgårdsvej,8541,69,10.296594,56.264724
831150,Tronkærgårdsvej,8541,71,10.296991,56.264738
831151,Tronkærgårdsvej,8541,73,10.297444,56.264724
831152,Tronkærgårdsvej,8541,75,10.297835,56.264751
831153,Tronkærgårdsvej,8541,77,10.298211,56.264797
831154,Tronkærgårdsvej,8541,79,10.295706,56.264971
831155,Tronkærgårdsvej,8541,81,10.295537,56.264735
831156,Tronkærgårdsvej,8541,83,10.295412,56.264557
831157,Tronkærgårdsvej,8541,85,10.295316,56.264288
831158,Tronkærgårdsvej,8541,87,10.29488,56.264384
831159,Tronkærgårdsvej,8541,89,10.294558,56.264507
831160,Tronkærgårdsvej,8541,91,10.295028,56.264691
831161,Tronkærgårdsvej,8541,93,10.295172,56.264918
831162,Tronkærgårdsvej,8541,95,10.295391,56.265159
831163,Tronkærgårdsvej,8541,102,10.2985,56.265616
831164,Tronkærgårdsvej,8541,252,10.295501,56.265744
831165,Tronkærgårdsvej,8541,254,10.295745,56.265802
831166,Tronkærgårdsvej,8541,256,10.296,56.265943
831167,Tronkærgårdsvej,8541,258,10.296168,56.266167
831168,Tronkærgårdsvej,8541,260,10.296121,56.266401
831169,Tronkærgårdsvej,8541,262,10.29586,56.266526
831170,Tronkærgårdsvej,8541,264,10.295391,56.266462
831171,Tronkærgårdsvej,8541,266,10.295112,56.266622
831172,Tronkærgårdsvej,8541,268,10.294677,56.266608
831173,Tronkærgårdsvej,8541,270,10.294377,56.266678
831174,Tronkærgårdsvej,8541,272,10.293899,56.266668
831175,Tronkærgårdsvej,8541,274,10.29362,56.266678
831176,Tronkærgårdsvej,8541,276,10.293258,56.266718
831177,Tronkærgårdsvej,8541,278,10.292972,56.266779
831178,Tronkærgårdsvej,8541,280,10.292659,56.266854
831179,Tronkærgårdsvej,8541,282,10.292526,56.266541
831180,Tronkærgårdsvej,8541,284,10.292852,56.266495
831181,Tronkærgårdsvej,8541,286,10.293171,56.266447
831182,Tronkærgårdsvej,8541,288,10.293458,56.266361
831183,Tronkærgårdsvej,8541,290,10.293807,56.266364
831184,Tronkærgårdsvej,8541,292,10.294129,56.266313
831185,Tronkærgårdsvej,8541,294,10.294448,56.2663
831186,Tronkærgårdsvej,8541,296,10.294874,56.266281
831187,Tronkærgårdsvej,8541,298,10.295263,56.266162
831188,Tronkærgårdsvej,8541,300,10.295374,56.265982
831189,Tronkærgårdsvej,8541,302,10.294354,56.265696
831190,Tronkærgårdsvej,8541,304,10.29403,56.265833
831191,Tronkærgårdsvej,8541,306,10.293658,56.265797
831192,Tronkærgårdsvej,8541,308,10.2933,56.265793
831193,Tronkærgårdsvej,8541,310,10.292951,56.265869
831194,Tronkærgårdsvej,8541,312,10.292583,56.26586
831195,Tronkærgårdsvej,8541,314,10.292276,56.265972
831196,Tronkærgårdsvej,8541,316,10.292265,56.265569
831197,Tronkærgårdsvej,8541,318,10.29277,56.265523
831198,Tronkærgårdsvej,8541,320,10.293094,56.265479
831199,Tronkærgårdsvej,8541,322,10.293501,56.265506
831200,Tronkærgårdsvej,8541,324,10.293981,56.265454
831201,Tronkærgårdsvej,8541,326,10.294017,56.265133
831202,Tronkærgårdsvej,8541,328,10.293665,56.265122
831203,Tronkærgårdsvej,8541,330,10.293384,56.264964
831204,Tronkærgårdsvej,8541,332,10.29292,56.264982
831205,Tronkærgårdsvej,8541,334,10.292618,56.265111
831206,Tronkærgårdsvej,8541,336,10.292227,56.265243
831207,Tronkærgårdsvej,8541,338,10.292289,56.264811
831208,Tronkærgårdsvej,8541,340,10.29263,56.264696
831209,Tronkærgårdsvej,8541,342,10.292957,56.264682
831210,Tronkærgårdsvej,8541,344,10.293303,56.264701
831211,Tronkærgårdsvej,8541,346,10.293636,56.264806
831212,Tronkærgårdsvej,8541,348,10.294028,56.264818
839368,Ny Studstrupvej,8541,17A,10.325015,56.262819
839369,Ny Studstrupvej,8541,19,10.322546,56.2617
839370,Hjelmagerparken,8541,384B,10.320735,56.278189
839371,Hjelmagerparken,8541,460,10.323275,56.278719
839372,Hjelmagerparken,8541,462,10.323334,56.278013
839373,Hjelmagerparken,8541,464,10.32323,56.277853
839374,Manbjergvej,8541,10B,10.313154,56.278077
839375,Manbjergvej,8541,15,10.311893,56.278203
839376,Manbjergvej,8541,17,10.312065,56.278336
839377,Manbjergvej,8541,19,10.312109,56.278582
839378,Manbjergvej,8541,21,10.312255,56.278742
839379,Manbjergvej,8541,23,10.312373,56.278943
839380,Manbjergvej,8541,29,10.312677,56.279699
839381,Manbjergvej,8541,31,10.31271,56.279924
839382,Manbjergvej,8541,33,10.312919,56.280079
839383,Manbjergvej,8541,35,10.312967,56.280321
839384,Manbjergvej,8541,36,10.314729,56.280554
839385,Manbjergvej,8541,37,10.313075,56.280513
839386,Manbjergvej,8541,38,10.315016,56.280465
839387,Manbjergvej,8541,39,10.313202,56.280691
839388,Manbjergvej,8541,40,10.315289,56.280332
839389,Manbjergvej,8541,42,10.315561,56.280208
839390,Manbjergvej,8541,52,10.315449,56.279724
839391,Manbjergvej,8541,54,10.315106,56.27997
839392,Manbjergvej,8541,55,10.315273,56.280763
839393,Manbjergvej,8541,56,10.314676,56.280042
839394,Manbjergvej,8541,57,10.315664,56.28071
839395,Manbjergvej,8541,58,10.314331,56.280329
839396,Manbjergvej,8541,59,10.315955,56.280518
839397,Manbjergvej,8541,61,10.316265,56.280358
839398,Manbjergvej,8541,64,10.314358,56.279641
839399,Manbjergvej,8541,66,10.31468,56.279575
839400,Manbjergvej,8541,68,10.315064,56.27949
839401,Manbjergvej,8541,70,10.315423,56.279405
839402,Manbjergvej,8541,72,10.315768,56.27933
839403,Manbjergvej,8541,83,10.316092,56.278517
839404,Manbjergvej,8541,85,10.315817,56.278314
839405,Manbjergvej,8541,86,10.315108,56.278254
839406,Manbjergvej,8541,87,10.315767,56.278117
839407,Manbjergvej,8541,88,10.314897,56.278099
839408,Manbjergvej,8541,89,10.315549,56.277984
839409,Manbjergvej,8541,90,10.314788,56.277898
839410,Manbjergvej,8541,91,10.315449,56.277774
839411,Manbjergvej,8541,101,10.314251,56.277266
839412,Manbjergvej,8541,103,10.313888,56.277283
839413,Manbjergvej,8541,105,10.313559,56.277282
839414,Manbjergvej,8541,107,10.313228,56.27729
839415,Manbjergvej,8541,109,10.312875,56.27733
839416,Manbjergvej,8541,111,10.312573,56.277333
841392,Åstrup Strandvej,8541,63,10.331895,56.246405
842248,Nørholtvej,8541,8,10.282503,56.273802
842251,Tinghøjvej,8541,98,10.269387,56.280299
842252,Tinghøjvej,8541,151,10.280442,56.28231
842253,Kirkemosevej,8541,7A,10.293595,56.278036
842254,Kirkemosevej,8541,30,10.301301,56.271467
842255,Vorrevej,8541,33A,10.301239,56.277201
842263,Tronkærvej,8541,100,10.275025,56.273255
842264,Tronkærvej,8541,104,10.2776,56.273107
842701,Sølvmågevej,8541,2,10.334872,56.258652
842702,Sølvmågevej,8541,4,10.334465,56.258885
842703,Sølvmågevej,8541,6,10.334128,56.259042
842704,Sølvmågevej,8541,8,10.333707,56.259244
842705,Sølvmågevej,8541,10,10.333295,56.259392
842706,Sølvmågevej,8541,12,10.332947,56.259099
842707,Sølvmågevej,8541,14,10.333321,56.258924
842708,Sølvmågevej,8541,16,10.333751,56.258763
842709,Sølvmågevej,8541,18,10.334072,56.258642
842710,Sølvmågevej,8541,20,10.334439,56.258486
842711,Sølvmågevej,8541,22,10.334792,56.258333
842712,Sølvmågevej,8541,24,10.33466,56.258133
842713,Sølvmågevej,8541,26,10.334221,56.258322
842714,Sølvmågevej,8541,28,10.333857,56.258469
842715,Sølvmågevej,8541,30,10.333464,56.258626
842716,Sølvmågevej,8541,32,10.333108,56.25876
842717,Sølvmågevej,8541,34,10.332734,56.258949
842718,Sølvmågevej,8541,36,10.332749,56.258481
842719,Sølvmågevej,8541,38,10.333203,56.258319
842720,Sølvmågevej,8541,40,10.333536,56.25819
842721,Sølvmågevej,8541,42,10.33393,56.258028
842722,Sølvmågevej,8541,44,10.334314,56.257889
842723,Sølvmågevej,8541,46,10.334083,56.257721
842724,Sølvmågevej,8541,48,10.333729,56.257851
842725,Sølvmågevej,8541,50,10.333306,56.257986
842726,Sølvmågevej,8541,52,10.332855,56.258175
842727,Sølvmågevej,8541,54,10.33276,56.257713
842728,Sølvmågevej,8541,56,10.333193,56.257623
842729,Sølvmågevej,8541,58,10.333559,56.25752
842730,Sølvmågevej,8541,60,10.333878,56.257359
842731,Digesvalevej,8541,1,10.334647,56.259103
842732,Digesvalevej,8541,2,10.33471,56.25944
842733,Digesvalevej,8541,3,10.334295,56.25926
842734,Digesvalevej,8541,4,10.334593,56.259513
842735,Digesvalevej,8541,5,10.333963,56.259439
842736,Digesvalevej,8541,6,10.334472,56.259581
842737,Digesvalevej,8541,7,10.333603,56.259573
842738,Digesvalevej,8541,8,10.334351,56.25965
842739,Digesvalevej,8541,9,10.333313,56.259792
842740,Digesvalevej,8541,10,10.33423,56.259714
842741,Digesvalevej,8541,12,10.334119,56.259778
842742,Digesvalevej,8541,14,10.333888,56.259907
842743,Digesvalevej,8541,16,10.333958,56.259982
842744,Digesvalevej,8541,18,10.333962,56.260081
842745,Digesvalevej,8541,20,10.33396,56.260171
842746,Digesvalevej,8541,22,10.333907,56.260279
842747,Digesvalevej,8541,24,10.333846,56.26037
842748,Digesvalevej,8541,26,10.333689,56.260506
842749,Digesvalevej,8541,28,10.33352,56.260459
842750,Digesvalevej,8541,30,10.333255,56.260408
842751,Digesvalevej,8541,32,10.333262,56.260327
842752,Digesvalevej,8541,34,10.333255,56.260241
842753,Digesvalevej,8541,36,10.333413,56.260154
842754,Kløvervangen,8541,24,10.29517,56.263202
842755,Hjelmagervej,8541,3C,10.326025,56.277589
842756,Hjelmagervej,8541,4,10.317079,56.275757
842757,Hjelmagervej,8541,5A,10.328826,56.277811
842758,Hjelmagervej,8541,18,10.322349,56.270072
842759,Hjelmagervej,8541,23,10.318667,56.266638
842760,Hjelmagervej,8541,28,10.324655,56.268286
842761,Grankoglevej,8541,2,10.313472,56.275468
842762,Grankoglevej,8541,2A,10.313731,56.275447
842763,Egevej,8541,4,10.310331,56.273003
842764,Egevej,8541,5,10.310213,56.273413
842765,Egevej,8541,6,10.310573,56.273203
842766,Egevej,8541,7,10.310389,56.273524
842767,Egevej,8541,8,10.310793,56.273353
842768,Egevej,8541,9,10.310554,56.273693
842769,Egevej,8541,10,10.311052,56.273535
842770,Egevej,8541,11,10.310788,56.273825
842771,Egevej,8541,12,10.311313,56.273662
842772,Egevej,8541,13,10.311001,56.274106
842773,Egevej,8541,14,10.311497,56.273831
842774,Egevej,8541,15,10.311246,56.274274
842775,Egevej,8541,16,10.311708,56.274013
842776,Egevej,8541,17,10.311536,56.2745
842777,Egevej,8541,18,10.311817,56.274182
842778,Egevej,8541,19,10.311761,56.274655
842779,Egevej,8541,20,10.312047,56.274333
842780,Egevej,8541,21,10.311933,56.274797
842781,Egevej,8541,22,10.312203,56.274511
842782,Egevej,8541,23,10.312118,56.274938
842783,Egevej,8541,24,10.312394,56.274661
842784,Berberisvej,8541,3,10.308797,56.273491
842785,Berberisvej,8541,5,10.308912,56.273714
842786,Berberisvej,8541,6,10.309541,56.273577
842787,Berberisvej,8541,7,10.309102,56.273901
842788,Berberisvej,8541,9,10.309218,56.274098
842789,Berberisvej,8541,11,10.309532,56.27426
842790,Berberisvej,8541,13,10.309704,56.274411
842791,Berberisvej,8541,18A,10.310863,56.274952
842792,Fruenshøj,8541,3,10.320493,56.276718
842793,Fruenshøj,8541,4,10.320448,56.276202
842794,Fruenshøj,8541,5,10.320883,56.276921
842795,Fruenshøj,8541,6,10.32059,56.276358
842796,Fruenshøj,8541,7,10.321253,56.277061
842797,Fruenshøj,8541,8,10.320893,56.276449
842798,Fruenshøj,8541,9,10.321613,56.277277
842799,Fruenshøj,8541,11,10.322024,56.27747
842800,Fruenshøj,8541,13,10.322222,56.277652
842801,Grankrogen,8541,8,10.311651,56.276058
842802,Landlyst,8541,2A,10.309561,56.276138
842803,Landlyst,8541,2B,10.309944,56.276121
842804,Landlyst,8541,3,10.308909,56.276451
842805,Landlyst,8541,5,10.309044,56.276692
844943,Løgtenvej,8541,76,10.312113,56.289935
844944,Løgtenvej,8541,76A,10.316587,56.296317
844945,Løgtenvej,8541,76B,10.315463,56.296216
844946,Balle Skovvej,8541,2,10.256287,56.294324
844948,Drorupvej,8541,1,10.259199,56.295507
844949,Drorupvej,8541,11,10.264918,56.294919
844965,Nabovej,8541,14,10.252863,56.297512
844966,Nabovej,8541,16,10.253199,56.297437
844967,Nabovej,8541,18,10.253533,56.297348
844968,Nabovej,8541,20,10.252863,56.296919
844969,Nabovej,8541,22,10.253331,56.297045
844970,Nabovej,8541,24,10.253308,56.29687
844971,Nabovej,8541,26,10.254237,56.297027
844973,Kaløvej,8541,54A,10.268863,56.301083
1009792,Åstrupvej,8541,7,10.316742,56.25566
1009793,Stationsstien,8541,1,10.307067,56.262992
1009794,Stationsstien,8541,3,10.306939,56.262998
1009795,Stationsstien,8541,5A,10.30661,56.262956
1009796,Stationsstien,8541,11,10.305705,56.262844
1009797,Bondehaven,8541,6,10.30308,56.266636
1009798,Bondehaven,8541,9H,10.30412,56.26336
1009799,Bondehaven,8541,13,10.302365,56.263302
1009800,Gartnerhaven,8541,10,10.307247,56.264082
1009801,Gartnerhaven,8541,12,10.307104,56.26411
1009802,Gartnerhaven,8541,14,10.306923,56.264143
1009803,Gartnerhaven,8541,18,10.306648,56.264272
1009804,Gartnerhaven,8541,20,10.306012,56.264805
1009805,Elmely,8541,12,10.307609,56.266445
1009806,Rosenbakken,8541,2A,10.30937,56.270722
1009807,Lærkebakken,8541,4,10.310182,56.272609
1039262,Skødstrupbakken,8541,2,10.300967,56.267396
1039263,Skødstrupbakken,8541,3,10.302401,56.266833
1039264,Skødstrupbakken,8541,4,10.301013,56.267427
1039265,Skødstrupbakken,8541,6,10.301059,56.267458
1039266,Skødstrupbakken,8541,7,10.301714,56.266602
1039267,Skødstrupbakken,8541,8,10.301102,56.267484
1039268,Skødstrupbakken,8541,9,10.301531,56.266366
1039269,Skødstrupbakken,8541,10,10.301149,56.26752
1039270,Skødstrupbakken,8541,11,10.301141,56.26663
1039271,Skødstrupbakken,8541,12,10.301195,56.267542
1039272,Skødstrupbakken,8541,13,10.300772,56.266878
1039273,Skødstrupbakken,8541,14,10.301245,56.267564
1039274,Skødstrupbakken,8541,15,10.300568,56.266628
1039275,Skødstrupbakken,8541,16,10.301298,56.267577
1039276,Skødstrupbakken,8541,17,10.300119,56.266637
1039277,Skødstrupbakken,8541,18,10.301354,56.267581
1039278,Skødstrupbakken,8541,19,10.298926,56.266564
1039279,Skødstrupbakken,8541,20,10.301414,56.267585
1039280,Skødstrupbakken,8541,21,10.298836,56.266789
1039281,Skødstrupbakken,8541,22,10.301643,56.267223
1039282,Skødstrupbakken,8541,23,10.298829,56.267028
1039283,Skødstrupbakken,8541,24,10.30166,56.267281
1039284,Skødstrupbakken,8541,25,10.29897,56.267287
1039285,Skødstrupbakken,8541,26,10.301689,56.26733
1039286,Skødstrupbakken,8541,27,10.299395,56.267323
1039287,Skødstrupbakken,8541,28,10.301723,56.26737
1039288,Skødstrupbakken,8541,29,10.299848,56.267219
1039289,Skødstrupbakken,8541,30,10.301765,56.267401
1039290,Skødstrupbakken,8541,31,10.299801,56.267515
1039291,Skødstrupbakken,8541,32,10.301816,56.267432
1039292,Skødstrupbakken,8541,33,10.299205,56.267532
1039293,Skødstrupbakken,8541,34,10.301878,56.267458
1039294,Skødstrupbakken,8541,36,10.301938,56.267471
1039295,Skødstrupbakken,8541,38,10.302011,56.26747
1039296,Skødstrupbakken,8541,40,10.302077,56.26747
1039297,Skødstrupbakken,8541,42,10.302141,56.26746
1039298,Skødstrupbakken,8541,44,10.302197,56.267446
1039299,Skødstrupbakken,8541,46,10.30226,56.267436
1039300,Skødstrupbakken,8541,48,10.302313,56.267418
1039301,Skødstrupbakken,8541,50,10.30233,56.267386
1039302,Skødstrupbakken,8541,52,10.302332,56.26735
1039303,Skødstrupbakken,8541,54,10.302326,56.26731
1039304,Skødstrupbakken,8541,56,10.30189,56.266969
1039305,Skødstrupbakken,8541,58,10.301469,56.26682
1039306,Skødstrupbakken,8541,60,10.301262,56.267047
1039307,Skødstrupbakken,8541,62,10.300844,56.267173
1039308,Skødstrupbakken,8541,64,10.30029,56.266945
1039309,Skødstrupbakken,8541,66,10.299808,56.266892
1039310,Skødstrupbakken,8541,68,10.299511,56.266688
1039311,Skødstrupbakken,8541,70,10.29935,56.26705
1039312,Skødstrupbakken,8541,72,10.300373,56.267169
1039313,Skødstrupbakken,8541,74,10.300439,56.26741
1039314,Skødstrupbakken,8541,76,10.300387,56.267721
1039315,Skødstrupbakken,8541,78,10.299899,56.26778
1039316,Lauritshøj,8541,1,10.316355,56.264826
1039317,Lauritshøj,8541,2,10.315209,56.264415
1039318,Lauritshøj,8541,3,10.316663,56.264677
1039319,Lauritshøj,8541,5,10.316882,56.264532
1039320,Lauritshøj,8541,7,10.317143,56.264392
1039321,Lauritshøj,8541,9,10.317355,56.264228
1039322,Lauritshøj,8541,11,10.31767,56.264043
1039323,Lauritshøj,8541,13,10.317244,56.263781
1039324,Lauritshøj,8541,15,10.316958,56.263907
1039325,Lauritshøj,8541,17,10.316887,56.264185
1039326,Lauritshøj,8541,19,10.316482,56.264372
1039327,Lauritshøj,8541,21,10.316283,56.264153
1039328,Lauritshøj,8541,23,10.316105,56.263936
1039329,Lauritshøj,8541,25,10.315435,56.264027
1039330,Lauritshøj,8541,27,10.315666,56.264197
1039331,Lauritshøj,8541,29,10.315819,56.26439
1039332,Lauritshøj,8541,31,10.316027,56.264616
1039333,Bakkely,8541,1,10.30403,56.255026
1039334,Bakkely,8541,3,10.304093,56.255239
1039335,Bakkely,8541,5,10.304124,56.255429
1039336,Bakkely,8541,7,10.304219,56.255631
1039337,Bakkely,8541,9,10.304756,56.25545
1039338,Bakkely,8541,11,10.305074,56.255465
1039339,Bakkely,8541,13,10.305565,56.255499
1039340,Bakkely,8541,15,10.305556,56.255247
1039341,Bakkely,8541,17,10.304997,56.254895
1039342,Bakkely,8541,19,10.304493,56.255144
1039343,Bakkely,8541,21,10.304376,56.254821
1039344,Bakkely,8541,23,10.304692,56.254599
1039345,Bakkely,8541,25,10.305125,56.254544
1039346,Bakkely,8541,27,10.305413,56.254469
1039347,Bakkely,8541,29,10.305518,56.254647
1039348,Bakkely,8541,30,10.306002,56.254006
1039349,Bakkely,8541,31,10.305613,56.254943
1039350,Bakkely,8541,35,10.306117,56.254488
1444109,Vosnæsparken,8541,1,10.326631,56.283185
1444111,Vosnæsparken,8541,2,10.326269,56.283212
1444114,Vosnæsparken,8541,3,10.326844,56.283156
1444115,Vosnæsparken,8541,4,10.326171,56.283231
1444117,Vosnæsparken,8541,5,10.32707,56.283122
1444120,Vosnæsparken,8541,6,10.326079,56.283245
1444121,Vosnæsparken,8541,7,10.327281,56.283093
1444124,Vosnæsparken,8541,8,10.325972,56.28326
1444126,Vosnæsparken,8541,9,10.327509,56.283072
1444128,Vosnæsparken,8541,10,10.325868,56.283279
1444129,Vosnæsparken,8541,11,10.327727,56.283052
1444130,Vosnæsparken,8541,11A,10.327855,56.282961
1444131,Vosnæsparken,8541,12,10.325765,56.283293
1444132,Vosnæsparken,8541,13,10.327557,56.282793
1444133,Vosnæsparken,8541,14,10.325318,56.283361
1444134,Vosnæsparken,8541,15,10.327363,56.282813
1444135,Vosnæsparken,8541,16,10.325228,56.283375
1444136,Vosnæsparken,8541,17,10.327056,56.282848
1444137,Vosnæsparken,8541,18,10.32513,56.28339
1444138,Vosnæsparken,8541,19,10.326881,56.282877
1444139,Vosnæsparken,8541,20,10.32503,56.283404
1444140,Vosnæsparken,8541,21,10.326579,56.282925
1444141,Vosnæsparken,8541,22,10.325289,56.28311
1444142,Vosnæsparken,8541,23,10.32645,56.282693
1444143,Vosnæsparken,8541,24,10.32539,56.283095
1444144,Vosnæsparken,8541,25,10.326749,56.282636
1444145,Vosnæsparken,8541,26,10.325492,56.283076
1444146,Vosnæsparken,8541,27,10.326915,56.282607
1444147,Vosnæsparken,8541,28,10.325594,56.283062
1444148,Vosnæsparken,8541,29,10.327202,56.282546
1444149,Vosnæsparken,8541,30,10.325698,56.283047
1444150,Vosnæsparken,8541,31,10.32729,56.282473
1444151,Vosnæsparken,8541,32,10.325803,56.283032
1444152,Vosnæsparken,8541,33,10.327432,56.282305
1444153,Vosnæsparken,8541,34,10.325904,56.283013
1444154,Vosnæsparken,8541,35,10.327405,56.282153
1444155,Vosnæsparken,8541,36,10.326013,56.282994
1444156,Vosnæsparken,8541,37,10.327339,56.282054
1444157,Vosnæsparken,8541,38,10.326108,56.28298
1444158,Vosnæsparken,8541,39,10.327238,56.281889
1444159,Vosnæsparken,8541,40,10.32619,56.282965
1444160,Vosnæsparken,8541,41,10.326729,56.281908
1444161,Vosnæsparken,8541,42,10.325806,56.282758
1444162,Vosnæsparken,8541,43,10.326837,56.282073
1444163,Vosnæsparken,8541,44,10.325731,56.282764
1444164,Vosnæsparken,8541,45,10.326899,56.282171
1444165,Vosnæsparken,8541,46,10.325659,56.282769
1444166,Vosnæsparken,8541,47,10.326738,56.282344
1444167,Vosnæsparken,8541,48,10.325583,56.282774
1444168,Vosnæsparken,8541,49,10.326564,56.282377
1444169,Vosnæsparken,8541,50,10.325513,56.282779
1444170,Vosnæsparken,8541,51,10.326273,56.282434
1444171,Vosnæsparken,8541,52,10.325048,56.282816
1444172,Vosnæsparken,8541,53,10.326161,56.282238
1444173,Vosnæsparken,8541,54,10.324966,56.282817
1444174,Vosnæsparken,8541,55,10.326343,56.282204
1444175,Vosnæsparken,8541,56,10.324882,56.282822
1444176,Vosnæsparken,8541,57,10.326428,56.282046
1444177,Vosnæsparken,8541,58,10.324792,56.282827
1444178,Vosnæsparken,8541,59,10.32637,56.281948
1444179,Vosnæsparken,8541,60,10.32471,56.282828
1444180,Vosnæsparken,8541,62,10.324502,56.282574
1444181,Vosnæsparken,8541,64,10.324582,56.282574
1444182,Vosnæsparken,8541,66,10.324668,56.282564
1444183,Vosnæsparken,8541,68,10.324762,56.282563
1444184,Vosnæsparken,8541,70,10.324843,56.282557
1444185,Vosnæsparken,8541,72,10.324921,56.282552
1444186,Vosnæsparken,8541,74,10.325011,56.282547
1444187,Vosnæsparken,8541,76,10.325092,56.282541
1444188,Vosnæsparken,8541,78,10.325332,56.282525
1444189,Vosnæsparken,8541,80,10.325414,56.28252
1444190,Vosnæsparken,8541,82,10.325491,56.282514
1444191,Vosnæsparken,8541,84,10.325576,56.282509
1444192,Vosnæsparken,8541,86,10.325658,56.282504
1444193,Vosnæsparken,8541,88,10.325734,56.282498
1444194,Vosnæsparken,8541,90,10.325813,56.282493
1444196,Vosnæsparken,8541,92,10.325719,56.282292
1444199,Vosnæsparken,8541,94,10.325617,56.282297
1444200,Vosnæsparken,8541,96,10.325517,56.282303
1444201,Vosnæsparken,8541,98,10.325418,56.282309
1444202,Vosnæsparken,8541,100,10.325311,56.282314
1444203,Vosnæsparken,8541,102,10.325041,56.282335
1444204,Vosnæsparken,8541,104,10.324927,56.282341
1444205,Vosnæsparken,8541,106,10.324807,56.282351
1444206,Vosnæsparken,8541,108,10.324695,56.282357
1444207,Vosnæsparken,8541,110,10.324591,56.282362
1444208,Vosnæsparken,8541,112,10.324499,56.282368
1444209,Vosnæsparken,8541,114,10.324407,56.282373
1444210,Vosnæsparken,8541,116,10.324215,56.282128
1444211,Vosnæsparken,8541,118,10.324348,56.282118
1444212,Vosnæsparken,8541,120,10.324194,56.282043
1444213,Vosnæsparken,8541,122,10.324328,56.282033
1444214,Vosnæsparken,8541,124,10.324783,56.282046
1444215,Vosnæsparken,8541,126,10.324799,56.282082
1444217,Vosnæsparken,8541,128,10.324946,56.282071
1444218,Vosnæsparken,8541,130,10.324934,56.282031
1444242,Bangsboparken,8541,2,10.323542,56.281601
1444243,Bangsboparken,8541,4,10.323495,56.281547
1444244,Bangsboparken,8541,5,10.324627,56.28158
1444245,Bangsboparken,8541,6,10.323401,56.28145
1444246,Bangsboparken,8541,7,10.324691,56.281642
1444247,Bangsboparken,8541,8,10.323489,56.281485
1444248,Bangsboparken,8541,9,10.324692,56.281607
1444249,Bangsboparken,8541,10,10.323841,56.281274
1444250,Bangsboparken,8541,11,10.32514,56.281516
1444251,Bangsboparken,8541,12,10.323897,56.281327
1444252,Bangsboparken,8541,13,10.325061,56.281445
1444253,Bangsboparken,8541,14,10.323847,56.28131
1444254,Bangsboparken,8541,15,10.325061,56.281499
1444255,Bangsboparken,8541,16,10.323977,56.281408
1444256,Bangsboparken,8541,17,10.325387,56.281339
1444257,Bangsboparken,8541,18,10.324032,56.281461
1444258,Bangsboparken,8541,19,10.325434,56.281392
1444259,Bangsboparken,8541,20,10.323977,56.281443
1444260,Bangsboparken,8541,21,10.325487,56.281441
1444261,Bangsboparken,8541,22,10.324393,56.281376
1444262,Bangsboparken,8541,23,10.325537,56.28149
1444263,Bangsboparken,8541,24,10.324345,56.281327
1444266,Bangsboparken,8541,25,10.325586,56.281548
1444269,Bangsboparken,8541,26,10.324405,56.28134
1444270,Bangsboparken,8541,27,10.325632,56.281592
1444272,Bangsboparken,8541,28,10.324259,56.281238
1444274,Bangsboparken,8541,29,10.325681,56.281641
1444275,Bangsboparken,8541,30,10.324205,56.281185
1444276,Bangsboparken,8541,31,10.326309,56.281706
1444277,Bangsboparken,8541,32,10.324261,56.281202
1444278,Bangsboparken,8541,33,10.326239,56.281635
1444279,Bangsboparken,8541,34,10.324653,56.281054
1444280,Bangsboparken,8541,35,10.326169,56.281564
1444281,Bangsboparken,8541,36,10.32471,56.281108
1444282,Bangsboparken,8541,37,10.326103,56.281497
1444283,Bangsboparken,8541,38,10.324658,56.28109
1444284,Bangsboparken,8541,39,10.326033,56.281426
1444285,Bangsboparken,8541,40,10.324785,56.281197
1444286,Bangsboparken,8541,41,10.325964,56.281355
1444287,Bangsboparken,8541,42,10.324842,56.28125
1444288,Bangsboparken,8541,43,10.32589,56.281288
1444289,Bangsboparken,8541,44,10.324794,56.281228
1444290,Bangsboparken,8541,45,10.325816,56.281217
1444291,Bangsboparken,8541,46,10.325207,56.281165
1444292,Bangsboparken,8541,47,10.326171,56.281096
1444293,Bangsboparken,8541,48,10.325159,56.281112
1444294,Bangsboparken,8541,49,10.326225,56.281145
1444295,Bangsboparken,8541,50,10.32511,56.281067
1444296,Bangsboparken,8541,51,10.326282,56.281199
1444297,Bangsboparken,8541,52,10.325064,56.281014
1444298,Bangsboparken,8541,53,10.326327,56.281248
1444300,Bangsboparken,8541,54,10.32501,56.280965
1444301,Bangsboparken,8541,55,10.326375,56.281292
1444303,Bangsboparken,8541,56,10.324958,56.280907
1444305,Bangsboparken,8541,57,10.326453,56.28139
1444306,Bangsboparken,8541,58,10.325369,56.280764
1444308,Bangsboparken,8541,59,10.326503,56.281443
1444309,Bangsboparken,8541,60,10.325428,56.28083
1444312,Bangsboparken,8541,61,10.326553,56.281488
1444313,Bangsboparken,8541,62,10.32549,56.280893
1444315,Bangsboparken,8541,63,10.326604,56.281537
1444316,Bangsboparken,8541,64,10.325547,56.280955
1444319,Bangsboparken,8541,65,10.326657,56.28159
1444320,Bangsboparken,8541,66,10.325606,56.281017
1444322,Bangsboparken,8541,67,10.327181,56.281571
1444325,Bangsboparken,8541,68,10.325996,56.280923
1444326,Bangsboparken,8541,69,10.327124,56.281518
1444327,Bangsboparken,8541,70,10.325947,56.280879
1444329,Bangsboparken,8541,71,10.327074,56.28146
1444330,Bangsboparken,8541,72,10.325896,56.28083
1444333,Bangsboparken,8541,73,10.327001,56.281393
1444334,Bangsboparken,8541,74,10.325847,56.280785
1444337,Bangsboparken,8541,75,10.326928,56.281322
1444338,Bangsboparken,8541,76,10.326096,56.280473
1444340,Bangsboparken,8541,77,10.326831,56.281197
1444341,Bangsboparken,8541,78,10.326158,56.28054
1444343,Bangsboparken,8541,79,10.326779,56.281144
1444344,Bangsboparken,8541,80,10.326222,56.280602
1444345,Bangsboparken,8541,81,10.326716,56.281077
1444346,Bangsboparken,8541,82,10.32629,56.280668
1444347,Bangsboparken,8541,83,10.326657,56.281024
1444348,Bangsboparken,8541,84,10.32636,56.28074
1444349,Bangsboparken,8541,85,10.326601,56.280971
1444350,Bangsboparken,8541,86,10.326425,56.280802
1444351,Frugthaven,8541,1,10.325987,56.284765
1444352,Frugthaven,8541,4,10.328415,56.286266
1444353,Frugthaven,8541,5,10.328207,56.286632
1444354,Frugthaven,8541,7,10.328126,56.286808
2119070,Kirkeholtvej,8541,4,10.299927,56.290742
2119074,Kirkeholtvej,8541,4A,10.299577,56.290899
2119081,Kirkeholtvej,8541,4B,10.299404,56.290923
2119092,Kirkeholtvej,8541,6,10.298291,56.290885
2186114,Bytorvet,8541,1,10.315407,56.276507
2186167,Siloetten,8541,2,10.317353,56.276289
2189655,Åstrup Strandvej,8541,60,10.334546,56.243119
2190029,Kildebakken,8541,1,10.306652,56.260956
2190030,Kildebakken,8541,2,10.307562,56.260853
2190031,Kildebakken,8541,3,10.307549,56.261059
2190032,Kildebakken,8541,4,10.30783,56.260841
2190033,Kildebakken,8541,5,10.307806,56.261021
2190452,Tronkærgårdsvej,8541,220,10.297743,56.265444
2190453,Tronkærgårdsvej,8541,222,10.297478,56.265447
2190454,Tronkærgårdsvej,8541,224,10.297152,56.26545
2190455,Tronkærgårdsvej,8541,226,10.29689,56.265476
2190456,Tronkærgårdsvej,8541,228,10.296545,56.265479
2190457,Tronkærgårdsvej,8541,230,10.296403,56.265292
2190458,Tronkærgårdsvej,8541,232,10.296614,56.265146
2190459,Tronkærgårdsvej,8541,234,10.296907,56.265089
2190460,Tronkærgårdsvej,8541,236,10.297205,56.265081
2190461,Tronkærgårdsvej,8541,238,10.297524,56.265114
2190462,Tronkærgårdsvej,8541,240,10.297827,56.265156
2190463,Tronkærgårdsvej,8541,950,10.299406,56.265463
2190464,Tronkærgårdsvej,8541,951,10.29623,56.26459
2190465,Tronkærgårdsvej,8541,952,10.3003471,56.264045
2193329,Kirkepladsen,8541,1,10.308251,56.263186
2193330,Kirkepladsen,8541,2A,10.308068,56.262312
2193331,Kirkepladsen,8541,3,10.308553,56.263192
2194802,Engskovgård,8541,100,10.30974,56.260484
2194803,Engskovgård,8541,102,10.309876,56.260487
2194804,Engskovgård,8541,104,10.310034,56.260494
2194805,Engskovgård,8541,136,10.310955,56.260673
2194806,Engskovgård,8541,138,10.311099,56.260644
2194807,Engskovgård,8541,140,10.311254,56.260611
2194865,Hunderosevej,8541,1,10.306926,56.268003
2194866,Hunderosevej,8541,5,10.306004,56.268071
2194867,Vildrosevej,8541,8,10.309507,56.270042
2195570,Engskovvænget,8541,950,10.3047992,56.2572814
2195571,Engskovvænget,8541,951,10.307063,56.256995
2198061,Ny Studstrupvej,8541,14,10.343536,56.251392
2198501,Tronkærgårdsvej,8541,322,10.2935018,56.2655083
2218089,Lauritshøj,8541,4,10.315258,56.264451
2218090,Lauritshøj,8541,6,10.315316,56.26449
2218091,Lauritshøj,8541,8,10.315375,56.264535
2218092,Lauritshøj,8541,10,10.315433,56.264583
2218093,Lauritshøj,8541,12,10.315497,56.264628
2218094,Lauritshøj,8541,14,10.315531,56.264722
2218095,Lauritshøj,8541,16,10.315596,56.264766
2218096,Lauritshøj,8541,18,10.315638,56.264801
2218097,Lauritshøj,8541,20,10.315865,56.264961
2218098,Lauritshøj,8541,22,10.315935,56.264987
2218099,Lauritshøj,8541,24,10.315996,56.265013
2218100,Lauritshøj,8541,26,10.315668,56.26512
2218101,Lauritshøj,8541,28,10.315601,56.265094
2218102,Lauritshøj,8541,30,10.315533,56.265068
2218103,Lauritshøj,8541,32,10.315263,56.264918
2218104,Lauritshøj,8541,34,10.315217,56.264882
2218105,Lauritshøj,8541,36,10.315164,56.264847
2218106,Lauritshøj,8541,38,10.315119,56.264816
2218107,Lauritshøj,8541,40,10.315076,56.26478
2218108,Lauritshøj,8541,42,10.314981,56.26475
2218109,Lauritshøj,8541,44,10.31493,56.26471
2218110,Lauritshøj,8541,46,10.314883,56.26467
2218111,Lauritshøj,8541,48,10.314838,56.264635
2218112,Lauritshøj,8541,50,10.314545,56.264827
2218113,Lauritshøj,8541,52,10.314613,56.264862
2218114,Lauritshøj,8541,54,10.31468,56.264888
2218115,Lauritshøj,8541,56,10.314749,56.264919
2218116,Lauritshøj,8541,58,10.314821,56.264949
2218117,Lauritshøj,8541,60,10.314904,56.264984
2218118,Lauritshøj,8541,62,10.314976,56.26502
2218119,Lauritshøj,8541,64,10.315042,56.26505
2218120,Lauritshøj,8541,66,10.31525,56.265183
2218121,Lauritshøj,8541,68,10.315346,56.265227
2218122,Lauritshøj,8541,70,10.315446,56.265271
2218123,Lauritshøj,8541,72,10.314988,56.265383
2218124,Lauritshøj,8541,74,10.314907,56.265344
2218125,Lauritshøj,8541,76,10.314819,56.265309
2218126,Lauritshøj,8541,78,10.314726,56.265265
2218127,Lauritshøj,8541,80,10.31462,56.265217
2218128,Lauritshøj,8541,82,10.314526,56.265173
2218129,Lauritshøj,8541,84,10.314431,56.265133
2218130,Lauritshøj,8541,86,10.314338,56.265094
2218131,Lauritshøj,8541,88,10.314242,56.26505
2218132,Lauritshøj,8541,90,10.313876,56.26487
2218133,Lauritshøj,8541,92,10.313791,56.26483
2218134,Lauritshøj,8541,94,10.313686,56.264782
2218135,Lauritshøj,8541,96,10.313582,56.264729
2218136,Lauritshøj,8541,98,10.313478,56.264672
2218137,Lauritshøj,8541,100,10.313374,56.264619
2218138,Lauritshøj,8541,102,10.31346,56.2641366
2218139,Lauritshøj,8541,104,10.313532,56.26419
2218140,Lauritshøj,8541,106,10.3136,56.2642444
2218141,Lauritshøj,8541,108,10.313669,56.264297
2218142,Lauritshøj,8541,110,10.313799,56.26443
2218143,Lauritshøj,8541,112,10.31389,56.264479
2218144,Lauritshøj,8541,114,10.313981,56.264518
2218145,Lauritshøj,8541,116,10.31407,56.26458
2218146,Lauritshøj,8541,118,10.3141587,56.2646238
2218147,Lauritshøj,8541,120,10.314237,56.264664
2218148,Lauritshøj,8541,122,10.314505,56.264472
2218149,Lauritshøj,8541,124,10.3145633,56.2642744
2218150,Lauritshøj,8541,126,10.314519,56.264234
2218151,Lauritshøj,8541,128,10.314472,56.264198
2218152,Lauritshøj,8541,130,10.314428,56.264163
2218153,Lauritshøj,8541,132,10.3143767,56.2641269
2218154,Lauritshøj,8541,134,10.314352,56.264082
2218155,Lauritshøj,8541,136,10.314284,56.264057
2218156,Lauritshøj,8541,138,10.314883,56.264019
2218157,Lauritshøj,8541,140,10.3149339,56.2640635
2218158,Lauritshøj,8541,142,10.3149856,56.2641032
2218159,Lauritshøj,8541,144,10.315048,56.264152
2218160,Lauritshøj,8541,146,10.315106,56.2642054
2218161,Lauritshøj,8541,950,10.317622,56.263826
2219636,Krajbjergvej,8541,6E,10.295923,56.283564
2219637,Krajbjergvej,8541,6F,10.2965317,56.2846322
2219638,Krajbjergvej,8541,6G,10.297135,56.285731
2223368,Hjelmagervej,8541,951,10.317954,56.276023
2223385,Digesvalevej,8541,950,10.335182,56.258202
2223386,Digesvalevej,8541,951,10.3331633,56.2600385
2227480,Bondehaven,8541,19D,10.301867,56.262126
2227481,Bakketoften,8541,3C,10.302188,56.255683
2227482,Bakketoften,8541,950,10.301687,56.256083
2227683,Skødstrupbakken,8541,950,10.299793,56.2665
2227684,Bakkely,8541,950,10.304934,56.255161
2230214,Vosnæsparken,8541,950,10.326468,56.282795
2237137,Kirkeholtvej,8541,4D,10.299381,56.29068
2238647,Vosnæsvej,8541,20A,10.357021,56.281951
2239312,Bøgehøj,8541,101,10.3224584,56.2836794
2239376,Segaltvej,8541,399,10.312408,56.284213
2239377,Segaltvej,8541,407,10.311608,56.28494
2240375,Egevej,8541,2,10.310012,56.272755
2240376,Egevej,8541,3,10.309842,56.2733
2240377,Egevej,8541,25,10.312215,56.275108
2240378,Egevej,8541,26,10.31264,56.274848
2240379,Berberisvej,8541,1,10.308477,56.273324
2240380,Berberisvej,8541,15,10.309888,56.274701
2241641,Tronkærlund,8541,6,10.293606,56.268382
2241642,Tronkærlund,8541,8,10.294001,56.268516
2241643,Tronkærlund,8541,10,10.293801,56.268656
2241644,Tronkærlund,8541,12,10.293418,56.268604
2241645,Tronkærlund,8541,14,10.293279,56.269003
2241646,Tronkærlund,8541,16,10.291842,56.269736
2241647,Tronkærlund,8541,18,10.29208,56.269533
2241648,Tronkærlund,8541,20,10.292473,56.269452
2241649,Tronkærlund,8541,22,10.29268,56.269312
2241650,Tronkærlund,8541,24,10.292785,56.269022
2241651,Tronkærlund,8541,26,10.292905,56.268839
2241652,Tronkærlund,8541,28,10.292618,56.268541
2241653,Tronkærlund,8541,30,10.292876,56.268362
2241654,Tronkærlund,8541,32,10.293092,56.268219
2241655,Tronkærlund,8541,34,10.293379,56.268086
2241656,Tronkærlund,8541,36,10.292972,56.267785
2241657,Tronkærlund,8541,38,10.292786,56.267572
2241658,Tronkærlund,8541,40,10.292706,56.267411
2241659,Tronkærlund,8541,53,10.295773,56.267545
2241660,Tronkærlund,8541,55,10.295188,56.267803
2241661,Tronkærlund,8541,57,10.295114,56.26754
2241662,Tronkærlund,8541,59,10.294933,56.267324
2241663,Tronkærlund,8541,61,10.294826,56.267083
2241664,Tronkærlund,8541,63,10.294341,56.267082
2241665,Tronkærlund,8541,65,10.29398,56.267182
2241666,Tronkærlund,8541,67,10.294241,56.267372
2241667,Tronkærlund,8541,69,10.294503,56.267565
2241668,Tronkærlund,8541,71,10.294643,56.267736
2241669,Tronkærlund,8541,73,10.294804,56.267914
2241670,Tronkærlund,8541,75,10.294214,56.268145
2241671,Tronkærlund,8541,77,10.293915,56.267946
2241672,Tronkærlund,8541,79,10.293663,56.267774
2241673,Tronkærlund,8541,81,10.293466,56.267529
2241674,Tronkærlund,8541,83,10.293548,56.267179
2241675,Tronkærlund,8541,85,10.293241,56.267298
2242288,Tronkærvej,8541,181,10.2956504,56.2692526
2242763,Grenåvej,8541,663,10.307091,56.262789
2253761,Bondehaven,8541,1,10.306668,56.271751
2253765,Bytorvet,8541,3,10.315481,56.276556
2253766,Bytorvet,8541,5,10.315563,56.276609
2253767,Bytorvet,8541,7,10.315641,56.276676
2253768,Bytorvet,8541,9,10.315741,56.276738
2253769,Bytorvet,8541,11,10.316013,56.276839
2253854,Gartnerhaven,8541,6E,10.307849,56.263798
2253855,Gartnerhaven,8541,6F,10.307645,56.263839
2253858,Grenåvej,8541,627C,10.300412,56.251744
2253859,Grenåvej,8541,951,10.298683,56.25179
2253936,Kirkeholtvej,8541,4C,10.299273,56.29083
2254170,Segaltvej,8541,2A,10.313404,56.281432
2254171,Segaltvej,8541,2B,10.313858,56.281484
2254172,Segaltvej,8541,2C,10.314397,56.281597
2254173,Segaltvej,8541,951,10.31449,56.281764
2254194,Skødstrupbakken,8541,35,10.299251,56.267574
2254195,Skødstrupbakken,8541,37,10.299279,56.26762
2254196,Skødstrupbakken,8541,39,10.299293,56.267666
2254197,Skødstrupbakken,8541,41,10.299314,56.267715
2254198,Skødstrupbakken,8541,43,10.299273,56.267761
2254199,Skødstrupbakken,8541,45,10.299238,56.267807
2254200,Skødstrupbakken,8541,47,10.299186,56.267849
2254201,Skødstrupbakken,8541,49,10.299123,56.267881
2254202,Skødstrupbakken,8541,51,10.299053,56.267907
2254203,Skødstrupbakken,8541,53,10.298973,56.267927
2254204,Skødstrupbakken,8541,55,10.298886,56.267938
2254205,Skødstrupbakken,8541,57,10.298799,56.26794
2254206,Skødstrupbakken,8541,59,10.298705,56.267931
2254207,Skødstrupbakken,8541,61,10.298627,56.267916
2254208,Skødstrupbakken,8541,63,10.29855,56.267891
2254209,Skødstrupbakken,8541,65,10.298535,56.267214
2254210,Skødstrupbakken,8541,67,10.298483,56.267257
2254211,Skødstrupbakken,8541,69,10.298423,56.26729
2254212,Skødstrupbakken,8541,71,10.298348,56.26732
2254213,Skødstrupbakken,8541,73,10.29827,56.267339
2254214,Skødstrupbakken,8541,75,10.298182,56.26735
2254215,Skødstrupbakken,8541,77,10.29809,56.267352
2254216,Skødstrupbakken,8541,79,10.298007,56.267344
2254217,Skødstrupbakken,8541,81,10.297922,56.267327
2254218,Skødstrupbakken,8541,83,10.297848,56.267304
2254219,Skødstrupbakken,8541,85,10.297785,56.267274
2254220,Skødstrupbakken,8541,87,10.297728,56.267234
2254221,Skødstrupbakken,8541,89,10.298275,56.267504
2254222,Skødstrupbakken,8541,91,10.298303,56.267546
2254223,Skødstrupbakken,8541,93,10.298326,56.267594
2254224,Skødstrupbakken,8541,95,10.29835,56.267641
2254225,Skødstrupbakken,8541,97,10.298339,56.267687
2254226,Skødstrupbakken,8541,99,10.298331,56.267735
2254227,Skødstrupbakken,8541,101,10.298314,56.267782
2254228,Skødstrupbakken,8541,103,10.298279,56.267829
2254229,Skødstrupbakken,8541,105,10.298241,56.26787
2254230,Skødstrupbakken,8541,107,10.298195,56.267908
2254231,Skødstrupbakken,8541,109,10.298139,56.267942
2254232,Skødstrupbakken,8541,111,10.298074,56.267974
2254233,Skødstrupbakken,8541,113,10.298003,56.267999
2254234,Skødstrupbakken,8541,115,10.297926,56.268022
2254235,Skødstrupbakken,8541,117,10.297851,56.268037
2254236,Skødstrupbakken,8541,119,10.297758,56.268046
2254237,Skødstrupbakken,8541,121,10.297678,56.268051
2254238,Skødstrupbakken,8541,123,10.29759,56.26805
2254239,Skødstrupbakken,8541,125,10.297507,56.268041
2254240,Skødstrupbakken,8541,127,10.297426,56.268026
2254254,Stationsstien,8541,19,10.305309,56.262299
2254255,Stationsstien,8541,21,10.304795,56.26222
2254256,Stationsstien,8541,23,10.304359,56.262453
2254283,Tronkærgårdsvej,8541,32,10.301561,56.265549
2254284,Tronkærgårdsvej,8541,34,10.30158,56.265614
2254285,Tronkærgårdsvej,8541,36,10.301599,56.265679
2254286,Tronkærgårdsvej,8541,38,10.301306,56.265869
2254287,Tronkærgårdsvej,8541,40,10.301289,56.265812
2254288,Tronkærgårdsvej,8541,42,10.301268,56.26574
2254289,Tronkærgårdsvej,8541,44,10.30119,56.265624
2254290,Tronkærgårdsvej,8541,46,10.301127,56.265574
2254291,Tronkærgårdsvej,8541,48,10.301047,56.265511
2254292,Tronkærgårdsvej,8541,50,10.300891,56.265428
2254293,Tronkærgårdsvej,8541,52,10.300797,56.265391
2254294,Tronkærgårdsvej,8541,54,10.300688,56.265348
2254295,Tronkærgårdsvej,8541,56,10.301128,56.266025
2254296,Tronkærgårdsvej,8541,58,10.301108,56.265965
2254297,Tronkærgårdsvej,8541,60,10.301087,56.265901
2254298,Tronkærgårdsvej,8541,62,10.300997,56.265801
2254299,Tronkærgårdsvej,8541,64,10.300977,56.265736
2254300,Tronkærgårdsvej,8541,66,10.300957,56.265672
2254301,Tronkærgårdsvej,8541,70,10.300749,56.265549
2254302,Tronkærgårdsvej,8541,72,10.30065,56.265511
2254303,Tronkærgårdsvej,8541,74,10.30055,56.265472
2254304,Tronkærgårdsvej,8541,76,10.300378,56.265394
2254305,Tronkærgårdsvej,8541,78,10.300269,56.265371
2254306,Tronkærgårdsvej,8541,80,10.300152,56.265347
2254307,Tronkærgårdsvej,8541,82,10.299969,56.26531
2254308,Tronkærgårdsvej,8541,84,10.299864,56.265289
2254309,Tronkærgårdsvej,8541,86,10.29975,56.265266
2254310,Tronkærgårdsvej,8541,88,10.299633,56.265047
2254311,Tronkærgårdsvej,8541,90,10.29975,56.265071
2254312,Tronkærgårdsvej,8541,92,10.29988,56.265097
2254313,Tronkærgårdsvej,8541,94,10.300048,56.265038
2254314,Tronkærgårdsvej,8541,96,10.300158,56.26506
2254315,Tronkærgårdsvej,8541,98,10.300275,56.265084
2254316,Tronkærgårdsvej,8541,220A,10.29708,56.265253
2254368,Vorrevej,8541,30B,10.295869,56.278632
