idx,street,postcode,housenumber,lon,lat
1071616,Skalhøjvej,8581,15,10.5623648,56.3973871
1071621,Skalhøjvej,8581,17,10.5616191,56.4006548
1071626,Skalhøjvej,8581,20,10.5662628,56.3893564
1071627,Skalhøjvej,8581,22A,10.5751127,56.3943141
1071629,Skalhøjvej,8581,22B,10.5739154,56.395439
1071630,Skalhøjvej,8581,24,10.5878955,56.3943612
1071631,Skalhøjvej,8581,26,10.5853156,56.3960705
1071632,Skalhøjvej,8581,28,10.581796,56.39599
1071633,Skalhøjvej,8581,30,10.5723716,56.3977122
1071634,Skalhøjvej,8581,32,10.5641796,56.3939221
1071635,Skalhøjvej,8581,34,10.56371,56.394388
1071636,Skalhøjvej,8581,36,10.562579,56.3982157
1071639,Skalhøjvej,8581,38,10.562499,56.398531
1071640,Skalhøjvej,8581,40A,10.5623176,56.399887
1071643,Skalhøjvej,8581,40B,10.5672369,56.4003542
1071645,Skalhøjvej,8581,42,10.5622652,56.4001479
1071648,Skalhøjvej,8581,44,10.5796315,56.400249
1076383,Tøstrupvej,8581,1,10.5690081,56.4083238
1076384,Tøstrupvej,8581,2A,10.5686774,56.4081346
1076385,Tøstrupvej,8581,2B,10.5687774,56.408121
1076386,Tøstrupvej,8581,2C,10.5689559,56.4080896
1076387,Tøstrupvej,8581,2D,10.5690676,56.4080773
1076388,Tøstrupvej,8581,2E,10.5691654,56.4080671
1076389,Tøstrupvej,8581,2F,10.5692609,56.4080504
1076390,Tøstrupvej,8581,2G,10.5693586,56.4079963
1076391,Tøstrupvej,8581,2H,10.5694547,56.4079783
1076392,Tøstrupvej,8581,2K,10.5696008,56.4079326
1076393,Tøstrupvej,8581,2L,10.5697135,56.4079282
1076394,Tøstrupvej,8581,2M,10.5696402,56.4080396
1076395,Tøstrupvej,8581,3,10.5692549,56.4082828
1076396,Tøstrupvej,8581,4,10.570097,56.4080949
1076397,Tøstrupvej,8581,5,10.5696418,56.4082641
1076398,Tøstrupvej,8581,6,10.5707919,56.4081935
1076399,Tøstrupvej,8581,7,10.5700634,56.4082699
1076400,Tøstrupvej,8581,8,10.571146,56.408244
1076401,Tøstrupvej,8581,9,10.5704567,56.4083444
1076402,Tøstrupvej,8581,11,10.570825,56.4085106
1076403,Tøstrupvej,8581,25,10.585287,56.4101213
1076404,Tøstrupvej,8581,27,10.5993568,56.4110283
1076405,Tøstrupvej,8581,29,10.604754,56.4119627
1076406,Tøstrupvej,8581,31,10.6113413,56.411823
1076407,Tøstrupvej,8581,33,10.6091864,56.416086
1076408,Tøstrupvej,8581,35,10.6112801,56.4157801
1076410,Tøstrupvej,8581,35A,10.6197859,56.4215262
1076411,Tøstrupvej,8581,37,10.6139094,56.4118274
1076414,Tøstrupvej,8581,39,10.6146272,56.4124898
1076415,Tøstrupvej,8581,40,10.5778946,56.4087959
1076417,Tøstrupvej,8581,41,10.6200898,56.4117426
1076420,Tøstrupvej,8581,42,10.5783092,56.4087601
1076421,Tøstrupvej,8581,43,10.6244056,56.411889
1076424,Tøstrupvej,8581,45,10.6275476,56.4119841
1076425,Tøstrupvej,8581,46,10.5875024,56.4098733
1076427,Tøstrupvej,8581,47,10.633805,56.414509
1076429,Tøstrupvej,8581,47A,10.6310913,56.4150478
1076431,Tøstrupvej,8581,48,10.5923501,56.4099288
1076433,Tøstrupvej,8581,49,10.6392452,56.4117497
1076435,Tøstrupvej,8581,50,10.5934232,56.4100964
1076437,Tøstrupvej,8581,51,10.6417854,56.4119009
1076439,Tøstrupvej,8581,52,10.5949095,56.4099694
1076440,Tøstrupvej,8581,53A,10.6447694,56.4118255
1076441,Tøstrupvej,8581,53B,10.6503641,56.4090283
1076442,Tøstrupvej,8581,53C,10.6508013,56.4091911
1076443,Tøstrupvej,8581,54,10.5983223,56.4085149
1076444,Tøstrupvej,8581,56,10.5999893,56.4063044
1076445,Tøstrupvej,8581,57,10.649588,56.408554
1076446,Tøstrupvej,8581,58,10.6004962,56.4103117
1076447,Tøstrupvej,8581,59,10.6495214,56.4084372
1076448,Tøstrupvej,8581,60,10.6022036,56.4107752
1076449,Tøstrupvej,8581,61,10.6494991,56.4080914
1076450,Tøstrupvej,8581,62,10.6180054,56.4112624
1076451,Tøstrupvej,8581,63,10.6506174,56.4072896
1076452,Tøstrupvej,8581,64,10.6209486,56.4112193
1076455,Tøstrupvej,8581,66,10.6268383,56.4114038
1076456,Tøstrupvej,8581,68,10.6301728,56.4109356
1076457,Tøstrupvej,8581,70,10.6329792,56.4105696
1076458,Tøstrupvej,8581,72,10.6410734,56.4113774
1076459,Tøstrupvej,8581,74,10.6423683,56.4112671
1076460,Tøstrupvej,8581,76,10.6474211,56.410743
1076461,Tøstrupvej,8581,76A,10.648776,56.4103988
1076462,Tøstrupvej,8581,78,10.6483538,56.4102473
1076463,Tøstrupvej,8581,80,10.6489974,56.4099563
1076464,Tøstrupvej,8581,82,10.6486124,56.4095391
1076465,Tøstrupvej,8581,84,10.6483374,56.409596
1076466,Tøstrupvej,8581,86,10.648294,56.4088625
1076467,Tøstrupvej,8581,90,10.6490771,56.407702
1076468,Tøstrupvej,8581,92,10.6560836,56.4054111
1076983,Gammel Landevej,8581,1,10.6510879,56.4104295
1076985,Gammel Landevej,8581,1A,10.6557754,56.4185777
1076988,Gammel Landevej,8581,2A,10.6600993,56.4108642
1076989,Gammel Landevej,8581,3,10.6573489,56.4109476
1076992,Gammel Landevej,8581,5,10.6588414,56.4110604
1076994,Gammel Landevej,8581,7,10.6634628,56.4117147
1076995,Gammel Landevej,8581,7B,10.6655461,56.4125069
1076996,Gammel Landevej,8581,9,10.6683484,56.4144412
1086233,Sønderskovvej,8581,1,10.5888492,56.4040957
1086234,Sønderskovvej,8581,2,10.5876863,56.4030816
1086235,Sønderskovvej,8581,3,10.6017525,56.4036116
1086236,Sønderskovvej,8581,4,10.5931406,56.4008744
1086237,Sønderskovvej,8581,6,10.5919323,56.3992693
1086238,Sønderskovvej,8581,8,10.5977609,56.3993751
1086258,Dyrhøjvej,8581,6,10.6518159,56.4012222
1086260,Dyrhøjvej,8581,9,10.6500428,56.4003894
1086717,Hovedvejen,8581,82,10.5866221,56.431618
1086719,Hovedvejen,8581,83,10.5827998,56.4301862
1086724,Hovedvejen,8581,87,10.5659494,56.4293344
1086726,Hovedvejen,8581,87B,10.563223,56.4285549
1086727,Hovedvejen,8581,89,10.5515264,56.4283843
1086728,Hovedvejen,8581,90,10.5637951,56.4328103
1086729,Hovedvejen,8581,91,10.5463572,56.4279752
1086730,Hovedvejen,8581,92,10.5556526,56.4291698
1086731,Hovedvejen,8581,93,10.5455926,56.4263609
1086732,Hovedvejen,8581,94,10.535134,56.428617
1086733,Hovedvejen,8581,95,10.5438449,56.4260603
1086734,Hovedvejen,8581,96,10.507962,56.429686
1086735,Hovedvejen,8581,97,10.5408158,56.4253727
1086737,Hovedvejen,8581,101,10.5288128,56.4251409
1086739,Hovedvejen,8581,103A,10.5282481,56.4283354
1086740,Hovedvejen,8581,103B,10.5299339,56.4283073
1086742,Hovedvejen,8581,105,10.526591,56.428479
1086744,Hovedvejen,8581,107,10.5195925,56.426589
1086745,Hovedvejen,8581,109,10.5176015,56.4271567
1086896,Stationsvej,8581,1,10.5666358,56.4087966
1086897,Stationsvej,8581,2,10.5668276,56.4088679
1086898,Stationsvej,8581,3,10.5658798,56.409037
1086899,Stationsvej,8581,4,10.5665778,56.4089573
1086900,Stationsvej,8581,5,10.5657071,56.4091279
1086901,Stationsvej,8581,6,10.5663449,56.4090387
1086902,Stationsvej,8581,7,10.5655281,56.4091906
1086903,Stationsvej,8581,8,10.565977,56.4091926
1086904,Stationsvej,8581,9,10.5649627,56.4093769
1086905,Stationsvej,8581,10,10.565879,56.4093911
1086906,Stationsvej,8581,11,10.5649067,56.4096413
1086907,Stationsvej,8581,12,10.5657155,56.409437
1086908,Stationsvej,8581,13,10.564801,56.4098303
1086909,Stationsvej,8581,14,10.5655755,56.4093653
1086910,Stationsvej,8581,16,10.565479,56.4094129
1086911,Stationsvej,8581,17,10.5644761,56.4101704
1086912,Stationsvej,8581,18,10.5653368,56.4095913
1086913,Stationsvej,8581,19,10.5643164,56.4103018
1086914,Stationsvej,8581,20,10.5651915,56.4097773
1086915,Stationsvej,8581,21,10.564162,56.4104836
1086917,Stationsvej,8581,22,10.5651013,56.4098892
1086918,Stationsvej,8581,23,10.5640125,56.4105951
1086920,Stationsvej,8581,24A,10.5655942,56.4099773
1086923,Stationsvej,8581,24B,10.5658559,56.4107064
1086924,Stationsvej,8581,25,10.563286,56.410743
1086927,Stationsvej,8581,26,10.5649324,56.41009
1086928,Stationsvej,8581,27,10.563847,56.4109714
1086929,Stationsvej,8581,28,10.5650568,56.4102876
1086930,Stationsvej,8581,29,10.5638207,56.4110948
1086931,Stationsvej,8581,30,10.564682,56.4103607
1086932,Stationsvej,8581,31,10.5637585,56.4113261
1086933,Stationsvej,8581,32,10.564686,56.4105183
1086934,Stationsvej,8581,33,10.5636906,56.4114791
1086935,Stationsvej,8581,34,10.564448,56.41065
1086936,Stationsvej,8581,35,10.5636783,56.4116572
1086937,Stationsvej,8581,36,10.5643297,56.4107661
1086938,Stationsvej,8581,37,10.5637219,56.4118437
1086939,Stationsvej,8581,38,10.5642236,56.410899
1086940,Stationsvej,8581,39,10.5637208,56.4120134
1086941,Stationsvej,8581,40,10.5641514,56.4110396
1086942,Stationsvej,8581,41,10.5637134,56.4121716
1086943,Stationsvej,8581,42,10.5640588,56.4112848
1086944,Stationsvej,8581,43,10.5637186,56.4125717
1086945,Stationsvej,8581,44,10.564034,56.4114671
1086946,Stationsvej,8581,45,10.5634827,56.4137051
1086947,Stationsvej,8581,46,10.5640195,56.4116623
1086948,Stationsvej,8581,48A,10.5640485,56.411819
1086949,Stationsvej,8581,48B,10.5644935,56.4120492
1086950,Stationsvej,8581,50,10.5640652,56.4121244
1086951,Stationsvej,8581,52,10.5640858,56.4124541
1086952,Stationsvej,8581,54A,10.5644636,56.4126803
1086953,Stationsvej,8581,54B,10.5646094,56.4128699
1086955,Stationsvej,8581,56,10.5643623,56.4129957
1086957,Stationsvej,8581,58,10.563882,56.41392
1086959,Stationsvej,8581,60,10.5639515,56.4142547
1086961,Stationsvej,8581,62,10.5640481,56.4146322
1086962,Stationsvej,8581,64,10.564532,56.415376
1087239,Ramtenvej,8581,1,10.5683714,56.4089118
1087240,Ramtenvej,8581,3,10.5685348,56.4089289
1087241,Ramtenvej,8581,4,10.5691083,56.4089169
1087242,Ramtenvej,8581,5,10.5697721,56.4093231
1087243,Ramtenvej,8581,6,10.5695507,56.4088793
1087244,Ramtenvej,8581,7,10.5702934,56.4095161
1087245,Ramtenvej,8581,8,10.5697918,56.4090193
1087246,Ramtenvej,8581,9,10.570586,56.4096239
1087247,Ramtenvej,8581,10,10.5700387,56.409103
1087248,Ramtenvej,8581,11,10.5707295,56.4097748
1087249,Ramtenvej,8581,12,10.5703043,56.4091994
1087250,Ramtenvej,8581,13A,10.5710047,56.4098998
1087251,Ramtenvej,8581,13B,10.570815,56.4103018
1087252,Ramtenvej,8581,14A,10.570648,56.409273
1087253,Ramtenvej,8581,14B,10.570688,56.40922
1087254,Ramtenvej,8581,15,10.5714308,56.4101627
1087255,Ramtenvej,8581,16,10.57121,56.409688
1087256,Ramtenvej,8581,17,10.5717197,56.410323
1087257,Ramtenvej,8581,18,10.5716614,56.4098893
1087258,Ramtenvej,8581,20,10.5720193,56.4098428
1087259,Ramtenvej,8581,26,10.573133,56.4106541
1087260,Ramtenvej,8581,28,10.5732629,56.4103967
1087261,Ramtenvej,8581,30,10.573459,56.4102228
1087262,Ramtenvej,8581,32,10.5739757,56.4102814
1087263,Ramtenvej,8581,34,10.5744243,56.4104171
1087264,Ramtenvej,8581,36,10.5738976,56.4105957
1087265,Ramtenvej,8581,38,10.5744114,56.4107943
1087266,Ramtenvej,8581,40,10.5743349,56.4109523
1087267,Ramtenvej,8581,42,10.5738907,56.4109419
1087268,Ramtenvej,8581,44,10.5736156,56.4107798
1087269,Ramtenvej,8581,46,10.5958745,56.4193774
1087270,Ramtenvej,8581,47,10.5766869,56.4121471
1087271,Ramtenvej,8581,48,10.5982292,56.4204667
1087272,Ramtenvej,8581,48A,10.6035099,56.4186786
1087273,Ramtenvej,8581,49,10.5808311,56.413165
1087274,Ramtenvej,8581,50,10.603789,56.4195933
1087275,Ramtenvej,8581,52A,10.6064343,56.4217872
1087276,Ramtenvej,8581,52B,10.6077296,56.4219326
1087277,Ramtenvej,8581,53,10.5904513,56.4175707
1087278,Ramtenvej,8581,54,10.6107632,56.4217483
1087279,Ramtenvej,8581,55,10.5922852,56.424073
1087280,Ramtenvej,8581,57,10.5921824,56.4252565
1087281,Ramtenvej,8581,61,10.600125,56.4247319
1420001,Fuglsøgårdvej,8581,2,10.5626,56.459505
1423239,Sønderskovbakken,8581,6,10.576592,56.408336
1423241,Sønderskovbakken,8581,8,10.576825,56.408343
1423243,Sønderskovbakken,8581,10,10.576734,56.408636
1423246,Sønderskovbakken,8581,12,10.576513,56.408624
1423247,Sønderskovbakken,8581,14,10.576272,56.408613
1423249,Sønderskovbakken,8581,16,10.576064,56.408601
1423250,Sønderskovbakken,8581,18,10.575897,56.408305
1423251,Sønderskovbakken,8581,20,10.576117,56.408309
1423252,Sønderskovbakken,8581,22,10.5755467,56.4082913
1423253,Sønderskovbakken,8581,24,10.57565,56.408554
1423254,Sønderskovbakken,8581,26,10.5753088,56.4085801
1423255,Sønderskovbakken,8581,28,10.5747746,56.4085355
1423256,Sønderskovbakken,8581,30,10.5749314,56.408338
1423257,Sønderskovbakken,8581,32,10.5746078,56.4082626
1423259,Sønderskovbakken,8581,34,10.5742734,56.4085407
1423262,Sønderskovbakken,8581,36,10.5739718,56.408475
1423263,Sønderskovbakken,8581,38,10.5739912,56.4083048
1423265,Sønderskovbakken,8581,40,10.5742179,56.4078527
1423266,Sønderskovbakken,8581,42,10.5745379,56.4075377
1423268,Sønderskovbakken,8581,44,10.5747415,56.4079764
1423271,Sønderskovbakken,8581,46,10.575367,56.408021
1423272,Sønderskovbakken,8581,48,10.5751057,56.407687
1423275,Sønderskovbakken,8581,50,10.575817,56.407579
1423276,Sønderskovbakken,8581,52,10.5759288,56.4080172
1423279,Sønderskovbakken,8581,54,10.5764964,56.4080483
1423280,Sønderskovbakken,8581,56,10.576263,56.4076787
1423282,Sønderskovbakken,8581,58,10.5768037,56.4076553
1423285,Sønderskovbakken,8581,60,10.5772927,56.4077281
1423286,Sønderskovbakken,8581,62,10.5771158,56.4080401
1423289,Sønderskovbakken,8581,64,10.5768351,56.4069233
1423416,Langbyvej,8581,3,10.639676,56.421081
1423419,Langbyvej,8581,5,10.633317,56.420353
1423421,Langbyvej,8581,7,10.627318,56.419033
1423423,Langbyvej,8581,9,10.623476,56.421045
1423425,Langbyvej,8581,11,10.630624,56.419981
1423427,Langbyvej,8581,13,10.638868,56.421388
1423429,Langbyvej,8581,15,10.640766,56.421449
1423432,Langbyvej,8581,17,10.64389,56.421707
1423550,Ryomgaardvej,8581,1,10.5668699,56.4085066
1423553,Ryomgaardvej,8581,2,10.5660025,56.4078167
1423557,Ryomgaardvej,8581,3,10.5668183,56.4083966
1423558,Ryomgaardvej,8581,4,10.5654123,56.4075238
1423562,Ryomgaardvej,8581,5,10.5667687,56.4083011
1423563,Ryomgaardvej,8581,5C,10.566946,56.4081174
1423567,Ryomgaardvej,8581,6,10.5651285,56.4075008
1423569,Ryomgaardvej,8581,7,10.5666403,56.4081488
1423571,Ryomgaardvej,8581,9,10.5664627,56.40803
1423575,Ryomgaardvej,8581,11,10.5663063,56.4078553
1423577,Ryomgaardvej,8581,13A,10.567344,56.4073417
1423580,Ryomgaardvej,8581,13B,10.5668297,56.4074694
1423582,Ryomgaardvej,8581,15,10.5665243,56.4074209
1423584,Ryomgaardvej,8581,17,10.5659716,56.4073278
1423586,Ryomgaardvej,8581,17P,10.5658528,56.4074718
1423588,Ryomgaardvej,8581,19A,10.565813,56.406897
1423589,Ryomgaardvej,8581,19B,10.5656936,56.4067221
1423590,Ryomgaardvej,8581,19C,10.5646436,56.4064578
1423591,Ryomgaardvej,8581,21,10.565555,56.4073722
1423592,Ryomgaardvej,8581,23,10.5625947,56.4072801
1423593,Ryomgaardvej,8581,25,10.5622197,56.407251
1423594,Ryomgaardvej,8581,29,10.5614702,56.4071455
1423793,Svenstrupvej,8581,1,10.5609999,56.4078038
1423796,Svenstrupvej,8581,2,10.5622932,56.4077663
1423799,Svenstrupvej,8581,4,10.5616416,56.4079853
1423800,Svenstrupvej,8581,6,10.561534,56.4082642
1423801,Svenstrupvej,8581,8,10.5612019,56.4089344
1430079,Herredsvejen,8581,1,10.6269073,56.4023451
1430080,Herredsvejen,8581,3,10.6239661,56.4019484
1430084,Herredsvejen,8581,5,10.6212398,56.4015494
1430085,Herredsvejen,8581,7,10.6171733,56.4009201
1431126,Randersvej,8581,1,10.5632158,56.4140812
1431128,Randersvej,8581,2,10.562404,56.4153815
1431129,Randersvej,8581,3,10.5629865,56.4142397
1431130,Randersvej,8581,4,10.5578754,56.4244256
1431132,Randersvej,8581,5,10.562545,56.4145722
1431133,Randersvej,8581,6,10.5576538,56.425164
1431134,Randersvej,8581,7,10.5624252,56.4147553
1431135,Randersvej,8581,9,10.562097,56.414902
1431136,Randersvej,8581,11,10.5619511,56.4150347
1431138,Randersvej,8581,13,10.5618153,56.4151785
1431139,Randersvej,8581,13A,10.561477,56.415473
1431141,Randersvej,8581,15,10.5569787,56.4202724
1431142,Randersvej,8581,17,10.5510261,56.4252002
1431229,Jordemodervej,8581,2,10.666208,56.415658
1431356,Sjørupgårdvej,8581,1,10.6101997,56.4078579
1431357,Sjørupgårdvej,8581,2,10.6094269,56.4083226
1431358,Sjørupgårdvej,8581,3,10.6144459,56.4052957
1431359,Sjørupgårdvej,8581,4A,10.612345,56.40472
1431360,Sjørupgårdvej,8581,5,10.6174409,56.4053693
1431361,Sjørupgårdvej,8581,6,10.6148632,56.404917
1431362,Sjørupgårdvej,8581,7,10.6197175,56.4052514
1431363,Sjørupgårdvej,8581,8,10.6179862,56.4047383
1431364,Sjørupgårdvej,8581,9,10.6233124,56.4050916
1431365,Sjørupgårdvej,8581,10,10.6196731,56.4048922
1431366,Sjørupgårdvej,8581,11,10.6264182,56.4050315
1431367,Sjørupgårdvej,8581,12,10.6243147,56.4045457
1431368,Sjørupgårdvej,8581,13,10.6286126,56.4049193
1431369,Sjørupgårdvej,8581,14,10.6277932,56.4044463
1431370,Sjørupgårdvej,8581,15,10.6316737,56.4050669
1431371,Sjørupgårdvej,8581,16,10.6326381,56.4047521
1431372,Sjørupgårdvej,8581,17,10.6363877,56.4061453
1431373,Sjørupgårdvej,8581,18,10.6359975,56.4055122
1431374,Sjørupgårdvej,8581,19,10.639712,56.406839
1431375,Sjørupgårdvej,8581,20A,10.638595,56.4028089
1431376,Sjørupgårdvej,8581,20B,10.6381955,56.4030386
1431377,Sjørupgårdvej,8581,21,10.6418067,56.4073551
1431378,Sjørupgårdvej,8581,22,10.6398806,56.4065622
1431379,Sjørupgårdvej,8581,23,10.6481514,56.4086028
1431547,Møllevej,8581,1,10.5704598,56.4078417
1431548,Møllevej,8581,2,10.569957,56.4079296
1431549,Møllevej,8581,4,10.570094,56.407842
1431550,Møllevej,8581,5,10.5708039,56.4067715
1431551,Møllevej,8581,5P,10.5732064,56.4046497
1431552,Møllevej,8581,6A,10.5703578,56.4076856
1431553,Møllevej,8581,6B,10.5705584,56.4076185
1431554,Møllevej,8581,7,10.5702134,56.4065581
1431556,Møllevej,8581,8,10.5708557,56.4074309
1431880,Eskilsagre,8581,14,10.534497,56.469262
1431882,Eskilsagre,8581,16,10.536773,56.468996
1431884,Eskilsagre,8581,20,10.544032,56.467855
1431885,Eskilsagre,8581,22,10.54606,56.46805
1432766,Georgsmindevej,8581,9,10.541555,56.442404
1432768,Georgsmindevej,8581,11,10.542669,56.441651
1432770,Georgsmindevej,8581,13,10.539921,56.440557
1432772,Georgsmindevej,8581,15,10.538336,56.439632
1432774,Georgsmindevej,8581,17,10.536284,56.438665
1432775,Georgsmindevej,8581,17B,10.530482,56.432325
1432776,Georgsmindevej,8581,19A,10.527745,56.434598
1432777,Georgsmindevej,8581,19B,10.528023,56.434324
1432778,Georgsmindevej,8581,19C,10.528127,56.434275
1432779,Georgsmindevej,8581,19D,10.528258,56.434215
1432780,Georgsmindevej,8581,20,10.54872,56.456396
1432781,Georgsmindevej,8581,22,10.542993,56.448379
1432783,Georgsmindevej,8581,24,10.538426,56.440605
1432785,Georgsmindevej,8581,26,10.534071,56.438738
1432787,Georgsmindevej,8581,28,10.527456,56.435404
1432789,Georgsmindevej,8581,30,10.52611,56.432894
1433675,Torvet,8581,1,10.5667223,56.4086548
1433676,Torvet,8581,2,10.5669312,56.4085659
1433677,Torvet,8581,3,10.567131,56.408576
1433678,Torvet,8581,4,10.5673143,56.4085866
1433681,Torvet,8581,5A,10.5675315,56.4085854
1433684,Torvet,8581,5B,10.5677363,56.4085707
1433686,Torvet,8581,6A,10.5682745,56.4082599
1433689,Torvet,8581,6B,10.5680313,56.408278
1433690,Torvet,8581,6C,10.567902,56.4081152
1433692,Torvet,8581,6D,10.5682584,56.4081147
1433694,Torvet,8581,6E,10.5682406,56.4080352
1433695,Torvet,8581,6F,10.5682395,56.4079454
1433696,Torvet,8581,6P,10.5682706,56.4077816
1433697,Torvet,8581,7,10.5683944,56.4085535
1433698,Torvet,8581,8,10.568303,56.408669
1433699,Torvet,8581,9,10.5681031,56.4088341
1433700,Torvet,8581,10,10.5677311,56.4087561
1433701,Torvet,8581,11,10.5674453,56.4087726
1433702,Torvet,8581,12,10.5671386,56.4088058
1433703,Torvet,8581,13,10.567255,56.4090463
1435237,Eskebakken,8581,1,10.571753,56.4083376
1435238,Eskebakken,8581,3,10.5721488,56.4082754
1435239,Eskebakken,8581,5,10.5724288,56.4084304
1435240,Eskebakken,8581,7,10.5727273,56.4084487
1435241,Eskebakken,8581,9,10.5731952,56.4085872
1435242,Eskebakken,8581,11,10.5732828,56.408297
1435243,Eskebakken,8581,13,10.572989,56.4081826
1435244,Eskebakken,8581,15,10.5725572,56.4080373
1435245,Eskebakken,8581,17,10.572036,56.4080157
1435247,Eskebakken,8581,19,10.572349,56.407681
1435249,Eskebakken,8581,21,10.5727388,56.4077783
1435250,Eskebakken,8581,23,10.5732315,56.4077678
1435253,Eskebakken,8581,25,10.5735534,56.4078686
1435254,Eskebakken,8581,27,10.5736812,56.4076559
1435257,Eskebakken,8581,29,10.5733883,56.4075286
1435259,Eskebakken,8581,31,10.5728984,56.4074499
1435260,Eskebakken,8581,33,10.5723553,56.4074823
1435263,Eskebakken,8581,35,10.5725857,56.4071216
1435264,Eskebakken,8581,37,10.5733317,56.4072286
1435267,Eskebakken,8581,39,10.57371,56.4072433
1435269,Eskebakken,8581,41,10.5738418,56.4069307
1435270,Eskebakken,8581,43,10.5734142,56.4069204
1435273,Eskebakken,8581,45,10.5727991,56.4069163
1435274,Eskebakken,8581,47,10.5729016,56.4064958
1435277,Eskebakken,8581,49,10.573383,56.4064984
1435279,Eskebakken,8581,51,10.573911,56.4065528
1435280,Eskebakken,8581,53,10.5738167,56.406324
1435283,Eskebakken,8581,55,10.5735239,56.4062856
1435284,Eskebakken,8581,57,10.5729803,56.4062839
1436815,Elholtvej,8581,8,10.5438883,56.4152821
1436818,Elholtvej,8581,15,10.5390437,56.4077771
1436819,Elholtvej,8581,17,10.5406182,56.4085651
1436821,Elholtvej,8581,19,10.5390706,56.4110357
1436823,Elholtvej,8581,21,10.5346869,56.4127087
1437485,Nyvej,8581,1,10.5632487,56.4133272
1437486,Nyvej,8581,2,10.5631587,56.413738
1437487,Nyvej,8581,3,10.5632506,56.413138
1437488,Nyvej,8581,4,10.5628396,56.4133044
1437489,Nyvej,8581,6,10.5626424,56.4130262
1437490,Nyvej,8581,8,10.562547,56.41284
1437491,Nyvej,8581,10,10.5624504,56.4126492
1437492,Nyvej,8581,12,10.5622855,56.412462
1437493,Nyvej,8581,14,10.5622357,56.4122123
1437494,Nyvej,8581,16,10.562147,56.4120319
1437495,Nyvej,8581,18,10.5620317,56.4118047
1437556,Østenfjeldvej,8581,1,10.545413,56.415424
1437559,Østenfjeldvej,8581,2,10.5508026,56.418409
1437561,Østenfjeldvej,8581,2A,10.5497534,56.4189904
1437563,Østenfjeldvej,8581,2B,10.5476211,56.4148255
1437565,Østenfjeldvej,8581,3,10.5389017,56.4177663
1437566,Østenfjeldvej,8581,4,10.519215,56.422596
1437567,Østenfjeldvej,8581,5,10.532323,56.4153166
1437568,Østenfjeldvej,8581,7,10.5289233,56.415464
1437569,Østenfjeldvej,8581,9,10.5292558,56.4204099
1437570,Østenfjeldvej,8581,11,10.5266954,56.4209519
1437571,Østenfjeldvej,8581,13,10.517557,56.4199851
1437572,Østenfjeldvej,8581,15,10.5156844,56.4219091
1437573,Østenfjeldvej,8581,17A,10.5136706,56.4190616
1437574,Østenfjeldvej,8581,17B,10.5128674,56.421174
1437575,Østenfjeldvej,8581,19,10.5091122,56.4223965
1437576,Østenfjeldvej,8581,21,10.5005746,56.4244843
1438901,Frederikslundvej,8581,10,10.5509802,56.4058365
1438904,Frederikslundvej,8581,11,10.5351054,56.4079716
1438907,Frederikslundvej,8581,12A,10.5560211,56.4020843
1438909,Frederikslundvej,8581,13,10.5307435,56.4094207
1438912,Frederikslundvej,8581,15A,10.522973,56.411096
1438914,Frederikslundvej,8581,15B,10.522096,56.411202
1438916,Frederikslundvej,8581,17,10.5213417,56.4114988
1438918,Frederikslundvej,8581,19,10.5473178,56.4072552
1439023,Baunevej,8581,1,10.5759127,56.411398
1439024,Baunevej,8581,2,10.5750555,56.411166
1439027,Baunevej,8581,3,10.5756824,56.4111
1439029,Baunevej,8581,4,10.5751161,56.4109492
1439031,Baunevej,8581,5,10.5757079,56.4109288
1439033,Baunevej,8581,6,10.5751844,56.4107928
1439034,Baunevej,8581,7,10.5757383,56.4107284
1439036,Baunevej,8581,8,10.5752095,56.4106089
1439037,Baunevej,8581,9,10.5758825,56.4105472
1439039,Baunevej,8581,10,10.5752344,56.4104351
1439041,Baunevej,8581,11,10.5757897,56.4103358
1439042,Baunevej,8581,12,10.5752492,56.4102631
1439045,Baunevej,8581,13,10.5757313,56.4101166
1439047,Baunevej,8581,14,10.5752758,56.410076
1439048,Baunevej,8581,15,10.5757734,56.4099155
1439050,Baunevej,8581,16,10.5752997,56.4098909
1439051,Baunevej,8581,17,10.5758855,56.4097317
1439052,Baunevej,8581,18,10.5752703,56.409715
1439053,Baunevej,8581,19,10.5759335,56.4095611
1439054,Baunevej,8581,20,10.5752386,56.4095431
1439055,Baunevej,8581,21,10.5760294,56.4093812
1439057,Baunevej,8581,22,10.5752755,56.4093438
1439058,Baunevej,8581,23,10.5759385,56.409158
1439060,Baunevej,8581,24,10.5752869,56.4091705
1439061,Baunevej,8581,25,10.5758855,56.4089857
1439063,Baunevej,8581,26,10.5751273,56.4089751
1441385,Keramikvej,8581,1,10.52843,56.465825
1441386,Keramikvej,8581,2,10.530206,56.462425
1441387,Keramikvej,8581,4,10.531485,56.464312
1441388,Keramikvej,8581,6,10.532369,56.468768
1441523,Grønholtvej,8581,6,10.5031025,56.4144308
1441524,Grønholtvej,8581,8,10.5054884,56.4159628
1441525,Grønholtvej,8581,10,10.507456,56.41803
1441526,Grønholtvej,8581,12,10.508995,56.421505
1442665,Munkhusevej,8581,33,10.52672,56.462713
1442667,Munkhusevej,8581,34,10.536623,56.456957
1442668,Munkhusevej,8581,35,10.527295,56.462366
1442670,Munkhusevej,8581,36,10.53988,56.45823
1442672,Munkhusevej,8581,36B,10.541512,56.457658
1442674,Munkhusevej,8581,37,10.528139,56.462189
1442676,Munkhusevej,8581,38,10.542246,56.452783
1442677,Munkhusevej,8581,39,10.534215,56.460827
1442678,Munkhusevej,8581,40,10.547807,56.453329
1442679,Munkhusevej,8581,41,10.556446,56.454274
1442680,Munkhusevej,8581,43,10.557648,56.449478
1442681,Munkhusevej,8581,45,10.566307,56.45364
1442682,Munkhusevej,8581,47,10.562546,56.447991
1442991,Jordmodervejen,8581,1,10.6612408,56.4165693
1443192,Kolstrupvej,8581,1,10.5634106,56.4171039
1443193,Kolstrupvej,8581,2,10.5672382,56.4198804
1443194,Kolstrupvej,8581,3,10.5636761,56.4172541
1443195,Kolstrupvej,8581,4,10.5653346,56.421536
1443196,Kolstrupvej,8581,5,10.562851,56.420528
1443197,Kolstrupvej,8581,6B,10.5679036,56.4289163
1443198,Kolstrupvej,8581,7,10.5592161,56.4395611
1443199,Kolstrupvej,8581,7A,10.5561578,56.4409691
1443200,Kolstrupvej,8581,8A,10.568447,56.4334061
1443201,Kolstrupvej,8581,8B,10.5712055,56.4387768
1443202,Kolstrupvej,8581,9,10.559321,56.441177
1443203,Kolstrupvej,8581,9B,10.5592267,56.4455299
1443204,Kolstrupvej,8581,10,10.5666891,56.4334715
1443205,Kolstrupvej,8581,11,10.5565088,56.4469103
1443206,Kolstrupvej,8581,12,10.5636728,56.4353357
1443321,Vinkelvej,8581,1,10.5656867,56.4079562
1443322,Vinkelvej,8581,2,10.5657266,56.4083131
1443323,Vinkelvej,8581,3A,10.5653001,56.4081613
1443324,Vinkelvej,8581,3B,10.5647198,56.4079542
1443325,Vinkelvej,8581,3C,10.5646108,56.4079601
1443326,Vinkelvej,8581,3D,10.5644845,56.4079592
1443327,Vinkelvej,8581,3E,10.5643666,56.4079741
1443328,Vinkelvej,8581,3F,10.5642448,56.4079787
1443329,Vinkelvej,8581,3G,10.5646707,56.4081836
1443330,Vinkelvej,8581,3H,10.5645525,56.4081882
1443331,Vinkelvej,8581,3I,10.5644435,56.4081877
1443332,Vinkelvej,8581,3K,10.5643118,56.4082261
1443333,Vinkelvej,8581,3L,10.5641976,56.408226
1443334,Vinkelvej,8581,3M,10.5640219,56.408167
1443335,Vinkelvej,8581,3N,10.5640359,56.4082727
1443336,Vinkelvej,8581,5,10.5641466,56.4084176
1443337,Vinkelvej,8581,7,10.5644667,56.4084211
1443338,Vinkelvej,8581,9A,10.5648302,56.4084304
1443339,Vinkelvej,8581,9B,10.5648348,56.4085286
1443340,Vinkelvej,8581,11A,10.5648183,56.4086453
1443341,Vinkelvej,8581,11B,10.5646063,56.4086485
1443342,Vinkelvej,8581,13,10.5645345,56.4088326
1443343,Vinkelvej,8581,15,10.5646663,56.4088277
1443344,Vinkelvej,8581,16,10.5651472,56.4086449
1443345,Vinkelvej,8581,17,10.5646197,56.408929
1443346,Vinkelvej,8581,18,10.5653823,56.408962
1443347,Vinkelvej,8581,19,10.5647371,56.4089272
1443348,Vinkelvej,8581,20A,10.565431,56.409154
1443701,Skovbrynet,8581,1,10.522451,56.437713
1443702,Skovbrynet,8581,1B,10.522329,56.435026
1443703,Skovbrynet,8581,2,10.52609,56.43638
1443704,Skovbrynet,8581,3,10.521305,56.438198
1443705,Skovbrynet,8581,4,10.52234,56.438436
1443706,Skovbrynet,8581,5,10.518295,56.440017
1443707,Skovbrynet,8581,6,10.520943,56.439335
1443708,Skovbrynet,8581,7,10.517193,56.440595
1443709,Skovbrynet,8581,8,10.519222,56.440104
1443710,Skovbrynet,8581,9,10.520489,56.44165
1443711,Skovbrynet,8581,10,10.527104,56.443628
1443712,Skovbrynet,8581,11,10.526302,56.444123
1443713,Skovbrynet,8581,12,10.531349,56.445853
1443714,Skovbrynet,8581,12B,10.531449,56.445891
1443715,Skovbrynet,8581,13,10.536375,56.445687
1443716,Skovbrynet,8581,14,10.538106,56.443827
1443717,Skovbrynet,8581,15,10.538743,56.444086
1444396,Birkevej,8581,1,10.5626877,56.4140044
1444397,Birkevej,8581,2,10.5625165,56.4144152
1444398,Birkevej,8581,3,10.5618632,56.4129727
1444399,Birkevej,8581,4,10.5623772,56.414272
1444400,Birkevej,8581,5,10.5614461,56.4127101
1444401,Birkevej,8581,6,10.5622376,56.4139969
1444402,Birkevej,8581,8,10.5617692,56.4137968
2106021,Golf Svinget,8581,1,10.5934554,56.4183588
2106024,Golf Svinget,8581,6,10.5911868,56.4171547
2106028,Golf Svinget,8581,10,10.5918037,56.4174395
2106030,Golf Svinget,8581,30,10.5935651,56.4179393
2106042,Golf Svinget,8581,40,10.5926165,56.4172281
2106049,Golf Svinget,8581,52,10.5924654,56.4168873
2106051,Golf Svinget,8581,54,10.5926257,56.4166907
2106054,Golf Svinget,8581,72,10.592836,56.4165112
2106056,Golf Svinget,8581,74,10.5929218,56.4162699
2106059,Golf Svinget,8581,84,10.5931444,56.4160973
2106067,Golf Svinget,8581,92,10.5931556,56.4158676
2106071,Golf Svinget,8581,100,10.5942035,56.4154707
2106077,Golf Svinget,8581,106,10.5933334,56.4154688
2106078,Golf Svinget,8581,108,10.5934315,56.4152723
2106081,Golf Svinget,8581,114,10.5935364,56.4150895
2106084,Golf Svinget,8581,154,10.594142,56.4134611
2109111,Langbyvej,8581,1,10.6467626,56.4154463
2109117,Langbyvej,8581,2,10.647066,56.4173862
2109127,Langbyvej,8581,4,10.647317,56.41796
2109796,Lübker Allé,8581,2,10.5896885,56.4165244
2109798,Lübker Allé,8581,3,10.5882981,56.4168633
2109801,Lübker Allé,8581,4,10.5898856,56.4164059
2109806,Lübker Allé,8581,6,10.5896401,56.4162104
2109809,Lübker Allé,8581,8,10.5899936,56.4161925
2109816,Lübker Allé,8581,9,10.5875024,56.4167571
2109822,Lübker Allé,8581,10,10.5898418,56.4160198
2109833,Lübker Allé,8581,11,10.5872127,56.416669
2109837,Lübker Allé,8581,12,10.5895447,56.4158619
2109839,Lübker Allé,8581,13,10.5869229,56.4165809
2109843,Lübker Allé,8581,14,10.5899184,56.4158123
2109848,Lübker Allé,8581,15,10.586675,56.4164675
2109852,Lübker Allé,8581,16,10.5893405,56.4156577
2109856,Lübker Allé,8581,17,10.5864383,56.4163287
2109867,Lübker Allé,8581,18,10.5896368,56.4156024
2109872,Lübker Allé,8581,19,10.5862945,56.4164597
2109874,Lübker Allé,8581,20,10.5899798,56.4156364
2109878,Lübker Allé,8581,21,10.5861489,56.4165886
2109881,Lübker Allé,8581,22,10.5898907,56.4154637
2109883,Lübker Allé,8581,23,10.5860124,56.4167132
2109886,Lübker Allé,8581,24,10.5897234,56.4152968
2109897,Lübker Allé,8581,25,10.5858,56.4167938
2109898,Lübker Allé,8581,26,10.5894107,56.4151677
2109900,Lübker Allé,8581,27,10.5855908,56.4168531
2109905,Lübker Allé,8581,28,10.588871,56.415149
2109907,Lübker Allé,8581,29,10.5853631,56.416921
2109909,Lübker Allé,8581,30,10.5885682,56.4151156
2109919,Lübker Allé,8581,31,10.5851275,56.4169783
2109922,Lübker Allé,8581,32,10.5883908,56.4149747
2109924,Lübker Allé,8581,33,10.5848956,56.4170483
2109926,Lübker Allé,8581,34,10.5884004,56.4148075
2109931,Lübker Allé,8581,35,10.5847101,56.417171
2109934,Lübker Allé,8581,36,10.5886856,56.4146976
2109935,Lübker Allé,8581,37,10.5845163,56.4172789
2109942,Lübker Allé,8581,38,10.5889975,56.41472
2109945,Lübker Allé,8581,39A,10.5843344,56.4173572
2109947,Lübker Allé,8581,39B,10.5842431,56.41737
2109950,Lübker Allé,8581,39C,10.5841595,56.417385
2109952,Lübker Allé,8581,40,10.5891649,56.4148668
2109958,Lübker Allé,8581,41,10.5839812,56.4174738
2109959,Lübker Allé,8581,42,10.5899402,56.4150326
2109978,Lübker Allé,8581,43,10.5837798,56.4175394
2109982,Lübker Allé,8581,44,10.5900589,56.4149055
2109984,Lübker Allé,8581,45,10.5835211,56.4175709
2109989,Lübker Allé,8581,46,10.5896323,56.4148371
2109997,Lübker Allé,8581,47,10.5832701,56.4175776
2110004,Lübker Allé,8581,48A,10.5894031,56.4146437
2110011,Lübker Allé,8581,48B,10.589501,56.414616
2110035,Lübker Allé,8581,49,10.5830456,56.4175633
2110036,Lübker Allé,8581,50A,10.589715,56.41455
2110041,Lübker Allé,8581,50B,10.589806,56.414556
2110045,Lübker Allé,8581,51,10.5828406,56.4176732
2110052,Lübker Allé,8581,52,10.5900319,56.414701
2110058,Lübker Allé,8581,53,10.5827901,56.4174371
2110063,Lübker Allé,8581,54,10.5903435,56.4146256
2110081,Lübker Allé,8581,55,10.582466,56.417396
2110085,Lübker Allé,8581,56,10.5899263,56.4143882
2110093,Lübker Allé,8581,57A,10.5825629,56.4176463
2110098,Lübker Allé,8581,57B,10.582464,56.4176591
2110102,Lübker Allé,8581,57C,10.5823764,56.4176719
2110109,Lübker Allé,8581,58,10.5899772,56.4141981
2110116,Lübker Allé,8581,59,10.5821245,56.4175184
2110131,Lübker Allé,8581,60,10.590504,56.41448
2110137,Lübker Allé,8581,61,10.5817829,56.4176328
2110138,Lübker Allé,8581,62,10.5895556,56.4141267
2110141,Lübker Allé,8581,63,10.5818346,56.4174072
2110145,Lübker Allé,8581,64,10.5892589,56.4140897
2110152,Lübker Allé,8581,65,10.5814771,56.4173951
2110165,Lübker Allé,8581,66,10.5890766,56.4139546
2110172,Lübker Allé,8581,67,10.5815013,56.4176333
2110176,Lübker Allé,8581,68,10.5890599,56.4137761
2110181,Lübker Allé,8581,69,10.5812422,56.417562
2110185,Lübker Allé,8581,70,10.5894023,56.4136688
2110191,Lübker Allé,8581,71,10.5809599,56.417476
2110194,Lübker Allé,8581,72,10.589735,56.4136999
2110209,Lübker Allé,8581,73,10.580866,56.4176618
2110216,Lübker Allé,8581,74,10.589866,56.413875
2110223,Lübker Allé,8581,75,10.5805549,56.4178289
2110226,Lübker Allé,8581,76,10.5905856,56.4142661
2110232,Lübker Allé,8581,77,10.5806241,56.4179701
2110237,Lübker Allé,8581,78,10.590335,56.4140678
2110240,Lübker Allé,8581,79,10.5806971,56.4181049
2110254,Lübker Allé,8581,80,10.5907825,56.4141448
2110262,Lübker Allé,8581,81,10.5807663,56.4182369
2110268,Lübker Allé,8581,82,10.5908803,56.4140062
2110277,Lübker Allé,8581,83,10.5808394,56.4183843
2110285,Lübker Allé,8581,84,10.5909785,56.4138735
2110286,Lübker Allé,8581,85,10.5816576,56.4184188
2110291,Lübker Allé,8581,86,10.5903595,56.4137882
2110310,Lübker Allé,8581,87,10.5814247,56.4182526
2110315,Lübker Allé,8581,88,10.590541,56.41365
2110322,Lübker Allé,8581,89,10.5812489,56.418099
2110328,Lübker Allé,8581,90,10.5907011,56.4135139
2110334,Lübker Allé,8581,91,10.5811261,56.417941
2110337,Lübker Allé,8581,92,10.59118,56.4136
2110341,Lübker Allé,8581,93A,10.5816509,56.4178748
2110353,Lübker Allé,8581,93B,10.581686,56.41793
2110359,Lübker Allé,8581,93C,10.5817124,56.4179822
2110363,Lübker Allé,8581,94,10.591264,56.4137837
2110368,Lübker Allé,8581,95,10.5819267,56.4181886
2110372,Lübker Allé,8581,96,10.5914966,56.4135586
2110377,Lübker Allé,8581,97,10.582024,56.4179226
2110381,Lübker Allé,8581,98,10.5909759,56.4133981
2110394,Lübker Allé,8581,99,10.5823821,56.4179811
2110398,Lübker Allé,8581,100,10.591235,56.4132363
2110404,Lübker Allé,8581,101,10.5824213,56.4181919
2110408,Lübker Allé,8581,102,10.5916824,56.4133076
2110413,Lübker Allé,8581,103,10.5827711,56.4181639
2110416,Lübker Allé,8581,104,10.5917976,56.4134888
2110426,Lübker Allé,8581,105,10.5827281,56.4179319
2110430,Lübker Allé,8581,106,10.592158,56.413351
2110433,Lübker Allé,8581,107,10.5830764,56.4181474
2110436,Lübker Allé,8581,108,10.591611,56.4131273
2110441,Lübker Allé,8581,109,10.5831109,56.4178942
2110444,Lübker Allé,8581,110,10.5918443,56.4130231
2110446,Lübker Allé,8581,111,10.5834598,56.4181565
2110457,Lübker Allé,8581,113,10.5835798,56.4178294
2110460,Lübker Allé,8581,114,10.592287,56.4131723
2110463,Lübker Allé,8581,115,10.5838022,56.4181517
2110468,Lübker Allé,8581,116,10.5925677,56.4131689
2110471,Lübker Allé,8581,117,10.5842281,56.4181088
2110474,Lübker Allé,8581,118,10.5926657,56.4130044
2110478,Lübker Allé,8581,119,10.5839375,56.4178457
2110493,Lübker Allé,8581,120,10.5931802,56.4129978
2110500,Lübker Allé,8581,121,10.5860629,56.4172252
2110503,Lübker Allé,8581,122,10.5936264,56.412873
2110506,Lübker Allé,8581,123,10.586162,56.4179273
2110511,Lübker Allé,8581,124,10.594151,56.4127886
2110515,Lübker Allé,8581,125,10.5882774,56.4179068
2110518,Lübker Allé,8581,126,10.5940872,56.4125841
2110531,Lübker Allé,8581,127A,10.5880796,56.4179451
2110536,Lübker Allé,8581,127B,10.5879847,56.4179579
2110538,Lübker Allé,8581,127C,10.5878934,56.4179707
2110541,Lübker Allé,8581,128,10.5940499,56.4123987
2110548,Lübker Allé,8581,129,10.5876956,56.4179837
2110551,Lübker Allé,8581,130,10.5936613,56.4126212
2110555,Lübker Allé,8581,131,10.5874637,56.4180073
2110563,Lübker Allé,8581,132,10.5936031,56.4124081
2110567,Lübker Allé,8581,133A,10.5870436,56.4174084
2110571,Lübker Allé,8581,138,10.5936308,56.4118347
2110578,Lübker Allé,8581,140,10.59408,56.41222
2110581,Lübker Allé,8581,142,10.5940169,56.41205
2110584,Lübker Allé,8581,144,10.5939948,56.411857
2110591,Lübker Allé,8581,146,10.5938902,56.411716
2110593,Lübker Allé,8581,148,10.5935624,56.4116762
2110597,Lübker Allé,8581,150,10.59324,56.41166
2110599,Lübker Allé,8581,152,10.5929386,56.4116456
2110601,Lübker Allé,8581,154,10.5925226,56.411655
2110604,Lübker Allé,8581,156,10.5926533,56.4117787
2110606,Lübker Allé,8581,158,10.5929185,56.4118214
2110612,Lübker Allé,8581,160,10.5930501,56.412069
2110615,Lübker Allé,8581,162,10.5927122,56.4120466
2110617,Lübker Allé,8581,164,10.5924414,56.4119578
2110620,Lübker Allé,8581,168,10.5918743,56.4118636
2110623,Lübker Allé,8581,170,10.5921432,56.4116298
2110624,Lübker Allé,8581,172,10.5918158,56.4116303
2110626,Lübker Allé,8581,174,10.591542,56.4119477
2110629,Lübker Allé,8581,176,10.591168,56.411995
2110631,Lübker Allé,8581,178,10.591193,56.411776
2110633,Lübker Allé,8581,180,10.5915402,56.4116019
2110635,Lübker Allé,8581,182,10.5912385,56.4115823
2110636,Lübker Allé,8581,184,10.5908218,56.4119254
2110637,Lübker Allé,8581,186,10.5906809,56.4117758
2110640,Lübker Allé,8581,188,10.5909292,56.4115737
2110642,Lübker Allé,8581,190,10.5905341,56.4115629
2110643,Lübker Allé,8581,192,10.5902041,56.4117146
2110644,Lübker Allé,8581,194,10.5902476,56.4119254
2110646,Lübker Allé,8581,196,10.589841,56.4119876
2110648,Lübker Allé,8581,198,10.5895765,56.411909
2110649,Lübker Allé,8581,200,10.5895222,56.4116689
2110650,Lübker Allé,8581,202,10.5897489,56.4115807
2110651,Lübker Allé,8581,204,10.5931471,56.4133924
2110652,Lübker Allé,8581,222,10.592397,56.4135625
2110653,Lübker Allé,8581,224,10.5920368,56.4137502
2110654,Lübker Allé,8581,230,10.5916859,56.4139352
2110655,Lübker Allé,8581,232,10.591435,56.4141413
2110656,Lübker Allé,8581,238,10.5918979,56.4144197
2110657,Lübker Allé,8581,242,10.591661,56.414584
2110658,Lübker Allé,8581,246,10.5910898,56.4144316
2110660,Lübker Allé,8581,248,10.5909055,56.4145928
2110663,Lübker Allé,8581,250,10.5913724,56.4147764
2110664,Lübker Allé,8581,256,10.5909266,56.4149706
2110666,Lübker Allé,8581,272,10.5911195,56.4154683
2119001,Trent Jones Allé,8581,2,10.5824132,56.4247088
2119003,Trent Jones Allé,8581,3,10.5820481,56.4244312
2119006,Trent Jones Allé,8581,3A,10.5823037,56.4242942
2119009,Trent Jones Allé,8581,3B,10.5824937,56.424292
2119012,Trent Jones Allé,8581,3C,10.5827735,56.4242823
2119016,Trent Jones Allé,8581,3D,10.5829531,56.4242783
2119020,Trent Jones Allé,8581,3E,10.5831497,56.4242724
2119030,Trent Jones Allé,8581,3F,10.5833294,56.4242684
2119032,Trent Jones Allé,8581,3G,10.5817011,56.4243099
2119034,Trent Jones Allé,8581,3H,10.5814981,56.424314
2119036,Trent Jones Allé,8581,3I,10.5813114,56.424318
2119037,Trent Jones Allé,8581,5A,10.5787969,56.4226109
2119040,Trent Jones Allé,8581,5B,10.5790107,56.4225202
2119042,Trent Jones Allé,8581,6,10.5789118,56.4238779
2119048,Trent Jones Allé,8581,7,10.5792073,56.4224249
2119051,Trent Jones Allé,8581,9,10.5794127,56.4223153
2119052,Trent Jones Allé,8581,11,10.579549,56.4221487
2119054,Trent Jones Allé,8581,13,10.5794708,56.4219682
2119056,Trent Jones Allé,8581,15,10.5791877,56.4219354
2119057,Trent Jones Allé,8581,17,10.5789308,56.4219929
2119058,Trent Jones Allé,8581,19,10.578598,56.4223308
2119062,Trent Jones Allé,8581,21,10.578439,56.422207
2119065,Trent Jones Allé,8581,23,10.5781595,56.4220987
2119066,Trent Jones Allé,8581,25,10.577927,56.421995
2119069,Trent Jones Allé,8581,27,10.5777382,56.421857
2119071,Trent Jones Allé,8581,31,10.5786715,56.4216226
2119076,Trent Jones Allé,8581,33,10.5786962,56.4214373
2119079,Trent Jones Allé,8581,35,10.5784556,56.4213188
2119094,Trent Jones Allé,8581,37,10.5781894,56.4212527
2119101,Trent Jones Allé,8581,41,10.5774885,56.421672
2119103,Trent Jones Allé,8581,43,10.5774019,56.4215106
2119106,Trent Jones Allé,8581,45,10.577247,56.4213874
2119111,Trent Jones Allé,8581,47,10.5770406,56.4212736
2119114,Trent Jones Allé,8581,49,10.5767486,56.4212075
2119118,Trent Jones Allé,8581,53,10.5775016,56.4209117
2119126,Trent Jones Allé,8581,55,10.5774834,56.4207359
2119129,Trent Jones Allé,8581,57,10.5772511,56.4205984
2119131,Trent Jones Allé,8581,59,10.5769423,56.4205562
2119133,Trent Jones Allé,8581,63,10.5764991,56.4210478
2119137,Trent Jones Allé,8581,65,10.5762668,56.4208913
2119140,Trent Jones Allé,8581,67,10.5759231,56.4207826
2119141,Trent Jones Allé,8581,69,10.575564,56.420687
2119148,Trent Jones Allé,8581,71,10.5752361,56.4205699
2119150,Trent Jones Allé,8581,75,10.576263,56.420254
2119152,Trent Jones Allé,8581,77,10.5762967,56.4200692
2119154,Trent Jones Allé,8581,79,10.5759705,56.4199889
2119155,Trent Jones Allé,8581,81,10.5756361,56.4199895
2119156,Trent Jones Allé,8581,83,10.5754136,56.4200659
2119158,Trent Jones Allé,8581,85,10.5751564,56.4201281
2119159,Trent Jones Allé,8581,87,10.574856,56.420129
2119162,Trent Jones Allé,8581,89,10.5745732,56.4200529
2119164,Trent Jones Allé,8581,91,10.5744182,56.4199106
2119165,Trent Jones Allé,8581,93,10.5742546,56.4197682
2119167,Trent Jones Allé,8581,95,10.5739027,56.4197356
2119171,Trent Jones Allé,8581,97,10.5736762,56.4198737
2119174,Trent Jones Allé,8581,99,10.5734883,56.4200023
2119175,Trent Jones Allé,8581,101,10.5731539,56.4200266
2119179,Trent Jones Allé,8581,103,10.572914,56.4200366
2119182,Trent Jones Allé,8581,105,10.5726737,56.4200274
2119186,Trent Jones Allé,8581,107,10.5724251,56.4200183
2119188,Trent Jones Allé,8581,111,10.5725255,56.4195524
2119191,Trent Jones Allé,8581,113,10.5722079,56.4194816
2119194,Trent Jones Allé,8581,115,10.5719254,56.4195296
2119203,Trent Jones Allé,8581,119,10.5718504,56.4199669
2119208,Trent Jones Allé,8581,121,10.5715418,56.4200007
2119213,Trent Jones Allé,8581,123,10.5712421,56.4200819
2119219,Trent Jones Allé,8581,125,10.5698914,56.4200289
2119221,Trent Jones Allé,8581,127,10.5696424,56.4199438
2119224,Trent Jones Allé,8581,129,10.5694017,56.4198538
2119229,Trent Jones Allé,8581,131,10.5691956,56.4197544
2119244,Trent Jones Allé,8581,133,10.5689976,56.4196311
2119249,Trent Jones Allé,8581,135,10.5704094,56.4190301
2119253,Trent Jones Allé,8581,137,10.5701091,56.4190021
2119258,Trent Jones Allé,8581,139,10.569783,56.419003
2119262,Trent Jones Allé,8581,143,10.5686876,56.4193275
2119264,Trent Jones Allé,8581,145,10.5686952,56.4191516
2119269,Trent Jones Allé,8581,147,10.5688057,56.4189755
2119282,Trent Jones Allé,8581,149,10.5688735,56.4187996
2119284,Trent Jones Allé,8581,151,10.5688896,56.4186238
2119287,Trent Jones Allé,8581,153,10.5689661,56.4184526
2119292,Trent Jones Allé,8581,155,10.5689134,56.4182769
2119294,Trent Jones Allé,8581,157,10.5688871,56.4181058
2119297,Trent Jones Allé,8581,159,10.5698922,56.4184987
2119300,Trent Jones Allé,8581,161,10.570063,56.4183559
2119315,Trent Jones Allé,8581,163,10.570225,56.418204
2119316,Trent Jones Allé,8581,165,10.5701128,56.4180374
2119318,Trent Jones Allé,8581,167,10.5698633,56.4178809
2119323,Trent Jones Allé,8581,169,10.5695373,56.4178102
2119327,Trent Jones Allé,8581,171,10.5691767,56.4177489
2119332,Trent Jones Allé,8581,173,10.568825,56.4176972
2191635,Trent Jones Allé,8581,1A,10.582286,56.430319
2191636,Trent Jones Allé,8581,1B,10.582551,56.430327
2191637,Trent Jones Allé,8581,1C,10.582764,56.430368
2191638,Trent Jones Allé,8581,1D,10.582852,56.430497
2191639,Trent Jones Allé,8581,1E,10.582887,56.430611
2191640,Trent Jones Allé,8581,1F,10.582925,56.430718
2191658,Frederikslundvej,8581,12,10.556014,56.402084
2228067,Sønderskovvej,8581,2A,10.579342,56.407139
2228068,Dyrhøjvej,8581,15,10.649205,56.407198
2230212,Kolstrupvej,8581,6C,10.568631,56.428742
2230213,Vinkelvej,8581,2A,10.566078,56.408357
2242995,Sjørupgårdvej,8581,4B,10.612097,56.404762
2252523,Golf Svinget,8581,8,10.591514,56.417296
2252524,Golf Svinget,8581,94,10.593348,56.415718
2252546,Lübker Allé,8581,236,10.592112,56.414285
2252591,Svenstrupvej,8581,1A,10.561173,56.407488
