idx,street,postcode,housenumber,lon,lat
1626514,Holmgårdevej,8632,2,9.490337,56.244867
1626515,Holmgårdevej,8632,3,9.489903,56.244666
1626516,Holmgårdevej,8632,4,9.490286,56.245135
1626517,Holmgårdevej,8632,5A,9.489793,56.245314
1626518,Holmgårdevej,8632,5B,9.48994,56.245673
1626519,Holmgårdevej,8632,5C,9.490329,56.246086
1626520,Holmgårdevej,8632,6,9.490823,56.24613
1626521,Holmgårdevej,8632,7,9.49021,56.246233
1626522,Holmgårdevej,8632,8,9.49084,56.246699
1626523,Holmgårdevej,8632,9,9.490565,56.246593
1626524,Holmgårdevej,8632,10,9.495807,56.250711
1626525,Holmgårdevej,8632,11,9.498349,56.252355
1626526,Holmgårdevej,8632,12,9.498973,56.251786
1626527,Holmgårdevej,8632,13,9.502777,56.25332
1626528,Holmgårdevej,8632,14,9.501377,56.252739
1626529,Holmgårdevej,8632,15,9.534563,56.261072
1626530,Holmgårdevej,8632,16,9.508199,56.251155
1626531,Holmgårdevej,8632,17,9.538114,56.260923
1626532,Holmgårdevej,8632,18,9.522896,56.253875
1626533,Holmgårdevej,8632,20,9.528084,56.254542
1626534,Holmgårdevej,8632,20B,9.528596,56.253792
1626535,Holmgårdevej,8632,22,9.53259,56.255152
1626536,Holmgårdevej,8632,22B,9.530316,56.258948
1626537,Holmgårdevej,8632,24,9.533217,56.259416
1626538,Holmgårdevej,8632,26,9.53865,56.256463
1626539,Holmgårdevej,8632,28,9.539573,56.254402
1626540,Holmgårdevej,8632,30,9.541874,56.256909
1627385,Holmmøllevej,8632,1,9.54808,56.241254
1627391,Holmmøllevej,8632,3,9.548166,56.241378
1627393,Holmmøllevej,8632,4,9.548712,56.24166
1627399,Holmmøllevej,8632,5,9.548256,56.241493
1627400,Holmmøllevej,8632,6,9.54895,56.24178
1627404,Holmmøllevej,8632,7,9.548184,56.242016
1627408,Holmmøllevej,8632,8,9.549103,56.241851
1627411,Holmmøllevej,8632,9,9.548519,56.241747
1627417,Holmmøllevej,8632,11,9.54874,56.241882
1627420,Holmmøllevej,8632,12,9.54974,56.241997
1627424,Holmmøllevej,8632,13,9.549137,56.24205
1627425,Holmmøllevej,8632,14A,9.550076,56.242137
1627429,Holmmøllevej,8632,14B,9.550769,56.241407
1627430,Holmmøllevej,8632,15,9.549555,56.242215
1627432,Holmmøllevej,8632,16,9.550772,56.241719
1627434,Holmmøllevej,8632,17,9.549914,56.2426
1627436,Holmmøllevej,8632,18,9.550485,56.242094
1627438,Holmmøllevej,8632,19A,9.549011,56.244734
1627440,Holmmøllevej,8632,19B,9.548768,56.244229
1627443,Holmmøllevej,8632,20,9.550439,56.24239
1627445,Holmmøllevej,8632,21,9.549436,56.245802
1627446,Holmmøllevej,8632,22,9.55043,56.242809
1627448,Holmmøllevej,8632,23,9.550599,56.245462
1627450,Holmmøllevej,8632,24,9.550523,56.243115
1627453,Holmmøllevej,8632,25,9.550614,56.25086
1627454,Holmmøllevej,8632,26,9.554172,56.243551
1627458,Holmmøllevej,8632,27,9.549258,56.253327
1627459,Holmmøllevej,8632,28,9.551696,56.243685
1627463,Holmmøllevej,8632,29,9.548211,56.255821
1627464,Holmmøllevej,8632,30,9.553028,56.251165
1627467,Holmmøllevej,8632,31,9.546449,56.254261
1627468,Holmmøllevej,8632,32,9.551155,56.251383
1627471,Holmmøllevej,8632,33,9.545685,56.257669
1627475,Holmmøllevej,8632,34,9.55101,56.254938
1627477,Holmmøllevej,8632,35,9.545006,56.260398
1627482,Holmmøllevej,8632,36,9.548584,56.255837
1627485,Holmmøllevej,8632,37,9.541311,56.261258
1627489,Holmmøllevej,8632,38,9.548047,56.256425
1627491,Holmmøllevej,8632,39,9.544978,56.261775
1627494,Holmmøllevej,8632,40,9.555592,56.256402
1627497,Holmmøllevej,8632,41,9.548569,56.262711
1627501,Holmmøllevej,8632,42,9.561137,56.255893
1627503,Holmmøllevej,8632,43,9.548949,56.262972
1627507,Holmmøllevej,8632,44,9.564611,56.257714
1627510,Holmmøllevej,8632,46,9.565712,56.258418
1627513,Holmmøllevej,8632,48,9.565961,56.258123
1627517,Holmmøllevej,8632,50,9.568128,56.257991
1627518,Holmmøllevej,8632,52,9.571852,56.259806
1627521,Holmmøllevej,8632,56,9.572267,56.260193
1627522,Holmmøllevej,8632,62,9.564929,56.260726
1627524,Holmmøllevej,8632,66,9.564877,56.259591
1627525,Holmmøllevej,8632,68,9.561302,56.259254
1627528,Holmmøllevej,8632,70,9.560557,56.259195
1627530,Holmmøllevej,8632,72,9.559373,56.259116
1627533,Holmmøllevej,8632,74,9.558702,56.259046
1627534,Holmmøllevej,8632,76,9.557882,56.260147
1627537,Holmmøllevej,8632,78,9.557793,56.258962
1627539,Holmmøllevej,8632,82,9.545895,56.257914
1633450,Hingevej,8632,1,9.528885,56.263094
1633453,Hingevej,8632,3,9.528408,56.263346
1633454,Hingevej,8632,5,9.528451,56.264417
1634082,Serup Tinghøjvej,8632,1,9.489138,56.244788
1634083,Serup Tinghøjvej,8632,2,9.48956,56.244273
1634084,Serup Tinghøjvej,8632,3,9.489777,56.244466
1634085,Serup Tinghøjvej,8632,4,9.490059,56.244224
1634087,Serup Tinghøjvej,8632,5,9.490337,56.244549
1634089,Serup Tinghøjvej,8632,6,9.490185,56.2443
1634091,Serup Tinghøjvej,8632,7,9.490735,56.244538
1634093,Serup Tinghøjvej,8632,8,9.490544,56.24434
1634095,Serup Tinghøjvej,8632,9,9.491301,56.244986
1634098,Serup Tinghøjvej,8632,10,9.490771,56.244342
1634100,Serup Tinghøjvej,8632,11,9.492766,56.244516
1634101,Serup Tinghøjvej,8632,12,9.490951,56.244354
1634104,Serup Tinghøjvej,8632,13,9.494475,56.245962
1634105,Serup Tinghøjvej,8632,14,9.491259,56.244359
1634108,Serup Tinghøjvej,8632,16,9.4919,56.244147
1634110,Serup Tinghøjvej,8632,16B,9.491545,56.243904
1634112,Serup Tinghøjvej,8632,17,9.494198,56.244529
1634114,Serup Tinghøjvej,8632,18,9.493311,56.242806
1634116,Serup Tinghøjvej,8632,19,9.493615,56.244365
1634119,Serup Tinghøjvej,8632,20,9.508677,56.241428
1634121,Serup Tinghøjvej,8632,21,9.494112,56.24438
1634123,Serup Tinghøjvej,8632,22,9.511453,56.242244
1634125,Serup Tinghøjvej,8632,23,9.494404,56.244262
1634127,Serup Tinghøjvej,8632,24,9.516572,56.245505
1634130,Serup Tinghøjvej,8632,25,9.494588,56.244564
1634132,Serup Tinghøjvej,8632,26,9.518372,56.246014
1634133,Serup Tinghøjvej,8632,27,9.496797,56.245964
1634134,Serup Tinghøjvej,8632,29,9.503117,56.245735
1634135,Serup Tinghøjvej,8632,30,9.522,56.245253
1634136,Serup Tinghøjvej,8632,31,9.50586,56.244431
1634137,Serup Tinghøjvej,8632,33,9.507531,56.245265
1634138,Serup Tinghøjvej,8632,35,9.512029,56.246001
1634139,Serup Tinghøjvej,8632,37,9.511121,56.247903
1634140,Serup Tinghøjvej,8632,39,9.516232,56.248034
1634141,Serup Tinghøjvej,8632,41,9.516182,56.249518
1634142,Serup Tinghøjvej,8632,43,9.514576,56.252582
1634144,Serup Tinghøjvej,8632,45,9.51852,56.24631
1634147,Serup Tinghøjvej,8632,47,9.520681,56.245862
1634149,Serup Tinghøjvej,8632,49,9.525662,56.248945
1634153,Serup Tinghøjvej,8632,51,9.526766,56.247119
1634155,Serup Tinghøjvej,8632,53,9.525108,56.24585
1891773,Ørevadbrovej,8632,18,9.496629,56.232885
1891778,Ørevadbrovej,8632,20,9.492964,56.236856
1891783,Ørevadbrovej,8632,22,9.492827,56.237785
1891786,Ørevadbrovej,8632,24,9.499421,56.237916
1891790,Ørevadbrovej,8632,26,9.501822,56.237111
1891791,Ørevadbrovej,8632,28,9.491197,56.238794
1891793,Ørevadbrovej,8632,29,9.502573,56.229789
1891795,Ørevadbrovej,8632,30,9.489972,56.239649
1891797,Ørevadbrovej,8632,31,9.500621,56.230567
1891799,Ørevadbrovej,8632,32,9.489947,56.240582
1891800,Ørevadbrovej,8632,34,9.489942,56.240733
1891801,Ørevadbrovej,8632,35,9.493901,56.232738
1891802,Ørevadbrovej,8632,36,9.489986,56.240954
1891803,Ørevadbrovej,8632,36A,9.49007,56.241465
1891804,Ørevadbrovej,8632,37,9.493451,56.235589
1891805,Ørevadbrovej,8632,38,9.490059,56.24199
1891806,Ørevadbrovej,8632,39,9.488262,56.236805
1891807,Ørevadbrovej,8632,40,9.490061,56.242313
1891808,Ørevadbrovej,8632,41,9.489077,56.241619
1891809,Ørevadbrovej,8632,42,9.489922,56.242526
1891810,Ørevadbrovej,8632,43,9.489633,56.241795
1891812,Ørevadbrovej,8632,44,9.489892,56.242685
1891813,Ørevadbrovej,8632,45,9.489633,56.24201
1891816,Ørevadbrovej,8632,46,9.489852,56.242836
1891818,Ørevadbrovej,8632,47,9.489492,56.242248
1891820,Ørevadbrovej,8632,47A,9.4894925,56.2422483
1891823,Ørevadbrovej,8632,47B,9.489322,56.242354
1891824,Ørevadbrovej,8632,48,9.490284,56.243068
1891829,Ørevadbrovej,8632,49,9.489621,56.242463
1891830,Ørevadbrovej,8632,50,9.489605,56.243449
1891833,Ørevadbrovej,8632,51,9.489616,56.242619
1891834,Ørevadbrovej,8632,52,9.489315,56.24363
1891836,Ørevadbrovej,8632,53,9.489554,56.242756
1891840,Ørevadbrovej,8632,55,9.489526,56.242856
1891842,Ørevadbrovej,8632,56,9.489889,56.243548
1891848,Ørevadbrovej,8632,57,9.489393,56.243063
1891851,Ørevadbrovej,8632,58,9.49148,56.2436
1891853,Ørevadbrovej,8632,59,9.489326,56.243241
1891861,Ørevadbrovej,8632,60,9.491148,56.24369
1891864,Ørevadbrovej,8632,62,9.490817,56.243744
1891867,Ørevadbrovej,8632,64,9.490455,56.243784
1891875,Ørevadbrovej,8632,65,9.489133,56.243509
1891876,Ørevadbrovej,8632,66,9.490198,56.243779
1891882,Ørevadbrovej,8632,67,9.489043,56.243683
1891883,Ørevadbrovej,8632,68,9.48992,56.243861
1891889,Ørevadbrovej,8632,69,9.489046,56.243758
1891891,Ørevadbrovej,8632,70A,9.489389,56.243764
1891894,Ørevadbrovej,8632,70B,9.48927,56.243808
1891899,Ørevadbrovej,8632,70C,9.489265,56.243865
1891900,Ørevadbrovej,8632,72,9.489235,56.243987
1891904,Ørevadbrovej,8632,74,9.489225,56.244069
1927900,Lemming Bygade,8632,1,9.546395,56.236212
1927901,Lemming Bygade,8632,1B,9.545899,56.236698
1927902,Lemming Bygade,8632,2A,9.547864,56.237574
1927903,Lemming Bygade,8632,4,9.546561,56.237158
1927904,Lemming Bygade,8632,6,9.546643,56.237589
1927905,Lemming Bygade,8632,8A,9.546633,56.238044
1927906,Lemming Bygade,8632,8B,9.547269,56.238162
1927907,Lemming Bygade,8632,8C,9.546895,56.238277
1927908,Lemming Bygade,8632,10,9.546801,56.23844
1927909,Lemming Bygade,8632,12,9.546796,56.238601
1927910,Lemming Bygade,8632,14,9.546716,56.238735
1927911,Lemming Bygade,8632,16,9.546787,56.23885
1927912,Lemming Bygade,8632,18,9.546711,56.239176
1927913,Lemming Bygade,8632,20,9.546907,56.239353
1927914,Lemming Bygade,8632,22,9.547206,56.239261
1927915,Lemming Bygade,8632,24,9.546919,56.239642
1927916,Lemming Bygade,8632,25,9.5461,56.237312
1927917,Lemming Bygade,8632,26,9.54729,56.239525
1927918,Lemming Bygade,8632,27,9.546007,56.237549
1927919,Lemming Bygade,8632,28B,9.547037,56.239936
1927920,Lemming Bygade,8632,28C,9.547262,56.239919
1927921,Lemming Bygade,8632,29,9.546239,56.237702
1927922,Lemming Bygade,8632,30,9.5474,56.240241
1927923,Lemming Bygade,8632,31,9.54617,56.237869
1927924,Lemming Bygade,8632,32,9.547826,56.240551
1927925,Lemming Bygade,8632,33,9.546202,56.238049
1927926,Lemming Bygade,8632,34,9.547948,56.24067
1927927,Lemming Bygade,8632,35,9.546258,56.23823
1927928,Lemming Bygade,8632,36,9.54805,56.240784
1927929,Lemming Bygade,8632,37,9.546308,56.238396
1927930,Lemming Bygade,8632,39,9.546325,56.238532
1927931,Lemming Bygade,8632,41,9.546344,56.238668
1927932,Lemming Bygade,8632,43,9.546374,56.238867
1927933,Lemming Bygade,8632,45,9.546396,56.239057
1927934,Lemming Bygade,8632,47,9.546419,56.239224
1927935,Lemming Bygade,8632,49,9.546498,56.23944
1927936,Lemming Bygade,8632,51,9.546562,56.239594
1927937,Lemming Bygade,8632,55,9.546777,56.240011
1927938,Lemming Bygade,8632,57,9.546901,56.240145
1927939,Lemming Bygade,8632,59,9.54718,56.240359
1927940,Lemming Bygade,8632,61,9.546678,56.240446
1927941,Lemming Bygade,8632,63,9.547454,56.240573
1927942,Lemming Bygade,8632,65,9.547657,56.240706
1927943,Lemming Bygade,8632,67,9.547917,56.240991
1927944,Lemming Bygade,8632,69A,9.546693,56.240972
1927945,Lemming Bygade,8632,69B,9.546966,56.24113
1927946,Lemming Bygade,8632,69C,9.546977,56.241197
1927947,Lemming Bygade,8632,69D,9.546987,56.241263
1927948,Lemming Bygade,8632,69E,9.546997,56.241329
1927949,Lemming Bygade,8632,69F,9.547007,56.241394
1927950,Lemming Bygade,8632,69G,9.546587,56.24118
1927951,Lemming Bygade,8632,69H,9.546582,56.241339
1927952,Lemming Bygade,8632,69K,9.546619,56.241638
1927953,Lemming Bygade,8632,69L,9.546611,56.241774
1927954,Lemming Bygade,8632,69M,9.546805,56.241412
1927955,Lemming Bygade,8632,71,9.54051,56.243714
1927956,Lemming Bygade,8632,73,9.544996,56.243008
1927957,Lemming Bygade,8632,75,9.541397,56.244962
1927958,Lemming Bygade,8632,77,9.541805,56.2475
1927959,Lemming Bygade,8632,79,9.54557,56.248383
1927960,Lemming Bygade,8632,83,9.547363,56.241447
1975242,Østerbyvej,8632,1,9.548446,56.241199
1975247,Østerbyvej,8632,2,9.548332,56.241045
1975248,Østerbyvej,8632,3,9.548934,56.24127
1975251,Østerbyvej,8632,4,9.549103,56.241133
1975253,Østerbyvej,8632,5,9.549187,56.241302
1975254,Østerbyvej,8632,6,9.549459,56.241166
1975258,Østerbyvej,8632,7,9.5496,56.241338
1975260,Østerbyvej,8632,8,9.549565,56.24082
1975262,Østerbyvej,8632,10,9.549927,56.241167
1975265,Østerbyvej,8632,11,9.550079,56.241504
1975266,Østerbyvej,8632,12,9.550121,56.241098
1975270,Østerbyvej,8632,13,9.550279,56.241711
1975271,Østerbyvej,8632,14,9.550391,56.240989
1975274,Østerbyvej,8632,15,9.550017,56.241292
1975275,Østerbyvej,8632,16,9.549737,56.240074
1975278,Østerbyvej,8632,17,9.550351,56.241188
1975279,Østerbyvej,8632,18,9.550266,56.238374
1975281,Østerbyvej,8632,19,9.550976,56.240977
1975282,Østerbyvej,8632,20,9.550487,56.239778
1975284,Østerbyvej,8632,21,9.551464,56.240867
1975286,Østerbyvej,8632,22,9.550989,56.239876
1975288,Østerbyvej,8632,23,9.551345,56.24108
1975289,Østerbyvej,8632,24,9.550615,56.240927
1975292,Østerbyvej,8632,24B,9.550906,56.240832
1975293,Østerbyvej,8632,26,9.55108,56.240721
1975295,Østerbyvej,8632,28,9.552129,56.24026
1975298,Østerbyvej,8632,29,9.554142,56.240205
1975300,Østerbyvej,8632,30,9.55776,56.239334
1975302,Østerbyvej,8632,31,9.55595,56.239824
1975304,Østerbyvej,8632,32,9.55894,56.240079
1975307,Østerbyvej,8632,33,9.559484,56.241361
1975311,Østerbyvej,8632,34A,9.560135,56.236409
1975313,Østerbyvej,8632,34B,9.559765,56.239043
1975318,Østerbyvej,8632,35,9.566125,56.242383
1975319,Østerbyvej,8632,36,9.55948,56.239435
1975324,Østerbyvej,8632,37,9.570272,56.243775
1975327,Østerbyvej,8632,38,9.560109,56.23983
1975330,Østerbyvej,8632,40,9.560204,56.240248
1975332,Østerbyvej,8632,42,9.570659,56.2425
1975333,Østerbyvej,8632,43,9.5944279,56.241921
1975335,Østerbyvej,8632,44,9.578858,56.243689
1975339,Østerbyvej,8632,45,9.598692,56.239552
1975340,Østerbyvej,8632,46,9.585699,56.242452
1975344,Østerbyvej,8632,48,9.594625,56.240303
1975347,Østerbyvej,8632,50,9.596113,56.238397
1975350,Østerbyvej,8632,52,9.5968,56.236795
1989926,Ebstrupvej,8632,19,9.556099,56.222628
1996719,Lemmingvej,8632,33,9.530688,56.229804
1996721,Lemmingvej,8632,35,9.529642,56.23202
1996723,Lemmingvej,8632,37,9.528314,56.232961
1996724,Lemmingvej,8632,37B,9.521991,56.23275
1996725,Lemmingvej,8632,38,9.532086,56.23005
1996726,Lemmingvej,8632,39,9.545084,56.235327
1996727,Lemmingvej,8632,42,9.546756,56.235239
1998965,Nisset Bygade,8632,1,9.56423,56.222861
1998966,Nisset Bygade,8632,3,9.564002,56.223092
1998967,Nisset Bygade,8632,4,9.564477,56.222678
1998968,Nisset Bygade,8632,5,9.563838,56.2229
1998969,Nisset Bygade,8632,6,9.564564,56.222899
1998970,Nisset Bygade,8632,7,9.563669,56.223139
1998971,Nisset Bygade,8632,7B,9.563081,56.223181
1998972,Nisset Bygade,8632,7C,9.563139,56.223448
1998973,Nisset Bygade,8632,8,9.564564,56.223182
1998974,Nisset Bygade,8632,9,9.563651,56.223493
1998975,Nisset Bygade,8632,10,9.564569,56.223381
1998976,Nisset Bygade,8632,11,9.564052,56.223415
1998977,Nisset Bygade,8632,12,9.56458,56.223683
1998978,Nisset Bygade,8632,13,9.564247,56.223638
1998979,Nisset Bygade,8632,14,9.564546,56.22397
1998980,Nisset Bygade,8632,15,9.564255,56.223859
1998981,Nisset Bygade,8632,16,9.564547,56.224155
1998982,Nisset Bygade,8632,17,9.564287,56.224164
1998983,Nisset Bygade,8632,18,9.564776,56.224419
1998984,Nisset Bygade,8632,19,9.564031,56.224293
1998985,Nisset Bygade,8632,20,9.567728,56.226016
1998986,Nisset Bygade,8632,21,9.564249,56.224655
1998987,Nisset Bygade,8632,22,9.5640622,56.2255427
1998988,Nisset Bygade,8632,23,9.563841,56.224757
1998989,Nisset Bygade,8632,24,9.563285,56.225174
1998990,Nisset Bygade,8632,25,9.563345,56.224858
1998991,Nisset Bygade,8632,26,9.562513,56.225135
1998992,Nisset Bygade,8632,27,9.562482,56.224928
1998993,Nisset Bygade,8632,28,9.562487,56.225367
1998994,Nisset Bygade,8632,29,9.562138,56.224973
1998995,Nisset Bygade,8632,30,9.562556,56.225558
1998996,Nisset Bygade,8632,31,9.562165,56.225145
1998997,Nisset Bygade,8632,32,9.563056,56.225548
1998998,Nisset Bygade,8632,33,9.562098,56.225388
1998999,Nisset Bygade,8632,34,9.563464,56.225562
1999000,Nisset Bygade,8632,35,9.562033,56.225648
1999001,Nisset Bygade,8632,36,9.563576,56.225712
1999002,Nisset Bygade,8632,37,9.562022,56.225884
1999003,Nisset Bygade,8632,38,9.563153,56.22579
1999004,Nisset Bygade,8632,39,9.56196,56.226127
1999005,Nisset Bygade,8632,40,9.562696,56.225827
1999006,Nisset Bygade,8632,41,9.561827,56.226376
1999007,Nisset Bygade,8632,42,9.562475,56.226003
1999008,Nisset Bygade,8632,44,9.562339,56.226189
2032954,Serupvej,8632,3,9.478666,56.241299
2032973,Serupvej,8632,5,9.482578,56.242389
2032975,Serupvej,8632,6,9.484919,56.242371
2032976,Serupvej,8632,7,9.482912,56.242715
2032977,Serupvej,8632,9,9.4828,56.242972
2032978,Serupvej,8632,10,9.485168,56.242542
2032979,Serupvej,8632,11,9.483286,56.243027
2032980,Serupvej,8632,12,9.485069,56.242717
2032981,Serupvej,8632,13,9.483254,56.242813
2032982,Serupvej,8632,14,9.485405,56.242945
2032983,Serupvej,8632,15,9.483587,56.242723
2032984,Serupvej,8632,16,9.485788,56.243163
2032985,Serupvej,8632,17,9.485531,56.243609
2032986,Serupvej,8632,18,9.486255,56.243755
2032987,Serupvej,8632,19,9.486171,56.243961
2032988,Serupvej,8632,20,9.486452,56.243817
2032989,Serupvej,8632,21,9.486913,56.243997
2032990,Serupvej,8632,22,9.48666,56.243826
2032991,Serupvej,8632,24A,9.487025,56.243856
2032992,Serupvej,8632,24B,9.487185,56.243868
2032993,Serupvej,8632,24C,9.487278,56.243758
2032994,Serupvej,8632,25,9.487944,56.244301
2032995,Serupvej,8632,26,9.487631,56.243932
2032996,Serupvej,8632,27,9.48821,56.244243
2032997,Serupvej,8632,28,9.487901,56.24395
2032998,Serupvej,8632,30,9.488087,56.24396
2032999,Serupvej,8632,32,9.488358,56.243928
2033000,Serupvej,8632,34,9.488539,56.243903
2033001,Serupvej,8632,36,9.488786,56.243893
2033002,Serupvej,8632,38,9.488997,56.243882
2040299,Lemming Brovej,8632,2,9.546667,56.239826
2040300,Lemming Brovej,8632,3,9.546213,56.239662
2040301,Lemming Brovej,8632,4,9.546031,56.239916
2040302,Lemming Brovej,8632,6,9.545697,56.240004
2040303,Lemming Brovej,8632,7,9.545537,56.2398
2040304,Lemming Brovej,8632,8,9.545573,56.240393
2040305,Lemming Brovej,8632,9,9.545175,56.240003
2040306,Lemming Brovej,8632,11,9.544988,56.240092
2040307,Lemming Brovej,8632,12,9.544735,56.240359
2040308,Lemming Brovej,8632,13A,9.544607,56.240139
2040309,Lemming Brovej,8632,13B,9.544276,56.240276
2040310,Lemming Brovej,8632,13C,9.544116,56.240319
2040311,Lemming Brovej,8632,13D,9.543856,56.240414
2040312,Lemming Brovej,8632,13E,9.543696,56.24046
2040313,Lemming Brovej,8632,13F,9.543437,56.240554
2040314,Lemming Brovej,8632,13G,9.54329,56.240596
2040315,Lemming Brovej,8632,14,9.544509,56.240436
2040316,Lemming Brovej,8632,15,9.542828,56.240686
2040317,Lemming Brovej,8632,15B,9.543439,56.239911
2040318,Lemming Brovej,8632,16,9.543648,56.240708
2040319,Lemming Brovej,8632,17,9.537513,56.241843
2040320,Lemming Brovej,8632,18,9.542216,56.241328
2040321,Lemming Brovej,8632,19,9.531179,56.244586
2040322,Lemming Brovej,8632,19B,9.531196,56.24479
2040323,Lemming Brovej,8632,20,9.537001,56.242653
2040324,Lemming Brovej,8632,22,9.531484,56.245431
2040325,Lemming Brovej,8632,24A,9.530877,56.245423
2040326,Lemming Brovej,8632,24B,9.530969,56.245656
2040327,Lemming Brovej,8632,25,9.529092,56.243965
2040328,Lemming Brovej,8632,26,9.526182,56.244246
2040329,Lemming Brovej,8632,27,9.528104,56.244189
2041091,Lemming Vesterbyvej,8632,2,9.545951,56.236999
2041092,Lemming Vesterbyvej,8632,3,9.537173,56.236764
2041093,Lemming Vesterbyvej,8632,4,9.545366,56.237017
2041094,Lemming Vesterbyvej,8632,5,9.537428,56.237923
2041095,Lemming Vesterbyvej,8632,6,9.545324,56.237384
2041096,Lemming Vesterbyvej,8632,7,9.5345162,56.2405325
2041097,Lemming Vesterbyvej,8632,8,9.545504,56.237804
2041098,Lemming Vesterbyvej,8632,10,9.545638,56.238061
2041099,Lemming Vesterbyvej,8632,12,9.545511,56.238337
2041100,Lemming Vesterbyvej,8632,14,9.545399,56.238481
2041102,Lemming Vesterbyvej,8632,16,9.545365,56.238677
2041104,Lemming Vesterbyvej,8632,18,9.5454544,56.2389149
2041105,Lemming Vesterbyvej,8632,20,9.545627,56.239149
2041107,Lemming Vesterbyvej,8632,22,9.5448196,56.2390672
2041109,Lemming Vesterbyvej,8632,24,9.544519,56.238837
2041111,Lemming Vesterbyvej,8632,26,9.544537,56.23845
2041113,Lemming Vesterbyvej,8632,28,9.54459,56.238049
2041114,Lemming Vesterbyvej,8632,30,9.545122,56.2378238
2041115,Lemming Vesterbyvej,8632,32,9.544965,56.237435
2041116,Lemming Vesterbyvej,8632,34,9.5449247,56.2371059
2041117,Lemming Vesterbyvej,8632,36,9.543559,56.237243
2041118,Lemming Vesterbyvej,8632,38,9.542933,56.237275
2041119,Lemming Vesterbyvej,8632,42,9.539214,56.237342
2041120,Lemming Vesterbyvej,8632,44,9.53845,56.236932
2041513,Høgdalvej,8632,13,9.50421,56.230412
2041514,Høgdalvej,8632,14,9.499857,56.22639
2041516,Høgdalvej,8632,15,9.509703,56.234321
2041517,Høgdalvej,8632,16,9.501385,56.227771
2041518,Høgdalvej,8632,17,9.508403,56.236529
2041519,Høgdalvej,8632,18,9.503264,56.229121
2041520,Høgdalvej,8632,19,9.511545,56.235474
2041521,Høgdalvej,8632,21,9.518541,56.242166
2041522,Høgdalvej,8632,22,9.510134,56.231094
2041523,Høgdalvej,8632,24,9.510143,56.232604
2041524,Høgdalvej,8632,32,9.515248,56.234638
2041525,Høgdalvej,8632,34,9.516886,56.235964
2041526,Høgdalvej,8632,36,9.520418,56.237186
2041527,Høgdalvej,8632,38,9.523039,56.239353
2041528,Høgdalvej,8632,40,9.522411,56.241108
2041529,Høgdalvej,8632,40B,9.523013,56.24198
2041530,Høgdalvej,8632,42,9.524107,56.242616
2042001,Lemming Skolevej,8632,1,9.5563413,56.2279065
2042002,Lemming Skolevej,8632,3,9.559433,56.228046
2042003,Lemming Skolevej,8632,4,9.56068,56.228409
2042004,Lemming Skolevej,8632,5,9.556881,56.230159
2042005,Lemming Skolevej,8632,6,9.558218,56.229884
2042006,Lemming Skolevej,8632,7A,9.555808,56.230803
2042010,Lemming Skolevej,8632,7B,9.555374,56.231042
2042014,Lemming Skolevej,8632,8A,9.55627,56.230879
2042016,Lemming Skolevej,8632,8B,9.556346,56.230825
2042020,Lemming Skolevej,8632,8C,9.556425,56.231248
2042023,Lemming Skolevej,8632,8D,9.555826,56.231377
2042027,Lemming Skolevej,8632,8E,9.555379,56.231661
2042031,Lemming Skolevej,8632,10A,9.554679,56.232054
2042032,Lemming Skolevej,8632,10B,9.554338,56.232516
2042033,Lemming Skolevej,8632,12,9.553342,56.235952
2042034,Lemming Skolevej,8632,16,9.55649,56.235555
2042035,Lemming Skolevej,8632,20,9.556097,56.236411
2042742,Allingvej,8632,1,9.5621921,56.2266409
2042743,Allingvej,8632,3,9.562578,56.226544
2042744,Allingvej,8632,4,9.562971,56.226277
2042745,Allingvej,8632,4B,9.56358,56.22618
2042746,Allingvej,8632,5,9.56299,56.226467
2042747,Allingvej,8632,6,9.563416,56.226664
2042748,Allingvej,8632,7,9.563103,56.226838
2042749,Allingvej,8632,8,9.571539,56.231005
2042750,Allingvej,8632,9A,9.565069,56.231997
2042751,Allingvej,8632,9B,9.565207,56.23213
2042752,Allingvej,8632,11,9.567878,56.235215
2042753,Allingvej,8632,12,9.564966,56.22947
2042754,Allingvej,8632,13,9.577986,56.244453
2042755,Allingvej,8632,14,9.570461,56.236839
2042756,Allingvej,8632,15,9.57857,56.247252
2042757,Allingvej,8632,16,9.576318,56.240415
2042758,Allingvej,8632,17,9.582733,56.252282
2042759,Allingvej,8632,20,9.581162,56.248801
2042766,Allingvej,8632,31,9.586967,56.252911
2042769,Allingvej,8632,31B,9.585724,56.254845
2042770,Allingvej,8632,33,9.585753,56.256256
2042774,Allingvej,8632,35,9.584058,56.262072
2042785,Allingvej,8632,41,9.592394,56.263728
2042815,Grauballevej,8632,3,9.578963,56.223279
2042816,Grauballevej,8632,5,9.582197,56.224183
2042817,Grauballevej,8632,6,9.567838,56.222827
2042818,Grauballevej,8632,7,9.58447,56.224845
2042819,Grauballevej,8632,8,9.581472,56.223673
2042820,Grauballevej,8632,9,9.585586,56.226373
2042821,Grauballevej,8632,10,9.582215,56.219466
2042822,Grauballevej,8632,11,9.587579,56.227659
2042823,Grauballevej,8632,12,9.584567,56.221186
2042824,Grauballevej,8632,13,9.591396,56.228135
2042825,Grauballevej,8632,14,9.584533,56.224434
2042826,Grauballevej,8632,16,9.588732,56.223917
2042827,Grauballevej,8632,16B,9.589724,56.226045
2042829,Grauballevej,8632,17,9.591587,56.232859
2042830,Grauballevej,8632,18,9.594396,56.222389
2042832,Grauballevej,8632,19,9.60016,56.227361
2042835,Grauballevej,8632,20,9.599609,56.224851
2042877,Ingerslevvej,8632,3,9.555432,56.248281
2042878,Ingerslevvej,8632,4,9.565026,56.247949
2042880,Ingerslevvej,8632,5,9.557811,56.24857
2042881,Ingerslevvej,8632,6,9.569988,56.248732
2042882,Ingerslevvej,8632,7,9.559975,56.250937
2042884,Ingerslevvej,8632,9,9.561451,56.248924
2042886,Ingerslevvej,8632,9B,9.562821,56.253019
2042888,Ingerslevvej,8632,10,9.588214,56.246942
2042889,Ingerslevvej,8632,11,9.564197,56.253996
2042892,Ingerslevvej,8632,12,9.589051,56.246548
2042894,Ingerslevvej,8632,13,9.566085,56.250636
2042895,Ingerslevvej,8632,17,9.584005,56.247527
2042898,Ingerslevvej,8632,19,9.596156,56.24655
2042899,Ingerslevvej,8632,21,9.600362,56.24435
2043025,Serup Skovvej,8632,1,9.488947,56.244267
2043027,Serup Skovvej,8632,2,9.488113,56.244696
2043031,Serup Skovvej,8632,3,9.488548,56.244322
2043036,Serup Skovvej,8632,5,9.488316,56.244347
2043040,Serup Skovvej,8632,7,9.486972,56.244432
2044998,Nisset Sønderhede,8632,1,9.564343,56.222263
2045001,Nisset Sønderhede,8632,2,9.565879,56.220683
2045003,Nisset Sønderhede,8632,3,9.571574,56.219586
2045005,Nisset Sønderhede,8632,4,9.570416,56.212453
2045007,Nisset Sønderhede,8632,6,9.569777,56.210251
2045008,Nisset Sønderhede,8632,7,9.571661,56.215567
2045010,Nisset Sønderhede,8632,9,9.575772,56.213866
2045012,Nisset Sønderhede,8632,11,9.579842,56.210588
2045013,Nisset Sønderhede,8632,13,9.574573,56.210643
2045318,Hyrdemosevej,8632,3,9.582741,56.231834
2045319,Hyrdemosevej,8632,5,9.579094,56.235489
2045320,Hyrdemosevej,8632,7,9.57426,56.23687
2045321,Hyrdemosevej,8632,8,9.591455,56.235553
2045322,Hyrdemosevej,8632,10,9.585587,56.236786
2045323,Hyrdemosevej,8632,12,9.583655,56.238371
2045324,Hyrdemosevej,8632,14,9.574131,56.237392
2045460,Nisset Overhede,8632,3,9.555845,56.225807
2045464,Nisset Overhede,8632,4,9.539407,56.230892
2045465,Nisset Overhede,8632,5,9.549568,56.227142
2045468,Nisset Overhede,8632,6,9.540214,56.228748
2045469,Nisset Overhede,8632,7,9.543888,56.228228
2045754,Serup Præstemark,8632,2,9.490469,56.245597
2045755,Serup Præstemark,8632,4,9.490484,56.245439
2045756,Serup Præstemark,8632,6,9.490803,56.245562
2045757,Serup Præstemark,8632,8,9.490823,56.245446
2235516,Østerbyvej,8632,27,9.552298,56.240556
2235517,Østerbyvej,8632,48B,9.5961435,56.2389744
2242937,Ingerslevvej,8632,8,9.571499,56.248614
2253341,Holmgårdevej,8632,9B,9.4906286,56.246706
2253368,Lemming Brovej,8632,5,9.545841,56.239755
2253461,Østerbyvej,8632,31B,9.559071,56.240339
