idx,street,postcode,housenumber,lon,lat
1382656,Sørkelvej,8882,3,9.679489,56.287
1382657,Sørkelvej,8882,4,9.679114,56.28712
1382658,Sørkelvej,8882,5,9.679742,56.286843
1382660,Sørkelvej,8882,7,9.679259,56.286692
1382662,Sørkelvej,8882,9,9.679075,56.286385
1382664,Sørkelvej,8882,10,9.671519,56.285925
1382665,Sørkelvej,8882,10D,9.666127,56.283022
1382667,Sørkelvej,8882,10F,9.6656264,56.282627
1382671,Sørkelvej,8882,11,9.679146,56.28598
1382674,Sørkelvej,8882,12,9.668266,56.280718
1382677,Sørkelvej,8882,13,9.681273,56.284708
1382680,Sørkelvej,8882,15,9.678052,56.284328
1382686,Sørkelvej,8882,17,9.677538,56.284259
1382688,Sørkelvej,8882,20,9.671026,56.278122
1382691,Sørkelvej,8882,21,9.67542,56.27863
1382696,Sørkelvej,8882,23,9.672608,56.278443
1382698,Sørkelvej,8882,26,9.668515,56.276221
1382700,Sørkelvej,8882,27,9.6753525,56.2743342
1382702,Sørkelvej,8882,29,9.669423,56.276309
1382705,Sørkelvej,8882,31,9.669499,56.273709
1382707,Sørkelvej,8882,33,9.675061,56.272373
1382709,Sørkelvej,8882,35,9.675329,56.270968
1382711,Sørkelvej,8882,40,9.661016,56.267987
1382714,Sørkelvej,8882,40B,9.660004,56.266238
1382715,Sørkelvej,8882,41,9.676377,56.267096
1382718,Sørkelvej,8882,42,9.659965,56.264241
1382720,Sørkelvej,8882,44,9.665478,56.263325
1382722,Sørkelvej,8882,44B,9.66339,56.260908
1382725,Sørkelvej,8882,45,9.672184,56.259847
1382727,Sørkelvej,8882,47,9.670991,56.259399
1382729,Sørkelvej,8882,50,9.66832,56.254308
1438924,Hornvej,8882,28,9.726171,56.243589
1438926,Hornvej,8882,33,9.722604,56.244972
1438927,Hornvej,8882,35,9.721308,56.245055
1438928,Hornvej,8882,39,9.713424,56.244905
1438929,Hornvej,8882,41,9.70986,56.2434863
1438930,Hornvej,8882,44,9.709881,56.25191
1438931,Hornvej,8882,48,9.708501,56.251963
1438932,Hornvej,8882,49,9.709843,56.251493
1438933,Hornvej,8882,50,9.707879,56.251849
1438934,Hornvej,8882,51,9.709358,56.251455
1438935,Hornvej,8882,52,9.706919,56.251756
1438936,Hornvej,8882,53,9.709113,56.251566
1438937,Hornvej,8882,54A,9.706504,56.251673
1438938,Hornvej,8882,54B,9.706208,56.252214
1438939,Hornvej,8882,54C,9.70561,56.251911
1438940,Hornvej,8882,54D,9.70603,56.251653
1438941,Hornvej,8882,54E,9.706,56.251563
1438942,Hornvej,8882,55,9.708404,56.251501
1438943,Hornvej,8882,58,9.705362,56.251508
1438944,Hornvej,8882,60,9.705009,56.251557
1438945,Hornvej,8882,62,9.704559,56.251492
1438946,Hornvej,8882,63,9.704505,56.250606
1438947,Hornvej,8882,65,9.703685,56.251017
1440788,Tvilum Kirkevej,8882,2,9.718869,56.26503
1440789,Tvilum Kirkevej,8882,3,9.719605,56.264934
1440790,Tvilum Kirkevej,8882,4,9.7187189,56.2647918
1440791,Tvilum Kirkevej,8882,5,9.719278,56.264389
1440792,Tvilum Kirkevej,8882,7,9.720115,56.2635474
1440793,Tvilum Kirkevej,8882,8,9.718204,56.263983
1440794,Tvilum Kirkevej,8882,11,9.718695,56.264099
1440795,Tvilum Kirkevej,8882,15,9.718503,56.263411
1440796,Tvilum Kirkevej,8882,20,9.711369,56.25733
1440797,Tvilum Kirkevej,8882,21,9.7109351,56.2561883
1440798,Tvilum Kirkevej,8882,24,9.709722,56.256048
1440799,Tvilum Kirkevej,8882,25,9.711074,56.254896
1440800,Tvilum Kirkevej,8882,26,9.709142,56.2560089
1440802,Tvilum Kirkevej,8882,29,9.709317,56.254468
1440803,Tvilum Kirkevej,8882,29B,9.709179,56.254681
1440805,Tvilum Kirkevej,8882,30,9.699455,56.256759
1440806,Tvilum Kirkevej,8882,32,9.703601,56.251428
1440809,Tvilum Kirkevej,8882,34,9.700666,56.250753
1440810,Tvilum Kirkevej,8882,37,9.699943,56.246334
1440833,Trehøjevej,8882,14,9.730589,56.252011
1440834,Trehøjevej,8882,15,9.734106,56.24983
1440837,Trehøjevej,8882,16,9.726378,56.251509
1440838,Trehøjevej,8882,17,9.729874,56.249757
1440840,Trehøjevej,8882,18,9.722277,56.252399
1440841,Trehøjevej,8882,21,9.725174,56.250259
1440842,Trehøjevej,8882,23,9.727855,56.248276
1440843,Trehøjevej,8882,25,9.727025,56.248805
1440844,Trehøjevej,8882,26,9.711968,56.253608
1440845,Trehøjevej,8882,27,9.727486,56.24667
1440846,Trehøjevej,8882,29,9.722116,56.249718
1440848,Trehøjevej,8882,30,9.711073,56.252643
1440849,Trehøjevej,8882,31,9.71345,56.252502
1440850,Trehøjevej,8882,32,9.711509,56.252269
1440851,Trehøjevej,8882,33,9.712926,56.252793
1440852,Trehøjevej,8882,35,9.712513,56.252722
1440853,Trehøjevej,8882,41,9.711946,56.252548
1440854,Trehøjevej,8882,45,9.711897,56.252274
1440855,Trehøjevej,8882,47,9.711857,56.252109
1445121,Lærkevej,8882,1,9.732515,56.268101
1445122,Lærkevej,8882,2A,9.732033,56.268135
1445123,Lærkevej,8882,2B,9.73196,56.268078
1445124,Lærkevej,8882,3,9.732304,56.26792
1445125,Lærkevej,8882,4,9.731798,56.267924
1445126,Lærkevej,8882,5,9.732121,56.267787
1445127,Lærkevej,8882,6,9.731209,56.267826
1445128,Lærkevej,8882,7,9.73268,56.267569
1445129,Lærkevej,8882,8,9.731272,56.267513
1445130,Lærkevej,8882,9,9.732467,56.267399
1445131,Lærkevej,8882,10,9.731088,56.267355
1445132,Lærkevej,8882,11,9.731977,56.267618
1445133,Lærkevej,8882,15,9.731656,56.267415
1445134,Lærkevej,8882,16,9.72994,56.266483
1445135,Lærkevej,8882,17,9.731357,56.2667
1445136,Lærkevej,8882,18,9.729783,56.266262
1445137,Lærkevej,8882,19,9.730505,56.266418
1445138,Lærkevej,8882,20,9.729753,56.266038
1445139,Lærkevej,8882,21,9.73037,56.266159
1445140,Lærkevej,8882,22,9.729601,56.26585
1445141,Lærkevej,8882,23,9.730229,56.265978
1445142,Lærkevej,8882,24,9.729602,56.265686
1445143,Lærkevej,8882,25A,9.730881,56.265908
1445144,Lærkevej,8882,25B,9.730888,56.265992
1445145,Lærkevej,8882,26,9.729473,56.265453
1445146,Lærkevej,8882,27A,9.73108,56.265846
1445147,Lærkevej,8882,27B,9.731212,56.26582
1445148,Lærkevej,8882,28,9.729407,56.265236
1445149,Lærkevej,8882,29A,9.731504,56.265939
1445150,Lærkevej,8882,29B,9.731449,56.265851
1445151,Lærkevej,8882,30,9.729337,56.264999
1445152,Lærkevej,8882,31A,9.731415,56.265626
1445153,Lærkevej,8882,31B,9.73136,56.265538
1445154,Lærkevej,8882,32,9.728726,56.263977
1445155,Lærkevej,8882,33A,9.731149,56.26559
1445156,Lærkevej,8882,33B,9.731012,56.265611
1445157,Lærkevej,8882,34,9.728756,56.264082
1445158,Lærkevej,8882,35A,9.73114,56.265434
1445159,Lærkevej,8882,35B,9.731328,56.265425
1445160,Lærkevej,8882,35C,9.731187,56.265156
1445161,Lærkevej,8882,35D,9.731042,56.265158
1445162,Lærkevej,8882,35E,9.730944,56.265197
1445163,Lærkevej,8882,35F,9.73081,56.265197
1445164,Lærkevej,8882,35G,9.730749,56.265257
1445165,Lærkevej,8882,35H,9.730567,56.265256
1445166,Lærkevej,8882,36,9.728633,56.264188
1445167,Lærkevej,8882,37,9.730313,56.265653
1445168,Lærkevej,8882,38,9.728504,56.264206
1445169,Lærkevej,8882,39,9.730037,56.265442
1445170,Lærkevej,8882,40,9.728267,56.264224
1445171,Lærkevej,8882,41,9.729957,56.265221
1445172,Lærkevej,8882,42,9.728161,56.264238
1445173,Lærkevej,8882,43,9.729856,56.264985
1445174,Lærkevej,8882,44,9.728002,56.26419
1445175,Lærkevej,8882,46,9.727931,56.26413
1445176,Lærkevej,8882,47,9.729125,56.263681
1445177,Lærkevej,8882,48,9.727554,56.263702
1445178,Lærkevej,8882,49,9.729196,56.263763
1445179,Lærkevej,8882,50,9.727461,56.263607
1445180,Lærkevej,8882,51,9.729284,56.263856
1445181,Lærkevej,8882,52,9.727378,56.263518
1445182,Lærkevej,8882,53,9.729356,56.263935
1445183,Lærkevej,8882,54,9.727783,56.263388
1445184,Lærkevej,8882,55,9.729445,56.264021
1445185,Lærkevej,8882,56,9.727929,56.263371
1445186,Lærkevej,8882,57,9.729516,56.26411
1445187,Lærkevej,8882,58,9.728114,56.263453
1445188,Lærkevej,8882,59,9.72958,56.263791
1445189,Lærkevej,8882,60,9.728134,56.263531
1445190,Lærkevej,8882,61,9.729781,56.263757
1445191,Lærkevej,8882,63,9.72995,56.263779
1445192,Lærkevej,8882,65,9.729809,56.264047
1445193,Lærkevej,8882,67,9.729992,56.264013
1445194,Lærkevej,8882,69,9.730516,56.263932
1445195,Lærkevej,8882,71,9.730553,56.263811
1445196,Lærkevej,8882,73,9.730475,56.263703
1445197,Lærkevej,8882,75,9.730359,56.263602
1445198,Lærkevej,8882,77,9.730266,56.263497
1445199,Lærkevej,8882,79,9.728915,56.263432
1445200,Lærkevej,8882,81,9.728797,56.263333
1445201,Lærkevej,8882,83,9.728703,56.263218
1445202,Lærkevej,8882,85,9.728828,56.263096
1445203,Lærkevej,8882,87,9.729019,56.263031
1445204,Lærkevej,8882,89,9.729215,56.262965
1445205,Lærkevej,8882,91,9.72944,56.26295
1445206,Lærkevej,8882,93,9.729728,56.262847
1445207,Lærkevej,8882,95,9.729952,56.262813
1445208,Lærkevej,8882,97,9.729105,56.263252
1445209,Lærkevej,8882,99,9.729316,56.263254
1445210,Lærkevej,8882,101,9.72952,56.263184
1445211,Lærkevej,8882,103,9.72975,56.263104
1445212,Lærkevej,8882,105,9.72993,56.263126
1445213,Lærkevej,8882,107,9.730103,56.263068
1445214,Lærkevej,8882,109,9.729742,56.263294
1445215,Lærkevej,8882,111,9.729779,56.263407
1445216,Lærkevej,8882,113,9.729839,56.263525
1445577,Århusvej,8882,6,9.738518,56.265062
1445578,Århusvej,8882,7,9.741441,56.264759
1445579,Århusvej,8882,8,9.740255,56.263984
1445580,Århusvej,8882,10,9.743563,56.261768
1445581,Århusvej,8882,11,9.746518,56.26239
1445582,Århusvej,8882,12,9.744687,56.262699
1445583,Århusvej,8882,18,9.748421,56.260726
1445584,Århusvej,8882,21,9.755603,56.257715
1445585,Århusvej,8882,25,9.757737,56.256847
1445586,Århusvej,8882,27,9.75868,56.256331
1445587,Århusvej,8882,29,9.760909,56.255082
1445588,Århusvej,8882,30,9.763928,56.252928
1445589,Århusvej,8882,31,9.764081,56.254416
1445607,Grønningen,8882,1,9.707452,56.25336
1445608,Grønningen,8882,2A,9.7073091,56.2528279
1445609,Grønningen,8882,2B,9.706882,56.252599
1445610,Grønningen,8882,2C,9.707077,56.252307
1445611,Grønningen,8882,5,9.708193,56.253715
1445612,Grønningen,8882,6,9.707938,56.25278
1445613,Grønningen,8882,7,9.708281,56.253476
1445614,Grønningen,8882,9,9.707987,56.253107
1445615,Grønningen,8882,11,9.708349,56.25294
1445616,Grønningen,8882,12,9.708218,56.252502
1445617,Grønningen,8882,13,9.70864,56.252792
1445618,Grønningen,8882,14,9.708125,56.25235
1445619,Grønningen,8882,15,9.708676,56.252594
1445770,Nørskovsmindevej,8882,2,9.718079,56.264407
1445771,Nørskovsmindevej,8882,10,9.713039,56.263287
1445772,Nørskovsmindevej,8882,11,9.70605,56.261077
1445773,Nørskovsmindevej,8882,14,9.708752,56.261908
1445774,Nørskovsmindevej,8882,16,9.706813,56.261572
1445775,Nørskovsmindevej,8882,21,9.698708,56.260008
1445776,Nørskovsmindevej,8882,22,9.697774,56.260574
1445777,Nørskovsmindevej,8882,25,9.696939,56.260435
1445778,Nørskovsmindevej,8882,26,9.696789,56.261291
1445779,Nørskovsmindevej,8882,36,9.690823,56.261339
1445783,Nørregårdsvej,8882,4,9.759406,56.252933
1445784,Nørregårdsvej,8882,6,9.756231,56.254359
1445785,Nørregårdsvej,8882,7,9.752335,56.253907
1445786,Nørregårdsvej,8882,8,9.753384,56.253704
1445787,Nørregårdsvej,8882,9,9.752169,56.257124
1445798,Hedevej,8882,1,9.737635,56.265786
1445799,Hedevej,8882,3,9.73512,56.264878
1445800,Hedevej,8882,5,9.732927,56.261924
1445801,Hedevej,8882,31,9.732026,56.257996
1445802,Hedevej,8882,33,9.730985,56.257945
1445803,Hedevej,8882,37,9.735428,56.256435
1445804,Hedevej,8882,38,9.729478,56.258252
1445805,Hedevej,8882,40,9.727523,56.257771
1445806,Hedevej,8882,42,9.725447,56.257302
1445807,Hedevej,8882,44,9.727104,56.254757
1445827,Elkær,8882,8,9.684069,56.263221
1445828,Elkær,8882,9,9.682048,56.261309
1445829,Elkær,8882,12,9.675004,56.262854
1445830,Elkær,8882,13,9.68049,56.259504
1445831,Elkær,8882,14,9.677021,56.262401
1445832,Elkær,8882,15,9.676698,56.260426
1445833,Elkær,8882,19,9.673705,56.261389
1445839,Tvilumgårdsvej,8882,1,9.6797,56.255761
1445840,Tvilumgårdsvej,8882,3,9.68066,56.255931
1445841,Tvilumgårdsvej,8882,4,9.683595,56.25214
1445842,Tvilumgårdsvej,8882,5,9.680523,56.255583
1445843,Tvilumgårdsvej,8882,6,9.683788,56.253076
1445844,Tvilumgårdsvej,8882,7,9.682106,56.254695
1445889,Krogårdsvej,8882,1,9.693742,56.248557
1445890,Krogårdsvej,8882,6,9.692669,56.249693
1445891,Krogårdsvej,8882,6C,9.692084,56.250274
1445892,Krogårdsvej,8882,9,9.684136,56.252064
1445896,Skovladen,8882,50,9.7677809,56.2666892
1445897,Skovladen,8882,51,9.7689703,56.2664213
1445898,Skovladen,8882,55,9.7665227,56.2659423
1445899,Skovladen,8882,60,9.760667,56.2653854
1445900,Skovladen,8882,61,9.7657315,56.2659382
1445901,Skovladen,8882,70,9.7594725,56.2645841
1445902,Skovladen,8882,71,9.7598125,56.2638183
1445903,Skovladen,8882,80,9.7575126,56.2626284
1445904,Skovladen,8882,81,9.7585762,56.2625321
1445910,Sølvstensvej,8882,5,9.702587,56.254325
1445911,Sølvstensvej,8882,20,9.70004,56.266235
1445912,Sølvstensvej,8882,21,9.696849,56.264597
1445913,Sølvstensvej,8882,23,9.695302,56.265452
1445914,Sølvstensvej,8882,25,9.695299,56.267902
1445915,Sølvstensvej,8882,26,9.696822,56.269113
1445920,Nørskovvej,8882,4,9.679719,56.281252
1445921,Nørskovvej,8882,6,9.681519,56.280144
1445922,Nørskovvej,8882,12,9.684943,56.275665
1445923,Nørskovvej,8882,15,9.687905,56.276604
1445924,Nørskovvej,8882,18,9.683513,56.270441
1445925,Nørskovvej,8882,20,9.686637,56.27151
1445926,Nørskovvej,8882,21,9.689783,56.272276
1445927,Nørskovvej,8882,24,9.689564,56.270924
1445928,Nørskovvej,8882,30,9.6912559,56.2653737
1445929,Nørskovvej,8882,31,9.691808,56.265779
1445930,Nørskovvej,8882,32,9.688503,56.26608
1445931,Nørskovvej,8882,34,9.6862,56.266251
1445932,Nørskovvej,8882,40,9.690524,56.26359
1445933,Nørskovvej,8882,41,9.692436,56.26256
1445935,Lanstigvej,8882,1,9.726678,56.262939
1445936,Lanstigvej,8882,3,9.719034,56.265562
1445937,Lanstigvej,8882,4,9.719908,56.266213
1445938,Lanstigvej,8882,9,9.71431,56.267193
1445939,Lanstigvej,8882,12A,9.714139,56.270678
1445940,Lanstigvej,8882,12B,9.713864,56.27095
1445941,Lanstigvej,8882,16,9.706344,56.272309
1445942,Lanstigvej,8882,17,9.701369,56.270146
1445943,Lanstigvej,8882,20,9.704167,56.274306
1445944,Lanstigvej,8882,21,9.695836,56.272149
1445945,Lanstigvej,8882,25,9.696162,56.275533
1445946,Lanstigvej,8882,31,9.691486,56.279589
1445947,Lanstigvej,8882,35,9.686188,56.282754
1445948,Lanstigvej,8882,36,9.68746,56.28397
1445949,Lanstigvej,8882,39,9.683124,56.285648
1445950,Klostervej,8882,1,9.673675,56.243491
1508607,Meldgårdsparken,8882,1,9.729044,56.264749
1508608,Meldgårdsparken,8882,2,9.72855,56.265127
1508609,Meldgårdsparken,8882,3,9.729256,56.264697
1508610,Meldgårdsparken,8882,4,9.728674,56.265315
1508611,Meldgårdsparken,8882,5,9.729204,56.264536
1508612,Meldgårdsparken,8882,6,9.72875,56.265533
1508613,Meldgårdsparken,8882,7,9.729105,56.264389
1508614,Meldgårdsparken,8882,8,9.728809,56.265755
1508615,Meldgårdsparken,8882,9,9.728827,56.264368
1508616,Meldgårdsparken,8882,10,9.728811,56.265957
1508617,Meldgårdsparken,8882,11,9.72857,56.264395
1508618,Meldgårdsparken,8882,12,9.728882,56.266147
1508619,Meldgårdsparken,8882,13,9.728242,56.26448
1508620,Meldgårdsparken,8882,14,9.729061,56.26634
1508621,Meldgårdsparken,8882,15,9.728286,56.264633
1508622,Meldgårdsparken,8882,16,9.728536,56.266274
1508623,Meldgårdsparken,8882,17,9.728379,56.26479
1508624,Meldgårdsparken,8882,18,9.728449,56.266123
1508625,Meldgårdsparken,8882,19,9.72861,56.264794
1508626,Meldgårdsparken,8882,20,9.72838,56.265873
1508627,Meldgårdsparken,8882,22,9.72829,56.265589
1508628,Meldgårdsparken,8882,24,9.72823,56.265395
1508629,Meldgårdsparken,8882,26,9.728137,56.265167
1508630,Meldgårdsparken,8882,27,9.727806,56.26484
1508631,Meldgårdsparken,8882,28,9.727421,56.265225
1508632,Meldgårdsparken,8882,30,9.727501,56.265488
1508633,Meldgårdsparken,8882,31,9.727604,56.26445
1508634,Meldgårdsparken,8882,32,9.727574,56.265723
1508635,Meldgårdsparken,8882,33,9.727438,56.264253
1508636,Meldgårdsparken,8882,34,9.727645,56.265966
1508637,Meldgårdsparken,8882,35,9.727055,56.263904
1508638,Meldgårdsparken,8882,36,9.727711,56.266154
1508639,Meldgårdsparken,8882,37,9.726989,56.263682
1508640,Meldgårdsparken,8882,38,9.727799,56.266386
1508641,Meldgårdsparken,8882,39,9.726482,56.263831
1508642,Meldgårdsparken,8882,40,9.727346,56.266426
1508643,Meldgårdsparken,8882,41,9.726609,56.264048
1508644,Meldgårdsparken,8882,42,9.727308,56.266203
1508645,Meldgårdsparken,8882,43,9.726911,56.264189
1508646,Meldgårdsparken,8882,44,9.727235,56.26595
1508647,Meldgårdsparken,8882,45,9.727094,56.264382
1508648,Meldgårdsparken,8882,46,9.727132,56.265754
1508649,Meldgårdsparken,8882,47,9.727259,56.264576
1508650,Meldgårdsparken,8882,48,9.727109,56.265501
1508651,Meldgårdsparken,8882,49,9.727422,56.264862
1508652,Meldgårdsparken,8882,50,9.727028,56.26525
1508653,Meldgårdsparken,8882,51,9.72668,56.264972
1508654,Meldgårdsparken,8882,52,9.726247,56.265393
1508655,Meldgårdsparken,8882,53,9.726543,56.264793
1508656,Meldgårdsparken,8882,54,9.726367,56.265624
1508657,Meldgårdsparken,8882,55,9.726384,56.264607
1508658,Meldgårdsparken,8882,56,9.726464,56.265801
1508659,Meldgårdsparken,8882,57,9.7262,56.264418
1508660,Meldgårdsparken,8882,58,9.726682,56.26614
1508661,Meldgårdsparken,8882,59,9.725944,56.264192
1508662,Meldgårdsparken,8882,60,9.726716,56.266321
1508663,Meldgårdsparken,8882,61,9.725888,56.263998
1508664,Meldgårdsparken,8882,62,9.726514,56.266391
1508665,Meldgårdsparken,8882,63,9.725481,56.264089
1508666,Meldgårdsparken,8882,64,9.72621,56.266079
1508667,Meldgårdsparken,8882,65,9.72559,56.264343
1508668,Meldgårdsparken,8882,66,9.726056,56.265808
1508669,Meldgårdsparken,8882,67A,9.725971,56.264659
1508670,Meldgårdsparken,8882,67B,9.726051,56.264745
1508671,Meldgårdsparken,8882,68,9.72592,56.265554
1508672,Meldgårdsparken,8882,69A,9.726148,56.264893
1508673,Meldgårdsparken,8882,69B,9.726248,56.265001
1508674,Meldgårdsparken,8882,70,9.725845,56.265374
1508675,Meldgårdsparken,8882,71,9.725363,56.265107
1508676,Meldgårdsparken,8882,72A,9.725174,56.265384
1508677,Meldgårdsparken,8882,72B,9.724951,56.265401
1508678,Meldgårdsparken,8882,72C,9.724723,56.265417
1508679,Meldgårdsparken,8882,73A,9.725278,56.26487
1508680,Meldgårdsparken,8882,73B,9.725405,56.264859
1508681,Meldgårdsparken,8882,75A,9.724869,56.264508
1508682,Meldgårdsparken,8882,75B,9.725079,56.264446
1508683,Meldgårdsparken,8882,77A,9.724682,56.264296
1508684,Meldgårdsparken,8882,77B,9.724871,56.264242
1508685,Meldgårdsparken,8882,79A,9.724088,56.264468
1508686,Meldgårdsparken,8882,79B,9.724277,56.264409
1508687,Meldgårdsparken,8882,81A,9.724182,56.264703
1508688,Meldgårdsparken,8882,81B,9.724366,56.264649
1508689,Meldgårdsparken,8882,83A,9.724366,56.264978
1508690,Meldgårdsparken,8882,83B,9.724555,56.264924
1508691,Meldgårdsparken,8882,85,9.724899,56.265088
1508764,Nylandsvej,8882,2A,9.728415,56.270233
1508765,Nylandsvej,8882,2B,9.728353,56.270194
1508766,Nylandsvej,8882,2C,9.728282,56.270143
1508767,Nylandsvej,8882,2D,9.728204,56.270092
1508768,Nylandsvej,8882,3,9.7283,56.269891
1508769,Nylandsvej,8882,4,9.727943,56.26992
1508770,Nylandsvej,8882,5,9.728093,56.269761
1508771,Nylandsvej,8882,6,9.727703,56.269771
1508772,Nylandsvej,8882,7,9.72791,56.269629
1508773,Nylandsvej,8882,8,9.727464,56.269685
1508774,Nylandsvej,8882,9,9.727717,56.269474
1508775,Nylandsvej,8882,10,9.727215,56.269492
1508776,Nylandsvej,8882,11,9.727563,56.269335
1508777,Nylandsvej,8882,12,9.726968,56.269322
1508778,Nylandsvej,8882,13,9.727366,56.269198
1508779,Nylandsvej,8882,14,9.726773,56.269188
1508780,Nylandsvej,8882,15,9.727162,56.269058
1508781,Nylandsvej,8882,16,9.726442,56.268963
1508782,Nylandsvej,8882,18,9.726232,56.268823
1508783,Nylandsvej,8882,20,9.726027,56.268686
1508784,Nylandsvej,8882,22,9.725819,56.268548
1508785,Nylandsvej,8882,23,9.726335,56.268431
1508786,Nylandsvej,8882,24,9.725639,56.268415
1508787,Nylandsvej,8882,25,9.726168,56.268294
1508788,Nylandsvej,8882,26,9.725435,56.268294
1508789,Nylandsvej,8882,27,9.725858,56.268186
1508790,Nylandsvej,8882,28,9.725176,56.268145
1508791,Nylandsvej,8882,29,9.725725,56.267953
1508792,Nylandsvej,8882,30,9.725012,56.267964
1508793,Nylandsvej,8882,31,9.725399,56.267753
1508794,Nylandsvej,8882,32,9.724905,56.267793
1508795,Nylandsvej,8882,33,9.725213,56.267608
1508796,Nylandsvej,8882,34,9.724742,56.267621
1508797,Nylandsvej,8882,35,9.725083,56.267372
1508798,Nylandsvej,8882,36,9.724293,56.267704
1508799,Nylandsvej,8882,37,9.724906,56.267177
1508800,Nylandsvej,8882,38,9.723906,56.267505
1508801,Nylandsvej,8882,39,9.724744,56.266953
1508802,Nylandsvej,8882,41,9.724631,56.266824
1508803,Nylandsvej,8882,42,9.723668,56.267189
1508804,Nylandsvej,8882,43,9.72442,56.266598
1508805,Nylandsvej,8882,44,9.724573,56.267334
1508806,Nylandsvej,8882,45,9.724299,56.266434
1508807,Nylandsvej,8882,46,9.724364,56.267095
1508808,Nylandsvej,8882,47,9.72411,56.266214
1508809,Nylandsvej,8882,48,9.724145,56.266851
1508810,Nylandsvej,8882,49,9.724232,56.265914
1508811,Nylandsvej,8882,50,9.723988,56.266624
1508812,Nylandsvej,8882,52,9.723535,56.266178
1508813,Nylandsvej,8882,54,9.723021,56.265837
1508814,Storgade,8882,1A,9.734912,56.267343
1508815,Storgade,8882,1B,9.734923,56.267403
1508816,Storgade,8882,1C,9.734747,56.267485
1508817,Storgade,8882,1D,9.734672,56.267463
1508818,Storgade,8882,2A,9.736618,56.26695
1508819,Storgade,8882,2B,9.736354,56.267029
1508820,Storgade,8882,3,9.734303,56.267565
1508821,Storgade,8882,4,9.735948,56.267157
1508822,Storgade,8882,5,9.734029,56.267639
1508823,Storgade,8882,6,9.73549,56.267397
1508824,Storgade,8882,7,9.733798,56.267875
1508825,Storgade,8882,8,9.735012,56.267673
1508826,Storgade,8882,10,9.73463,56.267759
1508827,Storgade,8882,11,9.73339,56.268064
1508828,Storgade,8882,12,9.734424,56.267846
1508829,Storgade,8882,13,9.733196,56.268149
1508830,Storgade,8882,14,9.734144,56.267959
1508831,Storgade,8882,15,9.732832,56.268221
1508832,Storgade,8882,16,9.733891,56.268074
1508833,Storgade,8882,17,9.732372,56.268517
1508834,Storgade,8882,18,9.733655,56.268197
1508835,Storgade,8882,19A,9.732212,56.268598
1508836,Storgade,8882,19B,9.73212,56.26864
1508837,Storgade,8882,20,9.733448,56.26827
1508838,Storgade,8882,21,9.731767,56.268749
1508839,Storgade,8882,22,9.733251,56.268358
1508840,Storgade,8882,23,9.731585,56.268867
1508841,Storgade,8882,24,9.733087,56.268429
1508842,Storgade,8882,25,9.73135,56.268942
1508843,Storgade,8882,26,9.732936,56.268499
1508844,Storgade,8882,27,9.731034,56.269081
1508845,Storgade,8882,28,9.732786,56.268635
1508846,Storgade,8882,29,9.730832,56.269162
1508847,Storgade,8882,31,9.730372,56.268994
1508848,Storgade,8882,32,9.732305,56.268781
1508849,Storgade,8882,33A,9.730562,56.269329
1508850,Storgade,8882,33B,9.730503,56.269355
1508851,Storgade,8882,33C,9.730434,56.269385
1508852,Storgade,8882,33D,9.730375,56.26941
1508853,Storgade,8882,33E,9.730321,56.269433
1508854,Storgade,8882,33F,9.730277,56.269457
1508855,Storgade,8882,34,9.732033,56.268899
1508856,Storgade,8882,35A,9.730195,56.2695
1508857,Storgade,8882,35B,9.730135,56.269527
1508858,Storgade,8882,35C,9.730147,56.26947
1508859,Storgade,8882,36A,9.731913,56.268982
1508860,Storgade,8882,36B,9.731823,56.269024
1508861,Storgade,8882,37,9.729821,56.269625
1508862,Storgade,8882,38,9.73135,56.269236
1508863,Storgade,8882,39,9.729518,56.269748
1508864,Storgade,8882,40,9.731107,56.269314
1508865,Storgade,8882,41A,9.729136,56.26996
1508866,Storgade,8882,41B,9.729218,56.269925
1508867,Storgade,8882,41C,9.729318,56.269886
1508868,Storgade,8882,42,9.730854,56.269441
1508869,Storgade,8882,43,9.728751,56.27013
1508870,Storgade,8882,44,9.730608,56.269537
1508871,Storgade,8882,44B,9.729665,56.270581
1508872,Storgade,8882,45,9.72844,56.270269
1508873,Storgade,8882,46,9.730383,56.269645
1508874,Storgade,8882,47,9.728301,56.270326
1508875,Storgade,8882,48,9.73016,56.269792
1508876,Storgade,8882,49,9.728094,56.270419
1508877,Storgade,8882,50,9.729953,56.26988
1508878,Storgade,8882,51,9.727749,56.270549
1508879,Storgade,8882,53,9.727503,56.270661
1508880,Storgade,8882,54A,9.7292,56.270291
1508881,Storgade,8882,54B,9.729249,56.270227
1508882,Storgade,8882,54C,9.729321,56.270242
1508883,Storgade,8882,54D,9.729347,56.270182
1508884,Storgade,8882,54E,9.729438,56.270143
1508885,Storgade,8882,54F,9.72942,56.270194
1508886,Storgade,8882,54G,9.729425,56.270248
1508887,Storgade,8882,54H,9.72952,56.270154
1508888,Storgade,8882,54K,9.729335,56.270288
1508889,Storgade,8882,55,9.727258,56.270785
1508890,Storgade,8882,57,9.72704,56.270883
1508891,Storgade,8882,58,9.728632,56.270418
1508892,Storgade,8882,59,9.726757,56.27102
1508893,Storgade,8882,60,9.728401,56.27068
1508894,Storgade,8882,61,9.726419,56.27116
1508895,Storgade,8882,62,9.727954,56.270716
1508896,Storgade,8882,63,9.725867,56.271358
1508897,Storgade,8882,64,9.727823,56.270898
1508898,Storgade,8882,66,9.727521,56.271005
1508899,Storgade,8882,68,9.726916,56.27127
1508900,Storgade,8882,70,9.726683,56.271404
1508901,Storgade,8882,72,9.726126,56.271566
1508968,Thorsøvej,8882,11,9.729893,56.274043
1508969,Thorsøvej,8882,13,9.730775,56.273881
1508970,Thorsøvej,8882,15,9.732285,56.274334
1508971,Thorsøvej,8882,17,9.729805,56.274841
1508972,Thorsøvej,8882,19,9.729115,56.274836
1508973,Thorsøvej,8882,19B,9.729642,56.275274
1508974,Thorsøvej,8882,20,9.736384,56.27434
1508975,Thorsøvej,8882,21,9.728352,56.275362
1508976,Thorsøvej,8882,25,9.733387,56.275656
1508977,Thorsøvej,8882,29,9.734237,56.27605
1508978,Thorsøvej,8882,33,9.736907,56.27688
1508979,Thorsøvej,8882,37,9.741561,56.278793
1508980,Thorsøvej,8882,39,9.741954,56.278953
1508981,Thorsøvej,8882,41,9.742508,56.279135
1508982,Thorsøvej,8882,42,9.744441,56.278919
1508983,Thorsøvej,8882,43,9.742847,56.27952
1508984,Thorsøvej,8882,44,9.744437,56.278527
1508985,Thorsøvej,8882,45,9.742667,56.280014
1508986,Thorsøvej,8882,46A,9.743245,56.279362
1508987,Thorsøvej,8882,46B,9.743261,56.279403
1508988,Thorsøvej,8882,47,9.743164,56.280266
1508989,Thorsøvej,8882,48,9.743285,56.279536
1508990,Thorsøvej,8882,49,9.743217,56.280482
1508991,Thorsøvej,8882,50,9.743493,56.279734
1508992,Thorsøvej,8882,51,9.743351,56.280697
1508993,Thorsøvej,8882,52,9.743626,56.280044
1508994,Thorsøvej,8882,53,9.743459,56.280846
1508995,Thorsøvej,8882,54,9.743581,56.280256
1508996,Thorsøvej,8882,55,9.743555,56.280967
1508997,Thorsøvej,8882,56,9.7437,56.280483
1508998,Thorsøvej,8882,61,9.743884,56.282283
1508999,Thorsøvej,8882,62,9.744271,56.28114
1509000,Thorsøvej,8882,62B,9.745238,56.281268
1509001,Thorsøvej,8882,63,9.744553,56.282137
1509002,Thorsøvej,8882,64,9.744449,56.280662
1509003,Thorsøvej,8882,69,9.746324,56.282851
1509004,Thorsøvej,8882,71,9.74675,56.281918
1509005,Thorsøvej,8882,79,9.750876,56.282201
1509006,Thorsøvej,8882,85,9.760008,56.283314
1509007,Thorsøvej,8882,87,9.759878,56.284036
1509008,Thorsøvej,8882,88,9.76048,56.282361
1509009,Thorsøvej,8882,90,9.761598,56.282199
1509010,Thorsøvej,8882,92,9.762708,56.282167
1509011,Thorsøvej,8882,93,9.760778,56.284423
1509012,Thorsøvej,8882,93B,9.760904,56.28417
1509013,Thorsøvej,8882,94,9.761493,56.282995
1509014,Thorsøvej,8882,95,9.760591,56.283481
1509015,Thorsøvej,8882,96,9.761799,56.282995
1509016,Thorsøvej,8882,97,9.760568,56.283299
1509017,Thorsøvej,8882,98,9.762596,56.282715
1509018,Thorsøvej,8882,100,9.763631,56.283412
1509019,Thorsøvej,8882,101,9.760945,56.283202
1509020,Thorsøvej,8882,102,9.767608,56.289418
1509021,Thorsøvej,8882,107,9.762037,56.283314
1509022,Thorsøvej,8882,109,9.762299,56.283551
1509023,Thorsøvej,8882,111,9.762677,56.283319
1509071,Jernbanegade,8882,1A,9.73517,56.267098
1509072,Jernbanegade,8882,1B,9.735088,56.267023
1509073,Jernbanegade,8882,1C,9.735011,56.266952
1509074,Jernbanegade,8882,1D,9.734921,56.266842
1509075,Jernbanegade,8882,1E,9.73478,56.266739
1509076,Jernbanegade,8882,2,9.734719,56.267212
1509077,Jernbanegade,8882,4,9.734605,56.267115
1509078,Jernbanegade,8882,6,9.734466,56.266994
1509079,Jernbanegade,8882,8A,9.734304,56.266853
1509080,Jernbanegade,8882,8B,9.734201,56.266867
1509081,Jernbanegade,8882,8C,9.734078,56.266917
1509082,Jernbanegade,8882,8D,9.734041,56.266986
1509083,Jernbanegade,8882,8E,9.733994,56.266947
1509084,Jernbanegade,8882,10,9.734182,56.26674
1509085,Jernbanegade,8882,12A,9.734092,56.266671
1509086,Jernbanegade,8882,12B,9.734032,56.266631
1509087,Jernbanegade,8882,13,9.733851,56.265971
1509088,Jernbanegade,8882,14,9.733905,56.266495
1509089,Jernbanegade,8882,15,9.733361,56.265588
1509090,Jernbanegade,8882,17A,9.732543,56.265283
1509091,Jernbanegade,8882,17B,9.732447,56.265212
1509092,Jernbanegade,8882,19,9.732181,56.265078
1509093,Jernbanegade,8882,20A,9.733083,56.265784
1509094,Jernbanegade,8882,20B,9.733002,56.265783
1509095,Jernbanegade,8882,20C,9.733079,56.265842
1509096,Jernbanegade,8882,20D,9.733073,56.265887
1509097,Jernbanegade,8882,20E,9.732954,56.265902
1509098,Jernbanegade,8882,21,9.731885,56.264844
1509099,Jernbanegade,8882,22,9.732905,56.265645
1509100,Jernbanegade,8882,23A,9.731579,56.264514
1509101,Jernbanegade,8882,23B,9.731364,56.264532
1509102,Jernbanegade,8882,23C,9.731309,56.264472
1509103,Jernbanegade,8882,23D,9.731123,56.264383
1509104,Jernbanegade,8882,24,9.732803,56.265599
1509105,Jernbanegade,8882,24B,9.732585,56.26559
1509106,Jernbanegade,8882,24C,9.732478,56.265596
1509107,Jernbanegade,8882,24D,9.73237,56.265605
1509108,Jernbanegade,8882,24E,9.732263,56.265612
1509109,Jernbanegade,8882,25,9.730841,56.264575
1509110,Jernbanegade,8882,26A,9.731903,56.265691
1509111,Jernbanegade,8882,26B,9.732078,56.266153
1509112,Jernbanegade,8882,27,9.730092,56.264614
1509113,Jernbanegade,8882,28,9.732227,56.265379
1509114,Jernbanegade,8882,30,9.732032,56.265282
1509115,Jernbanegade,8882,32,9.731871,56.265167
1509116,Jernbanegade,8882,34,9.731666,56.265013
1509117,Jernbanegade,8882,36A,9.731458,56.26489
1509118,Jernbanegade,8882,36B,9.731513,56.264867
1509119,Jernbanegade,8882,38,9.731362,56.26477
1509120,Jernbanegade,8882,40,9.730659,56.264801
1509121,Jernbanegade,8882,44,9.730396,56.264881
1509426,Markedsgade,8882,2A,9.733566,56.266207
1509427,Markedsgade,8882,2B,9.733628,56.266269
1509428,Markedsgade,8882,2C,9.733691,56.266326
1509429,Markedsgade,8882,2D,9.733351,56.266361
1509430,Markedsgade,8882,2E,9.733225,56.26641
1509431,Markedsgade,8882,2F,9.73314,56.26647
1509432,Markedsgade,8882,2G,9.733016,56.266548
1509433,Markedsgade,8882,2H,9.733456,56.266417
1509434,Markedsgade,8882,3,9.732743,56.266353
1509435,Markedsgade,8882,4,9.732764,56.266642
1509436,Markedsgade,8882,4B,9.7328335,56.2668194
1509437,Markedsgade,8882,5,9.732302,56.266434
1509438,Markedsgade,8882,6,9.732327,56.266901
1509439,Markedsgade,8882,7,9.731475,56.266879
1509440,Markedsgade,8882,8,9.73202,56.26696
1509441,Markedsgade,8882,10,9.731744,56.267068
1509442,Markedsgade,8882,11,9.730775,56.267159
1509443,Markedsgade,8882,13,9.730399,56.267312
1509444,Markedsgade,8882,15,9.730171,56.26743
1509445,Markedsgade,8882,16,9.730627,56.26755
1509446,Markedsgade,8882,17,9.729763,56.267584
1509447,Markedsgade,8882,18,9.730327,56.267654
1509448,Markedsgade,8882,19,9.729427,56.267729
1509449,Markedsgade,8882,20,9.729911,56.267829
1509450,Markedsgade,8882,21,9.729144,56.267828
1509451,Markedsgade,8882,22,9.729661,56.267936
1509452,Markedsgade,8882,23,9.728814,56.267982
1509453,Markedsgade,8882,24,9.72938,56.268058
1509454,Markedsgade,8882,25,9.728524,56.268104
1509455,Markedsgade,8882,26,9.729162,56.268172
1509456,Markedsgade,8882,27,9.728227,56.268224
1509457,Markedsgade,8882,28,9.728847,56.268306
1509458,Markedsgade,8882,29,9.727969,56.268316
1509459,Markedsgade,8882,30,9.728591,56.268458
1509460,Markedsgade,8882,31,9.727473,56.268513
1509461,Markedsgade,8882,32,9.728242,56.268551
1509462,Markedsgade,8882,33,9.727206,56.268662
1509463,Markedsgade,8882,34,9.72802,56.26881
1509464,Markedsgade,8882,35,9.726896,56.268782
1509465,Markedsgade,8882,36,9.727633,56.268813
1510179,Truust Gade,8882,2,9.682643,56.287386
1510180,Truust Gade,8882,3,9.681875,56.287166
1510181,Truust Gade,8882,3B,9.681613,56.287013
1510182,Truust Gade,8882,4,9.681741,56.287867
1510183,Truust Gade,8882,5,9.681931,56.286958
1510184,Truust Gade,8882,6,9.681353,56.287482
1510185,Truust Gade,8882,6B,9.681323,56.28742
1510186,Truust Gade,8882,7,9.68128,56.28721
1510187,Truust Gade,8882,8,9.680962,56.287472
1510188,Truust Gade,8882,9,9.680994,56.287227
1510189,Truust Gade,8882,11A,9.680806,56.287255
1510190,Truust Gade,8882,11B,9.680681,56.287259
1510191,Truust Gade,8882,12,9.679956,56.287537
1510192,Truust Gade,8882,12B,9.682451,56.28887
1510193,Truust Gade,8882,13,9.680373,56.287286
1510194,Truust Gade,8882,15,9.679655,56.287336
1510195,Truust Gade,8882,16,9.679106,56.287648
1510196,Truust Gade,8882,17,9.679102,56.287341
1510197,Truust Gade,8882,18,9.678733,56.287762
1510198,Truust Gade,8882,22,9.678346,56.287961
1510199,Truust Gade,8882,23,9.677772,56.287426
1510200,Truust Gade,8882,24,9.678333,56.288146
1510201,Truust Gade,8882,25,9.67666,56.287173
1510202,Truust Gade,8882,26,9.678108,56.288533
1510203,Truust Gade,8882,28,9.677714,56.288689
1510204,Truust Gade,8882,29,9.675662,56.287422
1510205,Truust Gade,8882,30,9.677931,56.289291
1510206,Truust Gade,8882,32,9.677399,56.289117
1510207,Truust Gade,8882,33,9.67495,56.287602
1510208,Truust Gade,8882,35,9.675449,56.287656
1510209,Truust Gade,8882,37,9.675947,56.287722
1510210,Truust Gade,8882,41,9.676411,56.287675
1510211,Truust Gade,8882,43,9.676635,56.287867
1510212,Truust Gade,8882,45,9.677725,56.287899
1510213,Truust Gade,8882,47,9.678118,56.287618
1510214,Truust Gade,8882,62,9.673136,56.293703
1510215,Truust Gade,8882,64,9.672712,56.294117
1510216,Truust Gade,8882,66,9.672367,56.294514
1510217,Truust Gade,8882,68,9.672334,56.294962
1510218,Truust Gade,8882,70,9.671305,56.29528
1510219,Truust Gade,8882,72,9.670957,56.29587
1510220,Truust Gade,8882,75,9.671697,56.29425
1510221,Truust Gade,8882,85,9.669815,56.296006
1510222,Truust Gade,8882,89,9.671204,56.297201
1510223,Truust Gade,8882,93,9.670212,56.296621
1510224,Truust Gade,8882,93B,9.67063,56.296314
1510225,Truust Gade,8882,99,9.670909,56.29642
1510471,Poppelvej,8882,1,9.723625,56.266338
1510472,Poppelvej,8882,3A,9.723016,56.266219
1510473,Poppelvej,8882,3B,9.722735,56.266407
1510474,Poppelvej,8882,4,9.723474,56.266642
1510475,Poppelvej,8882,5,9.722629,56.266163
1510476,Poppelvej,8882,6,9.723093,56.266747
1510477,Poppelvej,8882,7,9.722219,56.266241
1510478,Poppelvej,8882,8,9.722802,56.266937
1510479,Poppelvej,8882,9A,9.722124,56.266523
1510480,Poppelvej,8882,9B,9.722313,56.266688
1510481,Poppelvej,8882,10,9.722928,56.26722
1510482,Poppelvej,8882,11,9.72194,56.266795
1510483,Poppelvej,8882,12,9.723157,56.267403
1510484,Poppelvej,8882,13A,9.721502,56.267032
1510485,Poppelvej,8882,13B,9.723193,56.268383
1510486,Poppelvej,8882,14,9.723239,56.267666
1510487,Poppelvej,8882,15,9.721915,56.267126
1510488,Poppelvej,8882,16,9.723304,56.267915
1510489,Poppelvej,8882,17,9.722311,56.267082
1510490,Poppelvej,8882,18,9.723357,56.268151
1510491,Poppelvej,8882,19,9.722489,56.267327
1510492,Poppelvej,8882,21,9.722601,56.267502
1510493,Poppelvej,8882,23,9.722681,56.267783
1510494,Poppelvej,8882,25,9.722823,56.267973
1510495,Poppelvej,8882,27,9.722817,56.268249
1510646,Teglgårdsparken,8882,1,9.666588,56.273765
1510647,Teglgårdsparken,8882,2,9.666494,56.273561
1510648,Teglgårdsparken,8882,3,9.6668631,56.2735004
1510649,Teglgårdsparken,8882,4,9.666729,56.27321
1510650,Teglgårdsparken,8882,5,9.6663411,56.2732732
1510651,Teglgårdsparken,8882,6,9.665607,56.273209
1510652,Teglgårdsparken,8882,7,9.665752,56.273412
1510653,Teglgårdsparken,8882,8,9.665897,56.273605
1510654,Teglgårdsparken,8882,9,9.665985,56.273831
1510655,Teglgårdsparken,8882,10,9.666513,56.2740946
1510656,Teglgårdsparken,8882,11,9.66688,56.2740983
1510657,Teglgårdsparken,8882,12,9.666988,56.274379
1510658,Teglgårdsparken,8882,13,9.666549,56.274471
1510659,Teglgårdsparken,8882,14,9.667082,56.274775
1510660,Teglgårdsparken,8882,15,9.666763,56.274883
1510661,Teglgårdsparken,8882,16,9.666252,56.275006
1510662,Teglgårdsparken,8882,17,9.665721,56.275086
1510663,Teglgårdsparken,8882,18,9.665679,56.274816
1510664,Teglgårdsparken,8882,19,9.666158,56.274717
1510665,Teglgårdsparken,8882,20,9.66596,56.274464
1510666,Teglgårdsparken,8882,21,9.665391,56.2745779
1510667,Teglgårdsparken,8882,22,9.665427,56.274322
1510668,Teglgårdsparken,8882,23,9.665751,56.274262
1510669,Teglgårdsparken,8882,24,9.665416,56.273961
1510670,Teglgårdsparken,8882,25,9.665229,56.273714
1510671,Teglgårdsparken,8882,26,9.665064,56.273438
1510672,Teglgårdsparken,8882,27,9.665015,56.273196
1510673,Teglgårdsparken,8882,28,9.664115,56.273174
1510674,Teglgårdsparken,8882,29,9.66374,56.273243
1510675,Teglgårdsparken,8882,30,9.663365,56.273277
1510676,Teglgårdsparken,8882,31,9.663744,56.273597
1510677,Teglgårdsparken,8882,32,9.66441,56.273471
1510678,Teglgårdsparken,8882,33,9.664564,56.273797
1510679,Teglgårdsparken,8882,34,9.664007,56.2739
1510680,Teglgårdsparken,8882,35,9.664067,56.274118
1510681,Teglgårdsparken,8882,36,9.664623,56.274031
1510682,Teglgårdsparken,8882,37,9.664779,56.274476
1510683,Teglgårdsparken,8882,38,9.664453,56.275154
1510684,Teglgårdsparken,8882,39,9.665115,56.274991
1510685,Teglgårdsparken,8882,40,9.6653008,56.2751879
1510686,Teglgårdsparken,8882,41,9.664635,56.275346
1510687,Teglgårdsparken,8882,42,9.664061,56.275478
1510688,Teglgårdsparken,8882,43,9.663984,56.275208
1510689,Teglgårdsparken,8882,44,9.663768,56.274934
1510690,Teglgårdsparken,8882,45,9.663586,56.2747
1510691,Teglgårdsparken,8882,46,9.663263,56.274293
1510692,Teglgårdsparken,8882,47,9.6631582,56.2741126
1510693,Teglgårdsparken,8882,48,9.6629983,56.2738662
1510694,Teglgårdsparken,8882,49,9.6630052,56.2736706
1510695,Teglgårdsparken,8882,50,9.662465,56.27357
1510696,Teglgårdsparken,8882,51,9.662589,56.27333
1510697,Teglgårdsparken,8882,52,9.6622985,56.2731051
1510698,Teglgårdsparken,8882,53,9.661597,56.273194
1510699,Teglgårdsparken,8882,54,9.66103,56.273302
1510700,Teglgårdsparken,8882,55,9.661333,56.273573
1510701,Teglgårdsparken,8882,56,9.66187,56.273483
1510702,Teglgårdsparken,8882,57,9.662168,56.273741
1510703,Teglgårdsparken,8882,58,9.661608,56.273934
1510704,Teglgårdsparken,8882,59,9.6618383,56.2740966
1510705,Teglgårdsparken,8882,60,9.662463,56.274112
1510706,Teglgårdsparken,8882,61,9.662531,56.274494
1510707,Teglgårdsparken,8882,62,9.662254,56.274581
1510708,Teglgårdsparken,8882,63,9.663016,56.274794
1510709,Teglgårdsparken,8882,64,9.663211,56.275076
1510710,Teglgårdsparken,8882,65,9.663427,56.27525
1510711,Teglgårdsparken,8882,66,9.663656,56.275596
1510712,Teglgårdsparken,8882,67,9.6631059,56.2757574
1510713,Teglgårdsparken,8882,68,9.662753,56.275844
1510714,Teglgårdsparken,8882,69,9.66254,56.275621
1510715,Teglgårdsparken,8882,70,9.662991,56.275483
1510716,Teglgårdsparken,8882,71,9.662756,56.275192
1510717,Teglgårdsparken,8882,72,9.662296,56.275311
1510718,Teglgårdsparken,8882,73,9.6621223,56.2750554
1510719,Teglgårdsparken,8882,74,9.662527,56.274888
1510720,Teglgårdsparken,8882,75,9.6667951,56.2715227
1510721,Teglgårdsparken,8882,76,9.667194,56.271605
1510722,Teglgårdsparken,8882,77,9.66727,56.271248
1510723,Teglgårdsparken,8882,78,9.666733,56.271241
1510724,Teglgårdsparken,8882,79,9.66669,56.270857
1510725,Teglgårdsparken,8882,80,9.6674011,56.2707891
1510726,Teglgårdsparken,8882,81,9.667263,56.270457
1510727,Teglgårdsparken,8882,82,9.667129,56.270214
1510728,Teglgårdsparken,8882,83,9.666718,56.270451
1510729,Teglgårdsparken,8882,84,9.666131,56.270478
1510730,Teglgårdsparken,8882,85,9.6662617,56.2707895
1510731,Teglgårdsparken,8882,86,9.666288,56.27103
1510732,Teglgårdsparken,8882,87,9.6662271,56.2713245
1510733,Teglgårdsparken,8882,88,9.666286,56.271572
1510734,Teglgårdsparken,8882,89,9.666449,56.271857
1510735,Teglgårdsparken,8882,90,9.667104,56.271928
1510736,Teglgårdsparken,8882,91,9.666824,56.272175
1510737,Teglgårdsparken,8882,92,9.666382,56.272188
1510738,Teglgårdsparken,8882,93,9.666404,56.272443
1510739,Teglgårdsparken,8882,94,9.667019,56.27245
1510740,Teglgårdsparken,8882,95,9.6670086,56.2727291
1510741,Teglgårdsparken,8882,96,9.666615,56.272826
1510742,Teglgårdsparken,8882,97,9.666148,56.272879
1510743,Teglgårdsparken,8882,98,9.665718,56.272864
1510744,Teglgårdsparken,8882,99,9.665581,56.272699
1510745,Teglgårdsparken,8882,100,9.665511,56.272475
1510746,Teglgårdsparken,8882,101,9.66572,56.272315
1510747,Teglgårdsparken,8882,102,9.665667,56.272123
1510748,Teglgårdsparken,8882,103,9.665643,56.271906
1510749,Teglgårdsparken,8882,104,9.665641,56.271565
1510750,Teglgårdsparken,8882,105,9.6656449,56.2713851
1510751,Teglgårdsparken,8882,106,9.665497,56.271149
1510752,Teglgårdsparken,8882,107,9.665391,56.27096
1510753,Teglgårdsparken,8882,108,9.665395,56.270726
1510754,Teglgårdsparken,8882,109,9.664759,56.270766
1510755,Teglgårdsparken,8882,110,9.664739,56.270988
1510756,Teglgårdsparken,8882,111,9.6648,56.271182
1510757,Teglgårdsparken,8882,112,9.664731,56.271391
1510758,Teglgårdsparken,8882,113,9.664779,56.271618
1510759,Teglgårdsparken,8882,114,9.664722,56.271946
1510760,Teglgårdsparken,8882,115,9.664794,56.27214
1510761,Teglgårdsparken,8882,116,9.6647337,56.2724021
1510762,Teglgårdsparken,8882,117,9.664756,56.272635
1510763,Teglgårdsparken,8882,118,9.664981,56.272874
1510764,Teglgårdsparken,8882,119,9.664069,56.272813
1510765,Teglgårdsparken,8882,120,9.664132,56.272592
1510766,Teglgårdsparken,8882,121,9.664155,56.272391
1510767,Teglgårdsparken,8882,122,9.664203,56.272167
1510768,Teglgårdsparken,8882,123,9.664195,56.271914
1510769,Teglgårdsparken,8882,124,9.663951,56.271623
1510770,Teglgårdsparken,8882,125,9.664088,56.271426
1510771,Teglgårdsparken,8882,126,9.663928,56.27122
1510772,Teglgårdsparken,8882,127,9.663973,56.270994
1510773,Teglgårdsparken,8882,128,9.663718,56.270775
1510774,Teglgårdsparken,8882,129,9.663281,56.270877
1510775,Teglgårdsparken,8882,130,9.663262,56.271088
1510776,Teglgårdsparken,8882,131,9.663321,56.271342
1510777,Teglgårdsparken,8882,132,9.663116,56.271683
1510778,Teglgårdsparken,8882,133,9.6631863,56.2720366
1510779,Teglgårdsparken,8882,134,9.663392,56.272193
1510780,Teglgårdsparken,8882,135,9.663522,56.272469
1510781,Teglgårdsparken,8882,136,9.6635643,56.2728684
1510782,Teglgårdsparken,8882,137,9.662809,56.272768
1510783,Teglgårdsparken,8882,138,9.662557,56.272507
1510784,Teglgårdsparken,8882,139,9.662853,56.272218
1510785,Teglgårdsparken,8882,140,9.66272,56.272012
1510786,Teglgårdsparken,8882,141,9.662516,56.271647
1510787,Teglgårdsparken,8882,142,9.662647,56.271412
1510788,Teglgårdsparken,8882,143,9.662629,56.271089
1510789,Teglgårdsparken,8882,144,9.66242,56.270882
1510790,Teglgårdsparken,8882,145,9.661646,56.270997
1510791,Teglgårdsparken,8882,146,9.661219,56.271043
1510792,Teglgårdsparken,8882,147,9.661622,56.271252
1510793,Teglgårdsparken,8882,148,9.661549,56.271445
1510794,Teglgårdsparken,8882,149,9.661624,56.2716769
1510795,Teglgårdsparken,8882,150,9.6620995,56.2720942
1510796,Teglgårdsparken,8882,151,9.661434,56.272266
1510797,Teglgårdsparken,8882,152,9.661546,56.272489
1510798,Teglgårdsparken,8882,153,9.661825,56.272713
1510799,Teglgårdsparken,8882,154,9.6619505,56.272854
1510800,Teglgårdsparken,8882,155,9.6611622,56.27291
1510801,Teglgårdsparken,8882,156,9.660998,56.272668
1510802,Teglgårdsparken,8882,157,9.660813,56.272434
1510803,Teglgårdsparken,8882,158,9.6608093,56.2722276
1510804,Teglgårdsparken,8882,159,9.6601734,56.272208
1510805,Teglgårdsparken,8882,160,9.660091,56.272462
1510806,Teglgårdsparken,8882,161,9.660318,56.272734
1510807,Teglgårdsparken,8882,162,9.660364,56.272901
1510808,Teglgårdsparken,8882,163,9.659704,56.272909
1510809,Teglgårdsparken,8882,164,9.659491,56.272733
1510810,Teglgårdsparken,8882,165,9.659282,56.272407
1510811,Teglgårdsparken,8882,166,9.659219,56.272203
1510812,Teglgårdsparken,8882,167,9.666209,56.269482
1510813,Teglgårdsparken,8882,168,9.665827,56.269405
1510814,Teglgårdsparken,8882,169,9.665549,56.269531
1510815,Teglgårdsparken,8882,170,9.666012,56.269876
1510816,Teglgårdsparken,8882,171,9.666525,56.269766
1510817,Teglgårdsparken,8882,172,9.666821,56.269963
1510818,Teglgårdsparken,8882,173,9.666187,56.270103
1510819,Teglgårdsparken,8882,174,9.66556,56.270186
1510820,Teglgårdsparken,8882,175,9.665188,56.270053
1510821,Teglgårdsparken,8882,176,9.665193,56.26981
1510822,Teglgårdsparken,8882,177,9.6650662,56.2695999
1510823,Teglgårdsparken,8882,178,9.664859,56.269392
1510824,Teglgårdsparken,8882,179,9.664826,56.269136
1510825,Teglgårdsparken,8882,180,9.665207,56.269051
1510826,Teglgårdsparken,8882,181,9.665754,56.269146
1510827,Teglgårdsparken,8882,182,9.665105,56.268801
1510828,Teglgårdsparken,8882,183,9.664664,56.268846
1510829,Teglgårdsparken,8882,184,9.664267,56.268884
1510830,Teglgårdsparken,8882,185,9.663792,56.268699
1510831,Teglgårdsparken,8882,186,9.663865,56.268997
1510832,Teglgårdsparken,8882,187,9.663471,56.269083
1510833,Teglgårdsparken,8882,188,9.663094,56.268636
1510834,Teglgårdsparken,8882,189,9.662719,56.26864
1510835,Teglgårdsparken,8882,190,9.663037,56.269138
1510836,Teglgårdsparken,8882,191,9.664055,56.269325
1510837,Teglgårdsparken,8882,192,9.664187,56.269527
1510838,Teglgårdsparken,8882,193,9.664387,56.269715
1510839,Teglgårdsparken,8882,194,9.664465,56.269988
1510840,Teglgårdsparken,8882,195,9.664667,56.270205
1510841,Teglgårdsparken,8882,196,9.664835,56.270371
1510842,Teglgårdsparken,8882,197,9.66413,56.270478
1510843,Teglgårdsparken,8882,198,9.663916,56.27023
1510844,Teglgårdsparken,8882,199,9.66389,56.270024
1510845,Teglgårdsparken,8882,200,9.663722,56.269855
1510846,Teglgårdsparken,8882,201,9.663617,56.26965
1510847,Teglgårdsparken,8882,202,9.663478,56.269427
1510848,Teglgårdsparken,8882,203,9.662717,56.269546
1510849,Teglgårdsparken,8882,204,9.662852,56.269804
1510850,Teglgårdsparken,8882,205,9.662953,56.270033
1510851,Teglgårdsparken,8882,206,9.663203,56.270223
1510852,Teglgårdsparken,8882,207,9.663313,56.270565
1510853,Teglgårdsparken,8882,208,9.662673,56.270585
1510854,Teglgårdsparken,8882,209,9.662422,56.270374
1510855,Teglgårdsparken,8882,210,9.662381,56.270136
1510856,Teglgårdsparken,8882,211,9.662236,56.269905
1510857,Teglgårdsparken,8882,212,9.662156,56.269692
1510858,Teglgårdsparken,8882,213,9.66253,56.2693
1510859,Teglgårdsparken,8882,214,9.662371,56.269008
1510860,Teglgårdsparken,8882,215,9.662229,56.268767
1510861,Teglgårdsparken,8882,216,9.661961,56.268537
1510862,Teglgårdsparken,8882,217,9.661452,56.268584
1510863,Teglgårdsparken,8882,218,9.661527,56.268815
1510864,Teglgårdsparken,8882,219,9.661648,56.269056
1510865,Teglgårdsparken,8882,220,9.661926,56.269325
1510866,Teglgårdsparken,8882,221,9.6615056,56.269458
1510867,Teglgårdsparken,8882,222,9.661251,56.269207
1510868,Teglgårdsparken,8882,223,9.661041,56.269589
1510869,Teglgårdsparken,8882,224,9.661419,56.26986
1510870,Teglgårdsparken,8882,225,9.661668,56.270096
1510871,Teglgårdsparken,8882,226,9.66173,56.27035
1510872,Teglgårdsparken,8882,227,9.661971,56.270631
1510873,Teglgårdsparken,8882,228,9.661341,56.270669
1510874,Teglgårdsparken,8882,229,9.661321,56.270442
1510875,Teglgårdsparken,8882,230,9.661167,56.27028
1510876,Teglgårdsparken,8882,231,9.660973,56.270089
1510877,Teglgårdsparken,8882,232,9.6609187,56.2698809
1510878,Teglgårdsparken,8882,233,9.660021,56.269607
1510879,Teglgårdsparken,8882,234,9.661301,56.271907
1510880,Teglgårdsparken,8882,235,9.660473,56.271881
1510881,Teglgårdsparken,8882,252,9.663164,56.276321
1510882,Pramdragerparken,8882,1,9.672212,56.279775
1510883,Pramdragerparken,8882,2,9.67259,56.279771
1510884,Pramdragerparken,8882,3,9.672922,56.279894
1510885,Pramdragerparken,8882,4,9.672193,56.279958
1510886,Pramdragerparken,8882,5,9.672533,56.280177
1510887,Pramdragerparken,8882,6,9.67312,56.2801
1510888,Pramdragerparken,8882,7,9.673391,56.280244
1510889,Pramdragerparken,8882,8,9.672604,56.280419
1510890,Pramdragerparken,8882,9,9.672817,56.280574
1510891,Pramdragerparken,8882,10,9.673544,56.280495
1510892,Pramdragerparken,8882,11,9.67387,56.280652
1510893,Pramdragerparken,8882,12,9.673177,56.280803
1510894,Pramdragerparken,8882,13,9.672321,56.280905
1510895,Pramdragerparken,8882,14,9.672149,56.280724
1510896,Pramdragerparken,8882,15,9.672051,56.280472
1510897,Pramdragerparken,8882,16,9.67177,56.28028
1510898,Pramdragerparken,8882,17,9.671709,56.2801
1510899,Pramdragerparken,8882,18,9.671472,56.27989
1510900,Pramdragerparken,8882,19,9.670787,56.280035
1510901,Pramdragerparken,8882,20,9.671011,56.280216
1510902,Pramdragerparken,8882,21,9.671076,56.280431
1510903,Pramdragerparken,8882,22,9.671273,56.280618
1510904,Pramdragerparken,8882,23,9.671295,56.280864
1510905,Pramdragerparken,8882,24,9.671356,56.281039
1510906,Pramdragerparken,8882,25,9.670865,56.28118
1510907,Pramdragerparken,8882,26,9.670593,56.280958
1510908,Pramdragerparken,8882,27,9.670598,56.280749
1510909,Pramdragerparken,8882,28,9.670402,56.280561
1510910,Pramdragerparken,8882,29,9.670251,56.280344
1510911,Pramdragerparken,8882,30,9.670055,56.280157
1510912,Pramdragerparken,8882,31,9.669492,56.28012
1510913,Pramdragerparken,8882,32,9.66961,56.280288
1510914,Pramdragerparken,8882,33,9.669812,56.280515
1510915,Pramdragerparken,8882,34,9.669851,56.280716
1510916,Pramdragerparken,8882,35,9.670037,56.280908
1510917,Pramdragerparken,8882,36,9.6699747,56.2810797
1510918,Pramdragerparken,8882,37,9.670178,56.28129
1510919,Pramdragerparken,8882,38,9.669509,56.281341
1510920,Pramdragerparken,8882,39,9.669353,56.281115
1510921,Pramdragerparken,8882,40,9.669289,56.280873
1510922,Pramdragerparken,8882,41,9.669083,56.280733
1510923,Pramdragerparken,8882,42,9.668905,56.280532
1510924,Pramdragerparken,8882,43,9.668817,56.280313
1510925,Pramdragerparken,8882,44,9.668851,56.28008
1510926,Pramdragerparken,8882,45,9.668367,56.279889
1510927,Pramdragerparken,8882,46,9.670566,56.279684
1510928,Pramdragerparken,8882,47,9.670853,56.279497
1510929,Pramdragerparken,8882,48,9.67133,56.279561
1510930,Pramdragerparken,8882,49,9.671615,56.279456
1510931,Pramdragerparken,8882,50,9.672045,56.2793
1510932,Pramdragerparken,8882,51,9.672424,56.279244
1510933,Pramdragerparken,8882,52,9.672125,56.279052
1510934,Pramdragerparken,8882,53,9.671379,56.27914
1510935,Pramdragerparken,8882,54,9.671174,56.278882
1510936,Pramdragerparken,8882,55,9.670983,56.279223
1510937,Pramdragerparken,8882,56,9.670803,56.279009
1510938,Pramdragerparken,8882,57,9.670295,56.279077
1510939,Pramdragerparken,8882,58,9.67043,56.27934
1510940,Pramdragerparken,8882,59,9.670033,56.278512
1510941,Pramdragerparken,8882,60,9.67017,56.278831
1510942,Pramdragerparken,8882,61,9.670539,56.278726
1510943,Pramdragerparken,8882,62,9.670431,56.27844
1510944,Pramdragerparken,8882,63,9.671066,56.278658
1510945,Pramdragerparken,8882,64,9.670894,56.27844
1510946,Pramdragerparken,8882,65,9.670429,56.278051
1510947,Pramdragerparken,8882,66,9.67011,56.278166
1510948,Pramdragerparken,8882,67,9.66983,56.277888
1510949,Pramdragerparken,8882,68,9.66945,56.277964
1510950,Pramdragerparken,8882,69,9.669651,56.278271
1510951,Pramdragerparken,8882,70,9.669003,56.277765
1510952,Pramdragerparken,8882,71,9.669495,56.277676
1510953,Pramdragerparken,8882,72,9.669311,56.27748
1510954,Pramdragerparken,8882,73,9.668847,56.277514
1510955,Pramdragerparken,8882,74,9.668655,56.277338
1510956,Pramdragerparken,8882,75,9.669017,56.277182
1510957,Pramdragerparken,8882,76,9.668812,56.277043
1510958,Pramdragerparken,8882,77,9.668513,56.277009
1510959,Pramdragerparken,8882,78,9.667971,56.277107
1510960,Pramdragerparken,8882,79,9.6679939,56.2773067
1510961,Pramdragerparken,8882,80,9.667994,56.27761
1510962,Pramdragerparken,8882,81,9.667506,56.277389
1510963,Pramdragerparken,8882,82,9.667551,56.277678
1510964,Pramdragerparken,8882,83,9.667085,56.277768
1510965,Pramdragerparken,8882,84,9.665496,56.278474
1510966,Pramdragerparken,8882,85,9.665911,56.27836
1510967,Pramdragerparken,8882,86,9.666318,56.278379
1510968,Pramdragerparken,8882,87,9.666678,56.278292
1510969,Pramdragerparken,8882,88,9.666983,56.278229
1510970,Pramdragerparken,8882,89,9.66734,56.278114
1510971,Pramdragerparken,8882,90,9.667707,56.278011
1510972,Pramdragerparken,8882,91,9.668129,56.278021
1510973,Pramdragerparken,8882,92,9.668367,56.277888
1510974,Pramdragerparken,8882,93,9.669472,56.27918
1510975,Pramdragerparken,8882,94,9.669129,56.279187
1510976,Pramdragerparken,8882,95,9.668906,56.279015
1510977,Pramdragerparken,8882,96,9.669512,56.278875
1510978,Pramdragerparken,8882,97,9.669398,56.278653
1510979,Pramdragerparken,8882,98,9.668812,56.278773
1510980,Pramdragerparken,8882,99,9.668737,56.278559
1510981,Pramdragerparken,8882,100,9.669049,56.278512
1510982,Pramdragerparken,8882,101,9.668923,56.278224
1510983,Pramdragerparken,8882,102,9.66862,56.278225
1510984,Pramdragerparken,8882,103,9.668282,56.278265
1510985,Pramdragerparken,8882,104,9.6678024,56.2783256
1510986,Pramdragerparken,8882,105,9.667867,56.27857
1510987,Pramdragerparken,8882,106,9.667899,56.278769
1510988,Pramdragerparken,8882,107,9.668108,56.278967
1510989,Pramdragerparken,8882,108,9.668218,56.27915
1510990,Pramdragerparken,8882,109,9.66837,56.27933
1510991,Pramdragerparken,8882,110,9.66868,56.279337
1510992,Pramdragerparken,8882,111,9.66889,56.279611
1510993,Pramdragerparken,8882,112,9.66931,56.279538
1510994,Pramdragerparken,8882,113,9.66932,56.279803
1510995,Pramdragerparken,8882,114,9.670024,56.279799
1510996,Pramdragerparken,8882,115,9.669861,56.279537
1510997,Pramdragerparken,8882,116,9.667586,56.279555
1510998,Pramdragerparken,8882,117,9.667511,56.279316
1510999,Pramdragerparken,8882,118,9.667237,56.279057
1511000,Pramdragerparken,8882,119,9.667183,56.278767
1511001,Pramdragerparken,8882,120,9.666926,56.278516
1511002,Pramdragerparken,8882,121,9.666365,56.278608
1511003,Pramdragerparken,8882,122,9.666476,56.278806
1511004,Pramdragerparken,8882,123,9.666604,56.279031
1511005,Pramdragerparken,8882,124,9.666746,56.279273
1511006,Pramdragerparken,8882,125,9.666884,56.279462
1511007,Pramdragerparken,8882,126,9.666998,56.279675
1511008,Pramdragerparken,8882,127,9.666377,56.279749
1511009,Pramdragerparken,8882,128,9.66611,56.279597
1511010,Pramdragerparken,8882,129,9.666066,56.279383
1511011,Pramdragerparken,8882,130,9.666047,56.2791343
1511012,Pramdragerparken,8882,131,9.666026,56.27891
1511013,Pramdragerparken,8882,132,9.665866,56.278724
1511014,Pramdragerparken,8882,132B,9.665474,56.279044
1511015,Pramdragerparken,8882,133,9.665358,56.279342
1511016,Pramdragerparken,8882,134,9.665498,56.27956
1511017,Pramdragerparken,8882,135,9.6658086,56.2798026
1511734,Erhvervsparken,8882,1,9.721935,56.269704
1511735,Erhvervsparken,8882,4,9.72227,56.270325
1511736,Erhvervsparken,8882,7,9.721319,56.268779
1511737,Erhvervsparken,8882,9,9.721084,56.268526
1511738,Erhvervsparken,8882,13,9.720793,56.268163
1511739,Erhvervsparken,8882,15,9.721002,56.267857
1511740,Erhvervsparken,8882,19,9.720518,56.26743
1511741,Erhvervsparken,8882,20,9.713085,56.273734
1511742,Erhvervsparken,8882,22,9.710528,56.275867
1511743,Erhvervsparken,8882,23,9.720581,56.266922
1511744,Erhvervsparken,8882,24,9.707194,56.276663
1511745,Erhvervsparken,8882,39,9.7195587,56.2676966
1511746,Erhvervsparken,8882,41,9.71982,56.268085
1511747,Erhvervsparken,8882,43,9.72028,56.268304
1511748,Erhvervsparken,8882,55,9.72169,56.270051
1511749,Erhvervsparken,8882,55B,9.721658,56.270293
1511750,Erhvervsparken,8882,57,9.720057,56.270579
1511751,Erhvervsparken,8882,65,9.719406,56.269821
1511752,Erhvervsparken,8882,89,9.717251,56.268414
1511753,Erhvervsparken,8882,103,9.719571,56.270809
2057801,Holtlundsvej,8882,3,9.745979,56.275088
2057802,Holtlundsvej,8882,8,9.748635,56.273481
2057803,Holtlundsvej,8882,9,9.750178,56.273947
2057804,Holtlundsvej,8882,14,9.754506,56.270876
2057805,Holtlundsvej,8882,18,9.757484,56.270292
2059896,Skorupgårdsvej,8882,4,9.744849,56.265121
2059903,Skorupgårdsvej,8882,8,9.747918,56.268162
2059905,Skorupgårdsvej,8882,9,9.74442,56.269513
2059907,Skorupgårdsvej,8882,15,9.7428234,56.2730622
2059909,Skorupgårdsvej,8882,20,9.743788,56.275146
2059912,Skorupgårdsvej,8882,25,9.742939,56.277179
2059916,Skorupgårdsvej,8882,29,9.742971,56.277478
2059918,Skorupgårdsvej,8882,31,9.742891,56.277644
2059921,Skorupgårdsvej,8882,33,9.742866,56.277869
2059924,Skorupgårdsvej,8882,35,9.742966,56.278182
2059926,Skorupgårdsvej,8882,37,9.742914,56.278488
2059927,Skorupgårdsvej,8882,38,9.743526,56.278806
2059928,Skorupgårdsvej,8882,39,9.742806,56.278841
2060428,Mosekærvej,8882,2,9.743259,56.28122
2060430,Mosekærvej,8882,5,9.742941,56.280985
2060433,Mosekærvej,8882,7,9.742656,56.280907
2060435,Mosekærvej,8882,9,9.741703,56.280915
2061061,Viborgvej,8882,2,9.735747,56.268759
2061062,Viborgvej,8882,16,9.726001,56.272436
2061063,Viborgvej,8882,22,9.72121,56.274941
2061064,Viborgvej,8882,24,9.720293,56.277024
2061065,Viborgvej,8882,26,9.717917,56.276334
2061066,Viborgvej,8882,27,9.716325,56.275434
2061067,Viborgvej,8882,30,9.716678,56.277832
2061068,Viborgvej,8882,34,9.71906,56.28078
2061069,Viborgvej,8882,39,9.709731,56.278161
2061070,Viborgvej,8882,66,9.678085,56.293047
2064134,Klostergårdsvej,8882,11,9.6860835,56.3009794
2064135,Klostergårdsvej,8882,12,9.690797,56.302453
2064137,Klostergårdsvej,8882,14,9.6840485,56.3010438
2064149,Trodybvej,8882,1,9.702057,56.283918
2064150,Trodybvej,8882,3,9.698073,56.286393
2064151,Trodybvej,8882,7,9.704501,56.296585
2064153,Trodybvej,8882,8,9.700871,56.283768
2064155,Trodybvej,8882,9,9.705459,56.29244
2064156,Trodybvej,8882,10,9.7016877,56.2836872
2064158,Trodybvej,8882,11,9.71458,56.294222
2064159,Trodybvej,8882,11B,9.712389,56.298227
2064160,Trodybvej,8882,12,9.70236,56.28281
2064161,Trodybvej,8882,15,9.707884,56.285954
2064162,Trodybvej,8882,16,9.702585,56.282577
2064163,Trodybvej,8882,18,9.703614,56.283145
2064164,Trodybvej,8882,22,9.70683,56.282987
2064165,Trodybvej,8882,23,9.710802,56.284077
2064166,Trodybvej,8882,24,9.70763,56.281943
2064167,Trodybvej,8882,26,9.714658,56.283076
2064168,Trodybvej,8882,30,9.722997,56.283192
2067160,Hedeagervej,8882,2,9.733855,56.275913
2067161,Hedeagervej,8882,7,9.727175,56.277121
2067162,Hedeagervej,8882,15,9.727227,56.280468
2067163,Hedeagervej,8882,17,9.724204,56.279788
2067164,Hedeagervej,8882,18,9.728841,56.284354
2067165,Hedeagervej,8882,20,9.727408,56.285017
2067166,Hedeagervej,8882,26,9.732048,56.289349
2067167,Hedeagervej,8882,27,9.719729,56.285454
2067168,Hedeagervej,8882,29,9.720315,56.289818
2067169,Hedeagervej,8882,30,9.7245189,56.290663
2067170,Hedeagervej,8882,34,9.7262732,56.2927976
2067171,Hedeagervej,8882,35,9.722293,56.294398
2077895,Bøgevej,8882,1,9.729558,56.266679
2077896,Bøgevej,8882,2,9.730267,56.266759
2077897,Bøgevej,8882,3,9.729364,56.266759
2077898,Bøgevej,8882,4,9.729824,56.266874
2077899,Bøgevej,8882,5A,9.729074,56.266865
2077900,Bøgevej,8882,5B,9.728861,56.266599
2077901,Bøgevej,8882,6,9.72949,56.267006
2077902,Bøgevej,8882,7,9.728729,56.26701
2077903,Bøgevej,8882,8,9.729169,56.267119
2077904,Bøgevej,8882,9,9.728452,56.267142
2077905,Bøgevej,8882,10,9.728868,56.267277
2077906,Bøgevej,8882,11,9.728201,56.26725
2077907,Bøgevej,8882,12,9.728588,56.267441
2077908,Bøgevej,8882,13,9.727922,56.267377
2077909,Bøgevej,8882,14,9.728244,56.267541
2077910,Bøgevej,8882,15,9.727654,56.267485
2077911,Bøgevej,8882,16,9.727977,56.267675
2077912,Bøgevej,8882,17,9.727378,56.267594
2077913,Bøgevej,8882,18,9.727686,56.267812
2077914,Bøgevej,8882,19,9.727098,56.267714
2078189,Elmevej,8882,3,9.727429,56.268058
2078190,Elmevej,8882,4,9.727099,56.268224
2078191,Elmevej,8882,8,9.726585,56.267843
2078192,Elmevej,8882,11,9.72609,56.26693
2078193,Elmevej,8882,12,9.726194,56.267558
2078194,Elmevej,8882,13,9.725906,56.266703
2078195,Elmevej,8882,14,9.726008,56.267393
2078196,Elmevej,8882,15,9.725753,56.26651
2078197,Elmevej,8882,16,9.725826,56.267186
2078198,Elmevej,8882,17,9.72561,56.266319
2078199,Elmevej,8882,18,9.725665,56.26699
2078200,Elmevej,8882,19,9.725466,56.266145
2078201,Elmevej,8882,20,9.725498,56.266788
2078202,Elmevej,8882,21,9.725368,56.265931
2078203,Elmevej,8882,22,9.725351,56.2666
2078204,Elmevej,8882,23,9.725196,56.265674
2078205,Elmevej,8882,24,9.725188,56.266403
2078206,Elmevej,8882,26,9.724991,56.266232
2078207,Elmevej,8882,28,9.724889,56.266023
2079558,Nylands Allé,8882,1,9.722711,56.265365
2079560,Nylands Allé,8882,2,9.723009,56.265573
2079561,Nylands Allé,8882,3,9.72236,56.265115
2079563,Nylands Allé,8882,4,9.7225911,56.2656836
2079565,Nylands Allé,8882,5,9.72205,56.265231
2079566,Nylands Allé,8882,6,9.722238,56.265834
2079568,Nylands Allé,8882,7,9.722286,56.265443
2079569,Nylands Allé,8882,8,9.72199,56.26599
2079571,Nylands Allé,8882,9,9.721884,56.265562
2079573,Nylands Allé,8882,10,9.721524,56.266369
2079574,Nylands Allé,8882,11,9.721566,56.26539
2079576,Nylands Allé,8882,12,9.721486,56.266069
2079577,Nylands Allé,8882,13,9.721208,56.265556
2079578,Nylands Allé,8882,14,9.72121,56.26619
2079579,Nylands Allé,8882,15,9.721385,56.265769
2079580,Nylands Allé,8882,17,9.720737,56.265726
2079581,Nylands Allé,8882,19,9.720995,56.265922
2088833,Ahornvej,8882,1,9.7266034,56.2673533
2088834,Ahornvej,8882,2,9.726511,56.267088
2088835,Ahornvej,8882,3,9.726908,56.267252
2088836,Ahornvej,8882,4,9.726899,56.266905
2088837,Ahornvej,8882,5,9.727247,56.267172
2088840,Ahornvej,8882,6,9.727239,56.26677
2088841,Ahornvej,8882,7,9.727519,56.266981
2088843,Ahornvej,8882,8,9.728423,56.266672
2088844,Ahornvej,8882,9,9.727754,56.266893
2088845,Ahornvej,8882,11,9.727902,56.266721
2088956,Vestervang,8882,1,9.724326,56.270356
2088957,Vestervang,8882,5,9.724994,56.270113
2088959,Vestervang,8882,6,9.724976,56.269165
2088961,Vestervang,8882,7,9.725523,56.269896
2088962,Vestervang,8882,8,9.72548,56.269457
2088964,Vestervang,8882,9A,9.724841,56.270775
2088967,Vestervang,8882,9B,9.725906,56.270311
2088968,Vestervang,8882,10,9.726025,56.269656
2088969,Vestervang,8882,11,9.726667,56.27046
2088971,Vestervang,8882,14,9.72679,56.270078
2090925,Grølstedgårdsvej,8882,21,9.767756,56.271252
2090926,Grølstedgårdsvej,8882,25,9.772868,56.272901
2093414,Bagerstræde,8882,1,9.731963,56.26841
2093415,Bagerstræde,8882,3,9.731917,56.26856
2093416,Bagerstræde,8882,4,9.731455,56.268576
2093417,Bagerstræde,8882,5,9.731826,56.268499
2093418,Bagerstræde,8882,6,9.731253,56.268317
2093419,Bagerstræde,8882,7,9.731896,56.268439
2093420,Bagerstræde,8882,9,9.73173,56.268432
2093421,Bagerstræde,8882,11,9.73167,56.268386
2097399,Birkevej,8882,6,9.73074,56.268164
2097401,Birkevej,8882,8,9.730417,56.268175
2097402,Birkevej,8882,10,9.730135,56.2683
2097403,Birkevej,8882,12,9.729875,56.268416
2097404,Birkevej,8882,14A,9.728445,56.269256
2097405,Birkevej,8882,14B,9.72916,56.26895
2100874,Tværgade,8882,1,9.733684,56.267374
2100875,Tværgade,8882,2,9.733486,56.267577
2100876,Tværgade,8882,3,9.733543,56.26716
2100877,Tværgade,8882,4,9.733348,56.26742
2100878,Tværgade,8882,6,9.733219,56.267263
2100879,Tværgade,8882,7,9.733296,56.266941
2100880,Tværgade,8882,8,9.733025,56.267123
2165402,Egon Kristiansens Allé,8882,2,9.7248801,56.2716735
2165416,Egon Kristiansens Allé,8882,4,9.7242456,56.2711482
2166727,Gammel Hedevej,8882,5,9.735927,56.266865
2166738,Gammel Hedevej,8882,7,9.735754,56.266594
2166741,Gammel Hedevej,8882,11,9.735699,56.26611
2166752,Gammel Hedevej,8882,13,9.735112,56.266193
2166755,Gammel Hedevej,8882,15,9.7348527,56.2659277
2168280,Hedevænget,8882,1,9.734077,56.264683
2168287,Hedevænget,8882,2,9.734397,56.264969
2168293,Hedevænget,8882,3,9.734163,56.264654
2168304,Hedevænget,8882,4,9.734484,56.264935
2168310,Hedevænget,8882,5,9.734255,56.264623
2168318,Hedevænget,8882,6,9.734578,56.264901
2168326,Hedevænget,8882,7,9.734343,56.264593
2168329,Hedevænget,8882,8,9.734665,56.264872
2168334,Hedevænget,8882,9,9.733866,56.264493
2168339,Hedevænget,8882,10,9.734604,56.265174
2168344,Hedevænget,8882,11,9.733951,56.264461
2168347,Hedevænget,8882,12,9.734705,56.265141
2168350,Hedevænget,8882,13,9.734042,56.264432
2168357,Hedevænget,8882,14,9.734797,56.265106
2168358,Hedevænget,8882,15,9.734131,56.264402
2168363,Hedevænget,8882,16,9.734883,56.265075
2168368,Hedevænget,8882,17,9.733674,56.264302
2168375,Hedevænget,8882,18,9.734949,56.265302
2168379,Hedevænget,8882,19,9.733758,56.26427
2168383,Hedevænget,8882,20,9.735008,56.265348
2168390,Hedevænget,8882,21,9.733854,56.264241
2168394,Hedevænget,8882,22,9.735073,56.265397
2168403,Hedevænget,8882,23,9.733944,56.264215
2168413,Hedevænget,8882,24,9.735131,56.265439
2168416,Hedevænget,8882,25,9.733487,56.264113
2168427,Hedevænget,8882,26,9.734852,56.26553
2168430,Hedevænget,8882,27,9.733577,56.264084
2168440,Hedevænget,8882,28,9.734777,56.265557
2168450,Hedevænget,8882,29,9.733667,56.264052
2168452,Hedevænget,8882,30,9.734441,56.265428
2168463,Hedevænget,8882,31,9.733758,56.264026
2168465,Hedevænget,8882,32,9.734345,56.265463
2168477,Hedevænget,8882,33,9.733131,56.264225
2168484,Hedevænget,8882,34,9.73422,56.265253
2168489,Hedevænget,8882,35,9.733041,56.264257
2168499,Hedevænget,8882,36,9.73414,56.265286
2168502,Hedevænget,8882,37,9.732951,56.264286
2168512,Hedevænget,8882,38,9.734011,56.265082
2168521,Hedevænget,8882,39,9.733438,56.264566
2168524,Hedevænget,8882,40,9.733937,56.26511
2168534,Hedevænget,8882,41,9.733348,56.264598
2168538,Hedevænget,8882,43,9.733633,56.264742
2168548,Hedevænget,8882,45,9.733544,56.264774
2170799,Klostergårdsvej,8882,9,9.690043,56.300883
2170804,Klostergårdsvej,8882,13,9.68379,56.299157
2170812,Klostergårdsvej,8882,15,9.686013,56.298309
2170815,Klostergårdsvej,8882,17,9.691065,56.296467
2170825,Klostergårdsvej,8882,19,9.692808,56.295501
2170830,Klostergårdsvej,8882,21,9.687171,56.297348
2170832,Klostergårdsvej,8882,21C,9.6825222,56.2984287
2170841,Klostergårdsvej,8882,23,9.679699,56.294799
2170842,Klostergårdsvej,8882,25,9.675114,56.29642
2173974,Skovladen,8882,1,9.754973,56.261251
2173999,Skovvænget,8882,1,9.736599,56.26554
2174001,Skovvænget,8882,2,9.736196,56.265337
2174004,Skovvænget,8882,3,9.736983,56.265325
2174006,Skovvænget,8882,4,9.736652,56.265223
2174008,Skovvænget,8882,5,9.737391,56.265206
2174011,Skovvænget,8882,6,9.737109,56.265022
2174015,Skovvænget,8882,7,9.737735,56.265139
2174017,Skovvænget,8882,8,9.737265,56.264835
2174020,Skovvænget,8882,9,9.737652,56.264858
2174021,Skovvænget,8882,10,9.7369589,56.2645236
2174025,Skovvænget,8882,11,9.737551,56.264635
2174030,Skovvænget,8882,12,9.73701,56.264309
2174032,Skovvænget,8882,13,9.737386,56.264452
2174036,Skovvænget,8882,14,9.737057,56.263946
2174038,Skovvænget,8882,15,9.73739,56.26422
2174043,Skovvænget,8882,16,9.736505,56.263925
2174044,Skovvænget,8882,17,9.737527,56.263947
2174049,Skovvænget,8882,18,9.735876,56.263877
2174052,Skovvænget,8882,20,9.735279,56.264045
2174054,Skovvænget,8882,22,9.734852,56.26404
2174057,Skovvænget,8882,24,9.734488,56.263822
2174060,Skovvænget,8882,26,9.734923,56.263706
2174062,Skovvænget,8882,28,9.735381,56.263613
2174065,Skovvænget,8882,30,9.735842,56.263661
2174066,Skovvænget,8882,32,9.736424,56.263662
2174069,Skovvænget,8882,34,9.737058,56.263756
2191489,Lanstigvej,8882,35B,9.685786,56.282612
2191490,Lanstigvej,8882,35C,9.686109,56.282592
2230858,Nylandsvej,8882,40,9.7239163,56.2672859
2230859,Thorsøvej,8882,60,9.7437244,56.2807105
2230860,Thorsøvej,8882,91,9.747881,56.290372
2230861,Thorsøvej,8882,93C,9.762169,56.283786
2236420,Viborgvej,8882,43,9.707156,56.279589
2245045,Storgade,8882,66A,9.727558,56.270966
2245046,Storgade,8882,66B,9.7274519,56.2710144
2253367,Lanstigvej,8882,10,9.71464,56.269114
2253438,Thorsøvej,8882,21B,9.728614,56.273914
