idx,street,postcode,housenumber,lon,lat
1641299,Skibsted Østergade,9293,1,10.0692812,56.8663127
1641302,Skibsted Østergade,9293,2,10.0692042,56.8651787
1641306,Skibsted Østergade,9293,3,10.0693166,56.8665096
1641308,Skibsted Østergade,9293,4,10.070078,56.8655988
1641311,Skibsted Østergade,9293,5,10.0693746,56.8667816
1641314,Skibsted Østergade,9293,6,10.0701266,56.8665864
1641317,Skibsted Østergade,9293,7A,10.0692316,56.8671676
1641321,Skibsted Østergade,9293,7B,10.0690845,56.8671917
1641323,Skibsted Østergade,9293,8,10.069924,56.8673381
1641326,Skibsted Østergade,9293,9,10.0694461,56.8678549
1641329,Skibsted Østergade,9293,10,10.069792,56.8678196
1649139,Baggesdamvej,9293,7,10.081891,56.897121
1649140,Baggesdamvej,9293,9,10.081728,56.896626
1649141,Baggesdamvej,9293,10,10.0603417,56.8850207
1649142,Baggesdamvej,9293,11,10.080153,56.895164
1649143,Baggesdamvej,9293,13,10.078573,56.894114
1649144,Baggesdamvej,9293,15,10.077328,56.893703
1649145,Baggesdamvej,9293,23,10.0655683,56.8860387
1649146,Baggesdamvej,9293,27,10.059761,56.877734
1649942,Tinghøjvej,9293,1,10.0687319,56.8661607
1649943,Tinghøjvej,9293,2,10.0689521,56.8657257
1649946,Tinghøjvej,9293,3,10.0690397,56.866052
1649949,Tinghøjvej,9293,4,10.0703768,56.8651704
1649950,Tinghøjvej,9293,5,10.069354,56.865883
1649951,Tinghøjvej,9293,6,10.0708977,56.8646557
1649952,Tinghøjvej,9293,7,10.0709805,56.8652061
1649953,Tinghøjvej,9293,8,10.0712624,56.8647696
1650011,Svanfolk Bakker,9293,1,10.0941054,56.857276
1650013,Svanfolk Bakker,9293,2,10.0881318,56.8560281
1650014,Svanfolk Bakker,9293,3,10.092226,56.858146
1650015,Svanfolk Bakker,9293,4,10.0937303,56.8568743
1650016,Svanfolk Bakker,9293,5,10.0971208,56.8575016
1650017,Svanfolk Bakker,9293,9,10.0963144,56.8586301
1650018,Svanfolk Bakker,9293,11,10.0953014,56.8587989
1650356,Skibsted Nyvej,9293,1,10.072785,56.864313
1650358,Skibsted Nyvej,9293,2,10.0722741,56.8644557
1650360,Skibsted Nyvej,9293,3,10.0727132,56.8641084
1650363,Skibsted Nyvej,9293,4,10.0721986,56.864185
1650364,Skibsted Nyvej,9293,5,10.0726164,56.8639003
1650367,Skibsted Nyvej,9293,6,10.0720954,56.8639777
1650369,Skibsted Nyvej,9293,7,10.0725695,56.8636204
1650370,Skibsted Nyvej,9293,8,10.0719807,56.86377
1651179,Komdrupvej,9293,1,10.104757,56.889419
1651180,Komdrupvej,9293,2,10.094073,56.891804
1651181,Komdrupvej,9293,2A,10.106608,56.8887
1651185,Komdrupvej,9293,4,10.093456,56.89213
1651187,Komdrupvej,9293,6,10.091693,56.893228
1651188,Komdrupvej,9293,8,10.091124,56.893659
1651191,Komdrupvej,9293,10,10.088398,56.895437
1651192,Komdrupvej,9293,11,10.0865152,56.8974485
1656558,Treskelvej,9293,3B,10.068162,56.874075
1656559,Treskelvej,9293,3C,10.0707724,56.8741349
1656560,Treskelvej,9293,5,10.0778738,56.880515
1656561,Treskelvej,9293,7,10.0736464,56.8816151
1656872,Svanholmsmindevej,9293,7,10.096901,56.8713155
1656875,Svanholmsmindevej,9293,9,10.0964299,56.8706834
1656876,Svanholmsmindevej,9293,13,10.0975973,56.8627359
1656877,Svanholmsmindevej,9293,15,10.1001832,56.8615194
1656879,Svanholmsmindevej,9293,17,10.1018085,56.8608203
1656880,Svanholmsmindevej,9293,18,10.0794079,56.8535426
1656881,Svanholmsmindevej,9293,19,10.1026406,56.8605152
1656883,Svanholmsmindevej,9293,21,10.1048787,56.8615864
1656885,Svanholmsmindevej,9293,23,10.100122,56.858313
1656886,Svanholmsmindevej,9293,25,10.091382,56.859449
1656887,Svanholmsmindevej,9293,29,10.0837197,56.8569263
1656888,Svanholmsmindevej,9293,31A,10.0809423,56.8545504
1656889,Svanholmsmindevej,9293,35,10.0778645,56.8459967
1657070,Randrupvej,9293,2,10.0701109,56.8681354
1657071,Randrupvej,9293,4,10.0709676,56.867625
1657073,Randrupvej,9293,7,10.0943108,56.8692882
1657075,Randrupvej,9293,8,10.0904417,56.8688843
1657076,Randrupvej,9293,9,10.1116547,56.8678374
1657077,Randrupvej,9293,10,10.091677,56.8685581
1657169,Niels Eriksensvej,9293,1,10.073041,56.89315
1657170,Niels Eriksensvej,9293,3,10.069044,56.893361
1657171,Niels Eriksensvej,9293,5,10.067663,56.892914
1657229,Monshøjvej,9293,4,10.098447,56.880415
1657230,Monshøjvej,9293,6,10.097374,56.881157
1657231,Monshøjvej,9293,8,10.098172,56.881563
1657232,Monshøjvej,9293,10,10.098953,56.882
1657233,Monshøjvej,9293,12,10.098478,56.882597
1658572,Slotsgårdsvej,9293,1,10.068331,56.8681911
1658573,Slotsgårdsvej,9293,2,10.068945,56.868221
1658574,Slotsgårdsvej,9293,3,10.0679261,56.8685296
1658575,Slotsgårdsvej,9293,4,10.0689641,56.8687123
1658653,Skibstedvej,9293,5,10.083351,56.8725962
1658654,Skibstedvej,9293,7,10.073656,56.8706316
1658655,Skibstedvej,9293,9,10.071889,56.86865
1658656,Skibstedvej,9293,11,10.0707379,56.8684547
1658657,Skibstedvej,9293,13,10.0699168,56.8681457
1658658,Skibstedvej,9293,14,10.0838548,56.8755409
1658659,Skibstedvej,9293,15,10.0689192,56.8675284
1658660,Skibstedvej,9293,16,10.082307,56.875302
1658661,Skibstedvej,9293,17,10.0686981,56.8674663
1658662,Skibstedvej,9293,18,10.0793057,56.8743462
1658663,Skibstedvej,9293,19,10.0685619,56.8673044
1658664,Skibstedvej,9293,21,10.0683724,56.8671477
1658665,Skibstedvej,9293,22,10.0694769,56.8681004
1658666,Skibstedvej,9293,23,10.0683439,56.8669116
1658667,Skibstedvej,9293,24A,10.0680605,56.8673125
1658668,Skibstedvej,9293,24B,10.0681275,56.8674122
1658669,Skibstedvej,9293,25,10.0686289,56.8665691
1658670,Skibstedvej,9293,26,10.067399,56.867214
1658671,Skibstedvej,9293,26B,10.0671298,56.8670098
1658672,Skibstedvej,9293,27,10.0684849,56.8663172
1658673,Skibstedvej,9293,28,10.067806,56.866716
1658674,Skibstedvej,9293,30,10.0678896,56.8664382
1658675,Skibstedvej,9293,31,10.069179,56.8649682
1658676,Skibstedvej,9293,32,10.0668621,56.8661522
1658677,Skibstedvej,9293,33,10.0693604,56.8646384
1658678,Skibstedvej,9293,35,10.0694174,56.8641381
1658679,Skibstedvej,9293,36,10.0673573,56.8655405
1658680,Skibstedvej,9293,37,10.0694539,56.8637729
1658681,Skibstedvej,9293,38,10.0682867,56.8658602
1658682,Skibstedvej,9293,39,10.0700083,56.8631797
1658683,Skibstedvej,9293,40,10.0685879,56.8655522
1658684,Skibstedvej,9293,41,10.0702597,56.8609211
1658685,Skibstedvej,9293,42,10.0685972,56.8651882
1658686,Skibstedvej,9293,43,10.0687869,56.8614907
1658687,Skibstedvej,9293,44,10.0687062,56.8649331
1658689,Skibstedvej,9293,46,10.0687507,56.8644682
1658691,Skibstedvej,9293,48,10.0682679,56.8644877
1658693,Skibstedvej,9293,50,10.0644398,56.8624351
1661444,Mygdalsvej,9293,1,10.108676,56.884459
1661445,Mygdalsvej,9293,2,10.110161,56.884233
1661446,Mygdalsvej,9293,3,10.108347,56.884545
1661447,Mygdalsvej,9293,4,10.109839,56.884377
1661448,Mygdalsvej,9293,5,10.107966,56.884677
1661449,Mygdalsvej,9293,7,10.107017,56.884894
1661450,Mygdalsvej,9293,8,10.108563,56.884793
1661451,Mygdalsvej,9293,9,10.10499,56.8848
1661452,Mygdalsvej,9293,10,10.10813,56.884915
1661453,Mygdalsvej,9293,11,10.095107,56.885883
1661454,Mygdalsvej,9293,12,10.107715,56.885032
1661455,Mygdalsvej,9293,14,10.106845,56.885204
1661456,Mygdalsvej,9293,16,10.106569,56.885118
1661457,Mygdalsvej,9293,18,10.105826,56.885246
1661458,Mygdalsvej,9293,20,10.105455,56.885296
1661459,Mygdalsvej,9293,22,10.104971,56.885365
1661460,Mygdalsvej,9293,24,10.102892,56.885253
1661461,Mygdalsvej,9293,26,10.1013424,56.8855959
1661462,Mygdalsvej,9293,28,10.092279,56.886779
1661881,Bjerregaardsvej,9293,1,10.0978977,56.8533508
1661882,Bjerregaardsvej,9293,2,10.0944007,56.8517071
1740742,Fladen,9293,2,10.139834,56.888051
1740749,Fladen,9293,3,10.125357,56.883391
1740788,Kongerslevvej,9293,1,10.12474,56.897915
1740791,Kongerslevvej,9293,2,10.120121,56.900007
1740795,Kongerslevvej,9293,3,10.128492,56.896677
1740796,Kongerslevvej,9293,4,10.117428,56.899468
1740801,Kongerslevvej,9293,5,10.124845,56.897313
1740803,Kongerslevvej,9293,6,10.124014,56.896881
1740806,Kongerslevvej,9293,7,10.125125,56.896704
1740808,Kongerslevvej,9293,8,10.1244248,56.8957279
1740811,Kongerslevvej,9293,9,10.124877,56.896438
1740814,Kongerslevvej,9293,10,10.124124,56.895154
1740818,Kongerslevvej,9293,11,10.1248,56.896075
1740819,Kongerslevvej,9293,11A,10.124846,56.895716
1740824,Kongerslevvej,9293,12,10.122948,56.893128
1740825,Kongerslevvej,9293,13,10.124821,56.895445
1740827,Kongerslevvej,9293,14,10.122318,56.892541
1740830,Kongerslevvej,9293,15,10.126504,56.893435
1740831,Kongerslevvej,9293,16,10.120297,56.890682
1740835,Kongerslevvej,9293,17,10.122943,56.892411
1743278,Westend,9293,2,10.109141,56.887989
1743279,Westend,9293,4,10.109087,56.887768
1743282,Westend,9293,6,10.108952,56.887531
1748352,Idrætsvej,9293,1,10.11253,56.888958
1748353,Idrætsvej,9293,3,10.112989,56.889134
1752619,Skibstedbrovej,9293,1,10.0685513,56.8677322
1752620,Skibstedbrovej,9293,3,10.0680834,56.8677714
1752621,Skibstedbrovej,9293,4,10.0687968,56.8680342
1752622,Skibstedbrovej,9293,5,10.0678418,56.8677466
1752623,Skibstedbrovej,9293,7,10.0675867,56.8674658
1752625,Skibstedbrovej,9293,8,10.0672596,56.8684553
1752627,Skibstedbrovej,9293,9,10.0672078,56.8677713
1752629,Skibstedbrovej,9293,10,10.0668402,56.8685727
1752632,Skibstedbrovej,9293,11,10.0677463,56.8679423
1752634,Skibstedbrovej,9293,12,10.0671345,56.8688561
1752636,Skibstedbrovej,9293,13,10.0674831,56.8680319
1752637,Skibstedbrovej,9293,14,10.0665808,56.8689807
1752640,Skibstedbrovej,9293,15,10.0672339,56.8681169
1752641,Skibstedbrovej,9293,16,10.0662147,56.8688682
1752642,Skibstedbrovej,9293,17,10.0670787,56.8682171
1752643,Skibstedbrovej,9293,18,10.0649254,56.869397
1752644,Skibstedbrovej,9293,19,10.0666476,56.8683313
1752645,Skibstedbrovej,9293,20,10.0647614,56.8695403
1752646,Skibstedbrovej,9293,21,10.0662977,56.8683656
1752647,Skibstedbrovej,9293,23,10.0651981,56.8686078
1752649,Skibstedbrovej,9293,24,10.0588963,56.8706791
1752652,Skibstedbrovej,9293,25,10.064205,56.8692828
1752655,Skibstedbrovej,9293,26,10.0475024,56.8713759
1752657,Skibstedbrovej,9293,27,10.0606299,56.869973
1752659,Skibstedbrovej,9293,28,10.0445454,56.8728046
1752663,Skibstedbrovej,9293,30,10.044649,56.8734963
1752664,Skibstedbrovej,9293,31,10.0504626,56.8710253
1752667,Skibstedbrovej,9293,34,10.0408465,56.8697206
1752668,Skibstedbrovej,9293,35,10.044794,56.870676
1752671,Skibstedbrovej,9293,39,10.0414912,56.8673179
1752674,Skibstedbrovej,9293,41,10.0495333,56.8667766
1752675,Skibstedbrovej,9293,43,10.0508201,56.8665162
1752680,Skibstedbrovej,9293,45,10.0551454,56.8657624
1752756,Syrenvej,9293,2,10.117795,56.883818
1752759,Syrenvej,9293,3,10.118223,56.881784
1752761,Syrenvej,9293,4,10.117639,56.883694
1752764,Syrenvej,9293,6,10.11754,56.883544
1752766,Syrenvej,9293,8,10.117489,56.883137
1753493,Neptunvej,9293,1,10.116189,56.883171
1753494,Neptunvej,9293,2,10.116302,56.882651
1753495,Neptunvej,9293,3,10.116879,56.883189
1753496,Neptunvej,9293,6,10.117079,56.882891
1753697,Jernbanegade,9293,1,10.11435,56.887152
1753698,Jernbanegade,9293,1A,10.11393,56.887382
1753699,Jernbanegade,9293,2,10.115767,56.886435
1753702,Jernbanegade,9293,3,10.11472,56.8874779
1753704,Jernbanegade,9293,4,10.116223,56.886179
1753705,Jernbanegade,9293,5,10.114785,56.8874406
1753707,Jernbanegade,9293,6,10.116452,56.886051
1753710,Jernbanegade,9293,7,10.1145303,56.8873531
1753712,Jernbanegade,9293,9,10.114487,56.8874144
1753713,Jernbanegade,9293,11,10.1144386,56.8874738
1753715,Jernbanegade,9293,13,10.1143174,56.887555
1753717,Jernbanegade,9293,15,10.114274,56.887604
1753720,Jernbanegade,9293,17,10.1142972,56.8876983
1753721,Jernbanegade,9293,19,10.1143854,56.8877188
1753726,Jernbanegade,9293,21,10.1146567,56.8875752
1753728,Jernbanegade,9293,23,10.1146831,56.8875444
1753729,Jernbanegade,9293,25,10.1147649,56.8875193
1753731,Jernbanegade,9293,27,10.1148567,56.8874511
1753737,Jernbanegade,9293,29,10.1144481,56.8873592
1753739,Jernbanegade,9293,31,10.1144015,56.8874207
1753740,Jernbanegade,9293,33,10.1143546,56.887478
1753742,Jernbanegade,9293,35,10.114264,56.8875151
1753744,Jernbanegade,9293,37,10.1141945,56.8876024
1753746,Jernbanegade,9293,39,10.114238,56.8877225
1753747,Jernbanegade,9293,41,10.114397,56.8877598
1753748,Jernbanegade,9293,43,10.1146672,56.887616
1753749,Jernbanegade,9293,45,10.1147479,56.8875377
1755224,Kærvej,9293,12,10.142547,56.939578
1755226,Kærvej,9293,14,10.141961,56.938472
1755228,Kærvej,9293,16,10.1408,56.937134
1755230,Kærvej,9293,18,10.14013,56.9362
1755232,Kærvej,9293,20,10.139783,56.935384
1755234,Kærvej,9293,22,10.138794,56.934235
1755236,Kærvej,9293,24,10.138655,56.933801
1755237,Kærvej,9293,26,10.138305,56.933435
1755240,Kærvej,9293,28,10.136479,56.930527
1755241,Kærvej,9293,29,10.143474,56.939223
1755242,Kærvej,9293,30,10.1317,56.923663
1755243,Kærvej,9293,31,10.1434164,56.937297
1755245,Kærvej,9293,32,10.1311923,56.9231443
1755246,Kærvej,9293,32A,10.130991,56.922914
1755247,Kærvej,9293,33,10.141724,56.937495
1755251,Kærvej,9293,34,10.13053,56.921796
1755252,Kærvej,9293,35,10.141569,56.93687
1755253,Kærvej,9293,37,10.142713,56.933852
1755255,Kærvej,9293,39,10.13949,56.933515
1755256,Kærvej,9293,39A,10.1395661,56.9340634
1755257,Kærvej,9293,41,10.139066,56.933266
1755258,Kærvej,9293,43,10.141702,56.932437
1755259,Kærvej,9293,45,10.142612,56.932485
1755260,Kærvej,9293,47,10.138777,56.932213
1755262,Kærvej,9293,49,10.139897,56.92987
1755266,Kærvej,9293,53,10.13813,56.928661
1755267,Kærvej,9293,55,10.137546,56.928371
1755268,Kærvej,9293,57,10.135577,56.927779
1755271,Kærvej,9293,59,10.134436,56.926037
1755273,Kærvej,9293,61,10.134133,56.925258
1755274,Kærvej,9293,63,10.131495,56.921778
1755276,Kærvej,9293,65,10.135285,56.922733
1755280,Kærvej,9293,67,10.134927,56.922315
1755281,Kærvej,9293,69,10.135334,56.921434
1755282,Kærvej,9293,71,10.130766,56.920962
1755285,Kærvej,9293,73,10.130538,56.920292
1757044,Lykkeshøj,9293,1,10.117762,56.887499
1757045,Lykkeshøj,9293,2,10.11762,56.887542
1757046,Lykkeshøj,9293,3,10.117486,56.887581
1757047,Lykkeshøj,9293,4,10.11735,56.887615
1757048,Lykkeshøj,9293,5,10.117212,56.887651
1757049,Lykkeshøj,9293,6,10.117063,56.887693
1757050,Lykkeshøj,9293,7,10.116987,56.88754
1757051,Lykkeshøj,9293,8,10.116911,56.887464
1757052,Lykkeshøj,9293,9,10.116798,56.887407
1757053,Lykkeshøj,9293,10,10.116717,56.887327
1757054,Lykkeshøj,9293,11,10.116637,56.887255
1757055,Lykkeshøj,9293,12,10.11654,56.887175
1757056,Lykkeshøj,9293,13,10.11648,56.887033
1757057,Lykkeshøj,9293,14,10.116338,56.887072
1757058,Lykkeshøj,9293,15,10.1162,56.88718
1757059,Lykkeshøj,9293,16,10.116044,56.887223
1757061,Lykkeshøj,9293,17,10.115959,56.887299
1757064,Lykkeshøj,9293,18,10.115804,56.887346
1757066,Lykkeshøj,9293,19,10.116274,56.887305
1757068,Lykkeshøj,9293,20,10.11634,56.887378
1757070,Lykkeshøj,9293,21,10.116496,56.887464
1757071,Lykkeshøj,9293,22,10.116558,56.887544
1757072,Lykkeshøj,9293,23,10.116644,56.887621
1757073,Lykkeshøj,9293,24,10.116715,56.887702
1757957,Solvej,9293,1,10.111772,56.887117
1757959,Solvej,9293,3,10.111624,56.886904
1757960,Solvej,9293,4,10.111261,56.88708
1757962,Solvej,9293,5,10.111499,56.886688
1757966,Solvej,9293,6,10.111184,56.886909
1757967,Solvej,9293,7,10.111378,56.886495
1757969,Solvej,9293,8,10.111013,56.886636
1757971,Solvej,9293,9,10.111263,56.886275
1757973,Solvej,9293,10,10.11081,56.886366
1757975,Solvej,9293,11,10.111035,56.885926
1757976,Solvej,9293,12,10.110612,56.886108
1757978,Solvej,9293,13,10.110796,56.885651
1757979,Solvej,9293,14,10.110505,56.885924
1757980,Solvej,9293,15,10.110646,56.88537
1757981,Solvej,9293,16,10.110298,56.885698
1757982,Solvej,9293,17,10.110426,56.885133
1757983,Solvej,9293,19,10.110228,56.884949
1757984,Solvej,9293,20,10.109746,56.885133
1757985,Solvej,9293,21,10.109952,56.884702
1757986,Solvej,9293,22,10.109509,56.884892
1757987,Solvej,9293,24,10.10929,56.884704
1758244,Højmarken,9293,1,10.12654,56.902491
1758246,Højmarken,9293,2,10.12639,56.902162
1758248,Højmarken,9293,3,10.127127,56.90235
1758250,Højmarken,9293,4,10.126374,56.901857
1758252,Højmarken,9293,5,10.127568,56.902333
1758254,Højmarken,9293,6,10.126865,56.901829
1758255,Højmarken,9293,7,10.128049,56.902243
1758256,Højmarken,9293,8,10.127041,56.902098
1758257,Højmarken,9293,9,10.128501,56.902194
1758258,Højmarken,9293,10,10.127451,56.902057
1758259,Højmarken,9293,12,10.127357,56.901755
1758260,Højmarken,9293,14,10.127931,56.90174
1758261,Højmarken,9293,16,10.128006,56.902017
1758262,Højmarken,9293,18A,10.128362,56.901801
1758263,Højmarken,9293,18B,10.128342,56.901729
1758264,Højmarken,9293,18C,10.128316,56.901658
1758265,Højmarken,9293,18D,10.128295,56.901589
1758266,Højmarken,9293,20,10.128843,56.901665
1758267,Højmarken,9293,22,10.12925,56.901571
1758268,Højmarken,9293,24A,10.129377,56.901783
1758269,Højmarken,9293,24B,10.1295,56.901769
1758270,Højmarken,9293,24C,10.129605,56.901758
1758271,Højmarken,9293,24D,10.1291496,56.9017809
1758273,Højmarken,9293,26,10.129577,56.902055
1759207,Bizonvej,9293,1,10.10354,56.895681
1759208,Bizonvej,9293,2,10.1040131,56.8953953
1759209,Bizonvej,9293,5,10.102825,56.896224
1759210,Bizonvej,9293,7,10.102237,56.896543
1759211,Bizonvej,9293,17,10.104315,56.895784
1759857,Nyvej,9293,1,10.116444,56.887871
1759860,Nyvej,9293,2,10.117546,56.887834
1759864,Nyvej,9293,3,10.116128,56.88796
1759867,Nyvej,9293,4,10.117197,56.887925
1759868,Nyvej,9293,5,10.115674,56.887922
1759872,Nyvej,9293,6,10.116782,56.888041
1759873,Nyvej,9293,7,10.115525,56.888127
1759875,Nyvej,9293,8,10.116437,56.888138
1759878,Nyvej,9293,9,10.115263,56.8882
1759879,Nyvej,9293,10,10.11597,56.888269
1759881,Nyvej,9293,11,10.115079,56.888287
1759882,Nyvej,9293,12,10.115563,56.888381
1759884,Nyvej,9293,13,10.114854,56.888103
1759885,Nyvej,9293,14,10.115304,56.888453
1759888,Nyvej,9293,15,10.114484,56.888207
1759890,Nyvej,9293,16,10.114806,56.888591
1759891,Nyvej,9293,17,10.114642,56.888378
1759893,Nyvej,9293,18,10.114577,56.888632
1759894,Nyvej,9293,19,10.114264,56.888465
1761686,Ranksvej,9293,1,10.115042,56.88389
1761687,Ranksvej,9293,2,10.114322,56.883828
1761688,Ranksvej,9293,3,10.115651,56.883852
1761689,Ranksvej,9293,4,10.11458,56.883808
1761690,Ranksvej,9293,6,10.115319,56.883695
1763265,Jasminvej,9293,1,10.117415,56.891876
1763266,Jasminvej,9293,2,10.116824,56.892053
1763267,Jasminvej,9293,3,10.117193,56.8917
1763268,Jasminvej,9293,4,10.116732,56.891838
1763269,Jasminvej,9293,5,10.116841,56.891355
1763270,Jasminvej,9293,7,10.116607,56.891113
1763271,Jasminvej,9293,8,10.116148,56.891297
1763272,Jasminvej,9293,9,10.116472,56.8909
1763273,Jasminvej,9293,10,10.11595,56.891112
1763275,Jasminvej,9293,12,10.115716,56.8909
1763833,Regelvej,9293,1,10.1292092,56.9095019
1763834,Regelvej,9293,2,10.136954,56.909413
1763835,Regelvej,9293,2A,10.136077,56.909518
1763836,Regelvej,9293,3,10.129812,56.909538
1763837,Regelvej,9293,4,10.138803,56.909423
1763838,Regelvej,9293,5,10.134752,56.910015
1763839,Regelvej,9293,6,10.139503,56.909423
1763840,Regelvej,9293,8,10.139388,56.90908
1763841,Regelvej,9293,10,10.139114,56.908105
1764865,Hestholmvej,9293,1,10.125371,56.918582
1764867,Hestholmvej,9293,2,10.116587,56.921459
1764870,Hestholmvej,9293,2B,10.11386,56.922332
1764871,Hestholmvej,9293,3,10.11811,56.920272
1764873,Hestholmvej,9293,4,10.11202,56.92152
1764874,Hestholmvej,9293,5,10.115295,56.920809
1764875,Hestholmvej,9293,6,10.110269,56.923926
1764876,Hestholmvej,9293,8,10.109162,56.921603
1768657,Lykkevej,9293,1,10.120729,56.889117
1768658,Lykkevej,9293,2,10.120554,56.888901
1768659,Lykkevej,9293,3,10.121116,56.889006
1768660,Lykkevej,9293,4,10.120885,56.888795
1768661,Lykkevej,9293,5,10.121505,56.888894
1768663,Lykkevej,9293,6,10.121275,56.888695
1768665,Lykkevej,9293,7,10.121831,56.888803
1768667,Lykkevej,9293,8,10.121637,56.888596
1768669,Lykkevej,9293,9,10.122229,56.88869
1768671,Lykkevej,9293,10,10.122015,56.888487
1768673,Lykkevej,9293,11,10.122609,56.888594
1768674,Lykkevej,9293,12,10.12232,56.8884
1768675,Lykkevej,9293,13,10.123002,56.888622
1768676,Lykkevej,9293,14,10.122623,56.888315
1768677,Lykkevej,9293,15A,10.1232645,56.8884549
1768678,Lykkevej,9293,15B,10.1234096,56.8885856
1768679,Lykkevej,9293,16,10.122968,56.88825
1768680,Lykkevej,9293,17,10.123547,56.888412
1768681,Lykkevej,9293,18,10.123243,56.888129
1770460,Østergårdsvej,9293,1A,10.0825774,56.8989679
1770462,Østergårdsvej,9293,3,10.082998,56.899422
1770463,Østergårdsvej,9293,3A,10.082952,56.899238
1770464,Østergårdsvej,9293,5,10.084161,56.900169
1770465,Østergårdsvej,9293,6,10.084177,56.898783
1770466,Østergårdsvej,9293,7,10.085385,56.900533
1770467,Østergårdsvej,9293,7B,10.0853962,56.900647
1770468,Østergårdsvej,9293,8,10.083474,56.899106
1770469,Østergårdsvej,9293,9,10.091663,56.903029
1770470,Østergårdsvej,9293,10,10.0847,56.899747
1770471,Østergårdsvej,9293,12,10.084443,56.899986
1770472,Østergårdsvej,9293,14,10.085542,56.900224
1770935,Kildevej,9293,1,10.112293,56.883871
1770936,Kildevej,9293,3,10.113307,56.88356
1770937,Kildevej,9293,3A,10.113357,56.883539
1770938,Kildevej,9293,4,10.112228,56.883735
1770939,Kildevej,9293,5,10.113518,56.883304
1770940,Kildevej,9293,6,10.1127082,56.8834684
1770941,Kildevej,9293,7,10.114724,56.883192
1770942,Kildevej,9293,8,10.113073,56.8833
1770943,Kildevej,9293,10A,10.1135816,56.8830583
1770944,Kildevej,9293,10B,10.1137226,56.8824584
1770945,Kildevej,9293,11,10.11647,56.883828
1770946,Kildevej,9293,12,10.114051,56.882988
1770947,Kildevej,9293,12A,10.114481,56.882518
1770948,Kildevej,9293,12B,10.114595,56.88252
1770949,Kildevej,9293,12C,10.114709,56.882519
1770950,Kildevej,9293,12D,10.114821,56.882522
1770951,Kildevej,9293,12E,10.114945,56.882527
1770952,Kildevej,9293,13,10.116674,56.884111
1770953,Kildevej,9293,16,10.114681,56.882916
1770955,Kildevej,9293,18,10.114881,56.882847
1770957,Kildevej,9293,20,10.1150835,56.8830039
1770959,Kildevej,9293,22,10.115855,56.882969
1770961,Kildevej,9293,24,10.115589,56.883444
1770962,Kildevej,9293,26,10.115928,56.883542
1770963,Kildevej,9293,28,10.116226,56.883647
1770964,Kildevej,9293,30,10.11652,56.883385
1770965,Kildevej,9293,34,10.117176,56.884036
1771359,Jernbanestien,9293,1,10.116556,56.886647
1771361,Jernbanestien,9293,2,10.115562,56.88747
1771364,Jernbanestien,9293,3,10.116535,56.886583
1771365,Jernbanestien,9293,4,10.11533,56.887582
1771366,Jernbanestien,9293,5,10.116506,56.886506
1771367,Jernbanestien,9293,7,10.116479,56.886436
1771368,Jernbanestien,9293,9,10.116474,56.88638
1771369,Jernbanestien,9293,11,10.116337,56.88676
1771370,Jernbanestien,9293,13,10.116328,56.886688
1771371,Jernbanestien,9293,15,10.116321,56.886625
1771374,Jernbanestien,9293,17,10.116305,56.886545
1771375,Jernbanestien,9293,19,10.11629,56.886475
1771377,Jernbanestien,9293,21,10.116674,56.886673
1771378,Jernbanestien,9293,23,10.116645,56.886613
1771379,Jernbanestien,9293,25,10.116605,56.886535
1771380,Jernbanestien,9293,27,10.116564,56.886461
1771381,Jernbanestien,9293,29,10.116536,56.8864
1771382,Jernbanestien,9293,31,10.116426,56.886731
1771383,Jernbanestien,9293,33,10.11642,56.886672
1771384,Jernbanestien,9293,35,10.11641,56.886597
1771386,Jernbanestien,9293,37,10.116399,56.886521
1771387,Jernbanestien,9293,39,10.116399,56.886464
1772017,Kongstedlundvej,9293,15,10.14764,56.873671
1772018,Kongstedlundvej,9293,18,10.149204,56.873311
1772019,Kongstedlundvej,9293,19,10.137074,56.875016
1772020,Kongstedlundvej,9293,20,10.149511,56.874457
1772023,Kongstedlundvej,9293,20A,10.148868,56.874005
1774403,Lethsvej,9293,2,10.126584,56.906478
1774404,Lethsvej,9293,4,10.126919,56.906668
1775012,Fælledvej,9293,1,10.115313,56.884766
1775014,Fælledvej,9293,2,10.11453,56.884818
1775016,Fælledvej,9293,4,10.11496,56.884704
1775017,Fælledvej,9293,4A,10.114687,56.884398
1775019,Fælledvej,9293,5,10.115919,56.884083
1775020,Fælledvej,9293,6,10.115311,56.884378
1775022,Fælledvej,9293,7,10.11599,56.883806
1775024,Fælledvej,9293,8,10.115272,56.884244
1776020,Fyrrebakken,9293,1,10.110041,56.886216
1776021,Fyrrebakken,9293,2,10.110234,56.886436
1776022,Fyrrebakken,9293,3,10.109801,56.886031
1776023,Fyrrebakken,9293,4,10.10963,56.886533
1776024,Fyrrebakken,9293,5,10.109407,56.886099
1776025,Fyrrebakken,9293,6,10.109146,56.886636
1776026,Fyrrebakken,9293,7,10.10941,56.886299
1776027,Fyrrebakken,9293,8,10.108627,56.886704
1776028,Fyrrebakken,9293,9,10.108935,56.886375
1776029,Fyrrebakken,9293,10,10.107965,56.886805
1776030,Fyrrebakken,9293,11,10.108788,56.886202
1776031,Fyrrebakken,9293,12,10.107076,56.886792
1776032,Fyrrebakken,9293,13,10.108207,56.886401
1776033,Fyrrebakken,9293,15,10.107694,56.8864692
1776034,Fyrrebakken,9293,17,10.107124,56.886572
1776035,Fyrrebakken,9293,19,10.106728,56.886662
1776795,Jyllandsgade,9293,1,10.113948,56.886654
1776796,Jyllandsgade,9293,1A,10.11438,56.886431
1776797,Jyllandsgade,9293,2,10.1138,56.886953
1776798,Jyllandsgade,9293,3,10.113812,56.886515
1776799,Jyllandsgade,9293,4,10.113715,56.886825
1776800,Jyllandsgade,9293,4B,10.113693,56.887036
1776801,Jyllandsgade,9293,4C,10.113623,56.887055
1776802,Jyllandsgade,9293,4D,10.113568,56.88707
1776803,Jyllandsgade,9293,4E,10.113487,56.887092
1776804,Jyllandsgade,9293,4F,10.113705,56.887076
1776805,Jyllandsgade,9293,4G,10.11365,56.88709
1776806,Jyllandsgade,9293,4H,10.113587,56.887107
1776807,Jyllandsgade,9293,4I,10.113507,56.887125
1776808,Jyllandsgade,9293,4K,10.113749,56.887065
1776809,Jyllandsgade,9293,5,10.113733,56.886376
1776810,Jyllandsgade,9293,6,10.113592,56.886692
1776811,Jyllandsgade,9293,7,10.113648,56.88625
1776812,Jyllandsgade,9293,8,10.113493,56.886535
1776813,Jyllandsgade,9293,9,10.11335,56.885794
1776814,Jyllandsgade,9293,10A,10.113088,56.886214
1776815,Jyllandsgade,9293,10B,10.1131389,56.8862921
1776816,Jyllandsgade,9293,10C,10.1129958,56.8863407
1776817,Jyllandsgade,9293,10D,10.1130581,56.8862512
1776818,Jyllandsgade,9293,11,10.113422,56.885375
1776819,Jyllandsgade,9293,11A,10.113147,56.885545
1776820,Jyllandsgade,9293,12,10.113106,56.885936
1776821,Jyllandsgade,9293,14,10.112917,56.885702
1776822,Jyllandsgade,9293,16,10.112847,56.885603
1776823,Jyllandsgade,9293,18,10.1118342,56.8858735
1776824,Jyllandsgade,9293,20,10.112636,56.885199
1776825,Jyllandsgade,9293,22,10.112593,56.885085
1776826,Jyllandsgade,9293,24,10.112451,56.884778
1778147,Kongensgade,9293,1,10.120486,56.889882
1778148,Kongensgade,9293,2,10.119701,56.889601
1778149,Kongensgade,9293,3,10.120323,56.889654
1778150,Kongensgade,9293,4,10.117706,56.888701
1778151,Kongensgade,9293,4A,10.118513,56.889065
1778152,Kongensgade,9293,5,10.120124,56.889494
1778153,Kongensgade,9293,6,10.118263,56.88797
1778154,Kongensgade,9293,7,10.119984,56.889342
1778155,Kongensgade,9293,8,10.118024,56.887716
1778156,Kongensgade,9293,9,10.11977,56.889124
1778157,Kongensgade,9293,11,10.11963,56.888974
1778158,Kongensgade,9293,12,10.117694,56.887354
1778159,Kongensgade,9293,13,10.11946,56.888829
1778160,Kongensgade,9293,14,10.117572,56.887225
1778161,Kongensgade,9293,16,10.1172539,56.8871256
1778162,Kongensgade,9293,16A,10.117206,56.8870741
1778163,Kongensgade,9293,16B,10.1171584,56.8870225
1778164,Kongensgade,9293,16C,10.1171107,56.886971
1778165,Kongensgade,9293,16D,10.1170631,56.8869194
1778166,Kongensgade,9293,16E,10.1170154,56.8868679
1778167,Kongensgade,9293,16F,10.1169676,56.8868163
1778168,Kongensgade,9293,17,10.119189,56.888492
1778169,Kongensgade,9293,19,10.119012,56.88835
1778170,Kongensgade,9293,20,10.11519,56.885283
1778171,Kongensgade,9293,20A,10.115149,56.885231
1778172,Kongensgade,9293,21,10.118851,56.88819
1778173,Kongensgade,9293,21A,10.119399,56.888081
1778174,Kongensgade,9293,23,10.118508,56.887768
1778175,Kongensgade,9293,27,10.118109,56.887376
1778176,Kongensgade,9293,27A,10.117991,56.887195
1778177,Kongensgade,9293,28,10.11397,56.88507
1778178,Kongensgade,9293,29,10.117786,56.887035
1778179,Kongensgade,9293,30,10.113533,56.884981
1778180,Kongensgade,9293,31,10.117676,56.886858
1778181,Kongensgade,9293,32,10.112169,56.884641
1778182,Kongensgade,9293,33,10.117508,56.886734
1778183,Kongensgade,9293,34,10.111797,56.884526
1778184,Kongensgade,9293,35,10.117317,56.886518
1778185,Kongensgade,9293,35A,10.1172396,56.8862587
1778186,Kongensgade,9293,36,10.111587,56.88436
1778187,Kongensgade,9293,37A,10.1169143,56.8861192
1778188,Kongensgade,9293,37E,10.1166736,56.8858753
1778189,Kongensgade,9293,38,10.111131,56.884158
1778190,Kongensgade,9293,39,10.116309,56.885594
1778191,Kongensgade,9293,39A,10.116098,56.88543
1778192,Kongensgade,9293,40,10.110844,56.884048
1778193,Kongensgade,9293,40A,10.109431,56.883762
1778194,Kongensgade,9293,40B,10.108745,56.883227
1778195,Kongensgade,9293,41,10.115901,56.885297
1778196,Kongensgade,9293,42,10.107325,56.882849
1778197,Kongensgade,9293,43,10.115533,56.885121
1778198,Kongensgade,9293,44,10.105187,56.882417
1778199,Kongensgade,9293,45,10.115181,56.884956
1778200,Kongensgade,9293,46,10.104355,56.881567
1778201,Kongensgade,9293,47,10.114847,56.884981
1778202,Kongensgade,9293,49,10.114211,56.884924
1778203,Kongensgade,9293,49A,10.114202,56.884535
1778204,Kongensgade,9293,49B,10.114332,56.884522
1778205,Kongensgade,9293,49C,10.114459,56.884507
1778206,Kongensgade,9293,51A,10.113845,56.884812
1778207,Kongensgade,9293,51B,10.113882,56.884747
1778208,Kongensgade,9293,51C,10.113924,56.884673
1778209,Kongensgade,9293,53,10.113438,56.884802
1778210,Kongensgade,9293,55,10.113158,56.884739
1778211,Kongensgade,9293,57,10.112463,56.884544
1778212,Kongensgade,9293,59,10.111904,56.884284
1778213,Kongensgade,9293,61,10.111748,56.884166
1778214,Kongensgade,9293,63,10.111471,56.884085
1778215,Kongensgade,9293,65,10.110367,56.88352
1778216,Kongensgade,9293,67,10.1098865,56.8832869
1778217,Kongensgade,9293,71,10.107702,56.882369
1778218,Kongensgade,9293,73,10.107031,56.882073
1779389,Venusvej,9293,1,10.109962,56.88539
1779390,Venusvej,9293,3,10.109473,56.885467
1779391,Venusvej,9293,4,10.109772,56.885711
1779392,Venusvej,9293,5,10.108956,56.88553
1779393,Venusvej,9293,6,10.10925,56.885787
1779394,Venusvej,9293,7,10.108651,56.885695
1779395,Venusvej,9293,8,10.108757,56.885918
1780030,Bøgelunden,9293,1,10.112737,56.886361
1780031,Bøgelunden,9293,2,10.112474,56.886407
1780032,Bøgelunden,9293,3,10.112626,56.886228
1780033,Bøgelunden,9293,4,10.112377,56.886273
1780034,Bøgelunden,9293,5,10.112141,56.886304
1780035,Bøgelunden,9293,6,10.111895,56.886345
1780036,Bøgelunden,9293,7,10.112055,56.886471
1780037,Bøgelunden,9293,8,10.111819,56.886514
1780038,Bøgelunden,9293,9,10.112187,56.886597
1780039,Bøgelunden,9293,10,10.111984,56.886632
1780176,Vinkelvej,9293,1,10.111265,56.884501
1780177,Vinkelvej,9293,2,10.111814,56.884909
1780178,Vinkelvej,9293,4,10.111814,56.885187
1780179,Vinkelvej,9293,6,10.11144,56.885045
1780180,Vinkelvej,9293,8,10.11127,56.884809
1780284,Lindenborgvej,9293,1,10.08211,56.898086
1780285,Lindenborgvej,9293,2B,10.081841,56.899061
1780286,Lindenborgvej,9293,2C,10.080462,56.8986064
1780287,Lindenborgvej,9293,3,10.080838,56.897541
1780288,Lindenborgvej,9293,3A,10.081002,56.89787
1780289,Lindenborgvej,9293,3B,10.072335,56.896385
1780290,Lindenborgvej,9293,5,10.071898,56.896248
1780291,Lindenborgvej,9293,7,10.0692887,56.8953763
1780292,Lindenborgvej,9293,14,10.079925,56.898548
1780293,Lindenborgvej,9293,16,10.079725,56.897892
1780294,Lindenborgvej,9293,18,10.078898,56.897704
1780295,Lindenborgvej,9293,20,10.077542,56.897803
1780296,Lindenborgvej,9293,20C,10.065894,56.912843
1780297,Lindenborgvej,9293,22,10.076518,56.897962
1780298,Lindenborgvej,9293,22A,10.076559,56.898326
1780299,Lindenborgvej,9293,24,10.0759253,56.897894
1780300,Lindenborgvej,9293,26,10.0750958,56.8977618
1780301,Lindenborgvej,9293,28,10.074172,56.897725
1780302,Lindenborgvej,9293,28A,10.073072,56.905643
1780303,Lindenborgvej,9293,30,10.070193,56.900896
1780304,Lindenborgvej,9293,32,10.068504,56.901121
1780305,Lindenborgvej,9293,34,10.074345,56.897384
1780306,Lindenborgvej,9293,36,10.0739,56.897297
1780734,Danmarksgade,9293,1,10.110571,56.888464
1780735,Danmarksgade,9293,1A,10.1092684,56.8883821
1780736,Danmarksgade,9293,2,10.111103,56.887612
1780737,Danmarksgade,9293,2A,10.10991,56.887967
1780738,Danmarksgade,9293,3,10.111772,56.887858
1780739,Danmarksgade,9293,4,10.11152,56.887534
1780740,Danmarksgade,9293,5,10.11238,56.887851
1780741,Danmarksgade,9293,5A,10.112051,56.8878
1780742,Danmarksgade,9293,6,10.112051,56.88732
1780743,Danmarksgade,9293,6A,10.112699,56.887156
1780744,Danmarksgade,9293,7,10.112643,56.887648
1780745,Danmarksgade,9293,8A,10.113361,56.887175
1780746,Danmarksgade,9293,8B,10.113449,56.887153
1780747,Danmarksgade,9293,8C,10.113354,56.887082
1780748,Danmarksgade,9293,8D,10.113329,56.887058
1780749,Danmarksgade,9293,8E,10.113311,56.887034
1780750,Danmarksgade,9293,8F,10.113217,56.886947
1780751,Danmarksgade,9293,9,10.113007,56.887535
1780752,Danmarksgade,9293,10,10.113864,56.88704
1780753,Danmarksgade,9293,11,10.113236,56.887361
1780754,Danmarksgade,9293,12,10.114175,56.886975
1780755,Danmarksgade,9293,13A,10.113419,56.887309
1780756,Danmarksgade,9293,13B,10.113529,56.887314
1780757,Danmarksgade,9293,13C,10.113588,56.887264
1780758,Danmarksgade,9293,15,10.115477,56.886168
1780759,Danmarksgade,9293,16,10.114453,56.886911
1780760,Danmarksgade,9293,18,10.114625,56.88687
1780761,Danmarksgade,9293,20,10.11481,56.886827
1780762,Danmarksgade,9293,21,10.115668,56.885629
1780763,Danmarksgade,9293,22,10.115113,56.886604
1780764,Danmarksgade,9293,23,10.116036,56.885121
1780765,Danmarksgade,9293,24,10.115053,56.886349
1780766,Danmarksgade,9293,25,10.116429,56.884928
1780767,Danmarksgade,9293,26,10.115159,56.886122
1780768,Danmarksgade,9293,27,10.116638,56.884823
1780769,Danmarksgade,9293,28,10.115176,56.885772
1780770,Danmarksgade,9293,29,10.1170674,56.8847653
1780771,Danmarksgade,9293,30,10.115184,56.885613
1780772,Danmarksgade,9293,31,10.1174643,56.8845517
1780773,Danmarksgade,9293,32,10.115791,56.884967
1780774,Danmarksgade,9293,33,10.1178371,56.884466
1780775,Danmarksgade,9293,34,10.116002,56.884865
1780776,Danmarksgade,9293,35,10.117889,56.884256
1780777,Danmarksgade,9293,36,10.116235,56.884768
1780778,Danmarksgade,9293,37,10.1183684,56.8841062
1780779,Danmarksgade,9293,37A,10.1189125,56.8846284
1780780,Danmarksgade,9293,38,10.11633,56.88426
1780781,Danmarksgade,9293,38A,10.116414,56.8845
1780782,Danmarksgade,9293,39,10.1195145,56.8836422
1780783,Danmarksgade,9293,40,10.116867,56.884421
1780784,Danmarksgade,9293,41,10.120504,56.88328
1780785,Danmarksgade,9293,42,10.117235,56.884283
1780786,Danmarksgade,9293,43,10.12109,56.883148
1780787,Danmarksgade,9293,44,10.117458,56.884136
1780788,Danmarksgade,9293,45,10.12258,56.884181
1780789,Danmarksgade,9293,46,10.118294,56.883829
1780790,Danmarksgade,9293,48,10.118427,56.88358
1780791,Danmarksgade,9293,48A,10.118387,56.88347
1780792,Danmarksgade,9293,52,10.1194208,56.8833473
1780793,Danmarksgade,9293,56,10.120525,56.882992
1780794,Danmarksgade,9293,58,10.120911,56.882823
1780896,Møllevej,9293,1,10.114472,56.883594
1780897,Møllevej,9293,2,10.114175,56.883532
1780898,Møllevej,9293,3,10.114613,56.883319
1782824,Kirkestræde,9293,1,10.112234,56.884326
1782825,Kirkestræde,9293,3,10.112159,56.884134
1782826,Kirkestræde,9293,5,10.111392,56.883597
1782924,N.P. Gravesensvej,9293,2,10.113484,56.886018
1782925,N.P. Gravesensvej,9293,14,10.115025,56.885409
1784464,Skovbrynet,9293,2,10.10838,56.884125
1784465,Skovbrynet,9293,3,10.108664,56.883857
1784466,Skovbrynet,9293,4,10.107929,56.884236
1784467,Skovbrynet,9293,5,10.108218,56.883674
1784468,Skovbrynet,9293,6,10.107672,56.884354
1784469,Skovbrynet,9293,7,10.107863,56.883523
1784470,Skovbrynet,9293,8,10.107538,56.884082
1784471,Skovbrynet,9293,9,10.107242,56.88352
1784472,Skovbrynet,9293,10,10.107339,56.883756
1785108,Magnoliehaven,9293,1,10.114512,56.892746
1785109,Magnoliehaven,9293,2,10.113801,56.892802
1785110,Magnoliehaven,9293,3,10.114976,56.892634
1785111,Magnoliehaven,9293,4,10.113368,56.892851
1785112,Magnoliehaven,9293,5,10.114646,56.892382
1785113,Magnoliehaven,9293,6,10.113248,56.892666
1785114,Magnoliehaven,9293,7,10.11442,56.892121
1785115,Magnoliehaven,9293,8,10.113038,56.892453
1785116,Magnoliehaven,9293,9,10.114188,56.891783
1785117,Magnoliehaven,9293,10,10.113464,56.892376
1785118,Magnoliehaven,9293,11,10.113884,56.891524
1785119,Magnoliehaven,9293,12,10.113374,56.89174
1785120,Magnoliehaven,9293,13,10.113664,56.891306
1785121,Magnoliehaven,9293,14,10.11298,56.891754
1785122,Magnoliehaven,9293,15,10.113263,56.891307
1785123,Magnoliehaven,9293,16,10.112478,56.891813
1785124,Magnoliehaven,9293,17,10.112495,56.891465
1785125,Magnoliehaven,9293,18,10.112214,56.891556
1785327,Valdemarsgade,9293,2,10.1256161,56.9051588
1785330,Valdemarsgade,9293,6,10.125164,56.904359
1785331,Valdemarsgade,9293,8,10.124949,56.904145
1785333,Valdemarsgade,9293,10,10.124837,56.903832
1785694,Bugdalsvej,9293,1,10.12592,56.9214389
1785695,Bugdalsvej,9293,3,10.126095,56.923878
1785696,Bugdalsvej,9293,3A,10.124135,56.925275
1785697,Bugdalsvej,9293,5,10.125422,56.926978
1785698,Bugdalsvej,9293,7,10.12502,56.928459
1785948,Vindevej,9293,1,10.127302,56.907588
1785949,Vindevej,9293,2,10.12746,56.907832
1785950,Vindevej,9293,3,10.1278976,56.9076189
1785951,Vindevej,9293,3A,10.128616,56.907919
1785952,Vindevej,9293,4,10.128383,56.908051
1790766,Vesterkærvej,9293,2,10.120191,56.913772
1790770,Vesterkærvej,9293,2A,10.128278,56.911413
1790773,Vesterkærvej,9293,4,10.119769,56.912197
1790774,Vesterkærvej,9293,6,10.117457,56.911918
1790777,Vesterkærvej,9293,8,10.114874,56.912033
1790862,Skovkrogen,9293,2,10.1076785,56.8852668
1790864,Skovkrogen,9293,3,10.10636,56.885508
1790865,Skovkrogen,9293,4,10.107729,56.885501
1790866,Skovkrogen,9293,5,10.10552,56.885652
1790868,Skovkrogen,9293,6,10.107716,56.885764
1790869,Skovkrogen,9293,7,10.105185,56.885804
1790871,Skovkrogen,9293,8,10.107878,56.886045
1790872,Skovkrogen,9293,10,10.107383,56.88606
1790873,Skovkrogen,9293,12,10.106743,56.886269
1790874,Skovkrogen,9293,14,10.107185,56.885803
1790875,Skovkrogen,9293,16,10.106692,56.885762
1790876,Skovkrogen,9293,18,10.106334,56.885819
1790877,Skovkrogen,9293,20,10.105734,56.885981
1790878,Skovkrogen,9293,22,10.10523,56.886072
1790941,J.F. La Cours Vej,9293,1,10.1200109,56.8828627
1790943,J.F. La Cours Vej,9293,2,10.1197319,56.8826869
1790944,J.F. La Cours Vej,9293,2A,10.1194655,56.883063
1790945,J.F. La Cours Vej,9293,2B,10.1197503,56.8820715
1790948,J.F. La Cours Vej,9293,3,10.120196,56.882354
1790949,J.F. La Cours Vej,9293,3B,10.1211612,56.8790516
1790951,J.F. La Cours Vej,9293,3C,10.121426,56.8784915
1790952,J.F. La Cours Vej,9293,3D,10.1208054,56.880038
1790953,J.F. La Cours Vej,9293,4,10.1201291,56.8804926
1790955,J.F. La Cours Vej,9293,4A,10.121161,56.8777751
1790956,J.F. La Cours Vej,9293,5,10.121973,56.876706
1790958,J.F. La Cours Vej,9293,6,10.1202915,56.8770354
1790960,J.F. La Cours Vej,9293,8,10.1202629,56.8758799
1791747,Sigsgaardvej,9293,1,10.126956,56.903792
1791748,Sigsgaardvej,9293,3,10.12735,56.904232
1791750,Sigsgaardvej,9293,4,10.127298,56.903533
1791752,Sigsgaardvej,9293,5,10.127418,56.903749
1791753,Sigsgaardvej,9293,6,10.127563,56.903499
1791754,Sigsgaardvej,9293,7,10.127953,56.90368
1791755,Sigsgaardvej,9293,8,10.127743,56.903331
1791757,Sigsgaardvej,9293,9,10.128952,56.903544
1791758,Sigsgaardvej,9293,10,10.128217,56.903432
1791759,Sigsgaardvej,9293,12,10.128596,56.903362
1791761,Sigsgaardvej,9293,13,10.129861,56.903463
1791763,Sigsgaardvej,9293,14,10.129051,56.903316
1791764,Sigsgaardvej,9293,15,10.130215,56.90342
1791766,Sigsgaardvej,9293,16,10.129618,56.903252
1791767,Sigsgaardvej,9293,17,10.130837,56.903284
1791768,Sigsgaardvej,9293,18,10.130459,56.90317
1791769,Sigsgaardvej,9293,19,10.147566,56.9056
1791770,Sigsgaardvej,9293,19A,10.1473699,56.9058602
1791771,Sigsgaardvej,9293,21,10.150806,56.904289
1791772,Sigsgaardvej,9293,23,10.153249,56.900222
1791773,Sigsgaardvej,9293,23A,10.155162,56.899669
1791774,Sigsgaardvej,9293,24,10.130962,56.903061
1791775,Sigsgaardvej,9293,25,10.157774,56.902916
1791776,Sigsgaardvej,9293,26,10.1426439,56.8969309
1791777,Sigsgaardvej,9293,27,10.158088,56.901368
1791778,Sigsgaardvej,9293,28,10.147638,56.900623
1791779,Sigsgaardvej,9293,29,10.157197,56.899943
1791780,Sigsgaardvej,9293,30,10.154198,56.899417
1791781,Sigsgaardvej,9293,31,10.1564011,56.8987347
1791782,Sigsgaardvej,9293,32,10.154624,56.89852
1791783,Sigsgaardvej,9293,33,10.155875,56.898114
1791784,Sigsgaardvej,9293,34,10.154562,56.898137
1791785,Sigsgaardvej,9293,35,10.15543,56.897219
1791786,Sigsgaardvej,9293,36,10.155297,56.892905
1791787,Sigsgaardvej,9293,37,10.15557,56.89678
1791788,Sigsgaardvej,9293,39,10.15514,56.895891
1791789,Sigsgaardvej,9293,41,10.155015,56.895221
1791790,Sigsgaardvej,9293,43,10.157603,56.890375
1793269,Lundensvej,9293,1,10.124173,56.882275
1793270,Lundensvej,9293,2,10.127253,56.880394
1793271,Lundensvej,9293,5,10.136052,56.87711
1793272,Lundensvej,9293,8,10.133523,56.876609
1794929,Hyldevej,9293,2,10.111305,56.911807
1794930,Hyldevej,9293,4,10.106377,56.912818
1794931,Hyldevej,9293,6,10.105293,56.912797
1794932,Hyldevej,9293,8,10.104362,56.913007
1795284,Refsnæsvej,9293,1,10.108071,56.889033
1795285,Refsnæsvej,9293,1B,10.107811,56.889838
1795286,Refsnæsvej,9293,2,10.1085195,56.8886891
1795287,Refsnæsvej,9293,3,10.0913547,56.9094363
1795288,Refsnæsvej,9293,3A,10.0865074,56.9093711
1795289,Refsnæsvej,9293,3B,10.0861338,56.9101441
1795290,Refsnæsvej,9293,4,10.108762,56.888966
1795291,Refsnæsvej,9293,5,10.091856,56.920002
1795292,Refsnæsvej,9293,8,10.105423,56.893209
1795293,Refsnæsvej,9293,8A,10.105128,56.89368
1795294,Refsnæsvej,9293,8B,10.103675,56.894837
1795295,Refsnæsvej,9293,9,10.095736,56.926388
1795296,Refsnæsvej,9293,10,10.101544,56.896801
1795297,Refsnæsvej,9293,12,10.101039,56.897415
1795298,Refsnæsvej,9293,14,10.099853,56.898952
1795299,Refsnæsvej,9293,16,10.099601,56.900011
1795300,Refsnæsvej,9293,18,10.093865,56.917796
1795301,Refsnæsvej,9293,20,10.093443,56.92004
1795302,Refsnæsvej,9293,22,10.097689,56.921189
1795303,Refsnæsvej,9293,24,10.099638,56.920089
1795304,Refsnæsvej,9293,28,10.093214,56.921879
1795305,Refsnæsvej,9293,30,10.095522,56.9259
1795861,Vildmosevej,9293,1,10.130424,56.881021
1795863,Vildmosevej,9293,2,10.132709,56.880947
1795866,Vildmosevej,9293,3,10.1373032,56.8823719
1795867,Vildmosevej,9293,4,10.15359,56.886768
1795869,Vildmosevej,9293,6,10.156835,56.888318
1795870,Vildmosevej,9293,7,10.1425322,56.8837791
1795872,Vildmosevej,9293,8,10.157601,56.888886
1795874,Vildmosevej,9293,13,10.147882,56.886162
1795877,Vildmosevej,9293,15,10.15052,56.886804
1795880,Vildmosevej,9293,17,10.15331,56.888195
1800334,Erantisvej,9293,1,10.116176,56.891579
1800336,Erantisvej,9293,3,10.115577,56.891743
1800338,Erantisvej,9293,4,10.115997,56.89204
1800341,Erantisvej,9293,5,10.115417,56.891524
1800343,Erantisvej,9293,6,10.11616,56.892281
1800344,Erantisvej,9293,7,10.115204,56.891321
1800345,Erantisvej,9293,8,10.115581,56.89246
1800347,Erantisvej,9293,9,10.114964,56.891096
1800349,Erantisvej,9293,10,10.115454,56.892216
1800351,Erantisvej,9293,12,10.115262,56.891983
1800353,Erantisvej,9293,14,10.115004,56.891762
1800354,Erantisvej,9293,16,10.114841,56.891525
1800356,Erantisvej,9293,18,10.114596,56.89134
1800357,Erantisvej,9293,20,10.114438,56.891144
1801682,Myrtevej,9293,1,10.11953,56.891144
1801683,Myrtevej,9293,2,10.119128,56.891319
1801684,Myrtevej,9293,3,10.120008,56.891044
1801685,Myrtevej,9293,4,10.119018,56.891139
1801686,Myrtevej,9293,8,10.118477,56.890577
1801687,Myrtevej,9293,9,10.119804,56.890837
1801688,Myrtevej,9293,10,10.118189,56.890347
1801689,Myrtevej,9293,11,10.119345,56.890834
1801690,Myrtevej,9293,13,10.118989,56.890581
1801691,Myrtevej,9293,15,10.119479,56.890365
1801692,Myrtevej,9293,17,10.120009,56.890247
1801693,Myrtevej,9293,19,10.119834,56.890067
1801694,Myrtevej,9293,21,10.11968,56.88991
1801695,Myrtevej,9293,23,10.11914,56.890128
1801696,Myrtevej,9293,25,10.118796,56.890273
1803451,Fogedvej,9293,1,10.112834,56.884662
1803452,Fogedvej,9293,3,10.113193,56.884423
1803453,Fogedvej,9293,4,10.112635,56.884489
1803454,Fogedvej,9293,5,10.11283,56.884226
1803455,Fogedvej,9293,6,10.112544,56.884191
1803456,Fogedvej,9293,7,10.112867,56.884003
1804177,Havevej,9293,2,10.11996,56.888252
1804178,Havevej,9293,3,10.12035,56.888324
1804179,Havevej,9293,4,10.120256,56.888221
1804180,Havevej,9293,5,10.120702,56.888314
1804181,Havevej,9293,6,10.120506,56.888085
1804182,Havevej,9293,7,10.121011,56.888219
1804183,Havevej,9293,8,10.120771,56.888006
1804184,Havevej,9293,9,10.121174,56.888123
1804185,Havevej,9293,10,10.121048,56.88793
1804186,Havevej,9293,11,10.121556,56.888018
1804187,Havevej,9293,12,10.121347,56.887894
1804188,Havevej,9293,13,10.121774,56.887932
1804189,Havevej,9293,14,10.121658,56.887812
1804190,Havevej,9293,16,10.121909,56.887743
1804191,Havevej,9293,17,10.122406,56.887874
1804192,Havevej,9293,18,10.122219,56.887646
1804193,Havevej,9293,19,10.122663,56.887709
1804233,Præstegårdsvej,9293,1,10.112208,56.882638
1804235,Præstegårdsvej,9293,2,10.110063,56.882919
1804238,Præstegårdsvej,9293,2A,10.110363,56.882842
1804239,Præstegårdsvej,9293,2B,10.110866,56.88315
1804243,Præstegårdsvej,9293,4,10.111573,56.882686
1804506,Thyge Hvass Vej,9293,2,10.120714,56.882615
1804507,Thyge Hvass Vej,9293,4,10.120529,56.882368
1804508,Thyge Hvass Vej,9293,6,10.120566,56.882155
1804509,Thyge Hvass Vej,9293,8,10.120531,56.881866
1806564,Lindevej,9293,3,10.108507,56.885277
1806568,Lindevej,9293,4,10.108888,56.885076
1806571,Lindevej,9293,6,10.108968,56.885274
1807598,Marsvej,9293,2,10.110501,56.884497
1807599,Marsvej,9293,4,10.110793,56.884778
1807600,Marsvej,9293,6,10.111031,56.8851
1807601,Marsvej,9293,8,10.11181,56.885432
1808174,Seefeldtslundvej,9293,1,10.1020875,56.8756105
1808176,Seefeldtslundvej,9293,2,10.104108,56.8749922
1808179,Seefeldtslundvej,9293,3,10.1046227,56.875186
1808181,Seefeldtslundvej,9293,4,10.1058527,56.8743945
1808183,Seefeldtslundvej,9293,5,10.109452,56.874022
1808187,Seefeldtslundvej,9293,6,10.1071354,56.8741756
1808189,Seefeldtslundvej,9293,7,10.111443,56.8733196
1808190,Seefeldtslundvej,9293,8,10.109101,56.8730291
1808193,Seefeldtslundvej,9293,9,10.1146818,56.8717789
1808195,Seefeldtslundvej,9293,10,10.1201267,56.869955
1808200,Seefeldtslundvej,9293,11,10.1180996,56.871057
1808204,Seefeldtslundvej,9293,12,10.1192915,56.8708834
1808206,Seefeldtslundvej,9293,13,10.119349,56.872708
1808207,Seefeldtslundvej,9293,14,10.1206542,56.8738183
1808549,Svanfolkvej,9293,6,10.0830298,56.8563239
1808550,Svanfolkvej,9293,7,10.0836989,56.8441067
1808551,Svanfolkvej,9293,9,10.0872898,56.8467673
1808552,Svanfolkvej,9293,10,10.07954,56.8569811
1808553,Svanfolkvej,9293,12,10.0792088,56.857047
1808554,Svanfolkvej,9293,13,10.0894878,56.8476087
1808555,Svanfolkvej,9293,15,10.0902807,56.8493851
1808556,Svanfolkvej,9293,16,10.0779548,56.8571288
1808557,Svanfolkvej,9293,18,10.0773534,56.8567681
1808558,Svanfolkvej,9293,19,10.0877798,56.853863
1808559,Svanfolkvej,9293,21,10.0849212,56.8556537
1808560,Svanfolkvej,9293,22,10.0726303,56.8538991
1808561,Svanfolkvej,9293,24,10.0694256,56.8550711
1808562,Svanfolkvej,9293,25,10.0811099,56.8558998
1808563,Svanfolkvej,9293,26,10.0689223,56.8534392
1808564,Svanfolkvej,9293,29,10.0789758,56.8566813
1808565,Svanfolkvej,9293,31,10.0781974,56.8566458
1808566,Svanfolkvej,9293,33,10.0687605,56.8509328
1808567,Svanfolkvej,9293,35,10.0695107,56.8505271
1810753,Lunavej,9293,1,10.111719,56.886146
1810754,Lunavej,9293,2A,10.111556,56.885844
1810755,Lunavej,9293,2B,10.111492,56.885711
1810757,Lunavej,9293,3,10.112365,56.886034
1810758,Lunavej,9293,4A,10.111906,56.885795
1810759,Lunavej,9293,4B,10.111865,56.885665
1810761,Lunavej,9293,6A,10.11235,56.885778
1810762,Lunavej,9293,6B,10.112289,56.885737
1810764,Lunavej,9293,6C,10.112226,56.885699
1810765,Lunavej,9293,6D,10.112168,56.885655
1810766,Lunavej,9293,6E,10.1121,56.885609
1811189,Østerkærvej,9293,1,10.141882,56.910161
1811190,Østerkærvej,9293,2,10.14526,56.914087
1811191,Østerkærvej,9293,3,10.143495,56.913601
1811194,Østerkærvej,9293,5,10.141351,56.9144
1811195,Østerkærvej,9293,7,10.143953,56.914573
1811197,Østerkærvej,9293,9,10.145214,56.916259
1811199,Østerkærvej,9293,11,10.145365,56.916817
1811203,Østerkærvej,9293,13,10.1461387,56.9179278
1814706,Rolighedsvej,9293,1,10.117191,56.885842
1814708,Rolighedsvej,9293,2A,10.116767,56.88553
1814710,Rolighedsvej,9293,2B,10.116661,56.885378
1814711,Rolighedsvej,9293,2C,10.116586,56.885322
1814714,Rolighedsvej,9293,2D,10.116513,56.885256
1814716,Rolighedsvej,9293,2E,10.116828,56.885235
1814721,Rolighedsvej,9293,2F,10.116954,56.885208
1814726,Rolighedsvej,9293,3,10.117259,56.885564
1814728,Rolighedsvej,9293,4,10.117102,56.885437
1814732,Rolighedsvej,9293,5,10.117555,56.885522
1814734,Rolighedsvej,9293,6,10.11726,56.885372
1814740,Rolighedsvej,9293,7,10.117932,56.885284
1814743,Rolighedsvej,9293,8,10.117479,56.885254
1814746,Rolighedsvej,9293,10,10.117844,56.88514
1814749,Rolighedsvej,9293,12,10.118128,56.885081
1823871,Gartnervænget,9293,2,10.118298,56.887493
1823872,Gartnervænget,9293,3,10.119043,56.887641
1823873,Gartnervænget,9293,4,10.118457,56.88745
1823874,Gartnervænget,9293,5,10.119378,56.887887
1823875,Gartnervænget,9293,6,10.118596,56.887409
1823876,Gartnervænget,9293,7,10.119764,56.887783
1823877,Gartnervænget,9293,8,10.118758,56.887365
1823878,Gartnervænget,9293,9,10.120259,56.887719
1823879,Gartnervænget,9293,10,10.1195937,56.887563
1823881,Gartnervænget,9293,11,10.120689,56.887646
1823882,Gartnervænget,9293,12,10.119988,56.887409
1823887,Gartnervænget,9293,13,10.121091,56.887456
1823890,Gartnervænget,9293,14,10.12037,56.887283
1823891,Gartnervænget,9293,16,10.121036,56.887077
1823895,Gartnervænget,9293,17,10.121794,56.88734
1823897,Gartnervænget,9293,18,10.121457,56.886936
1823901,Gartnervænget,9293,19,10.119237,56.887209
1823903,Gartnervænget,9293,20,10.118658,56.887186
1823904,Gartnervænget,9293,21,10.1195909,56.8871409
1823905,Gartnervænget,9293,22,10.118507,56.887036
1823906,Gartnervænget,9293,23,10.1201651,56.8869414
1823907,Gartnervænget,9293,25,10.1206768,56.88677
1823908,Gartnervænget,9293,27,10.1210829,56.8866946
1823909,Gartnervænget,9293,29,10.1205787,56.88637
1823910,Gartnervænget,9293,30A,10.117779,56.886368
1823911,Gartnervænget,9293,30B,10.117709,56.886287
1823912,Gartnervænget,9293,30C,10.117649,56.886222
1823913,Gartnervænget,9293,31,10.1200806,56.886493
1823914,Gartnervænget,9293,32A,10.118452,56.886176
1823915,Gartnervænget,9293,32B,10.118362,56.886082
1823916,Gartnervænget,9293,32C,10.118221,56.885937
1823917,Gartnervænget,9293,32D,10.11809,56.886001
1823918,Gartnervænget,9293,32E,10.117986,56.886064
1823921,Gartnervænget,9293,33,10.119794,56.886661
1823924,Gartnervænget,9293,34,10.118674,56.885982
1823928,Gartnervænget,9293,34A,10.118609,56.886057
1823929,Gartnervænget,9293,35,10.11927,56.886787
1823934,Gartnervænget,9293,36,10.118627,56.885925
1823937,Gartnervænget,9293,37,10.118929,56.886958
1823939,Gartnervænget,9293,38,10.118574,56.885848
1823940,Gartnervænget,9293,39,10.1184145,56.8864133
1823941,Gartnervænget,9293,40,10.118418,56.885728
1823942,Gartnervænget,9293,41,10.118797,56.8863058
1823943,Gartnervænget,9293,42,10.118494,56.885614
1823944,Gartnervænget,9293,43,10.1191796,56.8861967
1823946,Gartnervænget,9293,44,10.118728,56.885671
1823948,Gartnervænget,9293,45,10.1195781,56.886155
1823950,Gartnervænget,9293,46,10.118817,56.885799
1823953,Gartnervænget,9293,47,10.120021,56.886003
1823954,Gartnervænget,9293,48,10.118879,56.885893
1823957,Gartnervænget,9293,50,10.118975,56.885978
1823959,Gartnervænget,9293,52,10.1187347,56.8854688
1823962,Gartnervænget,9293,54,10.1186517,56.8854751
1823963,Gartnervænget,9293,56,10.118462,56.885453
1823968,Gartnervænget,9293,58,10.118601,56.885294
1823973,Gartnervænget,9293,60,10.118869,56.885312
1823978,Gartnervænget,9293,62,10.119053,56.885525
1823983,Gartnervænget,9293,64,10.119188,56.88566
1823986,Gartnervænget,9293,66,10.119397,56.885595
1823989,Gartnervænget,9293,68,10.119297,56.88579
1823991,Gartnervænget,9293,70,10.119606,56.885875
1823993,Gartnervænget,9293,72,10.119803,56.885817
1824209,Landmandsgade,9293,1,10.128488,56.910491
1824210,Landmandsgade,9293,2,10.128281,56.911095
1824211,Landmandsgade,9293,4,10.128157,56.910836
1824212,Landmandsgade,9293,8,10.126951,56.91048
1824213,Landmandsgade,9293,9,10.127432,56.909254
1824214,Landmandsgade,9293,10,10.1273498,56.909731
1824215,Landmandsgade,9293,11,10.127262,56.908741
1824216,Landmandsgade,9293,12,10.127223,56.909355
1824217,Landmandsgade,9293,13,10.127505,56.908649
1824218,Landmandsgade,9293,14,10.126989,56.908857
1824219,Landmandsgade,9293,15,10.127179,56.908409
1824220,Landmandsgade,9293,16,10.126667,56.908549
1824221,Landmandsgade,9293,17,10.127097,56.908171
1824222,Landmandsgade,9293,18,10.126807,56.908314
1824223,Landmandsgade,9293,19,10.127007,56.907966
1824224,Landmandsgade,9293,20,10.126635,56.908053
1824225,Landmandsgade,9293,22,10.126273,56.907553
1824227,Landmandsgade,9293,24,10.125986,56.907296
1824229,Landmandsgade,9293,25,10.126779,56.907379
1824231,Landmandsgade,9293,25A,10.126917,56.906988
1824233,Landmandsgade,9293,26,10.12593,56.907084
1824236,Landmandsgade,9293,27,10.126346,56.907072
1824237,Landmandsgade,9293,28A,10.1258395,56.9064529
1824239,Landmandsgade,9293,28B,10.1258579,56.9065261
1824242,Landmandsgade,9293,29,10.126275,56.906879
1824243,Landmandsgade,9293,30,10.125916,56.906258
1824245,Landmandsgade,9293,30A,10.1257723,56.9066338
1824249,Landmandsgade,9293,31,10.126244,56.906771
1824252,Landmandsgade,9293,32,10.125889,56.90613
1824255,Landmandsgade,9293,33,10.126233,56.906582
1824258,Landmandsgade,9293,34A,10.125967,56.905875
1824261,Landmandsgade,9293,34B,10.125819,56.905882
1824264,Landmandsgade,9293,35,10.126442,56.906209
1824267,Landmandsgade,9293,36,10.125873,56.905283
1824268,Landmandsgade,9293,36A,10.124701,56.9051602
1824273,Landmandsgade,9293,37,10.126449,56.906379
1824276,Landmandsgade,9293,39,10.126427,56.906061
1824277,Landmandsgade,9293,40,10.125782,56.903991
1824282,Landmandsgade,9293,41,10.126328,56.905643
1824284,Landmandsgade,9293,41A,10.128193,56.906041
1824287,Landmandsgade,9293,42,10.126026,56.903775
1824291,Landmandsgade,9293,43,10.1262567,56.905253
1824293,Landmandsgade,9293,44,10.126025,56.903491
1824297,Landmandsgade,9293,45,10.126195,56.905021
1824300,Landmandsgade,9293,47,10.126349,56.9043647
1824302,Landmandsgade,9293,47A,10.12593,56.904281
1824305,Landmandsgade,9293,49,10.126442,56.904132
1824307,Landmandsgade,9293,51,10.1264944,56.9039473
1824308,Landmandsgade,9293,55,10.126557,56.903427
1824311,Landmandsgade,9293,57,10.126495,56.903238
1824314,Landmandsgade,9293,61,10.1260949,56.9012712
1825795,Dalsgaardvej,9293,2,10.125789,56.90686
1825799,Dalsgaardvej,9293,3,10.125384,56.906617
1825800,Dalsgaardvej,9293,4,10.125438,56.906843
1825802,Dalsgaardvej,9293,5,10.125146,56.906333
1825803,Dalsgaardvej,9293,5A,10.124891,56.906196
1825806,Dalsgaardvej,9293,6,10.125281,56.907058
1825808,Dalsgaardvej,9293,7,10.124785,56.906327
1825809,Dalsgaardvej,9293,8,10.124711,56.906882
1825811,Dalsgaardvej,9293,9,10.1247,56.906453
1825813,Dalsgaardvej,9293,10,10.12418,56.906847
1825814,Dalsgaardvej,9293,11,10.12484,56.906611
1825818,Dalsgaardvej,9293,12,10.123704,56.906927
1825819,Dalsgaardvej,9293,13,10.124663,56.906658
1825820,Dalsgaardvej,9293,14,10.123344,56.906994
1825823,Dalsgaardvej,9293,15,10.1245197,56.9064825
1825825,Dalsgaardvej,9293,16,10.114807,56.907348
1825826,Dalsgaardvej,9293,17,10.124234,56.906104
1825828,Dalsgaardvej,9293,17A,10.124364,56.905819
1825831,Dalsgaardvej,9293,19,10.124098,56.906648
1825833,Dalsgaardvej,9293,21,10.123776,56.906629
1825835,Dalsgaardvej,9293,23,10.123476,56.906666
1825836,Dalsgaardvej,9293,25,10.1231,56.906704
1825837,Dalsgaardvej,9293,27,10.1189883,56.9067528
1825838,Dalsgaardvej,9293,29,10.110641,56.907083
1825839,Dalsgaardvej,9293,31,10.108089,56.907121
1827483,Møllebakken,9293,1,10.126482,56.902995
1827486,Møllebakken,9293,2,10.126638,56.902837
1827487,Møllebakken,9293,3,10.127223,56.903051
1827489,Møllebakken,9293,4,10.127059,56.902765
1827490,Møllebakken,9293,5,10.127653,56.902977
1827493,Møllebakken,9293,6,10.127452,56.902729
1827494,Møllebakken,9293,7,10.127854,56.902909
1827495,Møllebakken,9293,8,10.127847,56.90268
1827496,Møllebakken,9293,9,10.128642,56.902846
1827497,Møllebakken,9293,10,10.128292,56.902651
1827498,Møllebakken,9293,11,10.1290343,56.9028846
1827499,Møllebakken,9293,12,10.128702,56.902491
1827500,Møllebakken,9293,13,10.1294886,56.9028439
1827501,Møllebakken,9293,14,10.129088,56.9025
1827502,Møllebakken,9293,15,10.129905,56.902886
1827503,Møllebakken,9293,17,10.1297262,56.9026016
1827504,Møllebakken,9293,19,10.12964,56.9023666
1829444,Guldrankevej,9293,1,10.118655,56.89085
1829445,Guldrankevej,9293,3,10.118202,56.890977
1829446,Guldrankevej,9293,4,10.118453,56.891171
1829447,Guldrankevej,9293,5,10.117831,56.890723
1829448,Guldrankevej,9293,6,10.11851,56.891474
1829449,Guldrankevej,9293,7,10.117522,56.890542
1829450,Guldrankevej,9293,8,10.118092,56.891659
1829451,Guldrankevej,9293,10,10.117862,56.891479
1829452,Guldrankevej,9293,12,10.117686,56.891146
1829453,Guldrankevej,9293,14,10.117399,56.89093
1829454,Guldrankevej,9293,16,10.117101,56.89065
1830355,Lergravsvej,9293,1,10.113901,56.884523
1830382,Vestergaardsvej,9293,1,10.108111,56.88777
1830383,Vestergaardsvej,9293,2,10.108341,56.888051
1830384,Vestergaardsvej,9293,3,10.108017,56.887566
1830385,Vestergaardsvej,9293,4,10.107882,56.888132
1830386,Vestergaardsvej,9293,5,10.10789,56.887312
1830387,Vestergaardsvej,9293,6,10.107494,56.88821
1830388,Vestergaardsvej,9293,7,10.107682,56.887136
1830389,Vestergaardsvej,9293,8,10.10707,56.888302
1830390,Vestergaardsvej,9293,9,10.107282,56.887198
1830391,Vestergaardsvej,9293,11,10.10731,56.887461
1830392,Vestergaardsvej,9293,13,10.107561,56.887673
1830393,Vestergaardsvej,9293,15,10.107678,56.887894
1830394,Vestergaardsvej,9293,17,10.107028,56.88804
1830395,Vestergaardsvej,9293,18A,10.105101,56.88888
1830396,Vestergaardsvej,9293,18B,10.104999,56.888934
1830397,Vestergaardsvej,9293,19,10.106842,56.88782
1830398,Vestergaardsvej,9293,20A,10.104696,56.888989
1830399,Vestergaardsvej,9293,20B,10.104585,56.889046
1830400,Vestergaardsvej,9293,21,10.106738,56.887579
1830401,Vestergaardsvej,9293,22A,10.104238,56.889067
1830402,Vestergaardsvej,9293,22B,10.104125,56.889129
1830403,Vestergaardsvej,9293,23,10.10653,56.887318
1830404,Vestergaardsvej,9293,24A,10.103778,56.88915
1830405,Vestergaardsvej,9293,24B,10.103674,56.889209
1830406,Vestergaardsvej,9293,25,10.105993,56.887404
1830407,Vestergaardsvej,9293,26,10.1033171,56.8892098
1830408,Vestergaardsvej,9293,27,10.106165,56.887622
1830409,Vestergaardsvej,9293,28,10.1028235,56.8892979
1830410,Vestergaardsvej,9293,29,10.106354,56.887899
1830411,Vestergaardsvej,9293,30,10.1024826,56.8893344
1830412,Vestergaardsvej,9293,31,10.106513,56.888107
1830413,Vestergaardsvej,9293,32,10.1019712,56.8894338
1830414,Vestergaardsvej,9293,33A,10.10561,56.888238
1830415,Vestergaardsvej,9293,33B,10.105751,56.888216
1830416,Vestergaardsvej,9293,33C,10.105891,56.888189
1830417,Vestergaardsvej,9293,34,10.1016156,56.8895823
1830418,Vestergaardsvej,9293,35A,10.105776,56.888058
1830419,Vestergaardsvej,9293,35B,10.105732,56.887963
1830420,Vestergaardsvej,9293,35C,10.105646,56.887818
1830421,Vestergaardsvej,9293,35D,10.105404,56.887858
1830422,Vestergaardsvej,9293,36,10.10147,56.8892492
1830423,Vestergaardsvej,9293,37,10.105241,56.88764
1830424,Vestergaardsvej,9293,38,10.1015337,56.8889303
1830425,Vestergaardsvej,9293,39,10.104796,56.887689
1830426,Vestergaardsvej,9293,40,10.1013917,56.8887308
1830427,Vestergaardsvej,9293,41,10.104366,56.887727
1830428,Vestergaardsvej,9293,42,10.101866,56.8886422
1830429,Vestergaardsvej,9293,43A,10.104487,56.88804
1830430,Vestergaardsvej,9293,43B,10.104612,56.888016
1830431,Vestergaardsvej,9293,43C,10.104727,56.887993
1830432,Vestergaardsvej,9293,43D,10.104841,56.887948
1830433,Vestergaardsvej,9293,44,10.1020482,56.8889337
1830434,Vestergaardsvej,9293,45A,10.1051313,56.888226
1830435,Vestergaardsvej,9293,45B,10.1051753,56.8883145
1830436,Vestergaardsvej,9293,45C,10.1052297,56.8884068
1830437,Vestergaardsvej,9293,46,10.1023859,56.8891093
1830438,Vestergaardsvej,9293,47,10.1048231,56.8883756
1830439,Vestergaardsvej,9293,48,10.1028549,56.8890401
1830440,Vestergaardsvej,9293,49,10.104294,56.888779
1830441,Vestergaardsvej,9293,50,10.102715,56.888688
1830442,Vestergaardsvej,9293,51,10.103781,56.88886
1830443,Vestergaardsvej,9293,52,10.1027146,56.8884727
1830444,Vestergaardsvej,9293,53,10.103372,56.888718
1830445,Vestergaardsvej,9293,54,10.101717,56.888375
1830446,Vestergaardsvej,9293,55,10.103193,56.888507
1830447,Vestergaardsvej,9293,56,10.101707,56.888116
1830448,Vestergaardsvej,9293,57,10.103421,56.888174
1830449,Vestergaardsvej,9293,58,10.1021463,56.8880727
1830450,Vestergaardsvej,9293,59,10.103345,56.887904
1830451,Vestergaardsvej,9293,61,10.102922,56.8879
2080518,Ålykkevej,9293,6,10.126215,56.93005
2080520,Ålykkevej,9293,9,10.125326,56.930097
2080521,Ålykkevej,9293,11,10.127274,56.930585
2080522,Ålykkevej,9293,13,10.1332959,56.9321786
2080523,Ålykkevej,9293,15,10.137085,56.933187
2118607,Rosevej,9293,10,10.122869,56.889262
2118612,Rosevej,9293,12,10.1233925,56.8890378
2118620,Rosevej,9293,14,10.1240632,56.8888271
2118865,Skibstedvej,9293,1,10.103405,56.880587
2118876,Skibstedvej,9293,2,10.102262,56.880473
2118879,Skibstedvej,9293,3,10.10179,56.879956
2118883,Skibstedvej,9293,4,10.101571,56.880477
2118886,Skibstedvej,9293,4A,10.100566,56.87974
2118899,Skibstedvej,9293,4B,10.099936,56.87965
2118909,Skibstedvej,9293,6,10.098173,56.878917
2118913,Skibstedvej,9293,8,10.094825,56.877773
2118914,Skibstedvej,9293,10,10.090583,56.876427
2121154,Svanholmsmindevej,9293,1,10.10276,56.878862
2121159,Svanholmsmindevej,9293,2,10.1017008,56.8790974
2121164,Svanholmsmindevej,9293,3,10.098088,56.873303
2121195,Svanholmsmindevej,9293,4,10.100275,56.877362
2121203,Svanholmsmindevej,9293,6,10.096902,56.876618
2121211,Svanholmsmindevej,9293,8,10.096977,56.875398
2121216,Svanholmsmindevej,9293,10,10.097274,56.873057
2121219,Svanholmsmindevej,9293,12,10.096244,56.871711
2121226,Svanholmsmindevej,9293,14,10.096061,56.871366
2121840,Treskelvej,9293,1,10.081951,56.884169
2191830,Baggesdamvej,9293,1,10.082561,56.897886
2191831,Baggesdamvej,9293,3,10.082318,56.897575
2191832,Baggesdamvej,9293,4,10.070251,56.888481
2191833,Baggesdamvej,9293,5,10.082074,56.897293
2232278,Komdrupvej,9293,10C,10.0850672,56.8974366
2233127,Kærvej,9293,78,10.128283,56.911539
2233152,Solvej,9293,4A,10.110915,56.887171
2233311,Lykkevej,9293,7A,10.122231,56.889118
2233499,Østergårdsvej,9293,11,10.090399,56.903713
2233523,Kongstedlundvej,9293,23,10.1351857,56.8757682
2233578,Kongensgade,9293,3A,10.12121,56.889499
2233594,Lindenborgvej,9293,28B,10.064209,56.905893
2233595,Lindenborgvej,9293,28D,10.072403,56.899045
2233596,Lindenborgvej,9293,28F,10.0603592,56.910011
2233599,Danmarksgade,9293,47,10.122415,56.882863
2233713,Sigsgaardvej,9293,29B,10.155409,56.899301
2233736,Refsnæsvej,9293,6A,10.108733,56.889772
2233737,Refsnæsvej,9293,6B,10.1088463,56.8897415
2233738,Refsnæsvej,9293,8C,10.101583,56.896551
2233739,Refsnæsvej,9293,26,10.098425,56.918283
2233866,Rolighedsvej,9293,2,10.11671,56.885592
2233963,Landmandsgade,9293,21,10.126903,56.90781
2256772,Bizonvej,9293,9,10.103485,56.89642
2256793,Dalsgaardvej,9293,17B,10.123955,56.905748
2256825,Havevej,9293,1A,10.1192753,56.888648
2256826,Havevej,9293,1B,10.120158,56.888459
