idx,street,postcode,housenumber,lon,lat
681380,Engvej,9381,76,9.889165,57.165254
681381,Engvej,9381,77,9.887979,57.165594
681382,Engvej,9381,93,9.889983,57.168549
681383,Engvej,9381,95,9.874543,57.170478
681384,Engvej,9381,116,9.89075,57.172011
681385,Engvej,9381,117A,9.873148,57.174304
681386,Engvej,9381,119,9.887358,57.172997
681387,Engvej,9381,122,9.889331,57.173433
681388,Engvej,9381,123,9.887819,57.173891
681389,Engvej,9381,197,9.876432,57.184318
683862,Ryetvej,9381,10,9.912949,57.16269
683863,Ryetvej,9381,20,9.909268,57.164776
684061,Skråvej,9381,110,9.89646,57.161975
684399,Sulstedvej,9381,102,9.905977,57.15637
684400,Sulstedvej,9381,115,9.905225,57.159486
685623,Ajstrup Mosevej,9381,2,10.020774,57.174228
685624,Ajstrup Mosevej,9381,8,10.02728,57.173363
685625,Ajstrup Mosevej,9381,10,10.0288684,57.1750722
685626,Ajstrup Mosevej,9381,15,10.028937,57.176726
685627,Ajstrup Mosevej,9381,25,10.034461,57.178177
685628,Ajstrup Mosevej,9381,30,10.038333,57.175808
685629,Ajstrup Nørrehede,9381,4,10.013133,57.173199
685630,Ajstrup Nørrehede,9381,9,10.013774,57.171539
685631,Ajstrup Nørrehede,9381,15,10.012889,57.169435
685632,Ajstrup Nørrehede,9381,22,10.009984,57.171387
685633,Ajstrup Nørrehede,9381,24,10.0089,57.170016
685634,Ajstrup Nørrehede,9381,28,10.011109,57.17072
685635,Ajstrup Sønderhede,9381,10,9.995623,57.166111
685636,Ajstrup Sønderhede,9381,20,9.99862,57.165009
685637,Ajstrup Sønderhede,9381,30,10.001381,57.162926
685638,Ajstrup Sønderhede,9381,40,10.005484,57.160641
685639,Ajstrupvej,9381,3,9.962159,57.179706
685640,Ajstrupvej,9381,4,9.962198,57.179381
685641,Ajstrupvej,9381,6,9.9627,57.179286
685642,Ajstrupvej,9381,7,9.963709,57.17953
685643,Ajstrupvej,9381,11,9.965539,57.179792
685644,Ajstrupvej,9381,13,9.966427,57.179668
685645,Ajstrupvej,9381,14,9.965655,57.179105
685646,Ajstrupvej,9381,15,9.966264,57.179371
685647,Ajstrupvej,9381,16,9.966737,57.178972
685648,Ajstrupvej,9381,19,9.967238,57.179117
685649,Ajstrupvej,9381,20,9.967493,57.178771
685650,Ajstrupvej,9381,21,9.968094,57.178898
685651,Ajstrupvej,9381,26,9.969935,57.17778
685652,Ajstrupvej,9381,27,9.971214,57.178213
685653,Ajstrupvej,9381,29,9.971956,57.177594
685654,Ajstrupvej,9381,30,9.97186,57.177234
685655,Ajstrupvej,9381,32,9.972132,57.177105
685656,Ajstrupvej,9381,40,9.976584,57.175465
685657,Ajstrupvej,9381,42,9.977156,57.175821
685658,Ajstrupvej,9381,44,9.978103,57.175487
685659,Ajstrupvej,9381,45,9.980366,57.17562
685660,Ajstrupvej,9381,45A,9.98113,57.175372
685661,Ajstrupvej,9381,51,9.982707,57.174522
685682,Aksel Sandemose Vej,9381,1,9.947534,57.169459
685683,Aksel Sandemose Vej,9381,2,9.947476,57.169155
685684,Aksel Sandemose Vej,9381,3,9.947824,57.169445
685685,Aksel Sandemose Vej,9381,4,9.947767,57.169143
685686,Aksel Sandemose Vej,9381,5,9.948449,57.169394
685687,Aksel Sandemose Vej,9381,6,9.948188,57.169132
685688,Aksel Sandemose Vej,9381,8,9.948213,57.168935
685689,Aksel Sandemose Vej,9381,9,9.948955,57.169444
685690,Aksel Sandemose Vej,9381,10,9.948877,57.169097
685691,Aksel Sandemose Vej,9381,11,9.949402,57.169425
685692,Aksel Sandemose Vej,9381,12,9.948795,57.168851
685693,Aksel Sandemose Vej,9381,14,9.949282,57.168803
685694,Aksel Sandemose Vej,9381,16,9.94942,57.169079
685747,Alexander Kiellands Vej,9381,1,9.950996,57.16752
685748,Alexander Kiellands Vej,9381,2,9.950472,57.167408
685749,Alexander Kiellands Vej,9381,3,9.951064,57.167062
685750,Alexander Kiellands Vej,9381,4,9.950522,57.167209
685751,Alexander Kiellands Vej,9381,5,9.950981,57.166779
685752,Alexander Kiellands Vej,9381,6,9.950535,57.167035
685753,Alexander Kiellands Vej,9381,8,9.950523,57.166857
685754,Alexander Kiellands Vej,9381,9,9.950899,57.166446
685755,Alexander Kiellands Vej,9381,11,9.951,57.16624
685756,Alexander Kiellands Vej,9381,13,9.950844,57.166063
685757,Alexander Kiellands Vej,9381,15,9.950817,57.165846
687798,Birkestien,9381,6,9.961021,57.157124
687998,Bjørnsonparken,9381,1,9.953255,57.168799
687999,Bjørnsonparken,9381,2,9.953428,57.169644
688000,Bjørnsonparken,9381,3,9.953132,57.168597
688001,Bjørnsonparken,9381,5,9.953028,57.168421
688002,Bjørnsonparken,9381,6,9.953943,57.169857
688003,Bjørnsonparken,9381,7A,9.952612,57.168152
688004,Bjørnsonparken,9381,8,9.953478,57.169919
688005,Bjørnsonparken,9381,9,9.952225,57.168071
688006,Bjørnsonparken,9381,10,9.953606,57.17013
688007,Bjørnsonparken,9381,11,9.952466,57.168498
688008,Bjørnsonparken,9381,12,9.953706,57.170364
688009,Bjørnsonparken,9381,12A,9.954354,57.170225
688010,Bjørnsonparken,9381,13,9.952684,57.168679
688011,Bjørnsonparken,9381,14,9.953906,57.170537
688012,Bjørnsonparken,9381,15,9.952788,57.168872
688013,Bjørnsonparken,9381,16A,9.954514,57.170665
688014,Bjørnsonparken,9381,16B,9.954268,57.170796
688015,Bjørnsonparken,9381,17,9.95289,57.16908
688016,Bjørnsonparken,9381,18A,9.953751,57.170806
688017,Bjørnsonparken,9381,18B,9.953341,57.170875
688018,Bjørnsonparken,9381,19,9.953017,57.169273
688019,Bjørnsonparken,9381,20,9.953354,57.170608
688020,Bjørnsonparken,9381,21,9.952262,57.169399
688021,Bjørnsonparken,9381,22,9.953228,57.170456
688022,Bjørnsonparken,9381,23,9.952134,57.169226
688023,Bjørnsonparken,9381,24,9.95315,57.170266
688024,Bjørnsonparken,9381,25,9.951987,57.16903
688025,Bjørnsonparken,9381,26,9.952995,57.170048
688026,Bjørnsonparken,9381,27,9.951863,57.168821
688027,Bjørnsonparken,9381,28,9.952911,57.169872
688028,Bjørnsonparken,9381,29,9.951748,57.168629
688029,Bjørnsonparken,9381,30,9.952789,57.169694
688030,Bjørnsonparken,9381,31,9.951625,57.16842
688031,Bjørnsonparken,9381,32,9.952044,57.169817
688032,Bjørnsonparken,9381,33,9.951363,57.168153
688033,Bjørnsonparken,9381,34,9.952111,57.170036
688034,Bjørnsonparken,9381,35,9.951096,57.168215
688035,Bjørnsonparken,9381,36,9.952183,57.170245
688036,Bjørnsonparken,9381,37,9.9511,57.168528
688037,Bjørnsonparken,9381,38,9.952317,57.170458
688038,Bjørnsonparken,9381,39,9.951305,57.168684
688039,Bjørnsonparken,9381,40,9.952578,57.170722
688040,Bjørnsonparken,9381,41,9.951402,57.168891
688041,Bjørnsonparken,9381,42A,9.952855,57.171009
688042,Bjørnsonparken,9381,43,9.95154,57.169094
688043,Bjørnsonparken,9381,44A,9.952512,57.171014
688044,Bjørnsonparken,9381,44B,9.951963,57.171206
688045,Bjørnsonparken,9381,44C,9.951952,57.171005
688046,Bjørnsonparken,9381,45,9.951648,57.169313
688047,Bjørnsonparken,9381,46,9.951958,57.17073
688048,Bjørnsonparken,9381,47,9.95177,57.169475
688049,Bjørnsonparken,9381,48,9.951772,57.170554
688050,Bjørnsonparken,9381,49,9.95099,57.169637
688051,Bjørnsonparken,9381,50,9.951715,57.170328
688052,Bjørnsonparken,9381,51,9.950844,57.169427
688053,Bjørnsonparken,9381,52,9.951588,57.170122
688054,Bjørnsonparken,9381,53,9.95073,57.169241
688055,Bjørnsonparken,9381,54,9.951465,57.169931
688056,Bjørnsonparken,9381,55,9.950627,57.169059
688057,Bjørnsonparken,9381,56,9.950731,57.170047
688058,Bjørnsonparken,9381,57,9.950514,57.168809
688059,Bjørnsonparken,9381,58,9.950734,57.170296
688060,Bjørnsonparken,9381,59,9.950522,57.168604
688061,Bjørnsonparken,9381,60,9.950884,57.170478
688062,Bjørnsonparken,9381,61,9.950484,57.168317
688063,Bjørnsonparken,9381,62,9.951011,57.170685
688064,Bjørnsonparken,9381,63,9.94996,57.168565
688065,Bjørnsonparken,9381,64,9.951188,57.170909
688066,Bjørnsonparken,9381,65,9.950022,57.168773
688067,Bjørnsonparken,9381,66,9.951351,57.171116
688068,Bjørnsonparken,9381,67,9.950099,57.168975
688069,Bjørnsonparken,9381,68,9.9508462,57.1712791
688070,Bjørnsonparken,9381,69,9.950264,57.169236
688071,Bjørnsonparken,9381,71,9.950298,57.16948
688072,Bjørnsonparken,9381,73,9.950354,57.169687
688073,Bjørnsonparken,9381,74,9.950622,57.170986
688074,Bjørnsonparken,9381,76,9.95051,57.170796
688075,Bjørnsonparken,9381,78,9.950386,57.170567
688076,Bjørnsonparken,9381,80,9.950255,57.170358
688077,Bjørnsonparken,9381,82,9.950136,57.170156
688978,Branths Plantagevej,9381,55,9.997566,57.149087
688979,Branths Plantagevej,9381,75,10.00862,57.142629
688994,Bredholtvej,9381,2,9.977998,57.176103
688995,Bredholtvej,9381,3,9.977607,57.176898
688996,Bredholtvej,9381,15,9.980641,57.178438
688997,Bredholtvej,9381,19,9.981416,57.177915
688998,Bredholtvej,9381,22,9.981745,57.177598
688999,Bredholtvej,9381,24,9.982222,57.17748
689000,Bredholtvej,9381,25,9.982667,57.177704
689001,Bredholtvej,9381,26,9.98255,57.17724
689002,Bredholtvej,9381,27,9.983057,57.17763
689003,Bredholtvej,9381,28,9.983138,57.177351
689004,Bredholtvej,9381,29,9.983567,57.17766
689005,Bredholtvej,9381,30,9.983506,57.177277
689006,Bredholtvej,9381,31,9.984277,57.177414
689007,Bredholtvej,9381,32,9.983992,57.177198
689008,Bredholtvej,9381,33,9.984703,57.177343
689009,Bredholtvej,9381,34,9.984331,57.177186
689010,Bredholtvej,9381,35,9.98529,57.177612
689011,Bredholtvej,9381,36,9.984783,57.177124
689012,Bredholtvej,9381,37,9.985428,57.177213
689013,Bredholtvej,9381,38,9.985006,57.177034
689014,Bredholtvej,9381,39,9.985797,57.177118
689015,Bredholtvej,9381,40,9.985967,57.176761
689016,Bredholtvej,9381,43,9.98672,57.176805
689017,Bredholtvej,9381,44,9.98667,57.176565
689018,Bredholtvej,9381,46,9.986872,57.17649
689019,Bredholtvej,9381,48,9.987528,57.176276
689020,Bredholtvej,9381,49,9.987813,57.176496
689021,Bredholtvej,9381,50,9.987769,57.17616
689022,Bredholtvej,9381,51,9.988165,57.176359
689023,Bredholtvej,9381,52,9.988183,57.176079
689024,Bredholtvej,9381,53,9.9888,57.176297
689025,Bredholtvej,9381,54,9.988531,57.176
689026,Bredholtvej,9381,58,9.989092,57.175494
689027,Bredholtvej,9381,68,9.994321,57.173629
689028,Bredholtvej,9381,75,10.004691,57.175208
689029,Bredholtvej,9381,75A,10.004985,57.1756
689030,Bredholtvej,9381,86,10.017724,57.174422
689031,Bredholtvej,9381,88,10.018391,57.174775
689032,Bredholtvej,9381,89,10.01781,57.174987
689033,Bredholtvej,9381,90,10.018734,57.174781
689786,Byrholtvej,9381,3,9.966483,57.14625
689787,Byrholtvej,9381,11,9.965041,57.144881
689788,Byrholtvej,9381,16,9.960756,57.147144
689789,Byrholtvej,9381,22,9.958204,57.148981
689790,Byrholtvej,9381,25,9.953123,57.14689
689791,Byrholtvej,9381,28,9.953161,57.14949
689792,Byrholtvej,9381,32,9.953055,57.152801
689793,Byrholtvej,9381,34,9.94894,57.153293
692088,Doktorstien,9381,1,9.964532,57.15544
692089,Doktorstien,9381,3,9.96457,57.155638
692090,Doktorstien,9381,5,9.964659,57.155853
692091,Doktorstien,9381,7,9.965039,57.156008
692092,Doktorstien,9381,9,9.965308,57.156181
692795,Elkærvej,9381,1,9.965103,57.156375
692796,Elkærvej,9381,2,9.964569,57.157695
692797,Elkærvej,9381,3,9.965013,57.156685
692798,Elkærvej,9381,7,9.964236,57.156949
692799,Elkærvej,9381,9,9.963923,57.157034
692800,Elkærvej,9381,11,9.963396,57.157185
692801,Elkærvej,9381,13,9.962958,57.157291
692802,Elkærvej,9381,16,9.961414,57.158027
692803,Elkærvej,9381,18,9.961107,57.158131
692804,Elkærvej,9381,20,9.9609,57.15819
692805,Elkærvej,9381,22,9.960632,57.158317
692806,Elkærvej,9381,24,9.960403,57.158423
692807,Elkærvej,9381,27,9.960658,57.157919
692808,Elkærvej,9381,35,9.95849,57.158189
692809,Elkærvej,9381,38,9.956834,57.162736
692810,Elkærvej,9381,40,9.956702,57.1629
692811,Elkærvej,9381,42,9.956535,57.163121
692812,Elkærvej,9381,44,9.956368,57.163342
692813,Elkærvej,9381,45,9.956021,57.161418
692814,Elkærvej,9381,46,9.956194,57.163572
692815,Elkærvej,9381,48,9.956037,57.163786
692816,Elkærvej,9381,50,9.955864,57.164011
692817,Elkærvej,9381,52,9.955704,57.164215
692818,Elkærvej,9381,55,9.952422,57.163042
692819,Elkærvej,9381,58,9.953077,57.165237
692820,Elkærvej,9381,60,9.95202,57.165539
692821,Elkærvej,9381,61,9.952293,57.165067
692822,Elkærvej,9381,62,9.951731,57.165607
692823,Elkærvej,9381,63,9.951805,57.165228
692824,Elkærvej,9381,64,9.951412,57.165675
692825,Elkærvej,9381,65,9.951456,57.165355
692826,Elkærvej,9381,66,9.951101,57.165748
692827,Elkærvej,9381,68,9.950058,57.165859
692828,Elkærvej,9381,68A,9.9497288,57.1658976
692829,Elkærvej,9381,68B,9.949501,57.1659074
692830,Elkærvej,9381,70,9.948659,57.165934
692831,Elkærvej,9381,71,9.948549,57.165689
692832,Elkærvej,9381,72,9.948321,57.165966
692833,Elkærvej,9381,73,9.948088,57.165805
692834,Elkærvej,9381,74,9.948052,57.166
692835,Elkærvej,9381,75,9.94776,57.165842
692836,Elkærvej,9381,77,9.947552,57.165831
692837,Elkærvej,9381,78,9.945814,57.166371
692838,Elkærvej,9381,79,9.947219,57.165901
692839,Elkærvej,9381,80,9.945121,57.16658
692840,Elkærvej,9381,81,9.946894,57.165918
692841,Elkærvej,9381,82,9.945342,57.167317
692842,Elkærvej,9381,85,9.946823,57.165447
692843,Elkærvej,9381,86,9.944561,57.167122
692844,Elkærvej,9381,115,9.935614,57.16117
692845,Elkærvej,9381,121,9.933635,57.160827
692846,Elkærvej,9381,130,9.926073,57.161464
692847,Elkærvej,9381,131,9.923922,57.156042
692848,Elkærvej,9381,134,9.923343,57.161331
692849,Elkærvej,9381,138,9.921667,57.161187
692850,Elkærvej,9381,140,9.919849,57.16129
692851,Elkærvej,9381,141,9.916896,57.157435
692852,Elkærvej,9381,143,9.917697,57.156484
692853,Elkærvej,9381,146,9.91624,57.16113
696338,Gartnerkrogen,9381,3,9.960921,57.157538
696339,Gartnerkrogen,9381,4,9.960555,57.157743
696340,Gartnerkrogen,9381,5,9.960751,57.15733
696341,Gartnerkrogen,9381,7,9.960556,57.157088
696342,Gartnerkrogen,9381,8,9.959917,57.157182
698817,Gårdhusevej,9381,10,9.99996,57.169796
698818,Gårdhusevej,9381,16,10.004193,57.171125
698819,Gårdhusevej,9381,20,10.007136,57.170241
699362,Hammerhusvej,9381,1,9.988469,57.14773
699363,Hammerhusvej,9381,14,9.989387,57.142708
699364,Hammerhusvej,9381,16,9.992775,57.139214
699365,Hammerhusvej,9381,18,9.994829,57.136946
699366,Hammerhusvej,9381,20,9.992178,57.143715
699367,Hammerhusvej,9381,22,9.993602,57.144124
699368,Hammerhusvej,9381,25,10.002147,57.139374
699369,Hammerhusvej,9381,35A,9.997854,57.140383
699370,Hammerhusvej,9381,35B,9.997967,57.140531
699371,Hammer Kirkevej,9381,1,10.014566,57.152587
699372,Hammer Kirkevej,9381,10,10.012101,57.150937
699374,Hammervej,9381,1,9.96634,57.156491
699375,Hammervej,9381,2,9.9662,57.156044
699376,Hammervej,9381,3,9.966699,57.156383
699377,Hammervej,9381,4,9.966641,57.155962
699378,Hammervej,9381,6,9.967115,57.155891
699379,Hammervej,9381,8,9.967081,57.155654
699380,Hammervej,9381,8A,9.967258,57.154556
699381,Hammervej,9381,8B,9.966494,57.155195
699382,Hammervej,9381,9,9.967977,57.156117
699383,Hammervej,9381,10,9.967664,57.15556
699384,Hammervej,9381,12,9.967729,57.15585
699385,Hammervej,9381,14,9.968357,57.155704
699386,Hammervej,9381,15,9.972203,57.159805
699387,Hammervej,9381,16,9.968899,57.155702
699388,Hammervej,9381,26,9.972573,57.153518
699389,Hammervej,9381,28,9.974274,57.15401
699390,Hammervej,9381,30,9.975426,57.153708
699391,Hammervej,9381,40,9.984349,57.154304
699392,Hammervej,9381,46,9.99075,57.152207
699393,Hammervej,9381,48,9.989535,57.151527
699394,Hammervej,9381,49,9.99417,57.155842
699395,Hammervej,9381,50,9.994079,57.152661
699396,Hammervej,9381,59,10.002567,57.155014
699397,Hammervej,9381,60,10.003083,57.15318
699398,Hammervej,9381,66,10.007593,57.153262
699399,Hammervej,9381,66A,10.006266,57.153601
699400,Hammervej,9381,79,10.029523,57.155847
699401,Hammervej,9381,81,10.031058,57.154701
699402,Hammervej,9381,85,10.035838,57.153095
699649,Harald Branths Vej,9381,3,9.963722,57.156738
699650,Harald Branths Vej,9381,6,9.963058,57.15669
699651,Harald Branths Vej,9381,7,9.96319,57.156327
699652,Harald Branths Vej,9381,8,9.962877,57.156587
699653,Harald Branths Vej,9381,9,9.963163,57.156134
699654,Harald Branths Vej,9381,10,9.96266,57.156358
702041,Holtevej,9381,2,9.947086,57.166145
702042,Holtevej,9381,4,9.947086,57.166278
702043,Holtevej,9381,6,9.94708,57.166402
702044,Holtevej,9381,8,9.947013,57.166803
702045,Holtevej,9381,10,9.946982,57.16716
702046,Holtevej,9381,12,9.947023,57.167395
702047,Holtevej,9381,14,9.947027,57.167693
702048,Holtevej,9381,15,9.946507,57.167732
702049,Holtevej,9381,16,9.947036,57.167874
702050,Holtevej,9381,18,9.947028,57.168762
702051,Holtevej,9381,20,9.947507,57.168804
702052,Holtevej,9381,22,9.947018,57.168955
702053,Holtevej,9381,24,9.947006,57.169155
702054,Holtevej,9381,26,9.946907,57.169454
702055,Holtevej,9381,28,9.946879,57.169645
702056,Holtevej,9381,50,9.948354,57.175917
703893,Jonas Lies Vej,9381,1,9.949672,57.167499
703894,Jonas Lies Vej,9381,2,9.949219,57.167915
703895,Jonas Lies Vej,9381,3,9.949759,57.167018
703896,Jonas Lies Vej,9381,4,9.949178,57.167534
703897,Jonas Lies Vej,9381,5,9.949647,57.166725
703898,Jonas Lies Vej,9381,6,9.949141,57.167321
703899,Jonas Lies Vej,9381,7,9.949529,57.166251
703900,Jonas Lies Vej,9381,9,9.949574,57.16606
703901,Jonas Lies Vej,9381,10,9.949075,57.166857
703902,Jonas Lies Vej,9381,12,9.949066,57.166306
703903,Jonas Lies Vej,9381,14,9.948989,57.165977
706000,Knut Hamsuns Vej,9381,1,9.947519,57.166617
706001,Knut Hamsuns Vej,9381,2,9.947624,57.166457
706002,Knut Hamsuns Vej,9381,4,9.948325,57.166324
706003,Knut Hamsuns Vej,9381,4A,9.949008,57.166453
706004,Knut Hamsuns Vej,9381,5,9.94808,57.16662
706005,Knut Hamsuns Vej,9381,6,9.949633,57.166451
706006,Knut Hamsuns Vej,9381,7,9.950197,57.166657
706007,Knut Hamsuns Vej,9381,8,9.950187,57.166415
706748,Korsbrovej,9381,15,10.003963,57.166361
706749,Korsbrovej,9381,25,9.989872,57.167653
706750,Korsbrovej,9381,27,9.989212,57.166424
706751,Korsbrovej,9381,33,9.990204,57.16436
706752,Korsbrovej,9381,35,9.991636,57.163507
706753,Korsbrovej,9381,39,9.99473,57.162674
706754,Korsbrovej,9381,40,9.992998,57.161374
706755,Korsbrovej,9381,54,9.991406,57.156285
707207,Kuskgårdsvej,9381,3,9.964304,57.154735
707208,Kuskgårdsvej,9381,6,9.963772,57.155713
707209,Kuskgårdsvej,9381,9,9.963851,57.155012
707210,Kuskgårdsvej,9381,11,9.963472,57.15527
707211,Kuskgårdsvej,9381,13,9.963146,57.155713
707212,Kuskgårdsvej,9381,14,9.963711,57.156057
707213,Kuskgårdsvej,9381,15,9.962875,57.155848
707214,Kuskgårdsvej,9381,16,9.963545,57.155872
707215,Kuskgårdsvej,9381,17,9.962574,57.155505
707216,Kuskgårdsvej,9381,19,9.962732,57.155182
707217,Kuskgårdsvej,9381,21,9.962148,57.155454
707218,Kuskgårdsvej,9381,23,9.961943,57.155777
707219,Kuskgårdsvej,9381,25,9.962309,57.156001
707220,Kuskgårdsvej,9381,27,9.961962,57.156241
707221,Kuskgårdsvej,9381,28,9.962044,57.15658
707222,Kuskgårdsvej,9381,29,9.961659,57.156342
707223,Kuskgårdsvej,9381,30,9.961811,57.156625
707224,Kuskgårdsvej,9381,31,9.961161,57.156389
707225,Kuskgårdsvej,9381,32,9.96105,57.156778
707226,Kuskgårdsvej,9381,34,9.960887,57.156801
707227,Kuskgårdsvej,9381,37,9.955606,57.157194
707228,Kuskgårdsvej,9381,39,9.955083,57.157336
707229,Kuskgårdsvej,9381,42,9.958865,57.157126
707230,Kuskgårdsvej,9381,44,9.957919,57.157186
707231,Kuskgårdsvej,9381,46,9.954616,57.15772
707232,Kuskgårdsvej,9381,47,9.950203,57.156112
707233,Kuskgårdsvej,9381,49,9.949421,57.158665
707234,Kuskgårdsvej,9381,51,9.947183,57.159501
708141,Larsgårds Mark,9381,16,9.974947,57.181416
708142,Larsgårds Mark,9381,32,9.975491,57.186064
708143,Larsgårds Mark,9381,34,9.976107,57.186924
708144,Larsgårds Mark,9381,36,9.9769704,57.1878908
708145,Larsgårds Mark,9381,40,9.97293,57.18823
711159,Melkærvej,9381,3,9.987718,57.175684
711160,Melkærvej,9381,4,9.987107,57.175662
711161,Melkærvej,9381,5,9.987501,57.175468
711162,Melkærvej,9381,6,9.986788,57.175463
711163,Melkærvej,9381,10,9.985688,57.174521
711164,Melkærvej,9381,11,9.985631,57.173389
711433,Milbakvej,9381,20,9.923256,57.167555
711434,Milbakvej,9381,22,9.921652,57.167681
711435,Milbakvej,9381,26,9.920162,57.167734
711436,Milbakvej,9381,29,9.91918,57.166949
711437,Milbakvej,9381,30,9.918736,57.16763
711438,Milbakvej,9381,31,9.916128,57.166752
711439,Milbakvej,9381,32,9.917431,57.167897
711440,Milbakvej,9381,36,9.91552,57.169414
711441,Milbakvej,9381,40,9.913491,57.170633
711442,Milbakvej,9381,44,9.912631,57.171361
711443,Milbakvej,9381,46,9.911328,57.17212
711444,Milbakvej,9381,50,9.909658,57.173463
711445,Milbakvej,9381,51,9.906924,57.174373
711446,Milbakvej,9381,54,9.906865,57.174909
711447,Milbakvej,9381,55,9.905146,57.175729
711448,Milbakvej,9381,56,9.905635,57.17581
711449,Milbakvej,9381,58,9.905664,57.176522
711450,Milbakvej,9381,60,9.904733,57.176544
711451,Milbakvej,9381,61,9.902829,57.175975
711452,Milbakvej,9381,62,9.904662,57.17707
711453,Milbakvej,9381,63,9.903235,57.176981
711454,Milbakvej,9381,64,9.903743,57.177459
711455,Milbakvej,9381,68,9.90242,57.178072
711456,Milbakvej,9381,69,9.901313,57.177915
711457,Milbakvej,9381,72,9.900613,57.178912
711458,Milbakvej,9381,73,9.899419,57.178791
711459,Milbakvej,9381,76,9.899464,57.179525
711460,Milbakvej,9381,77,9.8979,57.179525
711461,Milbakvej,9381,80,9.898254,57.18008
711462,Milbakvej,9381,81,9.896166,57.180539
711463,Milbakvej,9381,84,9.896796,57.180935
711464,Milbakvej,9381,85,9.894794,57.181475
711465,Milbakvej,9381,86,9.895962,57.181574
711466,Milbakvej,9381,89,9.893447,57.182049
711467,Milbakvej,9381,90,9.894658,57.182176
711468,Milbakvej,9381,91,9.892084,57.182826
711469,Milbakvej,9381,92,9.893466,57.182872
711470,Milbakvej,9381,95,9.89046,57.183455
711471,Milbakvej,9381,96,9.891553,57.184131
711472,Milbakvej,9381,99,9.889053,57.184117
711473,Milbakvej,9381,100,9.889459,57.184731
711474,Milbakvej,9381,101,9.887778,57.184686
711475,Milbakvej,9381,106,9.886734,57.188575
711476,Milbakvej,9381,110,9.877282,57.190139
711477,Mindevej,9381,6,9.933029,57.159596
711478,Mindevej,9381,8,9.93256,57.158989
711479,Mindevej,9381,12,9.932167,57.157593
711480,Mindevej,9381,14,9.931905,57.156974
711481,Mindevej,9381,16,9.931627,57.15618
711482,Mindevej,9381,20,9.931261,57.155418
711483,Mindevej,9381,22,9.93094,57.154685
711484,Mindevej,9381,26,9.930611,57.153921
711485,Mindevej,9381,30,9.930239,57.153104
711486,Mindevej,9381,34,9.929929,57.152395
713248,Niels Anesens Vej,9381,1,9.946998,57.168493
713249,Niels Anesens Vej,9381,2,9.947075,57.168094
713250,Niels Anesens Vej,9381,3,9.947267,57.168385
713251,Niels Anesens Vej,9381,4,9.947428,57.168047
713252,Niels Anesens Vej,9381,5,9.947523,57.16838
713253,Niels Anesens Vej,9381,6,9.947809,57.168136
713254,Niels Anesens Vej,9381,7B,9.948084,57.168363
713255,Niels Anesens Vej,9381,8,9.948574,57.168028
713256,Niels Anesens Vej,9381,9,9.948553,57.168327
713257,Niels Anesens Vej,9381,11,9.948902,57.168281
713258,Niels Anesens Vej,9381,12,9.949713,57.167791
713259,Niels Anesens Vej,9381,13,9.949189,57.168231
713260,Niels Anesens Vej,9381,14,9.950475,57.167642
713261,Niels Anesens Vej,9381,15A,9.949734,57.168324
713262,Niels Anesens Vej,9381,15B,9.949624,57.168154
713263,Niels Anesens Vej,9381,16,9.951247,57.167486
713264,Niels Anesens Vej,9381,17,9.950075,57.167983
713265,Niels Anesens Vej,9381,19,9.95042,57.16792
713266,Niels Anesens Vej,9381,20,9.952473,57.16721
713267,Niels Anesens Vej,9381,21,9.950696,57.167891
713268,Niels Anesens Vej,9381,22,9.952929,57.167156
713269,Niels Anesens Vej,9381,23,9.951237,57.167801
713270,Niels Anesens Vej,9381,25,9.951548,57.167777
713271,Niels Anesens Vej,9381,27,9.951967,57.167679
713272,Niels Anesens Vej,9381,29,9.952403,57.167644
713273,Niels Anesens Vej,9381,31,9.952768,57.167522
717270,Præstegårds Mark,9381,1,9.966151,57.151413
717271,Præstegårds Mark,9381,2,9.9655,57.151272
717272,Præstegårds Mark,9381,4,9.963795,57.150842
721042,Sigurd Hoels Vej,9381,1,9.948257,57.168091
721043,Sigurd Hoels Vej,9381,2,9.9479,57.16777
721044,Sigurd Hoels Vej,9381,3,9.948216,57.167823
721045,Sigurd Hoels Vej,9381,4,9.947876,57.167616
721046,Sigurd Hoels Vej,9381,6,9.94784,57.167421
721047,Sigurd Hoels Vej,9381,7,9.948209,57.16754
721048,Sigurd Hoels Vej,9381,8,9.947823,57.167159
721049,Sigurd Hoels Vej,9381,9,9.948187,57.16739
721050,Sigurd Hoels Vej,9381,10,9.947824,57.166884
721051,Sigurd Hoels Vej,9381,11,9.948169,57.167241
721052,Sigurd Hoels Vej,9381,13,9.948218,57.16708
721053,Sigurd Hoels Vej,9381,15,9.948128,57.166895
721054,Sigurd Hoels Vej,9381,17,9.948086,57.16677
721055,Sigurd Hoels Vej,9381,21,9.948053,57.166353
721084,Sindholtvej,9381,2,9.987128,57.176691
721085,Sindholtvej,9381,3,9.987072,57.177084
721086,Sindholtvej,9381,4,9.98727,57.176786
721087,Sindholtvej,9381,6,9.987529,57.177013
721088,Sindholtvej,9381,8,9.987729,57.177151
721089,Sindholtvej,9381,10,9.987995,57.177353
721090,Sindholtvej,9381,25,9.991318,57.180385
721091,Sindholtvej,9381,27,9.992606,57.180717
721092,Sindholtvej,9381,30,9.999846,57.179081
721093,Sindholtvej,9381,35,9.997047,57.182367
721094,Sindholtvej,9381,37,9.999146,57.183242
721095,Sindholtvej,9381,38,10.001224,57.182775
721096,Sindholtvej,9381,50,10.005467,57.182785
721097,Sindholtvej,9381,52,10.007706,57.183119
721098,Sindholtvej,9381,54,10.00835,57.18242
721099,Sindholtvej,9381,55,10.007647,57.184934
721100,Sindholtvej,9381,59,10.008178,57.185172
722704,Småengevej,9381,8,9.955303,57.160156
722705,Småengevej,9381,14,9.953183,57.159817
722706,Småengevej,9381,29,9.956352,57.15986
724018,Staprisvej,9381,4,9.980029,57.150744
724019,Staprisvej,9381,5,9.983018,57.150853
724020,Staprisvej,9381,7,9.984885,57.151791
724021,Staprisvej,9381,8,9.981641,57.150164
724022,Staprisvej,9381,10,9.983328,57.149719
724023,Staprisvej,9381,15,9.987364,57.150503
724024,Staprisvej,9381,18,9.986702,57.147898
724318,Stegenborgparken,9381,2,9.958411,57.159501
724319,Stegenborgparken,9381,4,9.958441,57.159543
724320,Stegenborgparken,9381,6,9.958438,57.159671
724321,Stegenborgparken,9381,8,9.958403,57.159716
724322,Stegenborgparken,9381,10,9.958294,57.159817
724323,Stegenborgparken,9381,12,9.958262,57.159862
724324,Stegenborgparken,9381,14,9.958251,57.16
724325,Stegenborgparken,9381,16,9.958181,57.160092
724326,Stegenborgparken,9381,18,9.958094,57.160208
724327,Stegenborgparken,9381,20,9.958025,57.160301
724328,Stegenborgparken,9381,22,9.957795,57.160093
724329,Stegenborgparken,9381,24,9.957729,57.159999
724330,Stegenborgparken,9381,26,9.957642,57.159873
724331,Stegenborgparken,9381,28,9.957606,57.159793
724332,Stegenborgparken,9381,30,9.957879,57.159768
724333,Stegenborgparken,9381,32,9.957994,57.159689
724334,Stegenborgparken,9381,34,9.957938,57.159579
724335,Stegenborgparken,9381,36,9.957796,57.15952
724336,Stegenborgparken,9381,38,9.957568,57.159468
724337,Stegenborgparken,9381,40,9.957397,57.159484
724338,Stegenborgparken,9381,42,9.957263,57.159341
724339,Stegenborgparken,9381,44,9.957218,57.159268
724340,Stegenborgparken,9381,46,9.957191,57.15912
724341,Stegenborgparken,9381,48,9.957231,57.159076
724342,Stegenborgparken,9381,50,9.957485,57.159041
724343,Stegenborgparken,9381,52,9.957606,57.158993
724344,Stegenborgparken,9381,54,9.957846,57.158945
724345,Stegenborgparken,9381,56,9.957991,57.158938
724346,Stegenborgparken,9381,58,9.957736,57.159139
724347,Stegenborgparken,9381,60,9.957696,57.159184
724348,Stegenborgparken,9381,62,9.957668,57.159313
724349,Stegenborgparken,9381,64,9.957781,57.15932
724350,Stegenborgparken,9381,66,9.957972,57.159388
724351,Stegenborgparken,9381,68,9.958088,57.159372
724352,Stegenborgparken,9381,70,9.958201,57.159218
724353,Stegenborgparken,9381,72,9.958179,57.159204
724354,Stegenborgparken,9381,74,9.958163,57.159177
724355,Stegenborgparken,9381,76,9.958141,57.159148
724356,Stegenborgparken,9381,78,9.958125,57.159119
724357,Stegenborgparken,9381,80,9.958106,57.15908
724458,Stidsholtvej,9381,3,9.979779,57.178766
724534,Stokbrovej,9381,5,9.960657,57.172685
724535,Stokbrovej,9381,6,9.960083,57.173144
724536,Stokbrovej,9381,13,9.958146,57.172283
724537,Stokbrovej,9381,14,9.956318,57.172819
724538,Stokbrovej,9381,21,9.955527,57.170954
724539,Stokbrovej,9381,31,9.954471,57.169647
724540,Stokbrovej,9381,32,9.954011,57.169588
724541,Stokbrovej,9381,36,9.953717,57.16904
724542,Stokbrovej,9381,39,9.953925,57.168498
724543,Stokbrovej,9381,44,9.953303,57.168104
724544,Stokbrovej,9381,46,9.953188,57.167862
724545,Stokbrovej,9381,48,9.953178,57.167655
724546,Stokbrovej,9381,49,9.953918,57.167369
724547,Stokbrovej,9381,50A,9.953313,57.167225
724548,Stokbrovej,9381,50B,9.9532926,57.1669371
724549,Stokbrovej,9381,51,9.954504,57.167019
724550,Stokbrovej,9381,52,9.953678,57.167165
724551,Stokbrovej,9381,54,9.953494,57.166759
724552,Stokbrovej,9381,55,9.957174,57.165886
724553,Stokbrovej,9381,56,9.954062,57.16681
724554,Stokbrovej,9381,58,9.954514,57.166243
725089,Strindbergparken,9381,1,9.947223,57.171529
725090,Strindbergparken,9381,2,9.947111,57.171144
725091,Strindbergparken,9381,3,9.947243,57.171738
725092,Strindbergparken,9381,4,9.947134,57.170939
725093,Strindbergparken,9381,5,9.947273,57.171949
725094,Strindbergparken,9381,6,9.947149,57.170751
725095,Strindbergparken,9381,7,9.947263,57.172171
725096,Strindbergparken,9381,8,9.947173,57.170555
725097,Strindbergparken,9381,9,9.947403,57.172436
725098,Strindbergparken,9381,10,9.947195,57.170335
725099,Strindbergparken,9381,11,9.947689,57.172365
725100,Strindbergparken,9381,12,9.947217,57.170116
725101,Strindbergparken,9381,13A,9.948003,57.172176
725102,Strindbergparken,9381,13B,9.947981,57.172093
725103,Strindbergparken,9381,14,9.947251,57.169877
725104,Strindbergparken,9381,15A,9.948043,57.171948
725105,Strindbergparken,9381,15B,9.948023,57.171868
725106,Strindbergparken,9381,16,9.947761,57.169831
725107,Strindbergparken,9381,17A,9.948077,57.171736
725108,Strindbergparken,9381,17B,9.948057,57.171656
725109,Strindbergparken,9381,18,9.947802,57.170041
725110,Strindbergparken,9381,19A,9.947855,57.171511
725111,Strindbergparken,9381,19B,9.948002,57.171501
725112,Strindbergparken,9381,20,9.947681,57.170241
725113,Strindbergparken,9381,21,9.948652,57.171428
725114,Strindbergparken,9381,22,9.947662,57.170452
725115,Strindbergparken,9381,23,9.948788,57.171721
725116,Strindbergparken,9381,24,9.947638,57.170705
725117,Strindbergparken,9381,25,9.949425,57.17142
725118,Strindbergparken,9381,26,9.94761,57.170926
725119,Strindbergparken,9381,27,9.950017,57.17143
725120,Strindbergparken,9381,28,9.947774,57.171155
725121,Strindbergparken,9381,30,9.948294,57.171147
725122,Strindbergparken,9381,32,9.948437,57.170924
725123,Strindbergparken,9381,34,9.948462,57.170693
725124,Strindbergparken,9381,36,9.94848,57.170432
725125,Strindbergparken,9381,38,9.948524,57.170238
725126,Strindbergparken,9381,40,9.94853,57.169964
725127,Strindbergparken,9381,42,9.948566,57.169746
725128,Strindbergparken,9381,44,9.949037,57.169733
725129,Strindbergparken,9381,46,9.949115,57.169987
725130,Strindbergparken,9381,48,9.949017,57.170207
725131,Strindbergparken,9381,50,9.949036,57.170453
725132,Strindbergparken,9381,52,9.948965,57.170654
725133,Strindbergparken,9381,54,9.94895,57.170866
725134,Strindbergparken,9381,56,9.94912,57.171082
725135,Strindbergparken,9381,58,9.949557,57.170978
725136,Strindbergparken,9381,60,9.949933,57.171065
725734,Sulsted Engvej,9381,2,9.965802,57.153097
725735,Sulsted Engvej,9381,4,9.965559,57.153281
725736,Sulsted Engvej,9381,6,9.965202,57.153265
725737,Sulsted Engvej,9381,8,9.96495,57.153604
725738,Sulsted Engvej,9381,10,9.965481,57.153621
725739,Sulsted Engvej,9381,12A,9.965334,57.153919
725740,Sulsted Engvej,9381,14,9.964678,57.153803
725741,Sulsted Engvej,9381,16,9.96455,57.153832
725742,Sulsted Engvej,9381,18,9.964329,57.153925
725743,Sulsted Engvej,9381,25,9.961278,57.155558
725744,Sulsted Engvej,9381,27,9.960991,57.15581
725745,Sulsted Kirkevej,9381,1,9.96807,57.146228
725746,Sulsted Kirkevej,9381,2,9.969146,57.144644
725747,Sulsted Kirkevej,9381,3,9.968473,57.146096
725748,Sulsted Kirkevej,9381,4,9.969052,57.145637
725749,Sulsted Kirkevej,9381,5,9.96892,57.145998
725750,Sulsted Kirkevej,9381,6,9.969845,57.145604
725751,Sulsted Kirkevej,9381,7,9.970223,57.145754
725752,Sulsted Kirkevej,9381,8,9.97028,57.145116
725753,Sulsted Kirkevej,9381,10,9.97061,57.145469
725754,Sulsted Kirkevej,9381,12,9.970936,57.145415
725755,Sulsted Kirkevej,9381,15,9.972996,57.145382
725756,Sulsted Kirkevej,9381,17,9.973423,57.147495
725757,Sulsted Kirkevej,9381,21,9.975133,57.147787
725758,Sulsted Kirkevej,9381,32,9.98125,57.145791
725759,Sulsted Kirkevej,9381,34,9.982657,57.146343
725760,Sulsted Kirkevej,9381,36,9.989542,57.143775
725761,Sulsted Kirkevej,9381,38,9.987211,57.14718
725762,Sulsted Kirkevej,9381,40,9.988264,57.146999
725763,Sulsted Kirkevej,9381,41,9.987561,57.148713
725764,Sulsted Kirkevej,9381,44,9.989611,57.147971
725765,Sulsted Kærvej,9381,1A,9.949113,57.165565
725766,Sulsted Kærvej,9381,2,9.948532,57.165368
725767,Sulsted Kærvej,9381,3,9.949124,57.165271
725768,Sulsted Kærvej,9381,4,9.948408,57.165016
725769,Sulsted Kærvej,9381,6,9.948363,57.164753
725770,Sulsted Kærvej,9381,8,9.948321,57.164543
725771,Sulsted Kærvej,9381,9,9.948862,57.164678
725772,Sulsted Kærvej,9381,10,9.948287,57.164343
725773,Sulsted Kærvej,9381,11,9.948821,57.164378
725774,Sulsted Kærvej,9381,12,9.948245,57.164142
725775,Sulsted Kærvej,9381,13,9.948743,57.164184
725776,Sulsted Kærvej,9381,14,9.948202,57.163947
725777,Sulsted Kærvej,9381,15,9.948707,57.163989
725778,Sulsted Kærvej,9381,16,9.948168,57.163781
725779,Sulsted Kærvej,9381,17,9.948668,57.163791
725789,Sulsted Landevej,9381,45,9.96683,57.147748
725790,Sulsted Landevej,9381,47,9.966245,57.148052
725791,Sulsted Landevej,9381,48,9.971433,57.149995
725792,Sulsted Landevej,9381,49,9.966881,57.14857
725793,Sulsted Landevej,9381,50,9.968735,57.150173
725794,Sulsted Landevej,9381,51,9.966726,57.149041
725795,Sulsted Landevej,9381,55,9.966561,57.149827
725796,Sulsted Landevej,9381,60,9.966676,57.153646
725797,Sulsted Landevej,9381,64,9.966439,57.153865
725798,Sulsted Landevej,9381,65,9.965855,57.15413
725799,Sulsted Landevej,9381,66,9.966228,57.154255
725800,Sulsted Landevej,9381,67,9.965763,57.15429
725801,Sulsted Landevej,9381,69,9.96563,57.154449
725802,Sulsted Landevej,9381,78,9.965945,57.156751
725803,Sulsted Landevej,9381,80,9.965919,57.157064
725804,Sulsted Landevej,9381,82,9.965837,57.157239
725805,Sulsted Landevej,9381,84,9.965751,57.157405
725806,Sulsted Landevej,9381,86,9.965701,57.157683
725807,Sulsted Landevej,9381,90,9.965654,57.158156
725808,Sulsted Landevej,9381,93,9.964699,57.159409
725809,Sulsted Landevej,9381,96,9.966146,57.159799
725810,Sulsted Landevej,9381,99,9.963744,57.161335
725811,Sulsted Landevej,9381,110,9.964151,57.165609
725812,Sulsted Landevej,9381,120,9.96324,57.17079
725813,Sulsted Landevej,9381,125,9.962122,57.172212
725814,Sulsted Landevej,9381,128,9.962751,57.173282
725815,Sulsted Landevej,9381,128B,9.964287,57.172954
725816,Sulsted Landevej,9381,130,9.967891,57.172702
725817,Sulsted Landevej,9381,132,9.9630288,57.1738487
725818,Sulsted Landevej,9381,140,9.962241,57.177078
725819,Sulsted Landevej,9381,142,9.962113,57.177303
725820,Sulsted Landevej,9381,146,9.962048,57.177643
725821,Sulsted Landevej,9381,148,9.962005,57.17785
725822,Sulsted Landevej,9381,150,9.961984,57.177998
725823,Sulsted Landevej,9381,152,9.961958,57.178162
725824,Sulsted Landevej,9381,154,9.962156,57.178335
725825,Sulsted Landevej,9381,158,9.961636,57.179184
725826,Sulstedparken,9381,1,9.960058,57.157951
725827,Sulstedparken,9381,2,9.95999,57.158253
725828,Sulstedparken,9381,3,9.960115,57.157937
725829,Sulstedparken,9381,4,9.959944,57.158211
725830,Sulstedparken,9381,5,9.960185,57.157917
725831,Sulstedparken,9381,6,9.959912,57.158172
725832,Sulstedparken,9381,7,9.960271,57.157899
725833,Sulstedparken,9381,8,9.959886,57.158131
725834,Sulstedparken,9381,9,9.959742,57.157572
725835,Sulstedparken,9381,10,9.959691,57.158093
725836,Sulstedparken,9381,11,9.95979,57.157557
725837,Sulstedparken,9381,12,9.959649,57.158056
725838,Sulstedparken,9381,13,9.959858,57.15754
725839,Sulstedparken,9381,14,9.959617,57.158016
725840,Sulstedparken,9381,15,9.959949,57.157522
725841,Sulstedparken,9381,16,9.959598,57.157981
725842,Sulstedparken,9381,18,9.95953,57.157896
725843,Sulstedparken,9381,20,9.959484,57.157855
725844,Sulstedparken,9381,22,9.959452,57.157815
725845,Sulstedparken,9381,24,9.959435,57.157788
725846,Sulstedparken,9381,26,9.959294,57.157681
725847,Sulstedparken,9381,28,9.959345,57.157667
725848,Sulstedparken,9381,30,9.959423,57.157648
725849,Sulstedparken,9381,32,9.959507,57.15763
726431,Sølgårdvej,9381,11,10.017762,57.158875
726432,Sølgårdvej,9381,13,10.01956,57.159463
726433,Sølgårdvej,9381,14,10.022501,57.16036
726434,Sølgårdvej,9381,15,10.020284,57.159746
726435,Sølgårdvej,9381,25,10.014774,57.1658
726436,Sølgårdvej,9381,31,10.018355,57.168551
726437,Sølgårdvej,9381,32,10.022997,57.168381
726438,Sølgårdvej,9381,36,10.026702,57.168739
726439,Sølgårdvej,9381,40,10.031169,57.167913
726440,Sølgårdvej,9381,44,10.024199,57.170727
726441,Sølgårdvej,9381,48,10.028295,57.169934
726442,Sølgårdvej,9381,52,10.024901,57.171204
726443,Sølgårdvej,9381,56,10.022554,57.172529
726444,Sølgårdvej,9381,58,10.030404,57.171587
726445,Sølgårdvej,9381,60,10.030415,57.172215
726446,Sølgårdvej,9381,69,10.016557,57.177323
726447,Sølgårdvej,9381,70,10.023058,57.176335
726448,Sølgårdvej,9381,79,10.015254,57.180037
726449,Sølgårdvej,9381,80,10.022264,57.180773
726450,Sølgårdvej,9381,81,10.015737,57.181589
726451,Sølgårdvej,9381,88,10.020228,57.183932
726452,Sølgårdvej,9381,90,10.023537,57.183177
726453,Sølgårdvej,9381,92,10.027362,57.184341
726454,Sølgårdvej,9381,94,10.031017,57.184232
726455,Sølgårdvej,9381,100,10.022034,57.186775
726456,Sølgårdvej,9381,101,10.021995,57.1888
728311,Toftegårdsvej,9381,2,9.959581,57.160921
728312,Toftegårdsvej,9381,3,9.958839,57.161499
728313,Toftegårdsvej,9381,4A,9.958914,57.161009
728314,Toftegårdsvej,9381,4B,9.958762,57.160975
728315,Toftegårdsvej,9381,4C,9.958605,57.160989
728316,Toftegårdsvej,9381,6A,9.958366,57.160973
728317,Toftegårdsvej,9381,6B,9.958384,57.160901
728318,Toftegårdsvej,9381,6C,9.958403,57.16082
728319,Toftegårdsvej,9381,8A,9.958506,57.160733
728320,Toftegårdsvej,9381,8B,9.95852,57.160657
728321,Toftegårdsvej,9381,10A,9.958705,57.160609
728322,Toftegårdsvej,9381,10B,9.958813,57.16064
728323,Toftegårdsvej,9381,10C,9.958959,57.160629
728324,Toftegårdsvej,9381,12A,9.959141,57.160659
728325,Toftegårdsvej,9381,12B,9.959265,57.16069
728326,Toftegårdsvej,9381,12C,9.959406,57.160677
728327,Toftegårdsvej,9381,14A,9.9596,57.160683
728328,Toftegårdsvej,9381,14B,9.959689,57.160712
728329,Toftegårdsvej,9381,14C,9.959829,57.160722
728330,Toftegårdsvej,9381,14D,9.959975,57.160709
728331,Toftegårdsvej,9381,16A,9.960162,57.160803
728332,Toftegårdsvej,9381,16B,9.960145,57.160876
728333,Toftegårdsvej,9381,16C,9.960126,57.160955
728334,Toftegårdsvej,9381,16D,9.960109,57.161023
728335,Toftegårdsvej,9381,22,9.960842,57.160403
728336,Toftegårdsparken,9381,1,9.959476,57.159513
728337,Toftegårdsparken,9381,2,9.959698,57.159197
728338,Toftegårdsparken,9381,3,9.959329,57.159709
728339,Toftegårdsparken,9381,4,9.959871,57.159018
728340,Toftegårdsparken,9381,5,9.959147,57.159962
728341,Toftegårdsparken,9381,6,9.960018,57.158825
728342,Toftegårdsparken,9381,7,9.958919,57.160155
728343,Toftegårdsparken,9381,8,9.960175,57.158583
728344,Toftegårdsparken,9381,9,9.958846,57.160355
728345,Toftegårdsparken,9381,10,9.960819,57.158727
728346,Toftegårdsparken,9381,12,9.96123,57.158682
728347,Toftegårdsparken,9381,13,9.959352,57.160411
728348,Toftegårdsparken,9381,14,9.961748,57.158642
728349,Toftegårdsparken,9381,15,9.959838,57.160414
728350,Toftegårdsparken,9381,16,9.961802,57.1584
728351,Toftegårdsparken,9381,17,9.959899,57.160134
728352,Toftegårdsparken,9381,19,9.959955,57.159911
728353,Toftegårdsparken,9381,20,9.961478,57.158974
728354,Toftegårdsparken,9381,21,9.960025,57.15968
728355,Toftegårdsparken,9381,22,9.961827,57.159058
728356,Toftegårdsparken,9381,23,9.960472,57.159724
728357,Toftegårdsparken,9381,24,9.96161,57.159327
728358,Toftegårdsparken,9381,25,9.960531,57.159873
728359,Toftegårdsparken,9381,26,9.961244,57.15923
728360,Toftegårdsparken,9381,28,9.960844,57.15913
728361,Toftegårdsparken,9381,29,9.961394,57.159983
728362,Toftegårdsparken,9381,30,9.960505,57.15898
728363,Toftegårdsparken,9381,32,9.960401,57.159374
728364,Toftegårdsparken,9381,34,9.960991,57.159507
728365,Toftegårdsparken,9381,36,9.96142,57.159606
728366,Toftelodden,9381,3,9.966938,57.156641
728367,Toftelodden,9381,7,9.967073,57.156947
728368,Toftelodden,9381,9,9.96725,57.157064
728369,Toftelodden,9381,11,9.967321,57.157196
728370,Toftelodden,9381,13,9.967346,57.157361
729388,Tvedens Alle,9381,2,9.950049,57.165559
729389,Tvedens Alle,9381,3,9.950856,57.16537
729390,Tvedens Alle,9381,4,9.949945,57.165372
729391,Tvedens Alle,9381,5,9.950859,57.164964
729392,Tvedens Alle,9381,7,9.950722,57.164765
729393,Tvedens Alle,9381,8,9.950159,57.16477
729394,Tvedens Alle,9381,9,9.950804,57.164468
729395,Tvedens Alle,9381,10,9.949634,57.164611
729396,Tvedens Alle,9381,11,9.950666,57.164282
729397,Tvedens Alle,9381,12,9.950195,57.164539
729398,Tvedens Alle,9381,13,9.950685,57.164024
729399,Tvedens Alle,9381,14,9.950045,57.16428
729400,Tvedens Alle,9381,15,9.950608,57.163811
729401,Tvedens Alle,9381,16,9.949921,57.164089
729402,Tvedens Alle,9381,17,9.950636,57.163616
729403,Tvedens Alle,9381,18,9.949603,57.163918
729404,Tvedens Alle,9381,19,9.95062,57.163386
729405,Tvedens Alle,9381,21,9.950585,57.163195
729406,Tvedens Alle,9381,23,9.950571,57.162993
729407,Tvedens Alle,9381,25,9.950554,57.162804
729408,Tvedens Alle,9381,27,9.950549,57.162583
729409,Tvedens Alle,9381,29,9.950373,57.162317
729410,Tvedens Alle,9381,31,9.949961,57.162488
729411,Tvedens Alle,9381,33,9.950048,57.162706
729412,Tvedens Alle,9381,35,9.950074,57.162903
729413,Tvedens Alle,9381,37,9.950096,57.1631
729414,Tvedens Alle,9381,39,9.950118,57.163299
729415,Tvedens Alle,9381,41,9.95014,57.163494
729416,Tvedens Alle,9381,43,9.950092,57.163689
729417,Tvedens Alle,9381,45,9.949407,57.163499
729418,Tvedens Alle,9381,47,9.949292,57.163321
729419,Tvedens Alle,9381,49,9.949271,57.163125
729420,Tvedens Alle,9381,51,9.949252,57.162926
729421,Tvedens Alle,9381,53,9.949225,57.16269
729422,Tvedens Alle,9381,61,9.948753,57.162813
729423,Tvedens Alle,9381,63,9.948781,57.162989
729424,Tvedens Alle,9381,65,9.9488,57.163184
729425,Tvedens Alle,9381,67,9.948715,57.163433
729426,Tvedens Alle,9381,69,9.948185,57.163411
729427,Tvedens Alle,9381,71,9.948024,57.16323
729428,Tvedens Alle,9381,73,9.948016,57.163017
729429,Tvedens Alle,9381,75,9.947932,57.162841
729430,Tvedens Alle,9381,77,9.946341,57.16196
729431,Tvedens Alle,9381,79,9.947324,57.162062
729432,Tvedens Alle,9381,81,9.947451,57.162239
729433,Tvedens Alle,9381,83,9.947733,57.16255
729434,Tvedens Alle,9381,85,9.9472458,57.1626451
729435,Tvedens Alle,9381,89,9.947063,57.162935
729436,Tvedens Alle,9381,91,9.947461,57.162986
729437,Tvedens Alle,9381,93,9.947539,57.163337
729438,Tvedens Alle,9381,95,9.947217,57.163373
729439,Tvedens Alle,9381,97,9.946934,57.163338
731118,Vendelparken,9381,2,9.95625,57.160636
731119,Vendelparken,9381,4,9.956212,57.160568
731120,Vendelparken,9381,6,9.95611,57.160436
731121,Vendelparken,9381,8,9.956056,57.160369
731122,Vendelparken,9381,10,9.955898,57.16019
731123,Vendelparken,9381,12,9.955983,57.160159
731124,Vendelparken,9381,14,9.956191,57.160131
731125,Vendelparken,9381,16,9.956288,57.160095
731126,Vendelparken,9381,18,9.956499,57.160063
731127,Vendelparken,9381,20,9.956719,57.160087
731128,Vendelparken,9381,22,9.956583,57.160261
731129,Vendelparken,9381,24,9.95652,57.160341
731130,Vendelparken,9381,26,9.956473,57.160407
731131,Vendelparken,9381,28,9.956589,57.160595
731132,Vendelparken,9381,30,9.95672,57.160557
731133,Vendelparken,9381,32,9.956875,57.160539
731134,Vendelparken,9381,34,9.956984,57.160497
731135,Vendelparken,9381,36,9.957024,57.160443
731136,Vendelparken,9381,38,9.957012,57.160288
731137,Vendelparken,9381,40,9.956954,57.160199
731138,Vendelparken,9381,42,9.957145,57.15997
731139,Vendelparken,9381,44,9.95728,57.159926
731140,Vendelparken,9381,46,9.957352,57.160074
731141,Vendelparken,9381,48,9.957382,57.160122
731142,Vendelparken,9381,50,9.957508,57.160223
731143,Vendelparken,9381,52,9.957538,57.16027
731144,Vendelparken,9381,54,9.957398,57.160476
731145,Vendelparken,9381,56,9.957797,57.160478
731146,Vendelparken,9381,58,9.957758,57.160523
731147,Vendelparken,9381,60,9.957673,57.160635
731148,Vendelparken,9381,62,9.957593,57.160738
731608,Vestergårdsvej,9381,4,9.947989,57.165273
731609,Vestergårdsvej,9381,5,9.947965,57.165079
731610,Vestergårdsvej,9381,6,9.947734,57.165439
731611,Vestergårdsvej,9381,7,9.947642,57.165079
731612,Vestergårdsvej,9381,9,9.947607,57.164802
731613,Vestergårdsvej,9381,10,9.947246,57.165188
731614,Vestergårdsvej,9381,11,9.947603,57.164602
731615,Vestergårdsvej,9381,12,9.94721,57.165001
731616,Vestergårdsvej,9381,13,9.947621,57.164394
731617,Vestergårdsvej,9381,14,9.947141,57.164785
731618,Vestergårdsvej,9381,15,9.947497,57.164205
731619,Vestergårdsvej,9381,16,9.947103,57.164603
731620,Vestergårdsvej,9381,17,9.947509,57.164009
731621,Vestergårdsvej,9381,18,9.947058,57.164411
731622,Vestergårdsvej,9381,19,9.947503,57.163809
731623,Vestergårdsvej,9381,20,9.947024,57.164181
731624,Vestergårdsvej,9381,22,9.946973,57.163971
731625,Vestergårdsvej,9381,24,9.946935,57.163672
1862662,Bjørnsonparken,9381,7B,9.952409,57.167967
1899270,Elkærvej,9381,30,9.9575631,57.1633268
1899271,Elkærvej,9381,32,9.9566548,57.1638439
1899272,Elkærvej,9381,37,9.9587315,57.1584981
1899273,Elkærvej,9381,76A,9.947576,57.166028
1899274,Elkærvej,9381,105,9.937429,57.164436
1899275,Elkærvej,9381,105A,9.936757,57.164562
1899276,Elkærvej,9381,113,9.944065,57.152285
1967691,Sulsted Landevej,9381,97A,9.964004,57.160218
1967692,Sulsted Landevej,9381,97B,9.96418,57.160517
1973376,Engvej,9381,137A,9.886008,57.176553
1973380,Engvej,9381,137B,9.882834,57.176906
1998004,Bredholtvej,9381,9A,9.978575,57.177755
2008907,Hammervej,9381,5,9.9671437,57.1561893
2008911,Hammervej,9381,8C,9.966579,57.155744
2008915,Hammervej,9381,72,10.018391,57.153894
2048173,Kuskgårdsvej,9381,40,9.959053,57.157317
2072603,Ajstrupvej,9381,55,9.983538,57.173749
2072605,Ajstrupvej,9381,56,9.984548,57.172718
2081206,Skråvej,9381,112,9.898619,57.1652
2083045,Småengevej,9381,25,9.955803,57.159744
2083046,Småengevej,9381,27,9.955936,57.159932
2083048,Småengevej,9381,31,9.956344,57.159666
2083049,Småengevej,9381,33,9.95614,57.159403
2083051,Småengevej,9381,35,9.955917,57.159159
2083053,Småengevej,9381,37,9.955495,57.159233
2083054,Småengevej,9381,39,9.955551,57.159471
2085932,Holtevej,9381,1,9.946672,57.166452
2087549,Jonas Lies Vej,9381,8,9.9491039,57.1670907
2088772,Vendelparken,9381,1,9.956427,57.160886
2088774,Vendelparken,9381,3,9.956509,57.160997
2088777,Vendelparken,9381,5,9.956585,57.161104
2088780,Vendelparken,9381,7,9.95665,57.161193
2088781,Vendelparken,9381,9,9.956846,57.160967
2088783,Vendelparken,9381,11,9.956815,57.160923
2088785,Vendelparken,9381,13,9.956769,57.160856
2088788,Vendelparken,9381,15,9.956717,57.160785
2088789,Vendelparken,9381,17,9.957035,57.16076
2088790,Vendelparken,9381,19,9.957116,57.160874
2088792,Vendelparken,9381,21,9.957171,57.160992
2088795,Vendelparken,9381,23,9.95711,57.161075
2088799,Vendelparken,9381,25,9.957038,57.16118
2088801,Vendelparken,9381,27,9.95697,57.161265
2088803,Vendelparken,9381,29,9.956724,57.161296
2088806,Vendelparken,9381,31,9.956803,57.16141
2088808,Vendelparken,9381,33,9.956913,57.161546
2088810,Vendelparken,9381,35,9.956975,57.161633
2088813,Vendelparken,9381,37,9.957176,57.161423
2088816,Vendelparken,9381,39,9.957253,57.161314
2088818,Vendelparken,9381,41,9.95733,57.161209
2088820,Vendelparken,9381,43,9.957391,57.16112
2088823,Vendelparken,9381,45,9.957475,57.161015
2088826,Vendelparken,9381,47,9.957558,57.160904
2090805,Byrholtvej,9381,4,9.9660801,57.1467742
2090806,Byrholtvej,9381,6,9.965057,57.146966
2090807,Byrholtvej,9381,9,9.96484,57.144619
2092076,Sigurd Hoels Vej,9381,16,9.947758,57.166299
2094098,Toftegårdsvej,9381,1,9.9582026,57.1617646
2094099,Toftegårdsvej,9381,5,9.9591946,57.1618492
2094100,Toftegårdsvej,9381,30,9.962504,57.160064
2094101,Toftegårdsvej,9381,101,9.960246,57.161464
2094102,Toftegårdsvej,9381,103,9.960048,57.161448
2094103,Toftegårdsvej,9381,105,9.959923,57.161641
2094104,Toftegårdsvej,9381,107,9.959898,57.161753
2094105,Toftegårdsvej,9381,109,9.960005,57.1619
2094106,Toftegårdsvej,9381,111,9.960208,57.161916
2094107,Toftegårdsvej,9381,113,9.960496,57.161939
2094108,Toftegårdsvej,9381,115,9.960696,57.161954
2094109,Toftegårdsvej,9381,117,9.960852,57.161826
2094110,Toftegårdsvej,9381,119,9.960878,57.161714
2094112,Toftegårdsvej,9381,121,9.960902,57.161515
2094113,Toftegårdsvej,9381,123,9.960696,57.161501
2096271,Melkærvej,9381,8A,9.986358,57.17491
2098973,Ajstrup Mosevej,9381,9,10.024359,57.175535
2137527,Troldelunden,9381,1,9.95211,57.166863
2137531,Troldelunden,9381,2,9.951952,57.167251
2137542,Troldelunden,9381,3,9.952178,57.166672
2137545,Troldelunden,9381,5,9.953047,57.166483
2137549,Troldelunden,9381,6,9.951722,57.166683
2137553,Troldelunden,9381,7,9.95239,57.166413
2137555,Troldelunden,9381,8,9.951787,57.166528
2137558,Troldelunden,9381,9,9.95225,57.166227
2137566,Troldelunden,9381,10,9.951738,57.166331
2137570,Troldelunden,9381,11,9.9522237,57.1660303
2137571,Troldelunden,9381,12,9.951702,57.166158
2235531,Milbakvej,9381,59,9.904171,57.176398
2236617,Sulsted Kirkevej,9381,14,9.971965,57.145297
2236842,Sulstedvej,9381,119,9.905751,57.159862
2236845,Toftegårdsvej,9381,1B,9.957597,57.161778
2236846,Toftegårdsvej,9381,18,9.960995,57.160893
2242982,Skråvej,9381,112X,9.897853,57.164542
2243039,Engvej,9381,117B,9.874357,57.174933
2256934,Elkærvej,9381,5A,9.9647,57.156813
2256935,Elkærvej,9381,5B,9.964534,57.156851
