idx,street,postcode,housenumber,lon,lat
680643,Bakmøllevej,9430,2,9.865839,57.152542
680644,Bakmøllevej,9430,5,9.868586,57.153546
680645,Bakmøllevej,9430,7,9.869502,57.153787
680646,Bakmøllevej,9430,31,9.876014,57.153557
680647,Bakmøllevej,9430,32,9.877793,57.152921
680648,Bakmøllevej,9430,33,9.876965,57.153327
680649,Bakmøllevej,9430,34,9.878152,57.152841
680650,Bakmøllevej,9430,35,9.877677,57.153186
680651,Bakmøllevej,9430,36,9.87884,57.152622
680652,Bakmøllevej,9430,37,9.878409,57.153111
680653,Bakmøllevej,9430,38,9.879176,57.15253
680654,Bakmøllevej,9430,39,9.878568,57.15295
680655,Bakmøllevej,9430,40,9.88127,57.151946
680656,Bakmøllevej,9430,41,9.878858,57.152889
680657,Bakmøllevej,9430,42,9.881486,57.151888
680658,Bakmøllevej,9430,43,9.879104,57.152826
680659,Bakmøllevej,9430,44,9.881777,57.151813
680660,Bakmøllevej,9430,45,9.879409,57.152741
680661,Bakmøllevej,9430,46,9.882052,57.151774
680662,Bakmøllevej,9430,47,9.879751,57.152654
680663,Bakmøllevej,9430,48,9.88248,57.151631
680664,Bakmøllevej,9430,49,9.879998,57.152596
680665,Bakmøllevej,9430,51,9.880425,57.152494
680666,Bakmøllevej,9430,53,9.880816,57.152404
680667,Bakmøllevej,9430,55,9.880971,57.152635
680668,Bakmøllevej,9430,57,9.881554,57.15255
680669,Bakmøllevej,9430,59,9.881316,57.152273
680670,Bakmøllevej,9430,61,9.881618,57.152194
680671,Bakmøllevej,9430,69,9.887622,57.153048
680672,Bakmøllevej,9430,70,9.884208,57.150777
680673,Bakmøllevej,9430,71,9.887042,57.152509
680674,Bakmøllevej,9430,73,9.885861,57.150932
680675,Bakmøllevej,9430,75,9.886395,57.150929
680676,Bakmøllevej,9430,77,9.886747,57.150715
680677,Bakmøllevej,9430,84,9.890145,57.149541
680678,Bakmøllevej,9430,85,9.890328,57.14974
680679,Bakmøllevej,9430,101,9.897286,57.148552
680680,Bakmøllevej,9430,104,9.894635,57.147041
680681,Bakmøllevej,9430,111,9.897588,57.14776
680682,Bakmøllevej,9430,127,9.904144,57.146382
680683,Bakmøllevej,9430,130,9.90392,57.145817
680777,Birkevej,9430,1,9.871095,57.149355
680778,Birkevej,9430,2,9.870686,57.149632
680779,Birkevej,9430,3,9.87109,57.14912
680780,Birkevej,9430,4,9.870646,57.149426
680781,Birkevej,9430,5,9.871085,57.148943
680782,Birkevej,9430,6,9.870626,57.149219
680783,Birkevej,9430,7,9.871021,57.148671
680784,Birkevej,9430,8,9.870538,57.149037
680785,Birkevej,9430,9,9.870966,57.148497
680786,Birkevej,9430,10,9.870505,57.148846
680787,Birkevej,9430,11,9.870819,57.148097
680788,Birkevej,9430,12,9.870481,57.148667
680789,Birkevej,9430,13,9.870719,57.147867
680790,Birkevej,9430,14,9.870449,57.148486
680791,Birkevej,9430,15,9.870735,57.147618
680792,Birkevej,9430,16,9.8704009,57.148267
680793,Birkevej,9430,18,9.870363,57.148111
680794,Birkevej,9430,20,9.870295,57.147926
680795,Birkevej,9430,22,9.870197,57.147621
681005,Bygaden,9430,1,9.872238,57.149877
681006,Bygaden,9430,2,9.872398,57.149691
681007,Bygaden,9430,3,9.872644,57.150255
681008,Bygaden,9430,4,9.872913,57.150069
681009,Bygaden,9430,5,9.872895,57.150467
681010,Bygaden,9430,6,9.87318,57.15034
681011,Bygaden,9430,7,9.873192,57.150733
681012,Bygaden,9430,8,9.873639,57.150651
681013,Bygaden,9430,9,9.873529,57.151018
681014,Bygaden,9430,10,9.874492,57.15089
681015,Bygaden,9430,11,9.873965,57.151356
681016,Bygaden,9430,12,9.874248,57.151223
681017,Bygaden,9430,13,9.874226,57.151652
681018,Bygaden,9430,14,9.874481,57.151405
681019,Bygaden,9430,15,9.874434,57.151843
681020,Bygaden,9430,16,9.874741,57.151573
681021,Bygaden,9430,17,9.874656,57.151934
681022,Bygaden,9430,18,9.875012,57.151794
681023,Bygaden,9430,19,9.874807,57.152124
681024,Bygaden,9430,20,9.875242,57.152025
681025,Bygaden,9430,21,9.874817,57.152295
681026,Bygaden,9430,22,9.875578,57.152274
681027,Bygaden,9430,24,9.876713,57.152605
681064,Bøgevej,9430,1,9.869644,57.150015
681065,Bøgevej,9430,2,9.869282,57.150158
681066,Bøgevej,9430,3,9.869447,57.149821
681067,Bøgevej,9430,4,9.869048,57.149942
681068,Bøgevej,9430,5,9.869342,57.149565
681069,Bøgevej,9430,6,9.868765,57.149682
681070,Bøgevej,9430,7A,9.870069,57.149201
681071,Bøgevej,9430,7B,9.869505,57.149249
681072,Bøgevej,9430,8,9.868506,57.149437
681073,Bøgevej,9430,9,9.869066,57.149301
681074,Bøgevej,9430,10,9.868293,57.149222
681075,Bøgevej,9430,11,9.86875,57.149109
681076,Bøgevej,9430,12,9.868118,57.148852
681077,Bøgevej,9430,13,9.868665,57.148805
681078,Bøgevej,9430,14,9.868023,57.148612
681079,Bøgevej,9430,19,9.869072,57.147449
681080,Bøgevej,9430,20,9.866921,57.147369
681081,Bøgevej,9430,21,9.868467,57.147008
681164,Egevej,9430,1,9.868871,57.150441
681165,Egevej,9430,2,9.86847,57.150553
681166,Egevej,9430,3,9.868667,57.150276
681167,Egevej,9430,4,9.868246,57.150339
681168,Egevej,9430,5,9.868484,57.150091
681366,Engvej,9430,1,9.87654,57.153564
681367,Engvej,9430,2,9.877313,57.153522
681368,Engvej,9430,3,9.876948,57.15385
681369,Engvej,9430,5,9.877464,57.154304
681370,Engvej,9430,6,9.877767,57.15357
681371,Engvej,9430,7,9.877881,57.154626
681372,Engvej,9430,27,9.881931,57.15826
681373,Engvej,9430,32,9.882918,57.157825
681374,Engvej,9430,33,9.882037,57.15908
681375,Engvej,9430,38,9.884238,57.159824
681376,Engvej,9430,39,9.883273,57.159413
681377,Engvej,9430,40,9.884611,57.160298
681378,Engvej,9430,44,9.884621,57.160612
681379,Engvej,9430,51,9.884634,57.161206
681542,Gartnervænget,9430,2,9.867651,57.151738
681543,Gartnervænget,9430,3A,9.867001,57.151699
681544,Gartnervænget,9430,3B,9.8665,57.151722
681545,Gartnervænget,9430,4,9.867977,57.151815
681546,Gartnervænget,9430,5,9.866701,57.151904
681547,Gartnervænget,9430,6,9.868438,57.151899
681548,Gartnervænget,9430,7,9.866291,57.152105
681549,Gartnervænget,9430,8,9.868523,57.152053
681550,Gartnervænget,9430,8A,9.86894,57.151968
681551,Gartnervænget,9430,8B,9.868861,57.152058
681552,Gartnervænget,9430,9,9.865904,57.152031
681553,Gartnervænget,9430,10,9.868212,57.152204
681554,Gartnervænget,9430,11,9.865572,57.151943
681555,Gartnervænget,9430,12,9.867949,57.152089
681556,Gartnervænget,9430,13,9.865205,57.152032
681557,Gartnervænget,9430,14,9.8676,57.151969
681558,Gartnervænget,9430,15,9.865182,57.152198
681559,Gartnervænget,9430,16,9.867272,57.151937
681560,Gartnervænget,9430,17,9.865577,57.152267
681561,Gartnervænget,9430,18,9.866805,57.152278
681562,Gartnervænget,9430,19,9.865888,57.152301
681563,Gartnervænget,9430,20,9.867205,57.152388
681564,Gartnervænget,9430,21,9.866319,57.152419
681565,Gartnervænget,9430,22,9.86752,57.152449
681566,Gartnervænget,9430,23,9.866637,57.152515
681567,Gartnervænget,9430,24,9.86783,57.152557
681568,Gartnervænget,9430,25,9.866964,57.152574
681569,Gartnervænget,9430,26,9.868153,57.152642
681570,Gartnervænget,9430,27,9.867242,57.152671
681571,Gartnervænget,9430,28,9.86843,57.152715
681572,Gartnervænget,9430,29,9.867614,57.152765
681573,Gartnervænget,9430,30,9.868834,57.152801
681574,Gartnervænget,9430,31,9.867774,57.153022
681575,Gartnervænget,9430,33,9.868419,57.153022
681576,Gartnervænget,9430,35,9.868737,57.153098
681732,Glentevej,9430,1,9.869896,57.148754
681733,Glentevej,9430,2,9.869927,57.148969
681734,Glentevej,9430,3,9.869466,57.148738
681735,Glentevej,9430,4,9.869307,57.14903
681736,Glentevej,9430,5,9.869074,57.148806
681737,Glentevej,9430,10,9.867826,57.149389
681738,Glentevej,9430,11,9.867546,57.148881
681739,Glentevej,9430,12,9.86819,57.149593
681740,Glentevej,9430,13,9.867161,57.14889
681741,Glentevej,9430,14,9.867691,57.149737
681742,Glentevej,9430,15,9.86671,57.148871
681743,Glentevej,9430,16,9.867344,57.149714
681744,Glentevej,9430,17,9.866348,57.148868
681745,Glentevej,9430,18,9.867379,57.149472
681746,Glentevej,9430,19,9.865977,57.148818
681747,Glentevej,9430,20,9.867376,57.149282
681748,Glentevej,9430,21,9.865586,57.148715
681749,Glentevej,9430,22,9.866864,57.149159
681750,Glentevej,9430,23,9.864971,57.148623
681751,Glentevej,9430,24,9.866808,57.149447
681752,Glentevej,9430,25,9.864983,57.148807
681753,Glentevej,9430,26,9.866833,57.149686
681754,Glentevej,9430,27,9.864857,57.149196
681755,Glentevej,9430,28,9.866387,57.149595
681756,Glentevej,9430,29,9.864928,57.149463
681757,Glentevej,9430,30,9.866369,57.149449
681758,Glentevej,9430,31,9.864949,57.149753
681759,Glentevej,9430,32,9.866367,57.149172
681760,Glentevej,9430,33,9.864956,57.14995
681761,Glentevej,9430,34,9.865867,57.149096
681762,Glentevej,9430,35,9.865038,57.150256
681763,Glentevej,9430,36,9.865495,57.148965
681764,Glentevej,9430,38,9.865404,57.149459
681765,Glentevej,9430,40,9.865857,57.149502
681766,Glentevej,9430,42,9.865822,57.149724
681767,Glentevej,9430,44,9.865377,57.149764
681768,Glentevej,9430,46,9.865419,57.15003
681769,Glentevej,9430,48,9.865379,57.150192
681891,Gustav Zimmersvej,9430,2,9.874352,57.150302
681892,Gustav Zimmersvej,9430,3,9.874473,57.150552
681893,Gustav Zimmersvej,9430,4,9.87426,57.150082
681894,Gustav Zimmersvej,9430,5,9.875029,57.150471
681895,Gustav Zimmersvej,9430,6,9.874183,57.149885
681896,Gustav Zimmersvej,9430,7,9.875537,57.150392
681897,Gustav Zimmersvej,9430,8,9.874428,57.149836
681898,Gustav Zimmersvej,9430,9,9.875943,57.150351
681899,Gustav Zimmersvej,9430,10,9.874709,57.150025
681900,Gustav Zimmersvej,9430,11,9.876324,57.150372
681901,Gustav Zimmersvej,9430,12,9.874898,57.150231
681902,Gustav Zimmersvej,9430,13,9.877029,57.150344
681903,Gustav Zimmersvej,9430,14,9.87559,57.150151
681904,Gustav Zimmersvej,9430,15,9.877303,57.150215
681905,Gustav Zimmersvej,9430,16,9.875607,57.149893
681906,Gustav Zimmersvej,9430,17,9.877693,57.150188
681907,Gustav Zimmersvej,9430,18,9.87551,57.149704
681908,Gustav Zimmersvej,9430,19,9.878013,57.150105
681909,Gustav Zimmersvej,9430,20,9.875867,57.149662
681910,Gustav Zimmersvej,9430,21,9.878383,57.150086
681911,Gustav Zimmersvej,9430,22,9.876031,57.149813
681912,Gustav Zimmersvej,9430,23,9.878771,57.150013
681913,Gustav Zimmersvej,9430,24,9.876149,57.150049
681914,Gustav Zimmersvej,9430,25A,9.879083,57.150006
681915,Gustav Zimmersvej,9430,25B,9.879168,57.150124
681916,Gustav Zimmersvej,9430,27,9.880893,57.149829
681917,Gustav Zimmersvej,9430,29,9.881112,57.149771
681918,Gustav Zimmersvej,9430,50,9.878423,57.149506
682077,Hedevej,9430,1,9.878587,57.143304
682078,Hedevej,9430,14,9.882296,57.142099
682079,Hedevej,9430,24,9.885137,57.141475
682080,Hedevej,9430,36,9.8881489,57.1404094
682081,Hedevej,9430,41,9.89251,57.141973
682082,Hedevej,9430,44,9.891334,57.140167
682083,Hedevej,9430,50,9.893058,57.139768
682084,Hedevej,9430,59,9.896278,57.139695
682085,Hedevej,9430,60,9.8960576,57.1389905
682086,Hedevej,9430,71,9.898189,57.140146
682087,Hedevej,9430,78,9.901332,57.140539
682088,Hedevej,9430,84,9.900266,57.141948
682089,Hedevej,9430,94,9.902611,57.143353
682090,Hedevej,9430,97,9.896262,57.144932
682112,Holtebakkevej,9430,82,9.870412,57.167164
682113,Holtebakkevej,9430,99,9.859259,57.16961
682114,Holtebakkevej,9430,101,9.858831,57.170129
682115,Holtebakkevej,9430,111,9.859395,57.171401
682116,Holtebakkevej,9430,121,9.854018,57.17398
682117,Holtebakkevej,9430,159,9.853431,57.180281
682118,Holtebakkevej,9430,160,9.854648,57.182153
682119,Holtebakkevej,9430,161,9.853357,57.180903
682164,Husmandsvej,9430,1,9.877091,57.142979
682165,Husmandsvej,9430,7,9.875737,57.143484
682166,Husmandsvej,9430,8,9.87487,57.144272
682167,Husmandsvej,9430,26,9.870545,57.145824
682168,Husmandsvej,9430,28,9.870744,57.146854
682169,Husmandsvej,9430,40,9.867256,57.147043
682170,Husmandsvej,9430,44,9.865558,57.146813
682171,Husmandsvej,9430,50,9.86302,57.146304
682172,Husmandsvej,9430,62,9.859837,57.145554
682173,Husmandsvej,9430,63,9.86099,57.142734
682174,Husmandsvej,9430,67,9.858027,57.14311
682175,Husmandsvej,9430,68,9.857635,57.145386
682176,Husmandsvej,9430,71,9.856722,57.144579
682676,Kløvermarken,9430,1,9.869223,57.150761
682677,Kløvermarken,9430,2,9.869474,57.150609
682678,Kløvermarken,9430,3,9.869465,57.150958
682679,Kløvermarken,9430,4,9.869704,57.150718
682680,Kløvermarken,9430,5,9.869759,57.151093
682681,Kløvermarken,9430,6,9.869938,57.150849
682682,Kløvermarken,9430,7,9.869968,57.15121
682683,Kløvermarken,9430,8,9.870201,57.150983
682684,Kløvermarken,9430,9,9.870214,57.151318
682685,Kløvermarken,9430,10,9.87056,57.151111
682686,Kløvermarken,9430,11,9.870501,57.151385
682687,Kløvermarken,9430,12,9.870942,57.151221
682688,Kløvermarken,9430,13,9.87077,57.151452
682756,Konvalvej,9430,1,9.873323,57.151577
682757,Konvalvej,9430,2,9.873485,57.151842
682758,Konvalvej,9430,3,9.872855,57.151708
682759,Konvalvej,9430,4,9.872886,57.152004
682760,Konvalvej,9430,5,9.872568,57.151786
682761,Konvalvej,9430,11,9.871152,57.152017
682762,Konvalvej,9430,13,9.870796,57.151952
682763,Konvalvej,9430,15,9.870394,57.151801
682764,Konvalvej,9430,16,9.870263,57.152119
682765,Konvalvej,9430,17,9.869408,57.151398
682766,Konvalvej,9430,18,9.869712,57.151944
682767,Konvalvej,9430,19,9.869039,57.151496
682768,Konvalvej,9430,20,9.869597,57.151728
682769,Konvalvej,9430,22,9.869045,57.151693
682770,Konvalvej,9430,23,9.868687,57.151308
682771,Konvalvej,9430,25,9.868229,57.151439
682772,Kornblomstvej,9430,1,9.874688,57.153733
682773,Kornblomstvej,9430,2,9.87578,57.153652
682774,Kornblomstvej,9430,3,9.874219,57.153871
682775,Kornblomstvej,9430,3A,9.873813,57.153986
682776,Kornblomstvej,9430,4,9.875487,57.153775
682777,Kornblomstvej,9430,5,9.873833,57.153792
682778,Kornblomstvej,9430,6,9.87506,57.15398
682779,Kornblomstvej,9430,7,9.873495,57.153999
682780,Kornblomstvej,9430,9,9.87299,57.153958
682781,Kornblomstvej,9430,11A,9.872538,57.154063
682782,Kornblomstvej,9430,11B,9.872409,57.153858
682783,Kornblomstvej,9430,12,9.873498,57.154303
682784,Kornblomstvej,9430,13,9.872049,57.154052
682785,Kornblomstvej,9430,15A,9.8716,57.154138
682786,Kornblomstvej,9430,15B,9.871391,57.153857
682828,Kærvangen,9430,1,9.870428,57.15028
682829,Kærvangen,9430,2A,9.871044,57.150263
682830,Kærvangen,9430,2B,9.871279,57.150435
682831,Kærvangen,9430,3,9.870584,57.150416
682832,Kærvangen,9430,4,9.871545,57.150568
682833,Kærvangen,9430,5,9.870818,57.150544
682834,Kærvangen,9430,6,9.872305,57.150555
682835,Kærvangen,9430,7,9.871074,57.150648
682836,Kærvangen,9430,8,9.871959,57.150781
682837,Kærvangen,9430,9,9.871513,57.150886
682838,Kærvangen,9430,10,9.87204,57.150954
682839,Kærvangen,9430,11,9.87144,57.151052
682840,Kærvangen,9430,12,9.871868,57.151149
682841,Kærvangen,9430,13,9.871293,57.151249
682842,Kærvangen,9430,14,9.871788,57.151329
682843,Kærvangen,9430,15,9.871384,57.151697
682844,Kærvangen,9430,16,9.871777,57.151504
682845,Kærvangen,9430,17,9.871544,57.151966
682846,Kærvangen,9430,18,9.871878,57.151726
682847,Kærvangen,9430,19,9.871906,57.152399
682848,Kærvangen,9430,20,9.871981,57.15192
682849,Kærvangen,9430,21,9.872121,57.15277
682850,Kærvangen,9430,22,9.872198,57.152196
682851,Kærvangen,9430,23,9.872498,57.153437
682852,Kærvangen,9430,24,9.872344,57.15241
682853,Kærvangen,9430,26,9.872385,57.152526
682854,Kærvangen,9430,28,9.872539,57.152696
682855,Kærvangen,9430,30,9.872627,57.152873
682856,Kærvangen,9430,32,9.872768,57.153053
682857,Kærvangen,9430,34,9.872924,57.153202
682858,Kærvangen,9430,36,9.873273,57.153357
683100,Lindevej,9430,2,9.872095,57.148033
683101,Lindevej,9430,4,9.87195,57.147891
683102,Lindevej,9430,6,9.871684,57.147647
683103,Lindevej,9430,8,9.872219,57.147528
683104,Lindevej,9430,10,9.872386,57.147807
683105,Lindevej,9430,12,9.87262,57.148015
683106,Lindevej,9430,14,9.872705,57.148327
683107,Lindevej,9430,16,9.873112,57.148328
683449,Nordkærvej,9430,1,9.883319,57.161047
683450,Nordkærvej,9430,3,9.882857,57.161382
683451,Nordkærvej,9430,5,9.881966,57.161531
683452,Nordkærvej,9430,7,9.881169,57.16171
683453,Nordkærvej,9430,9,9.87613,57.160984
683454,Nordkærvej,9430,10,9.879621,57.16257
683455,Nordkærvej,9430,13,9.87394,57.156277
683456,Nordkærvej,9430,15,9.872662,57.154953
683457,Nordkærvej,9430,18,9.870164,57.155023
683458,Nordkærvej,9430,20,9.869744,57.154687
683459,Nordkærvej,9430,23,9.869155,57.153977
683460,Nordkærvej,9430,25,9.868835,57.153748
683505,Nørhalnevej,9430,119,9.845858,57.155958
683506,Nørhalnevej,9430,138,9.8512,57.152231
683507,Nørhalnevej,9430,166,9.862059,57.1512
683645,Parallelvej,9430,1,9.872468,57.151242
683646,Parallelvej,9430,2,9.872674,57.150976
683647,Parallelvej,9430,3,9.872503,57.151443
683648,Parallelvej,9430,4,9.872988,57.151287
683649,Parallelvej,9430,5,9.87311,57.152132
683650,Parallelvej,9430,6,9.873593,57.15205
683651,Parallelvej,9430,7,9.873277,57.152319
683652,Parallelvej,9430,8,9.873704,57.152163
683653,Parallelvej,9430,9,9.87336,57.152498
683654,Parallelvej,9430,10,9.873875,57.15235
683655,Parallelvej,9430,11,9.873535,57.152662
683656,Parallelvej,9430,12,9.874071,57.152538
683657,Parallelvej,9430,13,9.873745,57.15279
683658,Parallelvej,9430,14,9.874269,57.152662
683659,Parallelvej,9430,15,9.873827,57.152984
683660,Parallelvej,9430,16,9.874355,57.152852
683661,Parallelvej,9430,17,9.874037,57.153113
683662,Parallelvej,9430,18,9.874575,57.152991
683663,Parallelvej,9430,19,9.874138,57.153302
683664,Parallelvej,9430,20,9.874637,57.153158
683683,Pilgårdsvej,9430,1,9.868254,57.149911
683684,Pilgårdsvej,9430,2,9.867657,57.150336
683685,Pilgårdsvej,9430,3,9.867792,57.150012
683686,Pilgårdsvej,9430,5,9.867341,57.150072
683687,Pilgårdsvej,9430,9,9.866345,57.150184
683688,Pilgårdsvej,9430,11,9.865899,57.150325
683689,Poppelvej,9430,1,9.871642,57.148883
683690,Poppelvej,9430,2,9.871513,57.148659
683691,Poppelvej,9430,3,9.872004,57.148877
683692,Poppelvej,9430,4,9.871873,57.148631
683693,Poppelvej,9430,5,9.872386,57.14885
683694,Poppelvej,9430,6,9.872295,57.148637
683883,Sandagervej,9430,3,9.878022,57.152016
683884,Sandagervej,9430,5,9.877852,57.151683
683885,Sandagervej,9430,7,9.878252,57.151606
683886,Sandagervej,9430,9A,9.878621,57.151578
683887,Sandagervej,9430,9B,9.878717,57.151917
683888,Sandagervej,9430,11,9.878997,57.151523
683889,Sandagervej,9430,13,9.879375,57.151518
683890,Sandagervej,9430,15,9.879475,57.151766
683891,Sandagervej,9430,17,9.880038,57.151731
683892,Sandagervej,9430,19,9.87987,57.151474
683893,Sandagervej,9430,20,9.876903,57.151029
683894,Sandagervej,9430,21,9.88017,57.151336
683895,Sandagervej,9430,23,9.879916,57.151147
683896,Sandagervej,9430,25,9.879542,57.151194
683897,Sandagervej,9430,26,9.876336,57.151065
683898,Sandagervej,9430,27,9.879153,57.15128
683899,Sandagervej,9430,28,9.875709,57.151122
683900,Sandagervej,9430,29,9.878793,57.151291
683901,Sandagervej,9430,30,9.875227,57.151187
683902,Sandagervej,9430,31,9.878439,57.151332
683903,Sandagervej,9430,32,9.875079,57.150869
683904,Sandagervej,9430,33,9.878103,57.151379
683905,Sandagervej,9430,34,9.875389,57.150907
683906,Sandagervej,9430,35,9.877693,57.151401
683907,Sandagervej,9430,36,9.875647,57.150817
683908,Sandagervej,9430,37,9.87755,57.150967
683909,Sandagervej,9430,38,9.875787,57.150799
683910,Sandagervej,9430,39,9.877894,57.150906
683911,Sandagervej,9430,40,9.875875,57.150788
683912,Sandagervej,9430,41,9.878279,57.150873
683913,Sandagervej,9430,42,9.876018,57.15077
683914,Sandagervej,9430,43,9.878624,57.150814
683915,Sandagervej,9430,44,9.876249,57.150754
683916,Sandagervej,9430,45,9.878949,57.150763
683917,Sandagervej,9430,46,9.876336,57.150743
683918,Sandagervej,9430,47,9.879405,57.150733
683919,Sandagervej,9430,48,9.876477,57.150725
683920,Sandagervej,9430,49,9.879744,57.150689
683921,Sandagervej,9430,50,9.876613,57.150708
683922,Sandagervej,9430,51,9.879616,57.150519
683923,Sandagervej,9430,53,9.879275,57.150311
683924,Sandagervej,9430,55,9.879336,57.150463
683925,Sandagervej,9430,57,9.879172,57.150496
683926,Sandagervej,9430,59,9.878966,57.150533
683927,Sandagervej,9430,61,9.878803,57.150567
683928,Sandagervej,9430,63,9.878569,57.150547
683929,Sandagervej,9430,65,9.878406,57.150581
683930,Sandagervej,9430,67,9.878144,57.150484
683931,Sandagervej,9430,69,9.87814,57.150591
683932,Sandagervej,9430,71,9.877818,57.15056
683933,Sandagervej,9430,73,9.877817,57.150669
683974,Skaggårdsvej,9430,20,9.849813,57.148999
683975,Skaggårdsvej,9430,34,9.85079,57.146901
683976,Skaggårdsvej,9430,40,9.84897,57.145541
683977,Skaggårdsvej,9430,42,9.841954,57.145787
683978,Skaggårdsvej,9430,43,9.849997,57.145132
683979,Skaggårdsvej,9430,45,9.846203,57.143679
683980,Skaggårdsvej,9430,47,9.84267,57.143827
684058,Skråvej,9430,2,9.911068,57.144422
684059,Skråvej,9430,30,9.911432,57.149444
684060,Skråvej,9430,56,9.904545,57.15328
684392,Sulstedvej,9430,8,9.894218,57.14311
684393,Sulstedvej,9430,31,9.881202,57.148097
684394,Sulstedvej,9430,37,9.887279,57.148859
684395,Sulstedvej,9430,51,9.891948,57.150913
684396,Sulstedvej,9430,60,9.895857,57.151049
684397,Sulstedvej,9430,72,9.89795,57.152516
684398,Sulstedvej,9430,81,9.899898,57.154453
684946,Vadumvej,9430,10,9.866601,57.151076
684947,Vadumvej,9430,11,9.867275,57.151358
684948,Vadumvej,9430,13,9.867815,57.151201
684949,Vadumvej,9430,14,9.867581,57.150893
684950,Vadumvej,9430,15,9.868116,57.151082
684951,Vadumvej,9430,16,9.867971,57.150799
684952,Vadumvej,9430,17A,9.868679,57.150859
684953,Vadumvej,9430,17B,9.868927,57.151036
684954,Vadumvej,9430,25,9.871104,57.150024
684955,Vadumvej,9430,26,9.870093,57.150037
684956,Vadumvej,9430,27,9.871479,57.149855
684957,Vadumvej,9430,28,9.870272,57.149926
684958,Vadumvej,9430,30,9.870585,57.149816
684959,Vadumvej,9430,33A,9.87314,57.149448
684960,Vadumvej,9430,33B,9.873175,57.149481
684961,Vadumvej,9430,33C,9.873209,57.149513
684962,Vadumvej,9430,33D,9.873244,57.149544
684963,Vadumvej,9430,34,9.871777,57.149523
684964,Vadumvej,9430,35A,9.873873,57.149233
684965,Vadumvej,9430,35B,9.873936,57.14931
684966,Vadumvej,9430,35C,9.873996,57.149384
684967,Vadumvej,9430,35D,9.874066,57.149476
684968,Vadumvej,9430,35F,9.873977,57.149586
684969,Vadumvej,9430,35G,9.873825,57.149622
684970,Vadumvej,9430,35H,9.873687,57.149662
684971,Vadumvej,9430,35I,9.87355,57.1497
684972,Vadumvej,9430,36,9.872192,57.149331
684973,Vadumvej,9430,37A,9.874112,57.149096
684974,Vadumvej,9430,37B,9.87417,57.149164
684975,Vadumvej,9430,37C,9.874305,57.149276
684976,Vadumvej,9430,37D,9.874452,57.149239
684977,Vadumvej,9430,37E,9.874551,57.149408
684978,Vadumvej,9430,37F,9.87434,57.149463
684979,Vadumvej,9430,37G,9.87452,57.149515
684980,Vadumvej,9430,37H,9.874585,57.149601
684981,Vadumvej,9430,37I,9.874885,57.149428
684982,Vadumvej,9430,37J,9.874787,57.149316
684983,Vadumvej,9430,37K,9.874752,57.149207
684984,Vadumvej,9430,37L,9.874644,57.149094
684985,Vadumvej,9430,38,9.872563,57.149265
684986,Vadumvej,9430,39A,9.87507,57.148863
684987,Vadumvej,9430,39B,9.875548,57.149458
684988,Vadumvej,9430,39C,9.875279,57.149098
684989,Vadumvej,9430,40B,9.872903,57.148957
684990,Vadumvej,9430,40C,9.872857,57.148899
684991,Vadumvej,9430,41,9.875777,57.148876
684992,Vadumvej,9430,42A,9.872765,57.148839
684993,Vadumvej,9430,42B,9.872869,57.148806
684994,Vadumvej,9430,42C,9.872983,57.148777
684995,Vadumvej,9430,42D,9.873108,57.148744
684996,Vadumvej,9430,43A,9.876106,57.148537
684997,Vadumvej,9430,43B,9.876327,57.148826
684998,Vadumvej,9430,44A,9.873302,57.148769
684999,Vadumvej,9430,44B,9.873361,57.148827
685000,Vadumvej,9430,44C,9.873417,57.148886
685001,Vadumvej,9430,44D,9.873482,57.148953
685002,Vadumvej,9430,45,9.876509,57.148226
685003,Vadumvej,9430,46,9.874868,57.148642
685004,Vadumvej,9430,47A,9.877054,57.147998
685005,Vadumvej,9430,47B,9.877396,57.148437
685006,Vadumvej,9430,47C,9.877281,57.148292
685007,Vadumvej,9430,48,9.87546,57.148469
685008,Vadumvej,9430,49,9.877274,57.147713
685009,Vadumvej,9430,50,9.875716,57.147929
685010,Vadumvej,9430,54,9.876526,57.147727
685011,Vadumvej,9430,56,9.876706,57.147543
685012,Vadumvej,9430,60,9.876469,57.146787
685013,Vadumvej,9430,62,9.877496,57.146705
685014,Vadumvej,9430,80,9.877628,57.144717
685015,Vadumvej,9430,85,9.878347,57.143864
685016,Vadumvej,9430,86,9.877683,57.143815
685017,Valmuemarken,9430,1,9.871345,57.152429
685018,Valmuemarken,9430,2,9.871683,57.152717
685019,Valmuemarken,9430,3,9.871008,57.152454
685020,Valmuemarken,9430,4,9.871414,57.152688
685021,Valmuemarken,9430,5,9.870696,57.152463
685022,Valmuemarken,9430,6,9.871125,57.152678
685023,Valmuemarken,9430,7,9.870424,57.152512
685024,Valmuemarken,9430,8,9.870825,57.152698
685025,Valmuemarken,9430,9,9.869891,57.152558
685026,Valmuemarken,9430,10,9.870512,57.152715
685027,Valmuemarken,9430,11,9.869549,57.152556
685028,Valmuemarken,9430,12,9.870008,57.152752
685093,Vestmarken,9430,1,9.872214,57.153001
685094,Vestmarken,9430,2,9.872152,57.153298
685095,Vestmarken,9430,3,9.871846,57.153074
685096,Vestmarken,9430,4,9.871797,57.153339
685097,Vestmarken,9430,5,9.871363,57.153088
685098,Vestmarken,9430,6,9.871559,57.153387
685099,Vestmarken,9430,7,9.870885,57.153082
685100,Vestmarken,9430,8,9.870985,57.153326
685101,Vestmarken,9430,9,9.870233,57.153084
685102,Vestmarken,9430,10,9.870357,57.153337
685103,Vestmarken,9430,11,9.8694198,57.1529289
685104,Vestmarken,9430,12,9.869997,57.153324
685105,Vestmarken,9430,14,9.869177,57.153248
685258,Østergårdsvej,9430,8,9.902242,57.147824
685259,Østergårdsvej,9430,15,9.901793,57.149069
685260,Østergårdsvej,9430,20,9.904356,57.149934
685266,Østmarken,9430,1,9.87996,57.15227
685267,Østmarken,9430,2,9.877565,57.152532
685268,Østmarken,9430,3,9.880374,57.152156
685269,Østmarken,9430,4,9.878123,57.152335
685270,Østmarken,9430,5,9.880824,57.152002
685271,Østmarken,9430,6,9.878525,57.152271
685272,Østmarken,9430,8,9.878817,57.152192
685273,Østmarken,9430,10,9.879194,57.152088
685274,Østmarken,9430,12,9.879629,57.15202
685275,Østmarken,9430,14,9.880057,57.151989
685276,Østmarken,9430,16,9.880517,57.151863
687058,Bakmøllevej,9430,217,9.913565,57.144017
688851,Botvedsvej,9430,1,9.855842,57.111877
688852,Botvedsvej,9430,3,9.855371,57.111702
688853,Botvedsvej,9430,4,9.855275,57.112058
688854,Botvedsvej,9430,5,9.855094,57.111608
688855,Botvedsvej,9430,6,9.85498,57.111881
688856,Botvedsvej,9430,7,9.854755,57.111481
688857,Botvedsvej,9430,8,9.854682,57.111776
688858,Botvedsvej,9430,9,9.854324,57.111339
688859,Botvedsvej,9430,10,9.854336,57.111676
688860,Botvedsvej,9430,11,9.853895,57.11117
688861,Botvedsvej,9430,12,9.854063,57.111571
688862,Botvedsvej,9430,13,9.853456,57.111014
688863,Botvedsvej,9430,14,9.853697,57.111471
688864,Botvedsvej,9430,15,9.852966,57.110855
688865,Botvedsvej,9430,16,9.853389,57.111331
688866,Botvedsvej,9430,17,9.852438,57.110686
688867,Botvedsvej,9430,18,9.853003,57.111178
688868,Botvedsvej,9430,20,9.852577,57.111056
688869,Botvedsvej,9430,22,9.852149,57.110879
689127,Brodersenvænget,9430,5,9.862809,57.117749
689128,Brodersenvænget,9430,6,9.862808,57.116813
689129,Brodersenvænget,9430,7,9.862957,57.11775
689130,Brodersenvænget,9430,8,9.86281,57.116725
689131,Brodersenvænget,9430,9,9.863107,57.11775
689132,Brodersenvænget,9430,10,9.862779,57.116629
689133,Brodersenvænget,9430,11,9.86331,57.117776
689134,Brodersenvænget,9430,12,9.862794,57.116545
689135,Brodersenvænget,9430,13,9.863457,57.117777
689136,Brodersenvænget,9430,14,9.86288,57.116487
689137,Brodersenvænget,9430,15,9.863584,57.117777
689138,Brodersenvænget,9430,16,9.862977,57.116436
689139,Brodersenvænget,9430,17,9.863807,57.11769
689140,Brodersenvænget,9430,18,9.863308,57.116332
689141,Brodersenvænget,9430,19,9.863957,57.117691
689142,Brodersenvænget,9430,20,9.863431,57.116399
689143,Brodersenvænget,9430,21,9.8641,57.117691
689144,Brodersenvænget,9430,22,9.86357,57.11646
689145,Brodersenvænget,9430,23,9.864081,57.117537
689146,Brodersenvænget,9430,24,9.863699,57.116524
689147,Brodersenvænget,9430,25,9.864081,57.117466
689148,Brodersenvænget,9430,26,9.863687,57.116617
689149,Brodersenvænget,9430,27,9.864062,57.117387
689150,Brodersenvænget,9430,28,9.8638,57.116724
689151,Brodersenvænget,9430,29,9.863972,57.117321
689152,Brodersenvænget,9430,30,9.863799,57.116813
689153,Brodersenvænget,9430,31,9.863717,57.117253
689154,Brodersenvænget,9430,32,9.863694,57.116894
689155,Brodersenvænget,9430,33,9.863598,57.117253
689156,Brodersenvænget,9430,34,9.863692,57.116981
689157,Brodersenvænget,9430,35,9.863371,57.117314
689158,Brodersenvænget,9430,36,9.863432,57.117006
689159,Brodersenvænget,9430,37,9.863286,57.117359
689160,Brodersenvænget,9430,38,9.86327,57.117006
689161,Brodersenvænget,9430,39,9.863191,57.11743
689162,Brodersenvænget,9430,40,9.86311,57.117006
689163,Brodersenvænget,9430,41,9.863164,57.117508
689164,Brodersenvænget,9430,42,9.862908,57.117024
689165,Brodersenvænget,9430,43,9.862925,57.117517
689166,Brodersenvænget,9430,44,9.862745,57.117023
689167,Brodersenvænget,9430,45,9.862767,57.117517
689168,Brodersenvænget,9430,46,9.862592,57.117031
689169,Brodersenvænget,9430,47,9.862644,57.117516
689170,Brodersenvænget,9430,48,9.862463,57.11709
689171,Brodersenvænget,9430,50,9.862384,57.117226
689172,Brodersenvænget,9430,52,9.862292,57.11729
689173,Brodersenvænget,9430,54,9.862269,57.117365
689174,Brodersenvænget,9430,56,9.862304,57.11757
689199,Brorholtvej,9430,2,9.881724,57.106935
689200,Brorholtvej,9430,4,9.886631,57.107311
689201,Brorholtvej,9430,7,9.882816,57.112644
689202,Brorholtvej,9430,8,9.884813,57.110824
689203,Brorholtvej,9430,10,9.883534,57.112245
689204,Brorholtvej,9430,11,9.884673,57.112876
689205,Brorholtvej,9430,13,9.884476,57.113096
689206,Brorholtvej,9430,15,9.885431,57.112999
689207,Brorholtvej,9430,15A,9.884609,57.113331
689208,Brorholtvej,9430,17,9.886455,57.112976
689209,Brorholtvej,9430,20,9.889316,57.113593
689210,Brorholtvej,9430,26,9.890355,57.116857
689211,Brorholtvej,9430,28,9.891346,57.117742
689212,Brorholtvej,9430,35,9.886182,57.12031
689213,Brorholtvej,9430,36,9.894289,57.120782
689214,Brorholtvej,9430,36A,9.894086,57.121136
689215,Brorholtvej,9430,40,9.893817,57.12265
689216,Brorholtvej,9430,44,9.895743,57.124249
689217,Brorholtvej,9430,45,9.898883,57.125715
689218,Brorholtvej,9430,48,9.902381,57.123034
689219,Brorholtvej,9430,50,9.902271,57.122686
689220,Brorholtvej,9430,52,9.902143,57.121843
689221,Brorholtvej,9430,56,9.906112,57.125476
689222,Brorholtvej,9430,58,9.903899,57.126368
689223,Brorholtvej,9430,61,9.90573,57.129875
689224,Brorholtvej,9430,63,9.909739,57.130062
689225,Brorholtvej,9430,65,9.911211,57.13102
689226,Brorholtvej,9430,70,9.915832,57.132819
689227,Brorholtvej,9430,71,9.91609,57.133652
689228,Brorholtvej,9430,73,9.914596,57.132915
689275,Bryggervænget,9430,1,9.857329,57.114705
689276,Bryggervænget,9430,2,9.857,57.114951
689277,Bryggervænget,9430,3,9.857245,57.114528
689278,Bryggervænget,9430,4,9.856899,57.114759
689279,Bryggervænget,9430,5,9.857158,57.114341
689280,Bryggervænget,9430,6,9.856779,57.114546
689281,Bryggervænget,9430,7,9.857063,57.114136
689282,Bryggervænget,9430,8,9.856687,57.114373
689283,Bryggervænget,9430,9,9.856968,57.113934
689284,Bryggervænget,9430,10,9.85664,57.114164
689285,Bryggervænget,9430,11,9.856877,57.113742
689286,Bryggervænget,9430,12,9.8565,57.114004
689287,Bryggervænget,9430,14,9.856486,57.113784
689288,Bryggervænget,9430,15,9.857108,57.113467
689289,Bryggervænget,9430,16,9.856721,57.113489
689903,Bøgevænget,9430,1,9.853754,57.11578
689904,Bøgevænget,9430,2,9.85438,57.115652
689905,Bøgevænget,9430,3,9.853785,57.116015
689906,Bøgevænget,9430,4,9.854442,57.116055
689907,Bøgevænget,9430,5,9.853823,57.116269
689908,Bøgevænget,9430,6,9.854569,57.116414
689909,Bøgevænget,9430,7,9.853243,57.116302
689910,Bøgevænget,9430,8,9.854608,57.1167
689911,Bøgevænget,9430,9,9.852733,57.11641
689912,Bøgevænget,9430,10,9.853486,57.116639
690209,Charles Lindberghs Vej,9430,2,9.853489,57.113637
690210,Charles Lindberghs Vej,9430,4,9.853013,57.113118
690211,Charles Lindberghs Vej,9430,5,9.853607,57.112761
690212,Charles Lindberghs Vej,9430,6,9.852256,57.112814
690213,Charles Lindberghs Vej,9430,7,9.853882,57.112352
690214,Charles Lindberghs Vej,9430,8,9.8512,57.112168
690215,Charles Lindberghs Vej,9430,9,9.852208,57.112238
690216,Charles Lindberghs Vej,9430,11,9.851619,57.111873
690217,Charles Lindberghs Vej,9430,13,9.850509,57.111175
690218,Charles Lindberghs Vej,9430,15,9.849758,57.111387
691490,Degnevænget,9430,1,9.855029,57.117926
691491,Degnevænget,9430,3,9.854913,57.117628
692671,Egestedvej,9430,7,9.887922,57.128122
692672,Egestedvej,9430,8,9.893302,57.126928
692673,Egestedvej,9430,10,9.89339,57.127736
692674,Egestedvej,9430,14,9.897748,57.12869
692675,Egestedvej,9430,20,9.894516,57.132603
692676,Egestedvej,9430,21,9.893045,57.131883
692677,Egestedvej,9430,25,9.889771,57.132624
692690,Egevænget,9430,1,9.858222,57.111342
692691,Egevænget,9430,2,9.857734,57.111343
692692,Egevænget,9430,3,9.858192,57.111103
692693,Egevænget,9430,4,9.857692,57.111256
692694,Egevænget,9430,5,9.858006,57.110904
692695,Egevænget,9430,6,9.85765,57.11117
692696,Egevænget,9430,7,9.857905,57.110697
692697,Egevænget,9430,8,9.857607,57.111082
692698,Egevænget,9430,9,9.857781,57.110495
692699,Egevænget,9430,10,9.857565,57.110996
692700,Egevænget,9430,11,9.857702,57.110297
692701,Egevænget,9430,12,9.857523,57.110909
692702,Egevænget,9430,13,9.857641,57.110119
692703,Egevænget,9430,14,9.857482,57.110823
692704,Egevænget,9430,16,9.85744,57.110736
692705,Egevænget,9430,18,9.857397,57.11065
692706,Egevænget,9430,20,9.857354,57.110562
692707,Egevænget,9430,22,9.856973,57.110295
692744,E.J. Overbyes Vej,9430,1,9.862744,57.120334
692745,E.J. Overbyes Vej,9430,2,9.862931,57.119977
692746,E.J. Overbyes Vej,9430,3,9.863113,57.120782
692747,E.J. Overbyes Vej,9430,5,9.86346,57.120169
692748,E.J. Overbyes Vej,9430,7,9.863546,57.120383
692749,E.J. Overbyes Vej,9430,9,9.863569,57.120643
692750,E.J. Overbyes Vej,9430,11,9.863732,57.120797
692751,E.J. Overbyes Vej,9430,13,9.864055,57.120397
692752,E.J. Overbyes Vej,9430,15,9.863853,57.120215
692753,E.J. Overbyes Vej,9430,17,9.86429,57.12014
692754,E.J. Overbyes Vej,9430,21,9.864776,57.119873
692888,Ellehammersvej,9430,1,9.855797,57.110136
692889,Ellehammersvej,9430,2,9.856981,57.110171
692890,Ellehammersvej,9430,5,9.856513,57.110385
692891,Ellehammersvej,9430,6,9.858066,57.111715
692892,Ellehammersvej,9430,7,9.856727,57.110719
692893,Ellehammersvej,9430,8,9.857926,57.112273
692894,Ellehammersvej,9430,10,9.858462,57.113196
692895,Ellehammersvej,9430,11,9.857255,57.111797
692896,Ellehammersvej,9430,11A,9.857259,57.111982
692897,Ellehammersvej,9430,12,9.858975,57.113876
692898,Ellehammersvej,9430,13,9.857475,57.112347
692899,Ellehammersvej,9430,14,9.859356,57.114452
692900,Ellehammersvej,9430,15,9.85756,57.11254
692901,Ellehammersvej,9430,15A,9.857714,57.112823
692902,Ellehammersvej,9430,15B,9.857641,57.113049
692903,Ellehammersvej,9430,16,9.859771,57.114752
692904,Ellehammersvej,9430,17,9.857867,57.113238
692905,Ellehammersvej,9430,19A,9.858041,57.113501
692906,Ellehammersvej,9430,19B,9.857968,57.11351
692907,Ellehammersvej,9430,19C,9.857877,57.113522
692908,Ellehammersvej,9430,19D,9.857795,57.113535
692909,Ellehammersvej,9430,19E,9.857726,57.113545
692910,Ellehammersvej,9430,19F,9.857626,57.113561
692911,Ellehammersvej,9430,19G,9.857551,57.1137
692912,Ellehammersvej,9430,19H,9.857582,57.11376
692913,Ellehammersvej,9430,19K,9.857614,57.113826
692914,Ellehammersvej,9430,19L,9.857648,57.113898
692915,Ellehammersvej,9430,21,9.858321,57.113962
692916,Ellehammersvej,9430,23,9.858293,57.114149
692917,Ellehammersvej,9430,24,9.860167,57.115418
692918,Ellehammersvej,9430,25A,9.857743,57.114425
692919,Ellehammersvej,9430,26,9.860331,57.115645
692920,Ellehammersvej,9430,28,9.860439,57.115803
692921,Ellehammersvej,9430,30,9.860521,57.115976
692922,Ellehammersvej,9430,32,9.860692,57.116174
692923,Ellehammersvej,9430,33,9.860269,57.116365
692924,Ellehammersvej,9430,34,9.860845,57.11639
692925,Ellehammersvej,9430,35,9.860384,57.116621
692926,Ellehammersvej,9430,36,9.861106,57.116617
692927,Ellehammersvej,9430,37A,9.860552,57.116809
692928,Ellehammersvej,9430,37B,9.860182,57.116881
692929,Ellehammersvej,9430,38,9.861277,57.116817
692930,Ellehammersvej,9430,40,9.861252,57.116982
692931,Ellehammersvej,9430,42,9.861335,57.117141
692932,Ellehammersvej,9430,44,9.86138,57.117322
692933,Ellehammersvej,9430,45,9.861098,57.11813
692934,Ellehammersvej,9430,46,9.861438,57.11753
692935,Ellehammersvej,9430,47A,9.861105,57.11851
692936,Ellehammersvej,9430,47B,9.860698,57.118521
692937,Ellehammersvej,9430,48,9.861467,57.117679
692938,Ellehammersvej,9430,49,9.861317,57.118608
692939,Ellehammersvej,9430,49A,9.861198,57.118616
692940,Ellehammersvej,9430,50,9.861445,57.117838
692941,Ellehammersvej,9430,51,9.861259,57.118788
692942,Ellehammersvej,9430,51A,9.860794,57.118844
692943,Ellehammersvej,9430,53,9.861267,57.119081
692944,Ellehammersvej,9430,53A,9.860892,57.119218
692945,Ellehammersvej,9430,54,9.86187,57.118137
692946,Ellehammersvej,9430,55,9.861322,57.11928
692947,Ellehammersvej,9430,56,9.861696,57.118461
692948,Ellehammersvej,9430,57,9.86134,57.119456
692949,Ellehammersvej,9430,58,9.861789,57.118646
692950,Ellehammersvej,9430,59,9.861504,57.119602
692951,Ellehammersvej,9430,60,9.861843,57.118829
692952,Ellehammersvej,9430,61,9.861237,57.119793
692953,Ellehammersvej,9430,62,9.861876,57.119
692954,Ellehammersvej,9430,64,9.861908,57.119225
692955,Ellehammersvej,9430,65,9.861628,57.120027
692956,Ellehammersvej,9430,66,9.862062,57.119624
692957,Ellehammersvej,9430,67,9.861673,57.120216
692958,Ellehammersvej,9430,68,9.862065,57.1198
692959,Ellehammersvej,9430,69,9.861918,57.120503
692960,Ellehammersvej,9430,70,9.862146,57.119941
692961,Ellehammersvej,9430,71A,9.862013,57.120702
692962,Ellehammersvej,9430,71B,9.862056,57.120781
692963,Ellehammersvej,9430,71C,9.861976,57.1208
692964,Ellehammersvej,9430,72,9.86223,57.120086
692965,Ellehammersvej,9430,74A,9.862314,57.120424
692966,Ellehammersvej,9430,75,9.862448,57.121946
692967,Ellehammersvej,9430,76,9.862279,57.120554
692968,Ellehammersvej,9430,77,9.862506,57.122103
692969,Ellehammersvej,9430,78,9.862332,57.120709
692970,Ellehammersvej,9430,79,9.862561,57.12226
692971,Ellehammersvej,9430,80,9.862378,57.120839
692972,Ellehammersvej,9430,81A,9.862666,57.122516
692973,Ellehammersvej,9430,81B,9.861955,57.122571
692974,Ellehammersvej,9430,82,9.862433,57.120986
692975,Ellehammersvej,9430,83A,9.862725,57.122667
692976,Ellehammersvej,9430,83B,9.862764,57.122757
692977,Ellehammersvej,9430,84,9.862854,57.121113
692978,Ellehammersvej,9430,85,9.862749,57.12294
692979,Ellehammersvej,9430,86,9.862535,57.121293
692980,Ellehammersvej,9430,86A,9.862699,57.121315
692981,Ellehammersvej,9430,87,9.862902,57.123217
692982,Ellehammersvej,9430,88,9.862898,57.121673
692983,Ellehammersvej,9430,89,9.86307,57.123646
692984,Ellehammersvej,9430,89A,9.862967,57.123961
692985,Ellehammersvej,9430,90,9.86287,57.121904
692986,Ellehammersvej,9430,91,9.86326,57.124179
692987,Ellehammersvej,9430,92,9.862995,57.122027
692988,Ellehammersvej,9430,93,9.863504,57.124514
692989,Ellehammersvej,9430,93A,9.86312,57.124623
692990,Ellehammersvej,9430,94,9.863012,57.122262
692991,Ellehammersvej,9430,95,9.864014,57.125102
692992,Ellehammersvej,9430,95A,9.863046,57.125151
692993,Ellehammersvej,9430,96,9.86307,57.1226
692994,Ellehammersvej,9430,97,9.864479,57.126123
692995,Ellehammersvej,9430,98,9.863409,57.123229
692996,Ellehammersvej,9430,99,9.86332,57.126639
692997,Ellehammersvej,9430,104,9.866141,57.124064
692998,Ellehammersvej,9430,106,9.864207,57.124739
692999,Ellehammersvej,9430,108,9.864386,57.125027
693000,Ellehammersvej,9430,110,9.864716,57.125413
693001,Ellehammersvej,9430,112,9.874857,57.124861
693002,Ellehammersvej,9430,114,9.865005,57.126116
693003,Ellehammersvej,9430,115,9.866634,57.129722
693004,Ellehammersvej,9430,120,9.868902,57.131003
693005,Ellehammersvej,9430,121,9.868481,57.131069
693006,Ellehammersvej,9430,122,9.869117,57.131205
693007,Ellehammersvej,9430,129,9.868505,57.132355
693008,Ellehammersvej,9430,131,9.869598,57.132506
693009,Ellehammersvej,9430,132,9.870314,57.132645
693010,Ellehammersvej,9430,134,9.8734097,57.1326935
693011,Ellehammersvej,9430,140,9.871348,57.133925
693012,Ellehammersvej,9430,141,9.869041,57.134951
693013,Ellehammersvej,9430,144,9.872169,57.134804
693014,Ellehammersvej,9430,149,9.861599,57.136431
693015,Ellehammersvej,9430,150,9.877347,57.134565
693016,Ellehammersvej,9430,151,9.870563,57.135324
693017,Ellehammersvej,9430,152,9.876429,57.135644
693018,Ellehammersvej,9430,153,9.872006,57.135477
693019,Ellehammersvej,9430,154,9.873983,57.135509
693020,Ellehammersvej,9430,157,9.871365,57.135896
693021,Ellehammersvej,9430,163,9.87281,57.13677
693022,Ellehammersvej,9430,167,9.872813,57.137358
693023,Ellehammersvej,9430,173,9.873977,57.138455
693024,Ellehammersvej,9430,174,9.878985,57.138119
693193,Elmevænget,9430,2A,9.856261,57.110635
693194,Elmevænget,9430,2B,9.855833,57.110746
693195,Elmevænget,9430,3,9.855228,57.110462
693196,Elmevænget,9430,4,9.85581,57.111046
693197,Elmevænget,9430,5,9.854858,57.110491
693198,Elmevænget,9430,6,9.855468,57.110992
693199,Elmevænget,9430,7,9.854483,57.110521
693200,Elmevænget,9430,8,9.855335,57.110787
693201,Elmevænget,9430,9,9.854138,57.110531
693202,Elmevænget,9430,10,9.854938,57.110762
693203,Elmevænget,9430,11,9.853782,57.110539
693204,Elmevænget,9430,12,9.85492,57.11097
693205,Elmevænget,9430,13,9.853366,57.110427
693206,Elmevænget,9430,14,9.855012,57.111158
693207,Elmevænget,9430,15,9.85269,57.110458
693208,Elmevænget,9430,16,9.855219,57.111332
693209,Elmevænget,9430,18,9.854389,57.111044
693210,Elmevænget,9430,20,9.854333,57.110841
693211,Elmevænget,9430,22,9.853906,57.110829
693212,Elmevænget,9430,24,9.853608,57.110761
693213,Elmevænget,9430,26,9.852955,57.110611
694770,Foltmannsvej,9430,1,9.862494,57.114536
694771,Foltmannsvej,9430,3,9.862754,57.115536
694772,Foltmannsvej,9430,5,9.862718,57.115766
694773,Foltmannsvej,9430,6,9.863067,57.114864
694774,Foltmannsvej,9430,7,9.862526,57.116204
694775,Foltmannsvej,9430,9,9.862199,57.116258
694776,Foltmannsvej,9430,11,9.861754,57.116395
694777,Foltmannsvej,9430,13,9.861488,57.116528
694778,Foltmannsvej,9430,20,9.863116,57.115599
694779,Foltmannsvej,9430,22,9.862173,57.116579
694780,Foltmannsvej,9430,24,9.861869,57.116662
696232,Gammel Thistedvej,9430,2,9.819585,57.113341
696233,Gammel Thistedvej,9430,8,9.821839,57.112251
696234,Gammel Thistedvej,9430,9,9.82242,57.112417
696235,Gammel Thistedvej,9430,10,9.822119,57.11213
696236,Gammel Thistedvej,9430,11,9.822762,57.112328
696237,Gammel Thistedvej,9430,12,9.822403,57.111988
696238,Gammel Thistedvej,9430,13,9.823008,57.112087
696239,Gammel Thistedvej,9430,14,9.823025,57.111596
696240,Gammel Thistedvej,9430,15,9.823581,57.111806
696241,Gammel Thistedvej,9430,16,9.82347,57.111424
696242,Gammel Thistedvej,9430,17,9.824426,57.111508
696243,Gammel Thistedvej,9430,18,9.823998,57.111118
696244,Gammel Thistedvej,9430,21,9.824708,57.111259
696245,Gammel Thistedvej,9430,22,9.825173,57.110253
696246,Gammel Thistedvej,9430,26,9.827293,57.109462
697987,Grønslet,9430,2,9.856818,57.120983
697988,Grønslet,9430,4,9.856795,57.120772
697989,Grønslet,9430,6,9.856695,57.120555
697990,Grønslet,9430,8,9.85663,57.120366
697991,Grønslet,9430,10,9.856576,57.120129
697992,Grønslet,9430,12,9.856505,57.119926
697993,Grønslet,9430,14,9.856439,57.119682
697994,Grønslet,9430,16,9.856366,57.119454
697995,Grønslet,9430,18,9.856324,57.119253
697996,Grønslet,9430,20,9.856254,57.119027
697997,Grønslet,9430,22,9.85627,57.118843
697998,Grønslet,9430,24,9.856211,57.118637
697999,Grønslet,9430,26,9.856157,57.118381
700039,Havrevænget,9430,1,9.860929,57.115529
700040,Havrevænget,9430,2,9.860716,57.115268
700041,Havrevænget,9430,3,9.861297,57.115449
700042,Havrevænget,9430,5,9.861434,57.115808
700043,Havrevænget,9430,6,9.860938,57.114905
700044,Havrevænget,9430,7,9.861598,57.11594
700045,Havrevænget,9430,8,9.861133,57.115163
700046,Havrevænget,9430,9,9.861685,57.116081
700047,Havrevænget,9430,10,9.861486,57.115082
700048,Havrevænget,9430,11,9.862217,57.115972
700049,Havrevænget,9430,12,9.86132,57.11482
700050,Havrevænget,9430,13,9.862125,57.115831
700051,Havrevænget,9430,14,9.861693,57.114724
700052,Havrevænget,9430,15,9.861933,57.115664
700053,Havrevænget,9430,16,9.861936,57.115005
700054,Havrevænget,9430,17,9.861824,57.115423
700055,Havrevænget,9430,18,9.862225,57.114927
700056,Havrevænget,9430,19,9.862001,57.115269
700057,Havrevænget,9430,20,9.862565,57.11483
700058,Havrevænget,9430,21,9.862312,57.115201
700059,Havrevænget,9430,23,9.862604,57.115135
700132,Hedetoften,9430,1,9.870184,57.132428
700133,Hedetoften,9430,8,9.873699,57.129223
700134,Hedetoften,9430,15,9.879626,57.130359
700135,Hedetoften,9430,20,9.881963,57.127156
700136,Hedetoften,9430,28,9.886283,57.125708
700137,Hedetoften,9430,30,9.886718,57.124286
700138,Hedetoften,9430,34,9.890012,57.124786
700139,Hedetoften,9430,35,9.891707,57.125599
700140,Hedevej,9430,66,9.900092,57.138132
702291,Husmandsvej,9430,65,9.857369,57.140503
702939,Højriisparken,9430,1,9.859298,57.115933
702940,Højriisparken,9430,2,9.859851,57.116096
702941,Højriisparken,9430,3,9.859273,57.116062
702942,Højriisparken,9430,4,9.859948,57.116048
702943,Højriisparken,9430,5,9.859249,57.116191
702944,Højriisparken,9430,6,9.859788,57.116426
702945,Højriisparken,9430,7,9.859226,57.11632
702946,Højriisparken,9430,8,9.859887,57.116381
702947,Højriisparken,9430,9,9.859201,57.116451
702948,Højriisparken,9430,10,9.859985,57.116334
702949,Højriisparken,9430,11,9.859176,57.116582
702950,Højriisparken,9430,12,9.859727,57.116757
702951,Højriisparken,9430,13,9.859152,57.11671
702952,Højriisparken,9430,14,9.859826,57.11671
702953,Højriisparken,9430,15,9.859129,57.11684
702954,Højriisparken,9430,16,9.859922,57.116664
702955,Højriisparken,9430,17,9.859105,57.116969
702956,Højriisparken,9430,18,9.860019,57.116619
704312,Jørgen Horskjærs Vej,9430,3,9.85848,57.117371
704313,Jørgen Horskjærs Vej,9430,4,9.858186,57.117139
704314,Jørgen Horskjærs Vej,9430,5,9.859142,57.117566
704315,Jørgen Horskjærs Vej,9430,6,9.858557,57.117056
704316,Jørgen Horskjærs Vej,9430,7,9.859428,57.117175
705831,Knepholtvej,9430,3,9.830926,57.119028
705832,Knepholtvej,9430,6,9.829646,57.11994
705833,Knepholtvej,9430,15,9.826221,57.122087
705834,Knepholtvej,9430,16,9.826376,57.12288
705835,Knepholtvej,9430,21,9.824668,57.124109
705836,Knepholtvej,9430,22,9.825515,57.12481
705837,Knepholtvej,9430,23,9.824317,57.125334
705838,Knepholtvej,9430,25,9.823727,57.126159
705839,Knepholtvej,9430,26,9.824609,57.126687
705840,Knepholtvej,9430,30,9.824273,57.127908
705841,Knepholtvej,9430,45,9.812312,57.130805
705842,Knepholtvej,9430,49,9.8093016,57.1301912
705843,Knepholtvej,9430,50,9.810745,57.131393
705844,Knepholtvej,9430,51,9.80672,57.129327
709511,Lollvej,9430,3,9.856943,57.117205
709512,Lollvej,9430,4,9.856821,57.117476
709513,Lollvej,9430,5,9.856575,57.117164
709514,Lollvej,9430,6,9.856279,57.117511
709515,Lollvej,9430,7,9.856054,57.116976
709516,Lollvej,9430,8,9.856063,57.117713
709517,Lollvej,9430,9,9.856005,57.116812
709518,Lollvej,9430,10,9.855643,57.117772
709519,Lollvej,9430,11,9.855683,57.117179
709520,Lollvej,9430,12,9.855487,57.117494
709521,Lollvej,9430,14,9.854969,57.117243
709522,Lollvej,9430,16,9.85479,57.116953
709523,Lollvej,9430,18,9.855146,57.116788
710176,Lærkevænget,9430,1,9.855223,57.121849
710177,Lærkevænget,9430,2,9.854905,57.122146
710178,Lærkevænget,9430,3,9.854497,57.121951
710179,Lærkevænget,9430,5,9.854087,57.122009
710180,Lærkevænget,9430,6,9.854271,57.122282
710181,Lærkevænget,9430,7,9.853764,57.122035
710182,Lærkevænget,9430,8,9.854332,57.122604
710183,Lærkevænget,9430,9,9.85343,57.1221
710184,Lærkevænget,9430,10,9.854492,57.122767
710185,Lærkevænget,9430,11,9.85311,57.122118
710186,Lærkevænget,9430,12,9.854164,57.122865
710187,Lærkevænget,9430,13,9.852708,57.122089
710188,Lærkevænget,9430,14,9.853861,57.122597
710189,Lærkevænget,9430,15,9.852734,57.12229
710190,Lærkevænget,9430,16,9.853748,57.122361
710191,Lærkevænget,9430,17,9.852829,57.122485
710192,Lærkevænget,9430,18,9.853359,57.122371
710193,Lærkevænget,9430,19,9.852911,57.12264
710194,Lærkevænget,9430,20,9.853453,57.122725
710195,Lærkevænget,9430,21,9.852999,57.1228
710196,Lærkevænget,9430,22,9.853597,57.122947
710197,Lærkevænget,9430,23,9.85302,57.123037
710198,Lærkevænget,9430,24,9.853631,57.123126
710199,Lærkevænget,9430,25,9.853125,57.123173
710200,Lærkevænget,9430,26,9.853724,57.123321
710201,Lærkevænget,9430,27,9.853262,57.123375
710202,Lærkevænget,9430,29,9.853144,57.123619
711079,Mejerivej,9430,1A,9.861145,57.120605
711080,Mejerivej,9430,1B,9.861013,57.120625
711081,Mejerivej,9430,2,9.861331,57.120816
711082,Mejerivej,9430,2A,9.861772,57.120693
711083,Mejerivej,9430,2B,9.861687,57.120713
711084,Mejerivej,9430,2C,9.861601,57.120724
711085,Mejerivej,9430,2D,9.861527,57.120725
711086,Mejerivej,9430,2E,9.861784,57.120737
711087,Mejerivej,9430,2F,9.861658,57.120764
711088,Mejerivej,9430,2G,9.861539,57.12077
711089,Mejerivej,9430,3,9.860729,57.120548
711090,Mejerivej,9430,5,9.860228,57.120709
711091,Mejerivej,9430,6,9.860766,57.12093
711092,Mejerivej,9430,7,9.859958,57.12075
711093,Mejerivej,9430,8,9.860527,57.120964
711094,Mejerivej,9430,9,9.859677,57.120793
711095,Mejerivej,9430,10,9.860301,57.120997
711096,Mejerivej,9430,11,9.859181,57.120867
711097,Mejerivej,9430,12,9.859323,57.12122
711098,Mejerivej,9430,13,9.858876,57.120903
711099,Mejerivej,9430,14,9.859009,57.121216
711100,Mejerivej,9430,15,9.858116,57.121028
711101,Mejerivej,9430,15A,9.857696,57.121052
711102,Mejerivej,9430,16,9.85786,57.121331
711103,Mejerivej,9430,17,9.857417,57.121125
711104,Mejerivej,9430,18,9.857557,57.121377
711105,Mejerivej,9430,19,9.856939,57.121189
711106,Mejerivej,9430,20,9.857272,57.121444
711107,Mejerivej,9430,22,9.856978,57.121463
711108,Mejerivej,9430,23,9.855727,57.121389
711109,Mejerivej,9430,24,9.856665,57.121512
711110,Mejerivej,9430,26,9.856387,57.121554
711111,Mejerivej,9430,28,9.85607,57.121603
711112,Mejerivej,9430,30,9.855778,57.121693
712687,Møllevænget,9430,1,9.858177,57.114761
712688,Møllevænget,9430,3,9.857601,57.114863
712689,Møllevænget,9430,4,9.85781,57.115417
712690,Møllevænget,9430,6,9.857147,57.115258
712691,Møllevænget,9430,9,9.856317,57.115025
712692,Møllevænget,9430,10,9.855928,57.115403
712693,Møllevænget,9430,11,9.855904,57.115131
712694,Møllevænget,9430,12,9.855721,57.115427
712695,Møllevænget,9430,13,9.855472,57.115215
712696,Møllevænget,9430,14,9.855987,57.115658
712697,Møllevænget,9430,15,9.855219,57.11504
712698,Møllevænget,9430,16,9.856078,57.115822
712699,Møllevænget,9430,17,9.855248,57.114781
712700,Møllevænget,9430,18,9.856044,57.11603
712701,Møllevænget,9430,19,9.855595,57.11471
712702,Møllevænget,9430,20,9.856003,57.116251
712703,Møllevænget,9430,21,9.855964,57.114661
712704,Møllevænget,9430,23,9.856268,57.114672
712705,Møllevænget,9430,24,9.855279,57.116562
712706,Møllevænget,9430,25,9.856144,57.114374
712707,Møllevænget,9430,26,9.855264,57.116315
712708,Møllevænget,9430,27,9.855822,57.114436
712709,Møllevænget,9430,28,9.855417,57.116025
712710,Møllevænget,9430,29,9.855508,57.114495
712711,Møllevænget,9430,30,9.855309,57.115677
712712,Møllevænget,9430,31,9.855165,57.114562
712713,Møllevænget,9430,33,9.854787,57.114663
712714,Møllevænget,9430,35,9.85455,57.114525
712715,Møllevænget,9430,36,9.853115,57.1159
712716,Møllevænget,9430,37,9.854417,57.11483
712717,Møllevænget,9430,39,9.854913,57.115275
712718,Møllevænget,9430,41,9.854596,57.115331
712719,Møllevænget,9430,43,9.854232,57.115392
712720,Møllevænget,9430,45,9.85381,57.115431
712721,Møllevænget,9430,47,9.853517,57.115477
712834,Nervøsvej,9430,1,9.86211,57.121256
712835,Nervøsvej,9430,2,9.861991,57.121712
712836,Nervøsvej,9430,3,9.861926,57.121367
712837,Nervøsvej,9430,4,9.861802,57.121801
712838,Nervøsvej,9430,5,9.861699,57.121472
712839,Nervøsvej,9430,7,9.861459,57.121569
712840,Nervøsvej,9430,9,9.86122,57.12168
712841,Nervøsvej,9430,11A,9.860311,57.122164
712842,Nervøsvej,9430,13,9.860049,57.122249
712843,Nervøsvej,9430,14A,9.860333,57.122442
712844,Nervøsvej,9430,15,9.859704,57.122284
712845,Nervøsvej,9430,17,9.858771,57.122416
712846,Nervøsvej,9430,19,9.858676,57.12243
712847,Nervøsvej,9430,21,9.858671,57.122393
712848,Nervøsvej,9430,22,9.858474,57.123102
712849,Nervøsvej,9430,23,9.858628,57.122437
712850,Nervøsvej,9430,24,9.858093,57.123149
712851,Nervøsvej,9430,25,9.858614,57.122401
712852,Nervøsvej,9430,26,9.857835,57.123212
712853,Nervøsvej,9430,27,9.85855,57.122449
712854,Nervøsvej,9430,28,9.857495,57.12324
712855,Nervøsvej,9430,29,9.858543,57.122412
712856,Nervøsvej,9430,30,9.857289,57.123376
712857,Nervøsvej,9430,31,9.858489,57.122458
712858,Nervøsvej,9430,32,9.857511,57.123629
712859,Nervøsvej,9430,33,9.85848,57.122422
712860,Nervøsvej,9430,34,9.856976,57.123909
712861,Nervøsvej,9430,35,9.858433,57.122467
712862,Nervøsvej,9430,36,9.85693,57.123712
712863,Nervøsvej,9430,37,9.858416,57.122432
712864,Nervøsvej,9430,38,9.85688,57.123447
712865,Nervøsvej,9430,39,9.858372,57.122476
712866,Nervøsvej,9430,40,9.856482,57.123428
712867,Nervøsvej,9430,41,9.858356,57.122441
712868,Nervøsvej,9430,42,9.856202,57.123481
712869,Nervøsvej,9430,43,9.858323,57.122484
712870,Nervøsvej,9430,44,9.85595,57.123588
712871,Nervøsvej,9430,45,9.858301,57.122449
712872,Nervøsvej,9430,46,9.856061,57.123829
712873,Nervøsvej,9430,47,9.858253,57.122494
712874,Nervøsvej,9430,48,9.856145,57.124003
712875,Nervøsvej,9430,49,9.858238,57.122782
712876,Nervøsvej,9430,50,9.856319,57.124149
712877,Nervøsvej,9430,51,9.858156,57.122793
712878,Nervøsvej,9430,52,9.855837,57.124425
712879,Nervøsvej,9430,53,9.858131,57.122752
712880,Nervøsvej,9430,54,9.855811,57.124282
712881,Nervøsvej,9430,55,9.858098,57.122802
712882,Nervøsvej,9430,56,9.855723,57.124085
712883,Nervøsvej,9430,57,9.858072,57.122761
712884,Nervøsvej,9430,58,9.855659,57.123929
712885,Nervøsvej,9430,59,9.858037,57.122811
712886,Nervøsvej,9430,60,9.855566,57.123749
712887,Nervøsvej,9430,61,9.858007,57.122771
712888,Nervøsvej,9430,62,9.855465,57.123573
712889,Nervøsvej,9430,63,9.85798,57.12282
712890,Nervøsvej,9430,64,9.854782,57.123702
712891,Nervøsvej,9430,65,9.857956,57.122777
712892,Nervøsvej,9430,66,9.854906,57.123912
712893,Nervøsvej,9430,67,9.857928,57.122828
712894,Nervøsvej,9430,68,9.854999,57.124116
712895,Nervøsvej,9430,69,9.857888,57.122787
712896,Nervøsvej,9430,70,9.85511,57.124313
712897,Nervøsvej,9430,71,9.857868,57.122837
712898,Nervøsvej,9430,72,9.85534,57.124493
712899,Nervøsvej,9430,73,9.857835,57.122795
712900,Nervøsvej,9430,74,9.855104,57.12473
712901,Nervøsvej,9430,75,9.857818,57.122844
712902,Nervøsvej,9430,76,9.854795,57.124734
712903,Nervøsvej,9430,77,9.857784,57.122803
712904,Nervøsvej,9430,78,9.854644,57.124601
712905,Nervøsvej,9430,79,9.857761,57.122859
712906,Nervøsvej,9430,80,9.85458,57.124356
712907,Nervøsvej,9430,81,9.857223,57.122787
712908,Nervøsvej,9430,82,9.85449,57.124176
712909,Nervøsvej,9430,83,9.857243,57.122725
712910,Nervøsvej,9430,84,9.854373,57.123957
712911,Nervøsvej,9430,85,9.857133,57.122709
712912,Nervøsvej,9430,86,9.854291,57.123785
712913,Nervøsvej,9430,87,9.857234,57.122672
712914,Nervøsvej,9430,88,9.85363,57.123898
712915,Nervøsvej,9430,89,9.857109,57.122659
712916,Nervøsvej,9430,90,9.853782,57.124078
712917,Nervøsvej,9430,91,9.857201,57.12262
712918,Nervøsvej,9430,92,9.853975,57.124227
712919,Nervøsvej,9430,93,9.857086,57.122602
712920,Nervøsvej,9430,94,9.85399,57.124482
712921,Nervøsvej,9430,95,9.857179,57.122567
712922,Nervøsvej,9430,96,9.854041,57.124713
712923,Nervøsvej,9430,97,9.857053,57.12255
712924,Nervøsvej,9430,98,9.854211,57.124918
712925,Nervøsvej,9430,99,9.857153,57.122516
712926,Nervøsvej,9430,100,9.854245,57.125038
712927,Nervøsvej,9430,101,9.857028,57.122495
712928,Nervøsvej,9430,102,9.853818,57.125358
712929,Nervøsvej,9430,103,9.857127,57.122464
712930,Nervøsvej,9430,104,9.853743,57.125181
712931,Nervøsvej,9430,105,9.856997,57.122442
712932,Nervøsvej,9430,106,9.853647,57.124943
712933,Nervøsvej,9430,107,9.857088,57.12241
712934,Nervøsvej,9430,108,9.853552,57.124718
712935,Nervøsvej,9430,109,9.856967,57.122387
712936,Nervøsvej,9430,110,9.853385,57.124435
712937,Nervøsvej,9430,111,9.857055,57.122351
712938,Nervøsvej,9430,112,9.853263,57.124198
712939,Nervøsvej,9430,113,9.856943,57.122361
712940,Nervøsvej,9430,114,9.853167,57.123944
712941,Nervøsvej,9430,115,9.856983,57.122313
712942,Nervøsvej,9430,117,9.856573,57.122888
712943,Nervøsvej,9430,119,9.856591,57.12283
712944,Nervøsvej,9430,121,9.856484,57.122819
712945,Nervøsvej,9430,123,9.856568,57.122777
712946,Nervøsvej,9430,125,9.856452,57.122768
712947,Nervøsvej,9430,127,9.856539,57.122727
712948,Nervøsvej,9430,129,9.85644,57.122715
712949,Nervøsvej,9430,131,9.856515,57.122673
712950,Nervøsvej,9430,133,9.85641,57.122663
712951,Nervøsvej,9430,135,9.856491,57.12262
712952,Nervøsvej,9430,137,9.856381,57.122608
712953,Nervøsvej,9430,139,9.856462,57.122569
712954,Nervøsvej,9430,141,9.856343,57.122553
712955,Nervøsvej,9430,143,9.856437,57.122518
712956,Nervøsvej,9430,145,9.856315,57.122502
712957,Nervøsvej,9430,147,9.856412,57.122464
712958,Nervøsvej,9430,149,9.856299,57.122444
712959,Nervøsvej,9430,151,9.856323,57.122397
712960,Nervøsvej,9430,155,9.855631,57.123195
712961,Nervøsvej,9430,157,9.855336,57.123257
712962,Nervøsvej,9430,159,9.855053,57.123306
712963,Nervøsvej,9430,161,9.854712,57.123373
712964,Nervøsvej,9430,163,9.854364,57.123386
712965,Nervøsvej,9430,165,9.853985,57.12348
714607,Nørlangvej,9430,4,9.86444,57.128042
714608,Nørlangvej,9430,12,9.85834,57.12939
714609,Nørlangvej,9430,15,9.855253,57.129615
714610,Nørlangvej,9430,18,9.857568,57.135851
714611,Nørlangvej,9430,20,9.85396,57.136571
714612,Nørlangvej,9430,21,9.850054,57.130241
714613,Nørlangvej,9430,24,9.851811,57.137588
714614,Nørlangvej,9430,28,9.847904,57.131222
714615,Nørlangvej,9430,30,9.845893,57.136418
714616,Nørlangvej,9430,34,9.844822,57.131852
714617,Nørlangvej,9430,36,9.843798,57.132087
714618,Nørlangvej,9430,38,9.842553,57.132389
714619,Nørlangvej,9430,40,9.841288,57.132365
715659,Pallisdam,9430,1,9.85436,57.118637
715660,Pallisdam,9430,2,9.854907,57.118541
715661,Pallisdam,9430,3,9.854462,57.118987
715662,Pallisdam,9430,4,9.854913,57.118741
715663,Pallisdam,9430,5,9.854183,57.119044
715664,Pallisdam,9430,6,9.855027,57.118912
715665,Pallisdam,9430,8,9.855018,57.119096
715666,Pallisdam,9430,10,9.855065,57.119269
715667,Pallisdam,9430,12,9.855259,57.119446
715668,Pallisdam,9430,14,9.85517,57.119622
715669,Pallisdam,9430,15,9.85424,57.119291
715670,Pallisdam,9430,16,9.855246,57.119809
715671,Pallisdam,9430,17,9.854545,57.11937
715672,Pallisdam,9430,18,9.855401,57.119971
715673,Pallisdam,9430,19,9.854711,57.119671
715674,Pallisdam,9430,20,9.855401,57.120149
715675,Pallisdam,9430,21,9.854391,57.119713
715676,Pallisdam,9430,22,9.855399,57.120338
715677,Pallisdam,9430,24,9.855449,57.120528
715678,Pallisdam,9430,26,9.855491,57.120691
715679,Pallisdam,9430,28,9.855542,57.120875
715680,Pallisdam,9430,30,9.855639,57.121049
715681,Pallisdam,9430,31,9.854489,57.120072
715682,Pallisdam,9430,32,9.855653,57.121241
715683,Pallisdam,9430,33,9.854785,57.120065
715684,Pallisdam,9430,35,9.854897,57.120335
715685,Pallisdam,9430,37,9.854599,57.12043
715686,Pallisdam,9430,47,9.85469,57.120715
715687,Pallisdam,9430,49,9.855023,57.120742
715688,Pallisdam,9430,51,9.855135,57.121082
715689,Pallisdam,9430,53,9.854807,57.121121
715690,Pallisdam,9430,63,9.854921,57.121535
715691,Pallisdam,9430,65,9.855199,57.121478
715692,Pallisdam,9430,67,9.8552,57.1217
715693,Pallisdam,9430,71,9.855475,57.122132
715694,Pallisdam,9430,73,9.855563,57.122314
715695,Pallisdam,9430,75,9.855648,57.122495
715696,Pallisdam,9430,77,9.855115,57.122546
715697,Pallisdam,9430,79,9.85479,57.122609
715698,Pallisdam,9430,81,9.85486,57.122825
715699,Pallisdam,9430,83,9.855187,57.122844
715700,Pallisdam,9430,85,9.8557,57.122736
715701,Pallisdam,9430,87,9.855775,57.122895
715702,Pallisdam,9430,89,9.855937,57.123094
716382,Pindbrovej,9430,19,9.818669,57.122385
716383,Pindbrovej,9430,23,9.81689,57.122725
716384,Pindbrovej,9430,27,9.81513,57.122954
716385,Pindbrovej,9430,34,9.809873,57.126417
716386,Pindbrovej,9430,35,9.809028,57.125808
718397,Robert Svendsens Vej,9430,1,9.862239,57.119411
718398,Robert Svendsens Vej,9430,4,9.862654,57.11879
718399,Robert Svendsens Vej,9430,6,9.86281,57.118394
718400,Robert Svendsens Vej,9430,10,9.8636,57.118147
718401,Robert Svendsens Vej,9430,12,9.863995,57.118064
718402,Robert Svendsens Vej,9430,14,9.864379,57.117937
718403,Robert Svendsens Vej,9430,15,9.863894,57.118722
718404,Robert Svendsens Vej,9430,16,9.864721,57.117908
718405,Robert Svendsens Vej,9430,18,9.8648997,57.1181717
718406,Robert Svendsens Vej,9430,20,9.864474,57.1182444
718407,Robert Svendsens Vej,9430,22,9.864019,57.118326
718408,Robert Svendsens Vej,9430,24,9.8636111,57.1184109
718409,Robert Svendsens Vej,9430,26,9.864774,57.117586
718946,Rugmarken,9430,1,9.858094,57.117729
718947,Rugmarken,9430,2,9.85756,57.117791
718948,Rugmarken,9430,3,9.857917,57.117564
718949,Rugmarken,9430,4,9.857508,57.117636
718950,Rugmarken,9430,5,9.857724,57.116934
718951,Rugmarken,9430,5A,9.857836,57.11717
718952,Rugmarken,9430,6,9.857429,57.117474
718953,Rugmarken,9430,7,9.857653,57.116793
718954,Rugmarken,9430,8,9.857322,57.117183
718955,Rugmarken,9430,9,9.857624,57.116651
718956,Rugmarken,9430,10,9.857083,57.116804
718957,Rugmarken,9430,11,9.857508,57.116475
718958,Rugmarken,9430,12,9.856471,57.116631
718959,Rugmarken,9430,13,9.857512,57.11629
718960,Rugmarken,9430,14,9.856238,57.116368
718961,Rugmarken,9430,15,9.857381,57.116135
718962,Rugmarken,9430,16,9.856849,57.116264
718963,Rugmarken,9430,17,9.857325,57.115965
718964,Rugmarken,9430,18,9.856831,57.116017
718965,Rugmarken,9430,19,9.85723,57.115787
718966,Rugmarken,9430,20,9.856747,57.115842
718967,Rugmarken,9430,21,9.857172,57.115623
718968,Rugmarken,9430,22,9.856684,57.115678
718969,Rugmarken,9430,23,9.857084,57.115429
718970,Rugmarken,9430,24,9.856614,57.115513
718971,Rugmarken,9430,26,9.856542,57.11534
719581,Rødkløvervej,9430,1,9.860645,57.120406
719582,Rødkløvervej,9430,2,9.860095,57.120374
719583,Rødkløvervej,9430,3,9.860594,57.120242
719584,Rødkløvervej,9430,4,9.860025,57.120236
719585,Rødkløvervej,9430,5,9.86052,57.120089
719586,Rødkløvervej,9430,6,9.859952,57.120071
719587,Rødkløvervej,9430,7,9.860457,57.119911
719588,Rødkløvervej,9430,8,9.859894,57.119894
719589,Rødkløvervej,9430,9,9.860402,57.119742
719590,Rødkløvervej,9430,10,9.85985,57.119756
719591,Rødkløvervej,9430,11,9.860259,57.119568
719592,Rødkløvervej,9430,12,9.859799,57.119581
719593,Rødkløvervej,9430,13,9.860267,57.119387
719594,Rødkløvervej,9430,14,9.859751,57.119434
719595,Rødkløvervej,9430,15,9.860242,57.119204
719596,Rødkløvervej,9430,16,9.859625,57.119254
719597,Rødkløvervej,9430,17,9.860075,57.119
719598,Rødkløvervej,9430,18,9.859658,57.119049
719599,Rødkløvervej,9430,19,9.860077,57.118834
719600,Rødkløvervej,9430,20,9.859534,57.118848
719601,Rødkløvervej,9430,21,9.860116,57.118647
719602,Rødkløvervej,9430,22,9.859594,57.118655
719603,Rødkløvervej,9430,23,9.860127,57.118452
719604,Rødkløvervej,9430,24,9.859507,57.11842
719605,Rødkløvervej,9430,25,9.860196,57.118231
719606,Rødkløvervej,9430,26,9.859591,57.118261
719610,Rødslet,9430,1,9.857844,57.118363
719611,Rødslet,9430,2,9.858374,57.11851
719612,Rødslet,9430,3,9.857886,57.11859
719613,Rødslet,9430,4,9.858422,57.118656
719614,Rødslet,9430,5,9.857939,57.118795
719615,Rødslet,9430,6,9.858463,57.118822
719616,Rødslet,9430,7,9.857396,57.118804
719617,Rødslet,9430,8,9.858529,57.118974
719618,Rødslet,9430,9,9.85703,57.118823
719619,Rødslet,9430,10,9.858631,57.119133
719620,Rødslet,9430,11,9.856737,57.118807
719621,Rødslet,9430,12,9.858638,57.119297
719622,Rødslet,9430,13,9.856839,57.119137
719623,Rødslet,9430,14,9.858677,57.119455
719624,Rødslet,9430,15,9.857123,57.119073
719625,Rødslet,9430,16,9.858599,57.119615
719626,Rødslet,9430,17,9.857413,57.119083
719627,Rødslet,9430,18,9.858631,57.119783
719628,Rødslet,9430,19,9.857948,57.119035
719629,Rødslet,9430,20,9.858674,57.119929
719630,Rødslet,9430,21,9.858011,57.119197
719631,Rødslet,9430,22,9.858692,57.120086
719632,Rødslet,9430,23,9.857991,57.119383
719633,Rødslet,9430,24,9.858713,57.120237
719634,Rødslet,9430,25,9.857946,57.119533
719635,Rødslet,9430,26,9.858822,57.120377
719636,Rødslet,9430,27,9.857484,57.119557
719637,Rødslet,9430,28,9.858783,57.120604
719638,Rødslet,9430,29,9.857209,57.119573
719639,Rødslet,9430,30,9.859044,57.1215
719640,Rødslet,9430,30A,9.859175,57.12167
719641,Rødslet,9430,31,9.856917,57.119554
719642,Rødslet,9430,32,9.859245,57.122021
719643,Rødslet,9430,33,9.857001,57.119844
719644,Rødslet,9430,34,9.859168,57.122033
719645,Rødslet,9430,35,9.85729,57.119786
719646,Rødslet,9430,36,9.859184,57.122079
719647,Rødslet,9430,37,9.857545,57.119775
719648,Rødslet,9430,38,9.859108,57.122043
719649,Rødslet,9430,39,9.858153,57.119753
719650,Rødslet,9430,40,9.859123,57.122089
719651,Rødslet,9430,42,9.859037,57.122054
719652,Rødslet,9430,43,9.858298,57.120074
719653,Rødslet,9430,44,9.859058,57.122097
719654,Rødslet,9430,45,9.858249,57.120275
719655,Rødslet,9430,46,9.858972,57.122064
719656,Rødslet,9430,47,9.857576,57.120303
719657,Rødslet,9430,48,9.858995,57.122108
719658,Rødslet,9430,49,9.85719,57.120295
719659,Rødslet,9430,50,9.858917,57.122072
719660,Rødslet,9430,51,9.857265,57.12063
719661,Rødslet,9430,52,9.858933,57.122117
719662,Rødslet,9430,53,9.857629,57.120535
719663,Rødslet,9430,54,9.858862,57.122081
719664,Rødslet,9430,55,9.858244,57.120519
719665,Rødslet,9430,56,9.858882,57.122124
719666,Rødslet,9430,57,9.858312,57.120683
719667,Rødslet,9430,58,9.858803,57.12209
719668,Rødslet,9430,59,9.858257,57.120866
719669,Rødslet,9430,60,9.858813,57.122136
719670,Rødslet,9430,62,9.85872,57.122102
719671,Rødslet,9430,63A,9.858474,57.121257
719672,Rødslet,9430,63B,9.858376,57.121271
719673,Rødslet,9430,63C,9.858272,57.121287
719674,Rødslet,9430,63D,9.85814,57.121309
719675,Rødslet,9430,65A,9.858543,57.121423
719676,Rødslet,9430,65B,9.858439,57.121437
719677,Rødslet,9430,65C,9.858335,57.121452
719678,Rødslet,9430,65D,9.858207,57.121472
719679,Rødslet,9430,67A,9.858568,57.121598
719680,Rødslet,9430,67B,9.85845,57.121613
719681,Rødslet,9430,67C,9.858331,57.121632
719682,Rødslet,9430,69A,9.858637,57.121765
719683,Rødslet,9430,69B,9.858518,57.121781
719684,Rødslet,9430,69C,9.858408,57.1218
719685,Rødslet,9430,71,9.858125,57.121838
719686,Rødslet,9430,73,9.857826,57.121887
719687,Rødslet,9430,75,9.857541,57.121929
719688,Rødslet,9430,77,9.857214,57.12198
719689,Rødslet,9430,79,9.856931,57.122023
719690,Rødslet,9430,81,9.856638,57.122068
719691,Rødslet,9430,83,9.856308,57.122099
719692,Rødslet,9430,85,9.856013,57.122154
721226,Skaggårdsvej,9430,43A,9.852061,57.141439
726675,Søndermarken,9430,1A,9.860605,57.117799
726676,Søndermarken,9430,2,9.860565,57.118145
726677,Søndermarken,9430,3,9.860266,57.11784
726678,Søndermarken,9430,4,9.85922,57.118171
726679,Søndermarken,9430,5,9.859432,57.117863
726680,Søndermarken,9430,6,9.858611,57.118188
726681,Søndermarken,9430,7,9.859047,57.117856
726682,Søndermarken,9430,8,9.858282,57.118207
726683,Søndermarken,9430,9,9.858626,57.117869
726684,Søndermarken,9430,10,9.85743,57.118261
726685,Søndermarken,9430,12,9.85719,57.118345
726686,Søndermarken,9430,13,9.857489,57.117953
726687,Søndermarken,9430,14,9.856904,57.118303
726688,Søndermarken,9430,15,9.856948,57.118025
726689,Søndermarken,9430,16,9.856637,57.118413
726690,Søndermarken,9430,17,9.856585,57.118041
726691,Søndermarken,9430,18,9.854009,57.118644
726692,Søndermarken,9430,19,9.856117,57.1181
726693,Søndermarken,9430,20,9.852474,57.118841
726694,Søndermarken,9430,21,9.855635,57.118144
726695,Søndermarken,9430,25,9.85519,57.118184
726696,Søndermarken,9430,27,9.854646,57.118223
726697,Søndermarken,9430,29,9.853731,57.11832
727129,Taksvej,9430,1,9.860774,57.121492
727130,Taksvej,9430,4,9.860323,57.121681
727131,Taksvej,9430,6,9.86017,57.121501
727132,Taksvej,9430,8,9.860043,57.121314
727133,Taksvej,9430,10,9.859937,57.121113
727308,Thisted Landevej,9430,60,9.85203,57.110393
727309,Thisted Landevej,9430,101,9.816067,57.115124
727310,Thisted Landevej,9430,108,9.813537,57.117026
727311,Thisted Landevej,9430,111,9.811603,57.117357
727312,Thisted Landevej,9430,117,9.809354,57.118345
727313,Thisted Landevej,9430,120,9.80869,57.119793
727314,Thisted Landevej,9430,131,9.802195,57.121118
727315,Thisted Landevej,9430,139,9.801673,57.122217
727316,Thisted Landevej,9430,140,9.802069,57.122466
727317,Thisted Landevej,9430,141,9.80076,57.122675
727318,Thisted Landevej,9430,146,9.799255,57.123998
727319,Thisted Landevej,9430,151,9.79578,57.124638
727320,Thisted Landevej,9430,153,9.791137,57.121218
727321,Thisted Landevej,9430,155,9.790506,57.123607
727322,Thisted Landevej,9430,157,9.788628,57.124255
728655,Torpet Kærvej,9430,4,9.864765,57.114664
728656,Torpet Kærvej,9430,8,9.865907,57.11531
728657,Torpet Kærvej,9430,9,9.865842,57.115688
728658,Torpet Kærvej,9430,10,9.867082,57.114855
728659,Torpet Kærvej,9430,12,9.868245,57.115439
728660,Torpet Kærvej,9430,35,9.878461,57.120541
728661,Torpet Kærvej,9430,37,9.880528,57.120022
728662,Torpet Kærvej,9430,41,9.882225,57.119939
729814,Ulrik Birchs Vej,9430,4,9.860383,57.123038
729815,Ulrik Birchs Vej,9430,6,9.86077,57.123042
729816,Ulrik Birchs Vej,9430,8,9.860826,57.122759
729817,Ulrik Birchs Vej,9430,10,9.861245,57.123005
729818,Ulrik Birchs Vej,9430,11,9.860861,57.123327
729819,Ulrik Birchs Vej,9430,12,9.861274,57.122775
729820,Ulrik Birchs Vej,9430,13,9.860711,57.123325
729821,Ulrik Birchs Vej,9430,14,9.861891,57.122808
729822,Ulrik Birchs Vej,9430,15,9.860844,57.123498
729823,Ulrik Birchs Vej,9430,16,9.861942,57.123012
729824,Ulrik Birchs Vej,9430,17,9.860852,57.123605
729825,Ulrik Birchs Vej,9430,18,9.862084,57.123289
729826,Ulrik Birchs Vej,9430,19,9.86086,57.123772
729827,Ulrik Birchs Vej,9430,21,9.860899,57.123863
729828,Ulrik Birchs Vej,9430,23,9.860907,57.124028
729829,Ulrik Birchs Vej,9430,25,9.860902,57.124118
729830,Ulrik Birchs Vej,9430,27,9.86081,57.124306
729831,Ulrik Birchs Vej,9430,29,9.860725,57.124356
729832,Ulrik Birchs Vej,9430,31,9.86071,57.124561
729833,Ulrik Birchs Vej,9430,33,9.860869,57.124641
729834,Ulrik Birchs Vej,9430,35,9.861238,57.124603
729835,Ulrik Birchs Vej,9430,37,9.86139,57.124579
729836,Ulrik Birchs Vej,9430,39,9.861637,57.124543
729837,Ulrik Birchs Vej,9430,41,9.861735,57.124528
729838,Ulrik Birchs Vej,9430,43,9.861845,57.12451
729839,Ulrik Birchs Vej,9430,45,9.861963,57.124491
729840,Ulrik Birchs Vej,9430,47,9.86233,57.124417
729841,Ulrik Birchs Vej,9430,49,9.862434,57.124327
729842,Ulrik Birchs Vej,9430,51,9.862363,57.124142
729843,Ulrik Birchs Vej,9430,53,9.862342,57.124053
729844,Ulrik Birchs Vej,9430,55,9.862315,57.123876
729845,Ulrik Birchs Vej,9430,57,9.86232,57.123784
729846,Ulrik Birchs Vej,9430,59,9.862373,57.123604
729847,Ulrik Birchs Vej,9430,61,9.862227,57.123602
729848,Ulrik Birchs Vej,9430,63,9.862037,57.123454
729849,Ulrik Birchs Vej,9430,65,9.861877,57.123452
729850,Ulrik Birchs Vej,9430,67,9.861485,57.123338
729851,Ulrik Birchs Vej,9430,69,9.861316,57.123335
729852,Ulrik Birchs Vej,9430,71,9.861185,57.123579
729853,Ulrik Birchs Vej,9430,73,9.86133,57.123583
729854,Ulrik Birchs Vej,9430,75,9.861624,57.123612
729855,Ulrik Birchs Vej,9430,77,9.86173,57.123674
729856,Ulrik Birchs Vej,9430,79,9.861831,57.123827
729857,Ulrik Birchs Vej,9430,81,9.861855,57.123918
729858,Ulrik Birchs Vej,9430,83,9.861912,57.124087
729859,Ulrik Birchs Vej,9430,85,9.861928,57.124155
729860,Ulrik Birchs Vej,9430,87,9.861723,57.124268
729861,Ulrik Birchs Vej,9430,89,9.861555,57.124282
729862,Ulrik Birchs Vej,9430,91,9.861348,57.124164
729863,Ulrik Birchs Vej,9430,93,9.861354,57.124082
729864,Ulrik Birchs Vej,9430,95,9.86131,57.123887
730137,Vadskærvej,9430,21,9.900975,57.116501
730138,Vadskærvej,9430,22,9.904177,57.114936
730140,Vadum Kirkevej,9430,1,9.860283,57.114717
730141,Vadum Kirkevej,9430,3,9.860583,57.114592
730142,Vadum Kirkevej,9430,5,9.860852,57.11454
730143,Vadum Kirkevej,9430,7,9.861181,57.114416
730144,Vadum Kirkevej,9430,9,9.861479,57.114352
730145,Vadum Kirkevej,9430,11,9.861767,57.114286
730146,Vadum Kirkevej,9430,13,9.862157,57.114293
730147,Vadum Kirkevej,9430,15,9.862392,57.114139
730148,Vadum Kirkevej,9430,18,9.86345,57.113579
730149,Vadum Kirkevej,9430,20,9.863802,57.113509
730150,Vadum Kirkevej,9430,22,9.863864,57.11279
730151,Vadum Kirkevej,9430,30,9.866981,57.112742
730152,Vadum Kirkevej,9430,31,9.866718,57.113199
730153,Vadum Kirkevej,9430,32,9.867682,57.112624
730154,Vadum Kirkevej,9430,33,9.867,57.113141
730155,Vadum Kirkevej,9430,35,9.867332,57.113055
730156,Vadum Kirkevej,9430,40,9.870476,57.112542
730157,Vadum Kirkevej,9430,45,9.874573,57.114088
730158,Vadum Kirkevej,9430,50,9.8793,57.112524
730159,Vadum Kirkevej,9430,52,9.880257,57.11263
730160,Vadum Kirkevej,9430,55,9.880552,57.114533
730161,Vadum Kirkevej,9430,59,9.882157,57.114632
730162,Vadum Kirkevej,9430,60,9.883504,57.112694
730163,Vadum Kirkevej,9430,63,9.882903,57.114524
730164,Vadum Kirkevej,9430,67,9.884015,57.11523
730165,Vadum Kirkevej,9430,69,9.883965,57.113619
730166,Vadum Kirkevej,9430,70,9.890079,57.111068
730167,Vadum Kirkevej,9430,71,9.884062,57.113136
730168,Vadum Kirkevej,9430,73,9.884032,57.11288
730169,Vadum Kirkevej,9430,85,9.898868,57.111231
730170,Vadum Kirkevej,9430,87,9.898243,57.109331
730171,Vadum Kirkevej,9430,90,9.898561,57.108299
730172,Vadum Kirkevej,9430,95,9.907669,57.109394
730173,Vadum Kirkevej,9430,100,9.908466,57.104979
730174,Vadum Kirkevej,9430,101,9.908986,57.105472
730175,Vadum Kirkevej,9430,103,9.909487,57.105613
730176,Vadum Kirkevej,9430,105,9.910837,57.10675
730943,Vejlen,9430,1,9.824009,57.112059
730944,Vejlen,9430,8,9.822177,57.11155
730945,Vejlen,9430,9,9.822194,57.111261
730946,Vejlen,9430,10,9.821862,57.111423
730947,Vejlen,9430,12,9.821696,57.111246
730948,Vejlen,9430,14,9.821095,57.110722
730949,Vejlen,9430,16,9.814342,57.111395
730950,Vejlen,9430,17,9.820789,57.110149
730951,Vejlen,9430,18,9.820104,57.110363
730952,Vejlen,9430,30,9.815297,57.107634
730953,Vejlen,9430,31,9.816926,57.106974
730954,Vejlen,9430,47,9.812059,57.101696
730955,Vejlen,9430,48,9.810919,57.10217
730956,Vejlen,9430,49,9.812666,57.10139
730957,Vejlen,9430,50,9.810633,57.101542
730958,Vejlen,9430,51,9.812812,57.100832
730959,Vejlen,9430,53,9.814707,57.100168
730960,Vejlen,9430,55,9.816317,57.09973
730961,Vejlen,9430,57,9.817174,57.09937
730962,Vejlen,9430,60,9.805183,57.104286
730963,Vejlen,9430,62,9.803639,57.104026
730964,Vejlen,9430,64,9.802673,57.104185
730965,Vejlen,9430,66,9.801767,57.104844
730966,Vejlen,9430,68,9.800615,57.105415
730967,Vejlen,9430,70,9.79951,57.105315
730968,Vejlen,9430,72,9.798927,57.105726
730969,Vejlen,9430,73,9.796618,57.104377
730970,Vejlen,9430,76,9.797178,57.106236
730971,Vejlen,9430,77,9.795514,57.106159
730972,Vejlen,9430,78,9.796579,57.107024
730973,Vejlen,9430,82,9.795795,57.107413
730974,Vejlen,9430,84,9.794293,57.106934
730975,Vejlen,9430,88,9.793437,57.107151
730976,Vejlen,9430,89,9.791765,57.107034
730977,Vejlen,9430,94,9.790848,57.108819
730978,Vejlen,9430,100,9.789096,57.110581
731626,Vester Halne Vej,9430,1,9.856554,57.110936
731627,Vester Halne Vej,9430,2,9.856789,57.11129
731628,Vester Halne Vej,9430,4,9.856632,57.111475
731629,Vester Halne Vej,9430,5,9.856308,57.111299
731630,Vester Halne Vej,9430,6,9.856611,57.111704
731631,Vester Halne Vej,9430,7,9.856045,57.111577
731632,Vester Halne Vej,9430,8,9.856408,57.111776
731633,Vester Halne Vej,9430,9,9.855961,57.11178
731634,Vester Halne Vej,9430,10,9.856267,57.112103
731635,Vester Halne Vej,9430,12,9.856718,57.112193
731636,Vester Halne Vej,9430,13,9.855633,57.11224
731637,Vester Halne Vej,9430,14,9.856625,57.112399
731638,Vester Halne Vej,9430,15,9.854742,57.112579
731639,Vester Halne Vej,9430,16,9.856133,57.112346
731640,Vester Halne Vej,9430,18,9.855961,57.112562
731641,Vester Halne Vej,9430,20,9.85654,57.112613
731642,Vester Halne Vej,9430,21,9.855025,57.113056
731643,Vester Halne Vej,9430,22,9.856877,57.11279
731644,Vester Halne Vej,9430,24,9.857016,57.112966
731645,Vester Halne Vej,9430,26,9.856271,57.112858
731646,Vester Halne Vej,9430,27,9.854542,57.113621
731647,Vester Halne Vej,9430,28,9.855934,57.112812
731648,Vester Halne Vej,9430,30,9.855779,57.113013
731649,Vester Halne Vej,9430,32,9.856207,57.113133
731650,Vester Halne Vej,9430,34,9.856075,57.113314
731651,Vester Halne Vej,9430,36,9.855457,57.113207
731652,Vester Halne Vej,9430,38,9.855448,57.113381
731653,Vester Halne Vej,9430,40,9.855919,57.113536
731654,Vester Halne Vej,9430,42,9.85594,57.113769
731655,Vester Halne Vej,9430,44,9.855441,57.113668
731656,Vester Halne Vej,9430,45,9.8496,57.116369
731657,Vester Halne Vej,9430,46,9.854957,57.11388
731658,Vester Halne Vej,9430,46A,9.854717,57.114072
731659,Vester Halne Vej,9430,48,9.854603,57.114315
731660,Vester Halne Vej,9430,52,9.853894,57.11506
731661,Vester Halne Vej,9430,54,9.852545,57.116063
731662,Vester Halne Vej,9430,56,9.852123,57.116336
731663,Vester Halne Vej,9430,62,9.848185,57.117555
731664,Vester Halne Vej,9430,66,9.846646,57.118021
731665,Vester Halne Vej,9430,70,9.845836,57.118146
731666,Vester Halne Vej,9430,72,9.845581,57.118704
731667,Vester Halne Vej,9430,74,9.844663,57.118545
731668,Vester Halne Vej,9430,80,9.843179,57.119147
731669,Vester Halne Vej,9430,82,9.842598,57.11936
731670,Vester Halne Vej,9430,86,9.841408,57.11958
731671,Vester Halne Vej,9430,90,9.840839,57.119633
731672,Vester Halne Vej,9430,91,9.840048,57.119324
731673,Vester Halne Vej,9430,94,9.839611,57.11965
731674,Vester Halne Vej,9430,95,9.839204,57.119476
731675,Vester Halne Vej,9430,99,9.838035,57.119331
731676,Vester Halne Vej,9430,100,9.837894,57.119847
731677,Vester Halne Vej,9430,102,9.83737,57.119851
731678,Vester Halne Vej,9430,103,9.836233,57.11957
731679,Vester Halne Vej,9430,104,9.836833,57.12021
731680,Vester Halne Vej,9430,106,9.836155,57.119964
731681,Vester Halne Vej,9430,107,9.835145,57.119287
731682,Vester Halne Vej,9430,108,9.834699,57.11993
731683,Vester Halne Vej,9430,109,9.833995,57.11961
731684,Vester Halne Vej,9430,110,9.833899,57.119868
731685,Vester Halne Vej,9430,112,9.833506,57.119781
731686,Vester Halne Vej,9430,113,9.833372,57.118991
731687,Vester Halne Vej,9430,114,9.832747,57.119448
733372,Vævergårdvej,9430,3,9.840515,57.131973
733373,Vævergårdvej,9430,7,9.83898,57.13109
733374,Vævergårdvej,9430,15,9.834834,57.129987
733375,Vævergårdvej,9430,20,9.827145,57.128411
733754,Æblerosevej,9430,2,9.858333,57.115116
733755,Æblerosevej,9430,4,9.858394,57.115288
733756,Æblerosevej,9430,5,9.858251,57.11599
733757,Æblerosevej,9430,7,9.858339,57.116212
733758,Æblerosevej,9430,9,9.858429,57.116453
733759,Æblerosevej,9430,11,9.858427,57.116754
733760,Æblerosevej,9430,12,9.858711,57.11613
734312,Øster Halne Hedevej,9430,4,9.88121,57.130656
734313,Øster Halne Hedevej,9430,5,9.879448,57.131524
734314,Øster Halne Hedevej,9430,7,9.87758,57.132218
734315,Øster Halne Hedevej,9430,10,9.886234,57.131201
734316,Øster Halne Hedevej,9430,12,9.887279,57.131997
734317,Øster Halne Hedevej,9430,15,9.887131,57.133268
734318,Øster Halne Hedevej,9430,20,9.893479,57.134163
734319,Øster Halne Hedevej,9430,22,9.89404,57.134292
734320,Øster Halne Hedevej,9430,25,9.881338,57.136127
734321,Øster Halne Hedevej,9430,27,9.88195,57.136638
734322,Øster Halne Hedevej,9430,29,9.883935,57.136981
734323,Øster Halne Hedevej,9430,30,9.890082,57.13598
1805911,Ellehammersvej,9430,25B,9.8584202,57.1144377
1805912,Ellehammersvej,9430,25C,9.8587972,57.1145227
1805913,Ellehammersvej,9430,39,9.860826,57.117188
1835935,Nervøsvej,9430,8A,9.861939,57.122059
1835936,Nervøsvej,9430,8B,9.862068,57.1219966
1835937,Nervøsvej,9430,10A,9.861469,57.122128
1835940,Nervøsvej,9430,10B,9.8613549,57.1221803
1835941,Nervøsvej,9430,10C,9.861225,57.122242
1835943,Nervøsvej,9430,10D,9.861272,57.121988
1835944,Nervøsvej,9430,10E,9.861141,57.122045
1835948,Nervøsvej,9430,10F,9.8610169,57.1221022
1835949,Nervøsvej,9430,11C,9.8600716,57.1219224
1835950,Nervøsvej,9430,11D,9.8602142,57.121871
1835954,Nervøsvej,9430,12A,9.8608287,57.1223001
1835955,Nervøsvej,9430,12B,9.8607011,57.1223587
1835956,Nervøsvej,9430,14B,9.860459,57.122382
1835958,Nervøsvej,9430,14C,9.860571,57.122588
1835959,Nervøsvej,9430,14D,9.860697,57.122526
1835961,Nervøsvej,9430,16A,9.860082,57.122562
1835963,Nervøsvej,9430,16B,9.859962,57.122621
1835964,Nervøsvej,9430,16C,9.859849,57.122674
1835966,Nervøsvej,9430,18A,9.859698,57.12275
1835967,Nervøsvej,9430,18B,9.859563,57.122813
1835969,Nervøsvej,9430,18C,9.85945,57.122868
1835970,Nervøsvej,9430,20A,9.859845,57.122921
1835972,Nervøsvej,9430,20B,9.859733,57.122973
1835973,Nervøsvej,9430,20C,9.859618,57.123027
1865673,Vester Halne Vej,9430,78,9.843737,57.119196
1865675,Vester Halne Vej,9430,101,9.836631,57.11969
1866824,Rødslet,9430,41,9.858185,57.119928
1869637,Thisted Landevej,9430,51,9.858266,57.109226
1869638,Thisted Landevej,9430,53,9.857395,57.108499
1878926,Pindbrovej,9430,13,9.823555,57.122655
1878927,Pindbrovej,9430,15,9.817202,57.119842
1880670,Nørlangvej,9430,32,9.845587,57.132133
1973372,Engvej,9430,15,9.875586,57.156116
1984278,Bakmøllevej,9430,146,9.908504,57.14455
1999009,Vadum Kirkevej,9430,12,9.862822,57.113795
1999010,Vadum Kirkevej,9430,26,9.863333,57.110408
1999011,Vadum Kirkevej,9430,48,9.878149,57.111717
1999012,Vadum Kirkevej,9430,67C,9.883319,57.11509
1999013,Vadum Kirkevej,9430,67E,9.883457,57.113979
2036760,Kærvangen,9430,15B,9.87143,57.151583
2039043,Mejerivej,9430,4A,9.861148,57.120865
2039044,Mejerivej,9430,4B,9.8612666,57.1211438
2048508,Gustav Zimmersvej,9430,26,9.876961,57.149966
2048509,Gustav Zimmersvej,9430,28,9.876703,57.149997
2048510,Gustav Zimmersvej,9430,30,9.876919,57.149802
2048511,Gustav Zimmersvej,9430,32,9.876684,57.149829
2048512,Gustav Zimmersvej,9430,34,9.876958,57.149628
2048513,Gustav Zimmersvej,9430,35,9.884056,57.149383
2048514,Gustav Zimmersvej,9430,36,9.876694,57.149659
2048515,Gustav Zimmersvej,9430,37,9.884219,57.149588
2048516,Gustav Zimmersvej,9430,38,9.876945,57.149458
2048517,Gustav Zimmersvej,9430,39,9.884232,57.149805
2048518,Gustav Zimmersvej,9430,40,9.876684,57.149492
2048519,Gustav Zimmersvej,9430,41,9.884428,57.150001
2048520,Gustav Zimmersvej,9430,42,9.877931,57.149789
2048521,Gustav Zimmersvej,9430,43,9.884531,57.150205
2048522,Gustav Zimmersvej,9430,44,9.877877,57.149562
2048523,Gustav Zimmersvej,9430,45,9.884628,57.150387
2048524,Gustav Zimmersvej,9430,46,9.877771,57.14936
2048525,Gustav Zimmersvej,9430,47,9.884738,57.150606
2048526,Gustav Zimmersvej,9430,48,9.878252,57.149299
2048527,Gustav Zimmersvej,9430,49,9.884949,57.150701
2048528,Gustav Zimmersvej,9430,51,9.88521,57.15069
2048529,Gustav Zimmersvej,9430,52,9.878428,57.14978
2048530,Gustav Zimmersvej,9430,53,9.885184,57.150462
2048531,Gustav Zimmersvej,9430,54,9.879244,57.149634
2048532,Gustav Zimmersvej,9430,55,9.885043,57.150289
2048533,Gustav Zimmersvej,9430,56,9.879251,57.149362
2048534,Gustav Zimmersvej,9430,57,9.884955,57.150116
2048535,Gustav Zimmersvej,9430,58,9.879144,57.149157
2048536,Gustav Zimmersvej,9430,59,9.884805,57.149909
2048537,Gustav Zimmersvej,9430,60,9.87964,57.149176
2048538,Gustav Zimmersvej,9430,61,9.884758,57.149734
2048539,Gustav Zimmersvej,9430,62,9.879658,57.149366
2048540,Gustav Zimmersvej,9430,63,9.884629,57.149561
2048541,Gustav Zimmersvej,9430,65,9.884501,57.149372
2048542,Gustav Zimmersvej,9430,66V,9.885213,57.149256
2048543,Gustav Zimmersvej,9430,68,9.882462,57.14917
2048544,Gustav Zimmersvej,9430,70,9.88237,57.148993
2048545,Gustav Zimmersvej,9430,72,9.882228,57.148842
2048546,Gustav Zimmersvej,9430,74,9.882172,57.1486
2048547,Gustav Zimmersvej,9430,76,9.882636,57.148535
2048548,Gustav Zimmersvej,9430,78,9.882759,57.148741
2048549,Gustav Zimmersvej,9430,80,9.882812,57.14892
2048550,Gustav Zimmersvej,9430,82,9.88282,57.1491
2048551,Gustav Zimmersvej,9430,84,9.883864,57.149028
2048552,Gustav Zimmersvej,9430,86,9.883645,57.148798
2048553,Gustav Zimmersvej,9430,88,9.883602,57.148584
2048554,Gustav Zimmersvej,9430,90,9.883525,57.148415
2048555,Gustav Zimmersvej,9430,92,9.883839,57.148354
2048556,Gustav Zimmersvej,9430,94,9.884215,57.148543
2048557,Gustav Zimmersvej,9430,96,9.884236,57.148778
2048558,Gustav Zimmersvej,9430,98,9.884437,57.149006
2048559,Gustav Zimmersvej,9430,100,9.885376,57.148926
2048560,Gustav Zimmersvej,9430,102,9.885184,57.148754
2048561,Gustav Zimmersvej,9430,104,9.88512,57.14853
2048562,Gustav Zimmersvej,9430,106,9.884903,57.148409
2048563,Gustav Zimmersvej,9430,108,9.884849,57.148177
2048564,Gustav Zimmersvej,9430,110,9.885296,57.148119
2048565,Gustav Zimmersvej,9430,112,9.885465,57.148297
2048566,Gustav Zimmersvej,9430,114,9.885649,57.148443
2048567,Gustav Zimmersvej,9430,116,9.885731,57.148616
2048568,Gustav Zimmersvej,9430,118,9.885772,57.14882
2051662,Lærkevænget,9430,4,9.8546576,57.1222488
2076294,Havrevænget,9430,4,9.860654,57.114993
2078446,Birkevej,9430,17,9.870556,57.147314
2078564,Bøgevej,9430,5B,9.869998,57.149377
2078565,Bøgevej,9430,15,9.868649,57.148496
2078566,Bøgevej,9430,16,9.867886,57.148317
2078567,Bøgevej,9430,17,9.868469,57.148503
2081205,Nordkærvej,9430,11,9.872745,57.156101
2081212,Øster Halne Hedevej,9430,32,9.890799,57.1367
2085404,Charles Lindberghs Vej,9430,10,9.849734,57.112217
2086700,E.J. Overbyes Vej,9430,4,9.863438,57.119795
2086701,E.J. Overbyes Vej,9430,6,9.8630084,57.1197003
2086705,E.J. Overbyes Vej,9430,8,9.862758,57.1194371
2086708,E.J. Overbyes Vej,9430,12,9.86289,57.119091
2086711,E.J. Overbyes Vej,9430,14,9.863294,57.118955
2086715,E.J. Overbyes Vej,9430,18,9.864825,57.118987
2086718,E.J. Overbyes Vej,9430,19,9.864459,57.119926
2086722,E.J. Overbyes Vej,9430,20,9.864943,57.119177
2086724,E.J. Overbyes Vej,9430,22,9.864405,57.119246
2086726,E.J. Overbyes Vej,9430,24,9.864222,57.119017
2086729,E.J. Overbyes Vej,9430,26,9.863541,57.119302
2086730,E.J. Overbyes Vej,9430,28,9.863703,57.119539
2086732,E.J. Overbyes Vej,9430,30,9.863986,57.119698
2091623,Husmandsvej,9430,24,9.871516,57.145719
2091757,Degnevænget,9430,4,9.8546873,57.1179732
2093375,Vestmarken,9430,11A,9.869556,57.152902
2093376,Vestmarken,9430,11B,9.869454,57.152917
2093377,Vestmarken,9430,11C,9.869355,57.152934
2093378,Vestmarken,9430,11D,9.869265,57.15295
2094365,Robert Svendsens Vej,9430,13,9.863619,57.118842
2096082,Jørgen Horskjærs Vej,9430,9,9.860196,57.117305
2098006,Taksvej,9430,2,9.860754,57.121844
2130278,Millevej,9430,6,9.86348,57.121362
2130284,Millevej,9430,7,9.864065,57.121551
2130291,Millevej,9430,8,9.863781,57.121297
2130302,Millevej,9430,10,9.863873,57.121106
2130305,Millevej,9430,11,9.864184,57.12186
2130316,Millevej,9430,12,9.864167,57.120955
2130325,Millevej,9430,14,9.864314,57.120883
2130329,Millevej,9430,16,9.864609,57.120734
2130335,Millevej,9430,17,9.8660167,57.1215809
2130336,Millevej,9430,18,9.864737,57.120668
2130342,Millevej,9430,19,9.8654925,57.121631
2130345,Millevej,9430,20,9.865073,57.120498
2130351,Millevej,9430,21,9.864995,57.121734
2130357,Millevej,9430,22,9.865218,57.120422
2130360,Millevej,9430,23,9.864829,57.121754
2130374,Millevej,9430,24,9.8656,57.120266
2130381,Millevej,9430,24B,9.865863,57.1203
2130392,Millevej,9430,25,9.864528,57.121702
2130404,Millevej,9430,26,9.865739,57.120498
2130409,Millevej,9430,27,9.864472,57.121567
2130419,Millevej,9430,28,9.865761,57.120594
2130421,Millevej,9430,29,9.864753,57.121516
2130429,Millevej,9430,30,9.865681,57.120766
2130434,Millevej,9430,31,9.864927,57.121498
2130450,Millevej,9430,32,9.8654,57.121097
2130465,Millevej,9430,33,9.864844,57.121283
2130471,Millevej,9430,35,9.864681,57.121299
2130485,Millevej,9430,36,9.864846,57.120915
2130490,Millevej,9430,37,9.864388,57.121323
2130502,Millevej,9430,38,9.864725,57.120976
2130513,Millevej,9430,40,9.864455,57.121116
2134062,Sneumvej,9430,1,9.8635592,57.1229591
2134069,Sneumvej,9430,7,9.8637728,57.1234176
2134076,Sneumvej,9430,10,9.8640533,57.1226806
2134083,Sneumvej,9430,30,9.865628,57.122737
2134094,Sneumvej,9430,32,9.86568,57.122597
2134097,Sneumvej,9430,34,9.865879,57.122463
2134108,Sneumvej,9430,36,9.865954,57.122342
2134113,Sneumvej,9430,38,9.865801,57.122161
2134123,Sneumvej,9430,44,9.866695,57.122084
2134127,Sneumvej,9430,46,9.866642,57.122363
2134136,Sneumvej,9430,48,9.866458,57.122573
2134141,Sneumvej,9430,50,9.866418,57.122869
2134150,Sneumvej,9430,53,9.866153,57.123678
2134155,Sneumvej,9430,55,9.8657679,57.1233609
2134167,Sneumvej,9430,57,9.8658545,57.1230994
2189036,Bøgesvinget,9430,1,9.868973,57.148367
2189040,Bøgesvinget,9430,2,9.868455,57.148263
2189041,Bøgesvinget,9430,3,9.869307,57.148293
2189044,Bøgesvinget,9430,4,9.86889,57.148216
2189045,Bøgesvinget,9430,5,9.869673,57.148223
2189047,Bøgesvinget,9430,7,9.869361,57.148057
2189049,Bøgesvinget,9430,8,9.868367,57.14794
2189052,Bøgesvinget,9430,10,9.868786,57.147891
2189054,Bøgesvinget,9430,12,9.869223,57.147845
2189056,Bøgesvinget,9430,14,9.869618,57.147811
2216193,Thisted Landevej,9430,57,9.854233,57.109616
2216194,Thisted Landevej,9430,59,9.853489,57.109813
2218917,Grønslet,9430,1,9.856352,57.121068
2218918,Grønslet,9430,3,9.856295,57.120862
2218919,Grønslet,9430,5,9.856228,57.120623
2218920,Grønslet,9430,7,9.856171,57.120424
2218921,Grønslet,9430,9,9.856112,57.120204
2218922,Grønslet,9430,11,9.856051,57.119985
2218923,Grønslet,9430,13,9.855986,57.119742
2218924,Grønslet,9430,15,9.855897,57.119512
2218925,Grønslet,9430,17,9.855829,57.119323
2218926,Grønslet,9430,19,9.855794,57.119098
2218927,Grønslet,9430,21,9.855734,57.11893
2218928,Grønslet,9430,23,9.855679,57.118681
2218929,Grønslet,9430,25,9.855623,57.118495
2219152,Mejerivej,9430,21,9.856294,57.1213
2225327,Sneumvej,9430,9,9.863854,57.123578
2225328,Sneumvej,9430,11,9.863936,57.123733
2225329,Sneumvej,9430,13,9.864015,57.123888
2225330,Sneumvej,9430,15,9.864469,57.123857
2225331,Sneumvej,9430,17,9.86475,57.123824
2225332,Sneumvej,9430,19,9.86509,57.123783
2225333,Sneumvej,9430,21,9.865378,57.123748
2225334,Sneumvej,9430,23,9.865302,57.123558
2225335,Sneumvej,9430,25,9.865018,57.123593
2225336,Sneumvej,9430,27,9.864676,57.123636
2225337,Sneumvej,9430,29,9.864385,57.123671
2225338,Sneumvej,9430,31,9.864213,57.123469
2225339,Sneumvej,9430,33,9.864142,57.123243
2225340,Sneumvej,9430,35,9.864112,57.123073
2225341,Sneumvej,9430,37,9.863955,57.1229
2225342,Sneumvej,9430,39,9.864312,57.122836
2225343,Sneumvej,9430,41,9.864722,57.122833
2225344,Sneumvej,9430,43,9.8651821,57.1228612
2225345,Sneumvej,9430,45,9.865487,57.122996
2225346,Sneumvej,9430,47,9.865395,57.123185
2225347,Sneumvej,9430,49,9.865334,57.123371
2233807,Ellehammersvej,9430,73A,9.862078,57.120889
2233808,Ellehammersvej,9430,73B,9.862097,57.120958
2233809,Ellehammersvej,9430,73C,9.862123,57.121016
2233810,Ellehammersvej,9430,102B,9.867752,57.123506
2233811,Ellehammersvej,9430,102C,9.867863,57.123396
2234324,Vadumvej,9430,35E,9.87412,57.149542
2234325,Vadumvej,9430,40A,9.87297,57.149029
2235996,Bygaden,9430,21A,9.8751581,57.1523448
2236513,Rugmarken,9430,10B,9.857156,57.116614
2236514,Rugmarken,9430,10C,9.85702,57.116509
2236600,Elmevænget,9430,1A,9.856426,57.110222
2236601,Elmevænget,9430,1B,9.855546,57.110437
2236683,Konvalvej,9430,21C,9.868735,57.151549
2236926,Pilgårdsvej,9430,13,9.865165,57.150788
2242324,Holtebakkevej,9430,19,9.862879,57.156486
2242371,Hedevej,9430,67,9.897786,57.139572
2256753,Nordkærvej,9430,15B,9.871217,57.156322
