idx,street,postcode,housenumber,lon,lat
1648490,Fruerhusvej,9574,1,10.0920802,56.8281329
1648493,Fruerhusvej,9574,2,10.086848,56.827279
1648499,Fruerhusvej,9574,4,10.0936222,56.820258
1648501,Fruerhusvej,9574,5,10.088363,56.826424
1648505,Fruerhusvej,9574,6,10.0982879,56.8180894
1648508,Fruerhusvej,9574,7,10.095832,56.820305
1648512,Fruerhusvej,9574,7B,10.0995221,56.8184449
1648516,Fruerhusvej,9574,8,10.100338,56.8175161
1648518,Fruerhusvej,9574,9,10.1080053,56.8175079
1648522,Fruerhusvej,9574,10,10.0993883,56.8146528
1648524,Fruerhusvej,9574,12,10.1061119,56.8141198
1648527,Fruerhusvej,9574,16,10.108631,56.8135477
1648531,Fruerhusvej,9574,17,10.1342675,56.8090773
1648533,Fruerhusvej,9574,18,10.11059,56.80974
1648535,Fruerhusvej,9574,19,10.1348865,56.8091798
1648537,Fruerhusvej,9574,20,10.1163783,56.8136134
1648538,Fruerhusvej,9574,21,10.1353806,56.8091296
1648539,Fruerhusvej,9574,22,10.1238694,56.8081666
1648540,Fruerhusvej,9574,26,10.1289796,56.8089972
1648541,Fruerhusvej,9574,30,10.1332765,56.8088789
1648542,Fruerhusvej,9574,32,10.1336686,56.8088288
1648543,Fruerhusvej,9574,34,10.1339375,56.8088622
1648544,Fruerhusvej,9574,36,10.1343715,56.8088707
1648545,Fruerhusvej,9574,38,10.1350387,56.8089482
1648546,Fruerhusvej,9574,40,10.13512,56.8088979
1648547,Fruerhusvej,9574,42,10.1352279,56.8089596
1648548,Fruerhusvej,9574,44,10.1353005,56.8089098
1651137,Korsholmvej,9574,1,10.0815081,56.8263217
1651140,Korsholmvej,9574,3,10.0823871,56.8269131
1651142,Korsholmvej,9574,5,10.0850463,56.8290942
1651143,Korsholmvej,9574,7,10.0861497,56.8302369
1651144,Korsholmvej,9574,7A,10.086321,56.8301774
1651147,Korsholmvej,9574,7B,10.0863875,56.8302399
1651148,Korsholmvej,9574,9,10.0886454,56.83241
1651149,Korsholmvej,9574,10,10.0796678,56.8246414
1651150,Korsholmvej,9574,12,10.0848562,56.8277446
1651151,Korsholmvej,9574,14,10.0886008,56.8315019
1656890,Svanholmsmindevej,9574,39,10.0822449,56.8413744
1656891,Svanholmsmindevej,9574,41,10.0840891,56.8414233
1656892,Svanholmsmindevej,9574,43,10.0839845,56.8410225
1662268,Skovhusevej,9574,1,10.1129892,56.8306613
1662269,Skovhusevej,9574,1B,10.1134933,56.8303588
1662270,Skovhusevej,9574,3,10.113032,56.8304486
1662271,Skovhusevej,9574,4,10.1126495,56.830814
1662272,Skovhusevej,9574,5,10.1130433,56.830217
1662273,Skovhusevej,9574,6,10.1123878,56.8306604
1662274,Skovhusevej,9574,7,10.113664,56.830165
1662276,Skovhusevej,9574,8,10.1126276,56.8305599
1662278,Skovhusevej,9574,9,10.1136248,56.829918
1662280,Skovhusevej,9574,10,10.1125662,56.8303736
1662282,Skovhusevej,9574,11,10.1130766,56.8299351
1662283,Skovhusevej,9574,12,10.112562,56.830169
1662284,Skovhusevej,9574,14,10.1125871,56.8299906
1662285,Skovhusevej,9574,16,10.1125878,56.8298052
1662286,Skovhusevej,9574,17,10.1127307,56.8284932
1662287,Skovhusevej,9574,18,10.112598,56.8296063
1662288,Skovhusevej,9574,20,10.1125983,56.8294081
1662289,Skovhusevej,9574,21,10.1110676,56.8279203
1662290,Skovhusevej,9574,22,10.1126119,56.8292426
1662291,Skovhusevej,9574,24,10.1126822,56.8290368
1662292,Skovhusevej,9574,26,10.1126422,56.8288469
1662293,Skovhusevej,9574,27,10.1102077,56.827598
1662294,Skovhusevej,9574,28,10.1118882,56.8287047
1662295,Skovhusevej,9574,29,10.1093265,56.8275682
1662296,Skovhusevej,9574,30,10.1110514,56.8284928
1662297,Skovhusevej,9574,31,10.1079289,56.8266964
1662298,Skovhusevej,9574,32,10.1105876,56.828437
1662299,Skovhusevej,9574,33,10.1097056,56.8261617
1662301,Skovhusevej,9574,34A,10.1099307,56.8281673
1662303,Skovhusevej,9574,34B,10.1095626,56.8284416
1662304,Skovhusevej,9574,35,10.1073592,56.8260541
1662307,Skovhusevej,9574,36,10.1090659,56.8280663
1662308,Skovhusevej,9574,37,10.1043664,56.8255002
1662309,Skovhusevej,9574,38,10.1075198,56.8274318
1662310,Skovhusevej,9574,40A,10.1059515,56.8259753
1662311,Skovhusevej,9574,40B,10.1052843,56.8264147
1662312,Skovhusevej,9574,44,10.1011123,56.8253106
1662313,Skovhusevej,9574,46,10.1005911,56.8270707
1662314,Skovhusevej,9574,46B,10.1008791,56.8259399
1662315,Skovhusevej,9574,48,10.0998856,56.8245914
1742258,Torvet,9574,1,10.1197238,56.8310463
1742259,Torvet,9574,2,10.119848,56.8305518
1742261,Torvet,9574,3,10.1200355,56.8308222
1742262,Torvet,9574,4,10.1198144,56.8305238
1742263,Torvet,9574,5,10.1203368,56.8308933
1742264,Torvet,9574,6,10.1199087,56.8305096
1742265,Torvet,9574,7,10.120586,56.830989
1742266,Torvet,9574,8,10.120019,56.8304983
1742267,Torvet,9574,9,10.1204699,56.8307631
1742268,Torvet,9574,10,10.1200675,56.8304714
1742269,Torvet,9574,11,10.1204,56.830594
1742270,Torvet,9574,12,10.1200779,56.8304137
1745506,Kløvervej,9574,1,10.1212025,56.8287096
1745509,Kløvervej,9574,2,10.1213414,56.8291621
1745510,Kløvervej,9574,3,10.1211207,56.828893
1745512,Kløvervej,9574,5,10.1209705,56.8290406
1745514,Kløvervej,9574,7,10.1206036,56.8292206
1748354,Solbjergvej,9574,19,10.1330963,56.8282428
1748355,Solbjergvej,9574,19B,10.1313375,56.8286579
1748356,Solbjergvej,9574,21,10.136159,56.82583
1748357,Solbjergvej,9574,25,10.137793,56.8167109
1748358,Solbjergvej,9574,25A,10.1378078,56.8166972
1748359,Solbjergvej,9574,25B,10.1379669,56.8165381
1748360,Solbjergvej,9574,25C,10.1381657,56.8165172
1748361,Solbjergvej,9574,29,10.1404747,56.8105297
1748362,Solbjergvej,9574,30,10.133415,56.826005
1748363,Solbjergvej,9574,31,10.1400953,56.8102189
1748364,Solbjergvej,9574,33,10.139034,56.8102008
1748365,Solbjergvej,9574,34,10.1383967,56.810134
1748366,Solbjergvej,9574,35,10.1390319,56.809792
1752526,Østre Skovvej,9574,1A,10.1198295,56.8302155
1752528,Østre Skovvej,9574,1B,10.1200049,56.8301904
1752529,Østre Skovvej,9574,1C,10.1196218,56.8300349
1752532,Østre Skovvej,9574,1D,10.1197717,56.8300213
1752533,Østre Skovvej,9574,1E,10.1198975,56.8300092
1752535,Østre Skovvej,9574,1F,10.1196637,56.8303018
1752536,Østre Skovvej,9574,2,10.1193506,56.8305708
1752539,Østre Skovvej,9574,2B,10.1188593,56.8304019
1752542,Østre Skovvej,9574,3,10.1195429,56.8298389
1752543,Østre Skovvej,9574,4,10.1191317,56.8301122
1752545,Østre Skovvej,9574,5,10.1199635,56.829035
1752547,Østre Skovvej,9574,6,10.1193082,56.8297384
1752550,Østre Skovvej,9574,7,10.1202448,56.8288126
1752551,Østre Skovvej,9574,8,10.1192677,56.8294953
1752552,Østre Skovvej,9574,9,10.120329,56.8285751
1752554,Østre Skovvej,9574,10,10.1193415,56.8293068
1752558,Østre Skovvej,9574,11,10.1204932,56.8277955
1752559,Østre Skovvej,9574,12,10.1193806,56.8291056
1752561,Østre Skovvej,9574,13,10.1205989,56.8276762
1752563,Østre Skovvej,9574,14,10.119821,56.828461
1752566,Østre Skovvej,9574,15,10.120807,56.82747
1752567,Østre Skovvej,9574,16,10.119131,56.822872
1752571,Østre Skovvej,9574,17,10.1210591,56.8270612
1752572,Østre Skovvej,9574,18,10.1162242,56.8198357
1752574,Østre Skovvej,9574,21,10.1241712,56.82574
1752575,Østre Skovvej,9574,23,10.1243151,56.8254047
1752576,Østre Skovvej,9574,24,10.1230034,56.8250245
1752577,Østre Skovvej,9574,26,10.1229539,56.8248076
1752578,Østre Skovvej,9574,28,10.1227453,56.824324
1752579,Østre Skovvej,9574,32,10.1227876,56.8241009
1752580,Østre Skovvej,9574,38,10.1225842,56.8234358
1752581,Østre Skovvej,9574,42,10.1229682,56.8254858
1752582,Østre Skovvej,9574,44,10.1234588,56.8255866
1753341,Stationsvej,9574,1,10.1237688,56.8286994
1753343,Stationsvej,9574,2,10.122882,56.8293796
1753345,Stationsvej,9574,3,10.1240581,56.8283757
1753347,Stationsvej,9574,4,10.1227933,56.8290078
1753349,Stationsvej,9574,5,10.1243031,56.8284097
1753350,Stationsvej,9574,6,10.1233608,56.8284383
1753352,Stationsvej,9574,7,10.1243973,56.828261
1753354,Stationsvej,9574,8,10.1237603,56.8276549
1753356,Stationsvej,9574,9,10.1242402,56.8281278
1753357,Stationsvej,9574,10,10.1242551,56.8273716
1753359,Stationsvej,9574,11,10.1244547,56.8281442
1753360,Stationsvej,9574,12,10.1245805,56.8270922
1753361,Stationsvej,9574,13,10.1243649,56.8279741
1753362,Stationsvej,9574,15,10.1246223,56.8280038
1753363,Stationsvej,9574,17,10.1247149,56.8278592
1753364,Stationsvej,9574,19,10.1245755,56.8277159
1753365,Stationsvej,9574,21,10.1247684,56.8277335
1753366,Stationsvej,9574,23,10.1247642,56.8275404
1753367,Stationsvej,9574,25,10.1249311,56.8275534
1753368,Stationsvej,9574,27,10.1250277,56.8275981
1753369,Stationsvej,9574,29,10.125089,56.8274361
1753370,Stationsvej,9574,31,10.1251487,56.827376
1753371,Stationsvej,9574,33,10.1252155,56.8273218
1753372,Stationsvej,9574,35,10.125272,56.8272668
1753374,Stationsvej,9574,37,10.1254688,56.8271883
1753375,Stationsvej,9574,39,10.1253409,56.8271437
1753377,Stationsvej,9574,41,10.1252155,56.8271024
1754851,Håndværkervej,9574,1,10.1322959,56.8285294
1754853,Håndværkervej,9574,3,10.1315707,56.8292243
1754897,Smidievej,9574,1,10.1201778,56.8315571
1754898,Smidievej,9574,1A,10.1199617,56.8318569
1754899,Smidievej,9574,1B,10.1210368,56.8323214
1754900,Smidievej,9574,1C,10.1198098,56.8329165
1754901,Smidievej,9574,3,10.1288016,56.8368201
1754902,Smidievej,9574,4,10.1226172,56.8314447
1754903,Smidievej,9574,5,10.1242864,56.8418694
1754904,Smidievej,9574,6,10.1228542,56.8312882
1754905,Smidievej,9574,7A,10.1305287,56.8434583
1754906,Smidievej,9574,7B,10.130477,56.843653
1754907,Smidievej,9574,8,10.1232126,56.8317923
1754908,Smidievej,9574,8B,10.1337791,56.8353356
1754909,Smidievej,9574,9,10.1216804,56.846629
1754910,Smidievej,9574,10,10.1320312,56.8395615
1754911,Smidievej,9574,11,10.12317,56.848773
1754912,Smidievej,9574,12,10.1372086,56.8453938
1754913,Smidievej,9574,14,10.1406595,56.8455716
1754914,Smidievej,9574,15,10.1315296,56.8542895
1754915,Smidievej,9574,16,10.141364,56.8449529
1754916,Smidievej,9574,18,10.1367167,56.8492972
1754919,Smidievej,9574,19,10.130445,56.8582936
1754920,Smidievej,9574,20,10.1392327,56.8487092
1754922,Smidievej,9574,22,10.1332829,56.8491662
1754924,Smidievej,9574,24,10.1342454,56.8488362
1754925,Smidievej,9574,26,10.1326599,56.8515954
1754927,Smidievej,9574,28,10.1327109,56.8534558
1754929,Smidievej,9574,34,10.1374129,56.8678293
1755329,Lille Brøndum Byveje,9574,1,10.1462129,56.8281959
1755332,Lille Brøndum Byveje,9574,2,10.1463085,56.827767
1755334,Lille Brøndum Byveje,9574,3,10.1466823,56.8284271
1755339,Lille Brøndum Byveje,9574,4,10.1465699,56.8278959
1755340,Lille Brøndum Byveje,9574,5,10.1469811,56.8285949
1755342,Lille Brøndum Byveje,9574,6,10.1464609,56.827296
1755349,Lille Brøndum Byveje,9574,7,10.1474208,56.8287829
1755350,Lille Brøndum Byveje,9574,8,10.1469988,56.8271971
1755351,Lille Brøndum Byveje,9574,9,10.1477757,56.8290299
1755353,Lille Brøndum Byveje,9574,10,10.1468381,56.8275627
1755354,Lille Brøndum Byveje,9574,12,10.1479282,56.8277289
1755356,Lille Brøndum Byveje,9574,14,10.1472734,56.8282019
1755358,Lille Brøndum Byveje,9574,16,10.1478674,56.8285233
1757551,Vestergade,9574,1A,10.1185769,56.8310115
1757553,Vestergade,9574,1B,10.1184706,56.8310409
1757554,Vestergade,9574,1C,10.1183525,56.8310762
1757555,Vestergade,9574,2,10.1186011,56.8318669
1757556,Vestergade,9574,3,10.1180851,56.8309956
1757557,Vestergade,9574,4,10.1181523,56.8313059
1757558,Vestergade,9574,6,10.1177074,56.8315045
1757559,Vestergade,9574,8A,10.1174542,56.8313567
1757560,Vestergade,9574,8B,10.1173428,56.8313422
1757561,Vestergade,9574,10,10.1168074,56.8316154
1757562,Vestergade,9574,12A,10.1170232,56.8313007
1757563,Vestergade,9574,12B,10.1169052,56.8312861
1757564,Vestergade,9574,12C,10.1167937,56.8312726
1757565,Vestergade,9574,12D,10.1169545,56.8314007
1757566,Vestergade,9574,12E,10.1167078,56.831386
1757568,Vestergade,9574,14,10.116629,56.831253
1757569,Vestergade,9574,15,10.1153672,56.8310347
1757570,Vestergade,9574,16,10.1162336,56.8312131
1757572,Vestergade,9574,17,10.1150745,56.8310727
1757575,Vestergade,9574,18,10.11588,56.831256
1757578,Vestergade,9574,19,10.1147388,56.8310581
1757579,Vestergade,9574,19B,10.1146779,56.831052
1757582,Vestergade,9574,20,10.115495,56.8312139
1757583,Vestergade,9574,20B,10.1154478,56.8315117
1757586,Vestergade,9574,21,10.1144949,56.8309029
1757588,Vestergade,9574,22,10.1152206,56.8312178
1757589,Vestergade,9574,22B,10.1148617,56.8312738
1757592,Vestergade,9574,23,10.1139606,56.8310234
1757593,Vestergade,9574,24A,10.1138877,56.8312517
1757596,Vestergade,9574,24B,10.1136837,56.8312426
1757597,Vestergade,9574,24C,10.1134825,56.8312369
1757599,Vestergade,9574,25,10.1135219,56.8310399
1757600,Vestergade,9574,26,10.1088371,56.8315171
1757601,Vestergade,9574,27,10.1130698,56.8310309
1757602,Vestergade,9574,29,10.1119485,56.831037
1757603,Vestergade,9574,31,10.1114796,56.8310488
1757604,Vestergade,9574,33,10.111146,56.8308841
1760440,Tvoruphøjevej,9574,1,10.1003857,56.833216
1760442,Tvoruphøjevej,9574,2,10.106293,56.832263
1760444,Tvoruphøjevej,9574,3,10.0977669,56.8330901
1760446,Tvoruphøjevej,9574,5,10.09079,56.835436
1761583,Driften,9574,1,10.1449178,56.8272102
1761586,Driften,9574,2,10.1445426,56.8270841
1761590,Driften,9574,5,10.1464131,56.8230802
1761591,Driften,9574,7,10.1430866,56.8199544
1766924,Solbjerg Kirkevej,9574,1,10.1359582,56.8099572
1766925,Solbjerg Kirkevej,9574,1B,10.1349719,56.8101533
1770334,Grønnegade,9574,1,10.1138847,56.8324645
1770335,Grønnegade,9574,2A,10.1145175,56.8313391
1770336,Grønnegade,9574,2B,10.1145061,56.8314862
1770337,Grønnegade,9574,2C,10.1145593,56.8315987
1770338,Grønnegade,9574,2D,10.114774,56.83158
1770339,Grønnegade,9574,2E,10.1145161,56.8318324
1770340,Grønnegade,9574,3,10.1138137,56.8327819
1770341,Grønnegade,9574,4,10.1152589,56.8319265
1770342,Grønnegade,9574,4A,10.115797,56.83205
1770343,Grønnegade,9574,5,10.1135444,56.8329142
1770344,Grønnegade,9574,6,10.1148474,56.8322034
1770345,Grønnegade,9574,8,10.1143377,56.8322829
1770346,Grønnegade,9574,10,10.1143005,56.8325358
1770728,Højvangsvej,9574,1,10.1251666,56.8290082
1770729,Højvangsvej,9574,2,10.1246003,56.8290931
1770730,Højvangsvej,9574,3,10.1254302,56.8286216
1770731,Højvangsvej,9574,4,10.1247197,56.8289346
1770732,Højvangsvej,9574,5,10.1261912,56.8287858
1770733,Højvangsvej,9574,6,10.1247193,56.8287923
1770735,Højvangsvej,9574,7,10.1267176,56.8288176
1770736,Højvangsvej,9574,8,10.1249633,56.8286448
1770737,Højvangsvej,9574,9,10.1272872,56.8288944
1770739,Højvangsvej,9574,10,10.1250861,56.8283844
1770740,Højvangsvej,9574,11,10.1275411,56.8286956
1770741,Højvangsvej,9574,12,10.1254179,56.8280483
1770744,Højvangsvej,9574,13,10.1271368,56.8286066
1770745,Højvangsvej,9574,14,10.1256762,56.8278746
1770746,Højvangsvej,9574,15,10.1265589,56.8285936
1770748,Højvangsvej,9574,16,10.1259725,56.8277214
1770749,Højvangsvej,9574,17,10.1261664,56.828533
1770750,Højvangsvej,9574,18,10.125734,56.8274533
1770753,Højvangsvej,9574,19,10.1257477,56.8284379
1770754,Højvangsvej,9574,21,10.1266975,56.8282639
1770755,Højvangsvej,9574,23,10.125981,56.8281301
1770757,Højvangsvej,9574,23B,10.1262539,56.8278279
1770758,Højvangsvej,9574,25,10.1264712,56.8274681
1770760,Højvangsvej,9574,27,10.1260977,56.8272304
1770814,Skolevej,9574,1A,10.111847,56.831869
1770815,Skolevej,9574,1B,10.1121801,56.832685
1770816,Skolevej,9574,1C,10.1110786,56.8325527
1770817,Skolevej,9574,1D,10.1115143,56.8333701
1770818,Skolevej,9574,2,10.1127259,56.831703
1770819,Skolevej,9574,3,10.1124065,56.8340593
1770820,Skolevej,9574,5,10.1105395,56.8343176
1770821,Skolevej,9574,6,10.112834,56.8327803
1770823,Skolevej,9574,7,10.108604,56.835386
1770824,Skolevej,9574,8,10.112888,56.8329913
1770827,Skolevej,9574,10,10.113311,56.833601
1770828,Skolevej,9574,12,10.114456,56.834184
1773475,Bymarken,9574,2,10.1344096,56.8066334
1773476,Bymarken,9574,4,10.133998,56.8063505
1773477,Bymarken,9574,6,10.1339154,56.8061594
1773478,Bymarken,9574,8,10.1340543,56.8059321
1773479,Bymarken,9574,11,10.1349222,56.8065207
1773480,Bymarken,9574,12,10.1338802,56.80552
1773481,Bymarken,9574,13,10.1347453,56.8061019
1773482,Bymarken,9574,19,10.1354216,56.8055775
1773483,Bymarken,9574,23,10.1345763,56.8055398
1774159,Lindevej,9574,1,10.1249135,56.826671
1774160,Lindevej,9574,2,10.124498,56.826722
1774161,Lindevej,9574,3,10.124831,56.8265044
1774162,Lindevej,9574,4,10.124199,56.826658
1774163,Lindevej,9574,5,10.1244121,56.8265027
1774164,Lindevej,9574,6,10.1239885,56.8265571
1774165,Lindevej,9574,7,10.124212,56.8264132
1774166,Lindevej,9574,8,10.1236673,56.8264744
1774167,Lindevej,9574,9,10.1239296,56.826326
1774168,Lindevej,9574,10,10.1233345,56.826568
1774169,Lindevej,9574,11,10.123581,56.8262409
1774170,Lindevej,9574,12,10.123113,56.826371
1774171,Lindevej,9574,13,10.1234887,56.8260683
1774172,Lindevej,9574,14,10.1229494,56.8262378
1774173,Lindevej,9574,15,10.12315,56.826077
1774174,Lindevej,9574,16,10.122718,56.826125
1774175,Lindevej,9574,17,10.122957,56.8258728
1774176,Lindevej,9574,18,10.1224732,56.8260782
1774405,Gammel Smidievej,9574,4,10.1362984,56.8582029
1774406,Gammel Smidievej,9574,5,10.1379579,56.8605011
1774407,Gammel Smidievej,9574,7,10.1382541,56.8608452
1774408,Gammel Smidievej,9574,8,10.1380939,56.8598428
1774409,Gammel Smidievej,9574,9,10.1384902,56.861172
1774410,Gammel Smidievej,9574,10,10.1385564,56.8604592
1774411,Gammel Smidievej,9574,11,10.138348,56.861389
1774412,Gammel Smidievej,9574,12,10.1389215,56.8610522
1774413,Gammel Smidievej,9574,13,10.1381,56.8615342
1774414,Gammel Smidievej,9574,14,10.1387807,56.861245
1774415,Gammel Smidievej,9574,16,10.1389821,56.8614596
1774416,Gammel Smidievej,9574,20,10.1375871,56.8618812
1774417,Gammel Smidievej,9574,20A,10.1373606,56.861812
1774418,Gammel Smidievej,9574,22,10.1365596,56.8618516
1776007,Lykkevej,9574,2,10.1412442,56.8106626
1776009,Lykkevej,9574,3,10.1407763,56.8105541
1776011,Lykkevej,9574,4,10.140617,56.8110151
1776013,Lykkevej,9574,5,10.140954,56.8105669
1776016,Lykkevej,9574,6,10.1416823,56.8110868
1776017,Lykkevej,9574,8,10.1416287,56.8114156
1776018,Lykkevej,9574,10,10.140673,56.811215
1776019,Lykkevej,9574,12,10.1417923,56.8117037
1776102,Støberivej,9574,1A,10.1189427,56.8306703
1776103,Støberivej,9574,1B,10.1187869,56.8306743
1776104,Støberivej,9574,1C,10.118774,56.830614
1776105,Støberivej,9574,2,10.1194235,56.8307356
1776106,Støberivej,9574,4,10.1191696,56.8307779
1776107,Støberivej,9574,6,10.1189657,56.8309873
1776479,Lille Brøndumvej,9574,2,10.1352348,56.8273058
1776480,Lille Brøndumvej,9574,3,10.1450338,56.82771
1776481,Lille Brøndumvej,9574,5,10.1452468,56.82801
1776482,Lille Brøndumvej,9574,6,10.1465677,56.828722
1776483,Lille Brøndumvej,9574,7,10.1457929,56.8281747
1776484,Lille Brøndumvej,9574,8,10.1472083,56.828951
1776485,Lille Brøndumvej,9574,9,10.1458372,56.8283779
1776486,Lille Brøndumvej,9574,10,10.1479013,56.8297255
1776487,Lille Brøndumvej,9574,11,10.1458252,56.8286025
1776488,Lille Brøndumvej,9574,11A,10.1451251,56.8288879
1776489,Lille Brøndumvej,9574,13,10.1459499,56.8291036
1776490,Lille Brøndumvej,9574,14,10.1480735,56.8311063
1776491,Lille Brøndumvej,9574,15,10.1469388,56.829196
1777070,Rolighedsvej,9574,1,10.1144664,56.8306546
1777071,Rolighedsvej,9574,2A,10.11423,56.8310184
1777072,Rolighedsvej,9574,2B,10.114242,56.8309286
1777073,Rolighedsvej,9574,2C,10.1142503,56.8308501
1777074,Rolighedsvej,9574,3,10.1144606,56.8304921
1777075,Rolighedsvej,9574,4,10.1141844,56.8306723
1777076,Rolighedsvej,9574,5,10.1144795,56.8303018
1777077,Rolighedsvej,9574,6,10.1141934,56.8304809
1777078,Rolighedsvej,9574,7,10.1144739,56.8301244
1777079,Rolighedsvej,9574,8,10.11422,56.830318
1777080,Rolighedsvej,9574,9,10.1145245,56.8299362
1777081,Rolighedsvej,9574,10,10.11422,56.8299813
1777448,Vestertoften,9574,1,10.114466,56.8328649
1777449,Vestertoften,9574,2,10.1149027,56.8326035
1777450,Vestertoften,9574,3,10.1148836,56.8328766
1777451,Vestertoften,9574,4,10.1152663,56.8326355
1777452,Vestertoften,9574,5,10.1147996,56.8331762
1777453,Vestertoften,9574,6,10.1157366,56.8326328
1777454,Vestertoften,9574,7,10.1154851,56.8331977
1777455,Vestertoften,9574,8,10.1161141,56.8326003
1777456,Vestertoften,9574,9,10.1155784,56.8328894
1777457,Vestertoften,9574,10,10.1166264,56.8325941
1777458,Vestertoften,9574,11,10.1162528,56.8328717
1777459,Vestertoften,9574,12,10.1170802,56.8325676
1777460,Vestertoften,9574,13,10.1161079,56.8331316
1777461,Vestertoften,9574,14A,10.1173384,56.8325251
1777462,Vestertoften,9574,14B,10.1175088,56.8325239
1777463,Vestertoften,9574,15,10.1169348,56.8331475
1777464,Vestertoften,9574,16,10.1179179,56.8325176
1777465,Vestertoften,9574,17,10.1168896,56.8329121
1777466,Vestertoften,9574,19,10.1172984,56.832859
1777467,Vestertoften,9574,21,10.1177013,56.8329168
1779654,Havrevej,9574,1,10.1234745,56.8279332
1779655,Havrevej,9574,2,10.1234199,56.8281164
1779656,Havrevej,9574,3,10.1229515,56.8278901
1779657,Havrevej,9574,4,10.1230478,56.8280136
1779658,Havrevej,9574,5,10.122554,56.8280019
1779659,Havrevej,9574,7,10.1223144,56.8281869
1779821,Birkekrogen,9574,4,10.1226651,56.827603
1779822,Birkekrogen,9574,6,10.1222508,56.8275123
1779823,Birkekrogen,9574,8,10.1219306,56.8273596
1779824,Birkekrogen,9574,10,10.1216153,56.8275968
1779825,Birkekrogen,9574,12,10.1214465,56.8271717
1780682,Graverhusevej,9574,1,10.1307832,56.7983511
1780683,Graverhusevej,9574,2,10.1297624,56.7992095
1780684,Graverhusevej,9574,3,10.1335519,56.7938166
1780685,Graverhusevej,9574,4,10.1289636,56.7975203
1780686,Graverhusevej,9574,5,10.134203,56.7937996
1780687,Graverhusevej,9574,6A,10.1283172,56.7962781
1780688,Graverhusevej,9574,6B,10.1284648,56.7962844
1780689,Graverhusevej,9574,7,10.1352062,56.7940408
1780690,Graverhusevej,9574,8,10.1312741,56.7947013
1780691,Graverhusevej,9574,9,10.1338034,56.7936709
1780692,Graverhusevej,9574,10,10.132566,56.793859
1780693,Graverhusevej,9574,11,10.1334,56.7925273
1780694,Graverhusevej,9574,12,10.1326227,56.7930281
1780695,Graverhusevej,9574,13,10.1337077,56.7909551
1780696,Graverhusevej,9574,14,10.1324239,56.7909254
1780697,Graverhusevej,9574,16,10.1323621,56.7900093
1780698,Graverhusevej,9574,17,10.1325009,56.7886181
1780699,Graverhusevej,9574,18,10.1301019,56.7897332
1780700,Graverhusevej,9574,20,10.1323563,56.7894047
1780701,Graverhusevej,9574,22,10.1323156,56.7890747
1780702,Graverhusevej,9574,24,10.1314064,56.7876436
1780703,Graverhusevej,9574,26,10.1269418,56.7872792
1780795,Birkealle,9574,1,10.1239102,56.8272638
1780796,Birkealle,9574,2,10.1233998,56.8273764
1780797,Birkealle,9574,2A,10.123283,56.827561
1780798,Birkealle,9574,3,10.1235828,56.8271446
1780799,Birkealle,9574,4,10.1228974,56.8271949
1780800,Birkealle,9574,5,10.1232965,56.827039
1780801,Birkealle,9574,7,10.1229923,56.8269549
1780802,Birkealle,9574,8,10.1224164,56.827035
1780803,Birkealle,9574,9,10.1226879,56.826819
1780804,Birkealle,9574,10,10.1221141,56.8269218
1780805,Birkealle,9574,11,10.122265,56.8266958
1780806,Birkealle,9574,12,10.1217846,56.8268724
1780807,Birkealle,9574,13,10.121904,56.826553
1780808,Birkealle,9574,14,10.1215112,56.8267766
1781005,Nørrebjergvej,9574,1,10.1519133,56.8626316
1781006,Nørrebjergvej,9574,2,10.1527481,56.8617269
1781007,Nørrebjergvej,9574,3,10.1524452,56.8621394
1781008,Nørrebjergvej,9574,4,10.1486904,56.8586616
1781009,Nørrebjergvej,9574,5,10.1521459,56.8599338
1781010,Nørrebjergvej,9574,6,10.1495428,56.8569157
1781011,Nørrebjergvej,9574,7,10.1518665,56.8595508
1781012,Nørrebjergvej,9574,8,10.142016,56.8536737
1781013,Nørrebjergvej,9574,9,10.1517238,56.8592722
1781014,Nørrebjergvej,9574,11,10.1490627,56.8562338
1781015,Nørrebjergvej,9574,13,10.1486459,56.855877
1781733,Østergade,9574,1,10.1215006,56.8302099
1781734,Østergade,9574,2,10.1203064,56.830336
1781735,Østergade,9574,3,10.1224714,56.8300497
1781736,Østergade,9574,4,10.1201251,56.829842
1781737,Østergade,9574,5,10.1229677,56.8299112
1781738,Østergade,9574,6,10.1212418,56.8298465
1781739,Østergade,9574,7,10.1235696,56.8297556
1781740,Østergade,9574,8,10.1209532,56.8301427
1781741,Østergade,9574,9,10.1243969,56.8295603
1781742,Østergade,9574,10A,10.121508,56.8299777
1781743,Østergade,9574,10B,10.1216668,56.8297498
1781744,Østergade,9574,11,10.124677,56.829519
1781745,Østergade,9574,12,10.1219758,56.8299337
1781746,Østergade,9574,13,10.1254802,56.8295349
1781747,Østergade,9574,14,10.1225778,56.829729
1781748,Østergade,9574,15,10.1263782,56.8294519
1781749,Østergade,9574,15B,10.1274578,56.8293631
1781750,Østergade,9574,16,10.1236924,56.8295409
1781751,Østergade,9574,17,10.1301694,56.8287941
1781752,Østergade,9574,18A,10.1241359,56.8293892
1781753,Østergade,9574,18B,10.1243747,56.8292836
1781754,Østergade,9574,20,10.1247058,56.8293925
1781755,Østergade,9574,22,10.1251374,56.8293826
1781756,Østergade,9574,24A,10.1263846,56.8290331
1781757,Østergade,9574,24B,10.1270976,56.8290256
1781758,Østergade,9574,26,10.1280945,56.828661
1781759,Østergade,9574,26B,10.1277901,56.8279876
1781760,Østergade,9574,28,10.1295351,56.8285578
1781810,Ravnborgvej,9574,1,10.1397017,56.809211
1781811,Ravnborgvej,9574,1B,10.141843,56.808954
1781812,Ravnborgvej,9574,2,10.1393881,56.8087532
1781813,Ravnborgvej,9574,3,10.1407066,56.8086306
1781814,Ravnborgvej,9574,4,10.1391027,56.8081969
1781815,Ravnborgvej,9574,5,10.1398537,56.8088266
1781816,Ravnborgvej,9574,6,10.1389883,56.8079565
1781817,Ravnborgvej,9574,7,10.1401242,56.8084264
1781818,Ravnborgvej,9574,7B,10.1403638,56.8086676
1781819,Ravnborgvej,9574,8,10.1394077,56.8077334
1781820,Ravnborgvej,9574,10,10.138969,56.8075627
1781821,Ravnborgvej,9574,10B,10.1391203,56.8071558
1781822,Ravnborgvej,9574,11,10.1399193,56.8075564
1781823,Ravnborgvej,9574,12,10.1393759,56.8073371
1781824,Ravnborgvej,9574,13,10.1415684,56.8067257
1781825,Ravnborgvej,9574,14,10.1396471,56.8072173
1781826,Ravnborgvej,9574,15,10.1407681,56.8069557
1781827,Ravnborgvej,9574,16,10.14001,56.807075
1782207,Udflyttervej,9574,2,10.1459456,56.8274201
1782208,Udflyttervej,9574,4,10.1466653,56.8267225
1782209,Udflyttervej,9574,6,10.1483588,56.8262762
1782210,Udflyttervej,9574,8,10.1537543,56.8245908
1782211,Udflyttervej,9574,10,10.154202,56.823129
1782212,Udflyttervej,9574,12,10.157029,56.822654
1782213,Udflyttervej,9574,14,10.1574573,56.8234266
1782705,Sønderskovvej,9574,6,10.1115983,56.8277964
1782706,Sønderskovvej,9574,8,10.111478,56.827333
1782707,Sønderskovvej,9574,11,10.1130563,56.8211136
1782708,Sønderskovvej,9574,14,10.111797,56.8208812
1782709,Sønderskovvej,9574,15,10.1111815,56.8159634
1782980,Nygade,9574,1,10.1232847,56.8285428
1782981,Nygade,9574,2,10.122955,56.8286645
1782982,Nygade,9574,3,10.1230233,56.8285006
1782983,Nygade,9574,4,10.1222884,56.8287423
1782984,Nygade,9574,5,10.1227577,56.8284521
1782985,Nygade,9574,6,10.122073,56.8285553
1782986,Nygade,9574,7,10.1223223,56.8283968
1782987,Nygade,9574,8,10.1217466,56.8284792
1782988,Nygade,9574,9,10.1218591,56.8283217
1782989,Nygade,9574,10,10.1213423,56.8284244
1782990,Nygade,9574,12,10.1204673,56.828272
1782991,Nygade,9574,13,10.1209721,56.8281372
1782992,Nygade,9574,15,10.1204776,56.8280477
1783020,Fredenslundvej,9574,1,10.138969,56.8093122
1783021,Fredenslundvej,9574,2,10.1386348,56.8090999
1783022,Fredenslundvej,9574,3,10.1393087,56.8093858
1783023,Fredenslundvej,9574,4,10.140415,56.809307
1783024,Fredenslundvej,9574,5,10.1398246,56.8094114
1783025,Fredenslundvej,9574,6,10.1410412,56.8097496
1783026,Fredenslundvej,9574,7,10.139751,56.809816
1783027,Fredenslundvej,9574,8,10.142117,56.8095779
1783028,Fredenslundvej,9574,9,10.140321,56.8097343
1783029,Fredenslundvej,9574,10,10.1416576,56.8098941
1783030,Fredenslundvej,9574,11,10.1407505,56.8102533
1783031,Fredenslundvej,9574,12,10.1413484,56.8101156
1783032,Fredenslundvej,9574,13,10.1410179,56.8102825
1783033,Fredenslundvej,9574,14,10.1423761,56.8102727
1783034,Fredenslundvej,9574,15,10.1413949,56.8104257
1783035,Fredenslundvej,9574,16,10.142796,56.8102213
1783036,Fredenslundvej,9574,18,10.1433032,56.8102797
1783037,Fredenslundvej,9574,25,10.1522773,56.8115886
1783038,Fredenslundvej,9574,27,10.1549941,56.8109271
1785062,Sandtoften,9574,1,10.1175479,56.8309158
1785063,Sandtoften,9574,3,10.1180666,56.8304534
1785064,Sandtoften,9574,4B,10.117178,56.830519
1785065,Sandtoften,9574,5,10.117578,56.830205
1785066,Sandtoften,9574,6,10.1176073,56.8307404
1785067,Sandtoften,9574,7,10.1168861,56.8302152
1785068,Sandtoften,9574,8,10.1176272,56.8305407
1785069,Sandtoften,9574,10,10.1173688,56.8303553
1785183,Kongstedlundvej,9574,1,10.138404,56.86215
1785184,Kongstedlundvej,9574,2,10.1385441,56.8617636
1785185,Kongstedlundvej,9574,4,10.139113,56.862035
1785186,Kongstedlundvej,9574,5B,10.141795,56.864389
1785187,Kongstedlundvej,9574,7,10.148025,56.8678269
1785188,Kongstedlundvej,9574,8,10.1444504,56.8627037
1785189,Kongstedlundvej,9574,9,10.1479209,56.8693442
1785190,Kongstedlundvej,9574,11,10.1482454,56.8692851
1785191,Kongstedlundvej,9574,12,10.1522375,56.8648159
1785192,Kongstedlundvej,9574,13,10.1487252,56.8696518
1785193,Kongstedlundvej,9574,14,10.1526531,56.8659275
1785194,Kongstedlundvej,9574,16,10.1530188,56.8671778
1785195,Kongstedlundvej,9574,18,10.1483787,56.8676299
1795716,Havevej,9574,2,10.1221169,56.8295282
1795717,Havevej,9574,4,10.122205,56.8293404
1795718,Havevej,9574,6,10.1223572,56.8291684
1801367,Elmevej,9574,1,10.1257008,56.8263904
1801720,Elmesvinget,9574,1,10.1068248,56.8308878
1801722,Elmesvinget,9574,2,10.1046323,56.8309233
1801727,Elmesvinget,9574,3,10.1073491,56.8309399
1801729,Elmesvinget,9574,4,10.1059321,56.8311135
1801735,Elmesvinget,9574,5A,10.1078008,56.8309884
1801738,Elmesvinget,9574,5B,10.1077388,56.8311333
1801742,Elmesvinget,9574,6,10.1060323,56.8307842
1801747,Elmesvinget,9574,7,10.108312,56.831022
1801751,Elmesvinget,9574,8,10.105954,56.830547
1801754,Elmesvinget,9574,9,10.1088437,56.8310485
1801756,Elmesvinget,9574,10,10.1060397,56.8301604
1801759,Elmesvinget,9574,11,10.109192,56.8308561
1801760,Elmesvinget,9574,12,10.106421,56.829658
1801762,Elmesvinget,9574,13A,10.1092865,56.8307058
1801764,Elmesvinget,9574,13B,10.109044,56.83069
1801766,Elmesvinget,9574,15,10.1086728,56.8307133
1801769,Elmesvinget,9574,17,10.1082319,56.8307816
1801771,Elmesvinget,9574,19,10.10772,56.830763
1801773,Elmesvinget,9574,21,10.1071749,56.830712
1801774,Elmesvinget,9574,23,10.106806,56.8306574
1801776,Elmesvinget,9574,25,10.1068267,56.8302744
1801778,Elmesvinget,9574,27,10.107328,56.830246
1801780,Elmesvinget,9574,29,10.107873,56.83031
1801783,Elmesvinget,9574,31,10.108435,56.83033
1801785,Elmesvinget,9574,33,10.109043,56.830315
1801787,Elmesvinget,9574,35,10.109175,56.829864
1801789,Elmesvinget,9574,37,10.107875,56.829817
1804479,Bøgevej,9574,1,10.1483575,56.8003062
1804480,Bøgevej,9574,2,10.1490382,56.8001098
1804483,Bøgevej,9574,3,10.1487374,56.8005662
1804485,Bøgevej,9574,4,10.1489723,56.8003151
1804488,Bøgevej,9574,7,10.1498191,56.8006321
1804489,Bøgevej,9574,8,10.1500248,56.8004397
1804491,Bøgevej,9574,9,10.1494289,56.8010724
1804494,Bøgevej,9574,10,10.150258,56.8002167
1804497,Bøgevej,9574,12,10.1506342,56.8002019
1804499,Bøgevej,9574,13,10.150769,56.800419
1804501,Bøgevej,9574,15,10.1511572,56.8002463
1805415,Haelskovvej,9574,1,10.1223426,56.8343533
1805416,Haelskovvej,9574,2,10.1208406,56.838116
1805421,Haelskovvej,9574,3,10.1182663,56.8380939
1805423,Haelskovvej,9574,4,10.123031,56.8428334
1805426,Haelskovvej,9574,5,10.118879,56.8409291
1805431,Haelskovvej,9574,7,10.1157045,56.8428287
1807929,Smidie Byvej,9574,2,10.1370515,56.8614929
1807930,Smidie Byvej,9574,3,10.1375101,56.8611211
1807933,Smidie Byvej,9574,4,10.1371473,56.8610677
1807934,Smidie Byvej,9574,5,10.1375135,56.8609351
1807935,Smidie Byvej,9574,8,10.1367475,56.8606312
1807936,Smidie Byvej,9574,9,10.1388407,56.8606499
1807939,Smidie Byvej,9574,10,10.1374899,56.8605643
1807940,Smidie Byvej,9574,11,10.1388115,56.8607359
1807941,Smidie Byvej,9574,12,10.1375634,56.8604354
1807942,Smidie Byvej,9574,14,10.1376648,56.8602627
1807943,Smidie Byvej,9574,16,10.1386513,56.8602011
1807944,Smidie Byvej,9574,18,10.139619,56.8602613
1807945,Smidie Byvej,9574,20,10.1390914,56.8606469
1807946,Smidie Byvej,9574,24,10.140406,56.8610023
1807947,Smidie Byvej,9574,26,10.1397696,56.8608787
1807948,Smidie Byvej,9574,28,10.139122,56.8608809
1808544,Savværksvej,9574,2,10.1153596,56.8302224
1808545,Savværksvej,9574,3,10.1155731,56.8305881
1808546,Savværksvej,9574,5,10.1157525,56.8303946
1808547,Svanfolkvej,9574,1,10.0910424,56.8391592
1808548,Svanfolkvej,9574,5,10.0887288,56.8433265
1815329,Nørregade,9574,1,10.120721,56.830753
1815334,Nørregade,9574,2,10.1224118,56.8305793
1815337,Nørregade,9574,3,10.1208369,56.8307381
1815344,Nørregade,9574,4,10.1212036,56.8306203
1815347,Nørregade,9574,5,10.1210357,56.8307338
1815353,Nørregade,9574,6,10.1212424,56.8306917
1815359,Nørregade,9574,7A,10.1210822,56.8308264
1815360,Nørregade,9574,7B,10.1211075,56.8308833
1815366,Nørregade,9574,8,10.1213583,56.8308612
1815370,Nørregade,9574,9,10.1211659,56.8309944
1815373,Nørregade,9574,10,10.1214413,56.8310221
1815378,Nørregade,9574,11,10.121237,56.8311643
1815380,Nørregade,9574,12,10.1220211,56.8311003
1815383,Nørregade,9574,14,10.1220632,56.8313668
1815385,Nørregade,9574,16,10.121773,56.8313519
1820728,Dragsgaardsvej,9574,2,10.1247513,56.8298
1820730,Dragsgaardsvej,9574,3,10.128292,56.8320676
1820731,Dragsgaardsvej,9574,4,10.1327792,56.8313211
1820733,Dragsgaardsvej,9574,5,10.1313305,56.83216
1820734,Dragsgaardsvej,9574,6,10.1498296,56.8348329
1820735,Dragsgaardsvej,9574,7,10.1360152,56.834901
1820736,Dragsgaardsvej,9574,8,10.1495227,56.8348608
1820738,Dragsgaardsvej,9574,9,10.1368907,56.8356596
1820740,Dragsgaardsvej,9574,10,10.1495138,56.8349776
1820741,Dragsgaardsvej,9574,11,10.1367487,56.8317631
1820742,Dragsgaardsvej,9574,13,10.1484885,56.83635
1822505,Vestre Skovvej,9574,2,10.113374,56.829639
1822506,Vestre Skovvej,9574,4,10.1132566,56.8293528
1822511,Vestre Skovvej,9574,11,10.1159757,56.8299093
1822514,Vestre Skovvej,9574,12,10.1139026,56.8296153
1822515,Vestre Skovvej,9574,12A,10.113531,56.82922
1822518,Vestre Skovvej,9574,13,10.1156299,56.8298278
1822521,Vestre Skovvej,9574,14,10.1138639,56.8294271
1822525,Vestre Skovvej,9574,16,10.1137693,56.8293069
1822528,Vestre Skovvej,9574,18,10.114102,56.829297
1822530,Vestre Skovvej,9574,20,10.114308,56.829304
1822534,Vestre Skovvej,9574,21,10.1166135,56.8298769
1822535,Vestre Skovvej,9574,22,10.114459,56.829505
1822539,Vestre Skovvej,9574,24,10.114712,56.829506
1822542,Vestre Skovvej,9574,26,10.114944,56.829509
1822543,Vestre Skovvej,9574,28,10.1152,56.829509
1826180,Snerlevej,9574,1,10.1219999,56.8279191
1826181,Snerlevej,9574,2,10.1217539,56.8279731
1826182,Snerlevej,9574,4,10.1218447,56.8277741
1826196,Wiffertsholmvej,9574,8,10.1308266,56.7995366
1826200,Wiffertsholmvej,9574,10,10.1310006,56.7996531
1826208,Wiffertsholmvej,9574,14,10.1343899,56.8069031
1826212,Wiffertsholmvej,9574,16,10.1346541,56.8070608
1826216,Wiffertsholmvej,9574,18,10.1347295,56.8072047
1826218,Wiffertsholmvej,9574,20,10.1351118,56.8074709
1826220,Wiffertsholmvej,9574,22,10.1360711,56.8079709
1826221,Wiffertsholmvej,9574,22B,10.1357932,56.808065
1826223,Wiffertsholmvej,9574,24,10.1369104,56.8077064
1826224,Wiffertsholmvej,9574,26,10.1363353,56.8083892
1826225,Wiffertsholmvej,9574,27,10.1304328,56.8008142
1826227,Wiffertsholmvej,9574,28,10.137372,56.808923
1826230,Wiffertsholmvej,9574,30,10.1378335,56.8081739
1826234,Wiffertsholmvej,9574,31,10.1320116,56.8034956
1826240,Wiffertsholmvej,9574,32,10.1381416,56.8090229
1826242,Wiffertsholmvej,9574,35,10.1310627,56.8055007
1826245,Wiffertsholmvej,9574,39,10.1331173,56.806106
1826247,Wiffertsholmvej,9574,41,10.1333967,56.8064484
1826253,Wiffertsholmvej,9574,43,10.1335673,56.806625
1826257,Wiffertsholmvej,9574,45,10.1336983,56.8067922
1826259,Wiffertsholmvej,9574,47,10.1338695,56.8069403
1826263,Wiffertsholmvej,9574,49,10.1340611,56.8071114
1826269,Wiffertsholmvej,9574,51,10.1343548,56.8074134
1826271,Wiffertsholmvej,9574,53,10.1344432,56.8075674
1826277,Wiffertsholmvej,9574,55,10.1340266,56.8077267
1826282,Wiffertsholmvej,9574,55B,10.1318624,56.8070219
1826284,Wiffertsholmvej,9574,57,10.1341034,56.808378
1826291,Wiffertsholmvej,9574,59,10.1346282,56.8081511
1826296,Wiffertsholmvej,9574,61,10.1351006,56.8079939
1826300,Wiffertsholmvej,9574,63,10.1353132,56.8081459
1826306,Wiffertsholmvej,9574,65,10.1353382,56.8084054
1826311,Wiffertsholmvej,9574,67,10.1360144,56.8085643
1826319,Wiffertsholmvej,9574,69A,10.1362151,56.8089942
1826327,Wiffertsholmvej,9574,69B,10.1367217,56.809137
1826330,Wiffertsholmvej,9574,71,10.1370837,56.8092813
1826341,Wiffertsholmvej,9574,73,10.1374207,56.8094358
1826349,Wiffertsholmvej,9574,75,10.1380492,56.8092637
1827245,Hurupvej,9574,2,10.1362639,56.7997232
1827246,Hurupvej,9574,4,10.1402378,56.8002907
1827247,Hurupvej,9574,6,10.1422516,56.8001714
1827249,Hurupvej,9574,8,10.1440821,56.8000701
1827251,Hurupvej,9574,9,10.1468415,56.8009306
1827254,Hurupvej,9574,10,10.1453398,56.7986463
1827255,Hurupvej,9574,12,10.1469083,56.8001423
1827258,Hurupvej,9574,15,10.1535195,56.799578
1827259,Hurupvej,9574,18,10.1534842,56.7991444
1827261,Hurupvej,9574,19,10.1556825,56.7996118
1827263,Hurupvej,9574,20,10.153404,56.7989273
1827266,Hurupvej,9574,22,10.1533964,56.7987893
1827268,Hurupvej,9574,23,10.1784657,56.8003622
1827271,Hurupvej,9574,28,10.1541046,56.7991153
1827273,Hurupvej,9574,30,10.175776,56.7990667
2149531,Møllevangen,9574,1,10.1100225,56.8317141
2149534,Møllevangen,9574,3,10.1098493,56.8315254
2149542,Møllevangen,9574,5,10.1097132,56.8315267
2149545,Møllevangen,9574,7,10.1095937,56.8315278
2149553,Møllevangen,9574,9,10.1093728,56.8314838
2149561,Møllevangen,9574,11,10.1093772,56.8315451
2149568,Møllevangen,9574,13,10.1093795,56.8315983
2149574,Møllevangen,9574,15,10.109384,56.8316419
2149577,Møllevangen,9574,17,10.1093936,56.8316869
2149585,Møllevangen,9574,19,10.1093985,56.8317224
2149593,Møllevangen,9574,21,10.1094033,56.8317618
2149599,Møllevangen,9574,23,10.1094103,56.8318163
2149603,Møllevangen,9574,25,10.1094098,56.8318942
2149608,Møllevangen,9574,27,10.109414,56.83195
2149618,Møllevangen,9574,29,10.1094136,56.8320426
2149629,Møllevangen,9574,31,10.1094127,56.8321476
2149631,Møllevangen,9574,33,10.1094176,56.8321994
2149641,Møllevangen,9574,35,10.1093515,56.8323103
2149644,Møllevangen,9574,37,10.1094154,56.832316
2149655,Møllevangen,9574,39,10.1094838,56.8323208
2149666,Møllevangen,9574,41,10.1095678,56.8323262
2149668,Møllevangen,9574,43,10.1096415,56.8323353
2149679,Møllevangen,9574,45,10.1097121,56.8323383
2149681,Møllevangen,9574,47,10.1095693,56.8321971
2149693,Møllevangen,9574,49,10.1095696,56.8321426
2149703,Møllevangen,9574,51,10.1095751,56.8320417
2149705,Møllevangen,9574,53,10.1099495,56.8318651
2149713,Møllevangen,9574,55,10.1099539,56.831932
2149715,Møllevangen,9574,57,10.1099586,56.8319961
2149723,Møllevangen,9574,59,10.109966,56.832058
2149729,Møllevangen,9574,61,10.1099699,56.832112
2149732,Møllevangen,9574,63,10.1099746,56.8321814
2149739,Møllevangen,9574,65,10.1099762,56.8323069
2149742,Møllevangen,9574,67,10.109975,56.832381
2149746,Møllevangen,9574,71,10.109874,56.832522
2149751,Møllevangen,9574,73,10.1098756,56.8326237
2149752,Møllevangen,9574,75,10.1096845,56.8327478
2149757,Møllevangen,9574,77,10.1095255,56.8327507
2149758,Møllevangen,9574,79,10.109448,56.83264
2149763,Møllevangen,9574,81,10.109431,56.8325368
2232467,Skovhusevej,9574,2A,10.112677,56.831047
2232468,Skovhusevej,9574,2B,10.112654,56.8309714
2233096,Stationsvej,9574,43,10.125338,56.826778
2233618,Udflyttervej,9574,6A,10.147569,56.826332
2233978,Wiffertsholmvej,9574,22C,10.1365258,56.8081011
2256379,Skolevej,9574,4,10.112758,56.832261
