idx,street,postcode,housenumber,lon,lat
1734980,Torvegade,9631,3,9.3353919,56.6897508
1734983,Torvegade,9631,4,9.3345023,56.6897506
1734984,Torvegade,9631,5,9.3350799,56.689697
1734985,Torvegade,9631,5B,9.3352559,56.689235
1734987,Torvegade,9631,5D,9.3340444,56.6879539
1734989,Torvegade,9631,6,9.334254,56.6897556
1734990,Torvegade,9631,7,9.3345862,56.6896084
1734992,Torvegade,9631,8,9.3340075,56.6897599
1734993,Torvegade,9631,9,9.3340016,56.6896144
1734995,Torvegade,9631,11,9.3336874,56.6894549
1734997,Torvegade,9631,13,9.3334033,56.6894659
1735738,Bystrupvej,9631,1,9.3627129,56.6725986
1735739,Bystrupvej,9631,2,9.363519,56.672644
1735740,Bystrupvej,9631,7,9.364317,56.6734709
1735741,Bystrupvej,9631,8,9.364889,56.673488
1735742,Bystrupvej,9631,10,9.365905,56.67386
1735743,Bystrupvej,9631,14,9.3667994,56.6747817
1735744,Bystrupvej,9631,16,9.3684369,56.6766371
1735745,Bystrupvej,9631,18,9.3636087,56.6750056
1735746,Bystrupvej,9631,20,9.3627637,56.6748582
1738600,Vibevej,9631,1,9.3294329,56.6916922
1742568,Flyndervej,9631,3,9.326719,56.668473
1742571,Flyndervej,9631,5,9.326762,56.668716
1743170,Hybenvej,9631,1,9.3344762,56.6915279
1743171,Hybenvej,9631,2,9.3351479,56.6916772
1743172,Hybenvej,9631,3,9.3340033,56.6918688
1743173,Hybenvej,9631,4,9.3348688,56.6917916
1743174,Hybenvej,9631,6,9.3345893,56.6918665
1743175,Hybenvej,9631,8,9.33431,56.6919324
1743176,Hybenvej,9631,10,9.3341127,56.691982
1747648,Nørrevangen,9631,1,9.3452301,56.6905536
1747653,Nørrevangen,9631,2,9.3466679,56.6906166
1747655,Nørrevangen,9631,3,9.3453294,56.6907386
1747661,Nørrevangen,9631,4A,9.3484702,56.6907977
1747671,Nørrevangen,9631,4B,9.3489573,56.6913086
1747674,Nørrevangen,9631,6,9.3491872,56.6922101
1747682,Nørrevangen,9631,7,9.3465624,56.6917358
1747683,Nørrevangen,9631,8,9.3503437,56.6924234
1747691,Nørrevangen,9631,10,9.3503133,56.6914927
1747703,Nørrevangen,9631,14,9.3509784,56.6910437
1747710,Nørrevangen,9631,15,9.3487929,56.6932676
1747712,Nørrevangen,9631,16,9.352002,56.691408
1747719,Nørrevangen,9631,17,9.352156,56.693499
1747722,Nørrevangen,9631,18,9.351247,56.6917348
1747730,Nørrevangen,9631,24,9.3520661,56.693131
1747732,Nørrevangen,9631,25,9.345939,56.697572
1747734,Nørrevangen,9631,27,9.3561022,56.7004221
1747736,Nørrevangen,9631,51,9.3612481,56.6967168
1748390,Tværgade,9631,1,9.337616,56.689811
1748393,Tværgade,9631,1A,9.337597,56.689783
1748394,Tværgade,9631,1B,9.337578,56.68975
1748397,Tværgade,9631,2,9.337425,56.68984
1748398,Tværgade,9631,3,9.3375138,56.6896284
1748400,Tværgade,9631,4,9.3373319,56.689713
1748402,Tværgade,9631,5,9.3373887,56.6894908
1748404,Tværgade,9631,6,9.3371794,56.6894989
1748405,Tværgade,9631,7,9.3373063,56.6893958
1748406,Tværgade,9631,8,9.3370253,56.6893485
1748407,Tværgade,9631,9,9.3371954,56.6892764
1748409,Tværgade,9631,10,9.3369173,56.6892355
1748411,Tværgade,9631,11,9.3370588,56.6891368
1748412,Tværgade,9631,11B,9.3386877,56.6889034
1748413,Tværgade,9631,13,9.3368549,56.688845
1749649,Bøgevænget,9631,1,9.338789,56.686406
1749653,Bøgevænget,9631,2,9.3385612,56.6865482
1749654,Bøgevænget,9631,3,9.338672,56.685964
1749658,Bøgevænget,9631,4,9.3384909,56.6862575
1749661,Bøgevænget,9631,5,9.3386243,56.6857368
1749663,Bøgevænget,9631,6,9.3383448,56.6858081
1749667,Bøgevænget,9631,7,9.338539,56.6855083
1749668,Bøgevænget,9631,8,9.33829,56.6855517
1749671,Bøgevænget,9631,9,9.3384811,56.6851859
1749673,Bøgevænget,9631,10,9.3381873,56.6851879
1752133,Carl Petersensgade,9631,1,9.333552,56.689806
1752134,Carl Petersensgade,9631,2,9.3339462,56.689913
1752135,Carl Petersensgade,9631,3,9.3338395,56.6901671
1752136,Carl Petersensgade,9631,4,9.3340335,56.6900601
1758365,Sønderbyvej,9631,2,9.3304355,56.6896097
1758368,Sønderbyvej,9631,5,9.3312637,56.6883996
1758370,Sønderbyvej,9631,5A,9.3304982,56.68918
1758372,Sønderbyvej,9631,5B,9.3310984,56.688594
1758373,Sønderbyvej,9631,7,9.3303999,56.6893642
1758374,Sønderbyvej,9631,9,9.3301133,56.6895738
1758378,Sønderbyvej,9631,11,9.330086,56.6897954
1761234,Vesterbro,9631,1,9.3349991,56.6900251
1761236,Vesterbro,9631,2,9.3356775,56.6901663
1761237,Vesterbro,9631,4,9.33514,56.6903012
1761239,Vesterbro,9631,5,9.3345094,56.690206
1761241,Vesterbro,9631,6,9.334821,56.6903864
1761243,Vesterbro,9631,7,9.3343035,56.6902707
1761244,Vesterbro,9631,8,9.3345346,56.6904137
1761247,Vesterbro,9631,9,9.3338877,56.6903751
1761248,Vesterbro,9631,10,9.3341113,56.6905302
1761250,Vesterbro,9631,10A,9.3340133,56.6905231
1761251,Vesterbro,9631,10B,9.3338496,56.6905622
1761252,Vesterbro,9631,10C,9.3340194,56.6905688
1761253,Vesterbro,9631,10D,9.3338732,56.6905957
1761255,Vesterbro,9631,11,9.3336445,56.6904332
1761257,Vesterbro,9631,12,9.3336614,56.6905932
1761259,Vesterbro,9631,13,9.333459,56.6904721
1761260,Vesterbro,9631,15,9.3333344,56.6905015
1761263,Vesterbro,9631,16,9.333406,56.690697
1761264,Vesterbro,9631,16A,9.3331513,56.6908006
1761267,Vesterbro,9631,16B,9.3329272,56.6908358
1761269,Vesterbro,9631,17,9.3331666,56.6905388
1761271,Vesterbro,9631,18A,9.3325182,56.691031
1761272,Vesterbro,9631,18B,9.332579,56.6911303
1761273,Vesterbro,9631,19,9.3326585,56.6904421
1761274,Vesterbro,9631,19A,9.3315316,56.6907569
1761275,Vesterbro,9631,20,9.3322456,56.6913861
1761276,Vesterbro,9631,21,9.332388,56.6907811
1761277,Vesterbro,9631,22,9.3317586,56.6914638
1761278,Vesterbro,9631,23,9.3322239,56.6909297
1761279,Vesterbro,9631,25,9.3316986,56.6909173
1761280,Vesterbro,9631,27,9.331403,56.6910432
1761281,Vesterbro,9631,27A,9.331255,56.6912566
1761282,Vesterbro,9631,27B,9.3310395,56.6911218
1761283,Vesterbro,9631,30,9.3304705,56.692124
1761284,Vesterbro,9631,30A,9.3299379,56.6923756
1761285,Vesterbro,9631,31,9.3306618,56.691523
1761286,Vesterbro,9631,32,9.3296305,56.6922786
1761287,Vesterbro,9631,33,9.3304538,56.6916038
1761288,Vesterbro,9631,34,9.3291308,56.6924613
1761289,Vesterbro,9631,35,9.3302378,56.691681
1761291,Vesterbro,9631,38B,9.325052,56.6944143
1761293,Vesterbro,9631,39,9.328512,56.6922899
1761295,Vesterbro,9631,40A,9.3252309,56.6957373
1761297,Vesterbro,9631,40B,9.3261852,56.6953974
1761298,Vesterbro,9631,42,9.3247155,56.6961579
1761299,Vesterbro,9631,44,9.3251846,56.6966083
1761300,Vesterbro,9631,46,9.3254814,56.6992029
1761301,Vesterbro,9631,56,9.3182187,56.695895
1761302,Vesterbro,9631,58,9.3170137,56.6963194
1761308,Højagervej,9631,2,9.3436697,56.686481
1761310,Højagervej,9631,3,9.3434416,56.6869452
1761312,Højagervej,9631,4,9.343816,56.686806
1761313,Højagervej,9631,5,9.3435307,56.6871507
1761314,Højagervej,9631,6,9.3439149,56.6870111
1761316,Højagervej,9631,7,9.3436925,56.6875609
1761317,Højagervej,9631,8,9.3440378,56.6872259
1761318,Højagervej,9631,10,9.3442178,56.6875741
1762125,Højdevej,9631,1,9.338298,56.6874541
1762129,Højdevej,9631,2,9.3385101,56.687278
1762131,Højdevej,9631,3,9.3385564,56.6875577
1762134,Højdevej,9631,4,9.3388609,56.6873438
1762135,Højdevej,9631,5,9.3388281,56.6876515
1762136,Højdevej,9631,6,9.3390802,56.6874426
1762139,Højdevej,9631,7,9.3399299,56.6879437
1762141,Højdevej,9631,8,9.3393497,56.6874925
1762143,Højdevej,9631,9,9.3403028,56.6879718
1762145,Højdevej,9631,10,9.3398262,56.6876752
1762146,Højdevej,9631,11,9.3406181,56.687961
1762150,Højdevej,9631,12,9.3404336,56.6876667
1762152,Højdevej,9631,13,9.3410031,56.6879068
1762154,Højdevej,9631,14,9.3408179,56.6876412
1762158,Højdevej,9631,15,9.3412648,56.6878874
1762160,Højdevej,9631,16,9.3411826,56.6876127
1762162,Højdevej,9631,17,9.3417011,56.6878083
1762164,Højdevej,9631,18,9.3415677,56.6875549
1762165,Højdevej,9631,19,9.3420332,56.6877221
1762167,Højdevej,9631,20,9.341963,56.687493
1762168,Højdevej,9631,21,9.3424314,56.6876589
1762169,Højdevej,9631,22,9.3422724,56.6874457
1762170,Højdevej,9631,23,9.3427737,56.6876178
1762171,Højdevej,9631,24,9.3426043,56.6873668
1762173,Højdevej,9631,25,9.3432455,56.6875499
1762174,Højdevej,9631,26,9.3430721,56.6873284
1763996,Ålevænget,9631,4,9.328954,56.667288
1763998,Ålevænget,9631,5,9.327054,56.667569
1764001,Ålevænget,9631,7,9.328341,56.667633
1764002,Ålevænget,9631,8,9.330378,56.668637
1764004,Ålevænget,9631,8B,9.331099,56.668399
1764006,Ålevænget,9631,9,9.329247,56.667901
1764008,Ålevænget,9631,11,9.329221,56.667686
1764009,Ålevænget,9631,15,9.3298946,56.6686758
1764248,Enebærvej,9631,1,9.3302408,56.6869674
1764250,Enebærvej,9631,2,9.3294726,56.6870679
1764251,Enebærvej,9631,3,9.3301847,56.6868816
1764252,Enebærvej,9631,4,9.3292519,56.6867876
1764253,Enebærvej,9631,5,9.3301084,56.68674
1764254,Enebærvej,9631,7,9.3300536,56.6866551
1764255,Enebærvej,9631,9,9.3299613,56.6871636
1764256,Enebærvej,9631,11,9.3298941,56.687058
1764257,Enebærvej,9631,13,9.3298267,56.6869541
1764259,Enebærvej,9631,15,9.329761,56.6868502
1764260,Enebærvej,9631,17,9.3296938,56.6867455
1764261,Enebærvej,9631,19,9.3298036,56.6867239
1764262,Enebærvej,9631,21,9.3296421,56.6864863
1764881,Vejgrenen,9631,1,9.3614411,56.713198
1764883,Vejgrenen,9631,2,9.3614605,56.7129638
1764885,Vejgrenen,9631,3,9.3618012,56.7135944
1764886,Vejgrenen,9631,4,9.361808,56.7129756
1764889,Vejgrenen,9631,6,9.3621577,56.7129668
1764891,Vejgrenen,9631,8,9.3618759,56.7131846
1766968,Enghavevej,9631,1,9.3341751,56.6907268
1766969,Enghavevej,9631,2,9.3344738,56.6906063
1766970,Enghavevej,9631,3A,9.3340158,56.690995
1766971,Enghavevej,9631,3B,9.3340389,56.6910517
1766972,Enghavevej,9631,3C,9.3340741,56.6911373
1766973,Enghavevej,9631,3D,9.3340986,56.6911941
1766974,Enghavevej,9631,4A,9.3344228,56.6908008
1766975,Enghavevej,9631,4B,9.3345299,56.6910613
1766976,Enghavevej,9631,5,9.3325994,56.6915184
1766977,Enghavevej,9631,5B,9.3327797,56.6914712
1766978,Enghavevej,9631,6,9.3344907,56.6913052
1766979,Enghavevej,9631,6A,9.3351269,56.6913698
1766980,Enghavevej,9631,7,9.3323329,56.6915935
1766983,Enghavevej,9631,8,9.3340725,56.6916062
1766987,Enghavevej,9631,9,9.3318834,56.6920289
1766989,Enghavevej,9631,10,9.333771,56.691526
1766991,Enghavevej,9631,11,9.3316054,56.6921668
1766992,Enghavevej,9631,12,9.3329962,56.6915694
1766993,Enghavevej,9631,13,9.3312157,56.6922686
1766994,Enghavevej,9631,14,9.3327061,56.6917331
1766995,Enghavevej,9631,15,9.3309505,56.6924119
1766996,Enghavevej,9631,16,9.332495,56.691801
1766997,Enghavevej,9631,17,9.3305994,56.6925472
1766998,Enghavevej,9631,18,9.3320911,56.6922534
1766999,Enghavevej,9631,19,9.330192,56.692635
1767001,Enghavevej,9631,20,9.3317241,56.6926545
1767005,Enghavevej,9631,20A,9.3313972,56.6924946
1767006,Enghavevej,9631,20B,9.3310616,56.6926436
1767010,Enghavevej,9631,21,9.329921,56.6928083
1767011,Enghavevej,9631,22,9.3307666,56.6927489
1767012,Enghavevej,9631,23,9.3295729,56.6929428
1767013,Enghavevej,9631,24,9.3304461,56.692828
1767014,Enghavevej,9631,25,9.3293146,56.6927197
1767015,Enghavevej,9631,26,9.330175,56.6929505
1767016,Enghavevej,9631,27,9.3295881,56.6925711
1767017,Enghavevej,9631,28,9.3299,56.693039
1767018,Enghavevej,9631,34,9.32861,56.692785
1767060,Langagervej,9631,1,9.3373763,56.6885099
1767061,Langagervej,9631,3,9.3377517,56.688451
1767062,Langagervej,9631,5,9.3380911,56.6883945
1767063,Langagervej,9631,6,9.3379246,56.68828
1767064,Langagervej,9631,7,9.3384239,56.6883416
1767065,Langagervej,9631,8,9.3383113,56.6882221
1767066,Langagervej,9631,9,9.3386648,56.6883051
1767067,Langagervej,9631,10,9.3382439,56.6878937
1767068,Langagervej,9631,11,9.3390392,56.6882219
1767069,Langagervej,9631,12,9.3387058,56.6880646
1767070,Langagervej,9631,13,9.3394821,56.6880226
1767071,Langagervej,9631,14,9.3390207,56.6878256
1767072,Langagervej,9631,15,9.3400782,56.687414
1767073,Langagervej,9631,16,9.339374,56.6870849
1767074,Langagervej,9631,17,9.3404519,56.6872986
1767075,Langagervej,9631,19,9.3407742,56.6872671
1767077,Langagervej,9631,20,9.342779,56.686598
1767080,Langagervej,9631,21,9.3410688,56.6871762
1767082,Langagervej,9631,22,9.3432094,56.6865427
1767084,Langagervej,9631,23,9.3414304,56.687207
1767086,Langagervej,9631,27,9.3421751,56.6870084
1767088,Langagervej,9631,29,9.3424842,56.6870478
1767089,Langagervej,9631,31,9.3429208,56.6868942
1768453,Blaabærvej,9631,1,9.3290183,56.6872123
1768454,Blaabærvej,9631,2,9.3287882,56.6874448
1768456,Blaabærvej,9631,3,9.3286819,56.6869777
1768458,Blaabærvej,9631,4,9.328539,56.6872514
1768460,Blaabærvej,9631,5,9.3283745,56.6868252
1768462,Blaabærvej,9631,6,9.3283155,56.6870654
1768464,Blaabærvej,9631,8,9.3277555,56.6869017
1768466,Blaabærvej,9631,10,9.3274624,56.6866962
1768468,Blaabærvej,9631,12,9.3273488,56.6863782
1768470,Blaabærvej,9631,14,9.3270693,56.6862196
1769560,Laksevej,9631,1,9.324347,56.667555
1769561,Laksevej,9631,2,9.325463,56.667897
1769562,Laksevej,9631,3,9.324368,56.667977
1769563,Laksevej,9631,4,9.325208,56.668254
1769564,Laksevej,9631,5,9.324291,56.66839
1769566,Laksevej,9631,6,9.325005,56.66854
1769567,Laksevej,9631,7,9.323813,56.668547
1769569,Laksevej,9631,8,9.325374,56.669049
1769571,Laksevej,9631,9,9.32371,56.668753
1769573,Laksevej,9631,10,9.32599,56.668296
1769574,Laksevej,9631,11,9.323638,56.668982
1770125,Kærtoftvejen,9631,12,9.3296931,56.6775625
1770127,Kærtoftvejen,9631,16,9.332009,56.676782
1770129,Kærtoftvejen,9631,20,9.3328852,56.6763587
1770131,Kærtoftvejen,9631,26,9.3353007,56.6765109
1770798,Nørrevold,9631,1,9.3360814,56.6910849
1770801,Nørrevold,9631,2,9.3362525,56.6908591
1770803,Nørrevold,9631,2B,9.3364988,56.6903923
1770804,Nørrevold,9631,3,9.3366845,56.6911196
1770805,Nørrevold,9631,4,9.3364456,56.6908418
1770806,Nørrevold,9631,5,9.3368529,56.691051
1770807,Nørrevold,9631,6,9.3368277,56.690775
1770808,Nørrevold,9631,7,9.3371554,56.6910301
1770809,Nørrevold,9631,9,9.337435,56.691309
1772594,Nørregade,9631,1,9.3354302,56.6905522
1772595,Nørregade,9631,2,9.3356125,56.6904523
1772596,Nørregade,9631,3,9.3355235,56.6907237
1772597,Nørregade,9631,4,9.3356917,56.6905993
1772598,Nørregade,9631,5,9.3355118,56.6908494
1772599,Nørregade,9631,5A,9.3353198,56.690828
1772600,Nørregade,9631,6,9.3357727,56.6907375
1772602,Nørregade,9631,7,9.3355008,56.690949
1772603,Nørregade,9631,8,9.3357496,56.6909833
1772604,Nørregade,9631,9,9.3353757,56.6911105
1772605,Nørregade,9631,10,9.335654,56.6911379
1772606,Nørregade,9631,11,9.335503,56.6915256
1772607,Nørregade,9631,13A,9.336166,56.691351
1772608,Nørregade,9631,15,9.3364833,56.6913703
1772609,Nørregade,9631,17,9.336867,56.691382
1772658,Makrelvej,9631,3,9.3286254,56.6687415
1772659,Makrelvej,9631,5,9.3293439,56.6687115
1773631,Fjordvej,9631,3,9.364849,56.6636941
1773632,Fjordvej,9631,8,9.3676262,56.6645671
1773633,Fjordvej,9631,21,9.3632005,56.667392
1773634,Fjordvej,9631,28,9.3720352,56.6669011
1773635,Fjordvej,9631,30,9.3748883,56.6667102
1773636,Fjordvej,9631,36,9.3694433,56.6695379
1773637,Fjordvej,9631,47,9.36049,56.671628
1773638,Fjordvej,9631,64,9.3589719,56.6755499
1773639,Fjordvej,9631,79,9.3507319,56.6762936
1773640,Fjordvej,9631,97,9.3467292,56.6766082
1773641,Fjordvej,9631,98,9.3478921,56.6786622
1773642,Fjordvej,9631,111,9.3420523,56.6765752
1773643,Fjordvej,9631,151,9.3241857,56.6825703
1773875,Skovbakken,9631,1,9.3284245,56.6911467
1773876,Skovbakken,9631,1A,9.328687,56.6912216
1773877,Skovbakken,9631,2,9.3280312,56.6913203
1773878,Skovbakken,9631,3,9.3282901,56.690992
1773879,Skovbakken,9631,4,9.327943,56.691162
1773880,Skovbakken,9631,6,9.3278554,56.6910063
1773881,Skovbakken,9631,7,9.3280152,56.6906034
1773882,Skovbakken,9631,8,9.3277487,56.6907332
1773883,Skovbakken,9631,10,9.3271262,56.6909966
1776763,Karen Margrethes Vej,9631,1,9.32693,56.663211
1776765,Karen Margrethes Vej,9631,2,9.326693,56.66294
1776766,Karen Margrethes Vej,9631,3,9.327516,56.663252
1776767,Karen Margrethes Vej,9631,4,9.327333,56.662793
1776768,Karen Margrethes Vej,9631,5,9.328105,56.663212
1776769,Karen Margrethes Vej,9631,6,9.327891,56.66269
1776770,Karen Margrethes Vej,9631,7,9.328761,56.663065
1776771,Karen Margrethes Vej,9631,8,9.328544,56.662668
1776772,Karen Margrethes Vej,9631,9,9.329186,56.663042
1776773,Karen Margrethes Vej,9631,10,9.329135,56.662647
1776774,Karen Margrethes Vej,9631,11,9.329808,56.662948
1776775,Karen Margrethes Vej,9631,12,9.329594,56.662443
1776776,Karen Margrethes Vej,9631,13,9.330451,56.663058
1776777,Karen Margrethes Vej,9631,14,9.330069,56.662376
1776778,Karen Margrethes Vej,9631,15,9.331006,56.662803
1776779,Karen Margrethes Vej,9631,16,9.330626,56.662391
1776780,Karen Margrethes Vej,9631,17,9.331478,56.662747
1776781,Karen Margrethes Vej,9631,18,9.331263,56.662233
1776782,Karen Margrethes Vej,9631,19,9.332032,56.662742
1776783,Karen Margrethes Vej,9631,20,9.331866,56.662265
1776827,Tjørnevej,9631,1,9.3331562,56.6917458
1776828,Tjørnevej,9631,2,9.3336338,56.6918299
1776829,Tjørnevej,9631,3,9.3329613,56.6918987
1776830,Tjørnevej,9631,5,9.3331928,56.6920156
1776831,Tjørnevej,9631,6,9.3337578,56.6920616
1776832,Tjørnevej,9631,7A,9.3334894,56.6920962
1776833,Tjørnevej,9631,7B,9.3336137,56.6922661
1776834,Tjørnevej,9631,9,9.333532,56.6925026
1776835,Tjørnevej,9631,11,9.3337275,56.6926336
1776836,Tjørnevej,9631,13,9.3342585,56.6925086
1776837,Tjørnevej,9631,15,9.3345936,56.6924234
1776838,Tjørnevej,9631,19,9.335074,56.6925217
1778451,Tyttebærvej,9631,1,9.3282613,56.6879074
1778452,Tyttebærvej,9631,2,9.3280448,56.6882397
1778453,Tyttebærvej,9631,3,9.3278438,56.6879524
1778454,Tyttebærvej,9631,4,9.3276195,56.688449
1778455,Tyttebærvej,9631,5,9.3273777,56.6881632
1778456,Tyttebærvej,9631,6,9.3271954,56.6886179
1778457,Tyttebærvej,9631,7,9.327238,56.6879626
1778458,Tyttebærvej,9631,8,9.3268022,56.688726
1778459,Tyttebærvej,9631,9,9.3274557,56.6877058
1778460,Tyttebærvej,9631,10,9.3262736,56.6887808
1778461,Tyttebærvej,9631,11,9.3280201,56.6875991
1778462,Tyttebærvej,9631,12,9.3258926,56.6888073
1778463,Tyttebærvej,9631,13,9.3266583,56.6884463
1778464,Tyttebærvej,9631,14,9.3253656,56.6887992
1778465,Tyttebærvej,9631,15,9.3267214,56.6881729
1778466,Tyttebærvej,9631,16,9.3248727,56.6888562
1778467,Tyttebærvej,9631,17,9.3267789,56.6879192
1778468,Tyttebærvej,9631,19,9.3262092,56.6885136
1778469,Tyttebærvej,9631,21,9.3260379,56.688159
1778470,Tyttebærvej,9631,23,9.3255163,56.6885418
1778471,Tyttebærvej,9631,25,9.3255411,56.6882402
1778472,Tyttebærvej,9631,27,9.325139,56.6885539
1778473,Tyttebærvej,9631,29,9.3247905,56.688586
1778582,Søndertoften,9631,1,9.3367774,56.6882103
1778583,Søndertoften,9631,2,9.3365665,56.6884627
1778584,Søndertoften,9631,3,9.336659,56.6881851
1778585,Søndertoften,9631,4,9.3364562,56.6884357
1778586,Søndertoften,9631,5,9.3365093,56.6881667
1778587,Søndertoften,9631,6,9.3363127,56.688432
1778588,Søndertoften,9631,7,9.3363811,56.6881414
1778589,Søndertoften,9631,8,9.3361959,56.6884084
1778590,Søndertoften,9631,9,9.3362261,56.6880808
1778591,Søndertoften,9631,10,9.3359682,56.6883768
1778592,Søndertoften,9631,11,9.3360887,56.6880887
1778593,Søndertoften,9631,12,9.3357916,56.6883871
1778594,Søndertoften,9631,13,9.3359722,56.6881129
1778595,Søndertoften,9631,15,9.3358463,56.6881226
1778596,Søndertoften,9631,17,9.3357425,56.688154
1778597,Søndertoften,9631,19,9.3355921,56.6881636
1778598,Bakkevej,9631,1,9.3309323,56.6910051
1778599,Bakkevej,9631,2,9.330663,56.691291
1778600,Bakkevej,9631,4,9.3299001,56.6917257
1778601,Bakkevej,9631,5,9.330721,56.690606
1778602,Bakkevej,9631,6,9.329233,56.691562
1778603,Bakkevej,9631,7,9.330418,56.690782
1778604,Bakkevej,9631,8,9.328533,56.691637
1778605,Bakkevej,9631,9,9.330245,56.690919
1778606,Bakkevej,9631,10,9.328146,56.691687
1778607,Bakkevej,9631,11,9.330013,56.690982
1778608,Bakkevej,9631,12,9.327756,56.691673
1778609,Bakkevej,9631,13,9.3297285,56.6910947
1778611,Bakkevej,9631,14,9.327433,56.691815
1778612,Bakkevej,9631,15,9.32941,56.691256
1778615,Bakkevej,9631,17,9.329083,56.691357
1778616,Bakkevej,9631,21,9.327611,56.69148
1778618,Bakkevej,9631,23,9.327076,56.691576
1779084,Anna Maries Vej,9631,1,9.326836,56.6619083
1779085,Anna Maries Vej,9631,2,9.326798,56.661522
1779086,Anna Maries Vej,9631,3,9.327572,56.661834
1779087,Anna Maries Vej,9631,4,9.327386,56.661473
1779088,Anna Maries Vej,9631,5,9.327983,56.661729
1779089,Anna Maries Vej,9631,6,9.327945,56.661325
1779090,Anna Maries Vej,9631,7,9.328747,56.661817
1779091,Anna Maries Vej,9631,8,9.328551,56.661231
1779092,Anna Maries Vej,9631,9,9.329385,56.661741
1779093,Anna Maries Vej,9631,10,9.329141,56.661146
1779094,Anna Maries Vej,9631,11,9.329844,56.661637
1779095,Anna Maries Vej,9631,12,9.329761,56.661134
1779096,Anna Maries Vej,9631,13,9.330433,56.661588
1779097,Anna Maries Vej,9631,14,9.330272,56.660904
1779098,Anna Maries Vej,9631,15,9.330995,56.661613
1779099,Anna Maries Vej,9631,16,9.330857,56.660981
1779100,Anna Maries Vej,9631,17,9.331531,56.661382
1779101,Anna Maries Vej,9631,18,9.331394,56.66103
1779537,Mosegaardsvej,9631,31,9.3734337,56.699278
1779538,Mosegaardsvej,9631,48,9.3715029,56.7022104
1779539,Mosegaardsvej,9631,51,9.370302,56.703146
1779540,Mosegaardsvej,9631,68,9.3668754,56.7060154
1782214,Korsholmvej,9631,21,9.3628481,56.6791589
1782215,Korsholmvej,9631,23,9.3621101,56.6796926
1782216,Korsholmvej,9631,25,9.3640316,56.6794973
1782217,Korsholmvej,9631,26,9.3677155,56.6794632
1782218,Korsholmvej,9631,51,9.3645514,56.6859467
1782219,Korsholmvej,9631,62,9.3678528,56.6871151
1782220,Korsholmvej,9631,64,9.3678607,56.6884677
1782221,Korsholmvej,9631,114,9.3648703,56.6989261
1782222,Korsholmvej,9631,123,9.3638458,56.700362
1782223,Korsholmvej,9631,128,9.3640934,56.7013637
1782224,Korsholmvej,9631,132,9.3642252,56.7021111
1782225,Korsholmvej,9631,139,9.3598588,56.704314
1782226,Korsholmvej,9631,140,9.3646401,56.7041776
1782227,Korsholmvej,9631,146,9.364823,56.7054608
1782228,Korsholmvej,9631,150,9.3653552,56.706806
1782229,Korsholmvej,9631,152,9.3657635,56.7072908
1782230,Korsholmvej,9631,153,9.3650043,56.707166
1782231,Korsholmvej,9631,170,9.366038,56.711191
1782232,Korsholmvej,9631,172,9.366281,56.711465
1782233,Korsholmvej,9631,174,9.365573,56.711663
1782234,Korsholmvej,9631,175,9.3650282,56.7121969
1782235,Korsholmvej,9631,177,9.3653725,56.7124494
1782236,Korsholmvej,9631,178,9.3808083,56.7158974
1782237,Korsholmvej,9631,179,9.365544,56.712692
1782238,Korsholmvej,9631,180,9.381464,56.718458
1782239,Korsholmvej,9631,181,9.3656016,56.7129246
1782240,Korsholmvej,9631,183,9.3656944,56.7132424
1782241,Korsholmvej,9631,185,9.3657274,56.713469
1782242,Korsholmvej,9631,218,9.3741077,56.7197491
1782243,Korsholmvej,9631,226,9.3799735,56.7203079
1782244,Korsholmvej,9631,243,9.3681013,56.7264891
1782245,Korsholmvej,9631,253,9.3781688,56.7272858
1782246,Korsholmvej,9631,257,9.3773688,56.7283778
1782247,Korsholmvej,9631,260,9.3798836,56.7278706
1782248,Korsholmvej,9631,270,9.3879958,56.7298504
1782450,Porsevej,9631,2,9.3277174,56.6897504
1782451,Porsevej,9631,3,9.3284663,56.6887507
1782452,Porsevej,9631,4,9.3277533,56.68951
1782453,Porsevej,9631,6,9.3279,56.688812
1782454,Porsevej,9631,10,9.3264636,56.6865756
1782775,Skovvej,9631,1,9.3331357,56.6896466
1782776,Skovvej,9631,2,9.3331032,56.6898179
1782777,Skovvej,9631,3,9.3327909,56.6896626
1782778,Skovvej,9631,4,9.3322476,56.6898916
1782779,Skovvej,9631,5,9.3325111,56.6896298
1782780,Skovvej,9631,6,9.3310328,56.6900278
1782781,Skovvej,9631,7,9.3311863,56.6897301
1782782,Skovvej,9631,8,9.3302373,56.6901658
1782783,Skovvej,9631,9,9.330676,56.689826
1782784,Skovvej,9631,11,9.3303986,56.6898259
1782785,Skovvej,9631,13,9.329673,56.6898
1782786,Skovvej,9631,15,9.329461,56.689734
1782787,Skovvej,9631,16,9.3279021,56.6902091
1782788,Skovvej,9631,17,9.3290266,56.6897964
1782789,Skovvej,9631,18,9.3260835,56.6902809
1782790,Skovvej,9631,19,9.3286022,56.689801
1782791,Skovvej,9631,21,9.3282537,56.6898286
1782792,Skovvej,9631,31,9.326874,56.6898475
1782793,Skovvej,9631,33,9.3264357,56.6898789
1782795,Skovvej,9631,35,9.3259974,56.6899138
1782797,Skovvej,9631,37,9.3254799,56.6899229
1782799,Skovvej,9631,39,9.3250274,56.6899856
1782801,Skovvej,9631,60,9.319574,56.6904066
1782879,Holmmarkvej,9631,1,9.333242,56.6884548
1782880,Holmmarkvej,9631,3,9.3335265,56.6865997
1782881,Holmmarkvej,9631,4,9.3330168,56.6891642
1782882,Holmmarkvej,9631,5,9.3329501,56.6859653
1782883,Holmmarkvej,9631,6,9.332978,56.6890346
1782884,Holmmarkvej,9631,8,9.3329276,56.6889102
1782885,Holmmarkvej,9631,10,9.3328519,56.6887021
1782886,Holmmarkvej,9631,12,9.3328261,56.6884423
1782887,Holmmarkvej,9631,48,9.316722,56.682496
1782888,Holmmarkvej,9631,50,9.316181,56.680888
1782889,Holmmarkvej,9631,52,9.3191902,56.6798946
1782890,Holmmarkvej,9631,53,9.325845,56.6784122
1782891,Holmmarkvej,9631,58,9.323675,56.678027
1782892,Holmmarkvej,9631,67,9.3233443,56.6757459
1782893,Holmmarkvej,9631,76,9.3216886,56.6742662
1782894,Holmmarkvej,9631,91,9.3228657,56.6707786
1782895,Holmmarkvej,9631,107,9.3241475,56.6669811
1784761,Tolshøj,9631,1,9.3646266,56.7116467
1784762,Tolshøj,9631,3,9.3636799,56.7116839
1784765,Tolshøj,9631,4,9.3638187,56.7121117
1784768,Tolshøj,9631,5,9.3634247,56.7117043
1784771,Tolshøj,9631,6,9.3628538,56.7120392
1784772,Tolshøj,9631,7,9.3630772,56.7117509
1784776,Tolshøj,9631,8,9.3628678,56.7123699
1784778,Tolshøj,9631,9,9.3626688,56.7118096
1784780,Tolshøj,9631,10,9.3619628,56.7124999
1784782,Tolshøj,9631,11,9.3621778,56.7119241
1784784,Tolshøj,9631,12,9.3608908,56.7128909
1784786,Tolshøj,9631,13,9.3615706,56.7119624
1784787,Tolshøj,9631,14,9.3604869,56.7132747
1784788,Tolshøj,9631,15,9.3608486,56.7119654
1784789,Tolshøj,9631,17,9.3611844,56.7121775
1784790,Tolshøj,9631,18,9.3591049,56.7137108
1784791,Tolshøj,9631,19,9.360711,56.71247
1784792,Tolshøj,9631,20,9.358701,56.7137255
1784793,Tolshøj,9631,21,9.3599,56.7126889
1784794,Tolshøj,9631,22,9.3585974,56.7140578
1784795,Tolshøj,9631,23,9.3599616,56.7132534
1784796,Tolshøj,9631,23B,9.3587698,56.7128701
1784797,Tolshøj,9631,24,9.3582944,56.7137249
1784798,Tolshøj,9631,25,9.3587201,56.7134436
1784799,Tolshøj,9631,26,9.3580815,56.7138058
1784800,Tolshøj,9631,27,9.3575654,56.7135078
1784801,Tolshøj,9631,28,9.3576276,56.7138659
1784802,Tolshøj,9631,29,9.356783,56.71375
1784803,Tolshøj,9631,31,9.3560697,56.7134957
1784804,Tolshøj,9631,37,9.3508217,56.7150129
1784805,Tolshøj,9631,47,9.350911,56.7175671
1784806,Tolshøj,9631,53,9.3498364,56.7191229
1784807,Tolshøj,9631,56,9.3544722,56.7190611
1784808,Tolshøj,9631,63,9.3523468,56.722333
1784809,Tolshøj,9631,66,9.3580779,56.7220078
1784810,Tolshøj,9631,67,9.3470234,56.7215931
1785488,Korsvejen,9631,85,9.40006,56.672881
1785489,Korsvejen,9631,85A,9.3995256,56.6733461
1785490,Korsvejen,9631,97,9.3950841,56.6706033
1785491,Korsvejen,9631,98,9.3947277,56.6711612
1785492,Korsvejen,9631,102,9.3918423,56.6706874
1785493,Korsvejen,9631,125,9.3869479,56.6669429
1785626,Firhøjevej,9631,7,9.3562795,56.6894272
1785627,Firhøjevej,9631,11,9.3584692,56.688723
1785628,Firhøjevej,9631,19,9.359154,56.6887518
1785629,Firhøjevej,9631,20,9.3595383,56.6883589
1785630,Firhøjevej,9631,27,9.362831,56.6883318
1785631,Firhøjevej,9631,28,9.3624832,56.6879104
1785632,Firhøjevej,9631,31,9.3641842,56.6883266
1789963,Sognevejen,9631,248,9.3882002,56.7080359
1789965,Sognevejen,9631,252,9.3863132,56.7080112
1789970,Sognevejen,9631,260,9.3835483,56.708274
1789971,Sognevejen,9631,266,9.3841735,56.7145042
1789976,Sognevejen,9631,268,9.3884013,56.7162827
1789979,Sognevejen,9631,271,9.3784508,56.708554
1789981,Sognevejen,9631,294,9.3688854,56.7113479
1789985,Sognevejen,9631,296,9.3684792,56.711208
1789988,Sognevejen,9631,298,9.3685094,56.7113026
1789991,Sognevejen,9631,300,9.3672569,56.7116096
1789994,Sognevejen,9631,301,9.367344,56.710957
1789995,Sognevejen,9631,303,9.3665567,56.7111037
1793390,Havealle,9631,1,9.3323365,56.691166
1793870,Østergade,9631,1A,9.3359676,56.6900212
1793871,Østergade,9631,1B,9.3360452,56.6900088
1793872,Østergade,9631,3,9.3362945,56.6899846
1793873,Østergade,9631,4,9.3362849,56.6898013
1793874,Østergade,9631,5,9.3365099,56.6899954
1793875,Østergade,9631,6,9.3365338,56.6898322
1793876,Østergade,9631,7,9.3366581,56.690003
1793877,Østergade,9631,8,9.3367796,56.6898585
1793878,Østergade,9631,9,9.3368683,56.6900118
1793879,Østergade,9631,10,9.337058,56.6898832
1793880,Østergade,9631,11,9.3370313,56.6900213
1793881,Østergade,9631,12,9.337335,56.6898999
1793882,Østergade,9631,12A,9.3373253,56.6898515
1793883,Østergade,9631,13,9.3370236,56.6902386
1793884,Østergade,9631,13A,9.3372252,56.6905681
1793885,Østergade,9631,13B,9.3378592,56.6906623
1793886,Østergade,9631,13C,9.3381425,56.6910137
1793887,Østergade,9631,14,9.3376981,56.6899379
1793888,Østergade,9631,15,9.3376868,56.6901013
1793889,Østergade,9631,15A,9.3380682,56.6905365
1793890,Østergade,9631,16,9.3378595,56.6899977
1793891,Østergade,9631,17,9.3381124,56.6902386
1793892,Østergade,9631,18,9.3381281,56.6900798
1793893,Østergade,9631,19,9.3383715,56.6902534
1793894,Østergade,9631,20,9.338439,56.690108
1793895,Østergade,9631,21,9.3387711,56.6902657
1793896,Østergade,9631,22,9.3388694,56.6900716
1793897,Østergade,9631,23,9.3392844,56.690234
1793898,Østergade,9631,24,9.3393919,56.690005
1793899,Østergade,9631,25,9.3397068,56.6901872
1793900,Østergade,9631,26,9.339622,56.6899449
1793901,Østergade,9631,26A,9.3391627,56.6897319
1793902,Østergade,9631,27,9.3399906,56.6901357
1793903,Østergade,9631,28,9.3399545,56.6899638
1793904,Østergade,9631,29,9.3403293,56.6901044
1793905,Østergade,9631,30,9.3401805,56.6899379
1793906,Østergade,9631,31,9.3406598,56.6900765
1793907,Østergade,9631,32,9.3403686,56.6899233
1793908,Østergade,9631,34,9.3405011,56.6899109
1793909,Østergade,9631,35,9.3410885,56.6900397
1793910,Østergade,9631,36,9.3407275,56.6898714
1793911,Østergade,9631,37,9.3412848,56.6900252
1793912,Østergade,9631,38,9.3412487,56.6898497
1793913,Østergade,9631,39,9.3420761,56.6900308
1793914,Østergade,9631,40,9.3417656,56.6898082
1793916,Østergade,9631,41,9.3426313,56.6900228
1793918,Østergade,9631,42,9.341973,56.6898027
1793921,Østergade,9631,43,9.342944,56.6900479
1793922,Østergade,9631,44,9.3423563,56.6896937
1793924,Østergade,9631,45,9.3432614,56.6900793
1793926,Østergade,9631,46,9.3432336,56.6898419
1793928,Østergade,9631,47,9.3434882,56.6900847
1793930,Østergade,9631,48,9.3436874,56.689904
1793931,Østergade,9631,49,9.343936,56.6904234
1793934,Østergade,9631,50,9.3439911,56.6898976
1793935,Østergade,9631,51,9.3446446,56.6902326
1793937,Østergade,9631,53,9.34574,56.6904743
1793940,Østergade,9631,54,9.3451229,56.6900488
1793942,Østergade,9631,55,9.349837,56.690777
1793943,Østergade,9631,56,9.3459284,56.6900806
1793945,Østergade,9631,58,9.3461825,56.6900998
1793947,Østergade,9631,59,9.3573159,56.6918536
1793949,Østergade,9631,60,9.3464283,56.690126
1793951,Østergade,9631,62,9.346811,56.6901544
1793953,Østergade,9631,63,9.3596165,56.6940108
1793954,Østergade,9631,64,9.3470731,56.690179
1793957,Østergade,9631,78,9.3645028,56.6927024
1793959,Østergade,9631,84,9.3669806,56.6932604
1795719,Fasanvej,9631,1,9.3323392,56.692136
1795720,Fasanvej,9631,2,9.3326923,56.6922414
1795721,Fasanvej,9631,3,9.3321276,56.69241
1795722,Fasanvej,9631,4,9.3329168,56.6926151
1795723,Fasanvej,9631,5,9.3324903,56.6925711
1795724,Fasanvej,9631,6,9.3328511,56.6928059
1795725,Fasanvej,9631,7,9.3321209,56.6927692
1795726,Fasanvej,9631,8,9.3324228,56.6929496
1795727,Fasanvej,9631,9,9.3318102,56.6927891
1795728,Fasanvej,9631,10,9.3316124,56.6930946
1795729,Fasanvej,9631,11,9.3313227,56.6928964
1795730,Fasanvej,9631,12,9.3313348,56.6932181
1795731,Fasanvej,9631,13,9.3308578,56.6931709
1795732,Fasanvej,9631,14,9.330928,56.693396
1795733,Fasanvej,9631,15,9.3305334,56.6932715
1795734,Fasanvej,9631,18,9.3300025,56.6934072
1796092,Ingrids Vej,9631,2,9.327399,56.663952
1796094,Ingrids Vej,9631,4,9.328428,56.663916
1796095,Ingrids Vej,9631,6,9.329181,56.663814
1796096,Ingrids Vej,9631,8,9.330101,56.663692
1796099,Ingrids Vej,9631,10,9.330822,56.663469
1796416,Bopladsen,9631,1,9.3425766,56.6855809
1796418,Bopladsen,9631,2,9.3430399,56.685459
1796420,Bopladsen,9631,3,9.3425807,56.6857812
1796421,Bopladsen,9631,4,9.3430756,56.685647
1796423,Bopladsen,9631,5,9.3426889,56.6860058
1796424,Bopladsen,9631,6,9.343168,56.685849
1796427,Bopladsen,9631,7,9.3428839,56.6862122
1796429,Bopladsen,9631,8,9.3432575,56.6860473
1803073,Bystrupvænget,9631,19,9.3727112,56.671798
1803074,Bystrupvænget,9631,43,9.3803442,56.6696397
1803075,Bystrupvænget,9631,50,9.3813701,56.6669749
1809583,Katbakken,9631,1,9.3606954,56.7136573
1809585,Katbakken,9631,3,9.3614463,56.7137352
1809588,Katbakken,9631,5,9.3619305,56.713767
1813962,Gyvelskrænten,9631,1,9.3319041,56.6916348
1813964,Gyvelskrænten,9631,3,9.3314558,56.6917918
1813966,Gyvelskrænten,9631,5,9.3310731,56.6918793
1813968,Gyvelskrænten,9631,7,9.3307721,56.6919622
1820847,Lyngvej,9631,1,9.3325042,56.6890539
1820849,Lyngvej,9631,2,9.3327597,56.689313
1820850,Lyngvej,9631,3,9.3322251,56.6889932
1820853,Lyngvej,9631,4,9.332452,56.689336
1820854,Lyngvej,9631,5,9.3316505,56.6889372
1820857,Lyngvej,9631,6,9.3319666,56.6892596
1820858,Lyngvej,9631,7,9.3301805,56.6888639
1820860,Lyngvej,9631,9,9.3294173,56.6888422
1820862,Lyngvej,9631,11,9.3290589,56.6889847
1820864,Lyngvej,9631,12,9.330142,56.6891833
1820866,Lyngvej,9631,13,9.3284476,56.6891315
1820868,Lyngvej,9631,14,9.3298796,56.6891739
1820869,Lyngvej,9631,15,9.3278328,56.689172
1820872,Lyngvej,9631,16,9.329397,56.689327
1820873,Lyngvej,9631,17,9.3274187,56.6892171
1820875,Lyngvej,9631,18,9.3287487,56.6893441
1820876,Lyngvej,9631,19,9.3268934,56.6892638
1820879,Lyngvej,9631,20,9.3283932,56.6893905
1820880,Lyngvej,9631,21,9.326474,56.6893214
1820881,Lyngvej,9631,23,9.3260346,56.6893321
1820884,Lyngvej,9631,25,9.3255539,56.689364
1820886,Lyngvej,9631,27,9.3250651,56.6893949
1820887,Lyngvej,9631,28,9.3269329,56.6895454
1820890,Lyngvej,9631,30,9.3264814,56.6895882
1820891,Lyngvej,9631,32,9.3260041,56.689612
1820893,Lyngvej,9631,34,9.3254915,56.6896742
1820896,Lyngvej,9631,36,9.3250593,56.6896571
1821709,Glerupvej,9631,83,9.4144102,56.6911043
1821710,Glerupvej,9631,96,9.4106779,56.6937673
1821711,Glerupvej,9631,97,9.4077937,56.6887278
1821712,Glerupvej,9631,99,9.4073716,56.6869094
1821719,Glerupvej,9631,101,9.4059681,56.6887568
1821725,Glerupvej,9631,104,9.4063492,56.692356
1821732,Glerupvej,9631,105,9.4053784,56.6920224
1821736,Glerupvej,9631,110,9.4042493,56.6925777
1821745,Glerupvej,9631,120,9.4002716,56.6971893
1821749,Glerupvej,9631,123,9.3983237,56.6924695
1821753,Glerupvej,9631,125,9.396573,56.692609
1821757,Glerupvej,9631,127,9.3958276,56.6890791
1821758,Glerupvej,9631,129,9.395861,56.6926513
1821759,Glerupvej,9631,132,9.394295,56.693425
1821760,Glerupvej,9631,135,9.3932195,56.6929091
1821761,Glerupvej,9631,140,9.3917392,56.6944109
1821762,Glerupvej,9631,142,9.3929323,56.6947283
1821763,Glerupvej,9631,143,9.3886633,56.6904212
1821764,Glerupvej,9631,144,9.3935091,56.6948326
1821765,Glerupvej,9631,146,9.3890948,56.6934065
1821766,Glerupvej,9631,147,9.3885816,56.6931824
1821767,Glerupvej,9631,148,9.3886206,56.6934378
1821768,Glerupvej,9631,149,9.3858956,56.6929653
1821769,Glerupvej,9631,149A,9.386327,56.693618
1821771,Glerupvej,9631,151,9.386064,56.69359
1821779,Glerupvej,9631,153,9.385645,56.693706
1821788,Glerupvej,9631,154,9.3856301,56.6940033
1821795,Glerupvej,9631,155,9.3849163,56.6935243
1821806,Glerupvej,9631,156,9.3847745,56.6941339
1821810,Glerupvej,9631,158,9.3844183,56.6943323
1821812,Glerupvej,9631,160,9.3833992,56.6945443
1821816,Glerupvej,9631,168,9.3808903,56.6942297
1821817,Glerupvej,9631,170,9.380461,56.693982
1821818,Glerupvej,9631,182,9.3745547,56.693994
1821819,Glerupvej,9631,188,9.3719907,56.693978
1821820,Glerupvej,9631,198,9.3681002,56.6939386
1825912,Præstevejen,9631,105,9.393697,56.6755853
1825913,Præstevejen,9631,112,9.3937948,56.6774166
1825915,Præstevejen,9631,132,9.3897136,56.6833905
1825916,Præstevejen,9631,137,9.3846781,56.6788787
1825918,Præstevejen,9631,149,9.3791426,56.6807001
1825919,Præstevejen,9631,156,9.3801992,56.6828363
1825921,Præstevejen,9631,157,9.3781413,56.6825971
1825922,Præstevejen,9631,162,9.3775857,56.6849791
1825923,Præstevejen,9631,173,9.3722494,56.6830592
1825926,Præstevejen,9631,174,9.3735376,56.6880876
1825927,Præstevejen,9631,175,9.3711716,56.6803812
1825928,Præstevejen,9631,196,9.3636149,56.684105
1825930,Præstevejen,9631,210,9.357864,56.6834367
1825931,Præstevejen,9631,226,9.3521375,56.6844049
1828602,Skrænten,9631,1A,9.3283809,56.6901278
1828603,Skrænten,9631,1B,9.3284672,56.6903703
1828604,Skrænten,9631,2,9.3288214,56.6901351
1828605,Skrænten,9631,3,9.3286135,56.6906283
1828606,Skrænten,9631,4,9.328904,56.6903379
1828607,Skrænten,9631,5,9.3286859,56.6909046
1828608,Skrænten,9631,6,9.329039,56.6905267
1828609,Skrænten,9631,8,9.3291583,56.6907603
1828985,Lærkevej,9631,1,9.3331832,56.6910661
1828986,Lærkevej,9631,2,9.3335976,56.6910714
1828987,Lærkevej,9631,3,9.3334124,56.6912163
1828988,Lærkevej,9631,5,9.3335281,56.6913421
1829014,Søndergade,9631,1,9.336147,56.6895909
1829015,Søndergade,9631,2,9.3357164,56.6897625
1829016,Søndergade,9631,3,9.3362879,56.6893352
1829017,Søndergade,9631,4,9.3357574,56.6896919
1829018,Søndergade,9631,5,9.3364387,56.6891317
1829019,Søndergade,9631,6,9.3358039,56.6896033
1829020,Søndergade,9631,7,9.3365757,56.6888985
1829021,Søndergade,9631,8,9.3358584,56.6895212
1829022,Søndergade,9631,9,9.3369188,56.6886497
1829023,Søndergade,9631,10,9.3359182,56.6894237
1829024,Søndergade,9631,11,9.3372502,56.6882888
1829025,Søndergade,9631,12,9.3358624,56.6890767
1829026,Søndergade,9631,13,9.3373756,56.688142
1829027,Søndergade,9631,14,9.3363939,56.6886247
1829028,Søndergade,9631,15,9.3374549,56.6880282
1829029,Søndergade,9631,17,9.3375993,56.6878839
1829030,Søndergade,9631,18,9.3370576,56.687873
1829031,Søndergade,9631,19,9.3377021,56.6877608
1829032,Søndergade,9631,20,9.3374628,56.6873232
1829033,Søndergade,9631,21,9.337916,56.6875803
1829034,Søndergade,9631,22,9.3378832,56.6866908
1829035,Søndergade,9631,23,9.3389961,56.6867601
1829036,Søndergade,9631,24,9.3396812,56.6858749
1829037,Søndergade,9631,25,9.3393071,56.6867278
1829038,Søndergade,9631,27,9.339943,56.686295
1829039,Søndergade,9631,31,9.3438175,56.6852534
1829040,Søndergade,9631,40,9.3472044,56.6837347
1829041,Søndergade,9631,46,9.3486052,56.6825696
1829042,Søndergade,9631,62,9.353159,56.68053
1829043,Søndergade,9631,65,9.359411,56.680052
1829757,Viborgvej,9631,148A,9.3062565,56.6937434
1829758,Viborgvej,9631,150,9.3146114,56.6955726
1830208,Nørgaardsvej,9631,1,9.3415384,56.6902357
1830209,Nørgaardsvej,9631,3,9.341548,56.690475
1830210,Nørgaardsvej,9631,10,9.3430241,56.6924934
1830211,Nørgaardsvej,9631,15,9.3395171,56.6938979
1830212,Nørgaardsvej,9631,22,9.3434753,56.6947426
1830213,Nørgaardsvej,9631,23,9.3403051,56.6956971
1830214,Nørgaardsvej,9631,50,9.3418503,56.6999008
2075968,Stadionvej,9631,1,9.3353201,56.6868976
2075969,Stadionvej,9631,2,9.3360649,56.687413
2075970,Stadionvej,9631,4,9.3359419,56.6874372
2075971,Stadionvej,9631,6,9.3365135,56.6875399
2075972,Stadionvej,9631,8,9.3362458,56.6876014
2075973,Stadionvej,9631,10,9.3360534,56.6876573
2075974,Stadionvej,9631,12,9.336621,56.687785
2075975,Stadionvej,9631,14,9.3363622,56.6878188
2075976,Stadionvej,9631,16,9.3361764,56.6878702
2075977,Stadionvej,9631,18A,9.3356277,56.6874139
2075978,Stadionvej,9631,18B,9.3356437,56.6874331
2075979,Stadionvej,9631,18C,9.33566,56.687454
2075980,Stadionvej,9631,18D,9.3356709,56.687477
2075981,Stadionvej,9631,18E,9.3356788,56.6875004
2075982,Stadionvej,9631,20,9.3350321,56.6875194
2179225,Holmmarkvej,9631,108,9.321918,56.670565
2179227,Holmmarkvej,9631,109,9.325638,56.665472
2179229,Holmmarkvej,9631,109B,9.331722,56.668389
2179231,Holmmarkvej,9631,109C,9.33417,56.66962
2179233,Holmmarkvej,9631,110,9.321185,56.672218
2180486,Makrelvej,9631,2,9.328238,56.668396
2180491,Makrelvej,9631,4,9.328761,56.668391
2233009,Flyndervej,9631,1,9.326633,56.66805
2233010,Flyndervej,9631,2,9.32789,56.668025
2233050,Nørrevangen,9631,14A,9.350837,56.690939
2233051,Nørrevangen,9631,14B,9.351182,56.690971
2233230,Ålevænget,9631,1,9.325014,56.667598
2233231,Ålevænget,9631,1F,9.330552,56.667919
2233232,Ålevænget,9631,2A,9.325898,56.66709
2233233,Ålevænget,9631,2B,9.322992,56.667529
2233234,Ålevænget,9631,2C,9.327785,56.66717
2233235,Ålevænget,9631,3,9.326068,56.66758
2242943,Enghavevej,9631,29,9.329924,56.6924
2242944,Enghavevej,9631,31,9.329181,56.692481
2256250,Nørrevold,9631,13B,9.337405,56.691827
2256279,Tolshøj,9631,27D,9.354588,56.712627
