idx,street,postcode,housenumber,lon,lat
662285,Albækvej,9870,43,10.330934,57.409057
662286,Albækvej,9870,46,10.32744,57.409371
662287,Albækvej,9870,50,10.325794,57.407987
673894,Skærumvej,9870,153,10.318239,57.422693
902567,Dvergetvedvej,9870,47,10.3195698,57.4753826
902568,Dvergetvedvej,9870,81,10.3241689,57.4766977
902569,Dvergetvedvej,9870,83,10.3245993,57.4768563
902570,Dvergetvedvej,9870,85,10.3250284,57.4769207
902571,Dvergetvedvej,9870,95,10.3257249,57.4773399
902572,Dvergetvedvej,9870,97,10.3266232,57.4774883
902573,Dvergetvedvej,9870,99,10.3270431,57.4774369
902574,Dvergetvedvej,9870,120,10.3301345,57.4752797
902575,Dvergetvedvej,9870,130,10.3328519,57.4763136
902576,Dvergetvedvej,9870,134,10.3458752,57.4726015
902577,Dvergetvedvej,9870,170,10.3360255,57.4785504
902578,Dvergetvedvej,9870,305,10.357671,57.481646
902579,Dvergetvedvej,9870,305A,10.3580813,57.4820766
902580,Dvergetvedvej,9870,315,10.359428,57.479668
902581,Dvergetvedvej,9870,357,10.3661035,57.4800819
902582,Dvergetvedvej,9870,360,10.3660323,57.4788765
902583,Dvergetvedvej,9870,361,10.3670384,57.479892
902584,Dvergetvedvej,9870,368,10.3627209,57.4777174
902585,Dvergetvedvej,9870,370,10.3671079,57.4769627
902586,Dvergetvedvej,9870,371,10.3688723,57.4786304
902587,Dvergetvedvej,9870,372,10.3698621,57.4771761
902588,Dvergetvedvej,9870,373,10.3691603,57.4785602
902589,Dvergetvedvej,9870,375,10.3695319,57.478531
902590,Dvergetvedvej,9870,386,10.370005,57.478157
902591,Dvergetvedvej,9870,388,10.371413,57.478233
902592,Dvergetvedvej,9870,390,10.372577,57.478323
902593,Dvergetvedvej,9870,391,10.371616,57.478675
902594,Dvergetvedvej,9870,393,10.3721262,57.4787396
902595,Dvergetvedvej,9870,398,10.3732634,57.478232
902596,Dvergetvedvej,9870,400,10.373419,57.478634
902597,Dvergetvedvej,9870,401,10.3737841,57.4805767
902598,Dvergetvedvej,9870,406,10.3743932,57.4786771
902599,Dvergetvedvej,9870,410,10.374707,57.477802
902600,Dvergetvedvej,9870,484,10.3851383,57.4727133
1034473,Jerupvej,9870,40,10.2085171,57.4880255
1034474,Jerupvej,9870,41,10.20706,57.490596
1034475,Jerupvej,9870,56,10.2112347,57.4879706
1034476,Jerupvej,9870,60,10.2116716,57.4898627
1034477,Jerupvej,9870,67,10.2126544,57.4903096
1034478,Jerupvej,9870,76,10.214236,57.489685
1034479,Jerupvej,9870,124,10.221719,57.491234
1034480,Jerupvej,9870,126,10.222342,57.48928
1034481,Jerupvej,9870,146,10.2260887,57.4908309
1034482,Jerupvej,9870,150,10.2260407,57.4909054
1034483,Jerupvej,9870,184,10.2285783,57.4922348
1034484,Jerupvej,9870,186,10.229994,57.491953
1034485,Jerupvej,9870,190,10.2295593,57.4925099
1034486,Jerupvej,9870,197,10.2314021,57.4934533
1034487,Jerupvej,9870,240,10.2336737,57.4897702
1034488,Jerupvej,9870,251,10.239309,57.496438
1034489,Jerupvej,9870,281,10.245139,57.497997
1034490,Jerupvej,9870,308,10.249936,57.497053
1034491,Jerupvej,9870,310,10.2501989,57.4968649
1034492,Jerupvej,9870,315,10.248988,57.5008399
1034493,Jerupvej,9870,346,10.2562924,57.4987867
1034494,Jerupvej,9870,350,10.259427,57.494315
1034495,Jerupvej,9870,352,10.2625566,57.4927627
1034496,Jerupvej,9870,355,10.2574277,57.4996442
1034497,Jerupvej,9870,365,10.259044,57.500028
1034498,Jerupvej,9870,374,10.2619784,57.5001391
1034499,Jerupvej,9870,404A,10.2647589,57.501268
1034500,Jerupvej,9870,404B,10.2648991,57.501361
1034501,Jerupvej,9870,420,10.267951,57.501246
1034502,Jerupvej,9870,453,10.2681621,57.5024937
1034503,Jerupvej,9870,454,10.2693561,57.50218
1034504,Jerupvej,9870,455,10.268674,57.5025602
1034505,Jerupvej,9870,456,10.2698544,57.5021354
1034506,Jerupvej,9870,457,10.2694171,57.5024331
1034507,Jerupvej,9870,458,10.2703051,57.5022788
1034508,Jerupvej,9870,459,10.2698095,57.5024716
1034509,Jerupvej,9870,460,10.2707683,57.5023365
1034510,Jerupvej,9870,461,10.270482,57.502839
1034511,Jerupvej,9870,462,10.2709501,57.5015
1034512,Jerupvej,9870,464,10.2702697,57.502036
1034513,Jerupvej,9870,465,10.2710994,57.5028128
1034514,Jerupvej,9870,470,10.273601,57.5012695
1034515,Jerupvej,9870,472,10.2753081,57.5023298
1034516,Jerupvej,9870,474,10.2756579,57.5023109
1034517,Jerupvej,9870,476,10.276164,57.502301
1034518,Jerupvej,9870,478,10.276627,57.5022866
1034519,Jerupvej,9870,480,10.2772616,57.502189
1034520,Jerupvej,9870,481,10.2753796,57.502565
1034521,Jerupvej,9870,482,10.2777116,57.5022434
1034522,Jerupvej,9870,485A,10.2769782,57.502705
1034523,Jerupvej,9870,485B,10.2764549,57.5025153
1034524,Jerupvej,9870,485C,10.2764518,57.5025693
1034525,Jerupvej,9870,485D,10.2764675,57.502625
1034526,Jerupvej,9870,485E,10.2764802,57.502679
1034527,Jerupvej,9870,485F,10.2765089,57.5027726
1034528,Jerupvej,9870,485G,10.2765214,57.5028266
1034529,Jerupvej,9870,485H,10.2765246,57.5028771
1034530,Jerupvej,9870,485K,10.276534,57.5029361
1034531,Jerupvej,9870,488A,10.2781245,57.5022143
1034532,Jerupvej,9870,488B,10.278239,57.5021977
1034533,Jerupvej,9870,489,10.2779868,57.5024536
1034534,Jerupvej,9870,490,10.2784109,57.5022184
1034535,Jerupvej,9870,492,10.27861,57.50221
1034536,Jerupvej,9870,494,10.27978,57.5022191
1034537,Jerupvej,9870,495,10.279347,57.5024362
1034538,Jerupvej,9870,496,10.2800411,57.5022852
1034539,Jerupvej,9870,497,10.2797898,57.5024708
1034540,Jerupvej,9870,498,10.280418,57.502332
1034541,Jerupvej,9870,500,10.2807789,57.5023631
1034542,Jerupvej,9870,501,10.2804273,57.5025548
1034543,Jerupvej,9870,502,10.2811454,57.5023975
1034544,Jerupvej,9870,503,10.2808947,57.5026399
1034545,Jerupvej,9870,505,10.2814125,57.5026838
1034546,Jerupvej,9870,506,10.281906,57.5024796
1034547,Jerupvej,9870,507,10.2820175,57.5027489
1034548,Jerupvej,9870,508,10.2825066,57.5025067
1034549,Jerupvej,9870,509,10.2827605,57.5031924
1034550,Jerupvej,9870,514,10.2833766,57.5022925
1034551,Jerupvej,9870,521,10.2838844,57.5032249
1034552,Jerupvej,9870,571,10.2961934,57.502657
1034553,Jerupvej,9870,602,10.295849,57.496836
1034554,Jerupvej,9870,610,10.3017326,57.5005607
1034555,Jerupvej,9870,610A,10.3021364,57.5006377
1034556,Jerupvej,9870,611,10.2980443,57.5048131
1034557,Jerupvej,9870,613,10.2992019,57.5046891
1034558,Jerupvej,9870,711,10.3152092,57.5037648
1034559,Jerupvej,9870,718,10.3160207,57.5036753
1034560,Jerupvej,9870,722,10.31694,57.503885
1034561,Jerupvej,9870,723,10.316284,57.5042381
1034562,Jerupvej,9870,725,10.3174052,57.5043224
1034563,Jerupvej,9870,726,10.3180784,57.5040689
1034564,Jerupvej,9870,734,10.3189054,57.5040224
1034565,Jerupvej,9870,754,10.3219909,57.5050379
1034566,Jerupvej,9870,757,10.323229,57.505753
1034567,Jerupvej,9870,855,10.3378729,57.5090111
1034568,Jerupvej,9870,910,10.3473978,57.5110888
1034569,Jerupvej,9870,995,10.3587397,57.5166333
1034570,Jerupvej,9870,997I,10.3539403,57.5182521
1538408,Astrupvej,9870,132,10.182061,57.484643
1538409,Astrupvej,9870,135,10.180041,57.484074
1538410,Astrupvej,9870,179,10.17928,57.482806
1538411,Astrupvej,9870,180,10.1775617,57.4829669
1538412,Astrupvej,9870,181,10.1787269,57.4825744
1538413,Astrupvej,9870,315,10.1619751,57.4775187
1538414,Astrupvej,9870,320,10.1615703,57.4776785
1538415,Astrupvej,9870,331,10.1597292,57.4770978
1538416,Astrupvej,9870,371,10.1537551,57.4766705
1538417,Astrupvej,9870,420,10.1472755,57.4795188
1538418,Astrupvej,9870,466,10.139296,57.479409
1538419,Astrupvej,9870,481,10.141631,57.477508
1538420,Astrupvej,9870,487,10.13601,57.477634
1538421,Astrupvej,9870,489,10.1360163,57.4750002
1538930,Nørregade,9870,1A,10.2020257,57.4711164
1538932,Nørregade,9870,1B,10.20202,57.4712399
1538934,Nørregade,9870,2A,10.2023009,57.4709649
1538935,Nørregade,9870,2B,10.2024262,57.471041
1538937,Nørregade,9870,3A,10.2019884,57.4713416
1538938,Nørregade,9870,3B,10.2018767,57.4713021
1538940,Nørregade,9870,4A,10.2022859,57.47116
1538941,Nørregade,9870,4B,10.2022801,57.4712532
1538943,Nørregade,9870,4C,10.202279,57.4712811
1538945,Nørregade,9870,5A,10.201983,57.4714762
1538946,Nørregade,9870,5B,10.2018234,57.4714947
1538948,Nørregade,9870,5C,10.2016812,57.4714938
1538950,Nørregade,9870,6,10.2022751,57.4713627
1538951,Nørregade,9870,7A,10.2019249,57.4716082
1538954,Nørregade,9870,7B,10.201911,57.4717228
1538955,Nørregade,9870,7C,10.2019009,57.4718539
1538956,Nørregade,9870,8A,10.2022571,57.4714421
1538957,Nørregade,9870,8B,10.2022513,57.4715107
1538959,Nørregade,9870,8C,10.202534,57.4715336
1538962,Nørregade,9870,10,10.2022391,57.4717038
1538963,Nørregade,9870,11,10.2018992,57.4721296
1538964,Nørregade,9870,12A,10.2022344,57.4717892
1538966,Nørregade,9870,12B,10.202333,57.4718372
1538968,Nørregade,9870,13A,10.201893,57.472218
1538969,Nørregade,9870,13B,10.20189,57.4722513
1538972,Nørregade,9870,13C,10.2018864,57.4722839
1538973,Nørregade,9870,14A,10.202226,57.471906
1538975,Nørregade,9870,15A,10.2018767,57.4723658
1538977,Nørregade,9870,15B,10.2018136,57.472348
1538978,Nørregade,9870,17,10.201892,57.4725936
1538979,Nørregade,9870,18,10.202448,57.472331
1538982,Nørregade,9870,19A,10.2018896,57.4726717
1538984,Nørregade,9870,19B,10.2018462,57.4726977
1538985,Nørregade,9870,19C,10.2018021,57.4727246
1538987,Nørregade,9870,20A,10.2021553,57.4724027
1538988,Nørregade,9870,20B,10.2023469,57.4724668
1538990,Nørregade,9870,21A,10.2017688,57.4729408
1538993,Nørregade,9870,21B,10.2009009,57.4727866
1538994,Nørregade,9870,22A,10.2021475,57.4726582
1538997,Nørregade,9870,22B,10.2022235,57.47266
1538998,Nørregade,9870,22C,10.2024897,57.4726981
1539000,Nørregade,9870,23A,10.201782,57.47315
1539001,Nørregade,9870,23B,10.2017854,57.4732176
1539003,Nørregade,9870,24,10.202127,57.4728255
1539005,Nørregade,9870,25,10.2017962,57.4733633
1539006,Nørregade,9870,26,10.2023121,57.4729383
1539009,Nørregade,9870,28,10.20212,57.473101
1539010,Nørregade,9870,30,10.2020925,57.4733072
1539011,Nørregade,9870,31,10.201432,57.474073
1539014,Nørregade,9870,32A,10.2020915,57.4734065
1539015,Nørregade,9870,32B,10.202084,57.4734608
1539016,Nørregade,9870,32C,10.2024775,57.4734889
1539017,Nørregade,9870,32D,10.2026254,57.4734905
1539020,Nørregade,9870,32E,10.2027617,57.4734946
1539021,Nørregade,9870,33,10.201527,57.474249
1539023,Nørregade,9870,34,10.2020643,57.4736026
1539025,Nørregade,9870,35,10.2016653,57.474546
1539026,Nørregade,9870,36A,10.202121,57.473782
1539028,Nørregade,9870,36B,10.2021272,57.4737138
1539029,Nørregade,9870,36C,10.202425,57.473783
1539030,Nørregade,9870,36D,10.2024307,57.4737151
1539033,Nørregade,9870,36E,10.2025786,57.4736294
1539034,Nørregade,9870,36F,10.2027059,57.4736312
1539035,Nørregade,9870,36G,10.2027407,57.4737513
1539037,Nørregade,9870,36H,10.2027341,57.4738184
1539039,Nørregade,9870,36I,10.2026843,57.4739628
1539040,Nørregade,9870,36K,10.2025603,57.4739591
1539042,Nørregade,9870,37,10.2016508,57.4746862
1539043,Nørregade,9870,38,10.2020323,57.4739543
1539044,Nørregade,9870,39,10.201633,57.474808
1539045,Nørregade,9870,40,10.2020205,57.4740859
1539046,Nørregade,9870,41,10.2016213,57.474923
1539047,Nørregade,9870,43,10.2016135,57.47503
1539048,Nørregade,9870,45,10.2014318,57.4751307
1539049,Nørregade,9870,46,10.2023565,57.4745421
1539050,Nørregade,9870,47,10.2016011,57.4752206
1539051,Nørregade,9870,48,10.202228,57.474763
1539052,Nørregade,9870,49,10.2015864,57.4753848
1539053,Nørregade,9870,51,10.2015756,57.475588
1539054,Nørregade,9870,52,10.2019577,57.4750213
1539055,Nørregade,9870,53,10.2015432,57.4758021
1539056,Nørregade,9870,54,10.201948,57.4751386
1539057,Nørregade,9870,55,10.2014931,57.4761624
1539058,Nørregade,9870,56,10.2019609,57.4753184
1539059,Nørregade,9870,58,10.2019446,57.4754477
1539060,Nørregade,9870,59,10.2015067,57.4764947
1539061,Nørregade,9870,60A,10.2020051,57.47559
1539062,Nørregade,9870,60B,10.202147,57.475588
1539063,Nørregade,9870,60C,10.2022842,57.4755882
1539064,Nørregade,9870,60D,10.2023256,57.4753837
1539065,Nørregade,9870,60E,10.2024356,57.475386
1539066,Nørregade,9870,60F,10.2025416,57.4753862
1539067,Nørregade,9870,60G,10.2026371,57.4753875
1539068,Nørregade,9870,60H,10.2027604,57.4753929
1539069,Nørregade,9870,60K,10.2027527,57.4755162
1539070,Nørregade,9870,60L,10.2027771,57.4755775
1539071,Nørregade,9870,60M,10.202798,57.475641
1539072,Nørregade,9870,60N,10.2028184,57.4757009
1539073,Nørregade,9870,61,10.2013398,57.476662
1539074,Nørregade,9870,62,10.2019042,57.4757932
1539075,Nørregade,9870,63,10.2014618,57.4767807
1539076,Nørregade,9870,64,10.201921,57.475932
1539077,Nørregade,9870,65,10.2014719,57.476912
1539078,Nørregade,9870,66,10.20188,57.4760761
1539079,Nørregade,9870,67,10.201455,57.477036
1539080,Nørregade,9870,68,10.2018576,57.4762008
1539081,Nørregade,9870,69A,10.2014419,57.4771748
1539082,Nørregade,9870,70,10.2018279,57.4763158
1539083,Nørregade,9870,71,10.201388,57.47747
1539084,Nørregade,9870,73,10.2013756,57.4775584
1539085,Nørregade,9870,74,10.2022087,57.4764
1539086,Nørregade,9870,75,10.2013736,57.4776731
1539087,Nørregade,9870,76,10.201883,57.476806
1539088,Nørregade,9870,77,10.2013782,57.4777744
1539089,Nørregade,9870,78,10.2018237,57.4769892
1539090,Nørregade,9870,79,10.2013582,57.4778807
1539091,Nørregade,9870,80,10.2018228,57.4771294
1539092,Nørregade,9870,81,10.2013536,57.4780182
1539093,Nørregade,9870,82,10.2017984,57.4773267
1539094,Nørregade,9870,83,10.2013195,57.4782206
1539095,Nørregade,9870,84,10.2017243,57.4775367
1539096,Nørregade,9870,85,10.201325,57.478408
1539097,Nørregade,9870,86,10.2017086,57.4777583
1539098,Nørregade,9870,87,10.2013026,57.4785618
1539099,Nørregade,9870,88,10.201702,57.4778613
1539100,Nørregade,9870,89,10.2012956,57.4786843
1539101,Nørregade,9870,90,10.2017235,57.477973
1539102,Nørregade,9870,91,10.2012857,57.4787826
1539103,Nørregade,9870,92,10.2018016,57.4781344
1539104,Nørregade,9870,93A,10.2012711,57.4789067
1539105,Nørregade,9870,93B,10.2012638,57.4789674
1539106,Nørregade,9870,96,10.2016617,57.478522
1539107,Nørregade,9870,97,10.2012086,57.4794365
1539108,Nørregade,9870,98,10.2016439,57.4786603
1539109,Nørregade,9870,99,10.201195,57.479584
1539110,Nørregade,9870,100,10.2016588,57.478831
1539111,Nørregade,9870,102,10.201603,57.4789901
1539112,Nørregade,9870,104,10.2015947,57.4790838
1539113,Nørregade,9870,105,10.2010853,57.4802638
1539114,Nørregade,9870,106,10.2016272,57.479204
1539115,Nørregade,9870,107,10.2010081,57.480422
1539116,Nørregade,9870,108,10.2016406,57.4793784
1539117,Nørregade,9870,109,10.2006591,57.4804879
1539118,Nørregade,9870,110,10.2016482,57.4795302
1539119,Nørregade,9870,111,10.2013668,57.4806663
1539120,Nørregade,9870,113,10.20124,57.480841
1541275,Møllebakken,9870,1,10.205188,57.4716445
1541276,Møllebakken,9870,3,10.2055674,57.4717077
1541277,Møllebakken,9870,4,10.2049406,57.4715538
1541278,Møllebakken,9870,5,10.2062213,57.4716137
1541279,Møllebakken,9870,6,10.2049485,57.471376
1541280,Møllebakken,9870,8,10.204786,57.4713727
1541281,Møllebakken,9870,11A,10.2051927,57.4714097
1541282,Møllebakken,9870,13,10.2056511,57.4712787
1541765,Lindevej,9870,1,10.2810231,57.5039708
1541769,Lindevej,9870,3,10.280916,57.503691
1541771,Lindevej,9870,4,10.2805021,57.5037521
1541778,Lindevej,9870,5,10.2808066,57.5033828
1541783,Lindevej,9870,6,10.2804017,57.5034668
1541785,Lindevej,9870,7,10.2807491,57.5031932
1541792,Lindevej,9870,8,10.2802893,57.5032317
1541796,Lindevej,9870,9,10.2806765,57.5030172
1541799,Lindevej,9870,10,10.2802413,57.5030083
1541804,Lindevej,9870,12,10.2801876,57.5028519
1542203,Volstrupvej,9870,2,10.2498394,57.4615451
1542204,Volstrupvej,9870,3,10.2501503,57.4618766
1542205,Volstrupvej,9870,5,10.2507115,57.4619753
1542206,Volstrupvej,9870,7,10.2509721,57.461918
1542207,Volstrupvej,9870,9,10.2512613,57.4618384
1542208,Volstrupvej,9870,20,10.2522589,57.4615339
1542209,Volstrupvej,9870,41,10.2543607,57.4621873
1542210,Volstrupvej,9870,68,10.2596471,57.4597419
1542211,Volstrupvej,9870,70,10.259431,57.460876
1542212,Volstrupvej,9870,72,10.25994,57.461077
1542213,Volstrupvej,9870,105,10.2647159,57.4617534
1542214,Volstrupvej,9870,107,10.2644981,57.4612218
1542215,Volstrupvej,9870,109,10.266269,57.461528
1542216,Volstrupvej,9870,135,10.2735781,57.460034
1542217,Volstrupvej,9870,141,10.27816,57.4582155
1542218,Volstrupvej,9870,151,10.276857,57.4580234
1542219,Volstrupvej,9870,162,10.271259,57.457406
1542220,Volstrupvej,9870,210,10.2782097,57.4535718
1542221,Volstrupvej,9870,241,10.2836987,57.4547913
1542256,Agerledetgaardvej,9870,18,10.199047,57.488402
1542751,Fynsgade,9870,2,10.200231,57.475236
1542754,Fynsgade,9870,4,10.2001385,57.4755767
1542755,Fynsgade,9870,8,10.2001237,57.4761728
1542756,Fynsgade,9870,10,10.2001539,57.4763155
1542757,Fynsgade,9870,12,10.2001184,57.476561
1542758,Fynsgade,9870,14,10.200114,57.4767553
1542759,Fynsgade,9870,15,10.1995225,57.4760833
1542761,Fynsgade,9870,16,10.2000555,57.4775461
1542763,Fynsgade,9870,17,10.1995956,57.4763136
1542765,Fynsgade,9870,18,10.2000383,57.4777445
1542767,Fynsgade,9870,19,10.1996224,57.4764827
1542769,Fynsgade,9870,20,10.2000369,57.4778994
1542771,Fynsgade,9870,21,10.1996457,57.4766301
1542773,Fynsgade,9870,22,10.2000416,57.4780296
1542774,Fynsgade,9870,23,10.1996553,57.4768332
1542776,Fynsgade,9870,24,10.2001086,57.4782195
1542778,Fynsgade,9870,25,10.199646,57.477082
1542779,Fynsgade,9870,26,10.2,57.4783925
1542782,Fynsgade,9870,27,10.1995439,57.4777317
1542784,Fynsgade,9870,28,10.199884,57.4785377
1542785,Fynsgade,9870,29,10.1996004,57.4778871
1542788,Fynsgade,9870,30,10.1996957,57.4786687
1542789,Fynsgade,9870,31,10.1995894,57.4780368
1542792,Fynsgade,9870,32,10.199373,57.4786573
1542793,Fynsgade,9870,33,10.1995685,57.4782288
1542795,Fynsgade,9870,34,10.1990108,57.4786956
1542798,Fynsgade,9870,35,10.1991525,57.4783194
1542799,Fynsgade,9870,36,10.1986762,57.4787654
1542802,Fynsgade,9870,37,10.198813,57.4784587
1542804,Fynsgade,9870,38,10.1983479,57.4788191
1542806,Fynsgade,9870,39,10.1984694,57.4784917
1542808,Fynsgade,9870,40,10.1979571,57.4788453
1542809,Fynsgade,9870,41,10.1977449,57.4786209
1542812,Fynsgade,9870,42,10.1976559,57.4789163
1542813,Fynsgade,9870,43,10.197219,57.478675
1542816,Fynsgade,9870,44,10.1972263,57.4789906
1543243,Grandebakvej,9870,2,10.317811,57.5021688
1543244,Grandebakvej,9870,7,10.3189021,57.5023856
1543247,Grandebakvej,9870,8,10.3193513,57.5019458
1543248,Grandebakvej,9870,10,10.3198677,57.5020051
1543251,Grandebakvej,9870,12,10.3203592,57.5019543
1543253,Grandebakvej,9870,13,10.3201845,57.5026102
1543254,Grandebakvej,9870,25,10.3243897,57.5028687
1543255,Grandebakvej,9870,30,10.3224292,57.5018032
1543256,Grandebakvej,9870,36,10.3229976,57.5015423
1543257,Grandebakvej,9870,68,10.3266798,57.5014782
1543258,Grandebakvej,9870,74,10.3303979,57.5024204
1543259,Grandebakvej,9870,100,10.3328688,57.5042063
1543812,Højbovej,9870,1,10.3714624,57.4794053
1543816,Højbovej,9870,6,10.3708609,57.4794832
1543820,Højbovej,9870,8,10.3707543,57.4795419
1543821,Højbovej,9870,10,10.370396,57.479512
1543824,Højbovej,9870,12,10.3696175,57.4795384
1543826,Højbovej,9870,14,10.369437,57.479687
1545109,Hammerholtvej,9870,12A,10.2460838,57.4605246
1545110,Hammerholtvej,9870,12B,10.2473226,57.4601985
1545111,Hammerholtvej,9870,14,10.248277,57.459367
1545112,Hammerholtvej,9870,16,10.2485233,57.4602909
1545113,Hammerholtvej,9870,17,10.249206,57.460235
1545114,Hammerholtvej,9870,18,10.2485549,57.4600539
1545115,Hammerholtvej,9870,19,10.2495537,57.4600725
1545116,Hammerholtvej,9870,20,10.24893,57.4598722
1545117,Hammerholtvej,9870,21,10.249995,57.459703
1545118,Hammerholtvej,9870,22,10.2490577,57.459731
1545119,Hammerholtvej,9870,24,10.2491792,57.4595632
1545120,Hammerholtvej,9870,41,10.2531706,57.4588984
1545121,Hammerholtvej,9870,44,10.250977,57.458086
1545122,Hammerholtvej,9870,85,10.2604714,57.4557563
1545123,Hammerholtvej,9870,100,10.2570264,57.4542383
1545124,Hammerholtvej,9870,114,10.261026,57.4487707
1545125,Hammerholtvej,9870,161,10.268199,57.45318
1545126,Hammerholtvej,9870,171,10.2672249,57.4507722
1545127,Hammerholtvej,9870,211,10.2736558,57.4493827
1545128,Hammerholtvej,9870,223,10.2823765,57.4503677
1545130,Hammerholtvej,9870,232,10.2723367,57.4479143
1545133,Hammerholtvej,9870,240,10.2755186,57.4470868
1545134,Hammerholtvej,9870,250,10.277256,57.44655
1545138,Hammerholtvej,9870,261,10.2787526,57.4486998
1545140,Hammerholtvej,9870,271,10.2816888,57.4463932
1545142,Hammerholtvej,9870,284,10.2812876,57.444252
1545145,Hammerholtvej,9870,305,10.2861791,57.4447764
1545146,Hammerholtvej,9870,312,10.2872086,57.4386823
1545149,Hammerholtvej,9870,380,10.297933,57.44099
1545151,Hammerholtvej,9870,380A,10.297828,57.440963
1545152,Hammerholtvej,9870,413,10.305061,57.444564
1545155,Hammerholtvej,9870,480,10.3117786,57.4396203
1545293,Baggesvognsvej,9870,1,10.2007863,57.4788154
1545294,Baggesvognsvej,9870,2,10.201251,57.479225
1545295,Baggesvognsvej,9870,4,10.2007014,57.4792167
1545296,Baggesvognsvej,9870,5,10.2001997,57.4790906
1545297,Baggesvognsvej,9870,6,10.2003944,57.4792523
1545298,Baggesvognsvej,9870,7,10.1999027,57.4791132
1545299,Baggesvognsvej,9870,8,10.2000953,57.47928
1545300,Baggesvognsvej,9870,9,10.1994629,57.4791576
1545301,Baggesvognsvej,9870,10,10.1998864,57.4793022
1545302,Baggesvognsvej,9870,11,10.1991156,57.4791797
1545303,Baggesvognsvej,9870,12,10.1997083,57.4793192
1545304,Baggesvognsvej,9870,13,10.198625,57.4792187
1545305,Baggesvognsvej,9870,14,10.1994838,57.4793643
1545307,Baggesvognsvej,9870,15,10.1981968,57.4792456
1545309,Baggesvognsvej,9870,16,10.199115,57.4793851
1545312,Baggesvognsvej,9870,17,10.1978232,57.4792944
1545316,Baggesvognsvej,9870,18,10.1987044,57.4794304
1545319,Baggesvognsvej,9870,19,10.1974034,57.4793586
1545320,Baggesvognsvej,9870,20,10.1982179,57.4794838
1545325,Baggesvognsvej,9870,22,10.1980774,57.4795013
1545327,Baggesvognsvej,9870,24,10.197602,57.479562
1545329,Baggesvognsvej,9870,26,10.1972805,57.4795896
1545332,Baggesvognsvej,9870,30,10.1965371,57.4797558
1545337,Baggesvognsvej,9870,32,10.1958481,57.4799058
1545340,Baggesvognsvej,9870,34,10.1947959,57.4799973
1545344,Baggesvognsvej,9870,57A,10.191451,57.479792
1545353,Baggesvognsvej,9870,57B,10.1913602,57.4800275
1545355,Baggesvognsvej,9870,70,10.1907,57.48144
1545359,Baggesvognsvej,9870,101,10.185312,57.482037
1545360,Baggesvognsvej,9870,129,10.1828601,57.4837077
1545368,Baggesvognsvej,9870,151,10.1818725,57.4856797
1545370,Baggesvognsvej,9870,171,10.176425,57.48736
1545374,Baggesvognsvej,9870,181,10.1776269,57.4885764
1545380,Baggesvognsvej,9870,191,10.1767407,57.4895353
1545382,Baggesvognsvej,9870,195,10.172305,57.489288
1545386,Baggesvognsvej,9870,258,10.17152,57.494076
1545391,Baggesvognsvej,9870,291,10.167986,57.496702
1545395,Baggesvognsvej,9870,310,10.1675735,57.4982196
1545398,Baggesvognsvej,9870,321,10.165627,57.499177
1545401,Baggesvognsvej,9870,341,10.1646791,57.5005144
1545410,Baggesvognsvej,9870,360,10.164753,57.501963
1545413,Baggesvognsvej,9870,449,10.150414,57.503516
1545416,Baggesvognsvej,9870,450,10.150638,57.50388
1545424,Baggesvognsvej,9870,497,10.1459551,57.5057428
1545426,Baggesvognsvej,9870,499A,10.146268,57.506149
1545430,Baggesvognsvej,9870,499B,10.1458694,57.5062382
1545954,Bakkevej,9870,65,10.326868,57.487483
1545956,Bakkevej,9870,142,10.337827,57.48673
1545960,Bakkevej,9870,142A,10.337368,57.48609
1545962,Bakkevej,9870,180,10.3445892,57.4866346
1545964,Bakkevej,9870,211,10.3512451,57.4871372
1545965,Bakkevej,9870,223,10.35027,57.49004
1545966,Bakkevej,9870,235,10.3559946,57.489626
1545967,Bakkevej,9870,325,10.3696885,57.4802506
1545983,Virkelystvej,9870,2,10.2012989,57.484255
1545984,Virkelystvej,9870,6,10.1999623,57.4843118
1545985,Virkelystvej,9870,8,10.1988253,57.4843806
1545986,Virkelystvej,9870,11,10.198745,57.483261
1545987,Virkelystvej,9870,13A,10.1986339,57.483865
1545988,Virkelystvej,9870,13B,10.1987534,57.4836892
1545989,Virkelystvej,9870,15,10.196393,57.483804
1547318,Engvej,9870,1,10.20237,57.4696937
1547321,Engvej,9870,3,10.2021387,57.4696608
1547323,Engvej,9870,5,10.2018616,57.4696419
1547326,Engvej,9870,7,10.2014744,57.4695217
1547519,Sønderskovvej,9870,417,10.1721579,57.4398184
1547522,Sønderskovvej,9870,431,10.173949,57.4340445
1547524,Sønderskovvej,9870,450,10.174916,57.430901
1547721,Fredensgade,9870,1A,10.2021838,57.4725686
1547722,Fredensgade,9870,1B,10.2024252,57.4725743
1547723,Fredensgade,9870,1C,10.2027135,57.4725956
1547724,Fredensgade,9870,2B,10.202574,57.472457
1547725,Fredensgade,9870,2C,10.2027741,57.4724641
1547726,Fredensgade,9870,2D,10.2030326,57.4724652
1547727,Fredensgade,9870,3,10.2030696,57.4726121
1547728,Fredensgade,9870,4,10.203228,57.47248
1547729,Fredensgade,9870,5,10.2032687,57.4726209
1547731,Fredensgade,9870,6,10.2034006,57.472487
1547732,Fredensgade,9870,7,10.2034469,57.4726286
1547733,Fredensgade,9870,8,10.2036019,57.4724972
1547734,Fredensgade,9870,9,10.2036533,57.4726398
1547736,Fredensgade,9870,10,10.203817,57.47251
1547737,Fredensgade,9870,11,10.203867,57.47272
1547739,Fredensgade,9870,12,10.2040989,57.4725073
1547741,Fredensgade,9870,13,10.2040896,57.4726533
1547742,Fredensgade,9870,14,10.2040688,57.4721934
1547743,Fredensgade,9870,16,10.2044624,57.4723237
1548197,Bjørnagervej,9870,18,10.3169962,57.508018
1548198,Bjørnagervej,9870,24,10.3163582,57.5080921
1548199,Bjørnagervej,9870,80,10.3097397,57.5104048
1548200,Bjørnagervej,9870,82,10.3091528,57.5093888
1548581,Hørmestedvej,9870,1,10.2094896,57.4452906
1548584,Hørmestedvej,9870,2,10.210667,57.445099
1548586,Hørmestedvej,9870,7,10.210681,57.445931
1548588,Hørmestedvej,9870,9,10.210284,57.446143
1548590,Hørmestedvej,9870,130,10.225006,57.453394
1548592,Hørmestedvej,9870,132A,10.2246263,57.4532654
1548593,Hørmestedvej,9870,132B,10.2246179,57.4533354
1548596,Hørmestedvej,9870,132C,10.2252269,57.4533037
1548597,Hørmestedvej,9870,133,10.2224943,57.4521859
1548599,Hørmestedvej,9870,135,10.2226258,57.4527226
1548600,Hørmestedvej,9870,146,10.225227,57.4549423
1548601,Hørmestedvej,9870,149,10.2257262,57.4553789
1548602,Hørmestedvej,9870,163,10.2246439,57.4572363
1548603,Hørmestedvej,9870,165,10.226047,57.45633
1548604,Hørmestedvej,9870,174,10.229662,57.456171
1548606,Hørmestedvej,9870,175,10.228921,57.456303
1548608,Hørmestedvej,9870,184,10.2314523,57.4565375
1548610,Hørmestedvej,9870,189,10.2313008,57.4569591
1548613,Hørmestedvej,9870,191,10.2316825,57.4572172
1548615,Hørmestedvej,9870,195A,10.2312699,57.4578366
1548617,Hørmestedvej,9870,195B,10.2319275,57.4573212
1548620,Hørmestedvej,9870,240,10.238298,57.458424
1548622,Hørmestedvej,9870,242,10.2389424,57.4588426
1548625,Hørmestedvej,9870,285,10.2454949,57.4615172
1548626,Hørmestedvej,9870,286,10.2459648,57.4611058
1548629,Hørmestedvej,9870,288,10.2461629,57.4610439
1548631,Hørmestedvej,9870,290,10.2464241,57.4610711
1548635,Hørmestedvej,9870,291,10.246126,57.461673
1548636,Hørmestedvej,9870,292,10.2471723,57.4613138
1548639,Hørmestedvej,9870,293,10.2472684,57.4617892
1548641,Hørmestedvej,9870,295,10.2476437,57.4618543
1548644,Hørmestedvej,9870,297,10.2484788,57.461917
1548646,Hørmestedvej,9870,301,10.2492499,57.4620352
1548649,Hørmestedvej,9870,302,10.2496352,57.4619668
1548653,Hørmestedvej,9870,304,10.249822,57.462114
1548655,Hørmestedvej,9870,305,10.2493854,57.4622216
1548658,Hørmestedvej,9870,306,10.2499579,57.4622456
1548660,Hørmestedvej,9870,307,10.2495571,57.4624204
1548664,Hørmestedvej,9870,308,10.2502979,57.4625734
1548665,Hørmestedvej,9870,309,10.2496699,57.4625779
1548668,Hørmestedvej,9870,311A,10.2498539,57.4629381
1548670,Hørmestedvej,9870,314,10.250889,57.4632036
1548671,Hørmestedvej,9870,315,10.2502129,57.4633284
1548672,Hørmestedvej,9870,317,10.2503799,57.4634827
1548673,Hørmestedvej,9870,319,10.2505469,57.4636784
1548674,Hørmestedvej,9870,321,10.2506811,57.4638351
1548675,Hørmestedvej,9870,322,10.2514123,57.4638571
1548676,Hørmestedvej,9870,323,10.2508314,57.4640207
1548677,Hørmestedvej,9870,324,10.2517033,57.4640027
1548678,Hørmestedvej,9870,325,10.250992,57.464328
1548679,Hørmestedvej,9870,326,10.251678,57.464241
1548680,Hørmestedvej,9870,327,10.2513311,57.4645153
1548681,Hørmestedvej,9870,328,10.2522212,57.4645469
1548682,Hørmestedvej,9870,329,10.2514929,57.4648361
1548683,Hørmestedvej,9870,330,10.2521679,57.4648542
1548684,Hørmestedvej,9870,332,10.2522547,57.4650372
1548685,Hørmestedvej,9870,333,10.2518497,57.4651906
1548687,Hørmestedvej,9870,334,10.2524244,57.4652265
1548688,Hørmestedvej,9870,335,10.2520964,57.4654163
1548691,Hørmestedvej,9870,336,10.2526755,57.4654482
1548692,Hørmestedvej,9870,338,10.25299,57.465846
1548695,Hørmestedvej,9870,339,10.2525263,57.4658589
1548696,Hørmestedvej,9870,340,10.2532776,57.4660133
1548698,Hørmestedvej,9870,341,10.2526817,57.4660447
1548699,Hørmestedvej,9870,342,10.2539254,57.4662421
1548700,Hørmestedvej,9870,344,10.2541669,57.4655456
1549056,Måstrupvej,9870,18,10.2797838,57.511675
1549058,Måstrupvej,9870,19,10.2791277,57.511627
1549060,Måstrupvej,9870,20,10.2795152,57.5118196
1549062,Måstrupvej,9870,23,10.2785134,57.5117753
1549065,Måstrupvej,9870,25,10.2781532,57.511961
1549066,Måstrupvej,9870,29,10.2775914,57.5120309
1549069,Måstrupvej,9870,30,10.2782001,57.5125173
1549071,Måstrupvej,9870,39A,10.2773317,57.5124336
1549073,Måstrupvej,9870,39B,10.2772119,57.5125068
1549076,Måstrupvej,9870,43,10.276666,57.5128424
1549078,Måstrupvej,9870,46,10.278494,57.514421
1549081,Måstrupvej,9870,58,10.2766517,57.5132288
1549082,Måstrupvej,9870,85,10.274249,57.517237
1549083,Måstrupvej,9870,87,10.274006,57.517226
1549085,Måstrupvej,9870,100,10.2750603,57.5188067
1549088,Måstrupvej,9870,107,10.2707442,57.5190368
1549089,Måstrupvej,9870,159,10.265792,57.517342
1549091,Måstrupvej,9870,160,10.2688753,57.5207557
1549092,Måstrupvej,9870,161,10.265509,57.517168
1549093,Måstrupvej,9870,164,10.267318,57.520805
1549094,Måstrupvej,9870,166,10.269665,57.527655
1549095,Måstrupvej,9870,168,10.2680145,57.5222107
1549096,Måstrupvej,9870,174,10.2639961,57.5212428
1549097,Måstrupvej,9870,180,10.265874,57.523174
1549098,Måstrupvej,9870,182,10.2660916,57.5245816
1549099,Måstrupvej,9870,204,10.261296,57.522951
1549100,Måstrupvej,9870,250,10.2558335,57.5262191
1549101,Måstrupvej,9870,252,10.2582914,57.5286168
1549102,Måstrupvej,9870,272,10.2510707,57.5246928
1549103,Måstrupvej,9870,275,10.2495306,57.5228976
1549785,Anemonevej,9870,1,10.1920053,57.4762511
1549787,Anemonevej,9870,3,10.1918798,57.4766766
1549788,Anemonevej,9870,7,10.191705,57.4772249
1549792,Anemonevej,9870,9,10.1916121,57.4774882
1549794,Anemonevej,9870,15,10.1915617,57.4782809
1549796,Anemonevej,9870,17,10.191638,57.478474
1549798,Anemonevej,9870,18,10.1923248,57.4788107
1549800,Anemonevej,9870,21,10.1920152,57.4791428
1549803,Anemonevej,9870,22,10.1927652,57.4794954
1549804,Anemonevej,9870,23,10.1921371,57.4793387
1549805,Anemonevej,9870,24,10.1930507,57.4798211
1549807,Anemonevej,9870,25,10.1923431,57.4795653
1549810,Anemonevej,9870,27,10.1925483,57.4798868
1550370,Borrisholtvej,9870,231,10.132597,57.49852
1550371,Borrisholtvej,9870,251,10.135782,57.498353
1550620,Nejstvej,9870,21,10.2445588,57.4710221
1550623,Nejstvej,9870,45,10.240355,57.473224
1550626,Nejstvej,9870,47,10.2403657,57.4729373
1550627,Nejstvej,9870,48,10.248884,57.473269
1550630,Nejstvej,9870,48A,10.247932,57.472465
1550631,Nejstvej,9870,50,10.2505154,57.4741393
1550633,Nejstvej,9870,67,10.2381308,57.4776746
1550634,Nejstvej,9870,69,10.2373953,57.4768004
1550635,Nejstvej,9870,80,10.2477563,57.4755376
1550636,Nejstvej,9870,82,10.2484792,57.4760547
1550637,Nejstvej,9870,99,10.2442383,57.477237
1550638,Nejstvej,9870,137,10.245969,57.4804922
1550639,Nejstvej,9870,152,10.2498098,57.4812986
1550640,Nejstvej,9870,174,10.246491,57.485463
1550641,Nejstvej,9870,176,10.2603544,57.4874654
1551441,Nyvangen,9870,2,10.2019653,57.4765656
1551443,Nyvangen,9870,3,10.2024109,57.4767828
1551445,Nyvangen,9870,4,10.202464,57.4765807
1551447,Nyvangen,9870,5,10.2026346,57.4767408
1551448,Nyvangen,9870,6,10.2026436,57.476586
1551449,Nyvangen,9870,7,10.202854,57.477101
1551450,Nyvangen,9870,8A,10.2028881,57.4765961
1551451,Nyvangen,9870,8B,10.2027923,57.4765942
1551452,Nyvangen,9870,8C,10.2029956,57.4764661
1551453,Nyvangen,9870,8D,10.2028285,57.4764678
1551454,Nyvangen,9870,8E,10.2030066,57.4763332
1551455,Nyvangen,9870,8F,10.2028416,57.4763287
1551456,Nyvangen,9870,9A,10.2032062,57.4768547
1551457,Nyvangen,9870,9B,10.2033547,57.476854
1551458,Nyvangen,9870,9C,10.2035254,57.4768529
1551459,Nyvangen,9870,9D,10.2036909,57.4768533
1551460,Nyvangen,9870,10B,10.2033693,57.476453
1551461,Nyvangen,9870,12,10.2036916,57.4764487
1551462,Nyvangen,9870,13,10.2050426,57.476897
1551463,Nyvangen,9870,15,10.2056343,57.477051
1551464,Nyvangen,9870,16,10.2047727,57.4766014
1551465,Nyvangen,9870,17,10.2055699,57.4773033
1551466,Nyvangen,9870,18,10.2049091,57.4763673
1551467,Nyvangen,9870,19,10.2058643,57.4773718
1551468,Nyvangen,9870,20,10.205043,57.4761898
1551469,Nyvangen,9870,22,10.2051982,57.4759689
1551470,Nyvangen,9870,24,10.2053542,57.4757816
1551471,Nyvangen,9870,26,10.2057945,57.4756853
1551472,Nyvangen,9870,28,10.2058681,57.4759254
1551473,Nyvangen,9870,30,10.2056259,57.4761244
1551474,Nyvangen,9870,32,10.2054264,57.4763313
1551475,Nyvangen,9870,34,10.2054466,57.4766126
1551476,Nyvangen,9870,36,10.2059572,57.4767909
1551477,Nyvangen,9870,38,10.2060595,57.4769921
1551478,Nyvangen,9870,40,10.206214,57.477273
1551589,Taagholtvej,9870,11,10.210708,57.491124
1551590,Taagholtvej,9870,22,10.212946,57.4914169
1551592,Taagholtvej,9870,41,10.21117,57.493236
1551593,Taagholtvej,9870,71,10.2136327,57.4960505
1551597,Taagholtvej,9870,84,10.215835,57.497079
1551600,Taagholtvej,9870,131,10.2154884,57.500715
1551603,Taagholtvej,9870,170,10.2227617,57.5045833
1551605,Taagholtvej,9870,178,10.2265779,57.504754
1551606,Taagholtvej,9870,179,10.217744,57.505135
1551608,Taagholtvej,9870,182,10.2286958,57.5050181
1551610,Taagholtvej,9870,184,10.2292426,57.5049097
1551612,Taagholtvej,9870,186,10.2296709,57.5049363
1551614,Taagholtvej,9870,192,10.2294245,57.5053334
1551616,Taagholtvej,9870,194,10.2303148,57.5047694
1551618,Taagholtvej,9870,196,10.2302835,57.5049839
1551620,Taagholtvej,9870,198,10.230259,57.5052014
1551622,Taagholtvej,9870,208,10.23096,57.504803
1551625,Taagholtvej,9870,210,10.224171,57.50695
1551626,Taagholtvej,9870,213,10.2227971,57.5074563
1552781,Skovstjernevej,9870,1,10.1860601,57.4765827
1552786,Skovstjernevej,9870,2,10.1860509,57.4762889
1552789,Skovstjernevej,9870,3,10.1862523,57.4765797
1552790,Skovstjernevej,9870,4,10.1862769,57.4762894
1552792,Skovstjernevej,9870,6,10.186493,57.4762518
1552795,Skovstjernevej,9870,8,10.186743,57.476252
1552904,Faurholtvej,9870,20,10.1809843,57.4675998
1552905,Faurholtvej,9870,55,10.180988,57.464178
1552906,Faurholtvej,9870,57,10.179308,57.462591
1552907,Faurholtvej,9870,999,10.1820239,57.4673683
1554472,Bollenvej,9870,29,10.25833,57.438814
1554476,Bollenvej,9870,51,10.2540942,57.4392265
1555265,Gutenbergvej,9870,1,10.201262,57.485246
1555268,Gutenbergvej,9870,2A,10.2013843,57.4856708
1555270,Gutenbergvej,9870,2B,10.2013918,57.4857689
1555273,Gutenbergvej,9870,2C,10.2014,57.4858783
1555274,Gutenbergvej,9870,2D,10.2009548,57.4859536
1555277,Gutenbergvej,9870,3,10.2009096,57.4850226
1555280,Gutenbergvej,9870,4,10.1998477,57.4856936
1555283,Gutenbergvej,9870,11,10.1992677,57.4848301
1555284,Gutenbergvej,9870,13,10.198389,57.48524
1555561,Kristiansmindevej,9870,65,10.1325174,57.5074102
1555564,Kristiansmindevej,9870,67,10.131456,57.5043567
1555565,Kristiansmindevej,9870,71,10.137617,57.5098097
1555568,Kristiansmindevej,9870,140A,10.13595,57.516289
1555571,Kristiansmindevej,9870,140B,10.1364483,57.5163386
1555573,Kristiansmindevej,9870,141,10.1351466,57.5166508
1555575,Kristiansmindevej,9870,143,10.1348901,57.517425
1555579,Baldersvej,9870,1,10.187103,57.47255
1555580,Baldersvej,9870,2,10.1877342,57.4726876
1555581,Baldersvej,9870,3,10.1867654,57.4724014
1555582,Baldersvej,9870,4,10.1881257,57.4727944
1555583,Baldersvej,9870,5,10.1863173,57.4723195
1555584,Baldersvej,9870,6,10.1882161,57.4729846
1555586,Baldersvej,9870,7,10.1862936,57.4725229
1555588,Baldersvej,9870,8,10.1879035,57.4730714
1555589,Baldersvej,9870,9,10.1865335,57.4727583
1555593,Baldersvej,9870,10,10.1873977,57.4728878
1555597,Baldersvej,9870,12,10.186585,57.4730723
1555599,Baldersvej,9870,14,10.1866935,57.4733167
1555602,Baldersvej,9870,16,10.1861756,57.4733583
1555604,Baldersvej,9870,18,10.186139,57.4731637
1556031,Oremosevej,9870,1,10.1959271,57.470811
1556033,Oremosevej,9870,3,10.1959869,57.4710342
1556035,Oremosevej,9870,5,10.1954424,57.4710688
1556036,Oremosevej,9870,19,10.1954711,57.4713076
1556038,Oremosevej,9870,23,10.195141,57.472765
1556041,Oremosevej,9870,23A,10.1951287,57.4728879
1556042,Oremosevej,9870,28A,10.1961193,57.473161
1556045,Oremosevej,9870,28B,10.1964852,57.4732514
1556047,Oremosevej,9870,30,10.1958783,57.473294
1556050,Oremosevej,9870,32,10.1961262,57.4734635
1556053,Oremosevej,9870,34,10.1959104,57.4734949
1556055,Oremosevej,9870,39,10.1954424,57.4730922
1556056,Oremosevej,9870,41,10.1952753,57.4734673
1556253,Ahornvej,9870,3A,10.2778078,57.503343
1556255,Ahornvej,9870,3B,10.2780498,57.5033339
1556257,Ahornvej,9870,3C,10.2782259,57.5032036
1556259,Ahornvej,9870,3D,10.278217,57.503113
1556261,Ahornvej,9870,3E,10.2782379,57.502994
1556262,Ahornvej,9870,3F,10.2780304,57.5030016
1556263,Ahornvej,9870,3G,10.2778632,57.5030341
1556264,Ahornvej,9870,3H,10.2776412,57.5030448
1556265,Ahornvej,9870,6,10.2779317,57.5036841
1556266,Ahornvej,9870,7,10.2774028,57.5037369
1556267,Ahornvej,9870,8,10.2778847,57.504024
1556268,Ahornvej,9870,9,10.2769136,57.5037149
1556269,Ahornvej,9870,10,10.2779654,57.5041991
1556270,Ahornvej,9870,11,10.2765143,57.5036896
1556271,Ahornvej,9870,12,10.2775292,57.5040536
1556272,Ahornvej,9870,13,10.2765885,57.5038707
1556273,Ahornvej,9870,14,10.2771193,57.5040739
1556274,Ahornvej,9870,16,10.2766902,57.5042432
1556571,Mosbjergvej,9870,71,10.2585963,57.473984
1556573,Mosbjergvej,9870,128,10.2645442,57.4773632
1556574,Mosbjergvej,9870,135A,10.264505,57.4785148
1556575,Mosbjergvej,9870,135C,10.263973,57.478682
1556578,Mosbjergvej,9870,135D,10.2640245,57.4788028
1556580,Mosbjergvej,9870,135E,10.264096,57.478922
1556582,Mosbjergvej,9870,135F,10.2641526,57.4790291
1556583,Mosbjergvej,9870,135G,10.264215,57.4791238
1556586,Mosbjergvej,9870,138,10.2683126,57.479364
1556588,Mosbjergvej,9870,163,10.2682077,57.480088
1556591,Mosbjergvej,9870,174,10.27404,57.479243
1556592,Mosbjergvej,9870,176,10.2801038,57.4731882
1556595,Mosbjergvej,9870,208,10.2725429,57.4824521
1556596,Mosbjergvej,9870,210,10.273839,57.482629
1556598,Mosbjergvej,9870,226,10.275249,57.485006
1556600,Mosbjergvej,9870,252,10.279336,57.487726
1556601,Mosbjergvej,9870,301,10.274875,57.491406
1556602,Mosbjergvej,9870,303,10.26671,57.493488
1556603,Mosbjergvej,9870,326,10.2779378,57.4935847
1556604,Mosbjergvej,9870,356,10.2792313,57.4954388
1556607,Mosbjergvej,9870,360,10.2793087,57.4963526
1556608,Mosbjergvej,9870,400,10.280235,57.499566
1556611,Mosbjergvej,9870,407,10.2781082,57.4999021
1556613,Mosbjergvej,9870,409,10.2788584,57.5005138
1556615,Mosbjergvej,9870,411,10.2788503,57.5006664
1556617,Mosbjergvej,9870,413,10.2787766,57.5008603
1556620,Mosbjergvej,9870,417,10.2787207,57.5010537
1556621,Mosbjergvej,9870,418,10.2793589,57.5003424
1556624,Mosbjergvej,9870,419,10.2787699,57.5012692
1556625,Mosbjergvej,9870,421,10.2787173,57.5015272
1556628,Mosbjergvej,9870,425,10.2786917,57.5019791
1556630,Mosbjergvej,9870,426,10.2792362,57.5018242
1556632,Mosbjergvej,9870,427,10.2787002,57.5021391
1556634,Mosbjergvej,9870,428,10.2796372,57.5019415
1556636,Mosbjergvej,9870,430,10.2790708,57.5020597
1556637,Mosbjergvej,9870,431,10.2786898,57.5025294
1556638,Mosbjergvej,9870,432,10.278993,57.5022482
1556641,Mosbjergvej,9870,433A,10.2782841,57.5026869
1556644,Mosbjergvej,9870,434,10.2789772,57.502459
1556645,Mosbjergvej,9870,435,10.278914,57.503127
1556648,Mosbjergvej,9870,436,10.279016,57.502673
1556649,Mosbjergvej,9870,439A,10.2790186,57.5034334
1556652,Mosbjergvej,9870,439B,10.2790308,57.5034772
1556655,Mosbjergvej,9870,440,10.279129,57.502908
1556657,Mosbjergvej,9870,441,10.2789159,57.5036726
1556659,Mosbjergvej,9870,442,10.2792025,57.5030367
1556660,Mosbjergvej,9870,443,10.2793671,57.5038489
1556661,Mosbjergvej,9870,444,10.2793295,57.5032308
1556662,Mosbjergvej,9870,445,10.279528,57.504082
1556663,Mosbjergvej,9870,446,10.2794089,57.5033827
1556664,Mosbjergvej,9870,447,10.2796293,57.5042761
1556665,Mosbjergvej,9870,448,10.2794767,57.5034791
1556666,Mosbjergvej,9870,449,10.2797306,57.5045353
1556667,Mosbjergvej,9870,450A,10.2796202,57.5036216
1556668,Mosbjergvej,9870,450B,10.2796201,57.5036577
1556669,Mosbjergvej,9870,451,10.2799518,57.5048222
1556670,Mosbjergvej,9870,452,10.2797592,57.5038082
1556673,Mosbjergvej,9870,454A,10.2798691,57.5040179
1556674,Mosbjergvej,9870,455,10.2798802,57.505136
1556677,Mosbjergvej,9870,456,10.280233,57.5043536
1556678,Mosbjergvej,9870,457,10.2801976,57.5054014
1556680,Mosbjergvej,9870,458,10.2802388,57.5045344
1556681,Mosbjergvej,9870,459,10.2802822,57.5055698
1556684,Mosbjergvej,9870,460,10.2802817,57.5046449
1556686,Mosbjergvej,9870,461,10.2803629,57.5057407
1556688,Mosbjergvej,9870,462,10.2804166,57.504893
1556689,Mosbjergvej,9870,463,10.2805086,57.5059593
1556691,Mosbjergvej,9870,464,10.2804802,57.5050891
1556693,Mosbjergvej,9870,467,10.2779761,57.5072857
1556694,Mosbjergvej,9870,468,10.2805979,57.5053446
1556695,Mosbjergvej,9870,470,10.2807153,57.5055704
1556696,Mosbjergvej,9870,472,10.2811487,57.5058454
1556697,Mosbjergvej,9870,476,10.2812045,57.506542
1556698,Mosbjergvej,9870,500,10.3064231,57.5140437
1556699,Mosbjergvej,9870,510,10.2849826,57.5101437
1556700,Mosbjergvej,9870,512,10.2851981,57.5100031
1556701,Mosbjergvej,9870,525,10.2806365,57.5146211
1556703,Mosbjergvej,9870,560,10.2894217,57.513058
1556705,Mosbjergvej,9870,565,10.2857976,57.5142347
1556706,Mosbjergvej,9870,600A,10.2939805,57.5175423
1556708,Mosbjergvej,9870,600B,10.2942932,57.517554
1556711,Mosbjergvej,9870,625,10.2967988,57.5196448
1556714,Mosbjergvej,9870,672,10.2990439,57.5191678
1556715,Mosbjergvej,9870,730,10.3089406,57.5269194
1556718,Mosbjergvej,9870,811A,10.307839,57.527154
1556720,Mosbjergvej,9870,811B,10.307838,57.527354
1556722,Mosbjergvej,9870,826,10.3103666,57.5278409
1556724,Mosbjergvej,9870,830,10.3140417,57.5272881
1556725,Mosbjergvej,9870,836,10.3115516,57.528858
1556726,Mosbjergvej,9870,845,10.311977,57.529702
1556727,Mosbjergvej,9870,859,10.3131318,57.5305498
1556728,Mosbjergvej,9870,860,10.3146801,57.5298121
1556729,Mosbjergvej,9870,998,10.3152584,57.5314889
1557545,Bjarkesvej,9870,2,10.192589,57.4744989
1557546,Bjarkesvej,9870,3,10.191618,57.474585
1557549,Bjarkesvej,9870,4,10.1921506,57.4745432
1557550,Bjarkesvej,9870,5,10.191513,57.474655
1557554,Bjarkesvej,9870,6,10.1918508,57.4748806
1557556,Bjarkesvej,9870,7,10.191186,57.474827
1557558,Bjarkesvej,9870,8,10.1927899,57.4752914
1557560,Bjarkesvej,9870,9,10.191053,57.474879
1557561,Bjarkesvej,9870,10,10.192896,57.475246
1557563,Bjarkesvej,9870,11,10.190582,57.474938
1557566,Bjarkesvej,9870,12,10.1927952,57.4750188
1557567,Bjarkesvej,9870,14,10.1928796,57.4749672
1557568,Bjarkesvej,9870,16,10.1923839,57.4749451
1557569,Bjarkesvej,9870,17,10.1893417,57.475267
1557570,Bjarkesvej,9870,18,10.1925256,57.4748593
1557571,Bjarkesvej,9870,19,10.189212,57.475389
1557572,Bjarkesvej,9870,20,10.1927047,57.4748012
1557573,Bjarkesvej,9870,22,10.1928072,57.4747357
1557574,Bjarkesvej,9870,25,10.1902889,57.4752791
1557575,Bjarkesvej,9870,26,10.1919536,57.475264
1557576,Bjarkesvej,9870,27,10.1908769,57.4751971
1557577,Bjarkesvej,9870,29,10.1914214,57.4752372
1557787,Sjællandsgade,9870,1A,10.19791,57.4754266
1557788,Sjællandsgade,9870,1B,10.1978198,57.4754369
1557790,Sjællandsgade,9870,1C,10.1977381,57.4754792
1557791,Sjællandsgade,9870,1D,10.1976308,57.4754916
1557796,Sjællandsgade,9870,10,10.1986442,57.476306
1557797,Sjællandsgade,9870,12,10.1985508,57.4765132
1557801,Sjællandsgade,9870,14,10.1985595,57.4766934
1557804,Sjællandsgade,9870,15,10.1979312,57.4768724
1557806,Sjællandsgade,9870,16,10.198526,57.477417
1557809,Sjællandsgade,9870,18,10.1985496,57.4776926
1557810,Sjællandsgade,9870,20,10.1984788,57.4778642
1557812,Sjællandsgade,9870,21,10.1979067,57.4775434
1557813,Sjællandsgade,9870,22,10.1986231,57.4780314
1557815,Sjællandsgade,9870,23,10.197848,57.4777646
1557817,Sjællandsgade,9870,24,10.1983812,57.4782111
1557818,Sjællandsgade,9870,25,10.1979399,57.4779662
1557820,Sjællandsgade,9870,27,10.1979513,57.4781796
1557821,Sjællandsgade,9870,29,10.1979385,57.4784219
1559086,Vendelbogade,9870,7,10.203945,57.474736
1559089,Vendelbogade,9870,10A,10.2040138,57.4741627
1559093,Vendelbogade,9870,10B,10.204071,57.473586
1559096,Vendelbogade,9870,10C,10.2045859,57.4741886
1559099,Vendelbogade,9870,10D,10.2046473,57.4736039
1559104,Vendelbogade,9870,10E,10.2043516,57.4737141
1559105,Vendelbogade,9870,10F,10.2043937,57.4734649
1559110,Vendelbogade,9870,10G,10.2036911,57.4738991
1559266,Odinsvej,9870,25,10.194065,57.474152
1559267,Odinsvej,9870,75,10.1858698,57.4713617
1559781,Bindslevvej,9870,150,10.201815,57.495284
1559782,Bindslevvej,9870,161,10.2011897,57.4958228
1559784,Bindslevvej,9870,188,10.206631,57.49746
1559788,Bindslevvej,9870,213,10.200808,57.500215
1559789,Bindslevvej,9870,285,10.2008613,57.507068
1559790,Bindslevvej,9870,305,10.1991649,57.5090732
1559791,Bindslevvej,9870,312,10.212761,57.507956
1559792,Bindslevvej,9870,326,10.205827,57.510529
1560075,Banevej,9870,1,10.307601,57.485161
1560076,Banevej,9870,3,10.308159,57.4853845
1560349,Brasholtvej,9870,50,10.184504,57.493149
1560353,Brasholtvej,9870,88,10.181688,57.49519
1560354,Brasholtvej,9870,108,10.1813132,57.4961566
1560355,Brasholtvej,9870,141,10.1739625,57.4971838
1560358,Brasholtvej,9870,180,10.175239,57.501664
1561039,Jernbanegade,9870,1,10.2024295,57.4706312
1561040,Jernbanegade,9870,3A,10.2025799,57.4707261
1561041,Jernbanegade,9870,3B,10.2026739,57.4706184
1561042,Jernbanegade,9870,4,10.2020603,57.4703995
1561043,Jernbanegade,9870,6,10.2016578,57.4702014
1561044,Jernbanegade,9870,7,10.2040877,57.470499
1561045,Jernbanegade,9870,8,10.2023691,57.4702099
1561046,Jernbanegade,9870,10,10.2024792,57.4699539
1561047,Jernbanegade,9870,11,10.2057359,57.470208
1561048,Gl. Sindalvej,9870,64,10.1910083,57.4881427
1561049,Gl. Sindalvej,9870,69,10.1901705,57.4875929
1561050,Gl. Sindalvej,9870,82,10.188384,57.4879143
1561051,Gl. Sindalvej,9870,84,10.18822,57.488846
1561052,Gl. Sindalvej,9870,86,10.1854408,57.4905384
1561053,Gl. Sindalvej,9870,97,10.191006,57.486389
1561054,Gl. Sindalvej,9870,115,10.1866602,57.4838802
1561590,Margueritvej,9870,2,10.183879,57.476226
1561592,Margueritvej,9870,3,10.1829695,57.476771
1561594,Margueritvej,9870,4,10.1842981,57.4763132
1561596,Margueritvej,9870,5,10.1829963,57.4770168
1561599,Margueritvej,9870,6,10.1841799,57.4765866
1561601,Margueritvej,9870,7,10.1826683,57.4769883
1561604,Margueritvej,9870,8,10.183736,57.476652
1561605,Margueritvej,9870,9,10.182249,57.476877
1561607,Margueritvej,9870,10,10.183706,57.4768814
1561609,Margueritvej,9870,11,10.1821376,57.4771964
1561611,Margueritvej,9870,12,10.1841347,57.4768979
1561613,Margueritvej,9870,13,10.182474,57.4772556
1561615,Margueritvej,9870,14,10.1840763,57.4772131
1561617,Margueritvej,9870,15,10.1827988,57.4773779
1561619,Margueritvej,9870,16,10.1835568,57.4771962
1561621,Margueritvej,9870,18,10.1835424,57.477373
1561622,Margueritvej,9870,20,10.1839938,57.4774781
1561624,Margueritvej,9870,22,10.1839254,57.4776899
1561626,Margueritvej,9870,24,10.1832936,57.4776033
1561933,Hjørringvej,9870,6,10.1947678,57.4706007
1561934,Hjørringvej,9870,36,10.1901681,57.4704173
1561935,Hjørringvej,9870,38,10.1897403,57.4703902
1561936,Hjørringvej,9870,40,10.1894958,57.470307
1561937,Hjørringvej,9870,41,10.1897891,57.4700718
1561938,Hjørringvej,9870,42,10.1891356,57.4702879
1561939,Hjørringvej,9870,43,10.1894501,57.470004
1561940,Hjørringvej,9870,44,10.1889187,57.4702734
1561941,Hjørringvej,9870,46,10.1886958,57.4702612
1561942,Hjørringvej,9870,47,10.188877,57.4699998
1561943,Hjørringvej,9870,48,10.1884843,57.470249
1561944,Hjørringvej,9870,49,10.1884626,57.4699575
1561945,Hjørringvej,9870,50,10.1882512,57.4702372
1561946,Hjørringvej,9870,61,10.186751,57.469825
1561947,Hjørringvej,9870,85,10.1827548,57.4690711
1561948,Hjørringvej,9870,94,10.1808157,57.4693807
1561949,Hjørringvej,9870,105,10.1798492,57.4682052
1561950,Hjørringvej,9870,110,10.17909,57.468696
1561951,Hjørringvej,9870,111,10.1786845,57.4674336
1561952,Hjørringvej,9870,125,10.178079,57.467958
1561953,Hjørringvej,9870,140,10.1746075,57.4679169
1561954,Hjørringvej,9870,141,10.1747254,57.4674207
1561955,Hjørringvej,9870,150,10.1720884,57.468013
1561956,Hjørringvej,9870,161,10.171833,57.466455
1561957,Hjørringvej,9870,200A,10.1650247,57.4658344
1561958,Hjørringvej,9870,201,10.1641421,57.4649059
1561959,Hjørringvej,9870,230,10.1606562,57.4648231
1561960,Hjørringvej,9870,232,10.1596349,57.4652053
1561961,Hjørringvej,9870,259,10.157161,57.462758
1561962,Hjørringvej,9870,260,10.1573029,57.463638
1561963,Hjørringvej,9870,280,10.1519593,57.4665201
1561964,Hjørringvej,9870,290,10.140926,57.464224
1561965,Hjørringvej,9870,299,10.1599921,57.4571718
1561966,Hjørringvej,9870,299A,10.1589001,57.4570619
1561967,Hjørringvej,9870,301,10.1555137,57.4605221
1561968,Hjørringvej,9870,303,10.152669,57.461207
1561969,Hjørringvej,9870,305,10.1511504,57.4614596
1561970,Hjørringvej,9870,307,10.1520344,57.4600307
1561971,Hjørringvej,9870,323,10.1505964,57.4606763
1561972,Hjørringvej,9870,328,10.1430659,57.4618939
1561973,Hjørringvej,9870,330,10.1427004,57.4611262
1562174,Mimersvej,9870,1,10.1825923,57.4705987
1562175,Mimersvej,9870,2,10.1827228,57.4702063
1562176,Mimersvej,9870,3,10.1825126,57.4709391
1562177,Mimersvej,9870,4,10.1831014,57.4702176
1562178,Mimersvej,9870,5,10.1826354,57.4711211
1562179,Mimersvej,9870,6,10.1837027,57.4702074
1562180,Mimersvej,9870,7,10.1830287,57.471118
1562181,Mimersvej,9870,8,10.1842999,57.4701932
1562182,Mimersvej,9870,9,10.1829995,57.4708851
1562183,Mimersvej,9870,10,10.184811,57.4702456
1562184,Mimersvej,9870,11A,10.1831574,57.4705841
1562185,Mimersvej,9870,11B,10.1831506,57.4704982
1562186,Mimersvej,9870,13,10.183795,57.4705939
1562187,Mimersvej,9870,15,10.1837133,57.4708551
1562188,Mimersvej,9870,17,10.1835816,57.4711095
1562189,Mimersvej,9870,19,10.1842202,57.4707429
1562190,Mimersvej,9870,21,10.1842135,57.4705536
1562191,Mimersvej,9870,23,10.1847617,57.4704103
1562406,Tårsvej,9870,1,10.2988452,57.4097439
1562407,Tårsvej,9870,2,10.2989737,57.4100666
1562408,Tårsvej,9870,3,10.2985967,57.4096392
1562409,Tårsvej,9870,4,10.2986741,57.409959
1562410,Tårsvej,9870,5,10.2985454,57.409386
1562411,Tårsvej,9870,6,10.2984422,57.4098713
1562412,Tårsvej,9870,7A,10.2983163,57.4095275
1562413,Tårsvej,9870,7B,10.2980943,57.409457
1562414,Tårsvej,9870,8A,10.2981776,57.4097664
1562415,Tårsvej,9870,8B,10.2979885,57.4096561
1562416,Tårsvej,9870,9,10.2978777,57.4093881
1562417,Tårsvej,9870,10,10.2975729,57.4095264
1562418,Tårsvej,9870,11,10.2980809,57.4091671
1562419,Tårsvej,9870,12,10.297226,57.4094675
1562420,Tårsvej,9870,13,10.2973397,57.4092473
1562421,Tårsvej,9870,15,10.2968039,57.4091771
1562422,Tårsvej,9870,16,10.2962189,57.4093798
1562423,Tårsvej,9870,17,10.2962772,57.4091235
1562424,Tårsvej,9870,18,10.2959627,57.4093319
1562425,Tårsvej,9870,19,10.2959629,57.4091374
1562426,Tårsvej,9870,20A,10.2957419,57.4093434
1562427,Tårsvej,9870,20B,10.2954863,57.4093565
1562428,Tårsvej,9870,21,10.2957545,57.4091361
1562429,Tårsvej,9870,22,10.295218,57.40937
1562430,Tårsvej,9870,23,10.2953318,57.4091541
1562431,Tårsvej,9870,24,10.2942948,57.4094227
1562433,Tårsvej,9870,25A,10.2949246,57.4089698
1562434,Tårsvej,9870,25B,10.2951563,57.4088184
1562436,Tårsvej,9870,26,10.2939688,57.4094318
1562437,Tårsvej,9870,27,10.2945483,57.4091998
1562439,Tårsvej,9870,28,10.2937153,57.4094504
1562442,Tårsvej,9870,29,10.2941918,57.4092217
1562443,Tårsvej,9870,30,10.2935178,57.4094793
1562444,Tårsvej,9870,31,10.2939068,57.4092457
1562445,Tårsvej,9870,32,10.2932193,57.4095076
1562446,Tårsvej,9870,33A,10.2935908,57.4092694
1562449,Tårsvej,9870,33B,10.2933313,57.4092973
1562450,Tårsvej,9870,34,10.292933,57.409518
1562451,Tårsvej,9870,35,10.2929226,57.4093338
1562453,Tårsvej,9870,36,10.292524,57.40955
1562455,Tårsvej,9870,37A,10.2929108,57.4091441
1562456,Tårsvej,9870,37B,10.2929886,57.4088718
1562457,Tårsvej,9870,37C,10.292343,57.4088884
1562458,Tårsvej,9870,38,10.292195,57.409578
1562460,Tårsvej,9870,39,10.2925691,57.4093743
1562462,Tårsvej,9870,40,10.2919802,57.4096174
1562463,Tårsvej,9870,41,10.2921645,57.4093899
1562464,Tårsvej,9870,43A,10.2922562,57.4091357
1562466,Tårsvej,9870,43B,10.292159,57.4090405
1562467,Tårsvej,9870,44,10.2910885,57.4095401
1562469,Tårsvej,9870,45,10.2918014,57.4090054
1562470,Tårsvej,9870,46,10.2906075,57.4095311
1562471,Tårsvej,9870,47,10.2918489,57.4093721
1562473,Tårsvej,9870,48,10.290143,57.4095097
1562475,Tårsvej,9870,49,10.2914975,57.409356
1562476,Tårsvej,9870,51,10.2912208,57.4093577
1562478,Tårsvej,9870,52,10.288982,57.409844
1562479,Tårsvej,9870,53,10.2909405,57.409351
1562481,Tårsvej,9870,54,10.2885835,57.4091897
1562482,Tårsvej,9870,55,10.2907236,57.4092229
1562483,Tårsvej,9870,56,10.2881897,57.4090871
1562484,Tårsvej,9870,57,10.290189,57.409319
1562485,Tårsvej,9870,58,10.2878216,57.4089693
1562486,Tårsvej,9870,59,10.2891499,57.4091093
1562487,Tårsvej,9870,60,10.2875626,57.4088837
1562488,Tårsvej,9870,61,10.288863,57.408998
1562489,Tårsvej,9870,62,10.2873115,57.4087997
1562490,Tårsvej,9870,63A,10.2886132,57.4088631
1562491,Tårsvej,9870,63B,10.288336,57.408373
1562492,Tårsvej,9870,64,10.287057,57.408703
1562493,Tårsvej,9870,65,10.2881136,57.4087388
1562494,Tårsvej,9870,66,10.2866817,57.4085348
1562495,Tårsvej,9870,67,10.2878218,57.4086797
1562496,Tårsvej,9870,68,10.2861066,57.4082777
1562497,Tårsvej,9870,69A,10.2872452,57.4084534
1562498,Tårsvej,9870,69B,10.2871048,57.4083962
1562499,Tårsvej,9870,71,10.2868242,57.4082829
1562500,Tårsvej,9870,73,10.2865515,57.4081331
1562501,Tårsvej,9870,75,10.2861722,57.4079974
1562502,Tårsvej,9870,79,10.286228,57.406648
1562503,Tårsvej,9870,81,10.288494,57.4058059
1562504,Tårsvej,9870,88,10.2823576,57.4069511
1562505,Tårsvej,9870,90,10.281852,57.408395
1562506,Tårsvej,9870,105,10.2804991,57.4058574
1562507,Tårsvej,9870,108,10.279818,57.405855
1562508,Tårsvej,9870,110,10.279251,57.405669
1562509,Tårsvej,9870,117,10.2785377,57.4051557
1562511,Tårsvej,9870,126,10.2772724,57.4049882
1562512,Tårsvej,9870,145,10.276045,57.402461
1562514,Tårsvej,9870,146,10.275038,57.4042643
1562516,Tårsvej,9870,171,10.2723209,57.4008309
1562517,Tårsvej,9870,200,10.2678415,57.4008043
1562519,Tårsvej,9870,244,10.2602265,57.401099
1562520,Tårsvej,9870,248,10.257225,57.4023333
1562522,Tårsvej,9870,251,10.262282,57.397699
1562524,Tårsvej,9870,262,10.2596841,57.3984049
1562525,Tårsvej,9870,289,10.2568769,57.3947212
1562526,Tårsvej,9870,290,10.2538474,57.3964447
1562528,Tårsvej,9870,307A,10.255338,57.3928309
1562531,Tårsvej,9870,324,10.2513606,57.3955047
1562532,Tårsvej,9870,326,10.250547,57.398011
1562534,Tårsvej,9870,338,10.2478722,57.3943601
1562535,Tårsvej,9870,369,10.2425093,57.3920991
1562631,Stendyssevej,9870,1,10.3139955,57.4737969
1562632,Stendyssevej,9870,2,10.313895,57.474039
1562633,Stendyssevej,9870,3,10.313274,57.473688
1562634,Stendyssevej,9870,4,10.3134449,57.4739879
1563246,Slugten,9870,2,10.2028559,57.4761151
1563248,Slugten,9870,4,10.2028592,57.4760533
1563250,Slugten,9870,6,10.2025557,57.4761594
1563253,Slugten,9870,8,10.2025557,57.476085
1563254,Slugten,9870,10,10.2025508,57.4759366
1563256,Slugten,9870,12,10.202683,57.4759043
1563258,Slugten,9870,14,10.2029069,57.475863
1563260,Slugten,9870,16,10.2030425,57.4758393
1563262,Slugten,9870,18,10.203218,57.4756463
1563264,Slugten,9870,20,10.2031814,57.4755567
1563266,Slugten,9870,22,10.2031512,57.4754839
1563267,Slugten,9870,24,10.2030554,57.4754076
1563269,Slugten,9870,26,10.2030249,57.4753261
1563271,Slugten,9870,28,10.2029954,57.4752527
1563273,Slugten,9870,30,10.2031839,57.4752705
1563275,Slugten,9870,32,10.2033503,57.4752508
1563276,Slugten,9870,34,10.2035054,57.4752367
1563654,Magasinvej,9870,1,10.3094289,57.4826371
1563655,Magasinvej,9870,3,10.3089671,57.4827771
1563656,Magasinvej,9870,5,10.30861,57.4827894
1563657,Magasinvej,9870,6,10.3082051,57.4839467
1563658,Magasinvej,9870,7,10.3052587,57.4825809
1563659,Magasinvej,9870,8,10.3077295,57.4841358
1563660,Magasinvej,9870,9,10.3073107,57.4833956
1563661,Magasinvej,9870,10,10.3078578,57.4844502
1563662,Magasinvej,9870,11,10.3071391,57.483797
1563663,Magasinvej,9870,12,10.307656,57.48454
1563664,Magasinvej,9870,13,10.3071463,57.4844498
1564241,Toftegade,9870,3,10.1996603,57.4712961
1564242,Toftegade,9870,5,10.1996234,57.4715335
1564243,Toftegade,9870,7,10.1997702,57.4717274
1564244,Toftegade,9870,9,10.1996721,57.4719196
1564245,Toftegade,9870,11,10.1998047,57.4720914
1564246,Toftegade,9870,13,10.1998523,57.472323
1564247,Toftegade,9870,15,10.199958,57.4726452
1564248,Toftegade,9870,16,10.20045,57.4728437
1564249,Toftegade,9870,17,10.1999317,57.4728377
1564250,Toftegade,9870,17A,10.1997312,57.47292
1564251,Toftegade,9870,18,10.2004344,57.4729852
1564252,Toftegade,9870,19,10.2000066,57.4730017
1564253,Toftegade,9870,20,10.2003775,57.4731506
1564256,Toftegade,9870,21,10.2000866,57.4731953
1564258,Toftegade,9870,22,10.2003956,57.4732951
1564260,Toftegade,9870,23,10.2000974,57.4733716
1564262,Toftegade,9870,25,10.2001145,57.473506
1564264,Toftegade,9870,27,10.2001527,57.4736493
1564266,Toftegade,9870,29,10.2001863,57.4738374
1564267,Toftegade,9870,30,10.2005889,57.474024
1564270,Toftegade,9870,31,10.200277,57.474009
1564271,Toftegade,9870,33,10.2002889,57.4740772
1564274,Toftegade,9870,35,10.2002895,57.4742859
1564703,Gefionsvej,9870,1,10.1820685,57.4719318
1564704,Gefionsvej,9870,2,10.1821486,57.472282
1564705,Gefionsvej,9870,3,10.181747,57.471664
1564706,Gefionsvej,9870,4,10.1824225,57.4724614
1564707,Gefionsvej,9870,5,10.1813329,57.4717581
1564708,Gefionsvej,9870,6,10.1825218,57.4727109
1564709,Gefionsvej,9870,7,10.1815099,57.4719616
1564710,Gefionsvej,9870,8,10.1826979,57.4729347
1564712,Gefionsvej,9870,9,10.1808671,57.4719814
1564714,Gefionsvej,9870,10,10.1828874,57.4731662
1564715,Gefionsvej,9870,11,10.1807764,57.471783
1564716,Gefionsvej,9870,12,10.1828739,57.4733277
1564717,Gefionsvej,9870,13,10.1802693,57.4718344
1564718,Gefionsvej,9870,14,10.1823683,57.4733503
1564719,Gefionsvej,9870,15,10.1804568,57.4720616
1564720,Gefionsvej,9870,16,10.1819401,57.4732068
1564721,Gefionsvej,9870,17,10.1797483,57.4721105
1564722,Gefionsvej,9870,18,10.1823505,57.4731104
1564724,Gefionsvej,9870,19,10.1797435,57.4718658
1564726,Gefionsvej,9870,20,10.1821234,57.472796
1564728,Gefionsvej,9870,21,10.1792719,57.4718222
1564731,Gefionsvej,9870,22,10.1818953,57.4725634
1564733,Gefionsvej,9870,23,10.1787478,57.4718422
1564735,Gefionsvej,9870,24,10.1817397,57.4723504
1564737,Gefionsvej,9870,25,10.1782418,57.4718622
1564739,Gefionsvej,9870,26,10.1806204,57.472489
1564741,Gefionsvej,9870,28,10.181148,57.4725318
1564743,Gefionsvej,9870,29,10.1776828,57.4721007
1564746,Gefionsvej,9870,30,10.181527,57.4728582
1564747,Gefionsvej,9870,31,10.178202,57.472088
1564750,Gefionsvej,9870,32,10.1812177,57.4727804
1564751,Gefionsvej,9870,33,10.1787483,57.4720748
1564753,Gefionsvej,9870,34,10.1806438,57.4727291
1564756,Gefionsvej,9870,35,10.1792675,57.4720921
1564759,Gefionsvej,9870,36,10.180131,57.472626
1564760,Gefionsvej,9870,38,10.1801008,57.4724601
1564762,Gefionsvej,9870,40,10.1793008,57.4724331
1564763,Gefionsvej,9870,42,10.1785614,57.4724082
1564765,Gefionsvej,9870,44,10.1782793,57.4733493
1564980,Mosevej,9870,24,10.308269,57.5307144
1564981,Mosevej,9870,50,10.305351,57.532427
1564982,Mosevej,9870,56,10.3041079,57.5348014
1564983,Mosevej,9870,71,10.3032421,57.5330326
1564984,Mosevej,9870,75,10.3012525,57.5325896
1564985,Mosevej,9870,91,10.294529,57.53733
1564986,Mosevej,9870,96,10.3020333,57.5363456
1564987,Mosevej,9870,98,10.3036194,57.5364453
1564988,Mosevej,9870,110,10.3007875,57.5375419
1564989,Mosevej,9870,140,10.2992706,57.5394233
1564990,Mosevej,9870,160,10.2972466,57.5412457
1564993,Mosevej,9870,195,10.2878672,57.5415513
1565061,Lavendelvej,9870,2,10.1925558,57.4790996
1565063,Lavendelvej,9870,3,10.193199,57.479332
1565067,Lavendelvej,9870,4,10.1929355,57.479085
1565072,Lavendelvej,9870,5,10.193537,57.47931
1565073,Lavendelvej,9870,6,10.1933429,57.4790074
1565074,Lavendelvej,9870,8,10.1936694,57.4789874
1567613,Færøvej,9870,3,10.1989858,57.4720347
1567614,Færøvej,9870,4,10.1989837,57.4722456
1567615,Færøvej,9870,6,10.1988537,57.4722691
1567616,Færøvej,9870,8,10.1984732,57.4723161
1567617,Færøvej,9870,10,10.198423,57.472227
1567618,Færøvej,9870,12,10.1984776,57.472112
1567619,Færøvej,9870,14,10.1983363,57.4721323
1567620,Færøvej,9870,16,10.1981767,57.4721653
1567899,Valmuevej,9870,1,10.1853575,57.4768673
1567901,Valmuevej,9870,2,10.1853739,57.4771846
1567904,Valmuevej,9870,3,10.1853515,57.4766232
1567905,Valmuevej,9870,4,10.1852997,57.4773932
1567908,Valmuevej,9870,5,10.1853516,57.4764052
1567909,Valmuevej,9870,6,10.1852862,57.4775947
1567912,Valmuevej,9870,7,10.1852944,57.476209
1567914,Valmuevej,9870,8,10.1853062,57.4778017
1567915,Valmuevej,9870,9,10.1849015,57.4762104
1567917,Valmuevej,9870,10,10.1848614,57.4777463
1567919,Valmuevej,9870,11,10.1848187,57.4764101
1567921,Valmuevej,9870,12,10.1847824,57.4775801
1567924,Valmuevej,9870,13,10.1849397,57.4766383
1567925,Valmuevej,9870,14,10.1848314,57.4773881
1567927,Valmuevej,9870,15,10.1849364,57.4768756
1567929,Valmuevej,9870,16,10.1848927,57.477192
1568071,Torvegade,9870,4,10.200381,57.4713
1568072,Torvegade,9870,5,10.2003429,57.4716115
1568074,Torvegade,9870,6A,10.2006118,57.4712956
1568076,Torvegade,9870,7,10.2002831,57.4716762
1568078,Torvegade,9870,8A,10.2010184,57.4713131
1568081,Torvegade,9870,15,10.2004132,57.4720244
1568082,Torvegade,9870,18,10.2016014,57.4721212
1568085,Torvegade,9870,22,10.2014572,57.4722752
1568262,Bækholmvej,9870,5,10.222811,57.442309
1568264,Bækholmvej,9870,31,10.2257649,57.4445556
1568266,Bækholmvej,9870,35,10.227162,57.4430518
1568268,Bækholmvej,9870,64,10.231068,57.442375
1568271,Bækholmvej,9870,107,10.2417553,57.4458258
1568273,Bækholmvej,9870,110,10.242119,57.440786
1568456,Nørre Torv,9870,3,10.2026736,57.4723022
1568457,Nørre Torv,9870,8,10.2030119,57.4720482
1568458,Nørre Torv,9870,10,10.2031007,57.472052
1568459,Nørre Torv,9870,11,10.2034539,57.4722483
1569375,Lærkevej,9870,1,10.2511073,57.4629755
1569379,Lærkevej,9870,2,10.2504709,57.4628225
1569382,Lærkevej,9870,3,10.251509,57.462915
1569385,Lærkevej,9870,4,10.2510275,57.4626072
1569387,Lærkevej,9870,5,10.2517634,57.4628205
1569388,Lærkevej,9870,6,10.2513339,57.4625337
1569393,Lærkevej,9870,7,10.25204,57.462719
1569395,Lærkevej,9870,8,10.2516124,57.4624567
1569397,Lærkevej,9870,9,10.2523872,57.4625908
1569399,Lærkevej,9870,10,10.251958,57.4623519
1569402,Lærkevej,9870,11,10.252813,57.462543
1569404,Lærkevej,9870,12,10.2523537,57.4621942
1569407,Lærkevej,9870,13,10.2532379,57.462504
1569412,Lærkevej,9870,14,10.2519414,57.461849
1569414,Lærkevej,9870,15,10.2530594,57.4622439
1569416,Lærkevej,9870,17,10.2528169,57.4619828
1569835,Krokusvej,9870,1,10.1916787,57.4788462
1569836,Krokusvej,9870,3,10.1912692,57.4788916
1569837,Krokusvej,9870,4,10.1914714,57.4791091
1569838,Krokusvej,9870,5,10.1908245,57.4788879
1569839,Krokusvej,9870,6,10.191,57.479119
1569840,Krokusvej,9870,7,10.1904207,57.4788307
1569841,Krokusvej,9870,8,10.1906533,57.479126
1569842,Krokusvej,9870,9,10.1900144,57.4787332
1569844,Krokusvej,9870,10,10.1901975,57.4791058
1569847,Krokusvej,9870,11,10.1896104,57.4786168
1569851,Krokusvej,9870,12,10.1899073,57.4790675
1569852,Krokusvej,9870,13,10.1892991,57.4784871
1569853,Krokusvej,9870,14,10.1895102,57.4789204
1569854,Krokusvej,9870,16,10.1891896,57.4787592
1569855,Krokusvej,9870,17,10.1881178,57.4783003
1569856,Krokusvej,9870,18,10.1888283,57.478661
1569857,Krokusvej,9870,19,10.1876709,57.4783541
1569858,Krokusvej,9870,20,10.1884683,57.4785863
1569859,Krokusvej,9870,22,10.1877668,57.4785692
1569960,Violvej,9870,1,10.1863573,57.4777905
1569964,Violvej,9870,2,10.1861512,57.4775341
1569968,Violvej,9870,3,10.1868675,57.4778263
1569972,Violvej,9870,4,10.1865859,57.477537
1569974,Violvej,9870,5,10.1872191,57.4778988
1569978,Violvej,9870,6,10.1870492,57.4775614
1569979,Violvej,9870,7,10.187792,57.4778569
1569982,Violvej,9870,8,10.1875129,57.4775651
1569985,Violvej,9870,9,10.1883193,57.4778932
1569988,Violvej,9870,10,10.1879382,57.4775599
1569990,Violvej,9870,12,10.1883204,57.4775958
1570076,Islandsgade,9870,2,10.2012281,57.4773467
1570077,Islandsgade,9870,3,10.2008523,57.477166
1570078,Islandsgade,9870,4A,10.2008767,57.4773059
1570079,Islandsgade,9870,4B,10.2007419,57.4773304
1570080,Islandsgade,9870,6,10.2005707,57.4773599
1570081,Islandsgade,9870,7,10.200395,57.4770797
1570082,Islandsgade,9870,8,10.2002886,57.4773341
1570083,Islandsgade,9870,9,10.2001368,57.477031
1570084,Islandsgade,9870,10,10.1996105,57.4773132
1570085,Islandsgade,9870,11,10.1992611,57.4770903
1570086,Islandsgade,9870,12,10.199266,57.477304
1570087,Islandsgade,9870,13,10.1987899,57.4770496
1570088,Islandsgade,9870,14,10.1987578,57.4772896
1570089,Islandsgade,9870,15,10.1984803,57.4769063
1570090,Islandsgade,9870,16,10.1978523,57.4773373
1570092,Islandsgade,9870,17,10.1978094,57.477046
1570094,Islandsgade,9870,18,10.1972681,57.4773116
1570095,Islandsgade,9870,19,10.1975279,57.4770317
1570097,Islandsgade,9870,21,10.1959182,57.4768183
1570099,Islandsgade,9870,22,10.1950525,57.4774512
1570102,Islandsgade,9870,23,10.1953371,57.4769041
1570809,Gaden,9870,21A,10.200113,57.483157
1570811,Gaden,9870,21B,10.199615,57.483228
1570813,Gaden,9870,25,10.2013016,57.4837522
1570816,Gaden,9870,44,10.2020487,57.4851681
1570817,Gaden,9870,46,10.2020679,57.4854371
1570819,Gaden,9870,48,10.2020815,57.4857084
1570821,Gaden,9870,50,10.2020969,57.4859634
1570823,Gaden,9870,54,10.2021151,57.4862164
1570824,Gaden,9870,55,10.201556,57.486439
1570825,Gaden,9870,56,10.2020608,57.4865504
1570826,Gaden,9870,57,10.2016892,57.4866745
1570827,Gaden,9870,58,10.2020489,57.4867021
1570828,Gaden,9870,59,10.2015703,57.4868637
1570829,Gaden,9870,60,10.2020694,57.4869319
1570830,Gaden,9870,60A,10.2020979,57.4869334
1570831,Gaden,9870,60B,10.2022166,57.4872334
1570832,Gaden,9870,61,10.2015751,57.487063
1570833,Gaden,9870,62,10.2021885,57.4875532
1570834,Gaden,9870,67,10.2015335,57.488401
1570835,Gaden,9870,86,10.2018607,57.4890171
1570836,Gaden,9870,87,10.2015,57.488941
1570837,Gaden,9870,88,10.2018382,57.4893058
1570838,Gaden,9870,89A,10.2013452,57.489425
1570839,Gaden,9870,89B,10.201167,57.489422
1570840,Gaden,9870,91,10.2013396,57.4899113
1570841,Gaden,9870,93,10.2001823,57.4904981
1570842,Gaden,9870,106,10.201767,57.4908867
1570843,Gaden,9870,107,10.200894,57.4912381
1570844,Gaden,9870,119,10.2012357,57.492376
1570845,Gaden,9870,120,10.2019815,57.492373
1570846,Gaden,9870,125,10.2013716,57.4929809
1570847,Gaden,9870,127,10.2008714,57.4927459
1570848,Gaden,9870,140,10.2017889,57.4938034
1570850,Gaden,9870,142,10.2020835,57.494259
1573079,Egevej,9870,3,10.2815746,57.503644
1573081,Egevej,9870,4,10.2816128,57.5033064
1573087,Markedsgade,9870,3,10.2030476,57.473148
1573089,Markedsgade,9870,5,10.2029406,57.4733732
1573091,Markedsgade,9870,9,10.2030989,57.4736326
1573093,Markedsgade,9870,11,10.2030924,57.4737096
1573095,Markedsgade,9870,13,10.2030704,57.4737977
1573096,Markedsgade,9870,15,10.2030696,57.4738903
1573097,Markedsgade,9870,17,10.2032243,57.4738578
1573098,Markedsgade,9870,19,10.2032336,57.4737834
1573099,Markedsgade,9870,21,10.203286,57.473691
1573100,Markedsgade,9870,23,10.203292,57.473604
1573101,Markedsgade,9870,25,10.2036491,57.47323
1574980,Rugvænget,9870,1,10.2123501,57.4728492
1574982,Rugvænget,9870,2,10.2127954,57.4728699
1574983,Rugvænget,9870,3,10.211748,57.472933
1574984,Rugvænget,9870,4,10.2128347,57.4727858
1574987,Rugvænget,9870,5,10.211336,57.472967
1574988,Rugvænget,9870,6,10.2128756,57.472701
1574990,Rugvænget,9870,7,10.210967,57.472959
1574991,Rugvænget,9870,8,10.2133543,57.4728201
1574993,Rugvænget,9870,9,10.2102789,57.4730074
1574995,Rugvænget,9870,10,10.2133998,57.4727347
1574996,Rugvænget,9870,11,10.2103482,57.4732592
1574998,Rugvænget,9870,12,10.2134375,57.4726486
1575000,Rugvænget,9870,13,10.2103687,57.4734648
1575001,Rugvænget,9870,14,10.2133798,57.4730065
1575002,Rugvænget,9870,15,10.2104058,57.4736593
1575003,Rugvænget,9870,16,10.2134471,57.4730764
1575004,Rugvænget,9870,17,10.2104755,57.4738656
1575005,Rugvænget,9870,18,10.2135402,57.4731639
1575006,Rugvænget,9870,19,10.2105453,57.4740942
1575007,Rugvænget,9870,20,10.2128979,57.4730414
1575008,Rugvænget,9870,21,10.2112586,57.4740032
1575009,Rugvænget,9870,22,10.2129866,57.4731094
1575010,Rugvænget,9870,24,10.2130802,57.4731933
1575011,Rugvænget,9870,25,10.2110201,57.4735241
1575012,Rugvænget,9870,26,10.2130331,57.4734619
1575013,Rugvænget,9870,27,10.2110856,57.4732715
1575014,Rugvænget,9870,28,10.2130734,57.4733801
1575015,Rugvænget,9870,29,10.2117363,57.4732482
1575016,Rugvænget,9870,30,10.2131094,57.4732824
1575017,Rugvænget,9870,31,10.2117943,57.4734901
1575018,Rugvænget,9870,32,10.2134918,57.4734187
1575019,Rugvænget,9870,33,10.211846,57.473742
1575020,Rugvænget,9870,34,10.2135305,57.4733313
1575021,Rugvænget,9870,35,10.2119177,57.4739434
1575022,Rugvænget,9870,36,10.2135651,57.4732398
1575024,Rugvænget,9870,37,10.2123529,57.4738958
1575027,Rugvænget,9870,39,10.2123411,57.473702
1575032,Rugvænget,9870,40,10.2136693,57.4736375
1575034,Rugvænget,9870,41,10.2121953,57.4734564
1575036,Rugvænget,9870,42,10.2136873,57.4736993
1575038,Rugvænget,9870,43,10.2121951,57.4732255
1575040,Rugvænget,9870,44,10.2137507,57.4737698
1575044,Rugvænget,9870,45,10.212751,57.474195
1575046,Rugvænget,9870,46,10.2137663,57.4738256
1575050,Rugvænget,9870,47,10.212329,57.474269
1575052,Rugvænget,9870,48,10.2134059,57.473718
1575055,Rugvænget,9870,49,10.212029,57.474503
1575059,Rugvænget,9870,50,10.2132187,57.4737341
1575061,Rugvænget,9870,51,10.2117336,57.4743452
1575063,Rugvænget,9870,52,10.2130586,57.4737489
1575066,Rugvænget,9870,53,10.2113635,57.474219
1575068,Rugvænget,9870,54,10.2132165,57.4738581
1575071,Rugvænget,9870,55,10.2110304,57.4743002
1575072,Rugvænget,9870,56,10.2132433,57.4739394
1575073,Rugvænget,9870,57,10.2110563,57.4746211
1575074,Rugvænget,9870,58,10.2133124,57.4740329
1575075,Rugvænget,9870,59,10.2113857,57.4747708
1575076,Rugvænget,9870,60,10.2133774,57.4741182
1575077,Rugvænget,9870,61,10.211748,57.474861
1575078,Rugvænget,9870,62,10.2135188,57.4740259
1575080,Rugvænget,9870,63,10.2123386,57.4750053
1575082,Rugvænget,9870,64,10.2136165,57.4740172
1575084,Rugvænget,9870,65,10.2128552,57.4744048
1575086,Rugvænget,9870,66,10.2137701,57.4740019
1575088,Rugvænget,9870,68,10.2138863,57.4739917
1575089,Rugvænget,9870,70,10.2139531,57.4741173
1575090,Rugvænget,9870,72,10.2140237,57.4742137
1575091,Rugvænget,9870,74,10.214052,57.4743007
1575092,Rugvænget,9870,76,10.2140756,57.4743749
1575093,Rugvænget,9870,78,10.2137918,57.4743414
1575094,Rugvænget,9870,80,10.2136566,57.4743523
1575095,Rugvænget,9870,82,10.2135549,57.474366
1575096,Rugvænget,9870,84,10.2134205,57.4743817
1576204,Pletvej,9870,1,10.2622568,57.5009443
1576206,Pletvej,9870,2,10.263142,57.502415
1576207,Pletvej,9870,17,10.2606634,57.5014108
1576208,Pletvej,9870,70,10.2590092,57.5065236
1576209,Pletvej,9870,80,10.2579425,57.5073946
1576210,Pletvej,9870,96,10.2561006,57.5082118
1576211,Pletvej,9870,101,10.2538843,57.5077489
1576212,Pletvej,9870,112,10.253658,57.510081
1576213,Pletvej,9870,135,10.2525598,57.5103748
1576214,Pletvej,9870,140,10.2549928,57.5115276
1576877,Tolnevej,9870,11,10.32577,57.4777153
1576880,Tolnevej,9870,15,10.3264658,57.4780324
1576883,Tolnevej,9870,51,10.32004,57.480902
1576885,Tolnevej,9870,60,10.3201469,57.4823112
1576891,Tolnevej,9870,114,10.3176298,57.4857483
1576896,Tolnevej,9870,116,10.3175256,57.4858742
1576899,Tolnevej,9870,119,10.317288,57.485655
1576905,Tolnevej,9870,120,10.317633,57.4865993
1576910,Tolnevej,9870,122,10.3170654,57.486385
1576914,Tolnevej,9870,124,10.317029,57.4865351
1576918,Tolnevej,9870,125,10.3167054,57.4865666
1576923,Tolnevej,9870,126,10.3167835,57.4870204
1576926,Tolnevej,9870,127,10.316428,57.486775
1576929,Tolnevej,9870,130,10.316558,57.487316
1576934,Tolnevej,9870,132,10.316434,57.487514
1576937,Tolnevej,9870,133,10.3159545,57.4874852
1576939,Tolnevej,9870,134,10.318523,57.4872977
1576942,Tolnevej,9870,139,10.3161037,57.4878727
1576944,Tolnevej,9870,141,10.3161957,57.4880583
1576945,Tolnevej,9870,143,10.3153208,57.4880409
1576946,Tolnevej,9870,145,10.3147897,57.4878676
1576947,Tolnevej,9870,158,10.3189554,57.4894953
1576948,Tolnevej,9870,161,10.3149006,57.4901704
1576950,Tolnevej,9870,165,10.317716,57.489912
1576952,Tolnevej,9870,261,10.311714,57.4934267
1576954,Tolnevej,9870,263,10.3082275,57.4946067
1576956,Tolnevej,9870,267,10.3100657,57.4967642
1576957,Tolnevej,9870,297,10.315284,57.49969
1576959,Tolnevej,9870,299,10.3119994,57.4999915
1576960,Tolnevej,9870,310,10.317521,57.500977
1576961,Tolnevej,9870,313A,10.3161802,57.5018825
1576962,Tolnevej,9870,313B,10.3158412,57.5018861
1576963,Tolnevej,9870,322,10.317665,57.502792
1576964,Tolnevej,9870,323,10.317112,57.502529
1576965,Tolnevej,9870,326,10.3187168,57.5030524
1576966,Tolnevej,9870,327,10.3169162,57.5029547
1576967,Tolnevej,9870,329,10.317098,57.503176
1576968,Tolnevej,9870,330,10.3175323,57.5033123
1576969,Tolnevej,9870,331,10.317018,57.503402
1576970,Tolnevej,9870,333,10.3171151,57.5036802
1576973,Tolnevej,9870,334,10.3175404,57.5036226
1576974,Tolnevej,9870,338,10.3174232,57.5039678
1577062,Kornblomstvej,9870,1,10.1885139,57.4760182
1577063,Kornblomstvej,9870,3,10.1885152,57.4761253
1577064,Kornblomstvej,9870,5,10.18844,57.476271
1577065,Kornblomstvej,9870,7,10.1884413,57.476382
1577066,Kornblomstvej,9870,9,10.1879496,57.476476
1577067,Kornblomstvej,9870,11,10.1879501,57.4765737
1577195,Åsenhøjvej,9870,30,10.1667862,57.4922995
1577196,Åsenhøjvej,9870,50,10.1669946,57.4904849
1577206,Tislumvej,9870,1,10.242749,57.4596466
1577207,Tislumvej,9870,3,10.2428562,57.4594671
1577208,Tislumvej,9870,4,10.241463,57.459279
1577209,Tislumvej,9870,5,10.2429561,57.4592734
1577210,Tislumvej,9870,29,10.243748,57.457917
1577211,Tislumvej,9870,101,10.2498222,57.4518663
1577212,Tislumvej,9870,162,10.25184,57.446019
1577213,Tislumvej,9870,204,10.258553,57.443779
1577215,Tislumvej,9870,209,10.2734522,57.4402096
1577216,Tislumvej,9870,298,10.261578,57.437598
1577217,Tislumvej,9870,300,10.2657057,57.4374323
1577218,Tislumvej,9870,301,10.266295,57.437717
1577220,Tislumvej,9870,315,10.2686094,57.4370665
1577221,Tislumvej,9870,321,10.2686895,57.4355732
1577222,Tislumvej,9870,330,10.26825,57.43493
1577223,Tislumvej,9870,345,10.270057,57.434129
1577224,Tislumvej,9870,356,10.268968,57.432997
1577225,Tislumvej,9870,359,10.275752,57.4328327
1577227,Tislumvej,9870,394,10.2699233,57.4293339
1577230,Tislumvej,9870,420,10.272015,57.426069
1577234,Tislumvej,9870,465,10.279415,57.427441
1577238,Tislumvej,9870,470,10.2768886,57.4265937
1577241,Tislumvej,9870,488,10.2754452,57.421888
1577247,Tislumvej,9870,490,10.271273,57.422797
1577250,Tislumvej,9870,501,10.278787,57.421432
1577255,Tislumvej,9870,502,10.2782105,57.420886
1577258,Tislumvej,9870,503,10.2808558,57.420752
1577260,Tislumvej,9870,540,10.2798688,57.4176409
1577262,Tislumvej,9870,556,10.275709,57.418898
1577264,Tislumvej,9870,566,10.2811444,57.4151601
1577594,Niels Bohrs Vej,9870,9,10.2001238,57.487027
1577596,Niels Bohrs Vej,9870,10,10.1973564,57.487457
1577598,Niels Bohrs Vej,9870,11,10.1984295,57.4867697
1577600,Niels Bohrs Vej,9870,12,10.197018,57.486861
1577601,Niels Bohrs Vej,9870,14,10.1969528,57.4863511
1577602,Norgesgade,9870,2,10.2015476,57.4737967
1577603,Norgesgade,9870,3,10.2009505,57.473584
1577604,Norgesgade,9870,4,10.200919,57.4738445
1577605,Norgesgade,9870,5,10.2005592,57.4735049
1577606,Norgesgade,9870,6,10.200571,57.473823
1577645,Solsikkevej,9870,10,10.1868663,57.4764348
1577646,Solsikkevej,9870,14,10.1862904,57.4781272
1577647,Solsikkevej,9870,16,10.1867548,57.4782053
1577648,Solsikkevej,9870,17,10.185773,57.478087
1577649,Solsikkevej,9870,18,10.1872143,57.4782324
1577650,Solsikkevej,9870,19,10.185777,57.478359
1577651,Solsikkevej,9870,20,10.1871383,57.4784622
1577652,Solsikkevej,9870,21,10.1855363,57.4785603
1577653,Solsikkevej,9870,22,10.187071,57.4787009
1577654,Solsikkevej,9870,24,10.186644,57.478545
1577655,Solsikkevej,9870,26,10.1861762,57.4786217
1577680,Agerledetvej,9870,2,10.202057,57.488614
1577681,Agerledetvej,9870,3,10.202999,57.489172
1577682,Agerledetvej,9870,11,10.2038121,57.4892059
1577683,Agerledetvej,9870,16,10.2045675,57.4888993
1577685,Agerledetvej,9870,18,10.205192,57.488728
1577687,Agerledetvej,9870,19,10.2049665,57.48916
1577689,Agerledetvej,9870,26,10.2057531,57.4889536
1577691,Agerledetvej,9870,28,10.2064778,57.488965
1577785,Klarupvej,9870,29,10.2858913,57.4605235
1577788,Klarupvej,9870,53,10.286486,57.4588346
1577790,Klarupvej,9870,60,10.2863,57.458045
1577791,Klarupvej,9870,80,10.291684,57.456668
1577794,Klarupvej,9870,90,10.2883373,57.4542457
1577804,Porsenvej,9870,5,10.2967685,57.5201548
1577805,Porsenvej,9870,50,10.2903645,57.5217562
1577806,Porsenvej,9870,60,10.2886302,57.5216223
1577807,Porsenvej,9870,70,10.2869108,57.5216038
1577808,Porsenvej,9870,91,10.283594,57.521302
1577809,Porsenvej,9870,100,10.28177,57.522027
1577810,Porsenvej,9870,112,10.280062,57.522499
1577811,Porsenvej,9870,123,10.2805835,57.5183147
1577812,Porsenvej,9870,124,10.2774912,57.5210612
1577813,Porsenvej,9870,125,10.278907,57.517777
1577814,Porsenvej,9870,150,10.275143,57.521508
1578029,Heimdalsvej,9870,1,10.1880008,57.4721526
1578030,Heimdalsvej,9870,2,10.1872873,57.4720155
1578031,Heimdalsvej,9870,3,10.1884894,57.4722347
1578032,Heimdalsvej,9870,4,10.187046,57.471811
1578033,Heimdalsvej,9870,5,10.1888393,57.4721877
1578034,Heimdalsvej,9870,6,10.1866144,57.4717121
1578035,Heimdalsvej,9870,7,10.1890832,57.4719361
1578036,Heimdalsvej,9870,8,10.1866118,57.4715313
1578037,Heimdalsvej,9870,9,10.1886736,57.4718438
1578038,Heimdalsvej,9870,10,10.1871631,57.4715677
1578039,Heimdalsvej,9870,11,10.1883177,57.4717647
1578040,Heimdalsvej,9870,12,10.1875505,57.4717054
1578041,Heimdalsvej,9870,13,10.1885927,57.4712508
1578042,Heimdalsvej,9870,14,10.1879443,57.4714003
1578043,Heimdalsvej,9870,15,10.1890464,57.4712738
1578044,Heimdalsvej,9870,16,10.1873491,57.4712945
1578045,Heimdalsvej,9870,17,10.1894874,57.4714012
1578046,Heimdalsvej,9870,18,10.1867991,57.4711364
1578047,Heimdalsvej,9870,19,10.1895449,57.470909
1578048,Heimdalsvej,9870,20,10.186913,57.4709163
1578049,Heimdalsvej,9870,21,10.1891357,57.470895
1578050,Heimdalsvej,9870,22,10.1875097,57.4710123
1578051,Heimdalsvej,9870,23,10.1887298,57.4708692
1578052,Heimdalsvej,9870,24,10.1878783,57.4711247
1578053,Heimdalsvej,9870,26,10.1879509,57.4707215
1578054,Heimdalsvej,9870,28,10.187487,57.470694
1578055,Heimdalsvej,9870,30,10.1868842,57.4706537
1578056,Heimdalsvej,9870,32,10.187001,57.470429
1578057,Heimdalsvej,9870,34,10.1873922,57.4703961
1578058,Heimdalsvej,9870,36,10.1878238,57.4704633
1578134,Gilkrogvej,9870,1,10.2208628,57.5109832
1578135,Gilkrogvej,9870,5,10.2255436,57.5105504
1578136,Gilkrogvej,9870,51,10.2314435,57.5085822
1578137,Gilkrogvej,9870,60,10.23301,57.507712
1578662,Amagergade,9870,1,10.2049081,57.4696714
1578663,Amagergade,9870,2A,10.2028355,57.4696969
1578664,Amagergade,9870,2B,10.2028344,57.4696833
1578665,Amagergade,9870,3A,10.203569,57.469484
1578666,Amagergade,9870,3B,10.2040437,57.4691084
1578667,Amagergade,9870,4A,10.2029771,57.4695955
1578668,Amagergade,9870,4B,10.2029763,57.4695807
1578669,Amagergade,9870,5,10.2067554,57.4692461
1578670,Amagergade,9870,6,10.2032091,57.4694686
1578671,Amagergade,9870,8,10.2033472,57.4693311
1578672,Amagergade,9870,10,10.2033686,57.469202
1578673,Amagergade,9870,12,10.2035404,57.4691341
1578674,Amagergade,9870,14,10.2036763,57.4689407
1578675,Amagergade,9870,15,10.2107781,57.466747
1578676,Amagergade,9870,18,10.204104,57.46859
1578677,Amagergade,9870,22,10.204266,57.468433
1578678,Amagergade,9870,23,10.2064133,57.4677358
1578679,Amagergade,9870,24,10.2043504,57.4682846
1578712,Abildgårdsvej,9870,1,10.3225151,57.4922519
1578714,Abildgårdsvej,9870,2,10.3242782,57.4937727
1578716,Abildgårdsvej,9870,10,10.3291539,57.4890926
1578717,Abildgårdsvej,9870,84,10.335379,57.491544
1578718,Abildgårdsvej,9870,126,10.3442334,57.4939428
1578719,Abildgårdsvej,9870,150,10.3447739,57.4948282
1578720,Abildgårdsvej,9870,152,10.347529,57.493227
1578721,Abildgårdsvej,9870,154,10.354794,57.492385
1578722,Abildgårdsvej,9870,180,10.350023,57.495641
1578723,Abildgårdsvej,9870,186,10.355866,57.496811
1578724,Abildgårdsvej,9870,188,10.3582736,57.4969161
1578725,Abildgårdsvej,9870,199,10.345874,57.499218
1578727,Abildgårdsvej,9870,271,10.3408406,57.5003315
1578729,Abildgårdsvej,9870,280,10.339077,57.50296
1578814,Tuenvej,9870,370,10.360161,57.508833
1578815,Tuenvej,9870,375,10.3584746,57.5062608
1578816,Tuenvej,9870,385,10.3565197,57.5060538
1578817,Tuenvej,9870,450,10.3520547,57.5106702
1578818,Tuenvej,9870,452,10.355766,57.5114158
1578819,Tuenvej,9870,461,10.345761,57.5095486
1578820,Tuenvej,9870,498,10.3449371,57.5137406
1578821,Tuenvej,9870,500,10.3451608,57.5136974
1578822,Tuenvej,9870,501,10.343745,57.5132862
1578823,Tuenvej,9870,510,10.3435401,57.5149207
1578827,Tuenvej,9870,535,10.339509,57.514583
1578829,Tuenvej,9870,540,10.340177,57.516328
1578830,Tuenvej,9870,550,10.3382666,57.5170901
1578831,Tuenvej,9870,551,10.3372028,57.516901
1578832,Tuenvej,9870,560,10.3376128,57.5180698
1578833,Tuenvej,9870,561,10.3339388,57.5174913
1578834,Tuenvej,9870,565,10.3325333,57.5170796
1578835,Tuenvej,9870,587,10.3337745,57.5187542
1578836,Tuenvej,9870,611,10.3278432,57.5180808
1578837,Tuenvej,9870,640,10.328502,57.523815
1578838,Tuenvej,9870,641,10.323242,57.522744
1578839,Tuenvej,9870,643,10.3228955,57.5226642
1578840,Tuenvej,9870,672,10.3264798,57.5253072
1578841,Tuenvej,9870,690,10.3250337,57.5264104
1578842,Tuenvej,9870,700,10.3336351,57.5325343
1578845,Tuenvej,9870,719,10.3144134,57.5247867
1578846,Tuenvej,9870,728,10.3189752,57.5291048
1578849,Tuenvej,9870,730,10.3189325,57.5292063
1578851,Tuenvej,9870,732,10.3214281,57.5305998
1578852,Tuenvej,9870,760,10.3164576,57.531165
1578855,Tuenvej,9870,762,10.3163258,57.5313998
1578858,Tuenvej,9870,763,10.3158788,57.5310904
1578861,Tuenvej,9870,764,10.3161218,57.5315108
1578866,Tuenvej,9870,766,10.315715,57.531783
1578868,Tuenvej,9870,768,10.315332,57.5319969
1578870,Tuenvej,9870,770,10.315032,57.532231
1578873,Tuenvej,9870,772,10.314483,57.532665
1578874,Tuenvej,9870,790,10.3130261,57.5338209
1578878,Tuenvej,9870,818,10.3130467,57.5362162
1578880,Tuenvej,9870,820,10.3103811,57.5360838
1578883,Tuenvej,9870,848,10.308473,57.537547
1578885,Tuenvej,9870,850,10.3082503,57.5378922
1578887,Tuenvej,9870,854,10.314242,57.539695
1578889,Tuenvej,9870,860,10.3072572,57.5390539
1578892,Tuenvej,9870,888,10.3046955,57.5412286
1578894,Tuenvej,9870,905,10.3027136,57.5425778
1578896,Tuenvej,9870,920,10.3022884,57.5442201
1578897,Tuenvej,9870,934,10.3012459,57.545492
1578898,Tuenvej,9870,958,10.2997578,57.5465185
1578899,Tuenvej,9870,960,10.2998715,57.5469283
1579283,Jasminvej,9870,1,10.1914827,57.4777498
1579284,Jasminvej,9870,2,10.1914936,57.4780543
1579285,Jasminvej,9870,3,10.1909912,57.4777195
1579286,Jasminvej,9870,4,10.1906118,57.4780109
1579287,Jasminvej,9870,5,10.1905382,57.4777018
1579288,Jasminvej,9870,6,10.190657,57.4782435
1579289,Jasminvej,9870,7,10.1901118,57.477679
1579290,Jasminvej,9870,8,10.1906172,57.4784489
1579292,Jasminvej,9870,9,10.1897335,57.4776612
1579294,Jasminvej,9870,10,10.1901642,57.4784047
1579296,Jasminvej,9870,11,10.1892859,57.4776359
1579299,Jasminvej,9870,12,10.1901536,57.4782411
1579301,Jasminvej,9870,13,10.1887828,57.477604
1579303,Jasminvej,9870,14,10.190189,57.478
1579306,Jasminvej,9870,15,10.188944,57.4778998
1579307,Jasminvej,9870,16,10.1894791,57.4779346
1579308,Jasminvej,9870,17,10.1888802,57.4781326
1579311,Jasminvej,9870,18,10.1893128,57.4782078
1579313,Jasminvej,9870,19,10.1888014,57.4783327
1579639,Paradisvej,9870,1,10.3125419,57.4811808
1579642,Paradisvej,9870,2,10.3129032,57.4810422
1579646,Paradisvej,9870,3,10.3122561,57.4813338
1579648,Paradisvej,9870,4,10.3128921,57.4807879
1579650,Paradisvej,9870,5,10.312595,57.4815077
1579652,Paradisvej,9870,6,10.313351,57.480898
1579655,Paradisvej,9870,7,10.3131223,57.4817063
1579656,Paradisvej,9870,8,10.3138582,57.4811254
1579660,Paradisvej,9870,9,10.3131101,57.4815189
1579663,Paradisvej,9870,10,10.3134722,57.4812228
1579906,Erantisvej,9870,1,10.1922946,57.477051
1579907,Erantisvej,9870,2,10.19243,57.4767543
1579908,Erantisvej,9870,3,10.1926327,57.4770371
1579909,Erantisvej,9870,4,10.1927468,57.4767361
1579910,Erantisvej,9870,5,10.1930383,57.4770343
1579911,Erantisvej,9870,6,10.1930182,57.4768053
1579912,Erantisvej,9870,7,10.193387,57.4770615
1579913,Erantisvej,9870,8,10.1934253,57.4768382
1579914,Erantisvej,9870,9,10.1937253,57.4771583
1579915,Erantisvej,9870,10,10.1937878,57.476843
1579916,Erantisvej,9870,11,10.1941438,57.4771452
1579917,Erantisvej,9870,12,10.1941953,57.4769553
1803617,Ugiltvej,9870,12,10.206024,57.463145
1803618,Ugiltvej,9870,15,10.20831,57.4609849
1803619,Ugiltvej,9870,19,10.2082896,57.4594297
1803620,Ugiltvej,9870,20,10.199477,57.457491
1803621,Ugiltvej,9870,21,10.2084598,57.4589515
1803622,Ugiltvej,9870,22,10.19217,57.4544936
1803626,Ugiltvej,9870,30,10.20672,57.451208
1803629,Ugiltvej,9870,36,10.204924,57.446861
1803633,Ugiltvej,9870,44,10.199446,57.443642
1803636,Ugiltvej,9870,67,10.2043841,57.4417984
1803639,Ugiltvej,9870,75,10.202229,57.439546
1803642,Ugiltvej,9870,80,10.197911,57.440943
1803643,Ugiltvej,9870,99,10.201418,57.4377444
1803646,Ugiltvej,9870,101,10.2011875,57.4374202
1803648,Ugiltvej,9870,102,10.1945708,57.4394157
1803651,Ugiltvej,9870,120,10.199743,57.435718
1803654,Ugiltvej,9870,137,10.202057,57.435058
1803655,Ugiltvej,9870,151,10.2073939,57.4329863
1803658,Ugiltvej,9870,163,10.2042156,57.4329156
1803659,Ugiltvej,9870,180,10.1958919,57.4317052
1803662,Ugiltvej,9870,200,10.19247,57.4318
1803663,Ugiltvej,9870,201,10.1948788,57.427157
1803666,Ugiltvej,9870,202,10.1929926,57.4303452
1803669,Ugiltvej,9870,203,10.1931256,57.4298917
1803671,Ugiltvej,9870,210,10.1916291,57.4300052
1803675,Ugiltvej,9870,216,10.1906961,57.4295016
1803676,Ugiltvej,9870,218,10.1902239,57.4293006
1803679,Ugiltvej,9870,231,10.1883054,57.4286003
1803682,Ugiltvej,9870,240,10.186197,57.428727
1803683,Ugiltvej,9870,251,10.1849663,57.4281896
1803686,Ugiltvej,9870,256,10.1849346,57.4284826
1803688,Ugiltvej,9870,258,10.1845225,57.4284298
1803691,Ugiltvej,9870,260,10.1842397,57.4283992
1803693,Ugiltvej,9870,261,10.1834288,57.4267548
1803695,Ugiltvej,9870,282,10.179194,57.4276319
1803697,Ugiltvej,9870,285,10.179219,57.4274013
1803700,Ugiltvej,9870,286,10.1788936,57.4275827
1803701,Ugiltvej,9870,287,10.1787218,57.4273343
1803704,Ugiltvej,9870,288,10.1785636,57.427531
1803706,Ugiltvej,9870,290,10.1783184,57.4274981
1803707,Ugiltvej,9870,291,10.1783322,57.4273035
1803710,Ugiltvej,9870,292,10.1780373,57.4274884
1803712,Ugiltvej,9870,293,10.178008,57.4272597
1803714,Ugiltvej,9870,294,10.1777088,57.4274309
1803717,Ugiltvej,9870,295A,10.1778624,57.4272475
1803719,Ugiltvej,9870,295B,10.1777914,57.4272354
1803720,Ugiltvej,9870,295C,10.1777182,57.4272247
1803723,Ugiltvej,9870,296A,10.1768547,57.4272805
1803725,Ugiltvej,9870,296B,10.1767598,57.4272793
1803727,Ugiltvej,9870,297,10.1771544,57.427137
1803729,Ugiltvej,9870,298,10.1744928,57.4272344
1803730,Ugiltvej,9870,299A,10.1775263,57.4267681
1803733,Ugiltvej,9870,299B,10.1768603,57.4268286
1803736,Ugiltvej,9870,300,10.1738334,57.427227
1803737,Ugiltvej,9870,301,10.17901,57.426085
1803739,Ugiltvej,9870,303,10.1766081,57.4270819
1803742,Ugiltvej,9870,304,10.1734269,57.427173
1803743,Ugiltvej,9870,306,10.173015,57.4270436
1803747,Ugiltvej,9870,308,10.1725679,57.4269958
1803750,Ugiltvej,9870,316,10.1717764,57.4267551
1803752,Ugiltvej,9870,399A,10.160936,57.426062
1803757,Ugiltvej,9870,405,10.159643,57.4260401
1803763,Ugiltvej,9870,410,10.1587521,57.4265071
1803767,Ugiltvej,9870,413,10.1582896,57.4262934
1803771,Ugiltvej,9870,414,10.1580098,57.4266057
1803776,Ugiltvej,9870,420,10.1567923,57.4284855
1803779,Ugiltvej,9870,422,10.1524599,57.4290082
1803788,Ugiltvej,9870,425,10.1553387,57.422859
1803791,Ugiltvej,9870,460,10.1509802,57.4255707
1803796,Ugiltvej,9870,462,10.1505934,57.4254949
1803798,Ugiltvej,9870,464,10.149608,57.428186
1803804,Ugiltvej,9870,470,10.14791,57.4256861
1803809,Ugiltvej,9870,475,10.1476205,57.4236987
1803816,Ugiltvej,9870,517,10.1520677,57.4206743
1803818,Ugiltvej,9870,519,10.1476123,57.4217215
1831346,Kirkevej,9870,1,10.3085701,57.4607951
1831347,Kirkevej,9870,2,10.3097497,57.460515
1831348,Kirkevej,9870,3,10.309028,57.4610371
1831349,Kirkevej,9870,5,10.3087182,57.461183
1831350,Kirkevej,9870,6,10.309519,57.4608946
1831351,Kirkevej,9870,8,10.3103053,57.4611095
1831352,Kirkevej,9870,100,10.3198503,57.4700864
1831353,Kirkevej,9870,120,10.315878,57.4707085
1831354,Kirkevej,9870,124,10.3150184,57.4715985
1831355,Kirkevej,9870,127,10.314086,57.4709316
1831356,Kirkevej,9870,128,10.3150114,57.4721737
1831357,Kirkevej,9870,129,10.3129964,57.4717082
1831358,Kirkevej,9870,130,10.3149787,57.4723694
1831359,Kirkevej,9870,132,10.3149506,57.4725506
1831361,Kirkevej,9870,134,10.3149223,57.4727323
1831364,Kirkevej,9870,135,10.313783,57.472219
1831367,Kirkevej,9870,136,10.3149022,57.4729898
1831368,Kirkevej,9870,137,10.31427,57.472549
1831372,Kirkevej,9870,138,10.3148774,57.4731513
1831373,Kirkevej,9870,139,10.312898,57.472584
1831375,Kirkevej,9870,140,10.3148409,57.4733419
1831378,Kirkevej,9870,142,10.3150683,57.4736046
1831381,Kirkevej,9870,143,10.314087,57.4729668
1831384,Kirkevej,9870,144,10.3147799,57.473794
1831385,Kirkevej,9870,145,10.314058,57.4732058
1831386,Kirkevej,9870,146,10.3147144,57.4741211
1831387,Kirkevej,9870,147,10.3141007,57.4734243
1831388,Kirkevej,9870,148,10.3146709,57.4743588
1831389,Kirkevej,9870,149,10.31411,57.473588
1831390,Kirkevej,9870,167,10.3137581,57.4751829
1831391,Kirkevej,9870,182,10.3180527,57.4769237
1831392,Kirkevej,9870,199,10.3134107,57.4786217
1831393,Kirkevej,9870,201,10.3132104,57.478729
1831394,Kirkevej,9870,214,10.314023,57.4790101
1831395,Kirkevej,9870,216,10.3149005,57.479207
1831396,Kirkevej,9870,218,10.3148013,57.4799343
1831397,Kirkevej,9870,220,10.3142469,57.4802997
1831398,Kirkevej,9870,222,10.313879,57.4797795
1831399,Kirkevej,9870,225,10.3120893,57.4798843
1831401,Kirkevej,9870,226,10.313255,57.480302
1831405,Kirkevej,9870,228,10.3129251,57.4804484
1831407,Kirkevej,9870,233,10.3121337,57.4806468
1831408,Kirkevej,9870,235,10.311949,57.480791
1831409,Kirkevej,9870,237,10.3117516,57.4809324
1831410,Kirkevej,9870,238,10.3115402,57.4815203
1831411,Kirkevej,9870,240,10.3114121,57.4816394
1831412,Kirkevej,9870,241,10.3110794,57.4814309
1831413,Kirkevej,9870,242,10.3108821,57.4820233
1831414,Kirkevej,9870,243,10.3108588,57.4815596
1831418,Kirkevej,9870,244,10.3117852,57.4827054
1831421,Kirkevej,9870,245,10.3103609,57.4819156
1831424,Kirkevej,9870,246,10.3106689,57.4822442
1831426,Kirkevej,9870,247,10.3095108,57.4818906
1831428,Kirkevej,9870,248,10.3103691,57.4823571
1831432,Kirkevej,9870,249,10.31017,57.4821108
1831433,Kirkevej,9870,250A,10.3103016,57.4824756
1831437,Kirkevej,9870,250B,10.31012,57.482683
1831439,Kirkevej,9870,251,10.309245,57.482091
1831440,Kirkevej,9870,252,10.309803,57.482866
1831443,Kirkevej,9870,253,10.3098654,57.4822923
1831446,Kirkevej,9870,254,10.3096615,57.4830001
1831448,Kirkevej,9870,255A,10.3095916,57.4824802
1831451,Kirkevej,9870,255B,10.308804,57.482455
1831454,Kirkevej,9870,261,10.3089519,57.4832917
1831455,Kirkevej,9870,263,10.308926,57.4836058
1831458,Kirkevej,9870,265,10.3090127,57.4837313
1831459,Kirkevej,9870,267,10.3091895,57.4839869
1831460,Kirkevej,9870,268,10.309624,57.4837458
1831461,Kirkevej,9870,269,10.3089066,57.4839929
1831462,Kirkevej,9870,270,10.3096638,57.4841401
1831463,Kirkevej,9870,273,10.309572,57.4846061
1831464,Kirkevej,9870,274,10.310073,57.484529
1831465,Kirkevej,9870,282,10.3113457,57.4852061
1831466,Kirkevej,9870,283,10.3120497,57.4854022
1831467,Kirkevej,9870,284,10.3115861,57.4852232
1831468,Kirkevej,9870,285,10.3124621,57.4854815
1831469,Kirkevej,9870,286,10.3120044,57.485256
1831470,Kirkevej,9870,295,10.3121983,57.4856386
1831471,Kirkevej,9870,298A,10.3136704,57.4856504
1831472,Kirkevej,9870,298B,10.3138189,57.4852787
1831473,Kirkevej,9870,300A,10.3142928,57.4856693
1831474,Kirkevej,9870,300B,10.3143195,57.4856251
1831475,Kirkevej,9870,304,10.3149609,57.4856807
1831476,Kirkevej,9870,306A,10.3155736,57.4854597
1831477,Kirkevej,9870,306B,10.3155757,57.4857346
1831478,Kirkevej,9870,308,10.3157789,57.4857638
1831479,Kirkevej,9870,310,10.3161358,57.4855893
1831480,Kirkevej,9870,312,10.3163697,57.4857155
1831481,Kirkevej,9870,314,10.3166623,57.4858272
1831881,Friggsvej,9870,1,10.1816666,57.4704495
1831882,Friggsvej,9870,2,10.1815151,57.4707799
1831883,Friggsvej,9870,3,10.1814946,57.4701552
1831884,Friggsvej,9870,4,10.1815775,57.4710278
1831885,Friggsvej,9870,5,10.1810303,57.4701792
1831886,Friggsvej,9870,6,10.1815051,57.4712523
1831887,Friggsvej,9870,7,10.1810162,57.470401
1831888,Friggsvej,9870,8,10.1810694,57.4711907
1831889,Friggsvej,9870,9,10.1802825,57.4704146
1831890,Friggsvej,9870,10,10.1810953,57.4710026
1831891,Friggsvej,9870,11,10.180453,57.470142
1831892,Friggsvej,9870,12,10.1810416,57.4707772
1831893,Friggsvej,9870,13,10.1798042,57.4701372
1831894,Friggsvej,9870,14,10.1804266,57.4707894
1831895,Friggsvej,9870,15,10.1798617,57.4704066
1831896,Friggsvej,9870,16,10.1803902,57.4710237
1831897,Friggsvej,9870,17,10.179141,57.4703854
1831898,Friggsvej,9870,18,10.1804803,57.4713378
1831899,Friggsvej,9870,19,10.1790961,57.4700782
1831900,Friggsvej,9870,20,10.179972,57.471285
1831901,Friggsvej,9870,21,10.1786083,57.470074
1831902,Friggsvej,9870,22,10.179957,57.4711051
1831903,Friggsvej,9870,23,10.1786318,57.4703028
1831904,Friggsvej,9870,24,10.1799237,57.4708976
1831905,Friggsvej,9870,25,10.1780022,57.4703476
1831906,Friggsvej,9870,26,10.1798957,57.4707012
1831907,Friggsvej,9870,27,10.1779552,57.4701562
1831908,Friggsvej,9870,28,10.1792368,57.4707278
1831909,Friggsvej,9870,29,10.177897,57.469911
1831910,Friggsvej,9870,30,10.179174,57.471029
1831911,Friggsvej,9870,31,10.1774027,57.4699091
1831912,Friggsvej,9870,32,10.179375,57.4712688
1831913,Friggsvej,9870,33,10.1775283,57.4701769
1831914,Friggsvej,9870,34,10.1787468,57.4714028
1831915,Friggsvej,9870,35,10.1775156,57.4704047
1831916,Friggsvej,9870,36,10.1787628,57.4711459
1831917,Friggsvej,9870,37,10.1768381,57.4704542
1831918,Friggsvej,9870,38,10.1786976,57.4709284
1831919,Friggsvej,9870,39,10.1767529,57.470155
1831920,Friggsvej,9870,40,10.1786828,57.4707004
1831921,Friggsvej,9870,41,10.1768157,57.4698669
1831922,Friggsvej,9870,42,10.1779691,57.4707613
1831923,Friggsvej,9870,43,10.1761229,57.4700107
1831924,Friggsvej,9870,44,10.177945,57.4709827
1831925,Friggsvej,9870,45,10.1763447,57.4702314
1831926,Friggsvej,9870,46,10.177997,57.471244
1831927,Friggsvej,9870,47,10.1764033,57.4705034
1831930,Friggsvej,9870,48,10.1776083,57.4713737
1831931,Friggsvej,9870,49,10.1756002,57.4708502
1831934,Friggsvej,9870,50,10.1774376,57.4711353
1831935,Friggsvej,9870,51,10.1755243,57.4705861
1831936,Friggsvej,9870,52,10.177458,57.4708184
1831937,Friggsvej,9870,53,10.1755511,57.470239
1831938,Friggsvej,9870,54,10.176718,57.4708669
1831939,Friggsvej,9870,55,10.1748489,57.4704363
1831940,Friggsvej,9870,56,10.1768651,57.4711694
1831941,Friggsvej,9870,57,10.1750651,57.4706162
1831942,Friggsvej,9870,58,10.1769481,57.4714785
1831943,Friggsvej,9870,59,10.175066,57.470907
1831944,Friggsvej,9870,60,10.1764236,57.4713605
1831945,Friggsvej,9870,61,10.1752107,57.471057
1831946,Friggsvej,9870,62,10.17585,57.471473
1831947,Friggsvej,9870,64,10.1763194,57.4710736
1833531,Lendumvej,9870,14,10.210942,57.442361
1833532,Lendumvej,9870,41,10.215461,57.444162
1833533,Lendumvej,9870,80,10.2205709,57.4390818
1833536,Lendumvej,9870,82,10.21995,57.439021
1833538,Lendumvej,9870,138,10.2265873,57.4383899
1833539,Lendumvej,9870,146,10.2279836,57.4376265
1833541,Lendumvej,9870,151,10.2289529,57.4380297
1833542,Lendumvej,9870,153,10.2298341,57.4382689
1833545,Lendumvej,9870,191,10.233015,57.435647
1833546,Lendumvej,9870,207,10.2352078,57.4341482
1833548,Lendumvej,9870,210,10.2320342,57.4313901
1833550,Lendumvej,9870,221,10.2370042,57.4329204
1833551,Lendumvej,9870,237,10.2384485,57.4319973
1833552,Lendumvej,9870,251,10.2407733,57.4317005
1833555,Lendumvej,9870,256,10.240276,57.429966
1833556,Lendumvej,9870,369,10.25498,57.424655
1833558,Lendumvej,9870,370,10.2494571,57.4212591
1833560,Lendumvej,9870,371,10.2558536,57.4254502
1833561,Lendumvej,9870,372,10.2499419,57.4210664
1833562,Lendumvej,9870,431,10.25896,57.418286
1833564,Lendumvej,9870,440,10.2574877,57.4158811
1833567,Lendumvej,9870,455,10.262139,57.417314
1833568,Lendumvej,9870,469,10.2669619,57.4186522
1833570,Lendumvej,9870,474,10.2602401,57.4151532
1833571,Lendumvej,9870,486,10.26549,57.4140032
1833573,Lendumvej,9870,489,10.266004,57.415604
1833574,Lendumvej,9870,513,10.2699326,57.4140959
1833576,Lendumvej,9870,529,10.270911,57.416346
1833578,Lendumvej,9870,550,10.2755562,57.4134978
1833580,Lendumvej,9870,554,10.2757819,57.4124367
1833581,Lendumvej,9870,556,10.2799557,57.4127827
1833582,Lendumvej,9870,575,10.2809155,57.4146971
1833584,Lendumvej,9870,587,10.2817252,57.4148461
1833586,Lendumvej,9870,601,10.2831102,57.4149993
1833588,Lendumvej,9870,602,10.28349,57.414596
1833589,Lendumvej,9870,604,10.2826278,57.4140897
1833590,Lendumvej,9870,605,10.2841654,57.4147604
1833591,Lendumvej,9870,615,10.2857216,57.4151763
1833593,Lendumvej,9870,649,10.2915369,57.412739
1833596,Lendumvej,9870,650,10.28875,57.413185
1833597,Lendumvej,9870,686,10.2904263,57.4105866
1833598,Lendumvej,9870,687,10.2907379,57.410968
1833601,Lendumvej,9870,688,10.2905352,57.4104157
1833602,Lendumvej,9870,690,10.290692,57.4102127
1833605,Lendumvej,9870,691,10.2919165,57.4104039
1833606,Lendumvej,9870,692,10.2909414,57.4101227
1833607,Lendumvej,9870,693,10.2912067,57.4103477
1833608,Lendumvej,9870,694,10.2911577,57.4099699
1833609,Lendumvej,9870,695,10.2914652,57.4100993
1833612,Lendumvej,9870,696,10.2913984,57.409813
1833614,Lendumvej,9870,697,10.2916354,57.4099558
1833615,Lendumvej,9870,698,10.2915894,57.4096871
1833677,Ulstedboparken,9870,2,10.1834453,57.4727498
1833678,Ulstedboparken,9870,4,10.1832898,57.4724799
1833679,Ulstedboparken,9870,6,10.1837352,57.4724017
1833680,Ulstedboparken,9870,8,10.1839487,57.4726317
1833682,Ulstedboparken,9870,10,10.1842968,57.472547
1833683,Ulstedboparken,9870,12,10.1841777,57.4722731
1833684,Ulstedboparken,9870,14,10.1845388,57.4722083
1833686,Ulstedboparken,9870,16,10.1847262,57.4724784
1833687,Ulstedboparken,9870,18A,10.18506,57.472436
1833690,Ulstedboparken,9870,18B,10.1850965,57.4723509
1833691,Ulstedboparken,9870,20,10.1851676,57.472081
1833692,Ulstedboparken,9870,22,10.1856714,57.4720943
1833693,Ulstedboparken,9870,24,10.1855372,57.4722719
1833694,Ulstedboparken,9870,26,10.1854347,57.4724813
1833695,Ulstedboparken,9870,28,10.185343,57.4727209
1833696,Ulstedboparken,9870,30,10.1852942,57.4729136
1833699,Ulstedboparken,9870,32,10.1851318,57.473132
1833701,Ulstedboparken,9870,34,10.1851318,57.4732753
1833702,Ulstedboparken,9870,36,10.1846851,57.4732022
1833703,Ulstedboparken,9870,38,10.1847157,57.4730417
1833704,Ulstedboparken,9870,40,10.184871,57.4728166
1833705,Ulstedboparken,9870,42,10.1842367,57.4728134
1833707,Ulstedboparken,9870,44,10.184112,57.4730421
1833708,Ulstedboparken,9870,46,10.1837133,57.4732612
1833709,Ulstedboparken,9870,48,10.1835983,57.4729588
1833710,Ulstedboparken,9870,50,10.1836576,57.4734262
1833711,Ulstedboparken,9870,52,10.1839111,57.4734312
1833713,Ulstedboparken,9870,54,10.1841269,57.4734808
1833714,Ulstedboparken,9870,56,10.1843501,57.4735006
1833716,Ulstedboparken,9870,58,10.1846375,57.4735217
1833717,Ulstedboparken,9870,60,10.1849581,57.4735453
1833719,Ulstedboparken,9870,62,10.1845063,57.4736981
1833720,Ulstedboparken,9870,64,10.1844971,57.4738503
1833721,Ulstedboparken,9870,66,10.184081,57.473877
1833723,Ulstedboparken,9870,68,10.1840276,57.4737029
1833724,Ulstedboparken,9870,70,10.183634,57.4736789
1833726,Ulstedboparken,9870,72,10.1836853,57.4738177
1833728,Ulstedboparken,9870,74,10.1838078,57.47396
1833729,Ulstedboparken,9870,76,10.1841016,57.4740101
1833730,Ulstedboparken,9870,78,10.1844471,57.4740469
1833731,Ulstedboparken,9870,80,10.1847273,57.474076
1833733,Ulstedboparken,9870,82,10.1849322,57.4741024
1833735,Ulstedboparken,9870,84,10.1847314,57.4743021
1833737,Ulstedboparken,9870,86,10.1844597,57.474407
1833739,Ulstedboparken,9870,88,10.1842382,57.4743854
1833740,Ulstedboparken,9870,90,10.1841816,57.4742101
1833742,Ulstedboparken,9870,92,10.1839675,57.4741853
1833772,Måstrup Hedevej,9870,75,10.2617442,57.5269535
1833773,Måstrup Hedevej,9870,96,10.2627698,57.5294204
1833775,Glimsholtvej,9870,2,10.189939,57.4289409
1833776,Glimsholtvej,9870,4,10.1902537,57.4285434
1833778,Glimsholtvej,9870,6,10.1904425,57.428231
1833779,Glimsholtvej,9870,35,10.1926148,57.4263671
1833780,Glimsholtvej,9870,37,10.1927993,57.4259683
1833781,Glimsholtvej,9870,39,10.192955,57.425805
1833782,Glimsholtvej,9870,41,10.1943059,57.425767
1833783,Glimsholtvej,9870,61,10.1940846,57.4242338
1833784,Glimsholtvej,9870,90,10.1967983,57.4214357
1833785,Glimsholtvej,9870,92,10.197718,57.4213369
1833786,Glimsholtvej,9870,110,10.1983184,57.4218075
1833787,Glimsholtvej,9870,121,10.2006792,57.4224936
1833788,Glimsholtvej,9870,128,10.2016306,57.4219823
1833789,Glimsholtvej,9870,130,10.201977,57.42197
1833790,Glimsholtvej,9870,134,10.202903,57.420339
1833791,Glimsholtvej,9870,144,10.2046867,57.4214466
1833792,Glimsholtvej,9870,145,10.2050028,57.4216314
1833793,Glimsholtvej,9870,148,10.2054666,57.4213233
1833794,Glimsholtvej,9870,152,10.2064264,57.421315
1833795,Glimsholtvej,9870,161,10.2053396,57.4216118
1833796,Glimsholtvej,9870,183,10.2113564,57.4221702
1833797,Glimsholtvej,9870,184,10.212083,57.4216736
1833798,Glimsholtvej,9870,187,10.212144,57.4219251
1833799,Glimsholtvej,9870,189,10.210663,57.426327
1833800,Glimsholtvej,9870,191,10.209601,57.427986
1833801,Glimsholtvej,9870,226,10.2138997,57.4215846
1833802,Glimsholtvej,9870,239,10.2157113,57.421639
1833803,Glimsholtvej,9870,240,10.2158279,57.4208744
1833804,Glimsholtvej,9870,242,10.2164479,57.4210239
1833805,Glimsholtvej,9870,281,10.2249074,57.4264735
1833806,Glimsholtvej,9870,282,10.2222537,57.42099
1833807,Glimsholtvej,9870,283,10.223351,57.427366
1833808,Glimsholtvej,9870,285,10.2222736,57.4217204
1833809,Glimsholtvej,9870,287,10.222918,57.421771
1833810,Glimsholtvej,9870,291,10.224906,57.422488
1833811,Glimsholtvej,9870,293,10.22934,57.4227898
1833812,Glimsholtvej,9870,340,10.2324,57.41963
1833813,Glimsholtvej,9870,381,10.2394189,57.4189376
1833814,Glimsholtvej,9870,418,10.2438463,57.4165096
1833815,Glimsholtvej,9870,450,10.245604,57.413557
1833816,Glimsholtvej,9870,452,10.242695,57.413454
1833817,Glimsholtvej,9870,471,10.251601,57.413501
1833818,Glimsholtvej,9870,490,10.252645,57.412372
1833819,Glimsholtvej,9870,514,10.251942,57.40903
1833820,Glimsholtvej,9870,528,10.2572999,57.4097088
1833821,Glimsholtvej,9870,535,10.2590626,57.4106049
1833822,Glimsholtvej,9870,546,10.261117,57.40836
1833823,Glimsholtvej,9870,565,10.2636699,57.4094444
1833824,Glimsholtvej,9870,580,10.2601465,57.4067539
1833825,Glimsholtvej,9870,600,10.26399,57.406837
1833826,Glimsholtvej,9870,602,10.2618632,57.4066653
1833827,Glimsholtvej,9870,633,10.274017,57.408474
1833828,Glimsholtvej,9870,650,10.2739128,57.4063628
1833829,Glimsholtvej,9870,656,10.2781816,57.4063886
1833830,Glimsholtvej,9870,657,10.27881,57.406532
1833831,Glimsholtvej,9870,669,10.279342,57.406454
1833832,Glimsholtvej,9870,671,10.280086,57.406352
1833913,Østerlund,9870,2A,10.2042559,57.4781354
1833914,Østerlund,9870,2B,10.2044548,57.4781364
1833915,Østerlund,9870,3,10.2050395,57.4784823
1833916,Østerlund,9870,4,10.205054,57.478194
1833917,Østerlund,9870,5,10.2056658,57.4784493
1833918,Østerlund,9870,6,10.2056379,57.478217
1833919,Østerlund,9870,7,10.2060073,57.4784646
1833921,Østerlund,9870,8,10.2060055,57.4782296
1833923,Østerlund,9870,9,10.2066122,57.4784949
1833925,Østerlund,9870,10,10.2064289,57.478253
1833928,Østerlund,9870,11,10.2070579,57.4785253
1833931,Østerlund,9870,12,10.2069459,57.4782865
1833933,Østerlund,9870,13,10.2075751,57.4785787
1833937,Østerlund,9870,14,10.207349,57.4783119
1833939,Østerlund,9870,15,10.2080927,57.478637
1833943,Østerlund,9870,16,10.2077764,57.4783081
1833946,Østerlund,9870,17,10.2084847,57.4787381
1833949,Østerlund,9870,18,10.2078916,57.4778724
1833951,Østerlund,9870,19,10.2089348,57.4788092
1833952,Østerlund,9870,20,10.2078106,57.4776378
1833956,Østerlund,9870,21,10.2093561,57.4788766
1833959,Østerlund,9870,22,10.2082157,57.4776273
1833963,Østerlund,9870,23,10.2098025,57.4789644
1833965,Østerlund,9870,24,10.2086688,57.4777062
1833968,Østerlund,9870,25,10.2102343,57.4790387
1833971,Østerlund,9870,26,10.2084191,57.477934
1833973,Østerlund,9870,27,10.2100993,57.4792922
1833978,Østerlund,9870,28,10.2083785,57.4781611
1833980,Østerlund,9870,29,10.2105582,57.4793818
1833982,Østerlund,9870,30,10.2084182,57.4784368
1833987,Østerlund,9870,31,10.210689,57.4791701
1833988,Østerlund,9870,32,10.2088895,57.4784837
1833993,Østerlund,9870,33,10.2113857,57.4792387
1833996,Østerlund,9870,34,10.2089766,57.4781198
1833998,Østerlund,9870,35,10.2120278,57.4793149
1834002,Østerlund,9870,36,10.2095465,57.4782363
1834004,Østerlund,9870,38,10.209391,57.478568
1834007,Østerlund,9870,40,10.2099475,57.4786842
1834010,Østerlund,9870,42,10.210084,57.4784153
1834012,Østerlund,9870,44,10.2104556,57.4784592
1834015,Østerlund,9870,46,10.2108179,57.4785877
1834018,Østerlund,9870,48,10.2105102,57.4787999
1834022,Østerlund,9870,50,10.211278,57.4787559
1834025,Østerlund,9870,52,10.2117165,57.4789332
1834028,Østerlund,9870,54,10.2122231,57.4790934
1834167,Skærumvej,9870,1,10.2993325,57.410158
1834168,Skærumvej,9870,2,10.3002065,57.4102532
1834169,Skærumvej,9870,3,10.2995328,57.4102435
1834170,Skærumvej,9870,4,10.3004406,57.4103372
1834171,Skærumvej,9870,5,10.2998236,57.4103469
1834172,Skærumvej,9870,6,10.3007424,57.4104414
1834173,Skærumvej,9870,7,10.3000802,57.4104334
1834174,Skærumvej,9870,8,10.3008846,57.4104915
1834175,Skærumvej,9870,9,10.3002693,57.4105624
1834176,Skærumvej,9870,10,10.3012088,57.4106106
1834177,Skærumvej,9870,11A,10.3009081,57.4107339
1834178,Skærumvej,9870,11B,10.3012941,57.4108623
1834179,Skærumvej,9870,13,10.3014984,57.4109304
1834180,Skærumvej,9870,15,10.301773,57.411043
1834181,Skærumvej,9870,16,10.3017795,57.4108242
1834182,Skærumvej,9870,17,10.3020281,57.4111113
1834183,Skærumvej,9870,18,10.3020624,57.4109132
1834184,Skærumvej,9870,19,10.30236,57.4112491
1834185,Skærumvej,9870,20,10.3022973,57.410997
1834186,Skærumvej,9870,21,10.3025959,57.4113252
1834187,Skærumvej,9870,22,10.3025401,57.411082
1834188,Skærumvej,9870,23,10.3028711,57.4114364
1834189,Skærumvej,9870,24,10.3029402,57.4112237
1834190,Skærumvej,9870,25,10.3031688,57.411535
1834191,Skærumvej,9870,26,10.3032106,57.4113236
1834192,Skærumvej,9870,27,10.3034374,57.4116289
1834193,Skærumvej,9870,28,10.3035043,57.4113837
1834194,Skærumvej,9870,29,10.303704,57.4118086
1834195,Skærumvej,9870,30,10.3038535,57.4115059
1834196,Skærumvej,9870,31,10.304047,57.411909
1834197,Skærumvej,9870,32,10.3043459,57.4116946
1834198,Skærumvej,9870,33,10.3042437,57.4120513
1834199,Skærumvej,9870,34,10.3045993,57.4118031
1834200,Skærumvej,9870,35,10.3045508,57.412155
1834201,Skærumvej,9870,36,10.3048838,57.4119264
1834202,Skærumvej,9870,37,10.3048361,57.412274
1834203,Skærumvej,9870,38A,10.3056205,57.4118584
1834204,Skærumvej,9870,38B,10.3054741,57.4116686
1834205,Skærumvej,9870,38C,10.3052566,57.4115929
1834206,Skærumvej,9870,39,10.3052427,57.4123719
1834207,Skærumvej,9870,40,10.3053071,57.412114
1834208,Skærumvej,9870,42,10.3061828,57.412362
1834209,Skærumvej,9870,71,10.3089929,57.4142723
1834210,Skærumvej,9870,116,10.3154093,57.4153428
1834211,Skærumvej,9870,151,10.320309,57.418561
1835081,Østergade,9870,1,10.2025745,57.4709731
1835082,Østergade,9870,2,10.2025614,57.4707773
1835083,Østergade,9870,3,10.202735,57.4709819
1835084,Østergade,9870,5,10.2029258,57.4709906
1835085,Østergade,9870,6A,10.2028006,57.4707949
1835086,Østergade,9870,6B,10.20281,57.4707574
1835087,Østergade,9870,6C,10.2028141,57.4707254
1835088,Østergade,9870,7,10.2030356,57.4709969
1835089,Østergade,9870,8A,10.2031273,57.4708003
1835090,Østergade,9870,8B,10.2031305,57.4707757
1835091,Østergade,9870,8C,10.203134,57.4707482
1835092,Østergade,9870,8D,10.2031331,57.470722
1835093,Østergade,9870,9A,10.2031569,57.4710001
1835094,Østergade,9870,9B,10.2032528,57.4710078
1835095,Østergade,9870,10,10.2032851,57.4708067
1835096,Østergade,9870,11,10.2034208,57.4710264
1835097,Østergade,9870,12B,10.2034567,57.4707287
1835098,Østergade,9870,12C,10.20347,57.4706739
1835099,Østergade,9870,13,10.2036472,57.4710388
1835100,Østergade,9870,14,10.2037169,57.4708305
1835101,Østergade,9870,15A,10.2039183,57.4710582
1835102,Østergade,9870,15B,10.2038986,57.4712549
1835103,Østergade,9870,16,10.2039373,57.4708543
1835104,Østergade,9870,17,10.2040941,57.471066
1835105,Østergade,9870,19A,10.2043448,57.471078
1835106,Østergade,9870,19B,10.2043943,57.4711258
1835107,Østergade,9870,20,10.2045965,57.4708868
1835108,Østergade,9870,21A,10.2045171,57.4710905
1835109,Østergade,9870,21B,10.2046589,57.471096
1835110,Østergade,9870,21C,10.2046347,57.4712573
1835111,Østergade,9870,21D,10.2045403,57.4713536
1835112,Østergade,9870,21E,10.2043199,57.4712573
1835113,Østergade,9870,22,10.2047491,57.4708989
1835114,Østergade,9870,23A,10.2048369,57.4711028
1835115,Østergade,9870,23B,10.2049612,57.4711117
1835116,Østergade,9870,24,10.2049385,57.4709003
1835117,Østergade,9870,25,10.2052988,57.471158
1835118,Østergade,9870,26,10.2051391,57.4709044
1835120,Østergade,9870,27A,10.2061189,57.4712409
1835121,Østergade,9870,27B,10.2062061,57.4713515
1835124,Østergade,9870,28,10.2053561,57.4709048
1835125,Østergade,9870,29,10.2066437,57.4712263
1835128,Østergade,9870,30,10.2057068,57.4708942
1835130,Østergade,9870,32,10.2068609,57.4709298
1835132,Østergade,9870,35,10.207621,57.471374
1835134,Østergade,9870,36,10.207742,57.471029
1836903,Danmarksgade,9870,1,10.2013743,57.4743527
1836904,Danmarksgade,9870,3,10.2012034,57.4743309
1836905,Danmarksgade,9870,4,10.2011838,57.4744882
1836906,Danmarksgade,9870,5,10.199913,57.474449
1836907,Danmarksgade,9870,6,10.2009751,57.4744889
1836908,Danmarksgade,9870,7,10.1991417,57.4747722
1836909,Danmarksgade,9870,8,10.2006824,57.4746182
1836910,Danmarksgade,9870,9,10.1988592,57.4748009
1836911,Danmarksgade,9870,10,10.2003421,57.4747083
1836912,Danmarksgade,9870,11,10.1986308,57.4748959
1836913,Danmarksgade,9870,13,10.198151,57.474928
1836914,Danmarksgade,9870,15,10.197952,57.4750549
1836915,Danmarksgade,9870,17,10.197649,57.475205
1836916,Danmarksgade,9870,19,10.1973343,57.4752233
1836917,Danmarksgade,9870,21A,10.1969155,57.4752103
1836918,Danmarksgade,9870,21B,10.1969069,57.4753088
1836919,Danmarksgade,9870,21C,10.1969108,57.4753784
1836920,Danmarksgade,9870,21D,10.1967628,57.4753616
1836921,Danmarksgade,9870,21E,10.1965924,57.4753771
1836922,Danmarksgade,9870,21F,10.1969832,57.4752501
1836923,Danmarksgade,9870,21G,10.1969731,57.4751927
1836924,Danmarksgade,9870,24,10.1919855,57.4757887
1836925,Danmarksgade,9870,25A,10.194368,57.475252
1836926,Danmarksgade,9870,25B,10.19452,57.4749123
1836927,Danmarksgade,9870,26,10.1914947,57.4758693
1836928,Danmarksgade,9870,27,10.1937764,57.4754202
1836929,Danmarksgade,9870,29,10.1938934,57.4752218
1836930,Danmarksgade,9870,30,10.1908093,57.4758357
1836931,Danmarksgade,9870,31,10.1939473,57.4750191
1836932,Danmarksgade,9870,34,10.1900309,57.475902
1836933,Danmarksgade,9870,35,10.1926505,57.4755707
1836934,Danmarksgade,9870,36,10.1895415,57.4759444
1836935,Danmarksgade,9870,37,10.1919002,57.4755701
1836936,Danmarksgade,9870,38,10.1891383,57.4759422
1836937,Danmarksgade,9870,39,10.191386,57.4755039
1836938,Danmarksgade,9870,45,10.190335,57.475632
1836939,Danmarksgade,9870,47,10.189962,57.475647
1836940,Danmarksgade,9870,49,10.1894143,57.4756406
1836941,Danmarksgade,9870,120,10.18263,57.476585
1836942,Danmarksgade,9870,122,10.180636,57.477484
1836943,Danmarksgade,9870,129,10.1811,57.475962
1836944,Danmarksgade,9870,130,10.1812374,57.4764082
1836945,Danmarksgade,9870,165,10.175279,57.477032
1837623,Frejasvej,9870,1,10.1893797,57.473111
1837628,Frejasvej,9870,2,10.1901122,57.4731879
1837630,Frejasvej,9870,3,10.1890354,57.4728945
1837640,Frejasvej,9870,4,10.1903683,57.4733089
1837648,Frejasvej,9870,5,10.1886895,57.4731806
1837655,Frejasvej,9870,6,10.1906908,57.4733865
1837662,Frejasvej,9870,7,10.1890471,57.4733091
1837667,Frejasvej,9870,8,10.1904649,57.4736446
1837670,Frejasvej,9870,9,10.1880191,57.473605
1837674,Frejasvej,9870,10,10.189969,57.4736218
1837680,Frejasvej,9870,11,10.1879205,57.4733971
1837684,Frejasvej,9870,12,10.1897713,57.4734196
1837690,Frejasvej,9870,13,10.1874545,57.4734278
1837698,Frejasvej,9870,14,10.1888543,57.4738246
1837699,Frejasvej,9870,15,10.1873981,57.4737681
1837713,Frejasvej,9870,16,10.1890087,57.4740799
1837715,Frejasvej,9870,17,10.1865566,57.4739043
1837718,Frejasvej,9870,18,10.1891123,57.4742112
1837727,Frejasvej,9870,19,10.186344,57.473666
1837729,Frejasvej,9870,20,10.1885422,57.4743247
1837734,Frejasvej,9870,21,10.1858046,57.4737661
1837735,Frejasvej,9870,22,10.1885182,57.4741413
1837741,Frejasvej,9870,23,10.1859524,57.4739797
1837746,Frejasvej,9870,24,10.1884021,57.4739146
1837748,Frejasvej,9870,25,10.1852851,57.4742713
1837754,Frejasvej,9870,25A,10.185284,57.474175
1837756,Frejasvej,9870,25B,10.1851952,57.4742729
1837760,Frejasvej,9870,26,10.1876073,57.4740501
1837762,Frejasvej,9870,28,10.1875517,57.4742749
1837771,Frejasvej,9870,30,10.1878518,57.4744229
1837777,Frejasvej,9870,32,10.187194,57.474506
1837782,Frejasvej,9870,34,10.187107,57.4743487
1837791,Frejasvej,9870,36,10.1869653,57.4740817
1837794,Frejasvej,9870,38,10.1860819,57.4744448
1837801,Frejasvej,9870,40,10.1864026,57.4746118
1837808,Frejasvej,9870,42,10.1857064,57.4748132
1837810,Frejasvej,9870,44,10.1856267,57.4745796
1838358,Nygårdsvej,9870,1,10.3017318,57.4094643
1838360,Nygårdsvej,9870,2,10.3017914,57.4092561
1838363,Nygårdsvej,9870,3,10.3019632,57.4094729
1838366,Nygårdsvej,9870,4,10.3020688,57.4092008
1838368,Nygårdsvej,9870,5,10.3022082,57.4095115
1838370,Nygårdsvej,9870,6,10.3024205,57.4093094
1838373,Nygårdsvej,9870,7,10.3024652,57.4095358
1838374,Nygårdsvej,9870,8,10.3027182,57.4093817
1838379,Nygårdsvej,9870,11,10.303923,57.409721
1838382,Nygårdsvej,9870,12,10.3038494,57.4093239
1838383,Nygårdsvej,9870,13,10.3038713,57.4099609
1838386,Nygårdsvej,9870,14,10.304633,57.4092378
1838387,Nygårdsvej,9870,15,10.3042649,57.4100874
1838389,Nygårdsvej,9870,16,10.3044936,57.4093096
1838390,Nygårdsvej,9870,17,10.3048665,57.410087
1838391,Nygårdsvej,9870,18,10.3043656,57.4093494
1838394,Nygårdsvej,9870,19,10.3049432,57.409807
1838395,Nygårdsvej,9870,20,10.3044916,57.4090424
1838397,Nygårdsvej,9870,21,10.3045248,57.4097658
1838399,Nygårdsvej,9870,22,10.3043414,57.409103
1838401,Nygårdsvej,9870,23,10.305528,57.409594
1838402,Nygårdsvej,9870,25,10.3055349,57.4099762
1838404,Nygårdsvej,9870,27,10.3054292,57.4102411
1838406,Nygårdsvej,9870,29,10.3057991,57.4105094
1838407,Nygårdsvej,9870,31,10.3062093,57.4105561
1838409,Nygårdsvej,9870,32,10.3049018,57.4092159
1838410,Nygårdsvej,9870,33,10.3066634,57.4106405
1838412,Nygårdsvej,9870,34,10.3050551,57.4092274
1838414,Nygårdsvej,9870,35,10.3070082,57.4108568
1838415,Nygårdsvej,9870,36,10.3052325,57.4092308
1838416,Nygårdsvej,9870,37,10.3070889,57.4104486
1838418,Nygårdsvej,9870,38,10.305409,57.408919
1838419,Nygårdsvej,9870,39,10.3065403,57.4103201
1838420,Nygårdsvej,9870,41,10.3060538,57.4102114
1838422,Nygårdsvej,9870,43,10.306076,57.409883
1838424,Nygårdsvej,9870,45,10.3066427,57.4098727
1838436,Nygade,9870,1A,10.1993378,57.4730707
1838437,Nygade,9870,1B,10.1993308,57.4730273
1838438,Nygade,9870,2,10.1993614,57.4733477
1838440,Nygade,9870,3,10.198914,57.4730537
1838441,Nygade,9870,4,10.1990331,57.4733562
1838442,Nygade,9870,5,10.1983224,57.4730823
1838444,Nygade,9870,6,10.1986899,57.4733588
1838445,Nygade,9870,7,10.1978755,57.4731986
1838447,Nygade,9870,8,10.198399,57.473482
1838448,Nygade,9870,9,10.197608,57.4733316
1838449,Nygade,9870,10,10.1980931,57.4734564
1838450,Nygade,9870,11,10.1973726,57.4734145
1838453,Nygade,9870,12,10.1977554,57.4735673
1838455,Nygade,9870,13,10.197029,57.4735053
1838457,Nygade,9870,14,10.197624,57.473815
1838460,Nygade,9870,15,10.1966242,57.4738636
1838461,Nygade,9870,16,10.1970412,57.4739307
1838465,Nygade,9870,17,10.1960346,57.473704
1838467,Nygade,9870,18,10.1975421,57.4741254
1838468,Nygade,9870,19,10.196373,57.4740878
1838470,Nygade,9870,20,10.1973946,57.4742656
1838473,Nygade,9870,21,10.1962642,57.4742271
1838476,Nygade,9870,22,10.1971664,57.4744074
1838478,Nygade,9870,23,10.1961733,57.4743857
1838479,Nygade,9870,24,10.1967045,57.474298
1838482,Nygade,9870,25,10.19611,57.474562
1838483,Nygade,9870,26,10.1965843,57.4744974
1838486,Nygade,9870,27,10.1960663,57.4747298
1838487,Nygade,9870,28,10.1964955,57.474698
1838490,Nygade,9870,29,10.1960262,57.474915
1838491,Nygade,9870,30,10.1964411,57.4748602
1838494,Nygade,9870,31,10.1959707,57.4750899
1838497,Nygade,9870,32,10.1964535,57.4749995
1838499,Nygade,9870,33,10.1959332,57.4752697
1838501,Nygade,9870,35,10.1957453,57.475354
1838964,Sverrigsgade,9870,1B,10.2007224,57.4722619
1838966,Sverrigsgade,9870,2A,10.2017921,57.4725723
1838971,Sverrigsgade,9870,2B,10.201514,57.47255
1838975,Sverrigsgade,9870,2C,10.201511,57.472574
1838978,Sverrigsgade,9870,2D,10.201511,57.4725937
1838983,Sverrigsgade,9870,4,10.2010702,57.4725448
1838986,Sverrigsgade,9870,6,10.2008106,57.4725326
1838989,Sverrigsgade,9870,9,10.1994028,57.4724833
1838996,Sverrigsgade,9870,10,10.2002678,57.4725202
1838999,Sverrigsgade,9870,11,10.1990725,57.472539
1839005,Sverrigsgade,9870,13,10.1986355,57.4726089
1839009,Sverrigsgade,9870,14,10.1994754,57.4726377
1839015,Sverrigsgade,9870,15,10.1980757,57.4725252
1839020,Sverrigsgade,9870,16,10.1990456,57.4727288
1839023,Sverrigsgade,9870,17,10.198046,57.4724278
1839025,Sverrigsgade,9870,18,10.198678,57.4729036
1839029,Sverrigsgade,9870,19,10.1979628,57.4723187
1839034,Sverrigsgade,9870,21,10.197932,57.4722139
1839037,Sverrigsgade,9870,23,10.1980208,57.4727134
1839040,Sverrigsgade,9870,25,10.1978416,57.4727617
1839044,Sverrigsgade,9870,27,10.1976414,57.4728201
1839046,Sverrigsgade,9870,29,10.197482,57.472863
1839052,Sverrigsgade,9870,31,10.197279,57.472956
1839056,Sverrigsgade,9870,33,10.1971714,57.4728714
1839057,Sverrigsgade,9870,35,10.1970226,57.472762
1839061,Sverrigsgade,9870,37,10.196907,57.4726708
1839064,Sverrigsgade,9870,39,10.1966517,57.4725656
1839067,Sverrigsgade,9870,41,10.196824,57.4725392
1839072,Sverrigsgade,9870,43,10.1970741,57.472501
1839073,Sverrigsgade,9870,45,10.1972553,57.4724733
1839077,Sverrigsgade,9870,47,10.196936,57.473079
1839079,Sverrigsgade,9870,49,10.1966151,57.4728675
1839083,Sverrigsgade,9870,51,10.1963756,57.4726578
1839463,Møllevænget,9870,1A,10.2023559,57.471682
1839465,Møllevænget,9870,1B,10.2026639,57.4716824
1839468,Møllevænget,9870,1C,10.202828,57.4716864
1839470,Møllevænget,9870,2,10.202823,57.4715771
1839471,Møllevænget,9870,4,10.2030061,57.4715864
1839474,Møllevænget,9870,5,10.2033367,57.4717257
1839475,Møllevænget,9870,6A,10.2032317,57.4715978
1839477,Møllevænget,9870,6B,10.2031725,57.4714932
1839479,Møllevænget,9870,7,10.2034899,57.4717418
1839481,Møllevænget,9870,8,10.2034725,57.4716175
1839483,Møllevænget,9870,9,10.2036837,57.4717499
1839485,Møllevænget,9870,10,10.2036108,57.4716257
1839487,Møllevænget,9870,11,10.2038845,57.471763
1839490,Møllevænget,9870,12,10.203638,57.4714953
1839492,Møllevænget,9870,13,10.2040843,57.4717794
1839494,Møllevænget,9870,14,10.2038499,57.4716444
1839495,Møllevænget,9870,15,10.2042289,57.4717923
1839498,Møllevænget,9870,16A,10.2040519,57.4716635
1839500,Møllevænget,9870,16B,10.2041376,57.4716707
1839502,Møllevænget,9870,17,10.2046706,57.4718577
1839503,Møllevænget,9870,18A,10.2043205,57.4716414
1839505,Møllevænget,9870,18B,10.20448,57.4716522
1839507,Møllevænget,9870,19,10.2047841,57.4718673
1839509,Møllevænget,9870,20,10.2046383,57.4717024
1839511,Møllevænget,9870,21,10.205162,57.471893
1839513,Møllevænget,9870,22,10.2048717,57.4717173
1839515,Møllevænget,9870,23,10.205671,57.4719499
1839516,Møllevænget,9870,25,10.2058438,57.4720133
1839518,Møllevænget,9870,27,10.2059258,57.4720451
1839520,Møllevænget,9870,29,10.2061256,57.4720167
1839523,Møllevænget,9870,31,10.2062355,57.471964
1839525,Møllevænget,9870,33,10.2064345,57.4720724
1839527,Møllevænget,9870,35,10.2065517,57.4720354
1839529,Møllevænget,9870,37,10.206736,57.4720826
1841183,Irisvej,9870,3,10.1914877,57.4763059
1841185,Irisvej,9870,4,10.19136,57.4765571
1841187,Irisvej,9870,5,10.1910877,57.4762858
1841188,Irisvej,9870,6,10.1909808,57.4765201
1841189,Irisvej,9870,7,10.1906651,57.4762649
1841191,Irisvej,9870,8,10.1906035,57.4764993
1841193,Irisvej,9870,9,10.1901845,57.4762383
1841194,Irisvej,9870,10,10.1902203,57.4764522
1841195,Irisvej,9870,11,10.1897239,57.4762179
1841197,Irisvej,9870,12,10.189635,57.4765665
1841198,Irisvej,9870,13,10.1892437,57.4762853
1841199,Irisvej,9870,14,10.1896041,57.476805
1841201,Irisvej,9870,15,10.1891544,57.4765093
1841203,Irisvej,9870,16,10.1900878,57.4768355
1841204,Irisvej,9870,17,10.1891917,57.4767256
1841205,Irisvej,9870,18,10.1904929,57.4768531
1841207,Irisvej,9870,19,10.189003,57.4770031
1841208,Irisvej,9870,20,10.190893,57.4768779
1841210,Irisvej,9870,21,10.1893666,57.4770211
1841212,Irisvej,9870,22,10.1913686,57.4768824
1841213,Irisvej,9870,23,10.1897341,57.4770433
1841214,Irisvej,9870,24,10.1917014,57.4768914
1841216,Irisvej,9870,25,10.1900904,57.4770619
1841217,Irisvej,9870,27,10.1904847,57.4770802
1841218,Irisvej,9870,29,10.1908158,57.4770953
1841220,Irisvej,9870,31,10.1911903,57.4771166
1841671,Rammelhøjvej,9870,22,10.289639,57.418794
1841678,Rammelhøjvej,9870,24,10.286733,57.4196844
1841680,Rammelhøjvej,9870,49,10.285038,57.418603
1841686,Rammelhøjvej,9870,76,10.2897232,57.4224962
1841692,Rammelhøjvej,9870,78,10.2905318,57.4217804
1841696,Rammelhøjvej,9870,85,10.2837376,57.4221771
1841703,Rammelhøjvej,9870,102,10.2932387,57.4241542
1841709,Rammelhøjvej,9870,104,10.29798,57.424588
1841713,Rammelhøjvej,9870,127,10.2878736,57.4263532
1841722,Rammelhøjvej,9870,131,10.286159,57.426287
1841727,Rammelhøjvej,9870,152,10.294503,57.427844
1841730,Rammelhøjvej,9870,204,10.3014899,57.4304714
1841740,Rammelhøjvej,9870,245,10.2946026,57.4362182
1841745,Rammelhøjvej,9870,270,10.3011837,57.4342255
1841752,Rammelhøjvej,9870,274,10.2984617,57.4379404
1841756,Rammelhøjvej,9870,276,10.2989806,57.4381009
1841760,Rammelhøjvej,9870,300,10.2965961,57.4402824
1841766,Rammelhøjvej,9870,340,10.297728,57.444208
1841770,Rammelhøjvej,9870,355,10.2924695,57.4462372
1841775,Rammelhøjvej,9870,364,10.2991543,57.4456541
1841782,Rammelhøjvej,9870,375,10.2926228,57.4523603
1841786,Rammelhøjvej,9870,420,10.3056164,57.4493577
1841793,Rammelhøjvej,9870,460,10.305209,57.452789
1841799,Rammelhøjvej,9870,479,10.3024955,57.4548488
1841803,Rammelhøjvej,9870,540,10.3051767,57.4564719
1841809,Rammelhøjvej,9870,551,10.3019424,57.4578624
1841815,Rammelhøjvej,9870,573,10.3020127,57.4614669
1842871,Enghavevej,9870,1,10.2976043,57.4083024
1842872,Enghavevej,9870,2A,10.2960932,57.4085119
1842873,Enghavevej,9870,2B,10.2952877,57.4085362
1842874,Enghavevej,9870,2C,10.2960543,57.4081553
1842875,Enghavevej,9870,3,10.2967747,57.4085408
1842876,Enghavevej,9870,4A,10.2916549,57.4080372
1842877,Enghavevej,9870,4B,10.294496,57.4085187
1842878,Enghavevej,9870,5A,10.2966902,57.4084252
1842879,Enghavevej,9870,5B,10.2966895,57.4083669
1842880,Enghavevej,9870,6,10.29439,57.4081974
1842881,Enghavevej,9870,7A,10.2966781,57.408315
1842882,Enghavevej,9870,7B,10.296671,57.4082668
1842883,Enghavevej,9870,8,10.2960896,57.407878
1842884,Enghavevej,9870,9,10.2966065,57.4078088
1842885,Enghavevej,9870,10,10.2961004,57.4076065
1842886,Enghavevej,9870,11,10.2965895,57.4075843
1842887,Enghavevej,9870,13,10.2967239,57.4074192
1842888,Enghavevej,9870,14,10.296487,57.40696
1842889,Enghavevej,9870,15,10.2968925,57.4071959
1842890,Enghavevej,9870,49,10.298181,57.40657
1842891,Enghavevej,9870,52,10.2977729,57.4056878
1842892,Enghavevej,9870,57,10.2990409,57.405702
1842893,Enghavevej,9870,110,10.299146,57.401302
1842894,Enghavevej,9870,140,10.297827,57.398624
1842895,Enghavevej,9870,150,10.2888078,57.3964514
1842896,Enghavevej,9870,160,10.297995,57.3967052
1842897,Enghavevej,9870,194,10.296775,57.394157
1842898,Enghavevej,9870,227,10.2984856,57.3913308
1843100,Søndergade,9870,1,10.29968,57.410009
1843101,Søndergade,9870,3,10.3005183,57.409657
1843102,Søndergade,9870,4,10.2995285,57.4097486
1843103,Søndergade,9870,5,10.3008114,57.409598
1843104,Søndergade,9870,6,10.2997271,57.409692
1843105,Søndergade,9870,7,10.3012465,57.4094461
1843106,Søndergade,9870,8,10.2998287,57.4095473
1843107,Søndergade,9870,9,10.3014119,57.4092499
1843108,Søndergade,9870,10,10.2997734,57.4093832
1843109,Søndergade,9870,11,10.3014828,57.4090483
1843110,Søndergade,9870,12,10.3004895,57.4090531
1843111,Søndergade,9870,13,10.3014737,57.4088785
1843112,Søndergade,9870,15,10.3014176,57.4087426
1843113,Søndergade,9870,17,10.3014179,57.4085453
1843114,Søndergade,9870,19,10.3020172,57.4085641
1843115,Søndergade,9870,21A,10.3021307,57.4081558
1843116,Søndergade,9870,21B,10.3028127,57.4085146
1843117,Søndergade,9870,21C,10.3022975,57.4079049
1843118,Søndergade,9870,23,10.3014299,57.4082824
1843119,Søndergade,9870,25,10.301464,57.408151
1843120,Søndergade,9870,27,10.3015048,57.4079786
1843121,Søndergade,9870,29,10.301731,57.4078026
1843122,Søndergade,9870,31,10.3018626,57.4075422
1843123,Søndergade,9870,33,10.3020119,57.4073821
1843709,Porsensmøllevej,9870,171C,10.2947092,57.5322538
1844528,Ulvmosevej,9870,2,10.2972222,57.4069599
1844529,Ulvmosevej,9870,3,10.2974824,57.4074681
1844531,Ulvmosevej,9870,4,10.2975825,57.4070628
1844534,Ulvmosevej,9870,5B,10.2987318,57.4080794
1844536,Ulvmosevej,9870,6,10.2979559,57.4071406
1844538,Ulvmosevej,9870,7,10.298111,57.40788
1844540,Ulvmosevej,9870,8,10.2983524,57.4071926
1844543,Ulvmosevej,9870,9,10.2980684,57.4076633
1844544,Ulvmosevej,9870,10,10.2987962,57.4072326
1844547,Ulvmosevej,9870,11,10.298707,57.407605
1844549,Ulvmosevej,9870,12,10.2991491,57.4072423
1844550,Ulvmosevej,9870,13,10.3004807,57.4078176
1844552,Ulvmosevej,9870,14,10.2996358,57.4072567
1844554,Ulvmosevej,9870,15,10.300488,57.4080106
1844556,Ulvmosevej,9870,16,10.3000427,57.4072951
1844558,Ulvmosevej,9870,17,10.3008871,57.4080491
1844560,Ulvmosevej,9870,18,10.3004939,57.4073776
1844561,Ulvmosevej,9870,19,10.3009785,57.4077953
1844564,Ulvmosevej,9870,20,10.3008804,57.4074816
1844565,Ulvmosevej,9870,22,10.3012227,57.4075393
1845141,Bolundvej,9870,1,10.3162239,57.4870438
1845142,Bolundvej,9870,2,10.3161145,57.4872576
1845143,Bolundvej,9870,3,10.315614,57.486993
1845144,Bolundvej,9870,5,10.3152659,57.4869632
1845145,Bolundvej,9870,6,10.3152817,57.4873585
1845146,Bolundvej,9870,8,10.3146382,57.4873039
1845147,Vestergade,9870,1A,10.2020053,57.4707587
1845148,Bolundvej,9870,9,10.3145509,57.4869226
1845149,Bolundvej,9870,10,10.3138978,57.4871196
1845150,Bolundvej,9870,12,10.3140732,57.4872559
1845151,Vestergade,9870,1B,10.2018595,57.4707552
1845152,Vestergade,9870,1C,10.2017901,57.4707237
1845153,Bolundvej,9870,13A,10.3140556,57.4868791
1845154,Bolundvej,9870,13B,10.3136715,57.4868153
1845155,Bolundvej,9870,14,10.3140047,57.4874776
1845156,Vestergade,9870,2A,10.201429,57.4709537
1845157,Bolundvej,9870,15,10.3141798,57.4867118
1845158,Bolundvej,9870,16,10.313171,57.486975
1845159,Vestergade,9870,2B,10.2011681,57.4711576
1845160,Bolundvej,9870,17,10.3141813,57.486601
1845161,Bolundvej,9870,19,10.3139208,57.4864598
1845162,Vestergade,9870,3,10.2008917,57.4706745
1845163,Bolundvej,9870,21,10.3132243,57.4863556
1845164,Bolundvej,9870,25,10.3131496,57.4867317
1845165,Vestergade,9870,4C,10.2007486,57.4709673
1845166,Vestergade,9870,4D,10.200754,57.470925
1845167,Bolundvej,9870,27,10.3127936,57.486711
1845168,Bolundvej,9870,31,10.3121936,57.486474
1845169,Bolundvej,9870,33,10.311352,57.48676
1845170,Vestergade,9870,5A,10.2004606,57.4706769
1845171,Vestergade,9870,5B,10.2003508,57.4706642
1845172,Vestergade,9870,6,10.2002525,57.4708861
1845173,Vestergade,9870,7A,10.2002401,57.470605
1845174,Vestergade,9870,7B,10.1999982,57.4706409
1845175,Vestergade,9870,8,10.199943,57.4708718
1845176,Vestergade,9870,9,10.1996973,57.4705939
1845177,Vestergade,9870,10,10.1993593,57.470844
1845178,Vestergade,9870,11,10.1990314,57.470529
1845179,Vestergade,9870,12,10.1981107,57.4710293
1845866,Kammervej,9870,1,10.3003085,57.410716
1845870,Kammervej,9870,2,10.3003652,57.4110136
1845874,Kammervej,9870,3,10.3001841,57.4108326
1845880,Kammervej,9870,5A,10.299172,57.410873
1845884,Kammervej,9870,5B,10.2989296,57.4108203
1845888,Kammervej,9870,7,10.2999694,57.4110788
1845896,Kammervej,9870,9,10.2998715,57.411281
1845897,Kammervej,9870,11,10.2997941,57.4114202
1845901,Kammervej,9870,13,10.299722,57.4116026
1845904,Kammervej,9870,14,10.2999869,57.4118263
1845908,Kammervej,9870,15,10.2996166,57.4117439
1845913,Kammervej,9870,17,10.2995647,57.4119459
1845915,Kammervej,9870,18,10.302149,57.4123984
1845919,Kammervej,9870,38,10.302965,57.416033
1845922,Kammervej,9870,45,10.2948736,57.4135529
1845925,Kammervej,9870,57,10.29692,57.414987
1845927,Kammervej,9870,79,10.29644,57.417048
1845929,Kammervej,9870,90,10.2992897,57.4184781
1845930,Kammervej,9870,92,10.299471,57.42225
1845977,Fjelstedvej,9870,2,10.1626901,57.4663326
1845978,Fjelstedvej,9870,45,10.1601503,57.4667227
1845979,Fjelstedvej,9870,50,10.1595418,57.4685751
1845980,Fjelstedvej,9870,60,10.1559003,57.468904
1845981,Fjelstedvej,9870,62,10.1564015,57.4703206
1845982,Fjelstedvej,9870,63,10.1551131,57.4679886
1845983,Fjelstedvej,9870,90,10.153037,57.4693592
1845984,Fjelstedvej,9870,91,10.1501711,57.468683
1845985,Fjelstedvej,9870,108,10.1504777,57.4695483
1845986,Fjelstedvej,9870,112,10.1505522,57.4723086
1845987,Fjelstedvej,9870,114,10.150525,57.4742902
1845988,Fjelstedvej,9870,121,10.1472512,57.4690557
1845989,Fjelstedvej,9870,135,10.146522,57.467946
1845990,Fjelstedvej,9870,150,10.143777,57.473118
1845991,Fjelstedvej,9870,151,10.1429156,57.4693142
1845992,Fjelstedvej,9870,160,10.1405099,57.4703414
1845993,Fjelstedvej,9870,200,10.1368232,57.4703963
1845994,Fjelstedvej,9870,201,10.134086,57.470273
1845995,Fjelstedvej,9870,202,10.1338759,57.4726774
1846115,Nordvangen,9870,1,10.196731,57.4812
1846117,Nordvangen,9870,3,10.197514,57.480416
1846119,Nordvangen,9870,4,10.1984314,57.4803678
1846121,Nordvangen,9870,5,10.1977041,57.4804204
1846123,Nordvangen,9870,6A,10.1984087,57.4801894
1846126,Nordvangen,9870,6B,10.1984098,57.4800894
1846128,Nordvangen,9870,7,10.1975546,57.4801979
1846130,Nordvangen,9870,8,10.1983707,57.4799402
1846132,Nordvangen,9870,9,10.1977381,57.4801992
1846133,Nordvangen,9870,10,10.1992316,57.4798821
1846134,Nordvangen,9870,11,10.1975158,57.4799869
1846136,Nordvangen,9870,12A,10.1988498,57.4801238
1846138,Nordvangen,9870,12B,10.1989723,57.4801206
1846139,Nordvangen,9870,13,10.1977035,57.4799872
1846141,Nordvangen,9870,14,10.1990382,57.4803599
1846143,Nordvangen,9870,15,10.197015,57.480057
1846145,Nordvangen,9870,17,10.1968331,57.4800567
1846147,Nordvangen,9870,19,10.1969084,57.4802665
1846148,Nordvangen,9870,20,10.1998538,57.4797223
1846151,Nordvangen,9870,21,10.1967257,57.4802643
1846152,Nordvangen,9870,22A,10.1999049,57.4801136
1846155,Nordvangen,9870,22B,10.1999127,57.4801844
1846157,Nordvangen,9870,22C,10.2002765,57.4800766
1846158,Nordvangen,9870,22D,10.200295,57.4801484
1846160,Nordvangen,9870,22E,10.200585,57.4801158
1846162,Nordvangen,9870,22F,10.2007602,57.4800853
1846164,Nordvangen,9870,22G,10.200567,57.4799408
1846167,Nordvangen,9870,22H,10.20074,57.4799134
1846169,Nordvangen,9870,22K,10.2006755,57.4797472
1846170,Nordvangen,9870,22L,10.2006645,57.4796716
1846172,Nordvangen,9870,22M,10.2003171,57.4797937
1846174,Nordvangen,9870,22N,10.2003177,57.4797212
1846176,Nordvangen,9870,23,10.1968569,57.4804778
1846179,Nordvangen,9870,24,10.2000915,57.4803883
1846181,Nordvangen,9870,25,10.1966685,57.4804733
1846182,Nordvangen,9870,26,10.200178,57.4806012
1846185,Nordvangen,9870,27,10.1967955,57.4807223
1846186,Nordvangen,9870,28,10.2001021,57.4807744
1846189,Nordvangen,9870,29,10.196609,57.480721
1846191,Nordvangen,9870,30,10.1999978,57.4811073
1846192,Nordvangen,9870,32,10.1993139,57.4812252
1846195,Nordvangen,9870,34,10.1993002,57.4810177
1846196,Nordvangen,9870,36,10.199335,57.480793
1846198,Nordvangen,9870,38,10.1993228,57.4806271
1846199,Nordvangen,9870,40,10.1987508,57.4806671
1846202,Nordvangen,9870,42,10.198702,57.480884
1846204,Nordvangen,9870,44,10.198595,57.481095
1846206,Nordvangen,9870,46,10.1985635,57.4812442
1846208,Nordvangen,9870,50,10.1980042,57.4813031
1846210,Nordvangen,9870,52,10.1979534,57.4811107
1846213,Nordvangen,9870,54,10.198091,57.4809478
1846215,Nordvangen,9870,56,10.1981542,57.4807028
1846322,Falkevej,9870,3A,10.3046804,57.4114457
1846324,Falkevej,9870,4,10.3041522,57.411211
1846327,Falkevej,9870,5,10.3050202,57.4111691
1846329,Falkevej,9870,6,10.3044439,57.4110924
1846331,Falkevej,9870,7,10.3055242,57.4112209
1846332,Falkevej,9870,8,10.304202,57.41087
1846334,Falkevej,9870,9,10.305949,57.4113552
1846336,Falkevej,9870,10A,10.3037606,57.4107821
1846338,Falkevej,9870,10B,10.3036911,57.4108552
1846340,Falkevej,9870,11,10.306307,57.411458
1846342,Falkevej,9870,12,10.3038002,57.4104727
1846344,Falkevej,9870,13,10.3063877,57.4112007
1846346,Falkevej,9870,14,10.3040856,57.4105607
1846348,Falkevej,9870,15,10.3061492,57.4111042
1846351,Falkevej,9870,16,10.3044376,57.4106649
1846353,Falkevej,9870,17,10.3057056,57.4110167
1846355,Falkevej,9870,18,10.3047631,57.4107592
1846358,Falkevej,9870,19,10.3053199,57.4109136
1847539,Burskovvej,9870,11,10.196627,57.4205026
1847542,Burskovvej,9870,15A,10.1960797,57.4200113
1847545,Burskovvej,9870,15B,10.1962802,57.4197838
1847546,Burskovvej,9870,17,10.1959386,57.4189246
1847548,Burskovvej,9870,30,10.1941546,57.4191922
1847550,Burskovvej,9870,50,10.1917829,57.4171825
1847552,Burskovvej,9870,51,10.195527,57.416766
1847596,Finlandsgade,9870,1B,10.2010888,57.475873
1847597,Finlandsgade,9870,2,10.2009322,57.4761116
1847600,Finlandsgade,9870,3A,10.2006762,57.4758827
1847601,Finlandsgade,9870,3B,10.2006839,57.4758096
1847603,Finlandsgade,9870,3C,10.2006879,57.4757345
1847605,Finlandsgade,9870,3D,10.2006952,57.4756686
1847607,Finlandsgade,9870,3E,10.2007025,57.4755983
1847610,Finlandsgade,9870,3F,10.2011283,57.4755403
1847611,Finlandsgade,9870,3G,10.2009175,57.4755324
1847613,Finlandsgade,9870,4,10.2004327,57.4761008
1847615,Finlandsgade,9870,5,10.2001428,57.4758539
1847616,Finlandsgade,9870,6,10.1990062,57.4760677
1847619,Finlandsgade,9870,9,10.1975713,57.4758578
1847621,Finlandsgade,9870,11,10.1977291,57.4756891
1847623,Finlandsgade,9870,12,10.1970742,57.4759849
1847905,Vestergården,9870,2,10.296534,57.409637
1847908,Vestergården,9870,4,10.2966558,57.4096507
1847909,Vestergården,9870,6,10.2967754,57.4096636
1847912,Vestergården,9870,8,10.2964141,57.4098129
1847913,Vestergården,9870,10,10.2963833,57.4099025
1847915,Vestergården,9870,12,10.2964235,57.409989
1847917,Vestergården,9870,14,10.2968168,57.4098439
1847919,Vestergården,9870,16,10.2969463,57.4098958
1847921,Vestergården,9870,18,10.297075,57.409905
1847922,Vestergården,9870,20,10.296933,57.4100581
1847923,Vestergården,9870,22,10.296888,57.410241
1847925,Vestergården,9870,24,10.2968276,57.4102288
1847927,Vestergården,9870,26,10.2968449,57.4104021
1847928,Vestergården,9870,28,10.29672,57.4103876
1847930,Vestergården,9870,30,10.2965612,57.4104154
1847931,Vestergården,9870,32,10.296318,57.41038
1847932,Vestergården,9870,34,10.2961652,57.410408
1847934,Vestergården,9870,36,10.2959817,57.4103878
1847935,Vestergården,9870,38,10.295657,57.410388
1847937,Vestergården,9870,40,10.2956995,57.4102913
1847938,Vestergården,9870,42,10.2959142,57.4101068
1849199,Ægirsvej,9870,1,10.1843633,57.4717823
1849204,Ægirsvej,9870,2,10.1836198,57.4719773
1849210,Ægirsvej,9870,3,10.1848366,57.4716157
1849213,Ægirsvej,9870,4,10.1832313,57.47207
1849219,Ægirsvej,9870,5,10.1853402,57.471632
1849221,Ægirsvej,9870,6,10.1830985,57.4717962
1849229,Ægirsvej,9870,7,10.1857387,57.4716329
1849232,Ægirsvej,9870,8,10.182924,57.4715733
1849238,Ægirsvej,9870,10,10.1834393,57.4716309
1849243,Ægirsvej,9870,11,10.1853882,57.4713163
1849246,Ægirsvej,9870,13,10.1849173,57.4713654
1849248,Ægirsvej,9870,15,10.1844093,57.471427
1849250,Ægirsvej,9870,17,10.183945,57.471521
1849999,Møllegade,9870,1,10.3028461,57.4108047
1850000,Møllegade,9870,2,10.3022612,57.410615
1850001,Møllegade,9870,3,10.3025679,57.4107122
1850002,Møllegade,9870,4,10.3021577,57.4105084
1850003,Møllegade,9870,5,10.302614,57.4105719
1850004,Møllegade,9870,6,10.3022974,57.4103791
1850005,Møllegade,9870,7,10.3026385,57.410451
1850006,Møllegade,9870,8,10.3023417,57.4102381
1850007,Møllegade,9870,9,10.3026672,57.4103359
1850008,Møllegade,9870,10,10.3023018,57.4100631
1850009,Møllegade,9870,11,10.302713,57.410161
1850010,Møllegade,9870,13,10.3027394,57.4100412
1850011,Møllegade,9870,15,10.3027767,57.4098938
1850012,Møllegade,9870,17,10.3028885,57.4096309
1850186,Melbækvej,9870,61,10.1734422,57.4218612
1850187,Melbækvej,9870,90,10.1739521,57.4186404
1850188,Melbækvej,9870,131,10.178693,57.416394
1850415,Vibevej,9870,3,10.2519777,57.4639164
1850418,Vibevej,9870,6,10.2519122,57.4632666
1850419,Vibevej,9870,8,10.2523088,57.4631452
1850421,Vibevej,9870,10,10.2527322,57.4630523
1850424,Vibevej,9870,12,10.2531754,57.4629366
1850425,Vibevej,9870,14,10.2535801,57.4628221
1850427,Vibevej,9870,16,10.2539731,57.4631822
1850430,Vibevej,9870,18,10.253615,57.4633079
1850432,Vibevej,9870,22,10.252767,57.463385
1850435,Vibevej,9870,24,10.2523433,57.4635863
1850857,Tyrsigvej,9870,1,10.2022104,57.4848442
1850860,Tyrsigvej,9870,2,10.2027776,57.4843511
1850861,Tyrsigvej,9870,6,10.2045554,57.4843091
1850866,Tyrsigvej,9870,24,10.206282,57.483315
1850869,Tyrsigvej,9870,31,10.208932,57.484823
1850872,Tyrsigvej,9870,44,10.209486,57.484179
1850875,Tyrsigvej,9870,78,10.213987,57.482004
1850880,Tyrsigvej,9870,80,10.2157288,57.4846814
1850882,Tyrsigvej,9870,80A,10.2154899,57.4844303
1850884,Tyrsigvej,9870,80B,10.215337,57.4844386
1850887,Tyrsigvej,9870,100,10.2201793,57.4819589
1850890,Tyrsigvej,9870,105,10.218585,57.485747
1850893,Tyrsigvej,9870,107,10.2213704,57.4857657
1850896,Tyrsigvej,9870,109,10.224326,57.486547
1850936,Stenderupvej,9870,3,10.309016,57.484669
1850939,Stenderupvej,9870,5,10.3086896,57.4848991
1850943,Stenderupvej,9870,35,10.305213,57.484665
1850947,Stenderupvej,9870,46,10.3019989,57.4870378
1850950,Stenderupvej,9870,86,10.30194,57.489128
1850953,Stenderupvej,9870,88,10.304637,57.489975
1850957,Stenderupvej,9870,125,10.295539,57.49036
1850959,Stenderupvej,9870,150,10.2933867,57.4933995
1850961,Stenderupvej,9870,176,10.290514,57.4947723
1850964,Stenderupvej,9870,196,10.2885672,57.4974397
1850966,Stenderupvej,9870,200,10.2874349,57.4960178
1850969,Stenderupvej,9870,202,10.2871244,57.4969676
1850970,Stenderupvej,9870,205,10.2833986,57.4932518
1850973,Stenderupvej,9870,226,10.2850509,57.4986898
1851163,Liljevej,9870,1,10.1861473,57.4772054
1851164,Liljevej,9870,2,10.1861449,57.4768833
1851167,Liljevej,9870,3,10.1866471,57.4771972
1851169,Liljevej,9870,4,10.1864875,57.4769297
1851170,Liljevej,9870,5,10.187096,57.477166
1851171,Liljevej,9870,6,10.1868899,57.4769281
1851172,Liljevej,9870,7,10.1875194,57.4771949
1851173,Liljevej,9870,8,10.1872605,57.4769279
1851174,Liljevej,9870,9,10.1880092,57.47721
1851175,Liljevej,9870,10,10.1876764,57.4769211
1851176,Liljevej,9870,11,10.1882947,57.4771777
1851177,Liljevej,9870,12,10.1880648,57.4768816
1851178,Liljevej,9870,14,10.1884341,57.4768993
1851512,Dybdalsvej,9870,35,10.308402,57.474301
1851515,Dybdalsvej,9870,43,10.3057565,57.4717226
1851517,Dybdalsvej,9870,59,10.303896,57.474165
1851520,Dybdalsvej,9870,126,10.2953449,57.4778036
1851523,Dybdalsvej,9870,137,10.2942387,57.4784615
1851524,Dybdalsvej,9870,145,10.287267,57.47557
1851528,Dybdalsvej,9870,147,10.29343,57.478942
1851530,Dybdalsvej,9870,166,10.2933829,57.4804699
1851533,Dybdalsvej,9870,167,10.290297,57.479493
1851535,Dybdalsvej,9870,200,10.288118,57.48232
1851538,Dybdalsvej,9870,225,10.2828691,57.4807994
1851540,Dybdalsvej,9870,247,10.278943,57.482083
1851542,Dybdalsvej,9870,250,10.2782699,57.4833501
1851701,Stokholmvej,9870,11,10.1973642,57.4978977
1851702,Stokholmvej,9870,29,10.196389,57.499406
1851703,Stokholmvej,9870,36,10.194407,57.501808
1851704,Stokholmvej,9870,39,10.1951294,57.5005557
1851705,Stokholmvej,9870,63,10.1916427,57.5011198
1851706,Stokholmvej,9870,72,10.1925606,57.5033939
1851707,Stokholmvej,9870,80,10.1934121,57.5043669
1851708,Stokholmvej,9870,131,10.18804,57.503434
1851709,Stokholmvej,9870,132,10.1901751,57.5053376
1851710,Stokholmvej,9870,135,10.1837256,57.5049452
1851711,Stokholmvej,9870,146,10.1827554,57.5065396
1851712,Stokholmvej,9870,210,10.171373,57.509121
1851956,Mølskovvej,9870,11,10.178769,57.433457
1851959,Mølskovvej,9870,90,10.1846136,57.440925
1851961,Mølskovvej,9870,92,10.1850607,57.4415413
1851964,Mølskovvej,9870,93,10.1784158,57.441875
1851966,Mølskovvej,9870,95,10.1770922,57.444929
1851969,Mølskovvej,9870,97,10.1768721,57.4453383
1851971,Mølskovvej,9870,116,10.1854109,57.4425938
1851974,Mølskovvej,9870,125,10.1780257,57.4464579
1851976,Mølskovvej,9870,140,10.1866739,57.4441441
1851980,Mølskovvej,9870,272,10.1875545,57.4466893
1851983,Mølskovvej,9870,274,10.1883313,57.4472899
1851987,Mølskovvej,9870,279,10.189264,57.447997
1852222,Kastanievej,9870,3,10.2815409,57.5052801
1852223,Kastanievej,9870,4,10.2813982,57.5050241
1852225,Kastanievej,9870,5,10.281584,57.5055474
1852228,Kastanievej,9870,6,10.2811356,57.5048217
1852229,Kastanievej,9870,7,10.2820468,57.5055042
1852231,Kastanievej,9870,8,10.2811598,57.5045697
1852233,Kastanievej,9870,9,10.2820672,57.5053289
1852236,Kastanievej,9870,10,10.281817,57.5044659
1852238,Kastanievej,9870,11,10.2826844,57.5052783
1852239,Kastanievej,9870,12,10.281855,57.5046271
1852241,Kastanievej,9870,14,10.2817831,57.5048295
1852243,Kastanievej,9870,16,10.2817686,57.5050367
1852245,Karlsmindevej,9870,29,10.23151,57.425711
1852246,Karlsmindevej,9870,31,10.2286842,57.4276288
1852247,Karlsmindevej,9870,32,10.234011,57.42187
1852248,Karlsmindevej,9870,49,10.235599,57.422447
1852249,Karlsmindevej,9870,55,10.2364268,57.4224952
1852250,Karlsmindevej,9870,60,10.237598,57.422042
1852251,Karlsmindevej,9870,63,10.236871,57.424215
1852252,Karlsmindevej,9870,66,10.239043,57.42088
1852253,Karlsmindevej,9870,76,10.243086,57.420593
1852254,Karlsmindevej,9870,109,10.2444996,57.4235674
1852255,Karlsmindevej,9870,124,10.246755,57.419924
1852370,Gyvelvej,9870,1,10.1921384,57.4776856
1852371,Gyvelvej,9870,2,10.1921895,57.4774618
1852372,Gyvelvej,9870,3,10.1924948,57.4777141
1852373,Gyvelvej,9870,4,10.1925078,57.4774814
1852374,Gyvelvej,9870,5,10.1928212,57.4777548
1852375,Gyvelvej,9870,6,10.1928883,57.4774869
1852376,Gyvelvej,9870,7,10.1932023,57.4777722
1852377,Gyvelvej,9870,8,10.1932343,57.4775421
1852378,Gyvelvej,9870,9,10.1935426,57.4778259
1852379,Gyvelvej,9870,10,10.1935951,57.4775537
1852380,Gyvelvej,9870,11,10.1939382,57.4778604
1852381,Gyvelvej,9870,12,10.1940158,57.477588
1852398,Ole Rømers Vej,9870,1A,10.203353,57.4835155
1852400,Ole Rømers Vej,9870,1B,10.2028662,57.4835191
1852401,Ole Rømers Vej,9870,1C,10.2023882,57.483524
1852403,Ole Rømers Vej,9870,2,10.2021411,57.4824242
1852405,Ole Rømers Vej,9870,4A,10.2030953,57.4822703
1852407,Ole Rømers Vej,9870,4B,10.2027824,57.4823308
1852409,Ole Rømers Vej,9870,4C,10.2025652,57.4821681
1852410,Ole Rømers Vej,9870,4D,10.202747,57.482077
1852412,Ole Rømers Vej,9870,4E,10.2034226,57.4823201
1852414,Ole Rømers Vej,9870,4F,10.2036565,57.4824068
1852416,Ole Rømers Vej,9870,4G,10.202618,57.48244
1852417,Ole Rømers Vej,9870,5,10.2045877,57.4839409
1852418,Ole Rømers Vej,9870,5D,10.2040651,57.4837747
1852419,Ole Rømers Vej,9870,5E,10.2045306,57.4837927
1852421,Ole Rømers Vej,9870,5F,10.2049537,57.4837909
1852424,Ole Rømers Vej,9870,6,10.2046437,57.4824929
1852819,Solbakkevej,9870,1,10.317864,57.4855231
1852820,Solbakkevej,9870,2,10.3184794,57.4853814
1852821,Solbakkevej,9870,3,10.3185962,57.4855614
1852822,Solbakkevej,9870,4A,10.318938,57.4854293
1852823,Solbakkevej,9870,4B,10.3190044,57.4853593
1852825,Solbakkevej,9870,4C,10.3190334,57.485278
1852827,Solbakkevej,9870,5,10.3190293,57.4856183
1852829,Solbakkevej,9870,6A,10.3191641,57.4854451
1852831,Solbakkevej,9870,6B,10.3193456,57.4854594
1852833,Solbakkevej,9870,7,10.3194972,57.4856559
1852835,Solbakkevej,9870,8A,10.3195575,57.4853503
1852837,Solbakkevej,9870,8B,10.3197189,57.4853648
1852839,Solbakkevej,9870,9,10.3199462,57.4856992
1852841,Solbakkevej,9870,10A,10.319973,57.485527
1852843,Solbakkevej,9870,10B,10.3200413,57.4854622
1852845,Solbakkevej,9870,10C,10.3200669,57.4853942
1852847,Solbakkevej,9870,12,10.3203354,57.4855262
1853518,Horsevadvej,9870,75,10.163224,57.419255
1853911,Bolejevej,9870,49,10.318299,57.40815
1853912,Bolejevej,9870,67,10.314949,57.4090663
1853913,Bolejevej,9870,85,10.312686,57.410705
1853914,Bolejevej,9870,109,10.3123272,57.4128694
1853915,Bolejevej,9870,153,10.310313,57.416598
1853916,Bolejevej,9870,156,10.312841,57.418324
1853917,Bolejevej,9870,164,10.3108393,57.4172204
1853918,Bolejevej,9870,175,10.30871,57.41799
1853919,Bolejevej,9870,196,10.311752,57.421114
1853920,Bolejevej,9870,210,10.3092041,57.4207035
1853921,Bolejevej,9870,213,10.306219,57.421272
1853924,Dalgårdsvej,9870,9,10.1667277,57.4645128
1853925,Dalgårdsvej,9870,10,10.1620439,57.4638283
1853928,Dalgårdsvej,9870,40,10.1627308,57.4620157
1853929,Dalgårdsvej,9870,56,10.1660044,57.4606203
1853931,Dalgårdsvej,9870,65,10.1682074,57.4615698
1853933,Dalgårdsvej,9870,91,10.170929,57.460584
1853935,Dalgårdsvej,9870,102,10.1712198,57.458624
1853937,Dalgårdsvej,9870,120,10.173816,57.4578434
1853938,Dalgårdsvej,9870,140,10.1776311,57.4584244
1853940,Dalgårdsvej,9870,142B,10.1574717,57.4562126
1853942,Dalgårdsvej,9870,160,10.182234,57.460668
1853944,Dalgårdsvej,9870,160A,10.1824598,57.4604976
1854072,Bellisvej,9870,1,10.1925343,57.4762644
1854073,Bellisvej,9870,2,10.192581,57.476045
1854075,Bellisvej,9870,3,10.1928488,57.47629
1854076,Bellisvej,9870,4,10.192707,57.476056
1854078,Bellisvej,9870,5,10.1932778,57.4763657
1854080,Bellisvej,9870,6,10.192821,57.476065
1854081,Bellisvej,9870,7,10.1935964,57.4763479
1854082,Bellisvej,9870,8,10.192936,57.476075
1854083,Bellisvej,9870,9,10.1939781,57.4764528
1854086,Bellisvej,9870,10,10.19305,57.476084
1854087,Bellisvej,9870,11,10.1943441,57.4764618
1854088,Bellisvej,9870,12,10.193164,57.476094
1854091,Bellisvej,9870,14,10.193364,57.476037
1854092,Bellisvej,9870,16,10.193381,57.475977
1854093,Bellisvej,9870,18,10.193403,57.475898
1854095,Bellisvej,9870,20,10.193599,57.476131
1854096,Bellisvej,9870,22,10.193695,57.476139
1854098,Bellisvej,9870,24,10.193853,57.476155
1854099,Bellisvej,9870,26,10.19394,57.476161
1854101,Bellisvej,9870,28,10.194168,57.476088
1854103,Bellisvej,9870,30,10.194181,57.476039
1854105,Bellisvej,9870,32,10.194202,57.475977
1854106,Bellisvej,9870,34,10.194219,57.475923
1854107,Bellisvej,9870,36,10.19425,57.475846
1854109,Bellisvej,9870,38,10.194269,57.475787
1855076,Mejerivej,9870,9,10.176328,57.4281525
1855078,Mejerivej,9870,10,10.1769092,57.4280995
1855080,Mejerivej,9870,13,10.1764462,57.4285655
1855081,Mejerivej,9870,14,10.1769575,57.4285581
1855155,Jyllandsgade,9870,1,10.1994933,57.4738466
1855158,Jyllandsgade,9870,2,10.199585,57.474276
1855161,Jyllandsgade,9870,3,10.1992055,57.4738709
1855162,Jyllandsgade,9870,4,10.1992045,57.4741129
1855164,Jyllandsgade,9870,5,10.198883,57.47389
1855166,Jyllandsgade,9870,6,10.1989823,57.4740862
1855168,Jyllandsgade,9870,6A,10.1990894,57.474056
1855171,Jyllandsgade,9870,7,10.1985126,57.4739059
1855172,Jyllandsgade,9870,8,10.1985367,57.4741414
1855174,Jyllandsgade,9870,9,10.198068,57.473941
1855176,Jyllandsgade,9870,10,10.1982388,57.4741981
1855328,Hybenvej,9870,1,10.192339,57.4784551
1855329,Hybenvej,9870,2,10.1921161,57.4781759
1855332,Hybenvej,9870,3,10.1926825,57.4784597
1855335,Hybenvej,9870,4,10.1925108,57.4782109
1855336,Hybenvej,9870,5,10.1930651,57.4784911
1855337,Hybenvej,9870,6,10.1929264,57.4782525
1855340,Hybenvej,9870,7,10.1934069,57.4785953
1855341,Hybenvej,9870,8,10.1933791,57.4782565
1855343,Hybenvej,9870,9,10.1938157,57.4785766
1855346,Hybenvej,9870,10,10.1937338,57.4782919
1855694,Bjørnsbækvej,9870,41,10.250615,57.501975
1855695,Bjørnsbækvej,9870,63,10.2507965,57.5039338
1855696,Bjørnsbækvej,9870,65,10.246863,57.5024075
1855697,Bjørnsbækvej,9870,70,10.2516668,57.5047452
1855698,Bjørnsbækvej,9870,92,10.251565,57.506352
1855699,Bjørnsbækvej,9870,103,10.2486248,57.5074357
1855700,Bjørnsbækvej,9870,114,10.2496065,57.5087489
1855701,Bjørnsbækvej,9870,151,10.244324,57.511689
1855702,Bjørnsbækvej,9870,158,10.250666,57.51319
1855703,Bjørnsbækvej,9870,207,10.241011,57.512553
1856431,Hesthavevej,9870,1,10.1800227,57.4273906
1856434,Hesthavevej,9870,2,10.1791368,57.4268696
1856436,Hesthavevej,9870,3,10.1805957,57.4274304
1856439,Hesthavevej,9870,5,10.1808846,57.4275481
1856442,Hesthavevej,9870,6,10.1802491,57.4270071
1856444,Hesthavevej,9870,7,10.1812668,57.4275849
1856447,Hesthavevej,9870,8,10.1805667,57.4270459
1856450,Hesthavevej,9870,10,10.1808943,57.4270951
1856453,Hesthavevej,9870,12,10.181177,57.42721
1856467,Hasselvej,9870,4,10.2793503,57.5055229
1856468,Hasselvej,9870,6,10.2794359,57.5057209
1856469,Hasselvej,9870,8,10.2795535,57.5059563
1856470,Hasselvej,9870,10,10.2796111,57.5061755
1856471,Hasselvej,9870,12,10.2788149,57.5062133
1856472,Hasselvej,9870,14,10.2786643,57.5059919
1856473,Hasselvej,9870,16,10.278688,57.5057679
1856474,Hasselvej,9870,18,10.2786362,57.5055628
1856475,Hasselvej,9870,20,10.2776516,57.5056731
1856518,Klosterskovvej,9870,2,10.2050406,57.4212493
1856519,Klosterskovvej,9870,35,10.212587,57.416959
1856520,Klosterskovvej,9870,37,10.2129562,57.4169733
1856521,Klosterskovvej,9870,70,10.2074744,57.4151044
1856522,Klosterskovvej,9870,213,10.2345626,57.4046964
1856523,Klosterskovvej,9870,215A,10.2347395,57.4051488
1856524,Klosterskovvej,9870,215B,10.2348991,57.4050286
1856675,Dalvej,9870,4,10.315774,57.472521
1856676,Dalvej,9870,5,10.3155897,57.4736105
1856677,Dalvej,9870,6,10.316079,57.472306
1856678,Dalvej,9870,7,10.3158197,57.473311
1856679,Dalvej,9870,9,10.3161845,57.4732329
1856820,Vejborgvej,9870,6,10.156756,57.478215
1856823,Vejborgvej,9870,80,10.156331,57.485078
1856826,Vejborgvej,9870,90,10.1550989,57.4859916
1856828,Vejborgvej,9870,92,10.1583623,57.4863004
1856831,Vejborgvej,9870,125,10.1527932,57.4881695
1856832,Vejborgvej,9870,138,10.1583799,57.4895257
1856836,Vejborgvej,9870,140,10.160719,57.491265
1856839,Vejborgvej,9870,151,10.1532701,57.4908891
1857001,Stadionvej,9870,1,10.1958627,57.4783726
1857003,Stadionvej,9870,2,10.1971706,57.4775374
1857009,Stadionvej,9870,4,10.1972739,57.4777599
1857015,Stadionvej,9870,6,10.1971398,57.4779192
1857018,Stadionvej,9870,8,10.1971211,57.4781152
1857024,Stadionvej,9870,10,10.1971497,57.4783165
1857026,Stadionvej,9870,12,10.1970956,57.4785194
1857031,Bækstedvej,9870,3,10.2759837,57.5127585
1857034,Stadionvej,9870,14,10.1971004,57.4792147
1857039,Bækstedvej,9870,7,10.2751148,57.5126976
1857044,Bækstedvej,9870,11,10.2748267,57.5129179
1857048,Bækstedvej,9870,17,10.2742452,57.5125937
1857052,Bækstedvej,9870,20,10.2645161,57.5117033
1857057,Bækstedvej,9870,22,10.263874,57.513386
1857059,Bækstedvej,9870,27,10.2730967,57.5121681
1857064,Bækstedvej,9870,44,10.2712635,57.510706
1857071,Bækstedvej,9870,81,10.268503,57.508239
1857186,Teklaborgvej,9870,17,10.1363183,57.4797814
1857187,Teklaborgvej,9870,45,10.1310702,57.4815647
1857190,Teklaborgvej,9870,49,10.136157,57.482334
1857191,Teklaborgvej,9870,82,10.1416123,57.4855719
1857193,Teklaborgvej,9870,121,10.140971,57.488521
1857194,Teklaborgvej,9870,125,10.1353003,57.488639
1857197,Teklaborgvej,9870,127,10.1382284,57.4889574
1857199,Teklaborgvej,9870,176,10.142557,57.492309
1857274,Skolebakken,9870,1,10.2962604,57.4072328
1857275,Skolebakken,9870,3,10.2958381,57.4071722
1857276,Skolebakken,9870,4,10.2956417,57.4074338
1857277,Skolebakken,9870,5,10.2954145,57.4070963
1857278,Skolebakken,9870,6,10.2951319,57.4073146
1857279,Skolebakken,9870,7,10.2950461,57.4070261
1857280,Skolebakken,9870,9,10.2946903,57.4070737
1857524,Ledetvej,9870,2,10.20462,57.487838
1857528,Ledetvej,9870,3,10.2062277,57.4877141
1857530,Ledetvej,9870,4,10.2049117,57.4876003
1857533,Ledetvej,9870,6,10.2042181,57.4872921
1857537,Ledetvej,9870,26,10.2040848,57.4868494
1857540,Ledetvej,9870,33,10.2057849,57.4859837
1857542,Ledetvej,9870,36,10.2040449,57.4854072
1857796,Gl. Enghavevej,9870,1,10.301018,57.4085831
1857797,Gl. Enghavevej,9870,3,10.300366,57.4085244
1857798,Gl. Enghavevej,9870,5,10.2999425,57.4085256
1857799,Gl. Enghavevej,9870,6,10.299381,57.408774
1857800,Gl. Enghavevej,9870,7,10.2994037,57.4084759
1857801,Gl. Enghavevej,9870,8,10.2986224,57.4090415
1857802,Gl. Enghavevej,9870,12,10.2985363,57.4085098
1858061,Stenhøjvej,9870,108,10.308928,57.3980117
1858062,Stenhøjvej,9870,137,10.3131403,57.3947839
1858063,Stenhøjvej,9870,181,10.3107738,57.3946206
1858495,Terkelsvej,9870,21,10.2582758,57.5199198
1858497,Terkelsvej,9870,37,10.2589411,57.5178784
1858498,Terkelsvej,9870,39,10.25797,57.5191223
1858499,Terkelsvej,9870,54,10.251567,57.51835
1858500,Terkelsvej,9870,62,10.247441,57.51863
1858501,Terkelsvej,9870,64,10.2480293,57.5181163
1858502,Terkelsvej,9870,100,10.2464818,57.5155763
1858572,Birkevej,9870,4,10.2805004,57.5040634
1858575,Birkevej,9870,5,10.2809759,57.5042274
1858576,Birkevej,9870,7,10.2812931,57.5042729
1858579,Birkevej,9870,9,10.2817636,57.5042486
1858581,Birkevej,9870,10,10.2819442,57.5039639
1858582,Birkevej,9870,11,10.2820886,57.5042184
1858583,Birkevej,9870,13,10.2831933,57.5041298
1858776,Rødebrovej,9870,3,10.315708,57.532177
1858779,Rødebrovej,9870,4,10.3162168,57.5320438
1858783,Rødebrovej,9870,5,10.3159062,57.5323298
1858784,Rødebrovej,9870,20,10.318005,57.533169
1858787,Rødebrovej,9870,31,10.3187286,57.5338207
1858788,Rødebrovej,9870,33,10.3174491,57.5362338
1858789,Rødebrovej,9870,55,10.3219177,57.5348353
1858919,Pakhustorvet,9870,1,10.2013481,57.4711933
1858922,Pakhustorvet,9870,3,10.2014502,57.4711934
1858926,Pakhustorvet,9870,4A,10.2008657,57.4711954
1858927,Pakhustorvet,9870,4C,10.2008859,57.4710402
1858928,Pakhustorvet,9870,6,10.2009624,57.4709417
1858930,Pakhustorvet,9870,7A,10.2019097,57.4711208
1858932,Pakhustorvet,9870,7B,10.2019113,57.4711088
1858949,Parallelvej,9870,2A,10.204373,57.476862
1858952,Parallelvej,9870,2B,10.2040916,57.4771721
1858953,Parallelvej,9870,3,10.2036794,57.4774549
1858955,Parallelvej,9870,5,10.2036989,57.4781051
1858956,Parallelvej,9870,8,10.2041279,57.4777388
1858958,Parallelvej,9870,14,10.2042505,57.4787189
1858960,Parallelvej,9870,15,10.2057213,57.479636
1860591,Stensbækvej,9870,48,10.22303,57.4343104
1860592,Stensbækvej,9870,50,10.223564,57.433856
1860593,Stensbækvej,9870,55,10.2241256,57.4331297
1860594,Stensbækvej,9870,57,10.22494,57.433044
1860595,Stensbækvej,9870,100,10.2208293,57.4306183
1860777,Skovlyvej,9870,6,10.2144882,57.4703291
1860778,Skovlyvej,9870,16,10.2163939,57.4695983
1860781,Skovlyvej,9870,31,10.219462,57.469209
1860782,Skovlyvej,9870,42,10.2206308,57.4685509
1860989,Pyrosvej,9870,14,10.2983926,57.5220887
1861546,Espedal,9870,1,10.31135,57.481044
1861547,Espedal,9870,2,10.3112572,57.4812193
1861550,Espedal,9870,3,10.3109489,57.4809489
1861555,Espedal,9870,4A,10.310478,57.4811
1861556,Espedal,9870,4B,10.3104215,57.4811962
1861560,Espedal,9870,8,10.3085158,57.4812295
1861618,Foldbakvej,9870,7,10.3696392,57.4796932
1861620,Foldbakvej,9870,9,10.3691498,57.479702
1861623,Foldbakvej,9870,11,10.3688274,57.4800443
1861624,Foldbakvej,9870,55,10.362118,57.48164
1861626,Foldbakvej,9870,66,10.3604393,57.4820627
1861629,Foldbakvej,9870,68,10.3605944,57.4828603
1861663,Dalsagervej,9870,51,10.161606,57.438806
1861666,Dalsagervej,9870,64,10.1635603,57.439986
1861669,Dalsagervej,9870,78,10.164718,57.441825
1861670,Dalsagervej,9870,81,10.162176,57.441708
1861673,Dalsagervej,9870,139,10.163775,57.446099
1861675,Dalsagervej,9870,140,10.164594,57.4461855
1861828,Bredmosevej,9870,15,10.269755,57.403045
1861832,Bredmosevej,9870,57,10.2636673,57.4056024
1861833,Bredmosevej,9870,72,10.2717755,57.4090142
1861836,Bredmosevej,9870,86,10.268625,57.409993
1861838,Bredmosevej,9870,96,10.268964,57.410742
1861840,Bredmosevej,9870,125,10.267263,57.412745
1862133,Øster Mogensbækvej,9870,2,10.1801157,57.508699
1862135,Øster Mogensbækvej,9870,4,10.1807986,57.5085202
1862136,Øster Mogensbækvej,9870,5,10.1845824,57.5085654
1862305,Soldalvej,9870,36,10.2735866,57.442867
1862307,Soldalvej,9870,50,10.2694892,57.4458271
1862309,Soldalvej,9870,61,10.2683089,57.4448618
1862311,Soldalvej,9870,80,10.2666239,57.4451244
1862313,Soldalvej,9870,90,10.264093,57.444846
1862335,Solvej,9870,2,10.3165728,57.4864113
1862338,Solvej,9870,4,10.3161455,57.486401
1862341,Solvej,9870,6,10.3157689,57.4863858
1862344,Solvej,9870,8,10.3152107,57.4863738
1862347,Solvej,9870,10,10.3146557,57.486311
1862378,Skørbækshave,9870,2,10.2962036,57.4877469
1862379,Skørbækshave,9870,5,10.2980006,57.4881472
1862380,Skørbækshave,9870,7,10.2985721,57.4879477
1862381,Skørbækshave,9870,8A,10.2966363,57.4890278
1862382,Skørbækshave,9870,9,10.2983648,57.4875991
1862383,Skørbækshave,9870,10,10.2962035,57.4877469
1862384,Skørbækshave,9870,11,10.2977302,57.48786
1862385,Skørbækshave,9870,13,10.2973367,57.4875041
1862386,Skørbækshave,9870,30A,10.2963039,57.4887397
1862387,Skørbækshave,9870,34,10.2962379,57.4885068
1862388,Skørbækshave,9870,36,10.2970653,57.4883191
1862389,Skørbækshave,9870,38,10.2968533,57.4879919
1862395,Spurvevej,9870,2A,10.2523805,57.4656507
1862396,Spurvevej,9870,2B,10.2523941,57.4657422
1862397,Spurvevej,9870,3,10.2514056,57.4655404
1862398,Spurvevej,9870,5,10.2510044,57.4656262
1862399,Spurvevej,9870,6,10.2514841,57.4659196
1862400,Spurvevej,9870,8,10.2511494,57.4659417
1862401,Spurvevej,9870,10,10.2505585,57.4660428
1862402,Spurvevej,9870,12A,10.249278,57.465629
1862565,Nordkapvej,9870,21,10.2927162,57.544993
1862571,Nordkapvej,9870,100,10.313011,57.548199
1862573,Nordkapvej,9870,136,10.316719,57.553323
1862827,Hedelundsvej,9870,19,10.1981882,57.4923822
1862831,Hedelundsvej,9870,35,10.1953498,57.4930998
1862838,Hedelundsvej,9870,70,10.1943478,57.4963914
1862841,Hedelundsvej,9870,75,10.1911926,57.4955341
1862847,Hedelundsvej,9870,104,10.1877911,57.4970892
1863324,Tislum Hedevej,9870,51,10.2550735,57.4362801
1863326,Tislum Hedevej,9870,123,10.247204,57.436316
1863327,Tislum Hedevej,9870,155,10.2418586,57.4357772
1863328,Tislum Hedevej,9870,199,10.253566,57.43173
1863341,Bøgevej,9870,3,10.2788869,57.5043253
1863344,Bøgevej,9870,4,10.2782136,57.5049873
1863345,Bøgevej,9870,5,10.2781978,57.5044484
1863348,Bøgevej,9870,7,10.2775973,57.504459
1863350,Bøgevej,9870,9,10.2769424,57.5045117
1863540,Skaarupgaard,9870,39,10.342955,57.4605892
1863542,Skaarupgaard,9870,41,10.343013,57.4610292
1863544,Skaarupgaard,9870,43,10.3411938,57.4607199
1863547,Skaarupgaard,9870,59,10.343372,57.462774
1863548,Skaarupgaard,9870,60,10.3450086,57.462539
1863647,Pladsen,9870,1,10.2795888,57.5070824
1863648,Pladsen,9870,5A,10.2793285,57.5066659
1863649,Pladsen,9870,5B,10.2792525,57.5065427
1863650,Pladsen,9870,5C,10.2794992,57.5065625
1863883,Skolegade,9870,3,10.197503,57.4766857
1863884,Skolegade,9870,5,10.197517,57.476492
1863886,Skolegade,9870,7,10.197502,57.476316
1863887,Skolegade,9870,9,10.1975074,57.4761235
1863930,Kirkemosevej,9870,100,10.2337513,57.4739319
1863934,Kirkemosevej,9870,126,10.232151,57.476025
1863935,Kirkemosevej,9870,153,10.2305815,57.4785252
1863938,Kirkemosevej,9870,199,10.23329,57.4822219
1864057,Højbjergvej,9870,41,10.227156,57.418704
1864061,Højbjergvej,9870,84,10.2310897,57.415052
1864063,Højbjergvej,9870,120,10.236461,57.414369
1864067,Højbjergvej,9870,124,10.237876,57.414309
1864117,Holmenvej,9870,18,10.3718281,57.4796098
1864118,Holmenvej,9870,22,10.3728283,57.4793247
1864119,Holmenvej,9870,79,10.3667515,57.4858742
1864143,Holmsmindevej,9870,4,10.316491,57.5025786
1864146,Holmsmindevej,9870,6,10.3161866,57.5028082
1864148,Holmsmindevej,9870,8,10.3158113,57.50324
1864151,Holmsmindevej,9870,10,10.3157264,57.5035508
1864521,Birketvej,9870,1,10.232765,57.470087
1864525,Birketvej,9870,60,10.231749,57.465324
1864530,Birketvej,9870,105,10.236233,57.460928
1864532,Birketvej,9870,106,10.223835,57.461898
1864537,Birketvej,9870,144,10.2326119,57.4574266
1864569,Bettebyvej,9870,1,10.2021866,57.4793145
1864570,Bettebyvej,9870,3,10.2026404,57.4792381
1864571,Bettebyvej,9870,4,10.2022316,57.4790657
1864572,Bettebyvej,9870,6,10.202719,57.479043
1864690,Vinkelvej,9870,3,10.202843,57.4784383
1864691,Vinkelvej,9870,4,10.2029385,57.4781008
1864692,Vinkelvej,9870,5,10.2030315,57.4793031
1864693,Vinkelvej,9870,7,10.2029201,57.4796258
1864790,Ulstedbovej,9870,15A,10.183192,57.475314
1864794,Ulstedbovej,9870,15B,10.1835937,57.4755073
1864796,Ulstedbovej,9870,17,10.183665,57.4749901
1864813,Tjørnelyvej,9870,1,10.2079298,57.454902
1864814,Tjørnelyvej,9870,27,10.2038569,57.4546997
1864815,Tjørnelyvej,9870,56,10.200043,57.453464
1864877,Åholmvej,9870,20,10.200226,57.4322549
1864878,Åholmvej,9870,22,10.201863,57.431886
1864879,Åholmvej,9870,26,10.1997909,57.4313508
1864880,Åholmvej,9870,35,10.201363,57.430376
1864926,Smedevej,9870,3,10.2091342,57.446185
1864928,Smedevej,9870,5,10.2092148,57.4459548
1864930,Smedevej,9870,7,10.2093096,57.4456739
1865156,Skørbækshedevej,9870,1,10.304431,57.484249
1865159,Skørbækshedevej,9870,2,10.3030772,57.4851637
1865161,Skørbækshedevej,9870,78,10.28962,57.4868559
1865163,Skørbækshedevej,9870,88,10.2892441,57.486256
1865174,Smørkrogvej,9870,10,10.1917132,57.4241422
1865175,Smørkrogvej,9870,12,10.1914048,57.4239369
1865176,Smørkrogvej,9870,35,10.188213,57.423215
1865186,Skovhusvej,9870,64,10.1671863,57.4891157
1865188,Skovhusvej,9870,66,10.16771,57.485567
1865189,Skovhusvej,9870,71,10.1662559,57.4843456
1865197,Poppelvej,9870,3,10.2752149,57.5020382
1865199,Poppelvej,9870,5,10.2751734,57.5018861
1865202,Poppelvej,9870,7,10.2751291,57.5017347
1865352,Nymarksvej,9870,10,10.2928315,57.4636817
1865353,Nymarksvej,9870,31,10.2899448,57.4651463
1865356,Nymarksvej,9870,48,10.2897883,57.4666526
1865392,Møllehusvej,9870,3,10.1635517,57.4672029
1865394,Møllehusvej,9870,50,10.164806,57.470612
1865395,Møllehusvej,9870,60,10.1600891,57.4719509
1865459,Mølhedevej,9870,11,10.326204,57.459608
1865461,Mølhedevej,9870,24,10.328776,57.460476
1865464,Mølhedevej,9870,64,10.3327677,57.4628977
1865652,Kringelmosevej,9870,10,10.2820361,57.4056724
1865654,Kringelmosevej,9870,54,10.278851,57.400855
1865658,Kringelmosevej,9870,67,10.287797,57.401647
1865660,Kringelmosevej,9870,83,10.2808636,57.3983708
1865663,Kringelmosevej,9870,101,10.2803243,57.3976111
1865665,Kringelmosevej,9870,111,10.2792995,57.3970026
1865668,Kringelmosevej,9870,130,10.2765954,57.3961553
1865669,Kringelmosevej,9870,164,10.272625,57.390356
1865670,Kringelmosevej,9870,166,10.2659073,57.3894537
1865671,Kringelmosevej,9870,171,10.276738,57.392526
1865672,Kringelmosevej,9870,205,10.2748029,57.3896576
1865674,Kringelmosevej,9870,220,10.270478,57.3864553
1865676,Kringelmosevej,9870,232,10.274513,57.38606
1865678,Kringelmosevej,9870,235,10.277447,57.385997
1865682,Kringelmosevej,9870,237,10.281589,57.387135
1865706,Kringelhedevej,9870,13,10.291841,57.433574
1865709,Kringelhedevej,9870,35,10.287842,57.43361
1865711,Kringelhedevej,9870,53,10.2833907,57.4347534
1865745,Kirkestræde,9870,1,10.300906,57.4100485
1865746,Kirkestræde,9870,3,10.3009913,57.4098926
1865748,Kirkestræde,9870,5,10.3010889,57.4096446
1866003,Elmevej,9870,3,10.2779693,57.5018292
1866006,Elmevej,9870,4,10.2770937,57.5018751
1866008,Elmevej,9870,5,10.2776652,57.5017964
1866013,Elmevej,9870,6,10.2769593,57.5013632
1866015,Elmevej,9870,7,10.2775926,57.5015891
1866084,Gøggårdsvej,9870,41,10.1394662,57.5203094
1866087,Gøggårdsvej,9870,55,10.141461,57.5214134
1866088,Gøggårdsvej,9870,75,10.1440144,57.5227861
1866237,Albækvej,9870,69,10.318559,57.398409
1866249,Albækvej,9870,78,10.3238,57.3989068
1866257,Albækvej,9870,115,10.319155,57.405886
1866263,Albækvej,9870,146,10.3246004,57.4046109
1866265,Albækvej,9870,168,10.326067,57.4063425
1866269,Børsholtvej,9870,41,10.351423,57.476418
1866270,Børsholtvej,9870,43,10.3516232,57.4763224
1866406,Vandværksvej,9870,1,10.297569,57.409774
1866409,Vandværksvej,9870,5,10.297394,57.4102172
1866436,Vangshøjvej,9870,55,10.2397814,57.5050594
1866437,Vangshøjvej,9870,65,10.238218,57.506098
1866732,Vaskerivej,9870,1,10.2974284,57.408971
1866735,Vaskerivej,9870,5,10.2975512,57.4087902
1866799,Rønvej,9870,1,10.276264,57.503263
1866802,Rønvej,9870,6,10.2751831,57.5033254
1867089,Industrivej,9870,1,10.2905417,57.4116098
1867090,Industrivej,9870,3,10.2911692,57.4116709
1867449,Mejsevej,9870,3,10.25271,57.4645838
2023288,Løthvej,9870,15,10.3022829,57.3910041
2023289,Løthvej,9870,50,10.296579,57.390801
2023293,Løthvej,9870,65,10.2954137,57.388957
2023295,Løthvej,9870,72,10.293748,57.38979
2023298,Løthvej,9870,89,10.29325,57.385826
2023303,Løthvej,9870,96,10.2907847,57.3879828
2023307,Løthvej,9870,101,10.2892547,57.3859947
2023308,Løthvej,9870,127,10.287301,57.386131
2023310,Løthvej,9870,146,10.2840934,57.3855276
2023314,Løthvej,9870,180,10.279573,57.384019
2023316,Løthvej,9870,186,10.2797927,57.3834616
2023320,Løthvej,9870,194,10.277481,57.38399
2023323,Løthvej,9870,199,10.276138,57.383361
2023324,Løthvej,9870,202,10.275817,57.3841669
2023330,Løthvej,9870,236,10.2697266,57.3842988
2023333,Løthvej,9870,237,10.2634045,57.3829758
2023338,Løthvej,9870,294,10.260672,57.38383
2024321,Mikkelstrupvej,9870,64,10.303323,57.388702
2024323,Mikkelstrupvej,9870,76,10.301066,57.386264
2024325,Mikkelstrupvej,9870,116,10.300599,57.383522
2024327,Mikkelstrupvej,9870,119,10.3050389,57.3839244
2024328,Mikkelstrupvej,9870,122,10.2964963,57.3819871
2024330,Mikkelstrupvej,9870,125,10.305906,57.38269
2024332,Mikkelstrupvej,9870,135,10.310131,57.381932
2024334,Mikkelstrupvej,9870,189,10.3099542,57.3786507
2024337,Mikkelstrupvej,9870,191,10.311403,57.378563
2024908,Vestergårdsvej,9870,20,10.2497933,57.3925363
2024909,Vestergårdsvej,9870,27,10.2531409,57.3876132
2024911,Vestergårdsvej,9870,40,10.246995,57.387145
2024912,Vestergårdsvej,9870,118,10.2450494,57.385045
2024913,Vestergårdsvej,9870,119,10.2495719,57.3843388
2024914,Vestergårdsvej,9870,120,10.2437103,57.3851561
2025287,Langoddevej,9870,58,10.2796319,57.3808868
2025288,Langoddevej,9870,65,10.2758631,57.3817487
2025289,Langoddevej,9870,76,10.2795038,57.3824532
2025563,Stenhøjvej,9870,15,10.3099814,57.4056399
2025568,Stenhøjvej,9870,20,10.304697,57.405254
2025569,Stenhøjvej,9870,94,10.307688,57.399576
2087959,Sønderbakvej,9870,12,10.262675,57.396585
2087960,Sønderbakvej,9870,45,10.265507,57.396998
2087961,Sønderbakvej,9870,86,10.273082,57.3961198
2143118,Frederikshavnsvej,9870,1,10.2084682,57.471884
2143123,Frederikshavnsvej,9870,2,10.2085145,57.4710913
2143130,Frederikshavnsvej,9870,4,10.2088903,57.4710746
2143132,Frederikshavnsvej,9870,6,10.2094026,57.4711069
2143153,Frederikshavnsvej,9870,24,10.211727,57.471261
2143161,Frederikshavnsvej,9870,26,10.2120149,57.4712695
2143171,Frederikshavnsvej,9870,29,10.211878,57.471605
2143176,Frederikshavnsvej,9870,30,10.2131827,57.4715102
2143189,Frederikshavnsvej,9870,31,10.2121607,57.4715978
2143195,Frederikshavnsvej,9870,33,10.2127291,57.4717422
2143207,Frederikshavnsvej,9870,61,10.2176204,57.4712121
2143223,Frederikshavnsvej,9870,71,10.219122,57.471
2143226,Frederikshavnsvej,9870,113,10.2258884,57.4720898
2143238,Frederikshavnsvej,9870,130,10.228394,57.470609
2143251,Frederikshavnsvej,9870,135,10.229924,57.470874
2143256,Frederikshavnsvej,9870,137,10.230215,57.4708502
2143264,Frederikshavnsvej,9870,141,10.2309594,57.4707752
2143268,Frederikshavnsvej,9870,142,10.230724,57.47042
2143273,Frederikshavnsvej,9870,170,10.2347816,57.469796
2143281,Frederikshavnsvej,9870,174,10.2360326,57.4696696
2143283,Frederikshavnsvej,9870,180,10.236716,57.469645
2143290,Frederikshavnsvej,9870,190,10.238671,57.4694648
2143296,Frederikshavnsvej,9870,197,10.2392698,57.4698385
2143298,Frederikshavnsvej,9870,199,10.2395177,57.4698205
2143303,Frederikshavnsvej,9870,201,10.2400985,57.4698201
2143307,Frederikshavnsvej,9870,203,10.2404395,57.4698
2143311,Frederikshavnsvej,9870,205,10.2408975,57.4698084
2143317,Frederikshavnsvej,9870,206,10.2414682,57.4691631
2143320,Frederikshavnsvej,9870,207,10.241355,57.469798
2143329,Frederikshavnsvej,9870,225,10.244017,57.46935
2143339,Frederikshavnsvej,9870,253,10.249873,57.47006
2143344,Frederikshavnsvej,9870,267,10.2518346,57.4684957
2143354,Frederikshavnsvej,9870,277,10.2532859,57.4680479
2143358,Frederikshavnsvej,9870,281,10.2541453,57.468019
2143367,Frederikshavnsvej,9870,293,10.255667,57.46782
2143380,Frederikshavnsvej,9870,321,10.2602327,57.4671792
2143385,Frederikshavnsvej,9870,325,10.2609035,57.4671477
2143395,Frederikshavnsvej,9870,331,10.2623201,57.4669312
2143408,Frederikshavnsvej,9870,425,10.2760199,57.4653851
2143415,Frederikshavnsvej,9870,426A,10.2764908,57.4647588
2143418,Frederikshavnsvej,9870,426B,10.2757259,57.463452
2143427,Frederikshavnsvej,9870,426C,10.2746393,57.4611552
2143434,Frederikshavnsvej,9870,427,10.277485,57.465167
2143437,Frederikshavnsvej,9870,429,10.277674,57.465055
2143458,Frederikshavnsvej,9870,450,10.2807684,57.4638548
2143461,Frederikshavnsvej,9870,463,10.2838891,57.4639146
2143473,Frederikshavnsvej,9870,464,10.2830017,57.4630552
2143481,Frederikshavnsvej,9870,465,10.28318,57.467717
2143493,Frederikshavnsvej,9870,466,10.2810881,57.4613252
2143505,Frederikshavnsvej,9870,467,10.2879948,57.4717142
2143538,Frederikshavnsvej,9870,530,10.295639,57.460846
2143542,Frederikshavnsvej,9870,532,10.294901,57.460034
2143554,Frederikshavnsvej,9870,546A,10.295777,57.462317
2143567,Frederikshavnsvej,9870,571,10.3015044,57.4628541
2143580,Frederikshavnsvej,9870,573,10.301492,57.462644
2143585,Frederikshavnsvej,9870,575,10.3003,57.46787
2143598,Frederikshavnsvej,9870,577,10.3014814,57.4642456
2143611,Frederikshavnsvej,9870,610,10.3084416,57.4599445
2143614,Frederikshavnsvej,9870,611,10.3078553,57.4611464
2143625,Frederikshavnsvej,9870,620,10.309314,57.460266
2143626,Frederikshavnsvej,9870,679,10.3187515,57.4621791
2143633,Frederikshavnsvej,9870,680,10.3168135,57.4547593
2143643,Frederikshavnsvej,9870,730,10.3235095,57.4575598
2143647,Frederikshavnsvej,9870,734,10.327599,57.458314
2143653,Frederikshavnsvej,9870,741,10.32869,57.458836
2143661,Frederikshavnsvej,9870,743,10.329303,57.4585937
2143664,Frederikshavnsvej,9870,747,10.330425,57.458358
2143673,Frederikshavnsvej,9870,759,10.3329086,57.4583674
2143677,Frederikshavnsvej,9870,777,10.33495,57.458424
2143685,Frederikshavnsvej,9870,788,10.32594,57.450608
2143689,Frederikshavnsvej,9870,823,10.3420417,57.4573412
2143692,Frederikshavnsvej,9870,825,10.3426338,57.457305
2143697,Frederikshavnsvej,9870,859,10.3514393,57.4667704
2143702,Frederikshavnsvej,9870,914,10.358466,57.453734
2147538,Nørrelund,9870,1,10.186547,57.4827225
2147543,Nørrelund,9870,2,10.1867462,57.4822398
2147554,Nørrelund,9870,3,10.1871494,57.4827657
2147567,Nørrelund,9870,4,10.1872502,57.4822598
2147574,Nørrelund,9870,5,10.1876512,57.4828192
2147581,Nørrelund,9870,6,10.1878213,57.4821221
2147585,Nørrelund,9870,7,10.1882374,57.4829368
2147591,Nørrelund,9870,8,10.187577,57.4825727
2147593,Nørrelund,9870,9,10.1887824,57.4830408
2147599,Nørrelund,9870,10,10.1882194,57.4826331
2147605,Nørrelund,9870,11,10.189253,57.483034
2147607,Nørrelund,9870,12,10.1888033,57.4826387
2147612,Nørrelund,9870,14,10.1893725,57.4826348
2147614,Nørrelund,9870,15,10.1900831,57.4828023
2147618,Nørrelund,9870,16,10.1895943,57.4824314
2147621,Nørrelund,9870,17,10.1906732,57.4827987
2147624,Nørrelund,9870,18,10.1898572,57.4820774
2147626,Nørrelund,9870,19,10.1912218,57.4827368
2147627,Nørrelund,9870,21,10.1907576,57.4826449
2147629,Nørrelund,9870,22,10.1901037,57.4817788
2147631,Nørrelund,9870,23,10.1902395,57.4825572
2147633,Nørrelund,9870,24,10.190898,57.4816588
2147635,Nørrelund,9870,25A,10.1914122,57.4824139
2147636,Nørrelund,9870,25B,10.1914412,57.4824304
2147639,Nørrelund,9870,25C,10.1915758,57.4823733
2147640,Nørrelund,9870,25D,10.191608,57.482392
2147643,Nørrelund,9870,25E,10.1917439,57.4823337
2147644,Nørrelund,9870,25F,10.1917721,57.4823533
2147646,Nørrelund,9870,25G,10.1919004,57.4822964
2147649,Nørrelund,9870,25H,10.191931,57.4823118
2147653,Nørrelund,9870,25K,10.192058,57.4822613
2147662,Nørrelund,9870,25L,10.1920837,57.4822781
2147665,Nørrelund,9870,25M,10.192189,57.4822258
2147675,Nørrelund,9870,25N,10.192218,57.48224
2147684,Nørrelund,9870,27A,10.1910045,57.4822954
2147689,Nørrelund,9870,27B,10.1911517,57.4822571
2147700,Nørrelund,9870,27C,10.1912776,57.4822261
2147703,Nørrelund,9870,27D,10.1914139,57.4821972
2147713,Nørrelund,9870,27E,10.1915374,57.4821696
2147720,Nørrelund,9870,27F,10.1916766,57.4821412
2147725,Nørrelund,9870,27G,10.1917988,57.4821175
2147730,Nørrelund,9870,27H,10.1919283,57.4820864
2147734,Nørrelund,9870,27K,10.1922096,57.4819938
2147739,Nørrelund,9870,28,10.1916299,57.4814341
2147742,Nørrelund,9870,29,10.1903923,57.4820195
2147748,Nørrelund,9870,30,10.1915724,57.4813633
2147752,Nørrelund,9870,31,10.1907051,57.4819509
2147755,Nørrelund,9870,33,10.1908656,57.4819131
2147760,Nørrelund,9870,34A,10.1926246,57.4812143
2147764,Nørrelund,9870,35,10.1911325,57.4818548
2147769,Nørrelund,9870,37,10.1912555,57.4818298
2147779,Nørrelund,9870,39,10.1915594,57.481761
2147782,Nørrelund,9870,41,10.1916828,57.4817364
2147789,Nørrelund,9870,43,10.1919914,57.4816664
2151612,Teglgårdshaven,9870,4,10.2153352,57.4725622
2151614,Teglgårdshaven,9870,6,10.2161093,57.472513
2151623,Teglgårdshaven,9870,8,10.2169339,57.4725243
2151628,Teglgårdshaven,9870,10,10.2169457,57.4727731
2151630,Teglgårdshaven,9870,12,10.217046,57.473045
2151639,Teglgårdshaven,9870,14,10.217014,57.473248
2151648,Teglgårdshaven,9870,15A,10.2146597,57.4739236
2151652,Teglgårdshaven,9870,15B,10.2145568,57.4740829
2151660,Teglgårdshaven,9870,15C,10.2145803,57.4741424
2151667,Teglgårdshaven,9870,15D,10.2145951,57.474176
2151669,Teglgårdshaven,9870,15E,10.2146244,57.4742309
2151678,Teglgårdshaven,9870,15F,10.215105,57.474151
2151682,Teglgårdshaven,9870,15G,10.2150817,57.4741068
2151692,Teglgårdshaven,9870,15H,10.215062,57.4740711
2151696,Teglgårdshaven,9870,15K,10.2150355,57.4740164
2151706,Teglgårdshaven,9870,16,10.216131,57.4733626
2151716,Teglgårdshaven,9870,17A,10.2153381,57.4739102
2151726,Teglgårdshaven,9870,17B,10.215367,57.473991
2151729,Teglgårdshaven,9870,17C,10.215402,57.4740613
2151737,Teglgårdshaven,9870,17D,10.2154466,57.4741388
2151740,Teglgårdshaven,9870,17E,10.2155522,57.4740351
2151746,Teglgårdshaven,9870,17F,10.2156904,57.4740094
2151750,Teglgårdshaven,9870,17G,10.2158349,57.4739864
2151752,Teglgårdshaven,9870,17H,10.2159386,57.4739697
2151756,Teglgårdshaven,9870,17K,10.2158148,57.4739313
2151758,Teglgårdshaven,9870,18,10.2154938,57.4734454
2151761,Teglgårdshaven,9870,20,10.215552,57.47307
2151763,Teglgårdshaven,9870,22,10.2162365,57.4730342
2151764,Teglgårdshaven,9870,24,10.216171,57.472809
2151767,Teglgårdshaven,9870,26,10.2154161,57.4728541
2151833,Thorsvej,9870,1,10.1912931,57.4724073
2151844,Thorsvej,9870,2,10.1900627,57.4725899
2151850,Thorsvej,9870,3,10.191002,57.472553
2151862,Thorsvej,9870,4,10.189498,57.472429
2151873,Thorsvej,9870,5,10.1907412,57.4728206
2151879,Thorsvej,9870,6,10.1895824,57.4722656
2151891,Thorsvej,9870,7,10.1913402,57.4728239
2151899,Thorsvej,9870,8,10.1897706,57.4720227
2151916,Thorsvej,9870,9,10.1914796,57.4726926
2151935,Thorsvej,9870,10,10.1900097,57.4718004
2151941,Thorsvej,9870,11,10.191722,57.4724632
2151956,Thorsvej,9870,12,10.1905659,57.4718986
2151961,Thorsvej,9870,13,10.191846,57.472233
2151979,Thorsvej,9870,14,10.1903222,57.4720703
2151994,Thorsvej,9870,15,10.1921594,57.4719226
2152004,Thorsvej,9870,16,10.1899895,57.4722963
2152023,Thorsvej,9870,17,10.1915446,57.4718453
2152029,Thorsvej,9870,18,10.1906837,57.4712268
2152042,Thorsvej,9870,19,10.1915245,57.4720852
2152048,Thorsvej,9870,20,10.1905645,57.4714119
2152056,Thorsvej,9870,21,10.1919057,57.4711678
2152070,Thorsvej,9870,22,10.1905881,57.471639
2152079,Thorsvej,9870,23,10.1918273,57.4714328
2152088,Thorsvej,9870,24,10.1900426,57.4715033
2152097,Thorsvej,9870,25,10.191712,57.4715908
2152110,Thorsvej,9870,26,10.1901069,57.4713606
2152125,Thorsvej,9870,27,10.192348,57.4716712
2152131,Thorsvej,9870,28,10.190227,57.4711484
2152146,Thorsvej,9870,29,10.192298,57.471418
2152153,Thorsvej,9870,30,10.190203,57.470837
2152165,Thorsvej,9870,31,10.1924213,57.4712113
2152177,Thorsvej,9870,33A,10.1922612,57.4704893
2152182,Thorsvej,9870,33B,10.1920382,57.4706702
2152192,Thorsvej,9870,33C,10.1916498,57.4706784
2152199,Thorsvej,9870,34,10.1907923,57.470894
2152212,Thorsvej,9870,36,10.1907708,57.470581
2152906,Ved Banen,9870,1,10.1972624,57.4702987
2152908,Ved Banen,9870,2,10.1958951,57.4701953
2152917,Ved Banen,9870,4,10.1954694,57.4701718
2152925,Ved Banen,9870,9,10.1984613,57.4699576
2152930,Ved Banen,9870,11,10.196955,57.46951
2152940,Ved Banen,9870,14,10.1961064,57.4696703
2210319,Teglgårdsvej,9870,7A,10.2098395,57.472558
2213295,Mosbjergvej,9870,425A,10.27875,57.501756
2213296,Mosbjergvej,9870,425B,10.278573,57.50175
2213331,Jerupvej,9870,281B,10.245289,57.498298
2219302,Astrupvej,9870,315A,10.163932,57.476583
2231151,Volstrupvej,9870,125,10.270047,57.459931
2231160,Fynsgade,9870,15A,10.199647,57.476101
2231161,Fynsgade,9870,15B,10.199652,57.476148
2231282,Taagholtvej,9870,170A,10.222824,57.504542
2231325,Gutenbergvej,9870,15,10.1973053,57.4854646
2231380,Vendelbogade,9870,2A,10.202165,57.474112
2231381,Vendelbogade,9870,2B,10.202307,57.474112
2231382,Vendelbogade,9870,2C,10.202465,57.474114
2231383,Vendelbogade,9870,2D,10.2026051,57.4741163
2231399,Banevej,9870,3A,10.308672,57.48523
2231400,Banevej,9870,5A,10.309325,57.485741
2231427,Tårsvej,9870,11A,10.298006,57.408618
2231428,Tårsvej,9870,22A,10.294951,57.409309
2231429,Tårsvej,9870,54A,10.288838,57.409188
2231445,Toftegade,9870,1A,10.199626,57.47101
2231477,Nørre Torv,9870,6A,10.20251,57.471948
2231478,Nørre Torv,9870,6B,10.202539,57.47194
2231533,Markedsgade,9870,27,10.205354,57.473512
2231575,Tolnevej,9870,326A,10.319717,57.503038
2231582,Niels Bohrs Vej,9870,2,10.2004118,57.4875566
2234017,Kirkevej,9870,182A,10.31856,57.47688
2234090,Frejasvej,9870,25C,10.185207,57.474213
2234091,Nygårdsvej,9870,10,10.303376,57.409056
2234173,Vestergade,9870,1D,10.201526,57.470676
2234174,Vestergade,9870,1E,10.201606,57.470605
2234175,Vestergade,9870,1F,10.201592,57.470487
2234181,Nordvangen,9870,58,10.197362,57.480745
2234182,Nordvangen,9870,60,10.1974752,57.4807483
2234183,Nordvangen,9870,72,10.197217,57.481807
2234195,Finlandsgade,9870,4B,10.199389,57.476103
2234228,Stenderupvej,9870,6,10.309314,57.485081
2234343,Nordkapvej,9870,20,10.294368,57.543878
2234377,Vinkelvej,9870,11A,10.2047,57.480897
2237469,Ved Banen,9870,7,10.199642,57.470024
2239826,Mosbjergvej,9870,425C,10.278516,57.501748
2239827,Mosbjergvej,9870,425D,10.278336,57.501742
2239828,Mosbjergvej,9870,425E,10.278593,57.501935
2239829,Mosbjergvej,9870,425F,10.278689,57.501938
2243005,Nørregade,9870,56A,10.201976,57.475257
2243006,Nørregade,9870,56B,10.20243,57.47522
2243007,Nørregade,9870,56C,10.202531,57.475203
