idx,street,postcode,housenumber,lon,lat
801042,Sankt Laurentii Vej,9990,43A,10.5912797,57.7228665
801043,Sankt Laurentii Vej,9990,45,10.591012,57.722765
801044,Sankt Laurentii Vej,9990,83A,10.585494,57.720691
801045,Skagavej,9990,98,10.593189,57.727438
801046,Viking Banke,9990,1,10.542128,57.729667
801047,Viking Banke,9990,2,10.542783,57.729657
801048,Viking Banke,9990,3,10.541608,57.729659
801049,Viking Banke,9990,4,10.543354,57.729683
801050,Viking Banke,9990,5,10.541054,57.729696
801051,Viking Banke,9990,6,10.543807,57.729719
801052,Viking Banke,9990,7,10.540988,57.729821
801053,Viking Banke,9990,8,10.543724,57.729898
801054,Viking Banke,9990,9,10.541626,57.729856
801055,Viking Banke,9990,10,10.543338,57.729863
801056,Viking Banke,9990,11,10.542113,57.729927
801057,Viking Banke,9990,12,10.542801,57.729846
801058,Viking Banke,9990,13,10.542081,57.730179
801059,Viking Banke,9990,14,10.542718,57.73016
801060,Viking Banke,9990,15,10.541644,57.730171
801061,Viking Banke,9990,16,10.543188,57.730168
801062,Viking Banke,9990,17,10.541208,57.730162
801063,Viking Banke,9990,18,10.543643,57.730437
801064,Viking Banke,9990,19,10.540754,57.730127
801065,Viking Banke,9990,20,10.543273,57.730411
801066,Viking Banke,9990,21,10.540538,57.730415
801067,Viking Banke,9990,22,10.542736,57.730367
801068,Viking Banke,9990,23,10.541007,57.73036
801069,Viking Banke,9990,24,10.542704,57.73069
801070,Viking Banke,9990,25,10.541561,57.730431
801071,Viking Banke,9990,26,10.543124,57.730725
801072,Viking Banke,9990,27,10.542031,57.730377
801073,Viking Banke,9990,28,10.543728,57.73076
801074,Viking Banke,9990,29,10.54205,57.730682
801075,Viking Banke,9990,30,10.543595,57.730994
801076,Viking Banke,9990,31,10.541378,57.730674
801077,Viking Banke,9990,32,10.543142,57.730932
801078,Viking Banke,9990,33,10.540874,57.730666
801079,Viking Banke,9990,34,10.542671,57.73087
801080,Viking Banke,9990,35,10.540354,57.730657
801081,Viking Banke,9990,36,10.542572,57.731184
801082,Viking Banke,9990,37,10.540322,57.730846
801083,Viking Banke,9990,38,10.542958,57.731201
801084,Viking Banke,9990,39,10.540892,57.730854
801085,Viking Banke,9990,40,10.543546,57.731219
801086,Viking Banke,9990,41,10.54148,57.730862
801087,Viking Banke,9990,42,10.543665,57.731452
801088,Viking Banke,9990,43,10.541866,57.730925
801089,Viking Banke,9990,44,10.543128,57.731479
801090,Viking Banke,9990,45,10.541901,57.731194
801091,Viking Banke,9990,46,10.542523,57.731444
801092,Viking Banke,9990,47,10.541397,57.731185
801093,Viking Banke,9990,48,10.542508,57.731777
801094,Viking Banke,9990,49,10.54086,57.731168
801095,Viking Banke,9990,50,10.542945,57.73183
801096,Viking Banke,9990,51,10.540256,57.731151
801097,Viking Banke,9990,52,10.54298,57.732126
801098,Viking Banke,9990,53,10.540223,57.731367
801099,Viking Banke,9990,54,10.54261,57.732109
801100,Viking Banke,9990,55,10.540811,57.731366
801101,Viking Banke,9990,57,10.541315,57.73141
801102,Viking Banke,9990,58,10.542814,57.732539
801103,Viking Banke,9990,59,10.541869,57.731454
801104,Viking Banke,9990,60,10.543,57.732782
801105,Viking Banke,9990,61,10.541853,57.731715
801106,Viking Banke,9990,62,10.542446,57.732773
801107,Viking Banke,9990,63,10.541333,57.731742
801108,Viking Banke,9990,64,10.54233,57.733169
801109,Viking Banke,9990,65,10.541385,57.731994
801110,Viking Banke,9990,66,10.54275,57.733213
801111,Viking Banke,9990,67,10.541888,57.732038
801112,Viking Banke,9990,68,10.542903,57.733464
801113,Viking Banke,9990,69,10.541739,57.73237
801114,Viking Banke,9990,70,10.542349,57.733474
801115,Viking Banke,9990,71,10.541319,57.732416
801116,Viking Banke,9990,73,10.541287,57.73264
801117,Viking Banke,9990,75,10.541791,57.732738
801118,Viking Banke,9990,77,10.541642,57.733125
801119,Viking Banke,9990,79,10.541693,57.733376
801120,Skarpæsvej,9990,3,10.60563,57.730585
801121,Markvej,9990,29,10.58841,57.725364
850309,Kappelborgvej,9990,35E,10.590872,57.721957
850310,Auktionsvej,9990,2,10.589666,57.719678
850311,Vestre Strandvej,9990,4,10.58851,57.719941
850312,Fiskehuskajen,9990,2V,10.587715,57.718856
850313,Fiskehuskajen,9990,14V,10.588531,57.717902
850314,Fiskehuskajen,9990,30V,10.589325,57.718664
850315,Vestre Tværmole,9990,28,10.590484,57.716301
850316,Gammel Kirkesti,9990,8,10.569949,57.716462
850317,Gammel Kirkesti,9990,33C,10.5616021,57.7150772
850318,Frejasvej,9990,1A,10.596517,57.733322
850319,Kanalvejen,9990,2,10.510165,57.719823
850320,Doggerbanke,9990,1A,10.548893,57.72972
850321,Doggerbanke,9990,1B,10.548892,57.729621
850322,Doggerbanke,9990,1C,10.548691,57.729586
850323,Doggerbanke,9990,1D,10.548506,57.729586
850324,Doggerbanke,9990,1E,10.548271,57.729586
850325,Doggerbanke,9990,1F,10.548086,57.729587
850326,Doggerbanke,9990,1G,10.547851,57.729587
850327,Doggerbanke,9990,1H,10.547684,57.729587
850328,Doggerbanke,9990,1K,10.547398,57.729543
850329,Doggerbanke,9990,1L,10.547398,57.729624
850330,Doggerbanke,9990,1M,10.547349,57.729731
850331,Doggerbanke,9990,1N,10.547349,57.729821
850332,Doggerbanke,9990,1P,10.547567,57.729794
850333,Doggerbanke,9990,1R,10.547769,57.729794
850334,Doggerbanke,9990,1S,10.547987,57.729748
850335,Doggerbanke,9990,1T,10.548171,57.729748
850336,Doggerbanke,9990,1U,10.548423,57.72973
850337,Doggerbanke,9990,2,10.549597,57.729593
850338,Doggerbanke,9990,4,10.550068,57.729817
850339,Doggerbanke,9990,5A,10.548846,57.73043
850340,Doggerbanke,9990,5B,10.548762,57.730421
850341,Doggerbanke,9990,5C,10.548661,57.730421
850342,Doggerbanke,9990,5D,10.548577,57.730412
850343,Doggerbanke,9990,5E,10.548376,57.730403
850344,Doggerbanke,9990,5F,10.548292,57.730394
850345,Doggerbanke,9990,5G,10.548191,57.730395
850346,Doggerbanke,9990,5H,10.548107,57.730386
850347,Doggerbanke,9990,5K,10.547805,57.730368
850348,Doggerbanke,9990,5M,10.54757,57.730324
850349,Doggerbanke,9990,5N,10.547553,57.730378
850350,Doggerbanke,9990,5P,10.547537,57.730432
850351,Doggerbanke,9990,5Q,10.547537,57.730476
850352,Doggerbanke,9990,5R,10.547217,57.730306
850353,Doggerbanke,9990,5S,10.547218,57.73036
850354,Doggerbanke,9990,5T,10.547201,57.730405
850355,Doggerbanke,9990,5U,10.547201,57.730459
850356,Doggerbanke,9990,7A,10.548813,57.730546
850357,Doggerbanke,9990,7B,10.548813,57.7306
850358,Doggerbanke,9990,7C,10.548797,57.730654
850359,Doggerbanke,9990,7D,10.548797,57.730708
850360,Doggerbanke,9990,7E,10.548494,57.730529
850361,Doggerbanke,9990,7F,10.548494,57.730583
850362,Doggerbanke,9990,7G,10.548478,57.730637
850363,Doggerbanke,9990,7H,10.548461,57.730691
850364,Doggerbanke,9990,7K,10.547891,57.730682
850365,Doggerbanke,9990,7L,10.547807,57.730674
850366,Doggerbanke,9990,7M,10.547706,57.730674
850367,Doggerbanke,9990,7N,10.547605,57.730665
850368,Doggerbanke,9990,7P,10.547421,57.730656
850369,Doggerbanke,9990,7Q,10.54732,57.730647
850370,Doggerbanke,9990,7R,10.547219,57.730648
850371,Doggerbanke,9990,7S,10.547118,57.730639
850372,Doggerbanke,9990,9,10.548463,57.730987
850373,Doggerbanke,9990,11,10.548127,57.730969
850374,Doggerbanke,9990,13,10.54759,57.730943
850375,Doggerbanke,9990,15,10.547187,57.730926
850376,Doggerbanke,9990,17,10.547221,57.731132
850377,Doggerbanke,9990,19,10.547675,57.731141
850378,Doggerbanke,9990,21,10.548128,57.731167
850379,Doggerbanke,9990,23,10.548481,57.731184
850380,Doggerbanke,9990,24A,10.550626,57.730624
850381,Doggerbanke,9990,24B,10.550878,57.730642
850382,Doggerbanke,9990,24C,10.550978,57.730489
850383,Doggerbanke,9990,24D,10.551011,57.730364
850384,Doggerbanke,9990,24E,10.55096,57.730229
850385,Doggerbanke,9990,24F,10.55054,57.730194
850386,Doggerbanke,9990,24G,10.550524,57.730328
850387,Doggerbanke,9990,24H,10.550441,57.730445
850388,Doggerbanke,9990,24K,10.550408,57.730571
850389,Doggerbanke,9990,25,10.548432,57.731561
850390,Doggerbanke,9990,26A,10.550589,57.730014
850391,Doggerbanke,9990,26B,10.550623,57.729888
850392,Doggerbanke,9990,26C,10.550555,57.729745
850393,Doggerbanke,9990,26D,10.550571,57.729628
850394,Doggerbanke,9990,26E,10.550805,57.729583
850395,Doggerbanke,9990,26F,10.551057,57.7296
850396,Doggerbanke,9990,26G,10.550992,57.730022
850397,Doggerbanke,9990,26H,10.551092,57.729897
850398,Doggerbanke,9990,26K,10.551109,57.729771
850399,Doggerbanke,9990,27,10.547979,57.731535
850400,Doggerbanke,9990,28,10.551528,57.729671
850401,Doggerbanke,9990,29,10.547542,57.731518
850402,Doggerbanke,9990,30,10.551947,57.729662
850403,Doggerbanke,9990,31,10.547123,57.731483
850404,Doggerbanke,9990,32,10.552032,57.729886
850405,Doggerbanke,9990,33,10.54699,57.73177
850406,Doggerbanke,9990,34,10.551596,57.729869
850407,Doggerbanke,9990,35,10.547577,57.731706
850408,Doggerbanke,9990,36,10.551548,57.730282
850409,Doggerbanke,9990,37,10.54793,57.731787
850410,Doggerbanke,9990,38,10.551917,57.730272
850411,Doggerbanke,9990,39A,10.548316,57.73175
850412,Doggerbanke,9990,39B,10.548483,57.73175
850413,Doggerbanke,9990,40,10.551901,57.730533
850414,Doggerbanke,9990,41,10.547522,57.734122
850415,Doggerbanke,9990,42,10.551532,57.730533
850416,Doggerbanke,9990,44,10.551417,57.730929
850417,Doggerbanke,9990,46,10.551786,57.730937
850418,Doggerbanke,9990,48,10.551636,57.731171
850419,Doggerbanke,9990,50,10.551334,57.731135
850420,Doggerbanke,9990,52,10.551369,57.731476
850421,Doggerbanke,9990,54,10.550714,57.731459
850422,Doggerbanke,9990,58A,10.55073,57.731271
850423,Doggerbanke,9990,58B,10.550344,57.731227
850424,Doggerbanke,9990,58C,10.55036,57.731002
850425,Doggerbanke,9990,58D,10.550779,57.730965
850426,Doggerbanke,9990,60,10.549436,57.73103
850427,Doggerbanke,9990,62,10.54989,57.731092
850428,Doggerbanke,9990,64,10.549958,57.731299
850429,Doggerbanke,9990,66,10.549471,57.731246
850430,Doggerbanke,9990,68,10.549255,57.731605
850431,Doggerbanke,9990,70,10.549792,57.731649
850432,Doggerbanke,9990,72,10.549743,57.731892
850433,Doggerbanke,9990,74,10.549373,57.731803
850434,Doggerbanke,9990,84,10.549969,57.733409
850435,Koralbanke,9990,1,10.560766,57.730968
850436,Koralbanke,9990,2,10.559979,57.731373
850437,Koralbanke,9990,3,10.56065,57.731229
850438,Koralbanke,9990,4,10.559442,57.731374
850439,Koralbanke,9990,5,10.56055,57.731408
850440,Koralbanke,9990,6,10.559089,57.731303
850441,Koralbanke,9990,7,10.561088,57.73147
850442,Koralbanke,9990,8,10.558653,57.731277
850443,Koralbanke,9990,9,10.561053,57.731255
850444,Koralbanke,9990,10,10.558685,57.730998
850445,Koralbanke,9990,11,10.561169,57.731039
850446,Koralbanke,9990,12,10.559088,57.731052
850447,Koralbanke,9990,13,10.56105,57.73068
850448,Koralbanke,9990,14,10.559575,57.731105
850449,Koralbanke,9990,15,10.560614,57.73069
850450,Koralbanke,9990,16,10.559944,57.731113
850451,Koralbanke,9990,17,10.560729,57.730331
850452,Koralbanke,9990,18,10.560077,57.730763
850453,Koralbanke,9990,19,10.561132,57.730429
850454,Koralbanke,9990,20,10.559657,57.730692
850455,Koralbanke,9990,21,10.561231,57.730087
850456,Koralbanke,9990,22,10.559137,57.730728
850457,Koralbanke,9990,23,10.560761,57.730052
850458,Koralbanke,9990,24,10.55875,57.730648
850459,Koralbanke,9990,25,10.560877,57.729693
850460,Koralbanke,9990,26,10.558849,57.730379
850461,Koralbanke,9990,27,10.561313,57.729737
850462,Koralbanke,9990,28,10.559286,57.730441
850463,Koralbanke,9990,29,10.561245,57.729513
850464,Koralbanke,9990,30,10.559639,57.730467
850465,Koralbanke,9990,31,10.560875,57.729487
850466,Koralbanke,9990,32,10.560092,57.730475
850467,Koralbanke,9990,33,10.560456,57.729469
850468,Koralbanke,9990,34,10.560191,57.730071
850469,Koralbanke,9990,36,10.55977,57.730009
850470,Koralbanke,9990,38,10.559351,57.73001
850471,Koralbanke,9990,40,10.558897,57.729912
850472,Koralbanke,9990,42,10.55893,57.729723
850473,Koralbanke,9990,44,10.5594,57.729767
850474,Koralbanke,9990,46,10.559719,57.729803
850475,Koralbanke,9990,48,10.560189,57.729802
850476,Koralbanke,9990,50,10.563136,57.731494
850477,Koralbanke,9990,52,10.562682,57.731468
850478,Koralbanke,9990,54,10.562279,57.731451
850479,Koralbanke,9990,56,10.561843,57.731415
850480,Koralbanke,9990,58,10.561825,57.731173
850481,Koralbanke,9990,60,10.562261,57.731235
850482,Koralbanke,9990,62,10.562698,57.731252
850483,Koralbanke,9990,64,10.563118,57.73127
850484,Koralbanke,9990,66,10.56325,57.730892
850485,Koralbanke,9990,68,10.56283,57.730839
850486,Koralbanke,9990,70,10.562326,57.73084
850487,Koralbanke,9990,72,10.561957,57.730823
850488,Koralbanke,9990,74,10.561888,57.730535
850489,Koralbanke,9990,76,10.562359,57.730597
850490,Koralbanke,9990,78,10.562812,57.730624
850491,Koralbanke,9990,80,10.563215,57.730641
850492,Koralbanke,9990,82,10.56333,57.730246
850493,Koralbanke,9990,84,10.562944,57.73022
850494,Koralbanke,9990,86,10.562508,57.730202
850495,Koralbanke,9990,88,10.562071,57.730167
850496,Koralbanke,9990,90,10.562053,57.729916
850497,Koralbanke,9990,92,10.562473,57.729969
850498,Koralbanke,9990,94,10.562926,57.729986
850499,Koralbanke,9990,96,10.563329,57.730012
850500,Koralbanke,9990,98,10.563749,57.730048
850501,Koralbanke,9990,102,10.563936,57.730478
850502,Koralbanke,9990,116,10.564374,57.730855
850503,Lingbanke,9990,1,10.556612,57.729403
850504,Lingbanke,9990,2,10.557182,57.729358
850505,Lingbanke,9990,3,10.556595,57.729484
850506,Lingbanke,9990,4,10.557166,57.729447
850507,Lingbanke,9990,5,10.556562,57.729565
850508,Lingbanke,9990,6,10.557133,57.729564
850509,Lingbanke,9990,7,10.556192,57.729431
850510,Lingbanke,9990,8,10.557601,57.72915
850511,Lingbanke,9990,9,10.556176,57.729521
850512,Lingbanke,9990,10,10.557585,57.72924
850513,Lingbanke,9990,11,10.555689,57.729459
850514,Lingbanke,9990,12,10.557568,57.729348
850515,Lingbanke,9990,13,10.555673,57.729557
850516,Lingbanke,9990,14,10.557552,57.72942
850517,Lingbanke,9990,15,10.555657,57.729674
850518,Lingbanke,9990,16,10.557535,57.729501
850519,Lingbanke,9990,17,10.556547,57.729816
850520,Lingbanke,9990,18,10.557519,57.729582
850521,Lingbanke,9990,19,10.556362,57.729799
850522,Lingbanke,9990,20,10.557922,57.729491
850523,Lingbanke,9990,21,10.556144,57.729853
850524,Lingbanke,9990,22,10.557922,57.72959
850525,Lingbanke,9990,23,10.555993,57.729844
850526,Lingbanke,9990,24,10.557889,57.729698
850527,Lingbanke,9990,25,10.555842,57.729836
850528,Lingbanke,9990,26,10.557873,57.729796
850529,Lingbanke,9990,27,10.555624,57.72989
850530,Lingbanke,9990,28,10.556848,57.729735
850531,Lingbanke,9990,29,10.555439,57.729881
850532,Lingbanke,9990,30,10.557084,57.729753
850533,Lingbanke,9990,31,10.55633,57.730014
850534,Lingbanke,9990,32,10.557252,57.729761
850535,Lingbanke,9990,33,10.556482,57.73023
850536,Lingbanke,9990,34,10.5569,57.730022
850537,Lingbanke,9990,35,10.556381,57.73023
850538,Lingbanke,9990,36,10.557102,57.73004
850539,Lingbanke,9990,37,10.55628,57.730221
850540,Lingbanke,9990,38,10.557287,57.730049
850541,Lingbanke,9990,39,10.556163,57.730212
850542,Lingbanke,9990,40,10.557471,57.730057
850543,Lingbanke,9990,41,10.556062,57.730212
850544,Lingbanke,9990,42,10.557656,57.730066
850545,Lingbanke,9990,43,10.555961,57.730203
850546,Lingbanke,9990,44,10.557807,57.730075
850547,Lingbanke,9990,45,10.555861,57.730195
850548,Lingbanke,9990,46,10.557941,57.730084
850549,Lingbanke,9990,47,10.555743,57.730195
850550,Lingbanke,9990,48,10.556868,57.730238
850551,Lingbanke,9990,49,10.555643,57.730186
850552,Lingbanke,9990,50,10.557053,57.730247
850553,Lingbanke,9990,51,10.555996,57.730428
850554,Lingbanke,9990,52,10.557254,57.730255
850555,Lingbanke,9990,53,10.555828,57.730419
850556,Lingbanke,9990,54,10.557439,57.730273
850557,Lingbanke,9990,55,10.555644,57.730401
850558,Lingbanke,9990,56,10.557607,57.730282
850559,Lingbanke,9990,57,10.555964,57.730643
850560,Lingbanke,9990,58,10.557758,57.73029
850561,Lingbanke,9990,59,10.555796,57.730635
850562,Lingbanke,9990,60,10.557892,57.730299
850563,Lingbanke,9990,61,10.555611,57.730626
850564,Lingbanke,9990,62,10.557826,57.730506
850565,Lingbanke,9990,63,10.556368,57.730885
850566,Lingbanke,9990,64,10.55781,57.730605
850567,Lingbanke,9990,65,10.556083,57.730868
850568,Lingbanke,9990,66,10.557794,57.730703
850569,Lingbanke,9990,67,10.555864,57.730859
850570,Lingbanke,9990,69,10.555596,57.730904
850571,Lingbanke,9990,71,10.55558,57.73103
850572,Lingbanke,9990,73,10.55531,57.730815
850573,Lingbanke,9990,75,10.555277,57.730941
850574,Lingbanke,9990,77,10.554991,57.730806
850575,Lingbanke,9990,79,10.554975,57.730932
850576,Lingbanke,9990,81,10.554959,57.731058
850577,Lingbanke,9990,83,10.556486,57.731056
850578,Lingbanke,9990,85,10.55647,57.731181
850579,Lingbanke,9990,87,10.556184,57.731083
850580,Lingbanke,9990,89,10.556168,57.7312
850581,Lingbanke,9990,91,10.555866,57.731182
850582,Lingbanke,9990,93,10.555631,57.731174
850583,Lingbanke,9990,95,10.555396,57.731165
850584,Lingbanke,9990,97A,10.55529,57.730222
850585,Lingbanke,9990,97B,10.555141,57.73051
850586,Lingbanke,9990,97C,10.555342,57.730519
850587,Lingbanke,9990,97D,10.555057,57.730474
850588,Lingbanke,9990,97E,10.555292,57.730483
850589,Lingbanke,9990,99,10.554554,57.730601
850590,Lingbanke,9990,101,10.55457,57.73052
850591,Lingbanke,9990,103,10.554586,57.73043
850592,Lingbanke,9990,105,10.554603,57.730358
850593,Lingbanke,9990,107,10.554635,57.730196
850594,Lingbanke,9990,109,10.554652,57.730125
850595,Lingbanke,9990,111,10.554652,57.730071
850596,Lingbanke,9990,113,10.554183,57.730278
850597,Lingbanke,9990,115,10.554199,57.730206
850598,Lingbanke,9990,117,10.554718,57.729873
850599,Lingbanke,9990,119,10.554433,57.729892
850600,Lingbanke,9990,121,10.554147,57.729874
850601,Lingbanke,9990,123,10.553777,57.729785
850602,Lingbanke,9990,125,10.553777,57.729722
850603,Lingbanke,9990,127,10.55381,57.729614
850604,Lingbanke,9990,129,10.553827,57.729551
850605,Lingbanke,9990,131,10.554246,57.729631
850606,Lingbanke,9990,133,10.554532,57.72964
850607,Lingbanke,9990,135,10.554783,57.729622
850608,Lingbanke,9990,137,10.555838,57.732143
850609,Middelbanke,9990,1,10.550836,57.729116
850610,Middelbanke,9990,2,10.550182,57.72909
850611,Middelbanke,9990,3,10.551306,57.729088
850612,Middelbanke,9990,4,10.549711,57.728983
850613,Middelbanke,9990,5,10.55181,57.729123
850614,Middelbanke,9990,6,10.549292,57.7291
850615,Middelbanke,9990,7,10.552398,57.729149
850616,Middelbanke,9990,8,10.548856,57.729011
850617,Middelbanke,9990,9,10.552329,57.728943
850618,Middelbanke,9990,10,10.548837,57.728769
850619,Middelbanke,9990,11,10.551809,57.728908
850620,Middelbanke,9990,12,10.549223,57.72875
850621,Middelbanke,9990,13,10.551389,57.728899
850622,Middelbanke,9990,14,10.54971,57.728785
850623,Middelbanke,9990,15,10.550869,57.728864
850624,Middelbanke,9990,16,10.550147,57.728812
850625,Middelbanke,9990,17,10.550917,57.728523
850626,Middelbanke,9990,18,10.550296,57.728461
850627,Middelbanke,9990,19,10.551455,57.728558
850628,Middelbanke,9990,20,10.549793,57.728471
850629,Middelbanke,9990,21,10.551891,57.728557
850630,Middelbanke,9990,22,10.549406,57.728409
850631,Middelbanke,9990,23,10.552378,57.728593
850632,Middelbanke,9990,24,10.548869,57.7284
850633,Middelbanke,9990,25,10.552394,57.728404
850634,Middelbanke,9990,26,10.548885,57.728212
850635,Middelbanke,9990,27,10.55189,57.728378
850636,Middelbanke,9990,28,10.549372,57.728211
850637,Middelbanke,9990,29,10.551487,57.728334
850638,Middelbanke,9990,30,10.549842,57.728237
850639,Middelbanke,9990,31,10.550933,57.728317
850640,Middelbanke,9990,32,10.550345,57.72821
850641,Middelbanke,9990,33,10.550965,57.728002
850642,Middelbanke,9990,34,10.550377,57.727922
850643,Middelbanke,9990,35,10.551536,57.72801
850644,Middelbanke,9990,36,10.549907,57.727869
850645,Middelbanke,9990,37,10.552006,57.728037
850646,Middelbanke,9990,38,10.549404,57.727897
850647,Middelbanke,9990,39,10.552442,57.728081
850648,Middelbanke,9990,40,10.548983,57.727799
850649,Middelbanke,9990,41,10.552475,57.727856
850650,Middelbanke,9990,42,10.549419,57.727582
850651,Middelbanke,9990,43,10.552089,57.727821
850652,Middelbanke,9990,44,10.549501,57.727322
850653,Middelbanke,9990,45,10.551551,57.727795
850654,Middelbanke,9990,46,10.549753,57.727331
850655,Middelbanke,9990,47,10.550997,57.727778
850656,Middelbanke,9990,48A,10.549888,57.727528
850657,Middelbanke,9990,48B,10.549872,57.727618
850658,Middelbanke,9990,49,10.551163,57.727427
850659,Middelbanke,9990,50,10.550309,57.727644
850660,Middelbanke,9990,51,10.551617,57.727445
850661,Middelbanke,9990,52,10.550508,57.727356
850662,Middelbanke,9990,53,10.552104,57.727489
850663,Middelbanke,9990,55,10.552624,57.727542
850664,Middelbanke,9990,57,10.552455,57.727264
850665,Middelbanke,9990,59,10.552136,57.727246
850666,Middelbanke,9990,61,10.551616,57.72722
850667,Østbanke,9990,1,10.554343,57.728877
850668,Østbanke,9990,2,10.553606,57.729166
850669,Østbanke,9990,3,10.554378,57.729102
850670,Østbanke,9990,4,10.55322,57.729148
850671,Østbanke,9990,5,10.554796,57.728849
850672,Østbanke,9990,6A,10.552969,57.729175
850673,Østbanke,9990,6B,10.55265,57.729167
850674,Østbanke,9990,7,10.554831,57.729128
850675,Østbanke,9990,8A,10.552782,57.728897
850676,Østbanke,9990,8B,10.552799,57.728763
850677,Østbanke,9990,9,10.555318,57.729163
850678,Østbanke,9990,10A,10.553219,57.728906
850679,Østbanke,9990,10B,10.553252,57.72878
850680,Østbanke,9990,11,10.555367,57.728929
850681,Østbanke,9990,12A,10.553639,57.728923
850682,Østbanke,9990,12B,10.553655,57.728797
850683,Østbanke,9990,13,10.555332,57.728678
850684,Østbanke,9990,14,10.553737,57.728546
850685,Østbanke,9990,15,10.554862,57.728643
850686,Østbanke,9990,16,10.553318,57.728529
850687,Østbanke,9990,17,10.554409,57.728617
850688,Østbanke,9990,18,10.552898,57.728511
850689,Østbanke,9990,19,10.554508,57.728293
850690,Østbanke,9990,20,10.55293,57.728242
850691,Østbanke,9990,21,10.554962,57.728364
850692,Østbanke,9990,22,10.553367,57.728304
850693,Østbanke,9990,23,10.555431,57.728373
850694,Østbanke,9990,24A,10.553786,57.72833
850695,Østbanke,9990,24B,10.553803,57.728204
850696,Østbanke,9990,25,10.555447,57.728139
850697,Østbanke,9990,26,10.553802,57.72807
850698,Østbanke,9990,27,10.554977,57.72814
850699,Østbanke,9990,28,10.553449,57.727918
850700,Østbanke,9990,29,10.55449,57.728096
850701,Østbanke,9990,30,10.552995,57.727918
850702,Østbanke,9990,31,10.554522,57.727799
850703,Østbanke,9990,32,10.553078,57.727676
850704,Østbanke,9990,33,10.555043,57.727843
850705,Østbanke,9990,34,10.553448,57.727711
850706,Østbanke,9990,35,10.555479,57.727879
850707,Østbanke,9990,36,10.553918,57.727737
850708,Østbanke,9990,37,10.555595,57.727663
850709,Østbanke,9990,38,10.553966,57.727369
850710,Østbanke,9990,39,10.555041,57.727619
850711,Østbanke,9990,40,10.55358,57.727325
850712,Østbanke,9990,41,10.554521,57.727593
850713,Østbanke,9990,42,10.553126,57.727317
850714,Østbanke,9990,43,10.554637,57.727359
850715,Østbanke,9990,44,10.553058,57.727038
850716,Østbanke,9990,45,10.555157,57.727331
850717,Østbanke,9990,46,10.553545,57.727082
850718,Østbanke,9990,47,10.55556,57.727358
850719,Østbanke,9990,48,10.553998,57.7271
850720,Østbanke,9990,49,10.555726,57.727034
850721,Østbanke,9990,51,10.555307,57.727008
850722,Østbanke,9990,53,10.554887,57.727009
850723,Østbanke,9990,55,10.554451,57.727018
850724,Fiskerbanke,9990,1,10.553139,57.729669
850725,Fiskerbanke,9990,2,10.553644,57.729974
850726,Fiskerbanke,9990,3,10.552769,57.729643
850727,Fiskerbanke,9990,4,10.553762,57.729982
850728,Fiskerbanke,9990,5,10.552316,57.729652
850729,Fiskerbanke,9990,6,10.553662,57.730189
850730,Fiskerbanke,9990,7,10.552351,57.729886
850731,Fiskerbanke,9990,8,10.553662,57.730252
850732,Fiskerbanke,9990,9,10.552804,57.729867
850733,Fiskerbanke,9990,10,10.553596,57.730422
850734,Fiskerbanke,9990,11,10.553174,57.729876
850735,Fiskerbanke,9990,12,10.553747,57.730431
850736,Fiskerbanke,9990,13,10.553075,57.730271
850737,Fiskerbanke,9990,14,10.553898,57.73044
850738,Fiskerbanke,9990,15,10.552756,57.730271
850739,Fiskerbanke,9990,16,10.554033,57.730449
850740,Fiskerbanke,9990,17,10.552336,57.730263
850741,Fiskerbanke,9990,18,10.553515,57.730881
850742,Fiskerbanke,9990,19,10.552203,57.730452
850743,Fiskerbanke,9990,20,10.553783,57.730871
850744,Fiskerbanke,9990,21,10.552656,57.730469
850745,Fiskerbanke,9990,22,10.554035,57.730862
850746,Fiskerbanke,9990,23,10.553077,57.730576
850747,Fiskerbanke,9990,24,10.554605,57.730771
850748,Fiskerbanke,9990,25,10.552978,57.730926
850749,Fiskerbanke,9990,26,10.554605,57.730834
850750,Fiskerbanke,9990,27,10.552642,57.730909
850751,Fiskerbanke,9990,28,10.554589,57.730906
850752,Fiskerbanke,9990,29,10.552222,57.730927
850753,Fiskerbanke,9990,30,10.554556,57.731032
850754,Fiskerbanke,9990,31,10.55214,57.73117
850755,Fiskerbanke,9990,32,10.554556,57.731095
850756,Fiskerbanke,9990,33,10.55266,57.731106
850757,Fiskerbanke,9990,34,10.55454,57.731157
850758,Fiskerbanke,9990,35,10.553113,57.731133
850759,Fiskerbanke,9990,36,10.554523,57.731211
850760,Fiskerbanke,9990,37,10.551091,57.732949
850761,Fiskerbanke,9990,38,10.554003,57.731176
850762,Fiskerbanke,9990,40,10.553734,57.731185
850763,Fiskerbanke,9990,41,10.552,57.733226
850764,Fiskerbanke,9990,42,10.553415,57.731195
850765,Fiskerbanke,9990,43,10.551646,57.733101
850766,Fiskerbanke,9990,49,10.549987,57.736821
850767,Fyrvej,9990,28,10.62307,57.732911
850768,Fyrvej,9990,38,10.63384,57.738823
850769,Fyrvej,9990,38A,10.633806,57.73868
850770,Højen Fyrvej,9990,49,10.556932,57.742215
850771,Fænøvej,9990,1,10.562039,57.727384
850772,Fænøvej,9990,2,10.563044,57.727158
850773,Fænøvej,9990,3,10.562121,57.727123
850774,Fænøvej,9990,4,10.563531,57.727184
850775,Fænøvej,9990,5,10.561868,57.726935
850776,Fænøvej,9990,6,10.563617,57.727471
850777,Fænøvej,9990,7,10.561584,57.727124
850778,Fænøvej,9990,8,10.563247,57.727364
850779,Fænøvej,9990,9,10.561183,57.727376
850780,Fænøvej,9990,10,10.562777,57.727338
850781,Fænøvej,9990,11,10.561569,57.727483
850782,Fænøvej,9990,12,10.562511,57.727733
850783,Fænøvej,9990,13,10.561906,57.727572
850784,Fænøvej,9990,14,10.562763,57.727876
850785,Fænøvej,9990,16,10.563083,57.72802
850786,Fænøvej,9990,17,10.56102,57.728193
850787,Fænøvej,9990,18,10.562749,57.728307
850788,Fænøvej,9990,19,10.561053,57.728166
850789,Fænøvej,9990,20,10.562429,57.728128
850790,Fænøvej,9990,21,10.561103,57.728139
850791,Fænøvej,9990,22,10.562176,57.72794
850792,Fænøvej,9990,23,10.561153,57.728112
850793,Fænøvej,9990,24,10.561607,57.728255
850794,Fænøvej,9990,25,10.560733,57.727969
850795,Fænøvej,9990,26,10.561994,57.728416
850796,Fænøvej,9990,27,10.560665,57.727942
850797,Fænøvej,9990,28,10.562431,57.72855
850798,Fænøvej,9990,29,10.560615,57.727916
850799,Fænøvej,9990,30,10.562113,57.72873
850800,Fænøvej,9990,31,10.560565,57.727889
850801,Fænøvej,9990,32,10.561726,57.728578
850802,Fænøvej,9990,33,10.560514,57.727871
850803,Fænøvej,9990,34,10.561289,57.728471
850804,Fænøvej,9990,35,10.560447,57.727844
850805,Fænøvej,9990,37,10.560396,57.727817
850806,Fænøvej,9990,39,10.560582,57.728041
850807,Fænøvej,9990,41,10.560465,57.728113
850808,Fænøvej,9990,42,10.562032,57.729197
850809,Fænøvej,9990,43,10.560347,57.72797
850810,Fænøvej,9990,45,10.560313,57.727997
850811,Fænøvej,9990,47,10.560263,57.728033
850812,Fænøvej,9990,49,10.560213,57.72806
850813,Fænøvej,9990,51,10.560163,57.728087
850814,Fænøvej,9990,53,10.560129,57.728114
850815,Fænøvej,9990,55,10.560079,57.728141
850816,Fænøvej,9990,57,10.560281,57.728203
850817,Fænøvej,9990,59,10.560365,57.728239
850818,Fænøvej,9990,61,10.560432,57.728266
850819,Fænøvej,9990,63,10.5605,57.728302
850820,Fænøvej,9990,65,10.560752,57.728382
850821,Fænøvej,9990,67,10.560802,57.728346
850822,Fænøvej,9990,69,10.560852,57.72831
850823,Fænøvej,9990,71,10.560919,57.728274
850824,Fladen Grund,9990,1,10.557294,57.731449
850825,Fladen Grund,9990,2,10.558541,57.729149
850826,Fladen Grund,9990,4,10.558557,57.729113
850827,Fladen Grund,9990,6,10.558557,57.729059
850828,Fladen Grund,9990,8,10.558573,57.729014
850829,Fladen Grund,9990,10,10.558573,57.72896
850830,Fladen Grund,9990,12,10.558758,57.728996
850831,Fladen Grund,9990,14,10.558842,57.728996
850832,Fladen Grund,9990,16,10.558926,57.728996
850833,Fladen Grund,9990,18,10.55901,57.729005
850834,Fladen Grund,9990,20,10.558891,57.728843
850835,Fladen Grund,9990,22,10.558791,57.728834
850836,Fladen Grund,9990,23,10.558236,57.731879
850837,Fladen Grund,9990,24,10.55869,57.728834
850838,Fladen Grund,9990,26,10.558589,57.728835
850839,Fladen Grund,9990,28,10.558908,57.7287
850840,Fladen Grund,9990,30,10.558991,57.728672
850841,Fladen Grund,9990,32,10.559075,57.728627
850842,Fladen Grund,9990,33,10.557601,57.732275
850843,Fladen Grund,9990,34,10.559158,57.728582
850844,Fladen Grund,9990,36,10.559394,57.728717
850845,Fladen Grund,9990,38,10.559512,57.728716
850846,Fladen Grund,9990,40,10.559378,57.728869
850847,Fladen Grund,9990,41,10.557401,57.732527
850848,Fladen Grund,9990,42,10.559479,57.728869
850849,Fladen Grund,9990,44,10.559597,57.728878
850850,Fladen Grund,9990,46,10.559714,57.728887
850851,Fladen Grund,9990,48,10.559245,57.729013
850852,Fladen Grund,9990,50,10.559329,57.729013
850853,Fladen Grund,9990,51,10.557318,57.732796
850854,Fladen Grund,9990,52,10.55943,57.729022
850855,Fladen Grund,9990,54,10.55953,57.729022
850856,Fladen Grund,9990,56,10.559597,57.729031
850857,Fladen Grund,9990,58,10.559176,57.728771
850858,Fladen Grund,9990,59,10.557222,57.733578
850859,Fladen Grund,9990,60,10.559212,57.729193
850860,Fladen Grund,9990,62,10.559313,57.729193
850861,Fladen Grund,9990,64,10.559431,57.729201
850862,Fladen Grund,9990,66,10.559548,57.72921
850863,Fladen Grund,9990,68,10.559583,57.729381
850864,Fladen Grund,9990,70,10.559482,57.729381
850865,Fladen Grund,9990,72,10.559381,57.729372
850866,Fladen Grund,9990,74,10.55928,57.729372
850867,Fladen Grund,9990,76,10.559196,57.729363
850868,Fladen Grund,9990,78,10.559029,57.729355
850869,Fladen Grund,9990,80,10.558945,57.729355
850870,Fladen Grund,9990,82,10.558844,57.729346
850871,Fladen Grund,9990,84,10.55876,57.729346
850872,Fladen Grund,9990,86,10.558659,57.729346
850873,Fladen Grund,9990,100,10.558578,57.732126
853055,Dronning Alexandrines Vej,9990,52,10.577269,57.722977
868791,Hotel Skagen Strand,9990,1,10.465796,57.659925
868792,Hotel Skagen Strand,9990,2,10.465913,57.659924
868793,Hotel Skagen Strand,9990,3,10.466047,57.659924
868794,Hotel Skagen Strand,9990,4,10.466181,57.659915
868795,Hotel Skagen Strand,9990,5,10.466332,57.659879
868796,Hotel Skagen Strand,9990,6,10.466449,57.65987
868797,Hotel Skagen Strand,9990,7,10.466583,57.65987
868798,Hotel Skagen Strand,9990,8,10.466717,57.659861
868799,Hotel Skagen Strand,9990,9,10.466868,57.659825
868800,Hotel Skagen Strand,9990,10,10.467002,57.659825
868801,Hotel Skagen Strand,9990,11,10.467119,57.659816
868802,Hotel Skagen Strand,9990,12,10.467237,57.659816
868803,Hotel Skagen Strand,9990,13,10.465963,57.659673
868804,Hotel Skagen Strand,9990,14,10.466097,57.659673
868805,Hotel Skagen Strand,9990,15,10.466214,57.659673
868806,Hotel Skagen Strand,9990,16,10.466348,57.659664
868807,Hotel Skagen Strand,9990,17,10.466499,57.659628
868808,Hotel Skagen Strand,9990,18,10.466616,57.659628
868809,Hotel Skagen Strand,9990,19,10.46675,57.659619
868810,Hotel Skagen Strand,9990,20,10.466867,57.659618
868811,Hotel Skagen Strand,9990,21,10.467035,57.659582
868812,Hotel Skagen Strand,9990,22,10.467169,57.659573
868813,Hotel Skagen Strand,9990,23,10.467286,57.659564
868814,Hotel Skagen Strand,9990,24,10.46742,57.659564
868815,Hotel Skagen Strand,9990,25,10.465929,57.65952
868816,Hotel Skagen Strand,9990,26,10.466046,57.65952
868817,Hotel Skagen Strand,9990,27,10.466163,57.659511
868818,Hotel Skagen Strand,9990,28,10.466297,57.659502
868819,Hotel Skagen Strand,9990,29,10.466984,57.659421
868820,Hotel Skagen Strand,9990,30,10.467118,57.659421
868821,Hotel Skagen Strand,9990,31,10.467235,57.659412
868822,Hotel Skagen Strand,9990,32,10.467353,57.659411
868823,Hotel Skagen Strand,9990,33,10.466096,57.659269
868824,Hotel Skagen Strand,9990,34,10.466196,57.659269
868825,Hotel Skagen Strand,9990,35,10.46633,57.65926
868826,Hotel Skagen Strand,9990,36,10.466448,57.65926
868827,Hotel Skagen Strand,9990,37,10.466615,57.659215
868828,Hotel Skagen Strand,9990,38,10.466732,57.659214
868829,Hotel Skagen Strand,9990,39,10.466866,57.659205
868830,Hotel Skagen Strand,9990,40,10.466983,57.659205
868831,Hotel Skagen Strand,9990,41,10.467151,57.659169
868832,Hotel Skagen Strand,9990,42,10.467285,57.659169
868833,Hotel Skagen Strand,9990,43,10.467402,57.659169
868834,Hotel Skagen Strand,9990,44,10.467519,57.65916
868835,Hotel Skagen Strand,9990,45,10.465777,57.659135
868836,Hotel Skagen Strand,9990,46,10.465894,57.659134
868837,Hotel Skagen Strand,9990,47,10.466028,57.659116
868838,Hotel Skagen Strand,9990,48,10.466146,57.659116
868839,Hotel Skagen Strand,9990,49,10.466849,57.659026
868840,Hotel Skagen Strand,9990,50,10.466966,57.659026
868841,Hotel Skagen Strand,9990,51,10.4671,57.659026
868842,Hotel Skagen Strand,9990,52,10.467201,57.659026
868843,Hotel Skagen Strand,9990,53,10.467385,57.65898
868844,Hotel Skagen Strand,9990,54,10.467502,57.658971
868845,Hotel Skagen Strand,9990,55,10.467619,57.658971
868846,Hotel Skagen Strand,9990,56,10.467753,57.658962
868847,Hotel Skagen Strand,9990,57,10.465642,57.658883
868848,Hotel Skagen Strand,9990,58,10.465776,57.658883
868849,Hotel Skagen Strand,9990,59,10.465894,57.658865
868850,Hotel Skagen Strand,9990,60,10.466011,57.658865
868851,Hotel Skagen Strand,9990,61,10.466178,57.658829
868852,Hotel Skagen Strand,9990,62,10.466296,57.658829
868853,Hotel Skagen Strand,9990,63,10.466429,57.65882
868854,Hotel Skagen Strand,9990,64,10.466547,57.65882
868855,Hotel Skagen Strand,9990,65,10.466714,57.658783
868856,Hotel Skagen Strand,9990,66,10.466831,57.658774
868857,Hotel Skagen Strand,9990,67,10.466949,57.658765
868858,Hotel Skagen Strand,9990,68,10.467083,57.658765
868859,Hotel Skagen Strand,9990,69,10.46725,57.658801
868860,Hotel Skagen Strand,9990,70,10.467351,57.658801
868861,Hotel Skagen Strand,9990,71,10.467485,57.65881
868862,Hotel Skagen Strand,9990,72,10.467619,57.658819
868863,Hotel Skagen Strand,9990,73,10.467877,57.661171
868864,Hotel Skagen Strand,9990,74,10.467994,57.661171
868865,Hotel Skagen Strand,9990,75,10.468145,57.661144
868866,Hotel Skagen Strand,9990,76,10.468279,57.661144
868867,Hotel Skagen Strand,9990,77,10.468446,57.661108
868868,Hotel Skagen Strand,9990,78,10.46858,57.661098
868869,Hotel Skagen Strand,9990,79,10.468731,57.661071
868870,Hotel Skagen Strand,9990,80,10.468848,57.661071
868871,Hotel Skagen Strand,9990,81,10.468999,57.661008
868872,Hotel Skagen Strand,9990,82,10.469133,57.660999
868873,Hotel Skagen Strand,9990,83,10.4693,57.660981
868874,Hotel Skagen Strand,9990,84,10.469418,57.660981
868875,Hotel Skagen Strand,9990,85,10.467876,57.660893
868876,Hotel Skagen Strand,9990,87,10.468161,57.660865
868877,Hotel Skagen Strand,9990,88,10.468278,57.660865
868878,Hotel Skagen Strand,9990,89,10.468446,57.660838
868879,Hotel Skagen Strand,9990,90,10.468563,57.660838
868880,Hotel Skagen Strand,9990,91,10.46873,57.660829
868881,Hotel Skagen Strand,9990,92,10.468848,57.660829
868882,Hotel Skagen Strand,9990,93,10.469015,57.660757
868883,Hotel Skagen Strand,9990,94,10.469149,57.660757
868884,Hotel Skagen Strand,9990,95,10.4693,57.660739
868885,Hotel Skagen Strand,9990,96,10.469417,57.660739
868886,Hotel Skagen Strand,9990,97,10.467708,57.660587
868887,Hotel Skagen Strand,9990,98,10.467825,57.660587
868888,Hotel Skagen Strand,9990,99,10.467993,57.66056
868889,Hotel Skagen Strand,9990,100,10.46811,57.66056
868890,Hotel Skagen Strand,9990,101,10.468277,57.660542
868891,Hotel Skagen Strand,9990,102,10.468411,57.660533
868892,Hotel Skagen Strand,9990,103,10.468579,57.660524
868893,Hotel Skagen Strand,9990,104,10.468696,57.660524
868894,Hotel Skagen Strand,9990,105,10.468864,57.660506
868895,Hotel Skagen Strand,9990,106,10.468998,57.660506
868896,Hotel Skagen Strand,9990,107,10.469148,57.66047
868897,Hotel Skagen Strand,9990,108,10.469265,57.660469
868898,Hotel Skagen Strand,9990,109,10.470054,57.660738
868899,Hotel Skagen Strand,9990,110,10.470154,57.660738
868900,Hotel Skagen Strand,9990,111,10.470338,57.66072
868901,Hotel Skagen Strand,9990,112,10.470456,57.66072
868902,Hotel Skagen Strand,9990,113,10.470623,57.660684
868903,Hotel Skagen Strand,9990,114,10.47074,57.660684
868904,Hotel Skagen Strand,9990,115,10.470925,57.660666
868905,Hotel Skagen Strand,9990,116,10.471025,57.660674
868906,Hotel Skagen Strand,9990,117,10.470053,57.660505
868907,Hotel Skagen Strand,9990,118,10.47017,57.660505
868908,Hotel Skagen Strand,9990,119,10.470338,57.660469
868909,Hotel Skagen Strand,9990,120,10.470438,57.660468
868910,Hotel Skagen Strand,9990,121,10.470622,57.66045
868911,Hotel Skagen Strand,9990,122,10.470723,57.66045
868912,Hotel Skagen Strand,9990,123,10.470907,57.66045
868913,Hotel Skagen Strand,9990,124,10.471024,57.66045
868914,Hotel Skagen Strand,9990,125,10.470253,57.660199
868915,Hotel Skagen Strand,9990,126,10.470354,57.660199
868916,Hotel Skagen Strand,9990,127,10.470538,57.660181
868917,Hotel Skagen Strand,9990,128,10.470655,57.660181
868918,Hotel Skagen Strand,9990,129,10.470806,57.660181
868919,Hotel Skagen Strand,9990,130,10.47094,57.660181
868920,Hotel Skagen Strand,9990,131,10.467556,57.660327
868921,Hotel Skagen Strand,9990,132,10.467674,57.660327
868922,Hotel Skagen Strand,9990,133,10.467841,57.660282
868923,Hotel Skagen Strand,9990,134,10.467958,57.660291
868924,Hotel Skagen Strand,9990,135,10.468126,57.660273
868925,Hotel Skagen Strand,9990,136,10.468243,57.660273
868926,Hotel Skagen Strand,9990,137,10.46841,57.660255
868927,Hotel Skagen Strand,9990,138,10.468545,57.660255
868928,Hotel Skagen Strand,9990,139,10.468695,57.660227
868929,Hotel Skagen Strand,9990,140,10.468813,57.660236
868930,Hotel Skagen Strand,9990,141,10.46898,57.660236
868931,Hotel Skagen Strand,9990,142,10.469114,57.660236
869306,Markvænget,9990,1,10.460894,57.662056
869312,Markvænget,9990,3,10.460843,57.661976
869317,Markvænget,9990,5,10.460793,57.661904
869319,Markvænget,9990,7,10.460776,57.661841
869324,Markvænget,9990,9,10.460725,57.661778
869373,Vandværksvej,9990,4A,10.461593,57.660664
869374,Vandværksvej,9990,4B,10.460974,57.660808
869375,Vandværksvej,9990,5,10.461659,57.660054
869376,Vandværksvej,9990,6,10.460806,57.660647
869377,Vandværksvej,9990,7,10.461239,57.65982
869378,Vandværksvej,9990,9,10.461239,57.659605
869379,Vandværksvej,9990,11,10.461087,57.659354
869380,Vandværksvej,9990,12,10.460536,57.660054
869381,Vandværksvej,9990,16,10.46082,57.659767
869382,Vandværksvej,9990,18,10.460351,57.659758
869383,Vandværksvej,9990,20,10.460217,57.659579
869384,Vandværksvej,9990,22,10.460601,57.659372
869385,Lundholmvej,9990,3,10.45238,57.661084
869386,Lundholmvej,9990,5,10.452857,57.663975
869387,Lundholmvej,9990,9,10.446921,57.661815
869425,Ålbækvej,9990,873,10.456714,57.658908
869426,Ålbækvej,9990,875,10.456197,57.659878
869427,Ålbækvej,9990,877,10.453453,57.661236
869428,Ålbækvej,9990,889,10.448091,57.667947
869429,Ålbækvej,9990,891,10.444533,57.665345
869430,Ålbækvej,9990,893,10.433937,57.687673
869431,Ålbækvej,9990,895,10.451894,57.674687
869432,Ålbækvej,9990,897,10.428542,57.680739
869433,Ålbækvej,9990,901,10.438461,57.686306
869434,Ålbækvej,9990,903,10.45533,57.694151
869435,Ålbækvej,9990,905,10.451872,57.693076
869436,Ålbækvej,9990,907,10.439092,57.691109
869437,Ålbækvej,9990,913,10.444069,57.690271
869438,Flagbakkevej,9990,2,10.523917,57.725831
869439,Flagbakkevej,9990,5A,10.526101,57.726376
869440,Flagbakkevej,9990,5B,10.526571,57.726321
869441,Flagbakkevej,9990,9,10.527287,57.725099
869442,Flagbakkevej,9990,11,10.527905,57.724506
869443,Flagbakkevej,9990,11B,10.531098,57.721817
869444,Flagbakkevej,9990,12,10.526095,57.724993
869445,Flagbakkevej,9990,13,10.531735,57.721574
869446,Flagbakkevej,9990,13B,10.532002,57.721385
869447,Flagbakkevej,9990,15,10.532673,57.72124
869448,Flagbakkevej,9990,17,10.533275,57.720871
869449,Flagbakkevej,9990,17C,10.534166,57.721113
869450,Flagbakkevej,9990,19,10.534787,57.721112
869451,Flagbakkevej,9990,20,10.527968,57.723563
869452,Flagbakkevej,9990,21,10.536714,57.720732
869453,Flagbakkevej,9990,26,10.529921,57.721262
869454,Flagbakkevej,9990,28,10.529016,57.721461
869455,Flagbakkevej,9990,30,10.537902,57.719931
869456,Flagbakkevej,9990,49,10.539128,57.720226
869457,Flagbakkevej,9990,53,10.539884,57.72035
869458,Flagbakkevej,9990,55,10.539902,57.720521
869459,Flagbakkevej,9990,61P,10.540304,57.720341
869460,Starholmvej,9990,1,10.413977,57.657271
869461,Starholmvej,9990,14,10.41572,57.657594
869462,Starholmvej,9990,20,10.418618,57.657781
869463,Starholmvej,9990,23,10.410077,57.671702
869464,Starholmvej,9990,25,10.412539,57.671351
869465,Starholmvej,9990,27,10.41609,57.658411
869466,Starholmvej,9990,29,10.416861,57.658653
869467,Starholmvej,9990,31,10.417833,57.659389
869468,Starholmvej,9990,34,10.418017,57.658733
869469,Starholmvej,9990,36,10.418804,57.658903
869470,Starholmvej,9990,52,10.420028,57.659181
869471,Starholmvej,9990,54,10.419575,57.659235
869472,Starholmvej,9990,56,10.419794,57.659594
869473,Starholmvej,9990,74,10.419228,57.662279
869474,Starholmvej,9990,84,10.42182,57.669246
869475,Egekratvej,9990,5,10.460856,57.666905
869476,Egekratvej,9990,75,10.469131,57.666081
869477,Egekratvej,9990,76,10.469715,57.665353
869478,Egekratvej,9990,77,10.470019,57.666081
1034754,Sønderklit,9990,1,10.535773,57.727359
1034755,Sønderklit,9990,2,10.536107,57.726982
1034756,Sønderklit,9990,3,10.536327,57.727359
1034757,Sønderklit,9990,4,10.536996,57.726972
1034758,Sønderklit,9990,5,10.536696,57.727268
1034759,Sønderklit,9990,6,10.538104,57.726916
1034760,Sønderklit,9990,7,10.537048,57.727322
1034761,Sønderklit,9990,8,10.538169,57.726503
1034762,Sønderklit,9990,9,10.537417,57.727303
1034763,Sønderklit,9990,10,10.538909,57.726834
1034764,Sønderklit,9990,11,10.537719,57.727294
1034765,Sønderklit,9990,12,10.539681,57.726779
1034766,Sønderklit,9990,13,10.538021,57.727213
1034767,Sønderklit,9990,14,10.539747,57.726564
1034768,Sønderklit,9990,15,10.538357,57.727293
1034769,Sønderklit,9990,16,10.539461,57.726439
1034770,Sønderklit,9990,17,10.538693,57.727364
1034771,Sønderklit,9990,18,10.539795,57.72625
1034772,Sønderklit,9990,19,10.539498,57.727085
1034773,Sønderklit,9990,20,10.540182,57.726375
1034774,Sønderklit,9990,21,10.539264,57.727373
1034775,Sønderklit,9990,22,10.540467,57.726365
1034776,Sønderklit,9990,23,10.539633,57.727327
1034777,Sønderklit,9990,24,10.540367,57.726545
1034778,Sønderklit,9990,25,10.540002,57.727282
1034779,Sønderklit,9990,26,10.540134,57.726797
1034780,Sønderklit,9990,27,10.540421,57.727209
1034781,Sønderklit,9990,28,10.540786,57.726338
1034782,Sønderklit,9990,29,10.540269,57.727048
1034783,Sønderklit,9990,30,10.541124,57.726759
1034784,Sønderklit,9990,31,10.540824,57.727155
1034785,Sønderklit,9990,32,10.541459,57.726741
1034786,Sønderklit,9990,32A,10.541088,57.726328
1034787,Sønderklit,9990,32B,10.541357,57.726346
1034788,Sønderklit,9990,33,10.541143,57.727217
1034789,Sønderklit,9990,34,10.542078,57.726237
1034790,Sønderklit,9990,35,10.541613,57.727253
1034791,Sønderklit,9990,36,10.541912,57.726678
1034792,Sønderklit,9990,38,10.542231,57.726704
1034793,Sønderklit,9990,39,10.541998,57.726956
1034794,Sønderklit,9990,40,10.5426,57.726659
1034795,Sønderklit,9990,41,10.54225,57.727027
1034796,Sønderklit,9990,42,10.542598,57.726263
1034797,Sønderklit,9990,43,10.542385,57.72718
1034798,Sønderklit,9990,44,10.543186,57.726236
1034799,Sønderklit,9990,45,10.542803,57.726937
1034800,Sønderklit,9990,46,10.543238,57.726604
1034801,Sønderklit,9990,47,10.543105,57.7269
1034802,Sønderklit,9990,48,10.543674,57.726594
1034803,Sønderklit,9990,49,10.543424,57.726927
1034804,Sønderklit,9990,50,10.543706,57.72628
1034805,Sønderklit,9990,51,10.54381,57.727061
1034806,Sønderklit,9990,52,10.544142,57.726306
1034807,Sønderklit,9990,53,10.544179,57.726899
1034808,Sønderklit,9990,54,10.544312,57.726575
1034809,Sønderklit,9990,55,10.544565,57.726844
1034810,Sønderklit,9990,56,10.54463,57.726566
1034811,Sønderklit,9990,57,10.544867,57.726817
1034812,Sønderklit,9990,58,10.545016,57.726529
1034813,Sønderklit,9990,59,10.545253,57.726843
1034814,Sønderklit,9990,60,10.54552,57.72652
1034815,Sønderklit,9990,61,10.545622,57.726879
1034816,Sønderklit,9990,62,10.545889,57.72651
1034817,Sønderklit,9990,63,10.545992,57.726932
1034818,Sønderklit,9990,64,10.546308,57.726438
1034819,Sønderklit,9990,65,10.546394,57.726788
1034820,Sønderklit,9990,66,10.546896,57.726464
1034821,Sønderklit,9990,67,10.54673,57.726805
1034822,Sønderklit,9990,68,10.547062,57.726131
1034823,Sønderklit,9990,69,10.547065,57.726814
1034824,Sønderklit,9990,70,10.547316,57.726553
1034825,Sønderklit,9990,71,10.547484,57.726723
1034826,Skagbanke,9990,1,10.545318,57.72969
1034827,Skagbanke,9990,2,10.545955,57.729689
1034828,Skagbanke,9990,3,10.544831,57.729672
1034829,Skagbanke,9990,4,10.546409,57.729688
1034830,Skagbanke,9990,5,10.544361,57.729637
1034831,Skagbanke,9990,6,10.546929,57.729741
1034832,Skagbanke,9990,7,10.544395,57.729852
1034833,Skagbanke,9990,8,10.546846,57.729885
1034834,Skagbanke,9990,9,10.544865,57.729879
1034835,Skagbanke,9990,10,10.54641,57.729912
1034836,Skagbanke,9990,11,10.545234,57.729878
1034837,Skagbanke,9990,12,10.545956,57.729895
1034838,Skagbanke,9990,13,10.545219,57.73021
1034839,Skagbanke,9990,14,10.545908,57.730227
1034840,Skagbanke,9990,15A,10.544817,57.730202
1034841,Skagbanke,9990,15B,10.544632,57.730193
1034842,Skagbanke,9990,16,10.546378,57.730272
1034843,Skagbanke,9990,17,10.544297,57.730409
1034844,Skagbanke,9990,18,10.546781,57.730307
1034845,Skagbanke,9990,19,10.544784,57.730427
1034846,Skagbanke,9990,20,10.546749,57.730648
1034847,Skagbanke,9990,21,10.545187,57.730471
1034848,Skagbanke,9990,22,10.546329,57.730523
1034849,Skagbanke,9990,23,10.545138,57.730767
1034850,Skagbanke,9990,24,10.545859,57.730488
1034851,Skagbanke,9990,25,10.544618,57.730759
1034852,Skagbanke,9990,26,10.545793,57.730865
1034853,Skagbanke,9990,27,10.544181,57.730742
1034854,Skagbanke,9990,28,10.54618,57.730882
1034855,Skagbanke,9990,29,10.544216,57.730939
1034856,Skagbanke,9990,30,10.5467,57.730927
1034857,Skagbanke,9990,31,10.544653,57.730956
1034858,Skagbanke,9990,32,10.546583,57.731106
1034859,Skagbanke,9990,33,10.545055,57.730965
1034860,Skagbanke,9990,34,10.546231,57.731125
1034861,Skagbanke,9990,35,10.54504,57.731306
1034862,Skagbanke,9990,36,10.545727,57.731054
1034863,Skagbanke,9990,37,10.544537,57.731289
1034864,Skagbanke,9990,38,10.545645,57.731395
1034865,Skagbanke,9990,39,10.544083,57.731254
1034866,Skagbanke,9990,40,10.546115,57.731439
1034867,Skagbanke,9990,41,10.544084,57.73146
1034868,Skagbanke,9990,42,10.546569,57.731448
1034869,Skagbanke,9990,43,10.544488,57.731567
1034870,Skagbanke,9990,44,10.54662,57.731681
1034871,Skagbanke,9990,45,10.54494,57.731495
1034872,Skagbanke,9990,46,10.5461,57.731682
1034873,Skagbanke,9990,47,10.544104,57.731945
1034874,Skagbanke,9990,48,10.54568,57.73161
1034875,Skagbanke,9990,49,10.543954,57.732197
1034876,Skagbanke,9990,50,10.545564,57.731979
1034877,Skagbanke,9990,51,10.543939,57.732663
1034878,Skagbanke,9990,53,10.543958,57.732915
1034879,Skagbanke,9990,55,10.543757,57.733202
1034880,Skagbanke,9990,57,10.543911,57.733597
1034881,Skagbanke,9990,59,10.543677,57.733876
1034882,Skagbanke,9990,61,10.543796,57.734217
1034883,Skagbanke,9990,63,10.543613,57.734576
1034884,Skagbanke,9990,65,10.543145,57.734936
1034885,Skagbanke,9990,67,10.543213,57.735214
1034886,Skagbanke,9990,69,10.54335,57.7356
1034887,Skagbanke,9990,71,10.543368,57.735951
1034888,Skagbanke,9990,73,10.543319,57.73622
1034889,Skagbanke,9990,75,10.543539,57.736489
1034890,Skagbanke,9990,79,10.544666,57.736936
1034891,Østre Strandvej,9990,100,10.602516,57.724144
1034892,Højensvej,9990,1,10.52185,57.728922
1034893,Højensvej,9990,2,10.521412,57.728707
1034894,Højensvej,9990,3,10.522386,57.728715
1034895,Højensvej,9990,4A,10.521697,57.728554
1034896,Højensvej,9990,4B,10.521798,57.728563
1034897,Højensvej,9990,5,10.522923,57.728669
1034898,Højensvej,9990,6,10.5223,57.728284
1034899,Højensvej,9990,7,10.523207,57.72848
1034900,Højensvej,9990,8,10.522653,57.728355
1034901,Højensvej,9990,9A,10.52351,57.728534
1034902,Højensvej,9990,9B,10.52361,57.728543
1034903,Højensvej,9990,10,10.523089,57.728265
1034904,Højensvej,9990,11,10.524198,57.728515
1034905,Højensvej,9990,12,10.523509,57.728291
1034906,Højensvej,9990,13A,10.524785,57.72838
1034907,Højensvej,9990,14A,10.523793,57.728201
1034908,Højensvej,9990,14B,10.523928,57.72821
1034909,Højensvej,9990,14C,10.524112,57.728228
1034910,Højensvej,9990,15,10.525238,57.728442
1034911,Højensvej,9990,16,10.524448,57.728263
1034912,Højensvej,9990,17,10.526413,57.728387
1034913,Højensvej,9990,18A,10.5248,57.728227
1034914,Højensvej,9990,18B,10.524935,57.728227
1034915,Højensvej,9990,18C,10.525069,57.728227
1034916,Højensvej,9990,18D,10.525086,57.728191
1034917,Højensvej,9990,18E,10.525052,57.728128
1034918,Højensvej,9990,19,10.526765,57.72835
1034919,Højensvej,9990,20,10.525992,57.728145
1034920,Højensvej,9990,21,10.527084,57.728386
1034921,Højensvej,9990,22A,10.526763,57.727865
1034922,Højensvej,9990,22B,10.526915,57.728081
1034923,Højensvej,9990,23,10.527353,57.728394
1034924,Højensvej,9990,24,10.527217,57.728107
1034925,Højensvej,9990,25,10.527588,57.728636
1034926,Højensvej,9990,26,10.527182,57.727883
1034927,Højensvej,9990,26A,10.527569,57.72799
1034928,Højensvej,9990,26B,10.527584,57.727703
1034929,Højensvej,9990,27A,10.52804,57.728376
1034930,Højensvej,9990,27B,10.52794,57.728385
1034931,Højensvej,9990,27C,10.528025,57.728609
1034932,Højensvej,9990,28,10.527938,57.728016
1034933,Højensvej,9990,29A,10.535947,57.728589
1034934,Højensvej,9990,29B,10.536315,57.728346
1034935,Højensvej,9990,29C,10.536368,57.728948
1034936,Højensvej,9990,30A,10.528307,57.727989
1034937,Højensvej,9990,30B,10.528324,57.727917
1034938,Højensvej,9990,30C,10.528323,57.727854
1034939,Højensvej,9990,30D,10.528356,57.727639
1034940,Højensvej,9990,30E,10.528372,57.727576
1034941,Højensvej,9990,30F,10.528372,57.727513
1034942,Højensvej,9990,30G,10.528388,57.727414
1034943,Højensvej,9990,30H,10.528388,57.727262
1034944,Højensvej,9990,30K,10.528505,57.72727
1034945,Højensvej,9990,30L,10.528589,57.72727
1034946,Højensvej,9990,30M,10.528404,57.727154
1034947,Højensvej,9990,30N,10.528404,57.727082
1034948,Højensvej,9990,30P,10.52842,57.726947
1034949,Højensvej,9990,30R,10.528537,57.726956
1034950,Højensvej,9990,30S,10.528672,57.726965
1034951,Højensvej,9990,31,10.53685,57.727888
1034952,Højensvej,9990,32A,10.528525,57.727872
1034953,Højensvej,9990,32B,10.528659,57.727872
1034954,Højensvej,9990,32C,10.52881,57.727863
1034955,Højensvej,9990,32D,10.528944,57.727854
1034956,Højensvej,9990,32E,10.52876,57.727791
1034957,Højensvej,9990,32F,10.528575,57.727899
1034958,Højensvej,9990,32G,10.528743,57.72789
1034959,Højensvej,9990,32H,10.528877,57.727889
1034960,Højensvej,9990,32K,10.528995,57.72788
1034961,Højensvej,9990,32L,10.528827,57.727818
1034962,Højensvej,9990,33,10.537219,57.727905
1034963,Højensvej,9990,34A,10.529179,57.727836
1034964,Højensvej,9990,34B,10.52932,57.727813
1034965,Højensvej,9990,34C,10.529438,57.727823
1034966,Højensvej,9990,34D,10.529212,57.727593
1034967,Højensvej,9990,34E,10.529363,57.727602
1034968,Højensvej,9990,34F,10.52948,57.727601
1034969,Højensvej,9990,34G,10.529027,57.727467
1034970,Højensvej,9990,34H,10.529026,57.727422
1034971,Højensvej,9990,34K,10.529026,57.727368
1034972,Højensvej,9990,34L,10.529043,57.727324
1034973,Højensvej,9990,34M,10.529042,57.72727
1034974,Højensvej,9990,34N,10.529042,57.727216
1034975,Højensvej,9990,34P,10.529059,57.727162
1034976,Højensvej,9990,35,10.537722,57.727815
1034977,Højensvej,9990,37,10.538041,57.727796
1034978,Højensvej,9990,39,10.538326,57.727805
1034979,Højensvej,9990,40,10.531982,57.727778
1034980,Højensvej,9990,41,10.538695,57.727777
1034981,Højensvej,9990,44,10.533559,57.727632
1034982,Højensvej,9990,46,10.533624,57.727317
1034983,Højensvej,9990,47,10.539853,57.727713
1034984,Højensvej,9990,49,10.540222,57.727685
1034985,Højensvej,9990,50,10.533433,57.725747
1034986,Højensvej,9990,51,10.540642,57.727667
1034987,Højensvej,9990,60A,10.548694,57.726864
1034988,Højensvej,9990,65,10.548931,57.727323
1034989,Højensvej,9990,67,10.551179,57.727131
1034990,Westbanke,9990,1,10.547076,57.728942
1034991,Westbanke,9990,2,10.546305,57.729185
1034992,Westbanke,9990,3,10.546976,57.729121
1034993,Westbanke,9990,4,10.545802,57.729168
1034994,Westbanke,9990,5,10.54743,57.729121
1034995,Westbanke,9990,6,10.545248,57.729151
1034996,Westbanke,9990,7,10.547345,57.728959
1034997,Westbanke,9990,8,10.544845,57.729116
1034998,Westbanke,9990,9,10.547999,57.728976
1034999,Westbanke,9990,10,10.544877,57.728909
1035000,Westbanke,9990,11,10.5479,57.729192
1035001,Westbanke,9990,12,10.54533,57.728935
1035002,Westbanke,9990,13,10.548353,57.729236
1035003,Westbanke,9990,14,10.545784,57.728926
1035004,Westbanke,9990,15,10.548318,57.728976
1035005,Westbanke,9990,16,10.546304,57.728988
1035006,Westbanke,9990,17,10.548283,57.728706
1035007,Westbanke,9990,18,10.54642,57.728655
1035008,Westbanke,9990,19,10.54788,57.728698
1035009,Westbanke,9990,20,10.545849,57.72862
1035010,Westbanke,9990,21,10.547427,57.728645
1035011,Westbanke,9990,22,10.545413,57.728603
1035012,Westbanke,9990,23,10.547041,57.728654
1035013,Westbanke,9990,24,10.54496,57.728586
1035014,Westbanke,9990,25,10.54714,57.728277
1035015,Westbanke,9990,26,10.544908,57.728388
1035016,Westbanke,9990,27,10.547526,57.728295
1035017,Westbanke,9990,28,10.545345,57.728406
1035018,Westbanke,9990,29,10.547946,57.728312
1035019,Westbanke,9990,30,10.545932,57.728441
1035020,Westbanke,9990,31,10.548382,57.72841
1035021,Westbanke,9990,32,10.546419,57.728467
1035022,Westbanke,9990,33,10.548415,57.728141
1035023,Westbanke,9990,34,10.546383,57.727946
1035024,Westbanke,9990,35,10.547961,57.728114
1035025,Westbanke,9990,36,10.546485,57.728206
1035026,Westbanke,9990,37,10.547558,57.728097
1035027,Westbanke,9990,38,10.546031,57.728144
1035028,Westbanke,9990,39,10.547139,57.72808
1035029,Westbanke,9990,40,10.546047,57.727965
1035030,Westbanke,9990,41,10.547238,57.727711
1035031,Westbanke,9990,42,10.545476,57.727911
1035032,Westbanke,9990,43,10.547641,57.727738
1035033,Westbanke,9990,44,10.545427,57.7281
1035034,Westbanke,9990,45,10.548111,57.727755
1035035,Westbanke,9990,46,10.545024,57.728092
1035036,Westbanke,9990,47,10.548447,57.727817
1035037,Westbanke,9990,48,10.544872,57.727823
1035038,Westbanke,9990,50,10.54492,57.727508
1035039,Westbanke,9990,51,10.548058,57.727369
1035040,Westbanke,9990,52,10.545458,57.727534
1035041,Westbanke,9990,53,10.547639,57.727495
1035042,Westbanke,9990,54,10.546096,57.727623
1035043,Westbanke,9990,55,10.547052,57.727451
1035044,Westbanke,9990,56,10.546482,57.727614
1035045,Rødspættevej,9990,8,10.58746,57.718317
1035046,Rødspættevej,9990,10,10.587694,57.718209
1035047,Rødspættevej,9990,10V,10.588129,57.718047
1035048,Rødspættevej,9990,12,10.588361,57.717931
1035049,Iver Christensens Vej,9990,13,10.581016,57.726544
1035050,Brune Banke,9990,1,10.543418,57.729127
1035051,Brune Banke,9990,2,10.542747,57.729181
1035052,Brune Banke,9990,3,10.543854,57.729144
1035053,Brune Banke,9990,4,10.542361,57.7292
1035054,Brune Banke,9990,5,10.544425,57.729134
1035055,Brune Banke,9990,6,10.541941,57.729129
1035056,Brune Banke,9990,7,10.54429,57.728964
1035057,Brune Banke,9990,8,10.541538,57.729102
1035058,Brune Banke,9990,9,10.543837,57.728982
1035059,Brune Banke,9990,10,10.540984,57.72913
1035060,Brune Banke,9990,11,10.543484,57.728947
1035061,Brune Banke,9990,12,10.541101,57.728852
1035062,Brune Banke,9990,13,10.543415,57.728579
1035063,Brune Banke,9990,14,10.54152,57.728869
1035064,Brune Banke,9990,15,10.543936,57.728614
1035065,Brune Banke,9990,16,10.54194,57.728895
1035066,Brune Banke,9990,17,10.544389,57.728658
1035067,Brune Banke,9990,18,10.54241,57.72885
1035068,Brune Banke,9990,19,10.544404,57.72838
1035069,Brune Banke,9990,20,10.542796,57.72893
1035070,Brune Banke,9990,21,10.543951,57.728372
1035071,Brune Banke,9990,22,10.542895,57.728562
1035072,Brune Banke,9990,23,10.543565,57.728345
1035073,Brune Banke,9990,24,10.542492,57.728544
1035074,Brune Banke,9990,25,10.543631,57.727968
1035075,Brune Banke,9990,26,10.542072,57.7285
1035076,Brune Banke,9990,27,10.544033,57.727967
1035077,Brune Banke,9990,28,10.541619,57.728483
1035078,Brune Banke,9990,29,10.544453,57.728021
1035079,Brune Banke,9990,30,10.541149,57.728483
1035080,Brune Banke,9990,31,10.544485,57.727778
1035081,Brune Banke,9990,32,10.541131,57.72816
1035082,Brune Banke,9990,33,10.544048,57.727572
1035083,Brune Banke,9990,34,10.541618,57.728285
1035084,Brune Banke,9990,35,10.543629,57.727726
1035085,Brune Banke,9990,36,10.542021,57.728303
1035086,Brune Banke,9990,38,10.542474,57.72832
1035087,Brune Banke,9990,40,10.542911,57.728346
1035088,Brune Banke,9990,42,10.542942,57.727996
1035089,Brune Banke,9990,44,10.54259,57.727925
1035090,Brune Banke,9990,46,10.541869,57.728042
1035091,Brune Banke,9990,48,10.541415,57.727899
1035092,Brune Banke,9990,50,10.541363,57.727675
1035093,Brune Banke,9990,52,10.542035,57.727683
1035094,Brune Banke,9990,54,10.542572,57.727718
1035095,Brune Banke,9990,56,10.543092,57.727709
1035096,Hamiltonvej,9990,2,10.540242,57.731789
1035097,Hamiltonvej,9990,3,10.54061,57.728017
1035098,Hamiltonvej,9990,4,10.540695,57.731797
1035099,Hamiltonvej,9990,6,10.540228,57.732238
1035100,Hamiltonvej,9990,8,10.540547,57.732291
1035101,Hamiltonvej,9990,10,10.540716,57.732551
1035102,Hamiltonvej,9990,12,10.540045,57.732633
1035103,Hamiltonvej,9990,14,10.541105,57.733116
1035104,Hamiltonvej,9990,16,10.540199,57.73327
1035105,Hamiltonvej,9990,17,10.539665,57.733918
1035106,Hamiltonvej,9990,18,10.540201,57.733576
1035107,Hamiltonvej,9990,19A,10.538709,57.734045
1035108,Hamiltonvej,9990,19B,10.538627,57.73444
1035109,Hamiltonvej,9990,21A,10.539113,57.734188
1035110,Hamiltonvej,9990,21B,10.539065,57.734753
1035111,Hamiltonvej,9990,22,10.540906,57.733566
1035112,Hamiltonvej,9990,23A,10.539701,57.734304
1035113,Hamiltonvej,9990,23B,10.539668,57.73451
1035114,Hamiltonvej,9990,23C,10.539469,57.735067
1035115,Hamiltonvej,9990,23D,10.540073,57.734887
1035116,Hamiltonvej,9990,25A,10.540338,57.734276
1035117,Hamiltonvej,9990,25B,10.540943,57.734302
1035118,Hamiltonvej,9990,25C,10.540776,57.734598
1035119,Hamiltonvej,9990,25D,10.540744,57.734886
1035120,Hamiltonvej,9990,25E,10.540695,57.735164
1035121,Hamiltonvej,9990,25F,10.540205,57.734554
1035122,Hamiltonvej,9990,27A,10.540286,57.733872
1035123,Hamiltonvej,9990,27B,10.540874,57.733934
1035124,Hamiltonvej,9990,31,10.541512,57.734086
1035125,Hamiltonvej,9990,33,10.541631,57.734283
1035126,Hamiltonvej,9990,35,10.541466,57.734822
1035127,Hamiltonvej,9990,37,10.541517,57.735037
1035128,Hamiltonvej,9990,38,10.5422,57.734004
1035129,Hamiltonvej,9990,39,10.541838,57.735423
1035130,Hamiltonvej,9990,40,10.542721,57.734057
1035131,Hamiltonvej,9990,41,10.541469,57.735495
1035132,Hamiltonvej,9990,42,10.542756,57.734263
1035133,Hamiltonvej,9990,43,10.54142,57.735747
1035134,Hamiltonvej,9990,44,10.542168,57.734363
1035135,Hamiltonvej,9990,45,10.541739,57.7358
1035136,Hamiltonvej,9990,46,10.542036,57.734722
1035137,Hamiltonvej,9990,48,10.542523,57.734767
1035138,Hamiltonvej,9990,50,10.542524,57.735009
1035139,Hamiltonvej,9990,52,10.542088,57.735018
1035140,Hamiltonvej,9990,54,10.542358,57.735431
1035141,Hamiltonvej,9990,56,10.542393,57.735655
1035142,Hamiltonvej,9990,58,10.542261,57.736006
1035143,Hamiltonvej,9990,60,10.542396,57.736221
1035144,Peter Andersens Vej,9990,31,10.575843,57.728735
1035145,Ankermedet,9990,47,10.582563,57.729783
1035146,Redningsvej,9990,4,10.531431,57.728506
1035147,Redningsvej,9990,6,10.532153,57.728469
1035148,Redningsvej,9990,8,10.532623,57.728576
1035149,Redningsvej,9990,9,10.533397,57.729033
1035150,Redningsvej,9990,10,10.533026,57.728611
1035151,Redningsvej,9990,11,10.533298,57.729365
1035152,Redningsvej,9990,12,10.533547,57.728673
1035153,Redningsvej,9990,13,10.5334,57.729634
1035154,Redningsvej,9990,14,10.534034,57.728745
1035155,Redningsvej,9990,15,10.533301,57.729805
1035156,Redningsvej,9990,16,10.533865,57.728466
1035157,Redningsvej,9990,17,10.533269,57.730272
1035158,Redningsvej,9990,18,10.534335,57.728448
1035159,Redningsvej,9990,19,10.533924,57.730217
1035160,Redningsvej,9990,20,10.534805,57.728492
1035161,Redningsvej,9990,21,10.533956,57.729957
1035162,Redningsvej,9990,22,10.53541,57.728617
1035163,Redningsvej,9990,23,10.533854,57.72967
1035164,Redningsvej,9990,24,10.535377,57.728868
1035165,Redningsvej,9990,25,10.53397,57.729355
1035166,Redningsvej,9990,26,10.534655,57.728798
1035167,Redningsvej,9990,27,10.534036,57.729077
1035168,Redningsvej,9990,28,10.535194,57.729147
1035169,Redningsvej,9990,29,10.53444,57.729355
1035170,Redningsvej,9990,30,10.535732,57.729317
1035171,Redningsvej,9990,31,10.53476,57.729641
1035172,Redningsvej,9990,32,10.536354,57.729496
1035173,Redningsvej,9990,33,10.53518,57.729659
1035174,Redningsvej,9990,34,10.536893,57.730016
1035175,Redningsvej,9990,35,10.534779,57.73009
1035176,Redningsvej,9990,36,10.5374,57.730617
1035177,Redningsvej,9990,37,10.535366,57.729937
1035178,Redningsvej,9990,38,10.537584,57.730598
1035179,Redningsvej,9990,39,10.536055,57.730116
1035180,Redningsvej,9990,40,10.537404,57.731398
1035181,Redningsvej,9990,41,10.536576,57.730339
1035182,Redningsvej,9990,42,10.537254,57.731775
1035183,Redningsvej,9990,44,10.537223,57.732152
1035184,Redningsvej,9990,46,10.53704,57.732529
1035185,Redningsvej,9990,50,10.536874,57.732898
1035186,Redningsvej,9990,52,10.536993,57.733248
1035187,Redningsvej,9990,54,10.536894,57.733634
1035188,Redningsvej,9990,58,10.536711,57.734038
1035189,Redningsvej,9990,62,10.536646,57.734433
1035190,Redningsvej,9990,64,10.533518,57.733082
1035191,Buttervej,9990,27,10.569683,57.725764
1035192,Buttervej,9990,64,10.568554,57.736828
1035193,Bågøvej,9990,1,10.565043,57.727298
1035194,Bågøvej,9990,2,10.565697,57.727324
1035195,Bågøvej,9990,3,10.564606,57.727317
1035196,Bågøvej,9990,4,10.5661,57.72735
1035197,Bågøvej,9990,5,10.56417,57.727273
1035198,Bågøvej,9990,6,10.565951,57.72762
1035199,Bågøvej,9990,7,10.564121,57.727569
1035200,Bågøvej,9990,8,10.565598,57.727531
1035201,Bågøvej,9990,9,10.564557,57.727514
1035202,Bågøvej,9990,10,10.565365,57.727881
1035203,Bågøvej,9990,11,10.564876,57.727577
1035204,Bågøvej,9990,12,10.565684,57.727997
1035205,Bågøvej,9990,13,10.56466,57.728017
1035206,Bågøvej,9990,14,10.565602,57.728231
1035207,Bågøvej,9990,15,10.564342,57.728008
1035208,Bågøvej,9990,16,10.565266,57.728178
1035209,Bågøvej,9990,17,10.563804,57.727991
1035210,Bågøvej,9990,18,10.5651,57.728573
1035211,Bågøvej,9990,19,10.563756,57.728225
1035212,Bågøvej,9990,20,10.565587,57.728707
1035213,Bågøvej,9990,21,10.564225,57.728233
1035214,Bågøvej,9990,22,10.565488,57.728932
1035215,Bågøvej,9990,23,10.564578,57.728224
1035216,Bågøvej,9990,24,10.565051,57.72886
1035217,Bågøvej,9990,25,10.564396,57.728664
1035218,Bågøvej,9990,26,10.56487,57.729399
1035219,Bågøvej,9990,27,10.564009,57.728629
1035220,Bågøvej,9990,28,10.565357,57.729435
1035221,Bågøvej,9990,29,10.56359,57.728629
1035222,Bågøvej,9990,31,10.563153,57.728612
1035223,Bågøvej,9990,33,10.563155,57.728908
1035224,Bågøvej,9990,35,10.563557,57.728863
1035225,Bågøvej,9990,37,10.56396,57.728889
1035226,Bågøvej,9990,39,10.56438,57.728897
1035227,Bågøvej,9990,41,10.564249,57.729356
1035228,Bågøvej,9990,43,10.563846,57.729338
1035229,Bågøvej,9990,45,10.563426,57.729321
1035230,Bågøvej,9990,47,10.563023,57.729286
1035231,Bågøvej,9990,49,10.562991,57.729537
1035232,Bågøvej,9990,51,10.563478,57.729554
1035233,Bågøvej,9990,53,10.563931,57.729554
1035234,Bågøvej,9990,55,10.56435,57.729571
1035235,Bågøvej,9990,57,10.564787,57.729597
1035236,Bågøvej,9990,59,10.56519,57.72965
1035237,Minkvej,9990,3,10.566082,57.73614
1035238,Minkvej,9990,32,10.561789,57.73649
1035239,Minkvej,9990,36,10.560987,57.737558
1035240,Minkvej,9990,38,10.560466,57.737514
1035241,Minkvej,9990,53,10.563158,57.735454
1035242,Minkvej,9990,56,10.560106,57.736195
1035243,Minkvej,9990,86,10.554226,57.738538
1035244,Minkvej,9990,99,10.560087,57.735683
1035245,Minkvej,9990,100,10.552086,57.737033
1035246,Minkvej,9990,104,10.551196,57.736927
1035247,Minkvej,9990,135,10.556943,57.734763
1035248,Minkvej,9990,169,10.555315,57.734954
1035249,Minkvej,9990,171,10.555494,57.733751
1035250,Minkvej,9990,175,10.554586,57.733573
1035251,Minkvej,9990,181,10.553931,57.733412
1035252,Silvervej,9990,1,10.559381,57.735621
1035253,Silvervej,9990,2,10.559011,57.735424
1035254,Silvervej,9990,3,10.559362,57.735074
1035255,Silvervej,9990,5,10.559443,57.734607
1035256,Silvervej,9990,7,10.559626,57.734337
1035257,Silvervej,9990,9,10.56006,57.733887
1035258,Silvervej,9990,10,10.559336,57.733386
1035259,Silvervej,9990,11,10.559856,57.733313
1035260,Håndværkervej,9990,1,10.565748,57.733447
1035261,Håndværkervej,9990,16,10.566012,57.735494
1035262,Safirvej,9990,1,10.562472,57.735913
1035263,Safirvej,9990,2,10.561816,57.735725
1035264,Safirvej,9990,3,10.562285,57.735482
1035265,Safirvej,9990,4,10.561916,57.735501
1035266,Safirvej,9990,6,10.562046,57.734872
1035267,Safirvej,9990,7,10.562248,57.734934
1035268,Safirvej,9990,17,10.561019,57.734254
1035269,Safirvej,9990,21,10.56077,57.734712
1035270,Farmerstien,9990,58,10.563229,57.733092
1035271,Farmerstien,9990,60,10.562983,57.734197
1035272,Farmerstien,9990,93,10.563706,57.731421
1035273,Farmerstien,9990,101,10.559446,57.732128
1035274,Farmerstien,9990,125,10.559916,57.731966
1035275,Batterivej,9990,15,10.599766,57.742501
1035276,Gæstgiverstien,9990,15,10.594372,57.723513
1035277,Jens Bergs Vej,9990,2A,10.525454,57.727984
1035278,Jens Bergs Vej,9990,2B,10.525605,57.72793
1035279,Jens Bergs Vej,9990,2C,10.525235,57.727697
1035280,Jens Bergs Vej,9990,3A,10.525907,57.72792
1035281,Jens Bergs Vej,9990,3B,10.52641,57.727884
1035282,Jens Bergs Vej,9990,4,10.525587,57.727714
1035283,Jens Bergs Vej,9990,5A,10.525939,57.727696
1035284,Jens Bergs Vej,9990,5B,10.525939,57.727642
1035285,Jens Bergs Vej,9990,5C,10.526124,57.727749
1035286,Jens Bergs Vej,9990,5D,10.526527,57.727722
1035287,Jens Bergs Vej,9990,5E,10.5271376,57.7276696
1035288,Jens Bergs Vej,9990,6,10.525452,57.727436
1035289,Jens Bergs Vej,9990,7A,10.527218,57.727451
1035290,Jens Bergs Vej,9990,7B,10.526625,57.727428
1035291,Jens Bergs Vej,9990,7C,10.525989,57.727435
1035292,Jens Bergs Vej,9990,8,10.525617,57.726888
1035293,Jens Bergs Vej,9990,9,10.526373,57.727165
1035294,Jens Bergs Vej,9990,10,10.525936,57.726834
1035295,Jens Bergs Vej,9990,11,10.52728,57.727245
1035296,Jens Bergs Vej,9990,12,10.526321,57.726618
1035297,Jens Bergs Vej,9990,14,10.525918,57.726582
1035298,Jens Bergs Vej,9990,16,10.525615,57.726565
1035299,Jeckelsvej,9990,2,10.521779,57.728114
1035300,Jeckelsvej,9990,3,10.522198,57.727925
1035301,Jeckelsvej,9990,5,10.522616,57.727565
1035302,Jeckelsvej,9990,6,10.521911,57.727593
1035303,Jeckelsvej,9990,7,10.523571,57.727142
1035304,Jeckelsvej,9990,8,10.521927,57.727423
1035305,Jeckelsvej,9990,9,10.524007,57.72716
1035306,Jeckelsvej,9990,10,10.522243,57.726713
1035307,Jeckelsvej,9990,11,10.524359,57.727186
1035308,Jeckelsvej,9990,12A,10.522646,57.726748
1035309,Jeckelsvej,9990,12B,10.522696,57.726596
1035310,Jeckelsvej,9990,16,10.523388,57.726756
1035311,Jeckelsvej,9990,18,10.523888,57.726836
1035312,Jeckelsvej,9990,20,10.524341,57.7268
1035313,Jeckelsvej,9990,22,10.524727,57.726764
1035314,Chr. Møllers Vej,9990,3,10.520703,57.727765
1035315,Chr. Møllers Vej,9990,4,10.521512,57.728545
1035316,Chr. Møllers Vej,9990,6A,10.52136,57.728285
1035317,Chr. Møllers Vej,9990,6B,10.521277,57.728474
1035318,Chr. Møllers Vej,9990,6C,10.521193,57.72851
1035319,Chr. Møllers Vej,9990,6D,10.521159,57.728456
1035320,Chr. Møllers Vej,9990,6E,10.521076,57.728492
1035321,Chr. Møllers Vej,9990,6F,10.521025,57.728438
1035322,Chr. Møllers Vej,9990,6G,10.520941,57.728474
1035323,Chr. Møllers Vej,9990,7,10.519948,57.727757
1035324,Chr. Møllers Vej,9990,8A,10.520438,57.728601
1035325,Chr. Møllers Vej,9990,8B,10.520555,57.72834
1035326,Chr. Møllers Vej,9990,8C,10.52037,57.728313
1035327,Chr. Møllers Vej,9990,10,10.519933,57.728251
1035328,Chr. Møllers Vej,9990,10A,10.519515,57.728575
1035329,Chr. Møllers Vej,9990,12,10.519915,57.727973
1035330,Jens Rasmussens Vej,9990,2,10.523457,57.728031
1035331,Jens Rasmussens Vej,9990,4,10.523088,57.727987
1035332,Jens Rasmussens Vej,9990,6,10.52354,57.727869
1035333,Jens Rasmussens Vej,9990,8,10.523589,57.727573
1035334,Jens Rasmussens Vej,9990,12,10.524042,57.727447
1035335,Jens Rasmussens Vej,9990,14,10.524293,57.727437
1035336,Jens Rasmussens Vej,9990,16,10.525132,57.727257
1035337,Jens Rasmussens Vej,9990,18,10.524999,57.727472
1035338,Jens Rasmussens Vej,9990,20,10.524027,57.727815
1035339,Jens Rasmussens Vej,9990,22A,10.52448,57.727859
1035340,Jens Rasmussens Vej,9990,22B,10.524697,57.727679
1035341,Jens Rasmussens Vej,9990,24A,10.525001,57.727975
1035342,Hedebovej,9990,1,10.568262,57.729789
1035343,Hedebovej,9990,26,10.565966,57.730403
1035344,Nordsøvej,9990,1,10.558716,57.727479
1035345,Nordsøvej,9990,2,10.562353,57.726476
1035346,Nordsøvej,9990,3,10.556811,57.728936
1035347,Nordsøvej,9990,5,10.555688,57.729189
1035348,Nordsøvej,9990,7,10.548941,57.729271
1035349,Nordsøvej,9990,9,10.542898,57.729235
1035350,Bogfinkevej,9990,9,10.577603,57.731246
1035351,Nansbovej,9990,1,10.531631,57.728218
1035352,Nansbovej,9990,3,10.531292,57.728908
1035353,Nansbovej,9990,4,10.53197,57.7289
1035354,Nansbovej,9990,5,10.53127,57.729315
1035355,Nansbovej,9990,6,10.532442,57.729303
1035356,Nansbovej,9990,8,10.532461,57.729654
1035357,Nansbovej,9990,9,10.530734,57.730123
1035358,Nansbovej,9990,10,10.531572,57.729897
1035359,Nansbovej,9990,11,10.530671,57.731003
1035360,Nansbovej,9990,12,10.532295,57.730228
1035361,Nansbovej,9990,13,10.530404,57.731353
1035362,Nansbovej,9990,14,10.531407,57.730481
1035363,Nansbovej,9990,15,10.531311,57.731505
1035364,Nansbovej,9990,16,10.53156,57.730912
1035365,Nansbovej,9990,18,10.532483,57.730928
1035366,Nansbovej,9990,20,10.533304,57.73064
1035367,Nansbovej,9990,22,10.533927,57.731007
1035368,Nansbovej,9990,22B,10.534445,57.730558
1035369,Nansbovej,9990,24,10.535001,57.73097
1035370,Nansbovej,9990,26,10.535873,57.730717
1035371,Nansbovej,9990,28,10.536813,57.730662
1035372,Havbakken,9990,1,10.528151,57.730414
1035373,Havbakken,9990,2,10.524389,57.72996
1035374,Havbakken,9990,3,10.528923,57.730592
1035375,Havbakken,9990,5,10.529595,57.730555
1035376,Havbakken,9990,6,10.52563,57.729761
1035377,Havbakken,9990,7,10.530284,57.730815
1035378,Havbakken,9990,8,10.526066,57.729725
1035379,Havbakken,9990,10,10.52652,57.72994
1035380,Havbakken,9990,14,10.527561,57.73001
1035381,Havbakken,9990,16,10.528652,57.730036
1035382,Havbakken,9990,18,10.529257,57.730071
1035383,Havbakken,9990,20,10.530096,57.730079
1035384,Niels Ottesens Vej,9990,1,10.525574,57.728486
1035385,Niels Ottesens Vej,9990,2,10.525943,57.728414
1035386,Niels Ottesens Vej,9990,4A,10.525893,57.728594
1035387,Niels Ottesens Vej,9990,4B,10.526346,57.728593
1035388,Niels Ottesens Vej,9990,5,10.524552,57.728892
1035389,Niels Ottesens Vej,9990,7,10.524351,57.729009
1035390,Niels Ottesens Vej,9990,8,10.525375,57.728998
1035391,Niels Ottesens Vej,9990,9,10.524285,57.729296
1035392,Niels Ottesens Vej,9990,11,10.524,57.72927
1035393,Niels Ottesens Vej,9990,12,10.524739,57.729376
1035394,Niels Ottesens Vej,9990,14,10.525125,57.729349
1035395,Niels Ottesens Vej,9990,15,10.523767,57.729719
1035396,Niels Ottesens Vej,9990,16,10.524454,57.729547
1035397,Niels Ottesens Vej,9990,17,10.523684,57.730069
1035398,Niels Ottesens Vej,9990,18,10.524203,57.729736
1035399,Doktorstien,9990,1,10.53039,57.728265
1035400,Doktorstien,9990,2,10.53086,57.728408
1035401,Doktorstien,9990,3,10.530173,57.728507
1035402,Doktorstien,9990,4,10.530258,57.728812
1035403,Doktorstien,9990,5,10.529403,57.72893
1035404,Doktorstien,9990,5A,10.529454,57.729209
1035405,Doktorstien,9990,6,10.530277,57.729217
1035406,Doktorstien,9990,7,10.52917,57.729424
1035407,Doktorstien,9990,9,10.529591,57.72972
1035408,Doktorstien,9990,11,10.528936,57.729658
1035409,Vesterhede,9990,1,10.539048,57.727759
1035410,Vesterhede,9990,2,10.539467,57.727731
1035411,Vesterhede,9990,3A,10.538546,57.728182
1035412,Vesterhede,9990,3B,10.538866,57.728343
1035413,Vesterhede,9990,4,10.539285,57.728199
1035414,Vesterhede,9990,4A,10.539737,57.72809
1035415,Vesterhede,9990,5,10.538632,57.728568
1035416,Vesterhede,9990,6,10.539303,57.728504
1035417,Vesterhede,9990,7,10.538465,57.728846
1035418,Vesterhede,9990,8,10.539406,57.729087
1035419,Vesterhede,9990,10,10.539325,57.729501
1035420,Vesterhede,9990,11,10.538654,57.7296
1035421,Vesterhede,9990,12,10.539126,57.73012
1035422,Østerklit,9990,4,10.539739,57.728467
1035423,Østerklit,9990,6,10.540426,57.728296
1035424,Østerklit,9990,8,10.540411,57.728529
1035425,Østerklit,9990,10,10.540244,57.728808
1035426,Østerklit,9990,12,10.540295,57.72896
1035427,Østerklit,9990,14,10.540095,57.729203
1035428,Østerklit,9990,16,10.539962,57.729491
1035429,Østerklit,9990,18,10.539947,57.729742
1035430,Østerklit,9990,20,10.539931,57.72994
1035431,Østerklit,9990,22,10.539915,57.730182
1035432,Munkeklit,9990,1,10.535151,57.727208
1035433,Munkeklit,9990,2,10.535169,57.727378
1035434,Munkeklit,9990,3,10.534832,57.727181
1035435,Munkeklit,9990,4,10.5348,57.727397
1035436,Munkeklit,9990,5,10.53448,57.7272
1035437,Munkeklit,9990,6,10.534464,57.727415
1035438,Munkeklit,9990,7,10.53406,57.727227
1035439,Munkeklit,9990,8,10.534112,57.727541
1035440,Havstien,9990,1,10.526834,57.728727
1035441,Havstien,9990,2B,10.527186,57.728736
1035442,Havstien,9990,3,10.526448,57.72888
1035443,Havstien,9990,4,10.527154,57.72896
1035444,Havstien,9990,5,10.526568,57.729302
1035445,Havstien,9990,8,10.528262,57.729183
1035446,Havstien,9990,9,10.526636,57.729482
1035447,Havstien,9990,10,10.527726,57.729426
1035448,Havstien,9990,11,10.52672,57.729661
1035449,Havstien,9990,12,10.5272534,57.7294448
1035450,Havstien,9990,16,10.527241,57.72966
1035451,Strandfogedvej,9990,2,10.526507,57.72695
1035452,Strandfogedvej,9990,4A,10.526775,57.726949
1035453,Strandfogedvej,9990,4B,10.526875,57.726824
1035454,Strandfogedvej,9990,5,10.527263,57.727128
1035455,Strandfogedvej,9990,6,10.527093,57.726572
1035456,Strandfogedvej,9990,7,10.527379,57.726967
1035457,Strandfogedvej,9990,8,10.527595,57.726481
1035458,Strandfogedvej,9990,9,10.527463,57.726796
1035459,Strandfogedvej,9990,10,10.528082,57.726553
1035460,Strandfogedvej,9990,12,10.529472,57.725698
1035461,Søstjernevej,9990,1A,10.539581,57.730452
1035462,Søstjernevej,9990,1B,10.538726,57.73074
1035463,Søstjernevej,9990,2,10.539398,57.730739
1035464,Søstjernevej,9990,3,10.538273,57.730741
1035465,Søstjernevej,9990,4,10.539433,57.731099
1035466,Søstjernevej,9990,5,10.538157,57.731073
1035467,Søstjernevej,9990,6,10.539384,57.731413
1035468,Søstjernevej,9990,7,10.538628,57.731171
1035469,Søstjernevej,9990,8,10.539268,57.731754
1035470,Søstjernevej,9990,9,10.538747,57.731441
1035471,Søstjernevej,9990,10,10.539052,57.731997
1035472,Søstjernevej,9990,11,10.538126,57.731451
1035473,Søstjernevej,9990,12,10.539271,57.732356
1035474,Søstjernevej,9990,13,10.537993,57.731729
1035475,Søstjernevej,9990,14,10.538684,57.732375
1035476,Søstjernevej,9990,15,10.538547,57.731737
1035477,Søstjernevej,9990,16,10.538501,57.732662
1035478,Søstjernevej,9990,17,10.538011,57.73207
1035479,Søstjernevej,9990,18,10.539156,57.73276
1035480,Søstjernevej,9990,19,10.537912,57.73234
1035481,Søstjernevej,9990,20,10.53909,57.733065
1035482,Søstjernevej,9990,21,10.537812,57.732618
1035483,Søstjernevej,9990,22,10.538553,57.733012
1035484,Søstjernevej,9990,23,10.53773,57.732924
1035485,Søstjernevej,9990,24,10.538454,57.733399
1035486,Søstjernevej,9990,25,10.537765,57.733193
1035487,Søstjernevej,9990,26,10.539008,57.733434
1035488,Blåmunkevej,9990,4,10.527904,57.727837
1035489,Blåmunkevej,9990,6,10.528037,57.727693
1035490,Blåmunkevej,9990,8,10.527885,57.727334
1035491,Blåmunkevej,9990,10,10.528069,57.727235
1035492,Blåmunkevej,9990,12,10.528168,57.726939
1035493,Blåmunkevej,9990,14,10.528016,57.726723
1035494,Kaptajnstien,9990,4,10.528514,57.729057
1035495,Kaptajnstien,9990,5,10.528948,57.728536
1035496,Kaptajnstien,9990,7,10.528596,57.728653
1035497,Kaptajnstien,9990,9,10.528126,57.72877
1035498,Gammel Skolevej,9990,2,10.524668,57.728568
1035499,Gammel Skolevej,9990,3,10.524249,57.728686
1035500,Søndervænget,9990,1,10.53022,57.727825
1035501,Søndervænget,9990,2,10.529834,57.727834
1035502,Søndervænget,9990,3,10.530336,57.727564
1035503,Søndervænget,9990,4,10.529496,57.727386
1035504,Søndervænget,9990,5,10.52995,57.727529
1035505,Søndervænget,9990,6,10.529562,57.727134
1035506,Søndervænget,9990,7,10.530335,57.727205
1035507,Søndervænget,9990,8,10.529645,57.72691
1035508,Søndervænget,9990,9,10.530199,57.726954
1035509,Søndervænget,9990,10,10.529594,57.726712
1035510,Søndervænget,9990,11,10.53045,57.726756
1035511,Søndervænget,9990,13,10.53008,57.726649
1035512,Vandrerstien,9990,7,10.529175,57.726973
1035513,Vandrerstien,9990,9,10.529191,57.726686
1035514,Vandrerstien,9990,10,10.528654,57.72683
1035515,Vandrerstien,9990,12,10.52867,57.72657
1035516,Kikkerbakken,9990,3,10.521487,57.726597
1035517,Kikkerbakken,9990,4,10.521034,57.726553
1035518,Kikkerbakken,9990,5,10.522105,57.725986
1035519,Kikkerbakken,9990,6A,10.52053,57.726401
1035520,Kikkerbakken,9990,6B,10.520462,57.726257
1035521,Kikkerbakken,9990,8,10.521082,57.72614
1035522,Kikkerbakken,9990,10,10.521165,57.725879
1035523,Kikkerbakken,9990,12,10.521347,57.725367
1035524,Sønderhede,9990,1,10.535824,57.727566
1035525,Sønderhede,9990,2A,10.535317,57.726714
1035526,Sønderhede,9990,2B,10.535264,57.726319
1035527,Sønderhede,9990,2C,10.534845,57.726301
1035528,Sønderhede,9990,2D,10.534475,57.726293
1035529,Sønderhede,9990,4,10.534289,57.725925
1035530,Sønderhede,9990,5,10.536523,57.72638
1035531,Sønderhede,9990,6,10.534659,57.725924
1035532,Sønderhede,9990,7,10.537497,57.726414
1035533,Sønderhede,9990,8,10.535028,57.725969
1035534,Sønderhede,9990,10,10.535514,57.725941
1035535,Sønderhede,9990,12,10.536018,57.72594
1035536,Sønderhede,9990,14,10.536555,57.726003
1035537,Sønderhede,9990,16,10.537361,57.726073
1035538,Sønderhede,9990,18,10.537983,57.726171
1035539,Sønderhede,9990,20,10.53852,57.726206
1035540,Sønderhede,9990,22,10.538906,57.72617
1035541,Sommervej,9990,1,10.522439,57.72937
1035542,Sommervej,9990,3,10.522943,57.729513
1035543,Sommervej,9990,5,10.522926,57.729244
1035544,Sommervej,9990,8,10.523645,57.728803
1035545,Sommervej,9990,9,10.523512,57.729073
1035546,Sommervej,9990,11,10.523698,57.72927
1035547,Dommerstien,9990,6,10.520909,57.728744
1035548,Hans Ruths Vej,9990,1,10.52164,57.72701
1035549,Hans Ruths Vej,9990,2,10.521909,57.727189
1035550,Hans Ruths Vej,9990,3,10.520834,57.726903
1035551,Hans Ruths Vej,9990,4,10.520533,57.727182
1035552,Hans Ruths Vej,9990,5,10.520482,57.727011
1035553,Hans Ruths Vej,9990,7,10.520313,57.726688
1035554,Hans Ruths Vej,9990,9,10.51976,57.726976
1035555,Hans Ruths Vej,9990,11,10.519725,57.726725
1035556,Hans Ruths Vej,9990,12,10.518436,57.727292
1035557,Hans Ruths Vej,9990,13,10.519808,57.726465
1035558,Hans Ruths Vej,9990,14,10.51843,57.726863
1035559,Hans Ruths Vej,9990,15,10.520108,57.725988
1035560,Hans Ruths Vej,9990,16,10.518251,57.726683
1035561,Hans Ruths Vej,9990,17,10.519873,57.72598
1035562,Hans Ruths Vej,9990,19,10.519324,57.726941
1035563,Hans Ruths Vej,9990,23,10.519322,57.726564
1035564,Hans Ruths Vej,9990,25,10.519136,57.726313
1035565,Hans Ruths Vej,9990,27,10.519454,57.726142
1035566,Hans Ruths Vej,9990,29,10.519018,57.726097
1035567,Hans Ruths Vej,9990,31,10.518619,57.726271
1035568,Klitstien,9990,1,10.529938,57.728553
1035569,Klitstien,9990,2,10.529569,57.728652
1035570,Klitstien,9990,3,10.529953,57.728247
1035571,Klitstien,9990,4,10.529501,57.728445
1035572,Klitstien,9990,6,10.529416,57.728293
1035573,Solnedgangen,9990,2,10.521868,57.729263
1035574,Søkongevej,9990,1,10.535792,57.731436
1035575,Søkongevej,9990,2,10.536615,57.731372
1035576,Søkongevej,9990,3,10.53571,57.731777
1035577,Søkongevej,9990,4,10.536516,57.731803
1035578,Søkongevej,9990,5,10.535544,57.732145
1035579,Søkongevej,9990,6,10.536366,57.732117
1035580,Søkongevej,9990,7,10.535563,57.732558
1035581,Søkongevej,9990,8,10.536352,57.732737
1035582,Søkongevej,9990,9,10.535431,57.733008
1035583,Søkongevej,9990,10,10.536203,57.73315
1035584,Søkongevej,9990,11,10.535264,57.733187
1035585,Søkongevej,9990,12,10.53597,57.733402
1035586,Bakkevej,9990,1,10.525777,57.728836
1035587,Bakkevej,9990,2,10.526012,57.728764
1035588,Bakkevej,9990,3,10.525712,57.729384
1035589,Bakkevej,9990,4,10.52608,57.72915
1035590,Bakkevej,9990,5,10.52578,57.729528
1035591,Vesterklit,9990,2,10.537774,57.728138
1035592,Vesterklit,9990,3,10.53707,57.728345
1035593,Vesterklit,9990,4,10.537808,57.728264
1035594,Vesterklit,9990,5,10.537004,57.728624
1035595,Vesterklit,9990,7,10.537006,57.729001
1035596,Vesterklit,9990,9,10.537008,57.729369
1035597,Vesterklit,9990,12,10.537864,57.729529
1035598,Vesterklit,9990,14,10.5378,57.730041
1035599,Vesterklit,9990,16,10.537818,57.730293
1035600,Damstedvej,9990,26,10.566635,57.715013
1035601,Damstedvej,9990,34,10.565106,57.714593
1035602,Damstedvej,9990,36,10.561676,57.710244
1035603,Damstedvej,9990,39,10.564756,57.712547
1035604,Damstedvej,9990,42,10.560852,57.709814
1035605,Damstedvej,9990,48,10.559742,57.709223
1035606,Damstedvej,9990,50,10.558934,57.708767
1035607,Damstedvej,9990,54,10.557791,57.708311
1035608,Damstedvej,9990,56,10.557186,57.708123
1035609,Damstedvej,9990,58,10.556413,57.707819
1035610,Damstedvej,9990,62,10.554496,57.707077
1035611,Damstedvej,9990,64,10.553587,57.706422
1035612,Sovkrogsvej,9990,15P,10.561741,57.72214
1035613,Havnevej,9990,9A,10.589576,57.721295
1035614,Havnevej,9990,9B,10.589643,57.72133
1035615,Klitrosevej,9990,1,10.519728,57.727255
1035616,Klitrosevej,9990,3,10.519308,57.727309
1035617,Klitrosevej,9990,4,10.520114,57.727407
1035618,Klitrosevej,9990,5,10.518755,57.727346
1035619,Klitrosevej,9990,6,10.519594,57.72747
1035620,Klitrosevej,9990,8,10.518723,57.727875
1035621,Klitrosevej,9990,10,10.51889,57.727606
1035622,Klitrosevej,9990,12,10.518621,57.727543
1035623,Klitrosevej,9990,14,10.518319,57.727499
1035624,Kunstnerstien,9990,5A,10.522458,57.726003
1035625,Kunstnerstien,9990,5B,10.522407,57.725914
1035626,Drachmannsvej,9990,36,10.565923,57.722727
1035627,Harestien,9990,1,10.524024,57.72346
1035628,Harestien,9990,2,10.523419,57.723236
1035629,Harestien,9990,3,10.524189,57.72276
1035630,Harestien,9990,4,10.523266,57.722779
1035631,Harestien,9990,5,10.524237,57.722221
1035632,Harestien,9990,6,10.523415,57.722321
1035633,Strandløbervej,9990,1,10.533644,57.731511
1035634,Strandløbervej,9990,2,10.534685,57.731527
1035635,Strandløbervej,9990,3,10.533797,57.731879
1035636,Strandløbervej,9990,4,10.534502,57.731878
1035637,Strandløbervej,9990,5,10.533362,57.732229
1035638,Strandløbervej,9990,6,10.534404,57.73238
1035639,Strandløbervej,9990,7,10.533699,57.732498
1035640,Strandløbervej,9990,8,10.534389,57.732749
1035641,Øresundsvej,9990,2,10.562463,57.72521
1035642,Øresundsvej,9990,3,10.562431,57.725551
1035643,Øresundsvej,9990,4,10.563117,57.725056
1035644,Øresundsvej,9990,5,10.563874,57.725468
1035645,Øresundsvej,9990,6,10.563604,57.725092
1035646,Øresundsvej,9990,9,10.564629,57.725413
1035647,Øresundsvej,9990,10A,10.564023,57.724974
1035648,Øresundsvej,9990,10B,10.564241,57.724992
1035649,Øresundsvej,9990,10C,10.564476,57.725
1035650,Øresundsvej,9990,11B,10.565923,57.725707
1035651,Øresundsvej,9990,12,10.565182,57.725188
1035652,Øresundsvej,9990,13,10.565992,57.726039
1035653,Øresundsvej,9990,14,10.565467,57.725196
1035654,Øresundsvej,9990,16,10.566323,57.725159
1035655,Øresundsvej,9990,18,10.566759,57.725096
1035656,Gammel Landevej,9990,10,10.55293,57.725072
1035657,Gammel Landevej,9990,30,10.551732,57.723763
1035658,Gammel Landevej,9990,32,10.551378,57.723413
1035659,Gammel Landevej,9990,34,10.543145,57.721486
1035660,Gammel Landevej,9990,36,10.546673,57.722208
1035661,Gammel Landevej,9990,43,10.552356,57.721212
1035662,Gammel Landevej,9990,45,10.551906,57.721698
1035663,Gammel Landevej,9990,47,10.552298,57.7229077
1035664,Gammel Landevej,9990,47A,10.5524141,57.7227337
1035665,Gammel Landevej,9990,48,10.537909,57.717947
1035666,Gammel Landevej,9990,49,10.550114,57.722347
1035667,Gammel Landevej,9990,63,10.543578,57.714078
1035668,Skolevej,9990,14,10.588562,57.722913
1035669,Tuxens Alle,9990,7,10.56921,57.716481
1035670,Nordkajen,9990,3V,10.586166,57.717961
1035671,Nordkajen,9990,5V,10.585998,57.717952
1035672,Kalvebodvej,9990,4,10.564766,57.725763
1035673,Kalvebodvej,9990,5A,10.564162,57.725845
1035674,Kalvebodvej,9990,5B,10.564145,57.725899
1035675,Kalvebodvej,9990,5C,10.563961,57.72589
1035676,Kalvebodvej,9990,5D,10.563928,57.726007
1035677,Kalvebodvej,9990,5E,10.564129,57.726016
1035678,Kalvebodvej,9990,6,10.564649,57.726024
1035679,Engklitvej,9990,1,10.528221,57.723895
1035680,Engklitvej,9990,2,10.529446,57.723759
1035681,Engklitvej,9990,3,10.528675,57.72402
1035682,Engklitvej,9990,5,10.529802,57.724485
1035683,Engklitvej,9990,6,10.530167,57.72374
1035684,Engklitvej,9990,8,10.530537,57.723793
1035685,Engklitvej,9990,10,10.531662,57.723944
1035686,Engklitvej,9990,12,10.532193,57.722606
1035687,Engklitvej,9990,13,10.532219,57.724662
1035688,Engklitvej,9990,14,10.533152,57.723296
1035689,Engklitvej,9990,16,10.533056,57.724131
1035690,Engklitvej,9990,18,10.533728,57.724292
1035691,Engklitvej,9990,20,10.534199,57.724569
1035692,Engklitvej,9990,22A,10.534468,57.724704
1035693,Engklitvej,9990,24,10.535425,57.724792
1035694,Engklitvej,9990,30,10.53638,57.724387
1035695,Engklitvej,9990,32,10.537103,57.724763
1035696,Engklitvej,9990,34,10.537791,57.724798
1035697,Engklitvej,9990,36,10.538194,57.724779
1035698,Engklitvej,9990,39,10.538699,57.725093
1035699,Engklitvej,9990,40,10.540074,57.724857
1035700,Engklitvej,9990,42,10.540994,57.724255
1035701,Engklitvej,9990,48,10.542371,57.72436
1035702,Engklitvej,9990,52,10.542794,57.72506
1035703,Engklitvej,9990,58,10.543381,57.725095
1035704,Frederikshavnsvej,9990,29,10.558722,57.725422
1035705,Frederikshavnsvej,9990,39,10.545313,57.72555
1035706,Frederikshavnsvej,9990,99,10.523548,57.710666
1035707,Frederikshavnsvej,9990,200,10.488404,57.701431
1035708,Østersøvej,9990,1,10.566684,57.726631
1035709,Østersøvej,9990,3,10.566417,57.726973
1035710,Østersøvej,9990,18,10.566104,57.729374
1035711,Østersøvej,9990,20,10.56599,57.729684
1035712,Lars Bødkers Vej,9990,13,10.57816,57.720533
1035713,Rævehulevej,9990,1,10.527074,57.722469
1035714,Rævehulevej,9990,3,10.526543,57.723789
1035715,Rævehulevej,9990,8,10.524549,57.724564
1035716,Rævehulevej,9990,10,10.523758,57.723936
1035717,Rævehulevej,9990,12,10.523206,57.724458
1035718,Rævehulevej,9990,14,10.522329,57.72348
1035719,Rævehulevej,9990,15,10.522328,57.723157
1035720,Rævehulevej,9990,16,10.521492,57.723823
1035721,Rævehulevej,9990,17,10.521338,57.723114
1035722,Rævehulevej,9990,18,10.520921,57.72377
1035723,Rævehulevej,9990,19,10.520529,57.722513
1035724,Rævehulevej,9990,20,10.520384,57.723797
1035725,Rævehulevej,9990,21,10.519439,57.72264
1035726,Rævehulevej,9990,22,10.519728,57.723457
1035727,Rævehulevej,9990,23,10.518315,57.722722
1035728,Rævehulevej,9990,24,10.51899,57.723646
1035729,Rævehulevej,9990,25,10.517493,57.722714
1035730,Rævehulevej,9990,26,10.51832,57.723943
1035731,Rævehulevej,9990,27,10.516691,57.723604
1035732,Rævehulevej,9990,28,10.51755,57.724187
1035733,Rævehulevej,9990,29,10.514003,57.722808
1035734,Rævehulevej,9990,30,10.516579,57.724798
1035735,Rævehulevej,9990,32,10.514679,57.723966
1035736,Rævehulevej,9990,33,10.513099,57.723321
1035737,Rævehulevej,9990,34,10.512314,57.724346
1035738,Drogden,9990,1,10.56683,57.725832
1035739,Drogden,9990,2,10.567214,57.725427
1035740,Kattegatvej,9990,1,10.563243,57.72669
1035741,Kattegatvej,9990,3,10.563711,57.726366
1035742,Kattegatvej,9990,4,10.563272,57.725846
1035743,Kattegatvej,9990,5,10.564181,57.726384
1035744,Kattegatvej,9990,7,10.565408,57.726669
1035745,Kattegatvej,9990,16,10.569015,57.726457
1035746,Solvej,9990,1,10.532217,57.731459
1035747,Solvej,9990,2,10.532922,57.731494
1035748,Solvej,9990,3A,10.531934,57.731845
1035749,Solvej,9990,3B,10.531968,57.731962
1035750,Solvej,9990,4,10.532623,57.732185
1035751,Kandestedvej,9990,1,10.456809,57.65687
1035752,Kandestedvej,9990,2,10.456677,57.657759
1035753,Kandestedvej,9990,19,10.456808,57.656304
1035754,Kandestedvej,9990,20,10.454315,57.657527
1035755,Kandestedvej,9990,33,10.455048,57.656
1035756,Kandestedvej,9990,43,10.454714,57.65662
1035757,Kandestedvej,9990,46,10.449404,57.656336
1035758,Kandestedvej,9990,51,10.453307,57.656513
1035759,Kandestedvej,9990,53,10.452569,57.656235
1035760,Kandestedvej,9990,55,10.450691,57.655177
1035761,Kandestedvej,9990,57,10.449618,57.654729
1035762,Kandestedvej,9990,59,10.450172,57.655303
1035763,Kandestedvej,9990,65P,10.450526,57.656111
1035764,Kandestedvej,9990,66,10.447965,57.65693
1035765,Kandestedvej,9990,75,10.446352,57.654992
1035766,Kandestedvej,9990,76,10.446958,57.656284
1035767,Kandestedvej,9990,85,10.445532,57.655217
1035768,Kandestedvej,9990,87,10.444945,57.654939
1035769,Kandestedvej,9990,100,10.44411,57.656071
1035770,Kandestedvej,9990,105,10.442197,57.65433
1035771,Kandestedvej,9990,118,10.441042,57.655004
1035772,Kandestedvej,9990,120,10.435654,57.666114
1035773,Kandestedvej,9990,129,10.44159,57.652651
1035774,Kandestedvej,9990,148,10.435447,57.654504
1035775,Kandestedvej,9990,159,10.440433,57.652203
1035776,Kandestedvej,9990,172,10.432248,57.654668
1035777,Kandestedvej,9990,201,10.439559,57.650461
1035778,Kandestedvej,9990,262,10.420653,57.657121
1035779,Kandestedvej,9990,264,10.420477,57.657313
1035780,Kandestedvej,9990,289,10.425732,57.6527851
1035781,Kandestedvej,9990,291,10.425868,57.652958
1035782,Kandestedvej,9990,302,10.416037,57.656444
1035783,Kandestedvej,9990,307,10.423149,57.653843
1035784,Kandestedvej,9990,335,10.423349,57.651611
1035785,Kandestedvej,9990,341,10.421878,57.653775
1035786,Kandestedvej,9990,343,10.421276,57.653883
1035787,Kandestedvej,9990,367,10.417742,57.654558
1035788,Kandestedvej,9990,393,10.41421,57.65596
1035789,Kandestedvej,9990,399,10.396442,57.660914
1035790,Kandestedvej,9990,452,10.392372,57.662055
1035791,Kandestedvej,9990,454A,10.391451,57.662226
1035792,Kandestedvej,9990,454B,10.391753,57.662594
1035793,Kandestedvej,9990,456,10.390714,57.662468
1035794,Kandestedvej,9990,460,10.386626,57.662712
1035795,Kandestedvej,9990,470,10.380444,57.661967
1035796,Kandestedvej,9990,531,10.386425,57.661787
1035797,Kandestedvej,9990,535,10.385151,57.661607
1035798,Kandestedvej,9990,537,10.384666,57.661832
1035799,Kandestedvej,9990,539,10.384012,57.661832
1035800,Kandestedvej,9990,989,10.364863,57.651356
1035801,Kandestedvej,9990,999,10.352252,57.647791
1035802,Hulsigvej,9990,2,10.459574,57.657478
1035803,Hulsigvej,9990,2A,10.458686,57.657218
1035804,Hulsigvej,9990,4,10.461838,57.658401
1035805,Hulsigvej,9990,8,10.462528,57.659442
1035806,Hulsigvej,9990,10,10.462838,57.659332
1035807,Hulsigvej,9990,12,10.462847,57.659756
1035808,Hulsigvej,9990,17,10.461269,57.658429
1035809,Hulsigvej,9990,18,10.4628811,57.6600999
1035810,Hulsigvej,9990,19,10.459847,57.658745
1035811,Hulsigvej,9990,20,10.462614,57.660412
1035812,Hulsigvej,9990,21,10.461454,57.658788
1035813,Hulsigvej,9990,21A,10.461521,57.658653
1035814,Hulsigvej,9990,22,10.462431,57.6607
1035815,Hulsigvej,9990,23,10.461555,57.658949
1035816,Hulsigvej,9990,25,10.461857,57.659093
1035817,Hulsigvej,9990,26,10.462082,57.661696
1035818,Hulsigvej,9990,27,10.461925,57.659272
1035819,Hulsigvej,9990,28,10.461831,57.661993
1035820,Hulsigvej,9990,29,10.462026,57.659443
1035821,Hulsigvej,9990,30,10.461698,57.662271
1035822,Hulsigvej,9990,31,10.46216,57.659631
1035823,Hulsigvej,9990,32,10.461565,57.662496
1035824,Hulsigvej,9990,33,10.462378,57.659838
1035825,Hulsigvej,9990,37,10.462145,57.660305
1035826,Hulsigvej,9990,39,10.462029,57.660655
1035827,Hulsigvej,9990,41,10.461428,57.661311
1035828,Hulsigvej,9990,75,10.458553,57.664079
1035829,Hulsigvej,9990,79,10.457063,57.664591
1035830,Tranevej,9990,56,10.461982,57.655959
1035831,Tranevej,9990,58,10.462285,57.6563
1035832,Tranevej,9990,60,10.462386,57.656623
1035833,Tranevej,9990,63,10.460289,57.655475
1035834,Tranevej,9990,64,10.462238,57.657342
1035835,Tranevej,9990,66,10.46254,57.657584
1035836,Tranevej,9990,67,10.460979,57.656355
1035837,Tranevej,9990,68A,10.464952,57.65777
1035838,Tranevej,9990,68B,10.464434,57.658103
1035839,Tranevej,9990,70,10.462843,57.658068
1035840,Tranevej,9990,98,10.463415,57.658966
1035841,Tranevej,9990,99,10.45749,57.667635
1035842,Tranevej,9990,106,10.464589,57.659719
1035843,Tranevej,9990,108,10.465412,57.660428
1035844,Tranevej,9990,120,10.464895,57.661209
1035845,Tranevej,9990,167,10.467853,57.664547
1035846,Tranevej,9990,168,10.46852,57.663541
1035847,Tranevej,9990,169,10.46834,57.664789
1035848,Tranevej,9990,171,10.468877,57.665031
1035849,Tranevej,9990,175,10.47047,57.665667
1035850,Tranevej,9990,177,10.471543,57.665945
1035851,Tranevej,9990,179,10.471812,57.66616
1035852,Tranevej,9990,188,10.47082,57.664931
1035853,Tranevej,9990,190,10.472409,57.664148
1035854,Tranevej,9990,192,10.471173,57.665352
1035855,Tranevej,9990,214,10.477586,57.663964
1035856,Tranevej,9990,231,10.477804,57.679892
1035857,Tranevej,9990,241,10.478058,57.67032
1035858,Tranevej,9990,242,10.48009,57.666332
1035859,Tranevej,9990,249,10.479146,57.670005
1035860,Tranevej,9990,288,10.48859,57.667814
1035861,Tranevej,9990,292,10.486113,57.668643
1035862,Tranevej,9990,310,10.488646,57.669655
1035863,Tranevej,9990,328,10.49165,57.670729
1035864,Tranevej,9990,330,10.494529,57.669891
1035865,Tranevej,9990,350,10.494921,57.671633
1035866,Tranevej,9990,352,10.49564,57.671372
1035867,Tranevej,9990,354,10.496395,57.671631
1035868,Tranevej,9990,356,10.495474,57.671821
1035869,Tranevej,9990,358,10.496079,57.672233
1035870,Tranevej,9990,360,10.497402,57.672115
1035871,Tranevej,9990,360A,10.496932,57.671927
1035872,Tranevej,9990,362,10.499731,57.671915
1035873,Tranevej,9990,363,10.496366,57.672808
1035874,Tranevej,9990,364,10.498042,57.672752
1035875,Tranevej,9990,365,10.496769,57.673086
1035876,Tranevej,9990,366,10.499918,57.672741
1035877,Tranevej,9990,368,10.500858,57.672902
1035878,Tranevej,9990,370,10.499804,57.673468
1035879,Kæruldvej,9990,1,10.461948,57.655465
1035880,Kæruldvej,9990,3,10.463003,57.655518
1035881,Kæruldvej,9990,9,10.464695,57.655589
1035882,Kæruldvej,9990,11,10.465566,57.655723
1035883,Kæruldvej,9990,13,10.466471,57.655758
1035884,Kæruldvej,9990,15,10.467611,57.656017
1035885,Kæruldvej,9990,17,10.469002,57.65633
1035886,Kæruldvej,9990,19,10.47036,57.656697
1035887,Kæruldvej,9990,21,10.47095,57.657999
1035888,Kæruldvej,9990,23,10.4715,57.657181
1035889,Kæruldvej,9990,25,10.472004,57.657387
1035890,Kæruldvej,9990,27,10.472298,57.657254
1035891,Kæruldvej,9990,31,10.474263,57.656775
1035892,Kæruldvej,9990,33,10.475117,57.656684
1035893,Kæruldvej,9990,35,10.479874,57.656563
1035894,Kæruldvej,9990,39,10.4788,57.655699
1035895,Kæruldvej,9990,45,10.478378,57.654966
1035896,Kæruldvej,9990,47,10.477689,57.654348
1035897,Tørvevej,9990,2,10.463245,57.658391
1035898,Tørvevej,9990,20,10.46807,57.65854
1035899,Tørvevej,9990,22,10.468271,57.65854
1035900,Tørvevej,9990,24,10.468439,57.658531
1035901,Tørvevej,9990,26,10.468757,57.658477
1035902,Tørvevej,9990,28,10.468941,57.658476
1035903,Tørvevej,9990,58,10.474773,57.659163
1035904,Tørvevej,9990,60,10.474856,57.658768
1035905,Tørvevej,9990,64,10.475358,57.658911
1035906,Tørvevej,9990,66,10.475259,57.659198
1035907,Tørvevej,9990,68,10.476113,57.659054
1035908,Tørvevej,9990,70,10.477069,57.659457
1035909,Tørvevej,9990,72,10.477167,57.658801
1035910,Tørvevej,9990,74,10.477083,57.65855
1035911,Tørvevej,9990,76,10.477619,57.658496
1035912,Tørvevej,9990,78,10.47767,57.658846
1035913,Tørvevej,9990,80,10.477621,57.659169
1035914,Tørvevej,9990,82,10.477622,57.659591
1035915,Ferievej,9990,1A,10.479968,57.659607
1035916,Ferievej,9990,1B,10.480268,57.659275
1035917,Ferievej,9990,1C,10.481574,57.658878
1035918,Ferievej,9990,1D,10.480384,57.658915
1035919,Ferievej,9990,3,10.479999,57.658871
1035920,Ferievej,9990,4A,10.479297,57.659482
1035921,Ferievej,9990,4B,10.47933,57.659204
1035922,Ferievej,9990,5A,10.479545,57.658359
1035923,Ferievej,9990,5B,10.480567,57.65843
1035924,Ferievej,9990,5C,10.480935,57.658412
1035925,Ferievej,9990,6,10.478692,57.658989
1035926,Ferievej,9990,6A,10.478491,57.658863
1035927,Ferievej,9990,6B,10.478239,57.658729
1035928,Ferievej,9990,6C,10.47802,57.658307
1035929,Ferievej,9990,6D,10.478506,57.658324
1035930,Ferievej,9990,7,10.480616,57.65808
1035931,Ferievej,9990,8,10.479094,57.658755
1035932,Ferievej,9990,10,10.478421,57.658028
1035933,Ferievej,9990,12,10.47745,57.658029
1035934,Ferievej,9990,14,10.476495,57.658075
1035935,Ferievej,9990,16,10.475824,57.657824
1035936,Ferievej,9990,18,10.47604,57.65724
1035937,Ferievej,9990,20,10.474918,57.657196
1035938,Ferievej,9990,22,10.474216,57.657664
1035939,Tranevænget,9990,1,10.465653,57.661805
1035940,Tranevænget,9990,2,10.465315,57.661442
1035941,Tranevænget,9990,3,10.4660053,57.6616909
1035942,Tranevænget,9990,4,10.465694,57.661346
1035943,Tranevænget,9990,5,10.466457,57.661612
1035944,Tranevænget,9990,6,10.466118,57.661271
1035945,Tranevænget,9990,7,10.466833,57.661537
1035946,Tranevænget,9990,8,10.466554,57.661199
1035947,Tranevænget,9990,9,10.46725,57.661456
1035948,Tranevænget,9990,10,10.466855,57.661118
1035949,Hyttevej,9990,2,10.462706,57.657
1035950,Hyttevej,9990,3A,10.463511,57.657538
1035951,Hyttevej,9990,4,10.463324,57.656631
1035952,Hyttevej,9990,6,10.463994,57.65655
1035953,Hyttevej,9990,7,10.464817,57.657393
1035954,Hyttevej,9990,8,10.464748,57.656621
1035955,Hyttevej,9990,9,10.465673,57.658003
1035956,Hyttevej,9990,10,10.465737,57.656647
1035957,Hyttevej,9990,11,10.465755,57.657321
1035958,Hyttevej,9990,12,10.466825,57.656539
1035959,Hyttevej,9990,13,10.466441,57.65706
1035960,Hyttevej,9990,15,10.467281,57.657876
1035961,Hyttevej,9990,16,10.467813,57.656601
1035962,Hyttevej,9990,17,10.468402,57.657408
1035963,Hyttevej,9990,18,10.468541,57.656658
1035964,Hyttevej,9990,21,10.469541,57.657363
1035965,Hyttevej,9990,23,10.469492,57.657668
1035966,Tinesvej,9990,40,10.481137,57.663889
1035967,Tinesvej,9990,42,10.481271,57.663835
1035968,Tinesvej,9990,50,10.48323,57.663519
1035969,Tinesvej,9990,60,10.487935,57.662733
1035970,Anesvej,9990,1,10.455437,57.664009
1035971,Anesvej,9990,2,10.458854,57.663836
1035972,Anesvej,9990,4,10.457733,57.664339
1035973,Anesvej,9990,5,10.457497,57.6639
1035974,Anesvej,9990,10,10.456309,57.664439
1035975,Karredvej,9990,1,10.470618,57.664715
1035976,Karredvej,9990,3,10.471154,57.664463
1035977,Karredvej,9990,19,10.473714,57.663563
1035978,Karredvej,9990,21,10.474973,57.664334
1035979,Karredvej,9990,23,10.474215,57.662979
1035980,Karredvej,9990,25,10.475803,57.661981
1035981,Karredvej,9990,27,10.478439,57.661619
1035982,Karredvej,9990,29,10.480124,57.66143
1035983,Karredvej,9990,45,10.481441,57.659498
1035984,Karredvej,9990,47,10.482831,57.659191
1035985,Karredvej,9990,102,10.482595,57.658841
1035986,Tværvej,9990,4,10.462352,57.662558
1035987,Skrædderstien,9990,4,10.463502,57.660151
1035988,Skrædderstien,9990,5,10.463318,57.660393
1035989,Skrædderstien,9990,6,10.463871,57.660626
1035990,Skrædderstien,9990,7,10.463603,57.660636
1035991,Skrædderstien,9990,11,10.464091,57.661183
1035992,Skrædderstien,9990,15,10.464108,57.661354
1035993,Karredvænget,9990,1,10.478926,57.659803
1035994,Karredvænget,9990,2,10.479014,57.660075
1035995,Karredvænget,9990,4,10.478428,57.660291
1035996,Karredvænget,9990,6,10.478361,57.660084
1035997,Karredvænget,9990,8,10.47831,57.659833
1035998,Tornbakkevej,9990,1,10.462165,57.661454
1035999,Tornbakkevej,9990,2,10.462549,57.661166
1036000,Tornbakkevej,9990,3,10.462484,57.661768
1036001,Tornbakkevej,9990,4,10.463102,57.66087
1036002,Tornbakkevej,9990,5,10.46267,57.662235
1036003,Tornbakkevej,9990,6,10.463437,57.660986
1036004,Tornbakkevej,9990,7,10.462905,57.662441
1036005,Tornbakkevej,9990,8,10.462902,57.661534
1036006,Tornbakkevej,9990,10,10.46302,57.661741
1036007,Tornbakkevej,9990,12,10.463172,57.662046
1036008,Tornbakkevej,9990,14,10.464095,57.662629
1036009,Svanebakken,9990,2,10.419839,57.660065
1036010,Svanebakken,9990,4,10.4196804,57.6602701
1036011,Svanebakken,9990,6,10.419588,57.660476
1036012,Svanebakken,9990,8,10.419226,57.660807
1036013,Svanebakken,9990,10,10.419197,57.661159
1036014,Svanebakken,9990,12,10.419013,57.661432
1542484,Slettevej,9990,1,10.393711,57.660259
1542487,Slettevej,9990,2,10.393191,57.659855
1542489,Slettevej,9990,3,10.394197,57.660367
1542491,Slettevej,9990,4,10.39366,57.659891
1542493,Slettevej,9990,5,10.394515,57.660492
1542494,Slettevej,9990,6,10.393995,57.659855
1542496,Slettevej,9990,7,10.394951,57.66069
1542499,Slettevej,9990,8,10.39294,57.659541
1542500,Slettevej,9990,9,10.395387,57.660752
1542503,Slettevej,9990,10,10.393325,57.659514
1542505,Slettevej,9990,11,10.395889,57.660636
1542506,Slettevej,9990,12,10.393744,57.65946
1542509,Slettevej,9990,13,10.395772,57.660348
1542511,Slettevej,9990,14,10.39423,57.659415
1542512,Slettevej,9990,15,10.395319,57.660285
1542515,Slettevej,9990,16,10.394665,57.659388
1542517,Slettevej,9990,17,10.394884,57.660223
1542519,Slettevej,9990,18,10.395051,57.659379
1542521,Slettevej,9990,19,10.394281,57.660016
1542522,Slettevej,9990,20,10.395503,57.659387
1542525,Slettevej,9990,22,10.39562,57.659684
1542526,Slettevej,9990,24,10.395185,57.65981
1542528,Slettevej,9990,26,10.394766,57.659899
1565370,Kandebakkevej,9990,2,10.394298,57.661157
1565372,Kandebakkevej,9990,4,10.393444,57.661076
1565376,Kandebakkevej,9990,5,10.39274,57.660627
1565377,Kandebakkevej,9990,6,10.392824,57.661121
1565381,Kandebakkevej,9990,7,10.391985,57.659945
1565383,Kandebakkevej,9990,8A,10.391652,57.661436
1565386,Kandebakkevej,9990,8B,10.391635,57.661373
1565389,Kandebakkevej,9990,8C,10.391635,57.661301
1565390,Kandebakkevej,9990,8D,10.391752,57.661274
1565393,Kandebakkevej,9990,8E,10.391852,57.661274
1565394,Kandebakkevej,9990,8F,10.391568,57.661436
1565396,Kandebakkevej,9990,8G,10.391568,57.661373
1565398,Kandebakkevej,9990,8H,10.391568,57.661274
1565401,Kandebakkevej,9990,8I,10.391752,57.661247
1565403,Kandebakkevej,9990,8J,10.391852,57.661247
1565407,Kandebakkevej,9990,10,10.390412,57.66158
1565409,Kandebakkevej,9990,11,10.392287,57.660645
1565413,Kandebakkevej,9990,12,10.390093,57.661283
1565417,Kandebakkevej,9990,13,10.390913,57.659523
1565419,Kandebakkevej,9990,14,10.389825,57.661759
1565424,Kandebakkevej,9990,14B,10.389122,57.661759
1565426,Kandebakkevej,9990,15,10.390628,57.659676
1565430,Kandebakkevej,9990,16,10.388954,57.661427
1565433,Kandebakkevej,9990,17,10.389908,57.65999
1565436,Kandebakkevej,9990,18,10.388351,57.661742
1575549,Solbakken,9990,1,10.404031,57.660445
1575550,Solbakken,9990,2,10.39978,57.664621
1575551,Solbakken,9990,3,10.404449,57.660328
1575552,Solbakken,9990,4,10.400433,57.664756
1575553,Solbakken,9990,5,10.403896,57.660103
1575554,Solbakken,9990,6,10.400199,57.664944
1575555,Solbakken,9990,7,10.403478,57.660166
1575556,Solbakken,9990,8,10.39906,57.664944
1575557,Solbakken,9990,9,10.403143,57.660355
1575558,Solbakken,9990,10,10.398859,57.664666
1575559,Solbakken,9990,11,10.403696,57.660831
1575560,Solbakken,9990,12,10.398289,57.664729
1575561,Solbakken,9990,13,10.404098,57.660732
1575562,Solbakken,9990,14,10.398055,57.665241
1575563,Solbakken,9990,15,10.403965,57.661145
1575564,Solbakken,9990,16,10.400719,57.665303
1575565,Solbakken,9990,17,10.403227,57.660921
1575566,Solbakken,9990,18,10.401021,57.665492
1575567,Solbakken,9990,19,10.402825,57.661064
1575568,Solbakken,9990,21,10.402842,57.661334
1575569,Solbakken,9990,22,10.399647,57.665698
1575570,Solbakken,9990,23,10.403278,57.66137
1575571,Solbakken,9990,24,10.398742,57.665618
1575572,Solbakken,9990,25,10.403697,57.661414
1575573,Solbakken,9990,26,10.398491,57.666031
1575574,Solbakken,9990,27,10.403045,57.662663
1575576,Solbakken,9990,28,10.397855,57.666184
1575578,Solbakken,9990,29,10.402877,57.662483
1575581,Solbakken,9990,30,10.397285,57.666552
1575583,Solbakken,9990,31,10.402492,57.662304
1575584,Solbakken,9990,32,10.397989,57.666453
1575585,Solbakken,9990,33,10.402123,57.662133
1575586,Solbakken,9990,34,10.398609,57.666291
1575587,Solbakken,9990,35,10.40142,57.662753
1575588,Solbakken,9990,36,10.399195,57.666094
1575589,Solbakken,9990,37,10.401855,57.662744
1575590,Solbakken,9990,38,10.399899,57.665905
1575591,Solbakken,9990,39,10.402274,57.662762
1575592,Solbakken,9990,40,10.400451,57.66586
1575593,Solbakken,9990,41,10.399694,57.662691
1575594,Solbakken,9990,42,10.401105,57.665869
1575595,Solbakken,9990,43,10.399912,57.66243
1575596,Solbakken,9990,44,10.400804,57.666327
1575597,Solbakken,9990,45,10.400314,57.662161
1575598,Solbakken,9990,46,10.400335,57.666488
1575599,Solbakken,9990,47,10.400883,57.661981
1575600,Solbakken,9990,48,10.399631,57.666561
1575601,Solbakken,9990,49,10.401419,57.661873
1575602,Solbakken,9990,50,10.399062,57.666812
1575604,Solbakken,9990,51,10.401972,57.661855
1575606,Solbakken,9990,52,10.398341,57.667055
1575608,Solbakken,9990,54,10.397487,57.66692
1575610,Solbakken,9990,55,10.397468,57.664631
1575612,Solbakken,9990,56,10.39727,57.667908
1575614,Solbakken,9990,57,10.397418,57.6649
1575615,Solbakken,9990,58,10.397856,57.667917
1575617,Solbakken,9990,59,10.397066,57.665205
1575620,Solbakken,9990,60,10.398744,57.667773
1575621,Solbakken,9990,61,10.396765,57.665439
1575623,Solbakken,9990,62,10.399314,57.667719
1575624,Solbakken,9990,63,10.397117,57.665762
1575625,Solbakken,9990,64,10.399749,57.667063
1575626,Solbakken,9990,65,10.394905,57.665493
1575627,Solbakken,9990,66,10.400369,57.667117
1575628,Solbakken,9990,67,10.395324,57.665762
1575629,Solbakken,9990,68,10.400001,57.66762
1575630,Solbakken,9990,69,10.39581,57.665744
1575631,Solbakken,9990,70,10.397388,57.668249
1575632,Solbakken,9990,71,10.396632,57.666256
1575633,Solbakken,9990,77,10.396213,57.666759
1575634,Solbakken,9990,79,10.394789,57.667038
1575635,Solbakken,9990,81,10.39551,57.667235
1575636,Solbakken,9990,83,10.396046,57.667064
1578235,Katbakken,9990,8,10.38624,57.660763
1578236,Katbakken,9990,10,10.385603,57.66088
1578237,Katbakken,9990,12,10.384447,57.66071
1578238,Katbakken,9990,13,10.382889,57.660315
1578240,Katbakken,9990,15,10.382018,57.660306
1578241,Katbakken,9990,16,10.383258,57.661096
1578242,Katbakken,9990,17,10.381566,57.660522
1578243,Katbakken,9990,18,10.382554,57.660872
1836224,Dødningebakken,9990,2,10.397448,57.661578
1836225,Dødningebakken,9990,3,10.395957,57.661524
1836226,Dødningebakken,9990,4,10.398102,57.662197
1836227,Dødningebakken,9990,5,10.396812,57.661901
1836228,Dødningebakken,9990,7,10.396125,57.662216
1836229,Dødningebakken,9990,8,10.399408,57.661479
1836230,Dødningebakken,9990,9,10.395673,57.662467
1836231,Dødningebakken,9990,10,10.399593,57.661892
1836232,Dødningebakken,9990,11,10.395171,57.662638
1836233,Dødningebakken,9990,12,10.399325,57.662314
1836234,Dødningebakken,9990,13,10.394484,57.663114
1836235,Dødningebakken,9990,14,10.399158,57.662556
1836236,Dødningebakken,9990,15,10.393982,57.663258
1836237,Dødningebakken,9990,16,10.398907,57.662978
1836238,Dødningebakken,9990,17,10.39435,57.662818
1836239,Dødningebakken,9990,18,10.39874,57.663248
1836240,Dødningebakken,9990,19,10.3945,57.66245
1836241,Dødningebakken,9990,20,10.398472,57.663643
1836242,Dødningebakken,9990,21,10.394902,57.661866
1836243,Dødningebakken,9990,22,10.398338,57.663867
1836244,Dødningebakken,9990,23,10.393478,57.66218
1836245,Dødningebakken,9990,24,10.398138,57.664253
1836246,Dødningebakken,9990,25,10.393328,57.662935
1836247,Dødningebakken,9990,26,10.397719,57.664047
1836248,Dødningebakken,9990,27,10.392725,57.66351
1836249,Dødningebakken,9990,29A,10.392073,57.664506
1836250,Dødningebakken,9990,29B,10.392592,57.664174
1836251,Dødningebakken,9990,31,10.393028,57.664398
1836252,Dødningebakken,9990,33,10.39353,57.664102
1836253,Dødningebakken,9990,35,10.393966,57.66421
1836254,Dødningebakken,9990,37,10.394753,57.664075
1836255,Dødningebakken,9990,39,10.395322,57.663886
1836256,Dødningebakken,9990,41,10.396043,57.663697
1836257,Dødningebakken,9990,43,10.396813,57.663473
1836258,Dødningebakken,9990,45,10.397282,57.663517
1836259,Dødningebakken,9990,47,10.396563,57.664173
1836260,Dødningebakken,9990,49A,10.396496,57.664559
1836261,Dødningebakken,9990,49B,10.395776,57.66464
1836262,Dødningebakken,9990,51,10.394603,57.664586
1836263,Dødningebakken,9990,53,10.393882,57.664793
1836264,Dødningebakken,9990,55,10.392693,57.664982
1836265,Dødningebakken,9990,57,10.39209,57.665081
1843848,Bertelsvej,9990,2,10.605195,57.729749
1850379,Klyngen,9990,1,10.401066,57.66058
1850380,Klyngen,9990,2,10.401535,57.660463
1850381,Klyngen,9990,3,10.400949,57.660876
1850382,Klyngen,9990,4,10.402188,57.660248
1850383,Klyngen,9990,5,10.400413,57.660751
1850384,Klyngen,9990,6,10.402088,57.660526
1850385,Klyngen,9990,7,10.399257,57.660976
1850386,Klyngen,9990,8,10.401636,57.661074
1850387,Klyngen,9990,9,10.399643,57.6612
1850388,Klyngen,9990,10,10.402005,57.661146
1850389,Klyngen,9990,11,10.400078,57.661254
1850390,Klyngen,9990,12,10.402038,57.661487
1850391,Klyngen,9990,13,10.400497,57.661146
1850392,Klyngen,9990,14,10.401569,57.661451
1850485,Vesterhvarre,9990,1,10.388909,57.65872
1850487,Vesterhvarre,9990,6,10.388769,57.660098
1850489,Vesterhvarre,9990,14,10.387897,57.658824
1850493,Vesterhvarre,9990,15,10.385518,57.658043
1850495,Vesterhvarre,9990,16A,10.38711,57.658895
1850497,Vesterhvarre,9990,16B,10.386507,57.65895
1850499,Vesterhvarre,9990,17,10.385618,57.658465
1850501,Vesterhvarre,9990,18,10.385602,57.659048
1850502,Vesterhvarre,9990,20,10.384899,57.659084
1850503,Vesterhvarre,9990,22,10.384027,57.659139
1850504,Vesterhvarre,9990,24,10.383274,57.659381
1850505,Vesterhvarre,9990,31,10.381012,57.659031
1850507,Vesterhvarre,9990,35,10.379404,57.659049
1850509,Vesterhvarre,9990,47,10.373725,57.658404
1850700,Vagtbakken,9990,3,10.392557,57.662594
1850701,Vagtbakken,9990,5,10.391971,57.66324
1850702,Vagtbakken,9990,5A,10.390379,57.662998
1850703,Vagtbakken,9990,7,10.391234,57.663303
1850704,Vagtbakken,9990,7B,10.38976,57.663959
1850705,Vagtbakken,9990,7C,10.388119,57.664489
1850706,Vagtbakken,9990,7D,10.389677,57.664282
1850707,Vagtbakken,9990,9,10.390498,57.664228
1850708,Vagtbakken,9990,10,10.390498,57.665009
1850710,Vagtbakken,9990,11,10.391637,57.663788
1850712,Vagtbakken,9990,13,10.38997,57.664745
1850714,Vagtbakken,9990,15,10.389594,57.664965
1850717,Vagtbakken,9990,17,10.389342,57.665207
1850719,Vagtbakken,9990,23,10.39003,57.665656
1867004,Klitbakken,9990,4,10.38708,57.664148
1867401,Notkajen,9990,2,10.604756,57.722847
2125589,Beddingevej,9990,6,10.583941,57.716267
2126501,Bøjlevejen,9990,33,10.59943,57.734745
2126806,Fænøvænget,9990,1,10.560249,57.728437
2126809,Fænøvænget,9990,2,10.560301,57.728706
2126817,Fænøvænget,9990,3,10.560047,57.728366
2126820,Fænøvænget,9990,4,10.560285,57.728823
2126827,Fænøvænget,9990,5,10.559728,57.728285
2126831,Fænøvænget,9990,6,10.560268,57.728967
2126835,Fænøvænget,9990,7,10.559577,57.728384
2126839,Fænøvænget,9990,8,10.560252,57.729074
2126841,Fænøvænget,9990,9,10.559578,57.728555
2126849,Fænøvænget,9990,10,10.559935,57.72938
2126852,Fænøvænget,9990,11,10.559746,57.728617
2126863,Fænøvænget,9990,12,10.559951,57.729254
2126867,Fænøvænget,9990,14,10.559967,57.729111
2126871,Fænøvænget,9990,16,10.559983,57.729003
2126881,Fænøvænget,9990,18,10.559999,57.728823
2126887,Fænøvænget,9990,20,10.560015,57.728716
2128046,Hesselholtvej,9990,15,10.459019,57.656473
2128191,Hulsigvænget,9990,1,10.46044,57.661635
2128195,Hulsigvænget,9990,2,10.460794,57.662452
2128200,Hulsigvænget,9990,3,10.460339,57.661428
2128205,Hulsigvænget,9990,5,10.460221,57.661159
2128210,Hulsigvænget,9990,7,10.460103,57.660926
2128213,Hulsigvænget,9990,8,10.45992,57.661465
2128225,Hulsigvænget,9990,9,10.459968,57.660701
2128227,Hulsigvænget,9990,10,10.459819,57.661213
2128233,Hulsigvænget,9990,12,10.459718,57.660998
2128240,Hulsigvænget,9990,14,10.459533,57.660765
2128243,Hulsigvænget,9990,16,10.459047,57.660855
2128324,I. P. Thomsens Vej,9990,3,10.568428,57.729474
2128339,I. P. Thomsens Vej,9990,6,10.567569,57.72891
2128344,I. P. Thomsens Vej,9990,10,10.567633,57.728344
2128352,I. P. Thomsens Vej,9990,11,10.56869,57.728217
2128997,Lærkestien,9990,2,10.524864,57.723684
2129003,Lærkestien,9990,3,10.526021,57.723368
2129014,Lærkestien,9990,4,10.524812,57.723262
2129020,Lærkestien,9990,5,10.525563,57.722489
2129028,Lærkestien,9990,6,10.525062,57.722911
2129033,Lærkestien,9990,8,10.524892,57.722472
2129252,Nordmarksvænget,9990,1,10.570109,57.729939
2129476,Orionvej,9990,2,10.586063,57.733952
2129839,Råbjerg Mile Vej,9990,2,10.408713,57.653987
2130363,Strandklit,9990,1,10.558635,57.737275
2130380,Strandklit,9990,4,10.55843,57.736557
2130391,Strandklit,9990,6,10.558429,57.736503
2130394,Strandklit,9990,8,10.558429,57.736449
2130406,Strandklit,9990,10,10.558446,57.736386
2130411,Strandklit,9990,12,10.558462,57.73626
2130413,Strandklit,9990,14,10.558478,57.736197
2130423,Strandklit,9990,16,10.558495,57.736143
2130426,Strandklit,9990,18,10.557974,57.73609
2130435,Strandklit,9990,20,10.557873,57.736091
2130440,Strandklit,9990,22,10.557772,57.736082
2130452,Strandklit,9990,24,10.557655,57.736046
2130457,Strandklit,9990,26,10.558526,57.735766
2130474,Strandklit,9990,28,10.558392,57.735749
2130477,Strandklit,9990,30,10.558146,57.735852
2130482,Strandklit,9990,32,10.558048,57.735862
2130493,Strandklit,9990,34,10.55795,57.735836
2130496,Strandklit,9990,36,10.557702,57.735805
2130509,Strandklit,9990,38,10.557597,57.735809
2130512,Strandklit,9990,40,10.557496,57.735785
2130522,Strandklit,9990,42,10.557252,57.736181
2130525,Strandklit,9990,44,10.557235,57.736118
2130535,Strandklit,9990,46,10.557252,57.736065
2130539,Strandklit,9990,48,10.557285,57.736011
2130543,Strandklit,9990,50,10.557184,57.735903
2130551,Strandklit,9990,52,10.557183,57.735831
2130555,Strandklit,9990,54,10.5572,57.735777
2130560,Strandklit,9990,56,10.557216,57.735723
2130564,Strandklit,9990,58,10.556884,57.73629
2130572,Strandklit,9990,60,10.557103,57.736487
2130576,Strandklit,9990,62,10.557238,57.736684
2130577,Strandklit,9990,64,10.557155,57.736828
2130582,Strandklit,9990,66,10.556803,57.736972
2130585,Strandklit,9990,68,10.556519,57.737089
2130590,Strandklit,9990,70,10.556771,57.737277
2130592,Strandklit,9990,72,10.557075,57.737474
2130595,Strandklit,9990,74,10.557076,57.737627
2130598,Strandklit,9990,76,10.557026,57.737816
2130600,Strandklit,9990,78,10.556859,57.737915
2130602,Strandklit,9990,80,10.556691,57.73787
2130603,Strandklit,9990,82,10.55679,57.737583
2130606,Strandklit,9990,84,10.55652,57.737377
2130607,Strandklit,9990,86,10.556183,57.737153
2130610,Strandklit,9990,88,10.556216,57.736991
2130612,Strandklit,9990,90,10.556635,57.736811
2130615,Strandklit,9990,92,10.556936,57.736703
2130618,Strandklit,9990,94,10.556801,57.736541
2130625,Strandklit,9990,96,10.556599,57.736353
2130628,Strandklit,9990,98,10.556564,57.7362
2130631,Strandklit,9990,100,10.556564,57.736128
2130639,Strandklit,9990,102,10.556328,57.736021
2130645,Strandklit,9990,104,10.556345,57.735958
2130658,Strandklit,9990,106,10.556412,57.735904
2130662,Strandklit,9990,108,10.556657,57.735679
2130672,Strandklit,9990,110,10.556549,57.735685
2130678,Strandklit,9990,112,10.556444,57.735655
2130692,Strandklit,9990,114,10.556133,57.735637
2130698,Strandklit,9990,116,10.556028,57.735636
2130703,Strandklit,9990,118,10.555926,57.735631
2130715,Strandklit,9990,120,10.555824,57.735627
2130721,Strandklit,9990,122,10.5557215,57.7356012
2130734,Strandklit,9990,124,10.555509,57.736143
2130736,Strandklit,9990,126,10.555493,57.736084
2130745,Strandklit,9990,128,10.55555,57.736034
2130748,Strandklit,9990,130,10.555488,57.735924
2130760,Strandklit,9990,132,10.555471,57.735866
2130766,Strandklit,9990,134,10.555531,57.735814
2130771,Strandklit,9990,136,10.55538,57.735574
2130780,Strandklit,9990,138,10.5552743,57.7355779
2130785,Strandklit,9990,140,10.555173,57.735572
2130798,Strandklit,9990,142,10.5550707,57.7355459
2130804,Strandklit,9990,144,10.554756,57.736015
2130816,Strandklit,9990,146,10.554751,57.735956
2130821,Strandklit,9990,148,10.55459,57.735834
2130834,Strandklit,9990,150,10.55458,57.735778
2130839,Strandklit,9990,152,10.554629,57.735727
2130844,Strandklit,9990,154,10.554651,57.735615
2130854,Strandklit,9990,156,10.5546332,57.735557
2130856,Strandklit,9990,158,10.554683,57.7355
2130865,Strandklit,9990,160,10.5550111,57.7361906
2130869,Strandklit,9990,162,10.555206,57.736369
2130878,Strandklit,9990,164,10.554669,57.736499
2130883,Strandklit,9990,166,10.555025,57.736664
2130898,Strandklit,9990,168,10.554268,57.736805
2130902,Strandklit,9990,170,10.554794,57.736996
2130905,Strandklit,9990,172,10.554689,57.737146
2130916,Strandklit,9990,174,10.554993,57.737379
2130918,Strandklit,9990,176,10.555028,57.737711
2130930,Strandklit,9990,178,10.554591,57.737685
2130934,Strandklit,9990,180,10.554371,57.737281
2130952,Strandklit,9990,182,10.553967,57.737075
2130956,Strandklit,9990,184,10.553882,57.736788
2130962,Strandklit,9990,186,10.554433,57.736392
2130974,Strandklit,9990,188,10.554365,57.736195
2130979,Strandklit,9990,190,10.554161,57.735701
2131193,Søndermarken,9990,1,10.531327,57.727779
2131200,Søndermarken,9990,3,10.531343,57.727563
2131206,Søndermarken,9990,5,10.531376,57.727348
2131208,Søndermarken,9990,7,10.531408,57.727141
2131214,Søndermarken,9990,9,10.531558,57.726925
2131221,Søndermarken,9990,10,10.531078,57.724762
2131222,Søndermarken,9990,11,10.531457,57.726719
2132831,Vølund Nielsens Vej,9990,6,10.568168,57.731001
2187962,Tuxenparken,9990,10,10.594982,57.7295
2190499,Strandklit,9990,2G,10.558413,57.736619
2190500,Minkvej,9990,78B,10.55518,57.738333
2190501,Minkvej,9990,88,10.553435,57.738389
2190502,Fladen Grund,9990,116,10.560138,57.732632
2190503,Fladen Grund,9990,120,10.559858,57.733003
2190504,Fladen Grund,9990,124,10.559216,57.732789
2190505,Fladen Grund,9990,136,10.559106,57.734082
2190506,Fladen Grund,9990,144,10.559024,57.734616
2190507,Fladen Grund,9990,150,10.558723,57.734976
2223559,Flagbakkevej,9990,7B,10.526318,57.726052
2226582,Fladen Grund,9990,110,10.55871,57.732489
2226583,Fladen Grund,9990,112,10.55933,57.732511
2226584,Fladen Grund,9990,114,10.559749,57.732744
2226585,Fladen Grund,9990,118,10.560092,57.73285
2226586,Fladen Grund,9990,122,10.559335,57.732996
2226587,Fladen Grund,9990,126,10.558947,57.732969
2226588,Fladen Grund,9990,128,10.558677,57.732713
2226589,Fladen Grund,9990,132,10.558554,57.733906
2226590,Fladen Grund,9990,134,10.558943,57.733937
2226591,Fladen Grund,9990,138,10.5584,57.734159
2226592,Fladen Grund,9990,140,10.559072,57.734347
2226593,Fladen Grund,9990,142,10.558367,57.734375
2226594,Fladen Grund,9990,146,10.558319,57.734635
2226595,Fladen Grund,9990,148,10.55889,57.73485
2226596,Fladen Grund,9990,152,10.558237,57.735003
2227670,Højensvej,9990,27D,10.52856,57.728231
2227671,Buttervej,9990,37,10.568912,57.728281
2227672,Vesterhede,9990,9,10.537946,57.729107
2227673,Kirkevej,9990,27,10.581787,57.723661
2227674,Hyttevej,9990,3B,10.463209,57.657278
2231154,Slettevej,9990,30,10.392203,57.659478
2231450,Kandebakkevej,9990,9,10.392271,57.660367
2231566,Solbakken,9990,87,10.395494,57.668339
2234219,Vesterhvarre,9990,23,10.38324,57.658771
2234220,Vesterhvarre,9990,25,10.382285,57.658833
2234221,Vesterhvarre,9990,36,10.379974,57.65957
2237304,Søndermarken,9990,4,10.53072,57.726989
2237905,Strandklit,9990,2A,10.558234,57.736945
2237906,Strandklit,9990,2B,10.558244,57.73689
2237907,Strandklit,9990,2C,10.558254,57.736835
2237908,Strandklit,9990,2D,10.558264,57.73678
2237909,Strandklit,9990,2E,10.558274,57.736724
2242527,Strandklit,9990,192,10.55421,57.735432
2242659,Remisen,9990,35,10.59042,57.724831
2243066,Vesterhvarre,9990,5,10.387411,57.658258
2243067,Vesterhvarre,9990,26,10.38252,57.659157
2243068,Vesterhvarre,9990,28,10.3819,57.65922
2243069,Vesterhvarre,9990,30,10.381381,57.659274
2243070,Vesterhvarre,9990,32,10.380912,57.659337
2255953,Damstedvej,9990,46,10.560414,57.709564
2255957,Ferievej,9990,2,10.478409,57.659411
2255975,Havstien,9990,14,10.527372,57.729131
2255984,Jens Rasmussens Vej,9990,24B,10.5252191,57.7279572
2255987,Kandestedvej,9990,293,10.425559,57.653918
2255999,Nansbovej,9990,7,10.531182,57.729716
2256006,Sankt Laurentii Vej,9990,43,10.5912,57.7228733
2256024,Vesterhvarre,9990,33,10.379923,57.659166
