idx,street,postcode,housenumber,lon,lat
40,Wagnersvej,2450,19,12.5300363,55.6467542
650,Alliancevej,2450,3,12.551936,55.649102
2730,Bavnehøj Allé,2450,1,12.538774,55.658404
2731,Bavnehøj Allé,2450,3,12.538557,55.658401
2732,Bavnehøj Allé,2450,5,12.538338,55.658406
2733,Bavnehøj Allé,2450,7,12.537589,55.658402
2734,Bavnehøj Allé,2450,9,12.537425,55.658405
2735,Bavnehøj Allé,2450,11,12.537252,55.658404
2736,Bavnehøj Allé,2450,13,12.537084,55.658402
2737,Bavnehøj Allé,2450,15,12.536448,55.658407
2738,Bavnehøj Allé,2450,17,12.536082,55.658407
2739,Bavnehøj Allé,2450,25,12.533379,55.658378
2740,Bavnehøj Allé,2450,30,12.53414,55.659857
2741,Bavnehøj Allé,2450,36,12.533457,55.658755
2742,Bavnehøj Allé,2450,38,12.533254,55.65879
2743,Bavnehøj Allé,2450,44,12.532487,55.658706
2835,Beethovensvej,2450,1,12.533233,55.647691
2836,Beethovensvej,2450,2,12.533647,55.647755
2837,Beethovensvej,2450,3,12.533177,55.647822
2838,Beethovensvej,2450,4,12.533588,55.647882
2839,Beethovensvej,2450,5,12.533132,55.647933
2840,Beethovensvej,2450,6,12.533551,55.647978
2841,Beethovensvej,2450,7,12.533082,55.648046
2842,Beethovensvej,2450,8,12.533498,55.648109
2843,Beethovensvej,2450,9,12.533038,55.648158
2844,Beethovensvej,2450,10,12.533456,55.648221
2845,Beethovensvej,2450,11,12.532997,55.648273
2846,Beethovensvej,2450,12,12.533413,55.648334
2847,Beethovensvej,2450,13,12.532946,55.648396
2848,Beethovensvej,2450,14,12.533353,55.648465
4185,Blushøjvej,2450,4,12.508845,55.650104
4186,Blushøjvej,2450,6A,12.508859,55.649735
4187,Blushøjvej,2450,6B,12.508329,55.649381
4188,Blushøjvej,2450,8,12.508116,55.649038
4189,Blushøjvej,2450,10,12.5076213,55.6485409
4190,Blushøjvej,2450,16,12.506765,55.647686
4191,Blushøjvej,2450,19,12.505987,55.647364
4717,Borgbjergsvej,2450,1,12.538748,55.65243
4718,Borgbjergsvej,2450,2,12.538642,55.652914
4719,Borgbjergsvej,2450,3,12.53864,55.652341
4720,Borgbjergsvej,2450,4,12.538573,55.652851
4721,Borgbjergsvej,2450,5,12.538506,55.652225
4722,Borgbjergsvej,2450,6,12.538434,55.652741
4723,Borgbjergsvej,2450,7,12.538347,55.652095
4724,Borgbjergsvej,2450,8,12.538315,55.652647
4725,Borgbjergsvej,2450,9,12.538212,55.651973
4726,Borgbjergsvej,2450,10,12.538212,55.652552
4727,Borgbjergsvej,2450,11,12.538053,55.651845
4728,Borgbjergsvej,2450,12,12.538101,55.65246
4729,Borgbjergsvej,2450,13,12.537909,55.651724
4730,Borgbjergsvej,2450,14,12.537988,55.652371
4731,Borgbjergsvej,2450,15,12.537598,55.651462
4732,Borgbjergsvej,2450,16,12.537876,55.652281
4733,Borgbjergsvej,2450,17,12.537495,55.651381
4734,Borgbjergsvej,2450,18,12.537765,55.652185
4735,Borgbjergsvej,2450,19,12.53739,55.651286
4736,Borgbjergsvej,2450,20,12.53766,55.652092
4737,Borgbjergsvej,2450,21,12.537292,55.651205
4738,Borgbjergsvej,2450,22,12.537546,55.652
4739,Borgbjergsvej,2450,23,12.537192,55.651121
4740,Borgbjergsvej,2450,24,12.53696,55.651509
4741,Borgbjergsvej,2450,25,12.537092,55.651041
4742,Borgbjergsvej,2450,26,12.536844,55.651417
4743,Borgbjergsvej,2450,27,12.536986,55.650951
4744,Borgbjergsvej,2450,28,12.536421,55.650993
4745,Borgbjergsvej,2450,29,12.53686,55.650845
4746,Borgbjergsvej,2450,30,12.53628,55.65087
4747,Borgbjergsvej,2450,30A,12.535632,55.650754
4748,Borgbjergsvej,2450,31,12.536716,55.650725
4749,Borgbjergsvej,2450,32,12.536147,55.650758
4750,Borgbjergsvej,2450,33,12.536546,55.650581
4751,Borgbjergsvej,2450,34,12.536034,55.650657
4752,Borgbjergsvej,2450,35,12.536415,55.650471
4753,Borgbjergsvej,2450,36,12.535907,55.650554
4754,Borgbjergsvej,2450,37,12.536287,55.650361
4755,Borgbjergsvej,2450,38,12.535785,55.650454
4756,Borgbjergsvej,2450,39,12.536148,55.650247
4757,Borgbjergsvej,2450,40,12.535677,55.650361
4758,Borgbjergsvej,2450,41,12.535811,55.649959
4759,Borgbjergsvej,2450,42,12.535558,55.65026
4760,Borgbjergsvej,2450,43,12.535633,55.649811
4761,Borgbjergsvej,2450,44,12.535281,55.650026
4762,Borgbjergsvej,2450,45,12.535448,55.649657
4763,Borgbjergsvej,2450,46,12.535182,55.649939
4764,Borgbjergsvej,2450,47,12.535312,55.649547
4765,Borgbjergsvej,2450,48,12.535073,55.649849
4766,Borgbjergsvej,2450,49,12.535173,55.649431
4767,Borgbjergsvej,2450,50,12.534962,55.649753
4768,Borgbjergsvej,2450,51,12.535042,55.649315
4769,Borgbjergsvej,2450,52,12.534844,55.649652
4770,Borgbjergsvej,2450,53,12.534885,55.649186
4771,Borgbjergsvej,2450,54,12.534738,55.649563
4772,Borgbjergsvej,2450,55,12.534833,55.649089
4773,Borgbjergsvej,2450,56,12.534624,55.649468
4774,Borgbjergsvej,2450,58,12.534498,55.649358
4775,Borgbjergsvej,2450,60,12.534376,55.649256
4776,V.A. Borgens Vej,2450,1,12.536975,55.658353
4777,V.A. Borgens Vej,2450,2,12.5365725,55.6583753
4778,V.A. Borgens Vej,2450,3,12.536923,55.658265
4779,V.A. Borgens Vej,2450,4,12.536518,55.658274
4780,V.A. Borgens Vej,2450,5,12.536829,55.658114
4781,V.A. Borgens Vej,2450,6,12.536463,55.658179
4782,V.A. Borgens Vej,2450,7,12.536785,55.658026
4783,V.A. Borgens Vej,2450,8,12.536402,55.658068
4784,V.A. Borgens Vej,2450,9,12.53673,55.657932
4785,V.A. Borgens Vej,2450,10,12.5363505,55.6579731
4883,Borgmester Christiansens Gade,2450,1,12.530958,55.64991
4884,Borgmester Christiansens Gade,2450,2,12.528967,55.649759
4885,Borgmester Christiansens Gade,2450,3,12.531163,55.649884
4886,Borgmester Christiansens Gade,2450,4,12.529178,55.649735
4887,Borgmester Christiansens Gade,2450,5,12.531336,55.649866
4888,Borgmester Christiansens Gade,2450,6,12.529958,55.649646
4889,Borgmester Christiansens Gade,2450,7,12.531526,55.649843
4890,Borgmester Christiansens Gade,2450,8,12.530133,55.649625
4891,Borgmester Christiansens Gade,2450,9,12.531788,55.649813
4892,Borgmester Christiansens Gade,2450,10,12.530302,55.649607
4893,Borgmester Christiansens Gade,2450,11,12.532053,55.64978
4894,Borgmester Christiansens Gade,2450,13,12.53235,55.649745
4895,Borgmester Christiansens Gade,2450,20,12.535073,55.648602
4896,Borgmester Christiansens Gade,2450,22,12.534876,55.648562
4897,Borgmester Christiansens Gade,2450,24,12.534694,55.648465
4898,Borgmester Christiansens Gade,2450,26,12.53447,55.648396
4899,Borgmester Christiansens Gade,2450,27,12.532983,55.64963
4900,Borgmester Christiansens Gade,2450,28,12.535206,55.648508
4901,Borgmester Christiansens Gade,2450,29,12.533674,55.649442
4902,Borgmester Christiansens Gade,2450,30,12.535417,55.648444
4903,Borgmester Christiansens Gade,2450,31,12.533903,55.649363
4904,Borgmester Christiansens Gade,2450,32,12.535619,55.648375
4905,Borgmester Christiansens Gade,2450,33,12.534131,55.649282
4906,Borgmester Christiansens Gade,2450,34,12.53582,55.648307
4907,Borgmester Christiansens Gade,2450,35,12.534925,55.649008
4908,Borgmester Christiansens Gade,2450,36,12.536053,55.648227
4909,Borgmester Christiansens Gade,2450,37,12.535253,55.648897
4910,Borgmester Christiansens Gade,2450,39,12.53587,55.648698
4911,Borgmester Christiansens Gade,2450,40,12.537661,55.647614
4912,Borgmester Christiansens Gade,2450,41,12.536048,55.648638
4913,Borgmester Christiansens Gade,2450,42,12.538162,55.6475
4914,Borgmester Christiansens Gade,2450,43,12.536224,55.648581
4915,Borgmester Christiansens Gade,2450,45,12.536383,55.648527
4916,Borgmester Christiansens Gade,2450,48,12.539008,55.646553
4917,Borgmester Christiansens Gade,2450,49,12.538602,55.647814
4918,Borgmester Christiansens Gade,2450,50,12.540001,55.646524
4919,Borgmester Christiansens Gade,2450,53F,12.541041,55.647553
4920,Borgmester Christiansens Gade,2450,55,12.5397975,55.6473874
4921,Borgmester Christiansens Gade,2450,59,12.541097,55.647084
7000,Bådehavnsgade,2450,2A,12.541645,55.645948
7001,Bådehavnsgade,2450,2B,12.54112,55.646133
7002,Bådehavnsgade,2450,2C,12.541197,55.646364
7003,Bådehavnsgade,2450,3,12.541619,55.645141
7004,Bådehavnsgade,2450,4,12.54121,55.645541
7005,Bådehavnsgade,2450,6,12.540707,55.645267
7006,Bådehavnsgade,2450,8,12.540499,55.644964
7007,Bådehavnsgade,2450,10,12.540507,55.644733
7008,Bådehavnsgade,2450,12,12.540153,55.64445
7009,Bådehavnsgade,2450,20,12.539344,55.643736
7010,Bådehavnsgade,2450,22,12.539296,55.64345
7011,Bådehavnsgade,2450,27,12.5406419,55.6428081
7012,Bådehavnsgade,2450,29A,12.5398887,55.6424373
7013,Bådehavnsgade,2450,29B,12.5400778,55.6425203
7014,Bådehavnsgade,2450,29C,12.540599,55.642567
7015,Bådehavnsgade,2450,31B,12.5399387,55.6422775
7016,Bådehavnsgade,2450,31C,12.5401067,55.6423066
7017,Bådehavnsgade,2450,31D,12.5401959,55.6423114
7018,Bådehavnsgade,2450,31E,12.5403295,55.6423104
7019,Bådehavnsgade,2450,31F,12.5405977,55.6423347
7020,Bådehavnsgade,2450,33B,12.5400423,55.6421379
7021,Bådehavnsgade,2450,33C,12.5401876,55.6421353
7022,Bådehavnsgade,2450,33D,12.5403167,55.6421508
7023,Bådehavnsgade,2450,33E,12.5406234,55.6421816
7024,Bådehavnsgade,2450,35A,12.53986,55.6418892
7025,Bådehavnsgade,2450,35B,12.5399814,55.6419343
7026,Bådehavnsgade,2450,35C,12.5401625,55.6419522
7027,Bådehavnsgade,2450,35D,12.5404288,55.6419317
7028,Bådehavnsgade,2450,35E,12.540573,55.6419543
7029,Bådehavnsgade,2450,35F,12.5407772,55.6419782
7030,Bådehavnsgade,2450,36,12.539235,55.642584
7031,Bådehavnsgade,2450,37A,12.5399014,55.6417651
7032,Bådehavnsgade,2450,37B,12.5400656,55.6417805
7033,Bådehavnsgade,2450,37C,12.540239,55.641803
7034,Bådehavnsgade,2450,37D,12.5403921,55.6418052
7035,Bådehavnsgade,2450,37E,12.5405475,55.6417941
7036,Bådehavnsgade,2450,37F,12.5407936,55.6418454
7037,Bådehavnsgade,2450,38,12.539427,55.642014
7038,Bådehavnsgade,2450,39A,12.5399847,55.6415262
7039,Bådehavnsgade,2450,39B,12.5402191,55.641539
7040,Bådehavnsgade,2450,39C,12.540356,55.6415553
7041,Bådehavnsgade,2450,39D,12.5405111,55.6415736
7042,Bådehavnsgade,2450,39E,12.5407273,55.6415866
7043,Bådehavnsgade,2450,40,12.539543,55.641603
7044,Bådehavnsgade,2450,42,12.539775,55.640722
7045,Bådehavnsgade,2450,42A,12.539295,55.639899
7046,Bådehavnsgade,2450,42B,12.539285,55.639979
7047,Bådehavnsgade,2450,43,12.540591,55.641233
7048,Bådehavnsgade,2450,44,12.539643,55.639751
7049,Bådehavnsgade,2450,44A,12.539394,55.639705
7050,Bådehavnsgade,2450,44B,12.539253,55.639695
7051,Bådehavnsgade,2450,44C,12.539105,55.639682
7052,Bådehavnsgade,2450,44D,12.538876,55.639658
7053,Bådehavnsgade,2450,45B,12.5410283,55.6411212
7054,Bådehavnsgade,2450,46A,12.539542,55.639496
7055,Bådehavnsgade,2450,46B,12.539317,55.639523
7056,Bådehavnsgade,2450,46C,12.538981,55.639495
7057,Bådehavnsgade,2450,46D,12.538582,55.639447
7058,Bådehavnsgade,2450,46E,12.538414,55.63939
7059,Bådehavnsgade,2450,47,12.540177,55.640836
7060,Bådehavnsgade,2450,48,12.539825,55.639234
7061,Bådehavnsgade,2450,49,12.540219,55.640663
7062,Bådehavnsgade,2450,50,12.540218,55.638821
7063,Bådehavnsgade,2450,51,12.540336,55.640462
7064,Bådehavnsgade,2450,57,12.540602,55.639381
7065,Bådehavnsgade,2450,59,12.540821,55.639018
8283,Damagervej,2450,3A,12.525652,55.64815
8284,Damagervej,2450,3B,12.525515,55.648067
8285,Damagervej,2450,4,12.524956,55.648129
8286,Damagervej,2450,5A,12.525381,55.647986
8287,Damagervej,2450,5B,12.525261,55.647912
8288,Damagervej,2450,6,12.524834,55.648218
8289,Damagervej,2450,7,12.525137,55.647831
8290,Damagervej,2450,8,12.524741,55.648293
8291,Damagervej,2450,9,12.524977,55.647742
8292,Damagervej,2450,10,12.524469,55.647825
8293,Damagervej,2450,11,12.524816,55.647647
8294,Damagervej,2450,12,12.524358,55.647913
8295,Damagervej,2450,13,12.524661,55.647552
8296,Damagervej,2450,14,12.524267,55.647982
8297,Damagervej,2450,15,12.524514,55.647459
8298,Damagervej,2450,16,12.524013,55.6475
8299,Damagervej,2450,17,12.524359,55.647363
8300,Damagervej,2450,18,12.52389,55.647595
8301,Damagervej,2450,19,12.524202,55.647267
8302,Damagervej,2450,20,12.523794,55.647669
8303,Damagervej,2450,21,12.524039,55.64717
9708,Edvard Storms Vej,2450,1,12.537822,55.656724
9709,Edvard Storms Vej,2450,3,12.537655,55.656755
9710,Edvard Storms Vej,2450,5,12.537453,55.656791
9711,Edvard Storms Vej,2450,7,12.5373,55.656819
9712,Edvard Storms Vej,2450,9,12.536697,55.656933
9713,Edvard Storms Vej,2450,11,12.536362,55.656996
10073,Ellebjergvej,2450,1,12.527031,55.649997
10074,Ellebjergvej,2450,2,12.527179,55.650306
10075,Ellebjergvej,2450,3,12.526867,55.65
10076,Ellebjergvej,2450,4,12.526847,55.650386
10077,Ellebjergvej,2450,5,12.526683,55.650002
10078,Ellebjergvej,2450,6,12.52685,55.650476
10079,Ellebjergvej,2450,7,12.526503,55.650005
10080,Ellebjergvej,2450,8,12.526853,55.650577
10081,Ellebjergvej,2450,9,12.526356,55.650005
10082,Ellebjergvej,2450,10,12.526667,55.650652
10083,Ellebjergvej,2450,11,12.526198,55.650008
10084,Ellebjergvej,2450,12,12.526564,55.650653
10085,Ellebjergvej,2450,13,12.526008,55.650013
10086,Ellebjergvej,2450,14,12.526459,55.650656
10087,Ellebjergvej,2450,15,12.525784,55.650015
10088,Ellebjergvej,2450,16,12.526347,55.650654
10089,Ellebjergvej,2450,17,12.525503,55.650015
10090,Ellebjergvej,2450,18,12.526255,55.650551
10091,Ellebjergvej,2450,19,12.525296,55.650016
10092,Ellebjergvej,2450,20,12.526256,55.650423
10093,Ellebjergvej,2450,21,12.525104,55.650018
10094,Ellebjergvej,2450,22,12.525998,55.650659
10095,Ellebjergvej,2450,23,12.524917,55.650018
10096,Ellebjergvej,2450,24,12.525895,55.650661
10097,Ellebjergvej,2450,26,12.525769,55.650662
10098,Ellebjergvej,2450,28,12.525566,55.650616
10099,Ellebjergvej,2450,30,12.525569,55.650512
10100,Ellebjergvej,2450,32,12.525565,55.650402
10101,Ellebjergvej,2450,34,12.525211,55.650354
10102,Ellebjergvej,2450,36,12.525017,55.650358
10103,Ellebjergvej,2450,39,12.5232523,55.6496383
10104,Ellebjergvej,2450,49,12.522432,55.64999
10105,Ellebjergvej,2450,50,12.52249,55.650393
10106,Ellebjergvej,2450,52,12.521803,55.650459
10107,Ellebjergvej,2450,54,12.52155,55.650404
10108,Ellebjergvej,2450,56,12.5212477,55.6504029
10109,Ellebjergvej,2450,80,12.516613,55.650713
10110,Ellebjergvej,2450,138,12.510847,55.65074
10111,Ellebjergvej,2450,140,12.509552,55.651637
10112,Ellestykket,2450,1,12.5127273,55.6507641
10113,Ellestykket,2450,2,12.5131615,55.65075
10114,Ellestykket,2450,3,12.5124536,55.650772
10115,Ellestykket,2450,4,12.5134314,55.6507411
10116,Ellestykket,2450,5,12.5121876,55.6507842
10117,Ellestykket,2450,6,12.5137032,55.650731
10118,Ellestykket,2450,8,12.5136384,55.6508615
10119,Ellestykket,2450,10,12.513363,55.650873
10120,Ellestykket,2450,12,12.5130892,55.6508807
10121,Ellestykket,2450,14,12.5131975,55.6510974
10122,Ellestykket,2450,15,12.5122758,55.6509078
10123,Ellestykket,2450,16,12.513466,55.651089
10124,Ellestykket,2450,17,12.5125456,55.6508987
10125,Ellestykket,2450,18,12.5137371,55.6510784
10126,Ellestykket,2450,19,12.5128211,55.6508897
10127,Ellestykket,2450,20,12.5136705,55.6512046
10128,Ellestykket,2450,21,12.5127614,55.6511115
10129,Ellestykket,2450,22,12.5133968,55.651217
10130,Ellestykket,2450,23,12.51249,55.651121
10131,Ellestykket,2450,24,12.5131287,55.6512227
10132,Ellestykket,2450,26,12.5132315,55.6514433
10133,Ellestykket,2450,28,12.5135013,55.6514322
10134,Ellestykket,2450,30,12.5137751,55.6514274
10135,Ellestykket,2450,32,12.514086,55.65176
10136,Ellestykket,2450,34,12.5137046,55.6515532
10137,Ellestykket,2450,36,12.5134308,55.6515623
10138,Ellestykket,2450,37,12.512855,55.6512339
10139,Ellestykket,2450,38,12.5131917,55.6515433
10140,Ellestykket,2450,44,12.513805,55.651771
10277,Elværksvej,2450,3,12.556921,55.654012
10278,Elværksvej,2450,5,12.556642,55.654371
10279,Elværksvej,2450,8,12.555523,55.654909
10280,Elværksvej,2450,9,12.55572,55.654579
10281,Elværksvej,2450,11,12.554457,55.654888
11124,Enghavevej,2450,80,12.540915,55.662033
11125,Enghavevej,2450,82,12.54077,55.661766
11126,Enghavevej,2450,84,12.540339,55.661015
11127,Enghavevej,2450,88,12.538779,55.660317
11128,Enghavevej,2450,90,12.538606,55.659686
11129,Enghavevej,2450,92,12.539881,55.660169
11130,Enghavevej,2450,94,12.539772,55.660002
11131,Enghavevej,2450,96,12.539685,55.659848
11132,Enghavevej,2450,98,12.53962,55.659738
11133,Enghavevej,2450,100,12.539565,55.65963
11134,Enghavevej,2450,102,12.5395,55.659522
11135,Enghavevej,2450,104,12.539444,55.659432
11136,Enghavevej,2450,106,12.539386,55.659331
11137,Enghavevej,2450,108,12.539336,55.659243
11138,Enghavevej,2450,110,12.539287,55.659159
11139,Enghavevej,2450,112,12.539239,55.659066
11140,Enghavevej,2450,114,12.539084,55.658979
11141,Enghavevej,2450,116,12.539026,55.65888
11142,Enghavevej,2450,118,12.538916,55.658788
11143,Enghavevej,2450,120,12.53879,55.65879
11144,Enghavevej,2450,122,12.538595,55.65879
11145,Enghavevej,2450,124,12.53835,55.65879
11146,Enghavevej,2450,126,12.538118,55.65879
11147,Enghavevej,2450,128,12.537922,55.658786
11148,Enghavevej,2450,130,12.537713,55.658789
11149,Enghavevej,2450,132,12.537498,55.658791
11150,Enghavevej,2450,134,12.537294,55.658791
11151,Enghavevej,2450,136,12.537128,55.658792
11152,Enghavevej,2450,138,12.536941,55.658787
11153,Enghavevej,2450,140,12.536689,55.658759
11154,Enghavevej,2450,142,12.536562,55.658759
11155,Enghavevej,2450,152,12.538849,55.65836
11156,Enghavevej,2450,154,12.538779,55.658232
11157,Enghavevej,2450,156,12.538715,55.658121
11158,Enghavevej,2450,158,12.538653,55.658012
11159,Enghavevej,2450,160,12.538593,55.657906
11160,Enghavevej,2450,162,12.538535,55.657804
11161,Enghavevej,2450,164,12.538479,55.657702
11162,Enghavevej,2450,166,12.538425,55.657608
11163,Enghavevej,2450,168,12.538165,55.657326
11164,Enghavevej,2450,170,12.537972,55.656987
11165,Enghavevej,2450,172,12.537895,55.656677
11166,Enghavevej,2450,174,12.537816,55.65654
11167,Enghavevej,2450,176,12.537737,55.656401
11168,Enghavevej,2450,178,12.53759,55.65614
11169,Enghavevej,2450,180,12.537522,55.656022
11170,Enghavevej,2450,182,12.537447,55.655885
11171,Enghavevej,2450,184,12.53736,55.655732
11172,Enghavevej,2450,198,12.538093,55.653987
11173,Enghavevej,2450,199,12.538899,55.653862
11174,Enghavevej,2450,200,12.538298,55.653665
11175,Engholmen,2450,4,12.532782,55.648726
11176,Engholmen,2450,6,12.532595,55.648708
11177,Engholmen,2450,8,12.532406,55.648691
11178,Engholmen,2450,10,12.532216,55.648675
11179,Engholmen,2450,12,12.532027,55.648658
11180,Engholmen,2450,14,12.53184,55.648642
11181,Engholmen,2450,16,12.53165,55.648626
11182,Engholmen,2450,18,12.531462,55.648606
11183,Engholmen,2450,20,12.531276,55.648593
11184,Engholmen,2450,28,12.531131,55.649148
11185,Engholmen,2450,30,12.531186,55.649352
11186,Engholmen,2450,32,12.531594,55.649418
11187,Engholmen,2450,34,12.531518,55.6492
11188,Engholmen,2450,36,12.531246,55.648852
11189,Engholmen,2450,38,12.531532,55.649088
11190,Engholmen,2450,40,12.531608,55.649304
11191,Engholmen,2450,42,12.532011,55.649371
11192,Engholmen,2450,44,12.531932,55.649145
11193,Engholmen,2450,46,12.531956,55.649037
11194,Engholmen,2450,48,12.532032,55.649253
11195,Engholmen,2450,50,12.532434,55.649318
11196,Engholmen,2450,52,12.532354,55.649101
11197,Engholmen,2450,54,12.532382,55.648987
11198,Engholmen,2450,56,12.53245,55.649203
11199,Engholmen,2450,58,12.532853,55.649268
11200,Engholmen,2450,60,12.532777,55.649052
11201,Engholmen,2450,62,12.532797,55.648944
11202,Engholmen,2450,64,12.532868,55.649149
11677,Ernst Kapers Vej,2450,2,12.537044,55.655312
11678,Ernst Kapers Vej,2450,4,12.536979,55.655202
11679,Ernst Kapers Vej,2450,6,12.536921,55.655104
11680,Ernst Kapers Vej,2450,8,12.536859,55.655002
11681,Ernst Kapers Vej,2450,10,12.536805,55.654902
11682,Ernst Kapers Vej,2450,12,12.536745,55.654808
11683,Ernst Kapers Vej,2450,14,12.536685,55.654706
11684,Ernst Kapers Vej,2450,16,12.536631,55.654607
11685,Ernst Kapers Vej,2450,18,12.536569,55.654496
12389,Fiskerihavnsgade,2450,2,12.558875,55.658149
12390,Fiskerihavnsgade,2450,3,12.560079,55.658633
12391,Fiskerihavnsgade,2450,4,12.55959,55.658266
12392,Fiskerihavnsgade,2450,6,12.561019,55.658427
12393,Fiskerihavnsgade,2450,8,12.561842,55.658562
12394,Fiskerihavnsgade,2450,10,12.562355,55.65913
12395,Fiskerihavnsgade,2450,14,12.562739,55.659059
12933,Fragtvej,2450,14,12.5336477,55.6424274
13454,Frederikskaj,2450,2,12.543487,55.646931
13455,Frederikskaj,2450,4,12.542871,55.647178
13456,Frederikskaj,2450,6,12.543588,55.647612
13457,Frederikskaj,2450,8,12.543324,55.648317
13458,Frederikskaj,2450,12,12.541849,55.649624
14637,Gamle Vasbygade,2450,49,12.539789,55.654192
15521,Glinkasvej,2450,2,12.526868,55.64666
15522,Glinkasvej,2450,4,12.526894,55.646582
15523,Glinkasvej,2450,6,12.526911,55.646492
15524,Glinkasvej,2450,8,12.526945,55.646375
15525,Glinkasvej,2450,10,12.526984,55.646267
15526,Glinkasvej,2450,12,12.527009,55.646191
15527,Glinkasvej,2450,14,12.52702,55.646107
15528,Glinkasvej,2450,16,12.52704,55.646027
15529,Glinkasvej,2450,18,12.527067,55.645932
15530,Glinkasvej,2450,20,12.527096,55.645832
15543,Glucksvej,2450,1,12.534149,55.647804
15544,Glucksvej,2450,2,12.534831,55.647514
15545,Glucksvej,2450,3,12.534115,55.647893
15546,Glucksvej,2450,4,12.534684,55.647671
15547,Glucksvej,2450,5,12.534072,55.64799
15548,Glucksvej,2450,6,12.534642,55.64777
15549,Glucksvej,2450,7,12.534022,55.648082
15550,Glucksvej,2450,8,12.534601,55.647878
15551,Glucksvej,2450,9,12.533991,55.648181
15552,Glucksvej,2450,10,12.534546,55.648009
15553,Glucksvej,2450,11,12.533959,55.648278
15554,Glucksvej,2450,12,12.534509,55.64811
15555,Glucksvej,2450,13,12.533915,55.648391
15556,Glucksvej,2450,14,12.534473,55.648206
15557,Glucksvej,2450,16,12.534333,55.648382
16561,Grønrisvej,2450,1,12.523092,55.649281
16562,Grønrisvej,2450,2,12.522709,55.649356
16563,Grønrisvej,2450,3,12.522972,55.649195
16564,Grønrisvej,2450,4,12.522048,55.649179
16565,Grønrisvej,2450,5,12.522792,55.649085
16566,Grønrisvej,2450,7A,12.522682,55.648933
16567,Grønrisvej,2450,7B,12.522839,55.648853
16568,Grønrisvej,2450,7C,12.52301,55.648772
16569,Grønrisvej,2450,8,12.522068,55.648983
16570,Grønrisvej,2450,9,12.523254,55.64893
16571,Grønrisvej,2450,11,12.522366,55.648779
17153,Gustav Bangs Gade,2450,1,12.534784,55.651943
17154,Gustav Bangs Gade,2450,3,12.534953,55.651886
17155,Gustav Bangs Gade,2450,5,12.535124,55.651828
17156,Gustav Bangs Gade,2450,7,12.535327,55.651762
17157,Gustav Bangs Gade,2450,9,12.535538,55.651693
17158,Gustav Bangs Gade,2450,11,12.535709,55.651637
17159,Gustav Bangs Gade,2450,13,12.535909,55.651569
17160,Gustav Bangs Gade,2450,15,12.536108,55.651501
17161,Gustav Bangs Gade,2450,17,12.536276,55.651446
17162,Gustav Bangs Gade,2450,19,12.536454,55.651389
17163,Gustav Bangs Gade,2450,21,12.536686,55.651309
17665,Hammelstrupvej,2450,1,12.527137,55.64759
17666,Hammelstrupvej,2450,3,12.526993,55.647622
17667,Hammelstrupvej,2450,4A,12.526577,55.647842
17668,Hammelstrupvej,2450,4B,12.526427,55.64776
17669,Hammelstrupvej,2450,5,12.526869,55.647639
17670,Hammelstrupvej,2450,6,12.526245,55.647653
17671,Hammelstrupvej,2450,7,12.526771,55.647632
17672,Hammelstrupvej,2450,8,12.52607,55.647546
17673,Hammelstrupvej,2450,9,12.52659,55.647522
17674,Hammelstrupvej,2450,10,12.525881,55.647434
17675,Hammelstrupvej,2450,11,12.526446,55.647435
17676,Hammelstrupvej,2450,12,12.525717,55.647334
17677,Hammelstrupvej,2450,13,12.526325,55.647362
17678,Hammelstrupvej,2450,14,12.525556,55.647241
17679,Hammelstrupvej,2450,15,12.526196,55.647284
17680,Hammelstrupvej,2450,16,12.5254,55.647142
17681,Hammelstrupvej,2450,17,12.526058,55.647197
17682,Hammelstrupvej,2450,18,12.525246,55.647049
17683,Hammelstrupvej,2450,19,12.525915,55.647109
17684,Hammelstrupvej,2450,21,12.525793,55.647034
17685,Hammelstrupvej,2450,23,12.525677,55.646968
17686,Hammelstrupvej,2450,24,12.52506,55.646923
17687,Hammelstrupvej,2450,25,12.525535,55.646884
17688,Hammelstrupvej,2450,26,12.524908,55.64683
17689,Hammelstrupvej,2450,27,12.525424,55.646816
17690,Hammelstrupvej,2450,28,12.524752,55.646737
17691,Hammelstrupvej,2450,29,12.524835,55.64646
17692,Hammelstrupvej,2450,30,12.524595,55.646645
17693,Hammelstrupvej,2450,31,12.524681,55.646369
17694,Hammelstrupvej,2450,32,12.52427,55.64652
17695,Hammelstrupvej,2450,33,12.52453,55.646277
17696,Hammelstrupvej,2450,34,12.524141,55.646626
17697,Hammelstrupvej,2450,35,12.524031,55.645876
17698,Hammelstrupvej,2450,36,12.524033,55.646729
17699,Hammelstrupvej,2450,37,12.523831,55.645779
17700,Hammelstrupvej,2450,38,12.523907,55.646847
17701,Hammelstrupvej,2450,39,12.523728,55.64571
17702,Hammelstrupvej,2450,40,12.523792,55.646953
17703,Hammelstrupvej,2450,44,12.523713,55.646286
17704,Hammelstrupvej,2450,100,12.520509,55.641893
17705,Hammelstrupvej,2450,110,12.52021,55.641759
17806,Hans Olriks Vej,2450,2,12.538303,55.657588
17807,Hans Olriks Vej,2450,4,12.538026,55.657637
17808,Hans Olriks Vej,2450,6,12.537757,55.657687
17809,Hans Olriks Vej,2450,8,12.537251,55.657772
17810,Hans Olriks Vej,2450,10,12.537112,55.657797
17811,Hans Olriks Vej,2450,12,12.53689,55.657841
17812,Hans Olriks Vej,2450,14,12.536743,55.657868
17813,Hans Olriks Vej,2450,16,12.536194,55.657969
17814,Hans Olriks Vej,2450,18,12.535863,55.658028
17912,Harald Jensens Gade,2450,1,12.536173,55.650148
17913,Harald Jensens Gade,2450,2,12.535977,55.649956
17914,Harald Jensens Gade,2450,3,12.536337,55.650096
17915,Harald Jensens Gade,2450,4,12.536146,55.649903
17916,Harald Jensens Gade,2450,5,12.536526,55.650034
17917,Harald Jensens Gade,2450,6,12.536341,55.649842
17918,Harald Jensens Gade,2450,7,12.536701,55.64998
17919,Harald Jensens Gade,2450,8,12.536521,55.649782
18646,Haydnsvej,2450,1,12.525073,55.650749
18647,Haydnsvej,2450,2,12.524355,55.65038
18648,Haydnsvej,2450,3,12.52504,55.65065
18649,Haydnsvej,2450,5,12.525016,55.650566
18650,Haydnsvej,2450,7,12.524973,55.650437
18651,Haydnsvej,2450,9,12.524841,55.649959
18652,Haydnsvej,2450,11,12.524813,55.649851
18653,Haydnsvej,2450,13,12.524776,55.649734
18654,Haydnsvej,2450,15,12.52475,55.649608
18655,Haydnsvej,2450,17,12.524714,55.649502
18656,Haydnsvej,2450,19,12.524687,55.649416
18657,Haydnsvej,2450,21,12.524656,55.649321
18658,Haydnsvej,2450,23,12.524631,55.649232
18659,Haydnsvej,2450,25,12.524607,55.649143
21885,Händelsvej,2450,1,12.527327,55.649613
21886,Händelsvej,2450,2,12.527122,55.649824
21887,Händelsvej,2450,3,12.527155,55.649551
21888,Händelsvej,2450,4,12.52698,55.649775
21889,Händelsvej,2450,6,12.526844,55.649728
21890,Händelsvej,2450,7,12.526625,55.649365
21891,Händelsvej,2450,8,12.526701,55.649678
21892,Händelsvej,2450,9,12.526541,55.649327
21893,Händelsvej,2450,10,12.526564,55.649629
21894,Händelsvej,2450,11,12.526398,55.649281
21895,Händelsvej,2450,12,12.526424,55.649581
21896,Händelsvej,2450,13,12.526256,55.649232
21897,Händelsvej,2450,14,12.526283,55.649531
21898,Händelsvej,2450,15,12.526119,55.649188
21899,Händelsvej,2450,16,12.526138,55.64948
21900,Händelsvej,2450,17,12.525982,55.649137
21901,Händelsvej,2450,18,12.525997,55.649432
21902,Händelsvej,2450,19,12.525843,55.649087
21903,Händelsvej,2450,20,12.525858,55.649389
21904,Händelsvej,2450,21,12.525701,55.64904
21905,Händelsvej,2450,22,12.525714,55.649339
21906,Händelsvej,2450,23,12.525392,55.64892
21907,Händelsvej,2450,24,12.525569,55.649291
21908,Händelsvej,2450,25,12.524876,55.648606
21909,Händelsvej,2450,26,12.525435,55.649242
21910,Händelsvej,2450,27,12.524772,55.648565
21911,Händelsvej,2450,28,12.525292,55.649192
21912,Händelsvej,2450,29A,12.52465,55.648517
21913,Händelsvej,2450,29B,12.524547,55.648473
21914,Händelsvej,2450,30,12.525125,55.64913
21915,Händelsvej,2450,31,12.524563,55.648363
21916,Händelsvej,2450,32,12.524972,55.649077
21917,Händelsvej,2450,33,12.524428,55.648304
21918,Händelsvej,2450,34,12.524839,55.649034
21919,Händelsvej,2450,35,12.524263,55.648238
21920,Händelsvej,2450,37,12.524117,55.648173
21921,Händelsvej,2450,38,12.523988,55.648551
21922,Händelsvej,2450,39,12.524092,55.648039
21923,Händelsvej,2450,40,12.524167,55.64867
21924,Händelsvej,2450,41,12.523943,55.64798
21925,Händelsvej,2450,42,12.524335,55.648786
21926,Händelsvej,2450,43,12.523776,55.647912
21927,Händelsvej,2450,44,12.523655,55.64851
21928,Händelsvej,2450,45,12.523627,55.647848
21929,Händelsvej,2450,46,12.523464,55.648598
21930,Händelsvej,2450,47,12.523603,55.647719
21931,Händelsvej,2450,48,12.523275,55.648686
21932,Händelsvej,2450,49,12.523462,55.647659
21933,Händelsvej,2450,50,12.523362,55.648132
21934,Händelsvej,2450,51,12.523295,55.647591
21935,Händelsvej,2450,52,12.52354,55.648243
21936,Händelsvej,2450,53,12.523156,55.647533
21937,Händelsvej,2450,54,12.523705,55.648361
21938,Händelsvej,2450,56,12.523031,55.648087
21939,Händelsvej,2450,58,12.522838,55.648179
21940,Händelsvej,2450,60,12.522649,55.648268
21941,Händelsvej,2450,62,12.522459,55.64836
21942,Händelsvej,2450,64,12.522272,55.648447
21943,Händelsvej,2450,66,12.522073,55.648539
21944,Händelsvej,2450,68,12.522803,55.648442
22581,Hørdumsgade,2450,1,12.538086,55.65373
22582,Hørdumsgade,2450,3,12.537884,55.653685
22583,Hørdumsgade,2450,5,12.537702,55.653641
22584,Hørdumsgade,2450,7,12.537469,55.653585
22585,Hørdumsgade,2450,9,12.537273,55.653534
22586,Hørdumsgade,2450,11,12.537095,55.653489
22587,Hørdumsgade,2450,13,12.536905,55.653441
22588,Hørdumsgade,2450,15,12.536682,55.653384
22589,Hørdumsgade,2450,17,12.536482,55.653333
22590,Hørdumsgade,2450,19,12.536296,55.653291
22591,Hørdumsgade,2450,21,12.536074,55.65323
22592,Hørdumsgade,2450,23,12.535487,55.65307
22593,Hørdumsgade,2450,25,12.535301,55.653022
22594,Hørdumsgade,2450,27,12.535146,55.65298
22595,Hørdumsgade,2450,29,12.534942,55.652923
22596,Hørdumsgade,2450,31,12.534726,55.652866
22597,Hørdumsgade,2450,33,12.534543,55.652804
22598,Hørdumsgade,2450,35,12.534397,55.652765
22599,Hørdumsgade,2450,37,12.534135,55.652689
22600,Hørdumsgade,2450,39,12.533962,55.652641
22601,Hørdumsgade,2450,41,12.533781,55.652587
22602,Hørdumsgade,2450,43,12.533557,55.652525
22603,Hørdumsgade,2450,49,12.532662,55.65227
22604,Hørdumsgade,2450,51,12.532399,55.652194
22605,Hørdumsgade,2450,53,12.531968,55.652069
22606,Hørdumsgade,2450,55,12.531677,55.651984
22607,Hørdumsgade,2450,57,12.531456,55.651922
22608,Hørdumsgade,2450,59,12.531202,55.65185
22609,Hørdumsgade,2450,61,12.530933,55.651772
22610,Hørdumsgade,2450,63,12.530702,55.651709
22611,Hørdumsgade,2450,65,12.53049,55.651647
22612,Hørdumsgade,2450,67,12.530234,55.651573
22613,Hørdumsgade,2450,69,12.529976,55.651501
22614,Hørdumsgade,2450,71,12.529703,55.651426
22615,Hørdumsgade,2450,73,12.529467,55.651359
22616,Hørdumsgade,2450,75,12.529242,55.651295
22617,Hørdumsgade,2450,77,12.528987,55.651224
22618,Hørdumsgade,2450,79,12.528731,55.65115
22619,Hørdumsgade,2450,81,12.52843,55.651065
24218,Johan Kellers Vej,2450,1,12.538053,55.658365
24219,Johan Kellers Vej,2450,2,12.537615,55.658317
24220,Johan Kellers Vej,2450,3,12.538002,55.65827
24221,Johan Kellers Vej,2450,4,12.537572,55.65824
24222,Johan Kellers Vej,2450,5,12.53795,55.65818
24223,Johan Kellers Vej,2450,6,12.537526,55.658158
24224,Johan Kellers Vej,2450,7,12.537883,55.658068
24225,Johan Kellers Vej,2450,8,12.537433,55.657996
24226,Johan Kellers Vej,2450,9,12.537809,55.657937
24227,Johan Kellers Vej,2450,10,12.53739,55.657911
24228,Johan Kellers Vej,2450,11,12.537759,55.657845
24229,Johan Kellers Vej,2450,12,12.537331,55.657812
24230,Johan Kellers Vej,2450,13,12.537688,55.657741
24231,Johan Kellers Vej,2450,14,12.536789,55.656872
24232,Johan Kellers Vej,2450,16,12.536731,55.65676
24233,Johan Kellers Vej,2450,18,12.536663,55.65664
24234,Johan Kellers Vej,2450,19,12.537172,55.656811
24235,Johan Kellers Vej,2450,20,12.536592,55.656522
24236,Johan Kellers Vej,2450,21,12.537111,55.656709
24237,Johan Kellers Vej,2450,22,12.536529,55.656394
24238,Johan Kellers Vej,2450,23,12.537049,55.656596
24239,Johan Kellers Vej,2450,24,12.536238,55.65599
24240,Johan Kellers Vej,2450,25,12.536984,55.656476
24241,Johan Kellers Vej,2450,26,12.536192,55.655898
24242,Johan Kellers Vej,2450,27,12.536927,55.656383
24243,Johan Kellers Vej,2450,28,12.536142,55.65581
24244,Johan Kellers Vej,2450,29,12.536867,55.656272
24245,Johan Kellers Vej,2450,30,12.536093,55.655718
24246,Johan Kellers Vej,2450,31,12.536803,55.656159
24247,Johan Kellers Vej,2450,32,12.536031,55.655631
24248,Johan Kellers Vej,2450,33,12.536583,55.6557
24249,Johan Kellers Vej,2450,34,12.535982,55.65554
24250,Johan Kellers Vej,2450,35,12.53652,55.655591
24251,Johan Kellers Vej,2450,36,12.535925,55.655448
24252,Johan Kellers Vej,2450,37,12.536464,55.655504
24253,Johan Kellers Vej,2450,38,12.535877,55.655357
24254,Johan Kellers Vej,2450,39,12.536416,55.655411
24255,Johan Kellers Vej,2450,40,12.53582,55.655267
24256,Johan Kellers Vej,2450,41,12.536361,55.655322
24257,Johan Kellers Vej,2450,42,12.535771,55.655179
24258,Johan Kellers Vej,2450,43,12.536311,55.655231
24259,Johan Kellers Vej,2450,44,12.535715,55.655088
24260,Johan Kellers Vej,2450,45,12.536258,55.655144
24261,Johan Kellers Vej,2450,46,12.535668,55.654999
24262,Johan Kellers Vej,2450,47,12.536204,55.655052
24263,Johan Kellers Vej,2450,48,12.535616,55.654907
24264,Johan Kellers Vej,2450,49,12.536167,55.654962
24265,Johan Kellers Vej,2450,50,12.535574,55.654818
24266,Johan Kellers Vej,2450,51,12.536109,55.65487
24267,Johan Kellers Vej,2450,53,12.536052,55.65478
24268,Johan Kellers Vej,2450,55,12.536008,55.654689
24269,Johan Kellers Vej,2450,57,12.535958,55.654598
24270,Johan Kellers Vej,2450,59,12.53591,55.654509
24271,Johan Kellers Vej,2450,61,12.53586,55.654419
24272,Johan Kellers Vej,2450,63,12.535802,55.65431
24317,Julius Andersens Vej,2450,1,12.513745,55.649799
24318,Julius Andersens Vej,2450,3,12.51651,55.649381
24319,Julius Andersens Vej,2450,5,12.5123559,55.6495708
24320,Julius Andersens Vej,2450,6,12.510281,55.647779
24321,Julius Andersens Vej,2450,7,12.512152,55.648925
26135,K.M. Klausens Gade,2450,2,12.538239,55.651279
26136,K.M. Klausens Gade,2450,4,12.5381607,55.6512052
26137,K.M. Klausens Gade,2450,6,12.5380859,55.6511383
26138,K.M. Klausens Gade,2450,8,12.538015,55.651069
26139,K.M. Klausens Gade,2450,10,12.537931,55.650992
26140,K.M. Klausens Gade,2450,12,12.537847,55.650914
26141,K.M. Klausens Gade,2450,14,12.537741,55.650818
26142,K.M. Klausens Gade,2450,16,12.537638,55.650722
26143,K.M. Klausens Gade,2450,18,12.537483,55.650584
26144,K.M. Klausens Gade,2450,20,12.537331,55.650451
26145,K.M. Klausens Gade,2450,22,12.537257,55.650365
26146,K.M. Klausens Gade,2450,24,12.537149,55.650275
26147,K.M. Klausens Gade,2450,26,12.537044,55.650181
26148,K.M. Klausens Gade,2450,28,12.536924,55.650077
26149,K.M. Klausens Gade,2450,30,12.536811,55.649981
26150,K.M. Klausens Gade,2450,32,12.536518,55.649709
26151,K.M. Klausens Gade,2450,34,12.536386,55.649589
26152,K.M. Klausens Gade,2450,36,12.536234,55.649461
26153,K.M. Klausens Gade,2450,38,12.5360907,55.6493429
26154,K.M. Klausens Gade,2450,40,12.535952,55.649229
26155,K.M. Klausens Gade,2450,42,12.53584,55.649138
26156,K.M. Klausens Gade,2450,44,12.535721,55.649041
26157,K.M. Klausens Gade,2450,46,12.535601,55.648942
26158,K.M. Klausens Gade,2450,48,12.53549,55.648847
26631,P. Knudsens Gade,2450,1,12.538521,55.653114
26632,P. Knudsens Gade,2450,2,12.538365,55.653459
26633,P. Knudsens Gade,2450,3,12.538334,55.653069
26634,P. Knudsens Gade,2450,4,12.538147,55.653414
26635,P. Knudsens Gade,2450,5,12.538135,55.653022
26636,P. Knudsens Gade,2450,6,12.537965,55.653353
26637,P. Knudsens Gade,2450,7,12.537951,55.652979
26638,P. Knudsens Gade,2450,8,12.537755,55.6533
26639,P. Knudsens Gade,2450,9,12.537752,55.652929
26640,P. Knudsens Gade,2450,10,12.537534,55.653242
26641,P. Knudsens Gade,2450,11,12.537535,55.652879
26642,P. Knudsens Gade,2450,12,12.537348,55.653204
26643,P. Knudsens Gade,2450,13,12.537334,55.652833
26644,P. Knudsens Gade,2450,14,12.537171,55.653159
26645,P. Knudsens Gade,2450,15,12.537123,55.652779
26646,P. Knudsens Gade,2450,16,12.53695,55.653102
26647,P. Knudsens Gade,2450,17,12.536909,55.652727
26648,P. Knudsens Gade,2450,18,12.536727,55.653055
26649,P. Knudsens Gade,2450,19,12.536704,55.652679
26650,P. Knudsens Gade,2450,20,12.536558,55.653006
26651,P. Knudsens Gade,2450,21,12.536517,55.652635
26652,P. Knudsens Gade,2450,22,12.536337,55.652951
26653,P. Knudsens Gade,2450,23,12.536335,55.652591
26654,P. Knudsens Gade,2450,24,12.535797,55.652824
26655,P. Knudsens Gade,2450,25,12.53614,55.652539
26656,P. Knudsens Gade,2450,26,12.535579,55.652762
26657,P. Knudsens Gade,2450,27,12.535306,55.652285
26658,P. Knudsens Gade,2450,28,12.535404,55.652711
26659,P. Knudsens Gade,2450,29,12.534953,55.652189
26660,P. Knudsens Gade,2450,30,12.535191,55.652655
26661,P. Knudsens Gade,2450,31,12.534613,55.652095
26662,P. Knudsens Gade,2450,32,12.534981,55.65259
26663,P. Knudsens Gade,2450,34,12.534802,55.65254
26664,P. Knudsens Gade,2450,35,12.532376,55.651364
26665,P. Knudsens Gade,2450,36,12.534625,55.652492
26666,P. Knudsens Gade,2450,37,12.531611,55.651075
26667,P. Knudsens Gade,2450,38,12.534421,55.65243
26668,P. Knudsens Gade,2450,39,12.530935,55.650868
26669,P. Knudsens Gade,2450,40,12.53421,55.652369
26670,P. Knudsens Gade,2450,41,12.530048,55.650439
26671,P. Knudsens Gade,2450,42,12.534036,55.65232
26672,P. Knudsens Gade,2450,43,12.530183,55.650311
26673,P. Knudsens Gade,2450,44,12.53381,55.652254
26674,P. Knudsens Gade,2450,45,12.5303289,55.6501707
26675,P. Knudsens Gade,2450,47,12.530478,55.650027
26676,P. Knudsens Gade,2450,49,12.5297206,55.6504645
26677,P. Knudsens Gade,2450,51,12.529534,55.6504
26678,P. Knudsens Gade,2450,53,12.529308,55.650322
26679,P. Knudsens Gade,2450,55,12.529062,55.650238
26680,P. Knudsens Gade,2450,58,12.532365,55.651787
26681,P. Knudsens Gade,2450,60,12.532265,55.65188
26682,P. Knudsens Gade,2450,62,12.532176,55.651967
26683,P. Knudsens Gade,2450,64,12.531919,55.6516
26684,P. Knudsens Gade,2450,66,12.531845,55.651674
26685,P. Knudsens Gade,2450,68,12.531769,55.651749
26686,P. Knudsens Gade,2450,70,12.531693,55.651824
26687,P. Knudsens Gade,2450,72,12.531445,55.651455
26688,P. Knudsens Gade,2450,74,12.531363,55.65153
26689,P. Knudsens Gade,2450,76,12.53128,55.651609
26690,P. Knudsens Gade,2450,78,12.531201,55.651685
26691,P. Knudsens Gade,2450,80,12.530982,55.651292
26692,P. Knudsens Gade,2450,82,12.530857,55.651414
26693,P. Knudsens Gade,2450,84,12.530742,55.651518
26694,P. Knudsens Gade,2450,86,12.53051,55.651135
26695,P. Knudsens Gade,2450,88,12.530403,55.651231
26696,P. Knudsens Gade,2450,90,12.5303054,55.6513223
26697,P. Knudsens Gade,2450,92,12.530215,55.651414
26698,P. Knudsens Gade,2450,94,12.530674,55.651535
26699,P. Knudsens Gade,2450,96,12.530046,55.65098
26700,P. Knudsens Gade,2450,98,12.529944,55.65107
26701,P. Knudsens Gade,2450,100,12.5298278,55.651175
26702,P. Knudsens Gade,2450,102,12.529728,55.651275
26703,P. Knudsens Gade,2450,104,12.529604,55.650791
26704,P. Knudsens Gade,2450,106,12.529522,55.650865
26705,P. Knudsens Gade,2450,108,12.529426,55.650955
26706,P. Knudsens Gade,2450,110,12.529332,55.651041
26707,P. Knudsens Gade,2450,112,12.529248,55.651129
26708,P. Knudsens Gade,2450,114,12.529125,55.650646
26709,P. Knudsens Gade,2450,116,12.529035,55.650734
26710,P. Knudsens Gade,2450,118,12.5289456,55.6508148
26711,P. Knudsens Gade,2450,120,12.528851,55.650902
26712,P. Knudsens Gade,2450,122,12.52876,55.65099
26713,P. Knudsens Gade,2450,124,12.5286903,55.6505229
26714,P. Knudsens Gade,2450,126,12.528529,55.650523
26715,P. Knudsens Gade,2450,128,12.528423,55.650614
26716,P. Knudsens Gade,2450,130,12.528395,55.650711
26717,P. Knudsens Gade,2450,132,12.528367,55.650795
26718,P. Knudsens Gade,2450,134,12.528344,55.65087
28945,Landvindingsgade,2450,16,12.557394,55.65397
30378,Louis Pios Gade,2450,1,12.535685,55.651276
30379,Louis Pios Gade,2450,3,12.535578,55.651195
30380,Louis Pios Gade,2450,5,12.535467,55.651101
30381,Louis Pios Gade,2450,6,12.534674,55.650805
30382,Louis Pios Gade,2450,7,12.535346,55.650998
30383,Louis Pios Gade,2450,8,12.534116,55.650648
30384,Louis Pios Gade,2450,9,12.5352,55.650884
30385,Louis Pios Gade,2450,10A,12.533696,55.650699
30386,Louis Pios Gade,2450,10B,12.533878,55.650872
30387,Louis Pios Gade,2450,11,12.535084,55.650782
30388,Louis Pios Gade,2450,12,12.533843,55.650159
30389,Louis Pios Gade,2450,13,12.534946,55.650671
30390,Louis Pios Gade,2450,15,12.53474,55.650512
30391,Louis Pios Gade,2450,17,12.534512,55.650304
30392,Louis Pios Gade,2450,19,12.534411,55.650213
30393,Louis Pios Gade,2450,21,12.534288,55.650113
30394,Louis Pios Gade,2450,23,12.534155,55.650004
30395,Louis Pios Gade,2450,25,12.534019,55.649894
30396,Louis Pios Gade,2450,27,12.533885,55.649779
30397,Louis Pios Gade,2450,29,12.533723,55.649646
30398,Louis Pios Gade,2450,31,12.533584,55.649523
32756,Molestien,2450,11,12.544866,55.643483
33003,Mozarts Plads,2450,1,12.534704,55.648514
33004,Mozarts Plads,2450,2,12.53336,55.64895
33005,Mozarts Plads,2450,3,12.533758,55.6485
33006,Mozartsvej,2450,5,12.53353,55.64853
33007,Mozartsvej,2450,7,12.532736,55.648461
33008,Mozartsvej,2450,9,12.53251,55.648441
33009,Mozartsvej,2450,11,12.531711,55.648371
33010,Mozartsvej,2450,13,12.531465,55.648349
33011,Mozartsvej,2450,15,12.53064,55.648269
33012,Mozartsvej,2450,17,12.530382,55.648241
33013,Mozartsvej,2450,18,12.530736,55.648508
33014,Mozartsvej,2450,19,12.529628,55.64818
33015,Mozartsvej,2450,20,12.530533,55.648489
33016,Mozartsvej,2450,21,12.529395,55.648157
33017,Mozartsvej,2450,22,12.530362,55.648472
33018,Mozartsvej,2450,23,12.529173,55.648134
33019,Mozartsvej,2450,24,12.530162,55.648454
33020,Mozartsvej,2450,26,12.529528,55.648401
33021,Mozartsvej,2450,27,12.528079,55.648034
33022,Mozartsvej,2450,28,12.529374,55.648385
33023,Mozartsvej,2450,29,12.527501,55.647978
33024,Mozartsvej,2450,30,12.529203,55.648371
33025,Mozartsvej,2450,32,12.527557,55.648216
33664,Natalie Zahles Vej,2450,1,12.535902,55.658383
33665,Natalie Zahles Vej,2450,3,12.535843,55.658283
33666,Natalie Zahles Vej,2450,5,12.535783,55.658172
33667,Natalie Zahles Vej,2450,7,12.535731,55.658077
33668,Natalie Zahles Vej,2450,9,12.53565,55.657896
33669,Natalie Zahles Vej,2450,15,12.534914,55.656934
33670,Natalie Zahles Vej,2450,17,12.534861,55.656821
33671,Natalie Zahles Vej,2450,19,12.534795,55.656713
33672,Natalie Zahles Vej,2450,21,12.534732,55.656603
33673,Natalie Zahles Vej,2450,23,12.534673,55.656493
33674,Natalie Zahles Vej,2450,25,12.534611,55.656384
36112,Offenbachsvej,2450,2,12.530441,55.647304
36113,Offenbachsvej,2450,3,12.52999,55.647408
36114,Offenbachsvej,2450,4,12.530414,55.647399
36115,Offenbachsvej,2450,5,12.529963,55.647503
36116,Offenbachsvej,2450,6,12.530387,55.647501
36117,Offenbachsvej,2450,7,12.529927,55.647632
36118,Offenbachsvej,2450,8,12.530358,55.647596
36119,Offenbachsvej,2450,9,12.529886,55.647772
36120,Offenbachsvej,2450,10,12.530329,55.647693
36121,Offenbachsvej,2450,11,12.529859,55.6479
36122,Offenbachsvej,2450,12,12.530301,55.647791
36123,Offenbachsvej,2450,13,12.529822,55.648011
36124,Offenbachsvej,2450,14,12.530279,55.647885
36125,Offenbachsvej,2450,15,12.529781,55.648149
36126,Offenbachsvej,2450,16,12.530243,55.647987
36127,Offenbachsvej,2450,18,12.530214,55.648084
36128,Offenbachsvej,2450,19,12.52968,55.648476
36129,Offenbachsvej,2450,20,12.530172,55.648205
36130,Offenbachsvej,2450,21,12.529659,55.648572
36131,Offenbachsvej,2450,22,12.530088,55.648581
36132,Offenbachsvej,2450,23,12.529616,55.648715
36133,Offenbachsvej,2450,24,12.530046,55.64871
36134,Offenbachsvej,2450,25,12.529577,55.648844
36135,Offenbachsvej,2450,26,12.530008,55.648839
36136,Offenbachsvej,2450,27,12.52954,55.648977
36137,Offenbachsvej,2450,28,12.529968,55.648969
36138,Offenbachsvej,2450,29,12.5295,55.649107
36139,Offenbachsvej,2450,30,12.529935,55.649098
36140,Offenbachsvej,2450,31,12.529464,55.649235
36141,Offenbachsvej,2450,32,12.5299,55.649229
36142,Offenbachsvej,2450,33,12.529423,55.649357
36143,Offenbachsvej,2450,34,12.529856,55.649353
36144,Offenbachsvej,2450,35,12.529395,55.649457
36145,Offenbachsvej,2450,36,12.529819,55.649489
36146,Offenbachsvej,2450,37,12.529366,55.649552
36147,Offenbachsvej,2450,39,12.529341,55.649654
36481,Otto Busses Vej,2450,2,12.550943,55.660638
36482,Otto Busses Vej,2450,4,12.550473,55.660901
36483,Otto Busses Vej,2450,5,12.553023,55.660302
36484,Otto Busses Vej,2450,6,12.547052,55.660846
36485,Otto Busses Vej,2450,8,12.5459,55.660678
36486,Otto Busses Vej,2450,10,12.545267,55.660563
36487,Otto Busses Vej,2450,12,12.544988,55.660542
36488,Otto Busses Vej,2450,14,12.544362,55.660394
36489,Otto Busses Vej,2450,16,12.544333,55.66044
36490,Otto Busses Vej,2450,18,12.544299,55.660498
36491,Otto Busses Vej,2450,20,12.544275,55.660559
36492,Otto Busses Vej,2450,22,12.543883,55.660324
36493,Otto Busses Vej,2450,24,12.543862,55.660381
36494,Otto Busses Vej,2450,26,12.543835,55.66044
36495,Otto Busses Vej,2450,28,12.543815,55.66049
36496,Otto Busses Vej,2450,30,12.543438,55.660265
36497,Otto Busses Vej,2450,32,12.543394,55.660325
36498,Otto Busses Vej,2450,34,12.543372,55.660378
36499,Otto Busses Vej,2450,36,12.543349,55.660425
36500,Otto Busses Vej,2450,38,12.542965,55.6602
36501,Otto Busses Vej,2450,40,12.542925,55.660254
36502,Otto Busses Vej,2450,42,12.542901,55.660306
36503,Otto Busses Vej,2450,44,12.542879,55.660357
36504,Otto Busses Vej,2450,46,12.542913,55.660507
36505,Otto Busses Vej,2450,48,12.543011,55.660523
36506,Otto Busses Vej,2450,50,12.543121,55.660537
36507,Otto Busses Vej,2450,52,12.543227,55.660554
36508,Otto Busses Vej,2450,54,12.543567,55.660573
36509,Otto Busses Vej,2450,56,12.543537,55.660638
36510,Otto Busses Vej,2450,58,12.543511,55.660699
36511,Otto Busses Vej,2450,60,12.543483,55.660752
36512,Otto Busses Vej,2450,62,12.543456,55.660806
36513,Otto Busses Vej,2450,66,12.543892,55.660901
36514,Otto Busses Vej,2450,68,12.543991,55.660919
36515,Otto Busses Vej,2450,70,12.544106,55.660937
36516,Otto Busses Vej,2450,72,12.544209,55.660951
36517,Otto Busses Vej,2450,74,12.544321,55.660965
36518,Otto Busses Vej,2450,76,12.54443,55.660976
37026,Parkstien,2450,1A,12.502503,55.642906
37027,Parkstien,2450,1B,12.502284,55.642958
37028,Parkstien,2450,1C,12.502415,55.64312
37029,Parkstien,2450,1D,12.502657,55.643
37030,Parkstien,2450,1E,12.502527,55.643326
37031,Parkstien,2450,1F,12.502885,55.642922
37032,Parkstien,2450,1G,12.502748,55.643275
37033,Parkstien,2450,1H,12.503038,55.643042
37034,Parkstien,2450,1K,12.502959,55.643242
37035,Parkstien,2450,1L,12.503172,55.643212
37036,Parkstien,2450,2,12.5020685,55.6425941
37037,Parkstien,2450,6,12.50452,55.6421
37038,Parkstien,2450,8,12.504906,55.642025
37039,Parkstien,2450,10,12.505859,55.640484
37040,Parkstien,2450,11,12.506981,55.642329
37041,Parkstien,2450,15,12.508003,55.642741
37042,Parkstien,2450,25,12.512886,55.640285
37530,Peter Sabroes Gade,2450,1,12.536119,55.652375
37531,Peter Sabroes Gade,2450,2,12.53538,55.652281
37532,Peter Sabroes Gade,2450,3,12.53629,55.652314
37533,Peter Sabroes Gade,2450,4,12.535597,55.652198
37534,Peter Sabroes Gade,2450,5,12.536455,55.65225
37535,Peter Sabroes Gade,2450,6,12.535759,55.652139
37536,Peter Sabroes Gade,2450,7,12.536618,55.652188
37537,Peter Sabroes Gade,2450,8,12.535928,55.652074
37538,Peter Sabroes Gade,2450,9,12.536837,55.652103
37539,Peter Sabroes Gade,2450,10,12.536093,55.652016
37540,Peter Sabroes Gade,2450,11,12.536999,55.652039
37541,Peter Sabroes Gade,2450,12,12.536362,55.651912
37542,Peter Sabroes Gade,2450,13,12.537168,55.651976
37543,Peter Sabroes Gade,2450,14,12.536524,55.651849
37544,Peter Sabroes Gade,2450,15,12.537326,55.651914
37545,Peter Sabroes Gade,2450,16,12.536687,55.651789
37546,Peter Sabroes Gade,2450,17,12.538213,55.651606
37547,Peter Sabroes Gade,2450,18,12.536852,55.651728
37548,Peter Sabroes Gade,2450,19,12.538436,55.651646
37549,Peter Sabroes Gade,2450,20,12.53708,55.651642
37550,Peter Sabroes Gade,2450,21,12.538646,55.651682
37551,Peter Sabroes Gade,2450,22,12.537716,55.651446
37552,Peter Sabroes Gade,2450,23,12.538832,55.651714
37553,Peter Sabroes Gade,2450,24,12.537882,55.651387
37554,Peter Sabroes Gade,2450,25,12.53904,55.651751
37555,Peter Sabroes Gade,2450,26,12.538146,55.651335
37556,Peter Sabroes Gade,2450,27,12.539238,55.651783
37557,Peter Sabroes Gade,2450,28,12.538697,55.651355
37558,Peter Sabroes Gade,2450,30,12.538819,55.651439
37559,Peter Sabroes Gade,2450,32,12.538988,55.65147
37560,Peter Sabroes Gade,2450,34,12.539183,55.651503
37561,Peter Sabroes Gade,2450,36,12.539374,55.651537
37615,Pilestykket,2450,1,12.5154416,55.6506786
37616,Pilestykket,2450,2,12.51587,55.650662
37617,Pilestykket,2450,3,12.5151679,55.6506856
37618,Pilestykket,2450,4,12.515805,55.65079
37619,Pilestykket,2450,5,12.514894,55.650693
37620,Pilestykket,2450,6,12.515919,55.651011
37621,Pilestykket,2450,7,12.5149915,55.6508194
37622,Pilestykket,2450,7B,12.514567,55.650831
37623,Pilestykket,2450,8,12.516386,55.651118
37624,Pilestykket,2450,9,12.5152636,55.6508111
37625,Pilestykket,2450,11,12.515537,55.6507989
37626,Pilestykket,2450,12,12.515835,55.651135
37627,Pilestykket,2450,13,12.5154758,55.6510245
37628,Pilestykket,2450,14,12.51594,55.6513547
37629,Pilestykket,2450,15,12.515204,55.651034
37630,Pilestykket,2450,16,12.5162157,55.6513457
37631,Pilestykket,2450,17,12.5149302,55.6510415
37632,Pilestykket,2450,19,12.515027,55.651162
37633,Pilestykket,2450,20,12.5161473,55.6514778
37634,Pilestykket,2450,21,12.5152958,55.6511554
37635,Pilestykket,2450,22,12.5158716,55.6514869
37636,Pilestykket,2450,23,12.5155693,55.6511453
37637,Pilestykket,2450,24,12.515974,55.651696
37638,Pilestykket,2450,25,12.515513,55.651367
37639,Pilestykket,2450,27,12.5152358,55.651376
37640,Pilestykket,2450,29,12.5149662,55.6513879
37641,Pilestykket,2450,31,12.514725,55.65172
37642,Pilestykket,2450,33,12.5150599,55.6515118
37643,Pilestykket,2450,35,12.515334,55.651505
37644,Pilestykket,2450,37,12.515605,55.651494
37645,Pilestykket,2450,39,12.515543,55.651711
37646,Pilestykket,2450,41,12.515272,55.651719
37647,Pilestykket,2450,43,12.5150001,55.6517321
37648,Pilestykket,2450,47,12.515366,55.651851
37825,Poppelstykket,2450,1,12.509879,55.650979
37826,Poppelstykket,2450,2,12.510685,55.65078
37827,Poppelstykket,2450,8,12.511745,55.651555
37828,Poppelstykket,2450,11A,12.511249,55.652343
37829,Poppelstykket,2450,11B,12.511053,55.652437
37830,Poppelstykket,2450,11C,12.511211,55.652612
37831,Poppelstykket,2450,12,12.51221,55.652409
38378,Thomas Koppels Allé,2450,10,12.530688,55.644987
38379,Thomas Koppels Allé,2450,12,12.530263,55.644829
38380,Thomas Koppels Allé,2450,13,12.533571,55.644488
38381,Thomas Koppels Allé,2450,15,12.5328305,55.6437113
38382,Thomas Koppels Allé,2450,17,12.531778,55.6437
39111,Rektorparken,2450,1,12.534492,55.662835
39112,Rektorparken,2450,2,12.535051,55.662653
39113,Rektorparken,2450,12,12.533296,55.662934
39114,Rektorparken,2450,14,12.533067,55.662942
39115,Rektorparken,2450,16,12.532845,55.662951
39116,Rektorparken,2450,18,12.532644,55.662957
39117,Rektorparken,2450,20,12.532438,55.662962
39118,Rektorparken,2450,22,12.532235,55.662966
39119,Rektorparken,2450,24,12.532004,55.662971
39576,H.V. Rolsteds Vej,2450,1,12.536196,55.65699
39577,H.V. Rolsteds Vej,2450,3,12.536102,55.656833
39578,H.V. Rolsteds Vej,2450,5,12.5360286,55.6567049
39579,H.V. Rolsteds Vej,2450,6,12.53539,55.656609
39580,H.V. Rolsteds Vej,2450,7,12.535735,55.656301
39581,H.V. Rolsteds Vej,2450,8,12.535342,55.656514
39582,H.V. Rolsteds Vej,2450,9,12.535678,55.656194
39583,H.V. Rolsteds Vej,2450,10,12.535293,55.656422
39584,H.V. Rolsteds Vej,2450,11,12.535631,55.6561
39585,H.V. Rolsteds Vej,2450,12,12.535233,55.656327
39586,H.V. Rolsteds Vej,2450,13,12.535579,55.656007
39587,H.V. Rolsteds Vej,2450,14,12.535182,55.656231
39588,H.V. Rolsteds Vej,2450,15,12.5355246,55.6559138
39589,H.V. Rolsteds Vej,2450,16,12.5351301,55.6561381
39590,H.V. Rolsteds Vej,2450,17,12.535478,55.655818
39591,H.V. Rolsteds Vej,2450,18,12.535077,55.656046
39592,H.V. Rolsteds Vej,2450,19,12.535426,55.655724
39593,H.V. Rolsteds Vej,2450,20,12.535024,55.655953
39594,H.V. Rolsteds Vej,2450,21,12.535368,55.655632
39595,H.V. Rolsteds Vej,2450,22,12.534973,55.655858
39596,H.V. Rolsteds Vej,2450,23,12.535308,55.655536
39597,H.V. Rolsteds Vej,2450,25,12.535258,55.655443
39598,H.V. Rolsteds Vej,2450,27,12.535206,55.65535
39984,Rossinisvej,2450,2,12.525277,55.646441
39985,Rossinisvej,2450,4,12.525319,55.646271
39986,Rossinisvej,2450,6,12.525356,55.646139
39987,Rossinisvej,2450,8,12.525388,55.646019
39988,Rossinisvej,2450,10,12.525422,55.645908
39989,Rossinisvej,2450,12,12.525454,55.645803
39990,Rossinisvej,2450,14,12.525484,55.645688
39991,Rossinisvej,2450,16,12.525509,55.645577
39992,Rossinisvej,2450,18,12.52555,55.645471
40056,Rubinsteinsvej,2450,1,12.527026,55.649449
40057,Rubinsteinsvej,2450,2,12.526659,55.64931
40058,Rubinsteinsvej,2450,3,12.527044,55.649372
40059,Rubinsteinsvej,2450,4,12.526692,55.649213
40060,Rubinsteinsvej,2450,5,12.527085,55.649251
40061,Rubinsteinsvej,2450,6,12.526719,55.649101
40062,Rubinsteinsvej,2450,7,12.527109,55.649159
40063,Rubinsteinsvej,2450,8,12.526747,55.648991
40064,Rubinsteinsvej,2450,9,12.527143,55.649024
40065,Rubinsteinsvej,2450,10,12.526775,55.648888
40066,Rubinsteinsvej,2450,11,12.527182,55.648913
40067,Rubinsteinsvej,2450,12,12.5268,55.648797
40068,Rubinsteinsvej,2450,13,12.527212,55.648802
40069,Rubinsteinsvej,2450,14,12.526829,55.648711
40070,Rubinsteinsvej,2450,15,12.527246,55.648691
40071,Rubinsteinsvej,2450,16,12.526859,55.648619
40072,Rubinsteinsvej,2450,17,12.527276,55.64861
40073,Rubinsteinsvej,2450,18,12.526874,55.648529
40074,Rubinsteinsvej,2450,19,12.527317,55.648461
40075,Rubinsteinsvej,2450,20,12.526906,55.648437
40076,Rubinsteinsvej,2450,21,12.527369,55.648303
40077,Rubinsteinsvej,2450,22,12.527197,55.647488
40078,Rubinsteinsvej,2450,23,12.527475,55.647907
40079,Rubinsteinsvej,2450,24,12.52722,55.647388
40080,Rubinsteinsvej,2450,25,12.527499,55.647833
40081,Rubinsteinsvej,2450,26,12.527246,55.647284
40082,Rubinsteinsvej,2450,27,12.527517,55.647755
40083,Rubinsteinsvej,2450,28,12.527276,55.647181
40084,Rubinsteinsvej,2450,29,12.527544,55.647677
40085,Rubinsteinsvej,2450,30,12.527302,55.64708
40086,Rubinsteinsvej,2450,31,12.527559,55.647601
40087,Rubinsteinsvej,2450,32,12.527407,55.646654
40088,Rubinsteinsvej,2450,33,12.527587,55.647524
40089,Rubinsteinsvej,2450,34,12.527423,55.646588
40090,Rubinsteinsvej,2450,35,12.527608,55.647432
40091,Rubinsteinsvej,2450,36,12.52745,55.646498
40092,Rubinsteinsvej,2450,37,12.527634,55.647354
40093,Rubinsteinsvej,2450,38,12.52747,55.646421
40094,Rubinsteinsvej,2450,39,12.52765,55.64728
40095,Rubinsteinsvej,2450,40,12.527503,55.646329
40096,Rubinsteinsvej,2450,41,12.527678,55.647203
40097,Rubinsteinsvej,2450,42,12.52753,55.64624
40098,Rubinsteinsvej,2450,43,12.527702,55.647125
40099,Rubinsteinsvej,2450,44,12.527543,55.646163
40100,Rubinsteinsvej,2450,45,12.527723,55.647052
40101,Rubinsteinsvej,2450,46,12.527564,55.646085
40102,Rubinsteinsvej,2450,47,12.527841,55.646611
40103,Rubinsteinsvej,2450,48,12.527597,55.645983
40104,Rubinsteinsvej,2450,50,12.52763,55.645891
40105,Rubinsteinsvej,2450,51,12.5282,55.646206
42284,Scandiagade,2450,8,12.541643,55.653677
42285,Scandiagade,2450,12,12.540963,55.652918
42286,Scandiagade,2450,13,12.542842,55.6533024
42287,Scandiagade,2450,15,12.5423642,55.6529563
42288,Scandiagade,2450,22,12.539271,55.651144
42289,Scandiagade,2450,23,12.5389467,55.6494551
42290,Scandiagade,2450,24,12.539196,55.651072
42291,Scandiagade,2450,25,12.53811,55.649138
42292,Scandiagade,2450,26,12.538965,55.651017
42293,Scandiagade,2450,28,12.538824,55.651064
42294,Scandiagade,2450,29,12.538296,55.648549
42295,Scandiagade,2450,30,12.538654,55.651114
42296,Scandiagade,2450,31,12.537237,55.64832
42297,Scandiagade,2450,32,12.538502,55.651163
42298,Scandiagade,2450,34,12.538271,55.650986
42299,Scandiagade,2450,35,12.536252,55.646789
42300,Scandiagade,2450,36,12.538428,55.650939
42301,Scandiagade,2450,38,12.538588,55.650882
42302,Scandiagade,2450,40,12.538747,55.650829
42303,Scandiagade,2450,42,12.538781,55.650678
42304,Scandiagade,2450,44,12.538685,55.650583
42305,Scandiagade,2450,46,12.53851,55.650416
42306,Scandiagade,2450,48,12.538407,55.650312
42307,Scandiagade,2450,50,12.538162,55.650266
42308,Scandiagade,2450,52,12.537982,55.650328
42309,Scandiagade,2450,54,12.537841,55.650378
42310,Scandiagade,2450,56,12.538146,55.650058
42311,Scandiagade,2450,58,12.538048,55.649971
42312,Scandiagade,2450,60,12.537808,55.649919
42313,Scandiagade,2450,62,12.537629,55.64998
42314,Scandiagade,2450,64,12.537471,55.650031
42315,Scandiagade,2450,66,12.53778,55.649714
42316,Scandiagade,2450,68,12.537684,55.649622
42317,Scandiagade,2450,70,12.53741,55.649586
42318,Scandiagade,2450,72,12.537174,55.649666
42319,Scandiagade,2450,74,12.53742,55.64937
42320,Scandiagade,2450,76,12.537319,55.649278
42321,Scandiagade,2450,78,12.537063,55.649235
42322,Scandiagade,2450,80,12.536869,55.6493
42323,Scandiagade,2450,82,12.536692,55.649358
42324,Scandiagade,2450,84,12.537058,55.649023
42325,Scandiagade,2450,86,12.536956,55.648933
42326,Scandiagade,2450,88,12.536705,55.648885
42327,Scandiagade,2450,90,12.536489,55.648952
42328,Scandiagade,2450,92,12.536306,55.649014
42329,Scandiagade,2450,94,12.536693,55.648675
42330,Scandiagade,2450,96,12.536589,55.648583
42331,Scandiagade,2450,100,12.535276,55.647833
42332,Scandiagade,2450,110,12.535117,55.647355
42386,Schubertsvej,2450,1,12.532173,55.647491
42387,Schubertsvej,2450,2,12.53257,55.64766
42388,Schubertsvej,2450,3,12.532136,55.647624
42389,Schubertsvej,2450,4,12.532534,55.647796
42390,Schubertsvej,2450,5,12.532098,55.647758
42391,Schubertsvej,2450,6,12.532488,55.647929
42392,Schubertsvej,2450,7,12.532064,55.64789
42393,Schubertsvej,2450,8,12.532453,55.648061
42394,Schubertsvej,2450,9,12.532026,55.648023
42395,Schubertsvej,2450,10,12.532413,55.648196
42396,Schubertsvej,2450,11,12.531987,55.648155
42397,Schubertsvej,2450,12,12.532373,55.648334
42398,Schubertsvej,2450,13,12.531959,55.648289
42435,Sejlklubvej,2450,4,12.5417709,55.6376976
42436,Sejlklubvej,2450,6,12.542581,55.637716
42437,Sejlklubvej,2450,10,12.543868,55.638417
42438,Sejlklubvej,2450,16,12.544452,55.638663
42439,Sejlklubvej,2450,18,12.545711,55.639371
42657,Sigvald Olsens Gade,2450,1,12.535136,55.650111
42658,Sigvald Olsens Gade,2450,2,12.535318,55.65031
42659,Sigvald Olsens Gade,2450,3,12.534939,55.650179
42660,Sigvald Olsens Gade,2450,4,12.535145,55.650368
42661,Sigvald Olsens Gade,2450,5,12.534724,55.65025
42662,Sigvald Olsens Gade,2450,6,12.534965,55.650423
42771,Sjællandsbroen,2450,2,12.5426159,55.6453794
42772,Sjællandsbroen,2450,3,12.543956,55.645479
42773,Sjællandsbroen,2450,6,12.543249,55.644582
42829,Sjælør Boulevard,2450,1,12.528414,55.647088
42830,Sjælør Boulevard,2450,3,12.528384,55.647177
42831,Sjælør Boulevard,2450,5,12.528356,55.647265
42832,Sjælør Boulevard,2450,7,12.528335,55.647351
42833,Sjælør Boulevard,2450,7A,12.528611,55.647328
42834,Sjælør Boulevard,2450,9,12.528317,55.64742
42835,Sjælør Boulevard,2450,10,12.52933,55.647514
42836,Sjælør Boulevard,2450,11,12.528299,55.647496
42837,Sjælør Boulevard,2450,12,12.529301,55.647621
42838,Sjælør Boulevard,2450,13,12.52828,55.64757
42839,Sjælør Boulevard,2450,14,12.529264,55.647746
42840,Sjælør Boulevard,2450,15,12.528256,55.647656
42841,Sjælør Boulevard,2450,16,12.529234,55.647861
42842,Sjælør Boulevard,2450,17,12.528223,55.64774
42843,Sjælør Boulevard,2450,19,12.528199,55.647828
42844,Sjælør Boulevard,2450,20,12.52904,55.648392
42845,Sjælør Boulevard,2450,21,12.528175,55.647918
42846,Sjælør Boulevard,2450,22,12.528991,55.648537
42847,Sjælør Boulevard,2450,23,12.528154,55.647994
42848,Sjælør Boulevard,2450,24,12.528951,55.648659
42849,Sjælør Boulevard,2450,25,12.528046,55.648315
42850,Sjælør Boulevard,2450,26,12.528915,55.648787
42851,Sjælør Boulevard,2450,27A,12.52801,55.648406
42852,Sjælør Boulevard,2450,27B,12.527972,55.648559
42853,Sjælør Boulevard,2450,27C,12.527943,55.648674
42854,Sjælør Boulevard,2450,28,12.528879,55.648916
42855,Sjælør Boulevard,2450,29,12.527916,55.648758
42856,Sjælør Boulevard,2450,30,12.528843,55.649048
42857,Sjælør Boulevard,2450,31,12.527892,55.648846
42858,Sjælør Boulevard,2450,32,12.528804,55.649186
42859,Sjælør Boulevard,2450,33,12.527868,55.648942
42860,Sjælør Boulevard,2450,34,12.528763,55.649297
42861,Sjælør Boulevard,2450,35,12.527841,55.649049
42862,Sjælør Boulevard,2450,36,12.528732,55.649394
42863,Sjælør Boulevard,2450,37,12.527807,55.649159
42864,Sjælør Boulevard,2450,38,12.528703,55.64949
42865,Sjælør Boulevard,2450,39,12.527767,55.649302
42866,Sjælør Boulevard,2450,40,12.528678,55.649591
42867,Sjælør Boulevard,2450,41,12.527724,55.649462
42868,Sjælør Boulevard,2450,42,12.528726,55.649738
42869,Sjælør Boulevard,2450,43,12.527573,55.649626
42870,Sjælør Boulevard,2450,45,12.527189,55.649934
42871,Sjælør Boulevard,2450,46,12.528497,55.650487
42872,Sjælør Boulevard,2450,47,12.527385,55.650378
42873,Sjælør Boulevard,2450,49,12.527425,55.650478
42874,Sjælør Boulevard,2450,51,12.527395,55.650583
42875,Sjælør Boulevard,2450,53,12.527366,55.650683
42876,Sjælør Boulevard,2450,55,12.527335,55.650792
42877,Sjælør Boulevard,2450,57,12.527301,55.650895
43069,Skibbroen,2450,1,12.558972,55.659552
43070,Skibbroen,2450,3,12.55933,55.659591
43995,Sluseholmen,2450,3,12.546099,55.644491
43996,Sluseholmen,2450,6,12.546562,55.644103
43997,Sluseholmen,2450,6A,12.546929,55.644349
43998,Sluseholmen,2450,8A,12.5487634,55.6428309
43999,Sluseholmen,2450,8B,12.5486828,55.6432766
44000,Sluseholmen,2450,8C,12.5494524,55.6433557
44001,Sluseholmen,2450,8D,12.547694,55.643466
44002,Sluseholmen,2450,18,12.5487615,55.6459368
44929,Speditørvej,2450,1,12.540599,55.637667
44930,Speditørvej,2450,3,12.540332,55.637637
44931,Speditørvej,2450,5,12.539768,55.637616
44932,Speditørvej,2450,7,12.539393,55.63753
44933,Speditørvej,2450,9,12.53884,55.637544
44934,Speditørvej,2450,11,12.538338,55.637386
44935,Spontinisvej,2450,1,12.521105,55.649838
44936,Spontinisvej,2450,4,12.5207957,55.649481
44937,Spontinisvej,2450,5,12.521335,55.649056
44938,Spontinisvej,2450,7,12.521576,55.648837
44939,Spontinisvej,2450,8,12.520889,55.649154
44940,Spontinisvej,2450,10,12.520887,55.649038
44941,Spontinisvej,2450,12,12.520922,55.648935
44942,Spontinisvej,2450,14,12.521139,55.648837
44943,Spontinisvej,2450,16,12.52102,55.648705
44944,Spontinisvej,2450,18,12.521163,55.648628
44945,Spontinisvej,2450,20A,12.5213,55.648535
44946,Spontinisvej,2450,20B,12.52114,55.648507
44947,Spontinisvej,2450,20C,12.521408,55.648334
44948,Spontinisvej,2450,20D,12.521401,55.648154
44949,Spontinisvej,2450,20E,12.521492,55.648033
44950,Spontinisvej,2450,20F,12.521683,55.648226
44951,Spontinisvej,2450,21,12.522894,55.64782
44952,Spontinisvej,2450,22,12.521957,55.647873
44953,Spontinisvej,2450,23,12.523075,55.647944
44954,Spontinisvej,2450,24,12.522092,55.647753
44955,Spontinisvej,2450,24B,12.522247,55.647275
44956,Spontinisvej,2450,26A,12.522789,55.647374
44957,Spontinisvej,2450,26B,12.522886,55.647256
44958,Spontinisvej,2450,26C,12.523068,55.647189
44959,Spontinisvej,2450,26D,12.523166,55.647117
44960,Spontinisvej,2450,28A,12.522678,55.647234
44961,Spontinisvej,2450,28B,12.522763,55.647085
44962,Spontinisvej,2450,28C,12.522934,55.647056
44963,Spontinisvej,2450,28D,12.522998,55.646949
44964,Spontinisvej,2450,28E,12.523155,55.646937
44965,Spontinisvej,2450,30A,12.522375,55.647172
44966,Spontinisvej,2450,30B,12.522599,55.647014
44967,Spontinisvej,2450,30C,12.522758,55.646849
44968,Spontinisvej,2450,30D,12.522931,55.646751
44969,Spontinisvej,2450,32,12.523296,55.646783
44970,Spontinisvej,2450,34,12.523401,55.646634
44971,Spontinisvej,2450,36,12.523743,55.64658
44972,Spontinisvej,2450,55,12.5264615,55.6446684
46089,Stradellasvej,2450,2,12.525803,55.646554
46090,Stradellasvej,2450,4,12.525819,55.646486
46091,Stradellasvej,2450,6,12.525836,55.646429
46092,Stradellasvej,2450,8,12.525856,55.646359
46093,Stradellasvej,2450,10,12.525878,55.646283
46094,Stradellasvej,2450,12,12.525902,55.646205
46095,Stradellasvej,2450,14,12.52593,55.646108
46096,Stradellasvej,2450,16,12.525958,55.646024
46097,Stradellasvej,2450,18,12.525974,55.645926
46098,Stradellasvej,2450,20,12.526001,55.645857
46099,Stradellasvej,2450,22,12.526016,55.645787
46100,Stradellasvej,2450,24,12.526042,55.645708
46101,Stradellasvej,2450,26,12.526069,55.645613
46102,Stradellasvej,2450,28,12.526095,55.645508
46103,Stradellasvej,2450,30,12.526196,55.645211
46104,Stradellasvej,2450,32,12.526235,55.645065
46105,Stradellasvej,2450,34,12.526273,55.644909
46553,Straussvej,2450,1,12.53111,55.647366
46554,Straussvej,2450,2,12.531562,55.647411
46555,Straussvej,2450,3,12.531077,55.647483
46556,Straussvej,2450,4,12.531489,55.647522
46557,Straussvej,2450,5,12.531044,55.647612
46558,Straussvej,2450,6,12.531455,55.647654
46559,Straussvej,2450,7,12.531014,55.647713
46560,Straussvej,2450,8,12.531433,55.647754
46561,Straussvej,2450,9,12.530982,55.647822
46562,Straussvej,2450,10,12.531408,55.64785
46563,Straussvej,2450,11,12.530965,55.647908
46564,Straussvej,2450,12,12.531374,55.647944
46565,Straussvej,2450,13,12.530934,55.648006
46566,Straussvej,2450,14,12.531348,55.648041
46567,Straussvej,2450,15,12.530893,55.648138
46568,Straussvej,2450,16,12.531308,55.648173
46569,Straussvej,2450,17,12.530853,55.648269
46570,Straussvej,2450,18,12.531283,55.648308
46571,Straussvej,2450,19,12.530752,55.648625
46572,Straussvej,2450,21,12.530711,55.648771
46573,Straussvej,2450,22,12.531134,55.648802
46574,Straussvej,2450,23,12.530672,55.648901
46575,Straussvej,2450,24,12.531065,55.649197
46576,Straussvej,2450,25,12.530637,55.649029
46577,Straussvej,2450,26,12.531142,55.649413
46578,Straussvej,2450,27,12.530599,55.649163
46579,Straussvej,2450,29,12.53056,55.649292
46580,Straussvej,2450,31,12.530524,55.649424
46581,Straussvej,2450,33,12.530487,55.649563
46788,Stubmøllevej,2450,1,12.526531,55.648159
46789,Stubmøllevej,2450,2,12.526866,55.648353
46790,Stubmøllevej,2450,4,12.52663,55.648387
46791,Stubmøllevej,2450,5,12.525554,55.648489
46792,Stubmøllevej,2450,6,12.526473,55.648445
46793,Stubmøllevej,2450,7,12.525413,55.648536
46794,Stubmøllevej,2450,8,12.526295,55.648504
46795,Stubmøllevej,2450,9,12.525284,55.648576
46796,Stubmøllevej,2450,10,12.526127,55.648558
46797,Stubmøllevej,2450,11,12.525141,55.648626
46798,Stubmøllevej,2450,12,12.525883,55.648638
46799,Stubmøllevej,2450,13,12.525003,55.648668
46800,Stubmøllevej,2450,14,12.525757,55.648678
46801,Stubmøllevej,2450,16,12.525636,55.648718
46802,Stubmøllevej,2450,18,12.525466,55.648773
46803,Stubmøllevej,2450,20,12.525305,55.648821
46804,Stubmøllevej,2450,22,12.524661,55.649051
46805,Stubmøllevej,2450,23,12.524313,55.648904
46806,Stubmøllevej,2450,25,12.524172,55.648947
46807,Stubmøllevej,2450,27,12.523944,55.649028
46808,Stubmøllevej,2450,29,12.523687,55.649116
46809,Stubmøllevej,2450,31,12.523493,55.649176
46810,Stubmøllevej,2450,33,12.523275,55.649246
46811,Stubmøllevej,2450,35,12.522662,55.649477
46812,Stubmøllevej,2450,37,12.521843,55.649561
46813,Stubmøllevej,2450,43,12.521266,55.649843
47001,Støberigade,2450,1,12.5531674,55.6507999
47002,Støberigade,2450,3,12.55247,55.650064
47003,Støberigade,2450,5,12.55256,55.649977
47004,Støberigade,2450,7,12.552009,55.649675
47005,Støberigade,2450,9,12.552257,55.649557
47006,Støberigade,2450,11,12.551689,55.649413
47007,Støberigade,2450,13,12.551473,55.649261
47504,Sydhavnsgade,2450,2,12.539016,55.652352
47505,Sydhavnsgade,2450,3,12.5399537,55.6524545
47506,Sydhavnsgade,2450,4,12.539077,55.652244
47507,Sydhavnsgade,2450,6,12.539143,55.652115
47508,Sydhavnsgade,2450,8,12.539207,55.65198
47509,Sydhavnsgade,2450,10,12.53927,55.651878
47510,Sydhavnsgade,2450,16,12.538991,55.649975
47511,Sydhavnsgade,2450,26,12.540335,55.649589
47512,Sydhavns Plads,2450,4,12.540723,55.652754
47513,Sydhavns Plads,2450,6,12.539757,55.653269
47514,Sydhavns Plads,2450,8,12.540033,55.65349
47515,Sydhavns Plads,2450,10,12.540414,55.653622
47516,Sydhavns Plads,2450,12,12.54113,55.653824
47517,Sydløbsvej,2450,1,12.541496,55.637097
47518,Sydløbsvej,2450,3,12.540783,55.63674
48394,Tartinisvej,2450,2,12.526353,55.646595
48395,Tartinisvej,2450,4,12.526372,55.64651
48396,Tartinisvej,2450,6,12.526392,55.646442
48397,Tartinisvej,2450,8,12.526403,55.646386
48398,Tartinisvej,2450,10,12.526423,55.646318
48399,Tartinisvej,2450,12,12.526443,55.64624
48400,Tartinisvej,2450,14,12.526468,55.646158
48401,Tartinisvej,2450,16,12.526495,55.646069
48402,Tartinisvej,2450,18,12.526523,55.645964
48403,Tartinisvej,2450,20,12.526543,55.645888
48404,Tartinisvej,2450,22,12.526563,55.645814
48405,Tartinisvej,2450,24,12.526596,55.645721
48406,Tartinisvej,2450,26,12.526616,55.645644
48407,Tartinisvej,2450,28,12.526634,55.64557
48408,Tartinisvej,2450,30,12.526714,55.645254
48409,Tartinisvej,2450,31,12.527211,55.645126
48410,Tartinisvej,2450,32,12.526747,55.645118
48411,Tartinisvej,2450,34,12.526792,55.644955
48412,Tartinisvej,2450,35,12.527064,55.644817
48451,Teglholm Allé,2450,13,12.548581,55.649704
48452,Teglholm Allé,2450,15,12.548205,55.649371
48453,Teglholm Allé,2450,16,12.547935,55.649924
48454,Teglholmsgade,2450,1,12.544782,55.6535
48455,Teglholmsgade,2450,2,12.5431397,55.6533885
48456,Teglholmsgade,2450,3,12.546504,55.652757
48457,Teglholmsgade,2450,12,12.545762,55.652426
48458,Teglholmsgade,2450,14,12.546747,55.652274
48459,Teglholmsgade,2450,16,12.547508,55.652185
48460,Teglholmsgade,2450,25,12.550027,55.65272
48461,Teglholmsgade,2450,27,12.550503,55.652461
48462,Teglholmsgade,2450,33,12.552729,55.652355
48463,Teglholmsgade,2450,35,12.553032,55.652245
48464,Teglholmsgade,2450,37,12.553464,55.651397
48465,Teglholmsgade,2450,39,12.554398,55.651001
48466,Teglholmsgade,2450,41,12.555695,55.650523
49135,Tjæregade,2450,2,12.559292,55.657053
49136,Tjæregade,2450,5,12.559532,55.657857
49767,Tranehavegård,2450,1,12.535414,55.658359
49768,Tranehavegård,2450,2,12.535002,55.658341
49769,Tranehavegård,2450,3,12.535351,55.65824
49770,Tranehavegård,2450,4,12.534931,55.658226
49771,Tranehavegård,2450,5,12.535284,55.658121
49772,Tranehavegård,2450,6,12.534867,55.658105
49773,Tranehavegård,2450,7,12.535213,55.658004
49774,Tranehavegård,2450,8,12.534797,55.657986
49775,Tranehavegård,2450,9,12.53515,55.657883
49776,Tranehavegård,2450,10,12.534732,55.657869
49777,Tranehavegård,2450,11,12.535081,55.657768
49778,Tranehavegård,2450,12,12.534664,55.657745
49779,Tranehavegård,2450,13,12.535014,55.657646
49780,Tranehavegård,2450,14,12.534542,55.65839
49781,Tranehavegård,2450,15,12.534947,55.657527
49782,Tranehavegård,2450,17,12.535851,55.658768
49783,Tranehavegård,2450,19,12.535849,55.658904
49784,Tranehavegård,2450,20,12.536316,55.658732
49785,Tranehavegård,2450,21,12.535845,55.659039
49786,Tranehavegård,2450,22,12.536237,55.658733
49787,Tranehavegård,2450,23,12.535838,55.659176
49788,Tranehavegård,2450,24,12.535356,55.658772
49789,Tranehavegård,2450,25,12.534961,55.658768
49790,Tranehavegård,2450,26,12.535355,55.658908
49791,Tranehavegård,2450,27,12.53496,55.658903
49792,Tranehavegård,2450,28,12.53535,55.659043
49793,Tranehavegård,2450,29,12.53496,55.659041
49794,Tranehavegård,2450,30,12.535348,55.659178
49795,Tranehavegård,2450,31,12.534962,55.659174
49796,Tranehavegård,2450,32,12.534471,55.658768
49797,Tranehavegård,2450,33,12.534079,55.658766
49798,Tranehavegård,2450,34,12.534465,55.658904
49799,Tranehavegård,2450,35,12.534077,55.658903
49800,Tranehavegård,2450,36,12.534469,55.659039
49801,Tranehavegård,2450,37,12.534076,55.659036
49802,Tranehavegård,2450,38,12.534468,55.659174
49803,Tranehavegård,2450,39,12.534078,55.659174
49804,Tranehavegård,2450,41,12.533638,55.659037
49805,Tranehavegård,2450,43,12.533639,55.659174
49806,Tranehavevej,2450,1,12.536943,55.655531
49807,Tranehavevej,2450,2,12.537253,55.655759
49808,Tranehavevej,2450,4,12.53712,55.655858
49809,Tranehavevej,2450,6,12.537016,55.655936
49810,Tranehavevej,2450,8,12.536913,55.656009
49811,Tranehavevej,2450,10,12.536796,55.656091
49812,Tranehavevej,2450,12,12.536461,55.656364
49813,Tranehavevej,2450,14,12.536351,55.656413
49814,Tranehavevej,2450,15,12.534475,55.657293
49815,Tranehavevej,2450,16,12.536209,55.656521
49816,Tranehavevej,2450,17,12.533999,55.657679
49817,Tranehavevej,2450,18,12.536052,55.65664
49818,Tranehavevej,2450,19,12.53368,55.658076
49819,Tranehavevej,2450,21,12.533452,55.65821
50832,Tømmergravsgade,2450,2,12.557853,55.659046
50833,Tømmergravsgade,2450,4,12.558231,55.65706
50834,Tømmergravsgade,2450,13,12.558601,55.658557
50835,Tømmergravsgade,2450,15,12.558726,55.658005
50836,Tømmergravsgade,2450,17,12.559014,55.657766
50837,Tømmergravsgade,2450,19,12.559023,55.657382
50838,Tømmergravsgade,2450,25,12.559505,55.656525
51301,Wagnersvej,2450,2,12.534042,55.647694
51302,Wagnersvej,2450,3A,12.534144,55.647171
51303,Wagnersvej,2450,3B,12.534169,55.647067
51304,Wagnersvej,2450,3C,12.534206,55.646946
51305,Wagnersvej,2450,3D,12.534236,55.646828
51306,Wagnersvej,2450,3E,12.534269,55.646727
51307,Wagnersvej,2450,4,12.533815,55.647677
51308,Wagnersvej,2450,5A,12.533769,55.647308
51309,Wagnersvej,2450,5B,12.533543,55.64729
51310,Wagnersvej,2450,5C,12.533347,55.647272
51311,Wagnersvej,2450,5D,12.533172,55.647255
51312,Wagnersvej,2450,6,12.533034,55.647602
51313,Wagnersvej,2450,7A,12.532811,55.647141
51314,Wagnersvej,2450,7B,12.53283,55.64705
51315,Wagnersvej,2450,7C,12.53286,55.646943
51316,Wagnersvej,2450,7D,12.532894,55.646826
51317,Wagnersvej,2450,7E,12.532931,55.646701
51318,Wagnersvej,2450,7F,12.532959,55.646595
51319,Wagnersvej,2450,7G,12.532986,55.646494
51320,Wagnersvej,2450,7H,12.533019,55.646388
51321,Wagnersvej,2450,8,12.532775,55.647578
51322,Wagnersvej,2450,9A,12.533084,55.646274
51323,Wagnersvej,2450,9B,12.533118,55.646165
51324,Wagnersvej,2450,9C,12.533161,55.646031
51325,Wagnersvej,2450,9D,12.533198,55.645904
51326,Wagnersvej,2450,10,12.532007,55.647371
51327,Wagnersvej,2450,11A,12.533589,55.646509
51328,Wagnersvej,2450,11B,12.533793,55.646528
51329,Wagnersvej,2450,11C,12.534003,55.646544
51330,Wagnersvej,2450,12,12.531776,55.647351
51331,Wagnersvej,2450,14,12.531037,55.647275
51332,Wagnersvej,2450,14A,12.531426,55.647151
51333,Wagnersvej,2450,16,12.530786,55.647258
51334,Wagnersvej,2450,18,12.530613,55.647244
51335,Wagnersvej,2450,19,12.529608,55.646783
51336,Wagnersvej,2450,23,12.528545,55.645856
51337,Wagnersvej,2450,29,12.528522,55.646498
51338,Wagnersvej,2450,32,12.527203,55.646924
51339,Wagnersvej,2450,33,12.528088,55.646778
51340,Wagnersvej,2450,34,12.5271,55.646919
51341,Wagnersvej,2450,36,12.526925,55.646898
51342,Wagnersvej,2450,37,12.527346,55.646717
51343,Wagnersvej,2450,38,12.526741,55.646881
51344,Wagnersvej,2450,41,12.526284,55.646619
51345,Wagnersvej,2450,43,12.525753,55.646566
51346,Wagnersvej,2450,45,12.525174,55.646514
51347,Wagnersvej,2450,47,12.524983,55.646495
52247,Vasbygade,2450,5,12.557831,55.660368
52248,Vasbygade,2450,23,12.553021,55.656913
52249,Vasbygade,2450,25,12.551945,55.65645
52250,Vasbygade,2450,35,12.548024,55.656208
52251,Vasbygade,2450,39,12.546651,55.655491
53773,Vestre Kirkegårds Allé,2450,1,12.536892,55.662801
53774,Vestre Kirkegårds Allé,2450,3,12.5357,55.662364
53775,Vestre Kirkegårds Allé,2450,11,12.533952,55.662018
53776,Vestre Kirkegårds Allé,2450,11A,12.534574,55.661242
53777,Vestre Kirkegårds Allé,2450,15,12.531561,55.661331
53778,Vestre Kirkegårds Allé,2450,26,12.532836,55.662008
53779,Vestre Kirkegårds Allé,2450,28,12.532789,55.662059
53780,Vestre Kirkegårds Allé,2450,30,12.532563,55.66193
53781,Vestre Kirkegårds Allé,2450,32,12.532516,55.661983
53782,Vestre Kirkegårds Allé,2450,34,12.532291,55.661856
53783,Vestre Kirkegårds Allé,2450,36,12.532248,55.661913
53784,Vestre Kirkegårds Allé,2450,38,12.53202,55.661789
53785,Vestre Teglgade,2450,6A,12.548138,55.653369
53786,Vestre Teglgade,2450,8,12.548076,55.653559
53787,Vestre Teglgade,2450,10,12.548197,55.65381
53788,Vestre Teglgade,2450,12,12.548883,55.654302
53789,Vestre Teglgade,2450,16,12.548548,55.654897
54083,Vigerslev Allé,2450,1,12.540319,55.66255
54084,Vigerslev Allé,2450,1A,12.539734,55.662616
54085,Vigerslev Allé,2450,1C,12.538827,55.662678
54086,Vigerslev Allé,2450,1D,12.538084,55.66228
54087,Vigerslev Allé,2450,1E,12.53756,55.662717
54619,Wiinbladsgade,2450,1,12.533331,55.652075
54620,Wiinbladsgade,2450,3,12.533041,55.652381
54621,Wiinbladsgade,2450,4,12.533564,55.652459
56587,Østre Teglgade,2450,2,12.550813,55.653915
56588,Østre Teglgade,2450,9,12.550455,55.654086
57807,Haveforeningen Frederiksholm,2450,4,12.5276517,55.643676
57808,Haveforeningen Frederiksholm,2450,5,12.527942,55.6436792
57809,Haveforeningen Frederiksholm,2450,6,12.5281107,55.6436743
57810,Haveforeningen Frederiksholm,2450,7,12.5284187,55.6436769
57811,Haveforeningen Frederiksholm,2450,8,12.528658,55.643669
57812,Haveforeningen Frederiksholm,2450,9,12.52889,55.643678
57813,Haveforeningen Frederiksholm,2450,10,12.529087,55.643693
57814,Haveforeningen Frederiksholm,2450,12,12.527214,55.643847
57815,Haveforeningen Frederiksholm,2450,13,12.527468,55.643845
57816,Haveforeningen Frederiksholm,2450,14,12.5276905,55.6438533
57817,Haveforeningen Frederiksholm,2450,15,12.5279199,55.6438582
57818,Haveforeningen Frederiksholm,2450,16,12.5281714,55.6438682
57819,Haveforeningen Frederiksholm,2450,17,12.5284041,55.6438673
57820,Haveforeningen Frederiksholm,2450,18,12.528671,55.643869
57821,Haveforeningen Frederiksholm,2450,19,12.528873,55.6438768
57822,Haveforeningen Frederiksholm,2450,20,12.529113,55.64388
57823,Haveforeningen Frederiksholm,2450,21,12.5269522,55.6440587
57824,Haveforeningen Frederiksholm,2450,22,12.5272146,55.6440626
57825,Haveforeningen Frederiksholm,2450,23,12.527445,55.644058
57826,Haveforeningen Frederiksholm,2450,24,12.5276797,55.6440723
57827,Haveforeningen Frederiksholm,2450,25,12.527885,55.644081
57828,Haveforeningen Frederiksholm,2450,26,12.528138,55.64408
57829,Haveforeningen Frederiksholm,2450,27,12.528393,55.64408
57830,Haveforeningen Frederiksholm,2450,28,12.5286366,55.6440908
57831,Haveforeningen Frederiksholm,2450,29,12.5288305,55.6440967
57832,Haveforeningen Frederiksholm,2450,30,12.5290588,55.6440901
57833,Haveforeningen Frederiksholm,2450,31,12.5269558,55.6442542
57834,Haveforeningen Frederiksholm,2450,32,12.5272106,55.6442584
57835,Haveforeningen Frederiksholm,2450,33,12.5274204,55.6442581
57836,Haveforeningen Frederiksholm,2450,34,12.5276277,55.6442579
57837,Haveforeningen Frederiksholm,2450,35,12.5279079,55.6442614
57838,Haveforeningen Frederiksholm,2450,36,12.5281309,55.6442664
57839,Haveforeningen Frederiksholm,2450,37,12.528386,55.644269
57840,Haveforeningen Frederiksholm,2450,38,12.528612,55.644264
57841,Haveforeningen Frederiksholm,2450,39,12.5288698,55.6442797
57842,Haveforeningen Frederiksholm,2450,40,12.529091,55.644287
57843,Haveforeningen Frederikshøj,2450,101,12.5317028,55.644411
57844,Haveforeningen Frederikshøj,2450,102,12.5320322,55.6444245
57845,Haveforeningen Frederikshøj,2450,103,12.5323558,55.644444
57846,Haveforeningen Frederikshøj,2450,104,12.5326781,55.6444923
57847,Haveforeningen Frederikshøj,2450,105,12.5328813,55.6446303
57848,Haveforeningen Frederikshøj,2450,106,12.5332643,55.6446883
57849,Haveforeningen Frederikshøj,2450,107,12.533497,55.64469
57850,Haveforeningen Frederikshøj,2450,108,12.5334161,55.6450177
57851,Haveforeningen Frederikshøj,2450,109,12.5334204,55.6451499
57852,Haveforeningen Frederikshøj,2450,111,12.5331078,55.6450266
57853,Haveforeningen Frederikshøj,2450,112,12.5331583,55.6448525
57854,Haveforeningen Frederikshøj,2450,113,12.5329119,55.6450265
57855,Haveforeningen Frederikshøj,2450,114,12.53265,55.644976
57856,Haveforeningen Frederikshøj,2450,115,12.5328461,55.6448039
57857,Haveforeningen Frederikshøj,2450,116,12.5325174,55.6447558
57858,Haveforeningen Frederikshøj,2450,117,12.532464,55.644931
57859,Haveforeningen Frederikshøj,2450,118,12.5321639,55.6448696
57860,Haveforeningen Frederikshøj,2450,119,12.532167,55.644699
57861,Haveforeningen Frederikshøj,2450,120,12.5319724,55.6446219
57862,Haveforeningen Frederikshøj,2450,121,12.5318463,55.644804
57863,Haveforeningen Frederikshøj,2450,122,12.5316513,55.6445736
57864,Haveforeningen Frederikshøj,2450,123,12.5316361,55.6447007
57865,Haveforeningen Frederikshøj,2450,124,12.531477,55.644978
57866,Haveforeningen Frederikshøj,2450,125,12.531594,55.6450101
57867,Haveforeningen Frederikshøj,2450,126,12.531753,55.645202
57868,Haveforeningen Frederikshøj,2450,127,12.531776,55.644902
57869,Haveforeningen Frederikshøj,2450,128,12.5319972,55.6450528
57870,Haveforeningen Frederikshøj,2450,129,12.5322042,55.6451332
57871,Haveforeningen Frederikshøj,2450,130,12.532173,55.645263
57872,Haveforeningen Frederikshøj,2450,131,12.5324537,55.6453331
57873,Haveforeningen Frederikshøj,2450,132,12.5324573,55.6450913
57874,Haveforeningen Frederikshøj,2450,133,12.5326121,55.6452423
57875,Haveforeningen Frederikshøj,2450,134,12.5326548,55.6453907
57876,Haveforeningen Frederikshøj,2450,135,12.5328743,55.6452865
57877,Haveforeningen Frederikshøj,2450,136,12.533315,55.645328
57878,Haveforeningen Frederikshøj,2450,137,12.5329279,55.6454576
57879,Haveforeningen Frederikshøj,2450,138,12.5335081,55.6455444
57880,Haveforeningen Frederikshøj,2450,139,12.532671,55.645748
57881,Haveforeningen Frederikshøj,2450,141,12.532743,55.6456356
57882,Haveforeningen Frederikshøj,2450,142,12.5323674,55.645491
57883,Haveforeningen Frederikshøj,2450,143,12.5323517,55.6456699
57884,Haveforeningen Frederikshøj,2450,144,12.5319888,55.6456228
57885,Haveforeningen Frederikshøj,2450,145,12.532073,55.645434
57886,Haveforeningen Frederikshøj,2450,146,12.5317425,55.6453882
57887,Haveforeningen Frederikshøj,2450,147,12.5317663,55.6455256
57888,Haveforeningen Frederikshøj,2450,148,12.5314577,55.6453043
57889,Haveforeningen Frederikshøj,2450,149,12.5314117,55.6454437
57890,Haveforeningen Frederikshøj,2450,150,12.5313616,55.6456639
57891,Haveforeningen Frederikshøj,2450,151,12.5314628,55.6457991
57892,Haveforeningen Frederikshøj,2450,152,12.5317462,55.6459232
57893,Haveforeningen Frederikshøj,2450,153,12.531702,55.6457289
57894,Haveforeningen Frederikshøj,2450,154,12.5320429,55.6457996
57895,Haveforeningen Frederikshøj,2450,155,12.532019,55.645954
57896,Haveforeningen Frederikshøj,2450,156,12.5323024,55.6460396
57897,Haveforeningen Frederikshøj,2450,157,12.5323557,55.6458827
57898,Haveforeningen Frederikshøj,2450,158,12.53268,55.6459251
57899,Haveforeningen Frederikshøj,2450,159,12.5326544,55.646064
57900,Haveforeningen Frederikshøj,2450,160,12.5325436,55.6463031
57901,Haveforeningen Frederikshøj,2450,161,12.5325814,55.6464113
57902,Haveforeningen Frederikshøj,2450,163,12.5322912,55.6463391
57903,Haveforeningen Frederikshøj,2450,164,12.5324149,55.6462723
57904,Haveforeningen Frederikshøj,2450,165,12.532082,55.646312
57905,Haveforeningen Frederikshøj,2450,166,12.5318879,55.6462529
57906,Haveforeningen Frederikshøj,2450,167,12.5320096,55.6461919
57907,Haveforeningen Frederikshøj,2450,168,12.5316357,55.6460243
57908,Haveforeningen Frederikshøj,2450,169,12.5313584,55.6461646
57909,Haveforeningen Frederikshøj,2450,170,12.531378,55.646063
57910,Haveforeningen Frederikshøj,2450,172,12.531306,55.646338
57911,Haveforeningen Frederikshøj,2450,173,12.5312511,55.646513
57912,Haveforeningen Frederikshøj,2450,174,12.5314834,55.6465926
57913,Haveforeningen Frederikshøj,2450,175,12.5315589,55.6463718
57914,Haveforeningen Frederikshøj,2450,176,12.5318489,55.6464842
57915,Haveforeningen Frederikshøj,2450,177,12.5317182,55.6466434
57916,Haveforeningen Frederikshøj,2450,179,12.5319792,55.6467164
57917,Haveforeningen Frederikshøj,2450,180,12.532084,55.6465523
57918,Haveforeningen Frederikshøj,2450,181,12.5322639,55.6465298
57919,Haveforeningen Frederikshøj,2450,183,12.5323321,55.6467926
57920,Haveforeningen Frederikshøj,2450,184,12.5324599,55.6465875
57921,Haveforeningen Frederikshøj,2450,185,12.532505,55.6468336
57922,Haveforeningen Frederikshøj,2450,186,12.5324088,55.647009
57923,Haveforeningen Frederikshøj,2450,187,12.532361,55.647122
57924,Haveforeningen Frederikshøj,2450,188,12.5321491,55.6470626
57925,Haveforeningen Frederikshøj,2450,189,12.532179,55.646893
57926,Haveforeningen Frederikshøj,2450,190,12.531945,55.646811
57927,Haveforeningen Frederikshøj,2450,191,12.531929,55.6470056
57928,Haveforeningen Frederikshøj,2450,193,12.5316142,55.6469571
57929,Haveforeningen Frederikshøj,2450,194,12.5315662,55.6467629
57930,Haveforeningen Frederikshøj,2450,195,12.531478,55.646878
57931,Haveforeningen Frederikshøj,2450,196,12.5313131,55.6467356
57932,Haveforeningen Frederikshøj,2450,201,12.5341317,55.6445885
57933,Haveforeningen Frederikshøj,2450,202,12.533988,55.644732
57934,Haveforeningen Frederikshøj,2450,203,12.534155,55.644752
57935,Haveforeningen Frederikshøj,2450,204,12.5345652,55.6446565
57936,Haveforeningen Frederikshøj,2450,205,12.5344389,55.6448213
57937,Haveforeningen Frederikshøj,2450,206,12.5346491,55.644867
57938,Haveforeningen Frederikshøj,2450,207,12.5349396,55.6447033
57939,Haveforeningen Frederikshøj,2450,208,12.5351807,55.6448805
57940,Haveforeningen Frederikshøj,2450,209,12.5354246,55.6447929
57941,Haveforeningen Frederikshøj,2450,210,12.5357137,55.6449802
57942,Haveforeningen Frederikshøj,2450,211,12.5358802,55.6448373
57943,Haveforeningen Frederikshøj,2450,212,12.536128,55.6449049
57944,Haveforeningen Frederikshøj,2450,213,12.5361132,55.6450377
57945,Haveforeningen Frederikshøj,2450,214,12.535816,55.645188
57946,Haveforeningen Frederikshøj,2450,215,12.5358791,55.645361
57947,Haveforeningen Frederikshøj,2450,216,12.5356897,55.6452916
57948,Haveforeningen Frederikshøj,2450,217,12.5354031,55.6452596
57949,Haveforeningen Frederikshøj,2450,218,12.5355918,55.6450815
57950,Haveforeningen Frederikshøj,2450,219,12.5353129,55.6450205
57951,Haveforeningen Frederikshøj,2450,220,12.5352134,55.645173
57952,Haveforeningen Frederikshøj,2450,222,12.5347834,55.6450876
57953,Haveforeningen Frederikshøj,2450,223,12.5349393,55.644968
57954,Haveforeningen Frederikshøj,2450,224,12.5345647,55.6450881
57955,Haveforeningen Frederikshøj,2450,225,12.534316,55.645041
57956,Haveforeningen Frederikshøj,2450,226,12.5340129,55.6449774
57957,Haveforeningen Frederikshøj,2450,227,12.533889,55.6451134
57958,Haveforeningen Frederikshøj,2450,228,12.533834,55.645258
57959,Haveforeningen Frederikshøj,2450,229,12.534066,55.645376
57960,Haveforeningen Frederikshøj,2450,230,12.534241,55.645142
57961,Haveforeningen Frederikshøj,2450,231,12.5343766,55.6453295
57962,Haveforeningen Frederikshøj,2450,232,12.5346598,55.645212
57963,Haveforeningen Frederikshøj,2450,233,12.534619,55.645417
57964,Haveforeningen Frederikshøj,2450,234,12.5348708,55.6452807
57965,Haveforeningen Frederikshøj,2450,236,12.534929,55.645549
57966,Haveforeningen Frederikshøj,2450,238,12.5353244,55.6453597
57967,Haveforeningen Frederikshøj,2450,240,12.535566,55.645421
57968,Haveforeningen Frederikshøj,2450,241,12.5356611,55.6455111
57969,Haveforeningen Frederikshøj,2450,242,12.535527,55.645667
57970,Haveforeningen Frederikshøj,2450,243,12.5351868,55.6457665
57971,Haveforeningen Frederikshøj,2450,244,12.5351064,55.6459472
57972,Haveforeningen Frederikshøj,2450,245,12.535078,55.64575
57973,Haveforeningen Frederikshøj,2450,246,12.534854,55.645902
57974,Haveforeningen Frederikshøj,2450,247,12.5348552,55.6456725
57975,Haveforeningen Frederikshøj,2450,248,12.5346653,55.6458794
57976,Haveforeningen Frederikshøj,2450,249,12.5345923,55.6456628
57977,Haveforeningen Frederikshøj,2450,250,12.5344069,55.6458063
57978,Haveforeningen Frederikshøj,2450,251,12.5343524,55.6455546
57979,Haveforeningen Frederikshøj,2450,252,12.5341271,55.6457223
57980,Haveforeningen Frederikshøj,2450,253,12.5341217,55.6455498
57981,Haveforeningen Frederikshøj,2450,254,12.5339586,55.6457156
57982,Haveforeningen Frederikshøj,2450,255,12.5339191,55.6454751
57983,Haveforeningen Frederikshøj,2450,256,12.5341362,55.6460212
57984,Haveforeningen Frederikshøj,2450,257,12.53408,55.645882
57985,Haveforeningen Frederikshøj,2450,258,12.53436,55.645899
57986,Haveforeningen Frederikshøj,2450,259,12.534413,55.646104
57987,Haveforeningen Frederikshøj,2450,260,12.5346987,55.645982
57988,Haveforeningen Frederikshøj,2450,261,12.5346514,55.6461905
57989,Haveforeningen Frederikshøj,2450,262,12.5348756,55.6460114
57990,Haveforeningen Frederikshøj,2450,263,12.5350149,55.6461168
57991,Haveforeningen Frederikshøj,2450,264,12.5347977,55.6462611
57992,Haveforeningen Frederikshøj,2450,265,12.5346684,55.6463512
57993,Haveforeningen Frederikshøj,2450,266,12.5345796,55.6464803
57994,Haveforeningen Frederikshøj,2450,301,12.5367593,55.6450651
57995,Haveforeningen Frederikshøj,2450,303,12.536988,55.645267
57996,Haveforeningen Frederikshøj,2450,304,12.5370971,55.6453546
57997,Haveforeningen Frederikshøj,2450,306,12.5373448,55.6455201
57998,Haveforeningen Frederikshøj,2450,308,12.5376271,55.6457306
57999,Haveforeningen Frederikshøj,2450,309,12.5377722,55.6458876
58000,Haveforeningen Frederikshøj,2450,310,12.537869,55.64601
58001,Haveforeningen Frederikshøj,2450,311,12.5367609,55.6453931
58002,Haveforeningen Frederikshøj,2450,312,12.53659,55.645292
58003,Haveforeningen Frederikshøj,2450,313,12.5362562,55.6452408
58004,Haveforeningen Frederikshøj,2450,314,12.5361598,55.6453989
58005,Haveforeningen Frederikshøj,2450,315,12.5363693,55.645508
58006,Haveforeningen Frederikshøj,2450,316,12.536532,55.645496
58007,Haveforeningen Frederikshøj,2450,317,12.5367634,55.6456174
58008,Haveforeningen Frederikshøj,2450,318,12.536898,55.6457287
58009,Haveforeningen Frederikshøj,2450,319,12.536948,55.645921
58010,Haveforeningen Frederikshøj,2450,320,12.5366537,55.6457415
58011,Haveforeningen Frederikshøj,2450,321,12.5364946,55.6458957
58012,Haveforeningen Frederikshøj,2450,322,12.5368437,55.6460007
58013,Haveforeningen Frederikshøj,2450,323,12.536735,55.6460786
58014,Haveforeningen Frederikshøj,2450,324,12.5364151,55.6459728
58015,Haveforeningen Frederikshøj,2450,325,12.5363335,55.6460557
58016,Haveforeningen Frederikshøj,2450,326,12.5363504,55.6462566
58017,Haveforeningen Frederikshøj,2450,327,12.536167,55.6461698
58018,Haveforeningen Frederikshøj,2450,328,12.5359998,55.6462898
58019,Haveforeningen Frederikshøj,2450,329,12.5357257,55.646453
58020,Haveforeningen Frederikshøj,2450,330,12.5363244,55.6456589
58021,Haveforeningen Frederikshøj,2450,331,12.536234,55.645775
58022,Haveforeningen Frederikshøj,2450,332,12.5360757,55.6459193
58023,Haveforeningen Frederikshøj,2450,333,12.5358091,55.6460938
58024,Haveforeningen Frederikshøj,2450,335,12.5356632,55.6462247
58025,Haveforeningen Frederikshøj,2450,336,12.5355449,55.6463374
58026,Haveforeningen Frederikshøj,2450,337,12.5354986,55.6464308
58027,Haveforeningen Frederikshøj,2450,338,12.535287,55.646588
58028,Haveforeningen Frederikshøj,2450,339,12.5359883,55.6455708
58029,Haveforeningen Frederikshøj,2450,340,12.5358074,55.6457083
58030,Haveforeningen Frederikshøj,2450,341,12.535615,55.645854
58031,Haveforeningen Frederikshøj,2450,342,12.5356457,55.6459604
58032,Haveforeningen Frederikshøj,2450,343,12.5355281,55.6460674
58033,Haveforeningen Frederikshøj,2450,344,12.5353824,55.6461867
58034,Haveforeningen Frederikshøj,2450,345,12.5352113,55.646278
58035,Haveforeningen Frederikshøj,2450,346,12.534993,55.646483
58036,Haveforeningen Frederikshøj,2450,347,12.534905,55.646563
58037,Haveforeningen Havebyen Mozart,2450,2,12.5353615,55.64453
58038,Haveforeningen Havebyen Mozart,2450,3,12.5350464,55.6445621
58039,Haveforeningen Havebyen Mozart,2450,4,12.534864,55.644492
58040,Haveforeningen Havebyen Mozart,2450,5,12.534545,55.644498
58041,Haveforeningen Havebyen Mozart,2450,6,12.5342693,55.6444636
58042,Haveforeningen Havebyen Mozart,2450,7,12.534094,55.644287
58043,Haveforeningen Havebyen Mozart,2450,9,12.534269,55.644161
58044,Haveforeningen Havebyen Mozart,2450,10,12.5341159,55.6439904
58045,Haveforeningen Havebyen Mozart,2450,11,12.5339782,55.6438735
58046,Haveforeningen Havebyen Mozart,2450,12,12.5337844,55.6437698
58047,Haveforeningen Havebyen Mozart,2450,13,12.5335742,55.6436953
58048,Haveforeningen Havebyen Mozart,2450,14,12.533462,55.643519
58049,Haveforeningen Havebyen Mozart,2450,15,12.533351,55.643412
58050,Haveforeningen Havebyen Mozart,2450,16,12.5335075,55.6432944
58051,Haveforeningen Havebyen Mozart,2450,17,12.533683,55.643426
58052,Haveforeningen Havebyen Mozart,2450,18,12.5339005,55.643519
58053,Haveforeningen Havebyen Mozart,2450,19,12.534043,55.6436185
58054,Haveforeningen Havebyen Mozart,2450,20,12.5341678,55.6437472
58055,Haveforeningen Havebyen Mozart,2450,21,12.534481,55.6438073
58056,Haveforeningen Havebyen Mozart,2450,22,12.5345419,55.6439609
58057,Haveforeningen Havebyen Mozart,2450,23,12.5347576,55.64411
58058,Haveforeningen Havebyen Mozart,2450,24,12.5345452,55.644237
58059,Haveforeningen Havebyen Mozart,2450,25,12.534882,55.644284
58060,Haveforeningen Havebyen Mozart,2450,26,12.5351769,55.6443166
58061,Haveforeningen Havebyen Mozart,2450,27,12.535536,55.644299
58062,Haveforeningen Havebyen Mozart,2450,28,12.535405,55.6441949
58063,Haveforeningen Havebyen Mozart,2450,29,12.535294,55.644041
58064,Haveforeningen Havebyen Mozart,2450,30,12.5350558,55.6439748
58065,Haveforeningen Havebyen Mozart,2450,31,12.534958,55.6437647
58066,Haveforeningen Havebyen Mozart,2450,32,12.534792,55.643696
58067,Haveforeningen Havebyen Mozart,2450,33,12.534656,55.643558
58068,Haveforeningen Havebyen Mozart,2450,34,12.5344798,55.6434275
58069,Haveforeningen Havebyen Mozart,2450,35,12.534367,55.6433329
58070,Haveforeningen Havebyen Mozart,2450,36,12.534146,55.6431954
58071,Haveforeningen Havebyen Mozart,2450,37,12.5339503,55.6431262
58072,Haveforeningen Havebyen Mozart,2450,38,12.5343835,55.6430505
58073,Haveforeningen Havebyen Mozart,2450,39,12.5345192,55.6431444
58074,Haveforeningen Havebyen Mozart,2450,40,12.534667,55.643252
58075,Haveforeningen Havebyen Mozart,2450,42,12.534973,55.6434938
58076,Haveforeningen Havebyen Mozart,2450,43,12.5352151,55.6435271
58077,Haveforeningen Havebyen Mozart,2450,44,12.5352745,55.6436923
58078,Haveforeningen Havebyen Mozart,2450,45,12.5354688,55.6438018
58079,Haveforeningen Havebyen Mozart,2450,46,12.5356959,55.6439506
58080,Haveforeningen Havebyen Mozart,2450,47,12.5358952,55.6440024
58081,Haveforeningen Havebyen Mozart,2450,48,12.5360327,55.6441596
58082,Haveforeningen Havebyen Mozart,2450,49,12.536157,55.6442826
58083,Haveforeningen Havebyen Mozart,2450,50,12.536327,55.6443755
58084,Haveforeningen Havebyen Mozart,2450,51,12.5364756,55.6444863
58085,Haveforeningen Havebyen Mozart,2450,52,12.536648,55.644586
58086,Haveforeningen Havebyen Mozart,2450,53,12.536748,55.64437
58087,Haveforeningen Havebyen Mozart,2450,54,12.5366902,55.6441866
58088,Haveforeningen Havebyen Mozart,2450,55,12.5365025,55.6440655
58089,Haveforeningen Havebyen Mozart,2450,56,12.5364204,55.6439873
58090,Haveforeningen Havebyen Mozart,2450,57,12.5362796,55.6438359
58091,Haveforeningen Havebyen Mozart,2450,58,12.536059,55.643767
58092,Haveforeningen Havebyen Mozart,2450,59,12.5358397,55.6436415
58093,Haveforeningen Havebyen Mozart,2450,60,12.5357083,55.6435244
58094,Haveforeningen Havebyen Mozart,2450,61,12.535523,55.643411
58095,Haveforeningen Havebyen Mozart,2450,62,12.5353756,55.6433038
58096,Haveforeningen Havebyen Mozart,2450,63,12.535235,55.643205
58097,Haveforeningen Havebyen Mozart,2450,64,12.5351871,55.6430618
58098,Haveforeningen Havebyen Mozart,2450,67,12.53552,55.643058
58099,Haveforeningen Havebyen Mozart,2450,68,12.535676,55.643159
58100,Haveforeningen Havebyen Mozart,2450,69,12.5358259,55.6432908
58101,Haveforeningen Havebyen Mozart,2450,70,12.5360227,55.6434002
58102,Haveforeningen Havebyen Mozart,2450,71,12.5361392,55.6435062
58103,Haveforeningen Havebyen Mozart,2450,72,12.5363657,55.6436493
58104,Haveforeningen Havebyen Mozart,2450,73,12.536482,55.643758
58105,Haveforeningen Havebyen Mozart,2450,74,12.5366366,55.6438602
58106,Haveforeningen Havebyen Mozart,2450,75,12.536803,55.6439417
58107,Haveforeningen Havebyen Mozart,2450,76,12.5370561,55.6440265
58108,Haveforeningen Havebyen Mozart,2450,77,12.5372003,55.6438209
58109,Haveforeningen Havebyen Mozart,2450,78,12.5369372,55.6436673
58110,Haveforeningen Havebyen Mozart,2450,79,12.5367273,55.6435123
787648,Støberigade,2450,14,12.550239,55.648721
790792,Mozarts Plads,2450,1A,12.534675,55.648697
790793,Mozarts Plads,2450,1B,12.534489,55.648789
793812,Sluseholmen,2450,9,12.5475161,55.6454034
793813,Sluseholmen,2450,20,12.5489108,55.6460581
793814,Sluseholmen,2450,22,12.5490339,55.6461718
793815,Sluseholmen,2450,24,12.5491644,55.6462852
793816,Sluseholmen,2450,26,12.5492725,55.6463888
793817,Sluseholmen,2450,28,12.5493623,55.6464679
793819,Sluseholmen,2450,30,12.5496297,55.6466966
793821,Sluseholmen,2450,32,12.5496754,55.6467412
793823,Sluseholmen,2450,33,12.5488485,55.646513
793825,Sluseholmen,2450,34,12.5497257,55.6467821
793826,Sluseholmen,2450,35,12.5489439,55.6466057
793829,Sluseholmen,2450,36,12.5497764,55.6468283
793832,Sluseholmen,2450,37,12.5493949,55.6469924
793833,Sluseholmen,2450,38,12.549813,55.646859
793834,Sluseholmen,2450,39,12.5495111,55.6470959
793835,Sluseholmen,2450,40,12.549854,55.6468949
793836,Sluseholmen,2450,42,12.5499277,55.6469584
793837,Sluseholmen,2450,44,12.5499764,55.6470057
795124,Enghavevej,2450,81,12.542458,55.662327
795125,Enghavevej,2450,85,12.550728,55.663077
795126,Enghavevej,2450,171,12.538633,55.656466
795127,Enghavevej,2450,173,12.538484,55.656049
795382,Ellebjergvej,2450,37,12.52301,55.649943
795383,Ellebjergvej,2450,68,12.51794,55.650472
795384,Ellebjergvej,2450,72A,12.517402,55.6505068
795385,Ellebjergvej,2450,72B,12.5173113,55.650589
795386,Ellebjergvej,2450,72C,12.5172045,55.6506724
795387,Ellebjergvej,2450,72D,12.5171187,55.6507575
795388,Ellebjergvej,2450,72E,12.5170154,55.6508417
795389,Ellebjergvej,2450,72F,12.516931,55.6509226
795390,Ellebjergvej,2450,72G,12.5168048,55.6510473
795391,Ellebjergvej,2450,72H,12.5168175,55.650828
795392,Ellebjergvej,2450,72K,12.5168802,55.6507143
795393,Ellebjergvej,2450,72L,12.5169386,55.6506278
795394,Ellebjergvej,2450,72M,12.517117,55.650546
795395,Ellebjergvej,2450,135,12.510617,55.650275
795396,Oscar Pettifords Vej,2450,3,12.5522438,55.644766
795397,Oscar Pettifords Vej,2450,4,12.5525547,55.6446511
795398,Oscar Pettifords Vej,2450,5,12.5523565,55.6448844
795399,Oscar Pettifords Vej,2450,7,12.5521274,55.6449933
795400,Oscar Pettifords Vej,2450,9,12.5519507,55.6451064
795401,Oscar Pettifords Vej,2450,11,12.5529617,55.6453103
795402,Oscar Pettifords Vej,2450,13,12.5530872,55.6454021
795403,Oscar Pettifords Vej,2450,15,12.5532572,55.6455207
795404,Oscar Pettifords Vej,2450,17,12.5534127,55.6456363
795405,Oscar Pettifords Vej,2450,21,12.5546651,55.646243
795406,Oscar Pettifords Vej,2450,23,12.5552798,55.6468038
795407,Oscar Pettifords Vej,2450,25,12.5553156,55.6469245
795408,Oscar Pettifords Vej,2450,27,12.555406,55.6470203
795409,Oscar Pettifords Vej,2450,29,12.555567,55.647064
795410,Ernie Wilkins Vej,2450,1,12.5496802,55.6466627
795411,Ernie Wilkins Vej,2450,3,12.5499063,55.646573
795412,Ernie Wilkins Vej,2450,5,12.5501773,55.6464626
795413,Ernie Wilkins Vej,2450,7,12.5503992,55.6463666
795414,Ernie Wilkins Vej,2450,9,12.550971,55.6461361
795415,Ernie Wilkins Vej,2450,11,12.5511215,55.6460249
795416,Ernie Wilkins Vej,2450,13,12.5513022,55.6459313
795417,Ernie Wilkins Vej,2450,15,12.551518,55.6458182
795418,Ernie Wilkins Vej,2450,17,12.551709,55.6457253
795419,Ernie Wilkins Vej,2450,19,12.552203,55.645534
795420,Ernie Wilkins Vej,2450,21,12.552221,55.645495
795421,Ernie Wilkins Vej,2450,23,12.5523682,55.6454076
795422,Ernie Wilkins Vej,2450,25,12.5524765,55.645344
795423,Ernie Wilkins Vej,2450,27,12.5525962,55.645256
795424,Ernie Wilkins Vej,2450,29,12.55273,55.6451628
795425,Kenny Drews Vej,2450,1,12.5488695,55.6458854
795426,Kenny Drews Vej,2450,3,12.5489862,55.6458459
795427,Kenny Drews Vej,2450,5,12.549091,55.6458096
795428,Kenny Drews Vej,2450,7,12.5492129,55.6457648
795429,Kenny Drews Vej,2450,9,12.5493662,55.6457062
795430,Kenny Drews Vej,2450,11,12.5496,55.6456218
795431,Kenny Drews Vej,2450,13,12.5496552,55.6456683
795432,Kenny Drews Vej,2450,15,12.549798,55.645783
795433,Kenny Drews Vej,2450,17,12.5499145,55.645894
795434,Kenny Drews Vej,2450,19,12.5500405,55.6460053
795435,Kenny Drews Vej,2450,21,12.5500674,55.6461257
795436,Kenny Drews Vej,2450,23,12.5498888,55.6461931
795437,Kenny Drews Vej,2450,25,12.5496903,55.6462689
795438,Kenny Drews Vej,2450,27,12.5495302,55.6463369
795439,Kenny Drews Vej,2450,29,12.550192,55.645445
795440,Kenny Drews Vej,2450,31,12.5501373,55.6455175
795441,Kenny Drews Vej,2450,33,12.5501826,55.6455628
795442,Kenny Drews Vej,2450,35,12.5502038,55.6455813
795443,Kenny Drews Vej,2450,37,12.5502363,55.6456139
795444,Kenny Drews Vej,2450,39,12.5502561,55.645634
795445,Kenny Drews Vej,2450,41,12.550279,55.645652
795446,Kenny Drews Vej,2450,43,12.5503008,55.6456695
795447,Kenny Drews Vej,2450,45,12.5503441,55.645705
795448,Kenny Drews Vej,2450,47,12.550371,55.645726
795449,Kenny Drews Vej,2450,49,12.5503907,55.6457472
795450,Kenny Drews Vej,2450,51,12.5504158,55.6457672
795451,Kenny Drews Vej,2450,53,12.5504362,55.6458242
795452,Kenny Drews Vej,2450,55,12.5505221,55.6459021
795453,Kenny Drews Vej,2450,57,12.5507046,55.6458203
795454,Kenny Drews Vej,2450,59,12.5509281,55.6457089
795455,Kenny Drews Vej,2450,61,12.5511073,55.6456166
795456,Kenny Drews Vej,2450,63,12.5512424,55.6455446
795457,Kenny Drews Vej,2450,65,12.5513903,55.6454665
795458,Kenny Drews Vej,2450,67,12.5512731,55.6453548
795459,Kenny Drews Vej,2450,69,12.551252,55.64534
795460,Kenny Drews Vej,2450,71,12.5512313,55.6453219
795461,Kenny Drews Vej,2450,73,12.5512129,55.6453033
795462,Kenny Drews Vej,2450,75,12.5511648,55.6452559
795463,Kenny Drews Vej,2450,77,12.5511438,55.6452374
795464,Kenny Drews Vej,2450,79,12.5511228,55.6452211
795465,Kenny Drews Vej,2450,81,12.5511057,55.645201
795466,Kenny Drews Vej,2450,83,12.551054,55.645137
795467,Kenny Drews Vej,2450,85,12.5508289,55.645221
795468,Kenny Drews Vej,2450,87,12.5505804,55.6453161
795469,Kenny Drews Vej,2450,89,12.5503628,55.6453926
795470,Kenny Drews Vej,2450,91,12.5515707,55.6449035
795471,Kenny Drews Vej,2450,93,12.551512,55.6449876
795472,Kenny Drews Vej,2450,95,12.5516289,55.6450943
795473,Kenny Drews Vej,2450,97,12.5517257,55.6452103
795474,Kenny Drews Vej,2450,99,12.5517694,55.6448577
795475,Kenny Drews Vej,2450,101,12.5520354,55.6447621
795476,Dexter Gordons Vej,2450,1,12.5496467,55.6472652
795477,Dexter Gordons Vej,2450,3,12.5494803,55.6473245
795478,Dexter Gordons Vej,2450,5,12.5493762,55.6473628
795479,Dexter Gordons Vej,2450,7,12.5492357,55.6474103
795480,Dexter Gordons Vej,2450,9,12.5490044,55.6474973
795481,Dexter Gordons Vej,2450,11,12.5488051,55.6475
795482,Dexter Gordons Vej,2450,13,12.5486984,55.647492
795483,Dexter Gordons Vej,2450,15,12.5486752,55.6474581
795484,Dexter Gordons Vej,2450,17,12.5486538,55.647425
795485,Dexter Gordons Vej,2450,19,12.5486284,55.6473909
795486,Dexter Gordons Vej,2450,21,12.5486063,55.6473562
795487,Dexter Gordons Vej,2450,23,12.5485792,55.6473188
795488,Dexter Gordons Vej,2450,25,12.5485527,55.647281
795489,Dexter Gordons Vej,2450,27,12.5485242,55.6472401
795490,Dexter Gordons Vej,2450,29,12.5484994,55.6472063
795491,Dexter Gordons Vej,2450,31,12.5484743,55.6471716
795492,Dexter Gordons Vej,2450,33,12.5484497,55.6471342
795493,Dexter Gordons Vej,2450,35,12.5482957,55.6477524
795494,Dexter Gordons Vej,2450,37,12.5482295,55.6476589
795495,Dexter Gordons Vej,2450,39,12.5482039,55.6476242
795496,Dexter Gordons Vej,2450,41,12.548177,55.6475873
795497,Dexter Gordons Vej,2450,43,12.5481544,55.6475515
795498,Dexter Gordons Vej,2450,45,12.5481306,55.6475156
795499,Dexter Gordons Vej,2450,47,12.5481015,55.6474741
795500,Dexter Gordons Vej,2450,49,12.5480789,55.6474394
795501,Dexter Gordons Vej,2450,51,12.5480539,55.6474024
795502,Dexter Gordons Vej,2450,53,12.5480261,55.6473637
795503,Dexter Gordons Vej,2450,55,12.5480001,55.647325
795504,Dexter Gordons Vej,2450,57,12.5479721,55.6472846
795505,Dexter Gordons Vej,2450,59,12.5480583,55.6478327
795506,Dexter Gordons Vej,2450,61,12.5478456,55.6479112
795507,Dexter Gordons Vej,2450,63,12.5477504,55.6479457
795508,Dexter Gordons Vej,2450,65,12.5475539,55.6480182
795509,Ben Websters Vej,2450,2,12.5501211,55.647107
795510,Ben Websters Vej,2450,4,12.5503042,55.6470421
795511,Ben Websters Vej,2450,6,12.5505053,55.6469695
795512,Ben Websters Vej,2450,8,12.5506412,55.64692
795513,Ben Websters Vej,2450,10,12.5507534,55.6468783
795514,Ben Websters Vej,2450,12,12.5509109,55.6468189
795515,Ben Websters Vej,2450,14,12.5511195,55.6467473
795516,Ben Websters Vej,2450,16,12.551062,55.646672
795517,Ben Websters Vej,2450,18,12.5510215,55.6466481
795518,Ben Websters Vej,2450,20,12.5509794,55.6466216
795519,Ben Websters Vej,2450,22,12.5509373,55.6465957
795520,Ben Websters Vej,2450,24,12.5508934,55.6465699
795521,Ben Websters Vej,2450,26,12.5508522,55.6465439
795522,Ben Websters Vej,2450,28,12.5508092,55.646518
795523,Ben Websters Vej,2450,30,12.550767,55.6464911
795524,Ben Websters Vej,2450,32,12.5507193,55.6464632
795525,Ben Websters Vej,2450,34,12.5506791,55.6464388
795526,Ben Websters Vej,2450,36,12.5506388,55.6464112
795527,Ben Websters Vej,2450,38,12.5516163,55.6465141
795528,Ben Websters Vej,2450,40,12.5515163,55.6464641
795529,Ben Websters Vej,2450,42,12.5514685,55.6464411
795530,Ben Websters Vej,2450,44,12.5514279,55.6464163
795531,Ben Websters Vej,2450,46,12.5513785,55.6463901
795532,Ben Websters Vej,2450,48,12.5513336,55.6463654
795533,Ben Websters Vej,2450,50,12.5512888,55.6463424
795534,Ben Websters Vej,2450,52,12.5512423,55.6463169
795535,Ben Websters Vej,2450,54,12.5511991,55.6462894
795536,Ben Websters Vej,2450,56,12.5511495,55.6462668
795537,Ben Websters Vej,2450,58,12.5511046,55.6462414
795538,Ben Websters Vej,2450,60,12.5510718,55.6462255
795539,Ben Websters Vej,2450,62,12.5519206,55.6464511
795540,Ben Websters Vej,2450,64,12.5520317,55.6464105
795541,Ben Websters Vej,2450,66,12.5521085,55.6463828
795542,Ben Websters Vej,2450,68,12.5522779,55.6463215
795543,Ben Websters Vej,2450,70,12.5525189,55.6461907
795544,Ben Websters Vej,2450,72,12.5524175,55.6461169
795545,Ben Websters Vej,2450,74,12.5523739,55.6460897
795546,Ben Websters Vej,2450,76,12.5523347,55.646065
795547,Ben Websters Vej,2450,78,12.552291,55.646037
795548,Ben Websters Vej,2450,80,12.5522489,55.6460106
795549,Ben Websters Vej,2450,82,12.5522025,55.6459844
795550,Ben Websters Vej,2450,84,12.5521648,55.6459587
795551,Ben Websters Vej,2450,86,12.5521212,55.6459324
795552,Ben Websters Vej,2450,88,12.5520762,55.6459052
795553,Ben Websters Vej,2450,90,12.5520339,55.6458772
795554,Ben Websters Vej,2450,92,12.55199,55.645852
795555,Ben Websters Vej,2450,94,12.5519483,55.6458254
795556,Ben Websters Vej,2450,96,12.5519075,55.645799
795557,Ben Websters Vej,2450,98,12.551864,55.6457727
795558,Ben Websters Vej,2450,100,12.5518278,55.645747
795559,Ben Websters Vej,2450,102,12.553146,55.6460175
795560,Ben Websters Vej,2450,104,12.553021,55.6460043
795561,Ben Websters Vej,2450,106,12.5529147,55.6459969
795562,Ben Websters Vej,2450,108,12.5528608,55.6459479
795563,Ben Websters Vej,2450,110,12.5528225,55.6459251
795564,Ben Websters Vej,2450,112,12.5527796,55.6458987
795565,Ben Websters Vej,2450,114,12.5527433,55.6458753
795566,Ben Websters Vej,2450,116,12.552705,55.6458513
795567,Ben Websters Vej,2450,118,12.5526677,55.6458267
795568,Ben Websters Vej,2450,120,12.5526303,55.6458033
795569,Ben Websters Vej,2450,122,12.5525897,55.6457781
795570,Ben Websters Vej,2450,124,12.5525536,55.6457547
795571,Ben Websters Vej,2450,126,12.5525151,55.6457314
795572,Ben Websters Vej,2450,128,12.5524757,55.6457067
795573,Ben Websters Vej,2450,130,12.5524406,55.6456833
795574,Ben Websters Vej,2450,132,12.5524021,55.6456593
795575,Ben Websters Vej,2450,134,12.5523648,55.6456353
795576,Ben Websters Vej,2450,136,12.5523253,55.6456107
795577,Ben Websters Vej,2450,138,12.5527815,55.645737
795578,Ben Websters Vej,2450,140,12.553247,55.6458947
795579,Ben Websters Vej,2450,142,12.5533837,55.6458645
795580,Ben Websters Vej,2450,144,12.5535075,55.6458358
795581,Ben Websters Vej,2450,146,12.5535895,55.6457813
795582,Sydhavnsgade,2450,1,12.539557,55.652578
795583,Sydhavnsgade,2450,18,12.53969,55.6498455
795584,Sydhavnsgade,2450,28D,12.541138,55.648086
795585,Scandiagade,2450,18,12.540191,55.652073
795631,Landvindingsgade,2450,2,12.5583541,55.6557837
795632,Landvindingsgade,2450,4,12.5583618,55.6556287
795633,Landvindingsgade,2450,14,12.557708,55.654478
795783,Hammelstrupvej,2450,1A,12.5270659,55.6476044
795784,Hammelstrupvej,2450,42A,12.5238692,55.6463672
795785,Hammelstrupvej,2450,42B,12.523818,55.6464134
795786,Hammelstrupvej,2450,42C,12.5234445,55.6462529
795787,Hammelstrupvej,2450,42D,12.5233802,55.6462128
795788,Hammelstrupvej,2450,46A,12.5236339,55.6461075
795789,Hammelstrupvej,2450,46B,12.5235584,55.6460628
795790,Hammelstrupvej,2450,46C,12.5235434,55.6461814
795791,Hammelstrupvej,2450,46D,12.5234742,55.64614
795792,Hammelstrupvej,2450,50,12.519334,55.637396
800860,Spontinisvej,2450,2D,12.520851,55.647981
800861,Spontinisvej,2450,6,12.520791,55.649368
800862,Grønrisvej,2450,2A,12.522433,55.649261
800863,Grønrisvej,2450,10A,12.521917,55.648915
800864,Grønrisvej,2450,10B,12.521786,55.649004
800865,Grønrisvej,2450,12A,12.521808,55.648768
800866,Grønrisvej,2450,12B,12.521744,55.648828
800867,Grønrisvej,2450,12C,12.5215288,55.6489766
800869,Julius Andersens Vej,2450,8,12.51007,55.6468354
800870,Julius Andersens Vej,2450,11,12.5114691,55.6483801
800871,Julius Andersens Vej,2450,13,12.5115349,55.6482906
800872,Julius Andersens Vej,2450,15,12.5116091,55.6481821
800873,Julius Andersens Vej,2450,17,12.5116872,55.648084
800874,Julius Andersens Vej,2450,19,12.5117626,55.6479789
800875,Julius Andersens Vej,2450,21,12.5118365,55.6478771
800876,Julius Andersens Vej,2450,23,12.5113895,55.6480522
800877,Julius Andersens Vej,2450,25,12.5113532,55.647983
800878,Julius Andersens Vej,2450,27,12.5114814,55.6477623
800879,Julius Andersens Vej,2450,29,12.511341,55.647727
800880,Julius Andersens Vej,2450,31,12.5111534,55.6476848
800881,Julius Andersens Vej,2450,33,12.5109476,55.6476367
800882,Sjælør Boulevard,2450,42A,12.5283432,55.6497954
800883,Sjælør Boulevard,2450,42B,12.5280812,55.6498256
800885,Teglholmsgade,2450,4,12.5434401,55.6530899
800886,Teglholmsgade,2450,6A,12.5442038,55.6527912
800887,Teglholmsgade,2450,6B,12.5443859,55.6527238
800888,Teglholmsgade,2450,6C,12.5445727,55.6526552
800889,Teglholmsgade,2450,6D,12.544767,55.652585
800890,Teglholmsgade,2450,6E,12.5449492,55.6525219
800891,Teglholmsgade,2450,8A,12.5450992,55.652374
800892,Teglholmsgade,2450,8B,12.5450716,55.6522522
800893,Teglholmsgade,2450,8C,12.5450343,55.6521305
800894,Teglholmsgade,2450,17A,12.547967,55.652455
800895,Teglholm Allé,2450,5,12.5501685,55.6511562
800896,Teglholm Allé,2450,9A,12.5501758,55.650793
800897,Teglholm Allé,2450,9B,12.5504823,55.6506818
800898,Teglholm Allé,2450,9C,12.5505676,55.6505464
800899,Teglholm Allé,2450,9D,12.550403,55.6503989
800900,Teglholm Allé,2450,9E,12.5502456,55.6502595
800901,Teglholm Allé,2450,9F,12.5495944,55.6504843
800902,Teglholm Allé,2450,9G,12.5497572,55.6506302
800903,Teglholm Allé,2450,9H,12.5499185,55.6507703
800904,Elværksvej,2450,48,12.5543088,55.6565527
800905,Elværksvej,2450,50,12.5553691,55.6564507
800906,Vasbygade,2450,4,12.556926,55.660828
800907,Vasbygade,2450,10,12.555265,55.658839
800908,Vasbygade,2450,12,12.552624,55.659186
800909,Vasbygade,2450,13,12.5572342,55.6583998
800910,Vasbygade,2450,18,12.551369,55.6579491
800911,Vasbygade,2450,22,12.553633,55.6576
800912,Vasbygade,2450,24,12.554041,55.657555
800913,Vasbygade,2450,26,12.551689,55.65716
800914,Vasbygade,2450,28,12.551089,55.65709
800915,Vasbygade,2450,30,12.550252,55.656943
800916,Vasbygade,2450,32,12.548436,55.656847
800917,Vasbygade,2450,40,12.5459,55.656315
800918,Sydhavns Plads,2450,15,12.541502,55.654479
800919,Borgmester Christiansens Gade,2450,51,12.5390236,55.647636
800920,Borgmester Christiansens Gade,2450,51E,12.540136,55.648859
800921,Tømmergravsgade,2450,4D,12.5553,55.655691
800922,Tømmergravsgade,2450,6,12.558471,55.656879
800923,Gamle Vasbygade,2450,52,12.539004,55.654467
801921,Pilestykket,2450,10,12.5161816,55.651129
801923,Vestre Kirkegårds Allé,2450,13D,12.532992,55.661093
801924,Bavnehøj Allé,2450,32,12.533964,55.65942
801925,Bavnehøj Allé,2450,40,12.533209,55.659161
801926,Ernst Kapers Vej,2450,1,12.537234,55.654786
801927,Ernst Kapers Vej,2450,7,12.536872,55.65438
801928,Otto Busses Vej,2450,5A,12.5511573,55.6601965
807563,Bådehavnsgade,2450,33A,12.5398773,55.6421363
807564,Bådehavnsgade,2450,41,12.540637,55.641413
807565,Bådehavnsgade,2450,45,12.540148,55.641013
807566,Bådehavnsgade,2450,53,12.543649,55.640371
807567,Bådehavnsgade,2450,53A,12.540343,55.640312
807568,Bådehavnsgade,2450,55,12.540497,55.639934
807569,Bådehavnsgade,2450,75,12.541977,55.637608
807570,Bådehavnsgade,2450,77,12.542117,55.637517
807571,Thomas Koppels Allé,2450,1,12.5316518,55.6441866
807572,Thomas Koppels Allé,2450,14A,12.5311391,55.6443685
807573,Thomas Koppels Allé,2450,14B,12.5310488,55.6443612
807574,Thomas Koppels Allé,2450,14C,12.530985,55.6443539
807575,Thomas Koppels Allé,2450,14D,12.5308508,55.6443417
807576,Thomas Koppels Allé,2450,14E,12.5307922,55.6443355
807577,Thomas Koppels Allé,2450,14F,12.5306637,55.6443226
807578,Thomas Koppels Allé,2450,16A,12.5304348,55.6442427
807579,Thomas Koppels Allé,2450,16B,12.5303792,55.644237
807580,Thomas Koppels Allé,2450,16C,12.5303224,55.6442307
807581,Thomas Koppels Allé,2450,16D,12.530258,55.644225
807582,Thomas Koppels Allé,2450,16E,12.530193,55.6442179
807583,Thomas Koppels Allé,2450,16F,12.5301273,55.6442112
807584,Thomas Koppels Allé,2450,18A,12.5309633,55.6440677
807585,Thomas Koppels Allé,2450,18B,12.5308342,55.6440566
807586,Thomas Koppels Allé,2450,18C,12.5307687,55.6440527
807587,Thomas Koppels Allé,2450,18D,12.5306386,55.644046
807588,Thomas Koppels Allé,2450,18E,12.5305751,55.644041
807589,Thomas Koppels Allé,2450,18F,12.530483,55.6440382
807590,Thomas Koppels Allé,2450,19,12.532205,55.643219
807591,Thomas Koppels Allé,2450,20A,12.5312097,55.6439593
807592,Thomas Koppels Allé,2450,20B,12.5312167,55.6439077
807593,Thomas Koppels Allé,2450,20C,12.5312224,55.6438673
807594,Thomas Koppels Allé,2450,20D,12.5312403,55.6437976
807595,Thomas Koppels Allé,2450,20E,12.5312499,55.6437571
807596,Thomas Koppels Allé,2450,20F,12.5312589,55.6437044
807597,Thomas Koppels Allé,2450,22A,12.5311084,55.6435571
807598,Thomas Koppels Allé,2450,22B,12.5310105,55.643542
807599,Thomas Koppels Allé,2450,22C,12.5309387,55.643532
807600,Thomas Koppels Allé,2450,22D,12.5308153,55.6435186
807601,Thomas Koppels Allé,2450,24A,12.5313702,55.6433381
807602,Thomas Koppels Allé,2450,24B,12.5313074,55.6433275
807603,Thomas Koppels Allé,2450,24C,12.5312427,55.6433213
807604,Thomas Koppels Allé,2450,24D,12.5311749,55.6433113
807605,Thomas Koppels Allé,2450,24E,12.5311183,55.6433067
807606,Thomas Koppels Allé,2450,24F,12.5310635,55.6432988
807607,Thomas Koppels Allé,2450,26A,12.530818,55.6432779
807608,Thomas Koppels Allé,2450,26B,12.5307044,55.6432648
807609,Thomas Koppels Allé,2450,26C,12.5306386,55.6432559
807610,Thomas Koppels Allé,2450,26D,12.5305332,55.6432454
807611,Thomas Koppels Allé,2450,28,12.531563,55.643192
807612,Thomas Koppels Allé,2450,30,12.5292481,55.6433934
807614,Molestien,2450,4,12.542018,55.643649
807615,Fragtvej,2450,7,12.536124,55.642162
807616,Fragtvej,2450,9,12.536035,55.641705
807617,Fragtvej,2450,15,12.5331309,55.642192
807618,Haveforeningen Frederiksholm,2450,1,12.5285293,55.6434781
807619,Haveforeningen Frederiksholm,2450,2,12.528704,55.643471
807620,Haveforeningen Frederiksholm,2450,3,12.5288931,55.6434791
807621,Haveforeningen Frederiksholm,2450,41,12.527023,55.644477
807622,Haveforeningen Frederiksholm,2450,42,12.527295,55.644461
807623,Haveforeningen Frederiksholm,2450,43,12.5275268,55.6444507
807624,Haveforeningen Frederiksholm,2450,44,12.52773,55.644469
807625,Haveforeningen Frederiksholm,2450,45,12.527991,55.644473
807626,Haveforeningen Frederiksholm,2450,50,12.5289163,55.6444568
807627,Haveforeningen Frederikshøj,2450,140,12.53252,55.645749
807628,Haveforeningen Frederikshøj,2450,200,12.53374,55.64472
807629,Speditørvej,2450,10,12.53743,55.637698
807632,Parkstien,2450,4,12.502868,55.641671
807633,Parkstien,2450,7,12.503968,55.642788
807634,Parkstien,2450,11D,12.506791,55.643057
807635,Parkstien,2450,12,12.505394,55.640296
807636,Parkstien,2450,22,12.509775,55.636194
854156,Haveforeningen Havebyen Mozart,2450,1A,12.5359995,55.644454
854157,Haveforeningen Havebyen Mozart,2450,1B,12.5357355,55.6445019
854158,Haveforeningen Havebyen Mozart,2450,1C,12.5356989,55.6446468
854159,Haveforeningen Havebyen Mozart,2450,41,12.5348568,55.6434051
854160,Haveforeningen Havebyen Mozart,2450,65,12.5349403,55.6429768
854161,Haveforeningen Havebyen Mozart,2450,77A,12.5375798,55.6437696
2110689,A.C. Meyers Vænge,2450,1,12.5439782,55.6526974
2110698,A.C. Meyers Vænge,2450,3,12.5438765,55.6525963
2110702,A.C. Meyers Vænge,2450,5,12.5437377,55.6524779
2110709,A.C. Meyers Vænge,2450,8,12.5418343,55.6523488
2110714,A.C. Meyers Vænge,2450,9,12.54394,55.651574
2110718,A.C. Meyers Vænge,2450,11,12.5430181,55.6514522
2110728,A.C. Meyers Vænge,2450,11A,12.5432424,55.6513701
2110733,A.C. Meyers Vænge,2450,11B,12.5434289,55.6513069
2110739,A.C. Meyers Vænge,2450,11C,12.5436154,55.6512439
2110744,A.C. Meyers Vænge,2450,11D,12.5437953,55.6511808
2110753,A.C. Meyers Vænge,2450,11E,12.5439816,55.651114
2110765,A.C. Meyers Vænge,2450,11F,12.544166,55.6510509
2110770,A.C. Meyers Vænge,2450,13A,12.5427568,55.6516437
2110781,A.C. Meyers Vænge,2450,13B,12.5426774,55.6515767
2110788,A.C. Meyers Vænge,2450,13C,12.5425594,55.6514713
2110806,A.C. Meyers Vænge,2450,13D,12.5424702,55.6513056
2110818,A.C. Meyers Vænge,2450,13E,12.5425575,55.6512052
2110823,A.C. Meyers Vænge,2450,13F,12.5427542,55.6511296
2110839,A.C. Meyers Vænge,2450,13G,12.5437637,55.6508236
2110843,A.C. Meyers Vænge,2450,15,12.542926,55.650467
2114720,Sydbanestien,2450,6,12.5342561,55.6536484
2114726,Sydbanestien,2450,8,12.5337229,55.6535688
2114735,Sydbanestien,2450,21,12.526513,55.65169
2114741,Sydbanestien,2450,30,12.529078,55.654078
2114751,Sydbanestien,2450,40,12.528221,55.652069
2115572,Teglholm Tværvej,2450,3,12.549889,55.649254
2115585,Teglholm Tværvej,2450,4,12.5504694,55.6498543
2115589,Teglholm Tværvej,2450,5,12.549786,55.649158
2115596,Teglholm Tværvej,2450,6,12.5503318,55.6499017
2115604,Teglholm Tværvej,2450,7,12.549682,55.649066
2115607,Teglholm Tværvej,2450,9,12.549576,55.648971
2115618,Teglholm Tværvej,2450,11,12.549468,55.648882
2115625,Teglholm Tværvej,2450,13,12.550149,55.649608
2115635,Teglholm Tværvej,2450,15,12.550006,55.649661
2115640,Teglholm Tværvej,2450,17,12.549857,55.649711
2115651,Teglholm Tværvej,2450,19,12.549716,55.649765
2115661,Teglholm Tværvej,2450,21,12.549263,55.64948
2115665,Teglholm Tværvej,2450,23,12.549155,55.649388
2115676,Teglholm Tværvej,2450,25,12.549054,55.649295
2115680,Teglholm Tværvej,2450,27,12.548945,55.649202
2115688,Teglholm Tværvej,2450,29,12.548837,55.649108
2115697,Teglholm Tværvej,2450,31,12.549353,55.649995
2115702,Teglholm Tværvej,2450,33,12.549132,55.650072
2122095,Peter Holms Vej,2450,2,12.549158,55.650704
2122098,Peter Holms Vej,2450,4,12.5493207,55.6508489
2122101,Peter Holms Vej,2450,6,12.5494852,55.6509956
2122105,Peter Holms Vej,2450,8,12.5486812,55.650877
2122108,Peter Holms Vej,2450,9,12.5477516,55.6506639
2122110,Peter Holms Vej,2450,10,12.5488455,55.6510197
2122113,Peter Holms Vej,2450,11,12.5475437,55.6506163
2122117,Peter Holms Vej,2450,11A,12.5473663,55.6506751
2122120,Peter Holms Vej,2450,12,12.5490082,55.6511631
2122127,Peter Holms Vej,2450,13,12.5472559,55.6507106
2122130,Peter Holms Vej,2450,14,12.5478974,55.6509284
2122132,Peter Holms Vej,2450,14A,12.5477369,55.6509889
2122136,Peter Holms Vej,2450,15,12.547287,55.650372
2122139,Peter Holms Vej,2450,15A,12.5471073,55.6504318
2122143,Peter Holms Vej,2450,16,12.547557,55.651051
2122145,Peter Holms Vej,2450,17,12.5470033,55.650466
2122151,Peter Holms Vej,2450,18,12.5481884,55.651178
2122155,Peter Holms Vej,2450,18A,12.5480187,55.6512359
2122159,Peter Holms Vej,2450,19,12.5470093,55.6501306
2122162,Peter Holms Vej,2450,19A,12.5468333,55.6501911
2122167,Peter Holms Vej,2450,20,12.5478269,55.6513054
2122169,Peter Holms Vej,2450,21,12.546734,55.650221
2122173,Peter Holms Vej,2450,23,12.546742,55.649887
2122181,Peter Holms Vej,2450,23A,12.5465685,55.6499448
2122186,Peter Holms Vej,2450,25,12.546433,55.649988
2122189,Peter Holms Vej,2450,27,12.5463911,55.6498269
2122262,Thad Jones Vej,2450,2,12.5491635,55.6468404
2122272,Thad Jones Vej,2450,4,12.5490002,55.6468904
2122276,Thad Jones Vej,2450,6,12.5488483,55.646938
2122283,Thad Jones Vej,2450,8,12.5486167,55.6470689
2122289,Thad Jones Vej,2450,10,12.5479166,55.6472154
2122292,Thad Jones Vej,2450,12,12.547678,55.6472372
2122298,Thad Jones Vej,2450,14,12.5475083,55.6472707
2122302,Thad Jones Vej,2450,16,12.54718,55.647328
2122348,Richard Boones Vej,2450,2,12.547078,55.647436
2122355,Richard Boones Vej,2450,4,12.547124,55.647571
2122358,Richard Boones Vej,2450,6,12.5471936,55.6477388
2122362,Richard Boones Vej,2450,8,12.54725,55.647895
2189168,Sydhavns Plads,2450,15,12.5414703,55.6546
2190396,Sluseholmen,2450,18,12.5487771,55.6459151
2192369,Blushøjvej,2450,11,12.507978,55.648496
2192370,Blushøjvej,2450,13,12.507875,55.648245
2192371,Blushøjvej,2450,15,12.506935,55.647435
2192372,Blushøjvej,2450,17,12.506819,55.647322
2192373,Blushøjvej,2450,17B,12.506108,55.646603
2192374,Blushøjvej,2450,17C,12.506014,55.646519
2193260,Ellestykket,2450,32A,12.514269,55.651396
2195012,Sjællandsbroen,2450,4,12.542782,55.645257
2195533,Sluseholmen,2450,1,12.545284,55.644521
2195534,Sluseholmen,2450,2,12.546409,55.643673
2195535,Sluseholmen,2450,10,12.547445,55.644933
2195536,Sluseholmen,2450,12,12.5479258,55.6452603
2195537,Sluseholmen,2450,14,12.547775,55.645222
2195538,Sluseholmen,2450,14A,12.549923,55.644971
2195611,Hammelstrupvej,2450,44A,12.523636,55.646371
2195916,Johan Kellers Vej,2450,14A,12.536808,55.656912
2196665,Bådehavnsgade,2450,1,12.542152,55.645367
2196667,Parkstien,2450,9,12.505526,55.642277
2199529,Ved Stigbordene,2450,3,12.548894,55.644268
2210499,Hammelstrupvej,2450,2,12.526836,55.648033
2210831,Tudsemindevej,2450,39,12.522608,55.639358
2225530,Skibbroen,2450,2,12.558221,55.659327
2225531,Skibbroen,2450,4,12.558421,55.659356
2225532,Skibbroen,2450,6,12.558606,55.65938
2225533,Skibbroen,2450,8,12.55873,55.659396
2225534,Skibbroen,2450,10,12.5588795,55.6594159
2225535,Skibbroen,2450,12,12.559025,55.659438
2225536,Skibbroen,2450,14,12.559178,55.659461
2225537,Skibbroen,2450,16,12.559324,55.659494
2225538,Skibbroen,2450,18,12.559494,55.659506
2225539,Skibbroen,2450,20,12.5596415,55.6595261
2225540,Skibbroen,2450,22,12.559762,55.659577
2225541,Skibbroen,2450,24,12.560123,55.659676
2225542,Skibbroen,2450,26,12.560294,55.659626
2225543,Skibbroen,2450,28,12.560572,55.659623
2225544,Skibbroen,2450,30,12.560678,55.659619
2225545,Skibbroen,2450,32,12.560774,55.659617
2225546,Skibbroen,2450,34,12.5609142,55.6595985
2225547,Skibbroen,2450,36,12.561043,55.659578
2225548,Skibbroen,2450,42,12.561154,55.659598
2225549,Skibbroen,2450,44,12.560747,55.659656
2225550,Skibbroen,2450,46,12.5601623,55.6597124
2225551,Skibbroen,2450,48,12.560038,55.65991
2226870,Bådehavnsgade,2450,55A,12.540766,55.639969
2226871,Bådehavnsgade,2450,55B,12.54094,55.639982
2226872,Bådehavnsgade,2450,55C,12.540983,55.639909
2226873,Bådehavnsgade,2450,55D,12.541163,55.63999
2226874,Bådehavnsgade,2450,55E,12.5411276,55.6400705
2226875,Bådehavnsgade,2450,55F,12.54134,55.640094
2226876,Bådehavnsgade,2450,55G,12.5413734,55.6400174
2226877,Bådehavnsgade,2450,55H,12.541387,55.639969
2226878,Bådehavnsgade,2450,55K,12.541417,55.639914
2226879,Bådehavnsgade,2450,55L,12.541434,55.639813
2226880,Bådehavnsgade,2450,55M,12.541268,55.639809
2226881,Bådehavnsgade,2450,55N,12.541195,55.639802
2226882,Bådehavnsgade,2450,55P,12.5409601,55.6397934
2226883,Bådehavnsgade,2450,55R,12.540815,55.639778
2226884,Bådehavnsgade,2450,55S,12.540711,55.639768
2226885,Bådehavnsgade,2450,55T,12.540624,55.639764
2230449,Ben Websters Vej,2450,5,12.550728,55.647165
2230450,Ben Websters Vej,2450,15,12.5513092,55.6469578
2230451,Ben Websters Vej,2450,65,12.552224,55.646606
2230452,Ben Websters Vej,2450,67,12.552423,55.646539
2230453,Dexter Gordons Vej,2450,6,12.5495279,55.6475849
2230454,Dexter Gordons Vej,2450,30,12.548456,55.647974
2230455,Dexter Gordons Vej,2450,32,12.548235,55.648054
2230456,Dexter Gordons Vej,2450,60,12.547618,55.648281
2230457,Dexter Gordons Vej,2450,62,12.547421,55.648351
2230458,Teglholm Allé,2450,1,12.551078,55.651872
2230459,Alliancevej,2450,5,12.552678,55.648767
2237073,A.C. Meyers Vænge,2450,10,12.542476,55.651925
2237074,A.C. Meyers Vænge,2450,14,12.540761,55.651438
2237075,A.C. Meyers Vænge,2450,16,12.541312,55.650804
2238284,Damagervej,2450,1,12.5263924,55.6479879
2238494,Stubmøllevej,2450,3,12.526207,55.648193
2238495,Julius Andersens Vej,2450,1A,12.515276,55.648978
2238504,Frederikskaj,2450,10A,12.5433627,55.6488854
2238505,Frederikskaj,2450,10B,12.543224,55.649162
2238506,Vasbygade,2450,14,12.549775,55.658164
2238507,Vasbygade,2450,16,12.54837,55.657663
2238541,Poppelstykket,2450,6,12.5114959,55.6512872
2238542,Otto Busses Vej,2450,39,12.54156,55.659685
2238664,Parkstien,2450,1M,12.5029412,55.6427964
2240962,Sluseholmen,2450,31,12.548825,55.646469
2242281,Spontinisvej,2450,1B,12.521102,55.64965
2244476,Ellebjergvej,2450,138,12.5108247,55.6507568
2244632,Ben Websters Vej,2450,69,12.553926,55.646365
2245199,Gamle Vasbygade,2450,50,12.539926,55.654699
2245251,Pilestykket,2450,45,12.514766,55.651853
2245275,Speditørvej,2450,15,12.53791,55.637459
2245288,Teglholmsgade,2450,36,12.549142,55.652192
2245289,Teglholmsgade,2450,50,12.554862,55.650258
2245307,Vestre Teglgade,2450,11,12.547608,55.654238
