idx,street,postcode,housenumber,lon,lat
118,Måløv Hovedgade,2760,57,12.319218,55.7490178
76055,Bakkesvinget,2760,1,12.3243766,55.7540682
76056,Bakkesvinget,2760,1A,12.324221,55.754227
76057,Bakkesvinget,2760,3,12.324065,55.754415
76058,Bakkesvinget,2760,3A,12.323849,55.754597
76059,Bakkesvinget,2760,4,12.324596,55.754561
76060,Bakkesvinget,2760,5,12.323652,55.754887
76061,Bakkesvinget,2760,5A,12.323453,55.755031
76062,Bakkesvinget,2760,6,12.324282,55.754764
76063,Bakkesvinget,2760,10,12.323835,55.75534
76064,Bakkesvinget,2760,11,12.32195,55.755728
76065,Bakkesvinget,2760,12,12.323532,55.755416
76066,Bakkesvinget,2760,13,12.321455,55.755797
76067,Bakkesvinget,2760,14,12.323432,55.755617
76068,Bakkesvinget,2760,15,12.321234,55.755842
76069,Bakkesvinget,2760,16,12.323061,55.755668
76070,Bakkesvinget,2760,17,12.320953,55.755915
76071,Bakkesvinget,2760,18,12.322867,55.755746
76072,Bakkesvinget,2760,19,12.320662,55.755976
76073,Bakkesvinget,2760,20,12.322594,55.75583
76074,Bakkesvinget,2760,22,12.322313,55.755901
76075,Bakkesvinget,2760,24,12.322003,55.755993
76076,Bakkesvinget,2760,26,12.321754,55.756011
76077,Bakkesvinget,2760,28,12.321367,55.756084
76078,Bakkesvinget,2760,30,12.32112,55.756141
76079,Bakkesvinget,2760,32,12.320891,55.756209
76080,Bakkesvinget,2760,34,12.320588,55.756279
76081,Bakkesvinget,2760,36,12.320283,55.756289
76082,Bakketoften,2760,1,12.320142,55.758385
76083,Bakketoften,2760,2,12.320025,55.758115
76084,Bakketoften,2760,3,12.320442,55.758354
76085,Bakketoften,2760,4,12.320233,55.758067
76086,Bakketoften,2760,5,12.320705,55.758292
76087,Bakketoften,2760,6,12.320517,55.757941
76088,Bakketoften,2760,7,12.321077,55.758271
76089,Bakketoften,2760,9,12.321388,55.758263
76090,Bakketoften,2760,10A,12.321345,55.757874
76091,Bakketoften,2760,10B,12.321537,55.757837
76092,Bakketoften,2760,11,12.321722,55.758292
76093,Bakketoften,2760,12,12.321798,55.757758
76094,Bakketoften,2760,12A,12.322004,55.757722
76095,Bakketoften,2760,13,12.321986,55.757987
76096,Bakketoften,2760,13A,12.322213,55.758272
76097,Bakketoften,2760,14A,12.322143,55.75745
76098,Bakketoften,2760,14B,12.322413,55.757648
76099,Bakketoften,2760,15,12.322428,55.757946
76100,Bakketoften,2760,16,12.322836,55.757584
76101,Bakketoften,2760,16A,12.322631,55.757322
76102,Bakketoften,2760,17,12.322733,55.75789
76103,Bakketoften,2760,17A,12.322908,55.758178
76104,Bakketoften,2760,18,12.32323,55.75751
76105,Bakketoften,2760,18A,12.323067,55.757252
76106,Bakketoften,2760,19,12.323012,55.757805
76107,Bakketoften,2760,20,12.32371,55.757415
76108,Bakketoften,2760,22,12.323981,55.757364
76109,Bakketoften,2760,23,12.323866,55.757706
76110,Bakketoften,2760,24,12.324283,55.757294
76111,Bakketoften,2760,25,12.324128,55.757624
76112,Bakketoften,2760,26,12.324588,55.757202
76113,Bakketoften,2760,27,12.324477,55.75776
76114,Bakketoften,2760,28,12.324787,55.756987
76115,Bakketoften,2760,29,12.324744,55.757674
76116,Bakketoften,2760,30,12.325226,55.757121
76117,Bakketoften,2760,31,12.324953,55.75748
76118,Bakketoften,2760,32,12.32547,55.75704
76119,Bakketoften,2760,33,12.32521,55.757374
76120,Bakketoften,2760,34,12.325517,55.756764
76121,Bakketoften,2760,35,12.325469,55.757323
76122,Bakketoften,2760,36,12.326178,55.756998
76123,Bakketoften,2760,37,12.326216,55.757328
76124,Bakketoften,2760,38,12.326147,55.756814
76125,Bakketoften,2760,39,12.326287,55.757519
76126,Bakketoften,2760,40,12.3261,55.756595
76127,Bakketoften,2760,41,12.326336,55.757723
76128,Bakketoften,2760,42,12.326043,55.756378
76129,Bakketoften,2760,43,12.326479,55.757946
76130,Bakketoften,2760,44,12.326,55.756261
76131,Bakketoften,2760,45,12.326821,55.757739
76132,Bakketoften,2760,46,12.326403,55.756228
76133,Bakketoften,2760,47,12.326658,55.757488
76134,Bakketoften,2760,48,12.32657,55.756409
76135,Bakketoften,2760,49,12.326643,55.757294
76136,Bakketoften,2760,51,12.326594,55.7571
76137,Bakketoften,2760,53,12.32661,55.756892
76138,Bakketoften,2760,54,12.327717,55.756878
76139,Bakketoften,2760,55,12.326529,55.756693
76140,Bakketoften,2760,56,12.327808,55.757065
76141,Bakketoften,2760,57,12.327264,55.756651
76142,Bakketoften,2760,58,12.327812,55.757269
76143,Bakketoften,2760,59,12.32731,55.756848
76144,Bakketoften,2760,60,12.327892,55.757436
76145,Bakketoften,2760,61,12.327358,55.757038
76146,Bakketoften,2760,63,12.327441,55.757234
76147,Bakketoften,2760,65,12.327399,55.75749
76148,Baneskrænten,2760,6,12.303717,55.750683
76149,Baneskrænten,2760,7,12.303059,55.750666
76150,Baneskrænten,2760,9,12.302657,55.750687
76151,Baneskrænten,2760,11,12.302135,55.750749
76152,Baneskrænten,2760,13,12.30171,55.750811
76153,Bavnevolden,2760,3,12.319513,55.753178
76154,Bavnevolden,2760,4,12.32012,55.753289
76155,Bavnevolden,2760,5,12.319374,55.75335
76156,Bavnevolden,2760,7,12.319081,55.753676
76157,Bavnevolden,2760,10,12.319491,55.753918
76158,Bavnevolden,2760,11,12.318774,55.754135
76159,Bavnevolden,2760,12,12.319229,55.754137
76160,Bavnevolden,2760,13,12.318746,55.754294
76161,Bavnevolden,2760,15,12.318754,55.754447
76162,Bavnevolden,2760,16,12.319909,55.755852
76163,Bavnevolden,2760,16A,12.320042,55.75602
76164,Bavnevolden,2760,17,12.318793,55.754623
76165,Bavnevolden,2760,19,12.318805,55.754802
76166,Bavnevolden,2760,20,12.320628,55.756782
76167,Bavnevolden,2760,21,12.31885,55.75493
76168,Bavnevolden,2760,22,12.320972,55.75734
76169,Bavnevolden,2760,23,12.318912,55.75512
76170,Bavnevolden,2760,24,12.321173,55.75754
76171,Bavnevolden,2760,25,12.319009,55.755261
76172,Bavnevolden,2760,27,12.319054,55.755439
76173,Bavnevolden,2760,29,12.319172,55.755644
76174,Bavnevolden,2760,31,12.319233,55.755771
76175,Bavnevolden,2760,33,12.319457,55.755955
76176,Bavnevolden,2760,35,12.319611,55.75613
76177,Bavnevolden,2760,37,12.319765,55.756295
76178,Bavnevolden,2760,39,12.319906,55.756431
76179,Bavnevolden,2760,41,12.320029,55.756587
76180,Bavnevolden,2760,47,12.320871,55.757858
76181,Bjørnekær,2760,1,12.308653,55.749943
76182,Bjørnekær,2760,3,12.308768,55.750075
76183,Bjørnekær,2760,5,12.309275,55.749991
76184,Bjørnekær,2760,7,12.309217,55.749857
76185,Bjørnekær,2760,9,12.309123,55.749722
76186,Bjørnekær,2760,11,12.309098,55.74959
76187,Bjørnekær,2760,13,12.309539,55.749383
76188,Bjørnekær,2760,15,12.309636,55.749517
76189,Bjørnekær,2760,17,12.3097,55.74965
76190,Bjørnekær,2760,19,12.309756,55.749782
76191,Bjørnekær,2760,21,12.309768,55.749918
76192,Bjørnekær,2760,23,12.310253,55.749823
76193,Bjørnekær,2760,25,12.310246,55.749685
76194,Bjørnekær,2760,27,12.310241,55.749546
76195,Bjørnekær,2760,29,12.31018,55.749423
76196,Bjørnekær,2760,31,12.310084,55.749281
76197,Bjørnekær,2760,33,12.3101,55.749151
76198,Bjørnekær,2760,35,12.311157,55.74903
76199,Bjørnekær,2760,37,12.311218,55.749162
76200,Bjørnekær,2760,39,12.311229,55.749296
76201,Bjørnekær,2760,41,12.311188,55.749434
76202,Bjørnekær,2760,43,12.311143,55.74957
76203,Bjørnekær,2760,45,12.310992,55.749708
76204,Bjørnekær,2760,47,12.311749,55.749511
76205,Bjørnekær,2760,49,12.311737,55.749375
76206,Bjørnekær,2760,51,12.311767,55.749242
76207,Bjørnekær,2760,53,12.31173,55.749102
76208,Bjørnekær,2760,55,12.311639,55.748975
76209,Bjørnekær,2760,57,12.312404,55.748909
76210,Bjørnekær,2760,59,12.312414,55.749045
76211,Bjørnekær,2760,61,12.312375,55.749182
76212,Bjørnekær,2760,63,12.312331,55.749318
76213,Bjørnekær,2760,65,12.312287,55.749454
76214,Bjørnekær,2760,67,12.312797,55.749305
76215,Bjørnekær,2760,69,12.312917,55.749168
76216,Bjørnekær,2760,71,12.312923,55.749033
76217,Bjørnekær,2760,73,12.312913,55.7489
76218,Bjørnekær,2760,75,12.312901,55.748764
76219,Brydegårdsvej,2760,3,12.317378,55.752953
76220,Brydegårdsvej,2760,3A,12.317115,55.753054
76221,Brydegårdsvej,2760,4,12.317762,55.75321
76222,Brydegårdsvej,2760,5,12.316839,55.753114
76223,Brydegårdsvej,2760,6,12.317561,55.753526
76224,Brydegårdsvej,2760,7,12.316555,55.753142
76225,Brydegårdsvej,2760,8,12.317461,55.75371
76226,Brydegårdsvej,2760,9,12.316273,55.753147
76227,Brydegårdsvej,2760,10,12.317579,55.753857
76228,Brydegårdsvej,2760,11,12.315984,55.75316
76229,Brydegårdsvej,2760,12,12.317808,55.754048
76230,Brydegårdsvej,2760,13,12.315698,55.753174
76231,Brydegårdsvej,2760,14,12.317982,55.754211
76232,Brydegårdsvej,2760,15,12.315827,55.753412
76233,Brydegårdsvej,2760,15A,12.31612,55.753521
76234,Brydegårdsvej,2760,16,12.317972,55.754388
76235,Brydegårdsvej,2760,17,12.316529,55.753394
76236,Brydegårdsvej,2760,17A,12.316893,55.753374
76237,Brydegårdsvej,2760,18,12.317992,55.75458
76238,Brydegårdsvej,2760,19,12.316991,55.753629
76239,Brydegårdsvej,2760,20,12.317665,55.754757
76240,Brydegårdsvej,2760,21,12.317029,55.753812
76241,Brydegårdsvej,2760,21A,12.31692,55.754023
76242,Brydegårdsvej,2760,21B,12.317132,55.75421
76243,Brydegårdsvej,2760,21C,12.317196,55.7544
76244,Brydegårdsvej,2760,22,12.317758,55.754964
76245,Brydegårdsvej,2760,23,12.316406,55.754544
76246,Brydegårdsvej,2760,23A,12.317232,55.754969
76247,Brydegårdsvej,2760,23B,12.316879,55.754994
76248,Brydegårdsvej,2760,24,12.31788,55.755111
76249,Brydegårdsvej,2760,25,12.317357,55.755245
76250,Brydegårdsvej,2760,26,12.317897,55.755295
76251,Brydegårdsvej,2760,27,12.317428,55.755469
76252,Brydegårdsvej,2760,27A,12.31755,55.755703
76253,Brydegårdsvej,2760,28,12.317922,55.755443
76254,Brydegårdsvej,2760,29,12.317726,55.755927
76255,Brydegårdsvej,2760,30,12.318079,55.755616
76256,Brydegårdsvej,2760,31,12.317906,55.756168
76257,Brydegårdsvej,2760,32,12.318383,55.755693
76258,Brydegårdsvej,2760,33,12.318181,55.756448
76259,Brydegårdsvej,2760,34,12.318432,55.75584
76260,Brydegårdsvej,2760,35,12.31843,55.756708
76261,Brydegårdsvej,2760,36,12.318694,55.755957
76262,Brydegårdsvej,2760,37,12.318645,55.756965
76263,Brydegårdsvej,2760,38,12.318513,55.756223
76264,Brydegårdsvej,2760,39,12.319141,55.75749
76265,Brydegårdsvej,2760,40,12.318846,55.756389
76266,Brydegårdsvej,2760,42,12.318887,55.756664
76267,Brydegårdsvej,2760,44A,12.319124,55.756777
76268,Brydegårdsvej,2760,44B,12.319227,55.756822
76269,Brydegårdsvej,2760,46,12.319189,55.757045
76304,Dyssemarken,2760,1,12.319259,55.754648
76305,Dyssemarken,2760,3,12.319518,55.754809
76306,Dyssemarken,2760,4,12.319488,55.754377
76307,Dyssemarken,2760,5,12.319842,55.754877
76308,Dyssemarken,2760,6,12.319766,55.754499
76309,Dyssemarken,2760,7,12.320099,55.754949
76310,Dyssemarken,2760,8,12.320008,55.75457
76311,Dyssemarken,2760,9,12.320337,55.755072
76312,Dyssemarken,2760,10,12.320289,55.754605
76313,Dyssemarken,2760,11,12.320687,55.755121
76314,Dyssemarken,2760,12,12.320639,55.754665
76315,Dyssemarken,2760,13,12.321034,55.755114
76316,Dyssemarken,2760,14,12.320893,55.754774
76317,Dyssemarken,2760,15,12.321296,55.755182
76318,Dyssemarken,2760,16,12.321145,55.754858
76319,Dyssemarken,2760,17,12.321551,55.755266
76320,Dyssemarken,2760,18,12.321469,55.754955
76321,Dyssemarken,2760,19,12.321973,55.755387
76322,Dyssemarken,2760,20,12.321763,55.755037
76323,Dyssemarken,2760,21,12.322422,55.755596
76324,Dyssemarken,2760,22,12.322209,55.755045
76325,Dyssemarken,2760,24,12.3224,55.755207
76326,Dyssemarken,2760,26,12.322732,55.75532
76327,Dyssemarken,2760,28,12.323056,55.75533
76328,Engtoften,2760,1,12.31963,55.757453
76329,Engtoften,2760,3,12.319887,55.757388
76330,Engtoften,2760,4,12.319593,55.756994
76331,Engtoften,2760,5,12.320234,55.757404
76332,Engtoften,2760,6,12.319873,55.756861
76333,Engtoften,2760,7,12.32046,55.757227
76334,Engtoften,2760,8,12.320252,55.756979
76335,Engtoften,2760,11,12.321242,55.757084
76336,Engtoften,2760,12,12.320941,55.756674
76337,Engtoften,2760,13,12.321538,55.757006
76338,Engtoften,2760,13A,12.321817,55.756955
76339,Engtoften,2760,14,12.321299,55.756757
76340,Engtoften,2760,15,12.322043,55.756916
76341,Engtoften,2760,16,12.321637,55.756721
76342,Engtoften,2760,17,12.322311,55.756894
76343,Engtoften,2760,17A,12.322553,55.756846
76344,Engtoften,2760,18,12.321923,55.756609
76345,Engtoften,2760,19,12.322806,55.756767
76346,Engtoften,2760,20,12.322189,55.756518
76347,Engtoften,2760,21,12.323234,55.756704
76348,Engtoften,2760,22,12.322523,55.75648
76349,Engtoften,2760,23,12.323532,55.756705
76350,Engtoften,2760,24,12.322861,55.75646
76351,Engtoften,2760,25,12.323861,55.756645
76352,Engtoften,2760,26,12.323159,55.756384
76353,Engtoften,2760,26A,12.32342,55.756385
76354,Engtoften,2760,27,12.324148,55.756568
76355,Engtoften,2760,28,12.323677,55.756253
76356,Engtoften,2760,29,12.324453,55.756567
76357,Engtoften,2760,30,12.32397,55.75615
76358,Engtoften,2760,31,12.324784,55.756583
76359,Engtoften,2760,32,12.324272,55.756203
76360,Engtoften,2760,33,12.325023,55.756476
76361,Engtoften,2760,34,12.324365,55.75597
76362,Engtoften,2760,35,12.325389,55.756349
76363,Engtoften,2760,36,12.324591,55.75582
76364,Engtoften,2760,38,12.324883,55.755674
76365,Engtoften,2760,40,12.325149,55.756052
76366,Engtoften,2760,42,12.325397,55.755996
76367,Engtoften,2760,44,12.325798,55.755935
76368,Eskebjerggård,2760,2,12.310422,55.752393
76369,Eskebjerggård,2760,3,12.310915,55.75183
76370,Eskebjerggård,2760,4,12.310396,55.752231
76371,Eskebjerggård,2760,6,12.310369,55.752069
76372,Eskebjerggård,2760,8,12.31034,55.751909
76373,Eskebjerggård,2760,10,12.310313,55.751747
76374,Eskebjerggård,2760,12,12.310371,55.751405
76375,Eskebjerggård,2760,14,12.310661,55.751398
76376,Eskebjerggård,2760,16,12.310952,55.751393
76377,Eskebjerggård,2760,18,12.311247,55.751386
76378,Eskebjerggård,2760,20,12.31153,55.751382
76379,Eskebjerggård,2760,22,12.311844,55.75115
76380,Eskebjerggård,2760,24,12.312133,55.751136
76381,Eskebjerggård,2760,26,12.312421,55.751123
76382,Eskebjerggård,2760,28,12.312707,55.75111
76383,Eskebjerggård,2760,30,12.312991,55.751097
76384,Eskebjerggård,2760,32,12.313279,55.751084
76385,Eskebjerggård,2760,34,12.313566,55.751072
76386,Eskebjerggård,2760,36,12.313843,55.751058
76387,Eskebjerggård,2760,38,12.309539,55.751297
76388,Eskebjerggård,2760,40,12.309804,55.751236
76389,Eskebjerggård,2760,42,12.310072,55.751175
76390,Eskebjerggård,2760,44,12.310337,55.751116
76391,Eskebjerggård,2760,46,12.310595,55.75106
76392,Eskebjerggård,2760,48,12.310869,55.750996
76393,Eskebjerggård,2760,50,12.311156,55.750933
76394,Eskebjerggård,2760,52,12.311406,55.750874
76395,Eskebjerggård,2760,54,12.31168,55.750815
76396,Eskebjerggård,2760,56,12.311942,55.750753
76397,Eskebjerggård,2760,58,12.312207,55.750694
76398,Eskebjerggård,2760,60,12.31247,55.750634
76399,Eskebjerggård,2760,62,12.313583,55.750659
76400,Eskebjerggård,2760,64,12.313516,55.751355
76414,Gershøjvej,2760,2,12.312978,55.752367
76415,Gershøjvej,2760,3,12.312476,55.752837
76416,Gershøjvej,2760,5,12.312468,55.752901
76417,Gershøjvej,2760,7,12.312461,55.752959
76418,Gershøjvej,2760,9,12.312453,55.753022
76419,Gershøjvej,2760,11,12.312439,55.753087
76420,Gershøjvej,2760,13,12.31242,55.753146
76421,Gershøjvej,2760,15,12.312401,55.753208
76422,Gershøjvej,2760,17,12.312382,55.753268
76423,Gershøjvej,2760,19,12.312355,55.753329
76424,Gershøjvej,2760,21,12.31232,55.753391
76425,Gershøjvej,2760,23,12.312287,55.753449
76426,Gershøjvej,2760,25,12.312253,55.753508
76500,Gjørdingvej,2760,2,12.325956,55.746266
76501,Gjørdingvej,2760,3,12.326572,55.746326
76502,Gjørdingvej,2760,4,12.326258,55.74616
76503,Gjørdingvej,2760,5,12.327067,55.746257
76504,Gjørdingvej,2760,6,12.326595,55.746031
76505,Gjørdingvej,2760,7,12.327222,55.746399
76506,Gjørdingvej,2760,8,12.326945,55.745947
76507,Gjørdingvej,2760,9,12.327377,55.746584
76508,Gjørdingvej,2760,10,12.327279,55.745839
76509,Gjørdingvej,2760,11,12.327538,55.746776
76510,Gjørdingvej,2760,12,12.32752,55.74574
76511,Gjørdingvej,2760,13,12.32772,55.746975
76512,Gjørdingvej,2760,14,12.327884,55.745636
76513,Gjørdingvej,2760,16,12.328139,55.745555
76514,Gjørdingvej,2760,17,12.327741,55.746406
76515,Gjørdingvej,2760,18,12.328206,55.745891
76516,Gjørdingvej,2760,19,12.32743,55.746222
76517,Gjørdingvej,2760,20,12.328379,55.746169
76518,Gjørdingvej,2760,21,12.327966,55.746061
76519,Gjørdingvej,2760,22,12.328489,55.746443
76520,Gjørdingvej,2760,23,12.328088,55.746306
76521,Gjørdingvej,2760,24,12.328569,55.746716
76522,Gjørdingvej,2760,25,12.328156,55.746554
76523,Gjørdingvej,2760,26,12.328684,55.746995
76524,Gjørdingvej,2760,27,12.328233,55.746736
76525,Gjørdingvej,2760,28,12.328723,55.747291
76526,Gjørdingvej,2760,29,12.328285,55.746976
76527,Gjørdingvej,2760,31,12.327904,55.74717
76528,Gjørdingvej,2760,33,12.328419,55.747222
76531,Grønbjergvej,2760,2,12.324267,55.74728
76532,Grønbjergvej,2760,3,12.325053,55.747232
76533,Grønbjergvej,2760,4,12.324457,55.747174
76534,Grønbjergvej,2760,5,12.325284,55.747379
76535,Grønbjergvej,2760,6,12.324721,55.747027
76536,Grønbjergvej,2760,7,12.325504,55.747537
76537,Grønbjergvej,2760,8,12.324926,55.746913
76538,Grønbjergvej,2760,9,12.325678,55.747678
76539,Grønbjergvej,2760,10,12.325136,55.746799
76540,Grønbjergvej,2760,11,12.325872,55.747863
76541,Grønbjergvej,2760,12,12.325239,55.747049
76542,Grønbjergvej,2760,13,12.326049,55.748062
76543,Grønbjergvej,2760,14,12.325478,55.747183
76544,Grønbjergvej,2760,15,12.326204,55.748279
76545,Grønbjergvej,2760,16,12.325712,55.747312
76546,Grønbjergvej,2760,17,12.326307,55.748447
76547,Grønbjergvej,2760,18,12.325906,55.747464
76548,Grønbjergvej,2760,19,12.326404,55.748665
76549,Grønbjergvej,2760,20,12.32606,55.747615
76550,Grønbjergvej,2760,21,12.326472,55.748864
76551,Grønbjergvej,2760,22,12.326248,55.747773
76552,Grønbjergvej,2760,23,12.326508,55.749073
76553,Grønbjergvej,2760,24,12.326419,55.747964
76554,Grønbjergvej,2760,25,12.326443,55.749275
76555,Grønbjergvej,2760,26,12.32655,55.748144
76556,Grønbjergvej,2760,28,12.326659,55.748321
76557,Grønbjergvej,2760,30,12.326758,55.748502
76558,Grønbjergvej,2760,32,12.326821,55.748658
76559,Grønbjergvej,2760,34,12.326887,55.748841
76560,Grønbjergvej,2760,36,12.326913,55.74903
76561,Grønbjergvej,2760,38,12.327076,55.749196
76562,Hellevangen,2760,1,12.319804,55.753722
76563,Hellevangen,2760,2,12.319965,55.753503
76564,Hellevangen,2760,2A,12.320336,55.75362
76565,Hellevangen,2760,4,12.320597,55.753676
76566,Hellevangen,2760,5,12.320198,55.753836
76567,Hellevangen,2760,6,12.320949,55.753735
76568,Hellevangen,2760,7,12.320461,55.753971
76569,Hellevangen,2760,7A,12.320381,55.754178
76570,Hellevangen,2760,8,12.32116,55.753836
76571,Hellevangen,2760,9,12.320812,55.754285
76572,Hellevangen,2760,9A,12.320923,55.7541
76573,Hellevangen,2760,10,12.321404,55.75394
76574,Hellevangen,2760,11,12.321161,55.754244
76575,Hellevangen,2760,12,12.321693,55.754013
76576,Hellevangen,2760,13,12.321461,55.754289
76577,Hellevangen,2760,14,12.321999,55.754117
76578,Hellevangen,2760,15,12.32179,55.75436
76579,Hellevangen,2760,16,12.322327,55.754094
76580,Hellevangen,2760,17,12.322078,55.754413
76581,Hellevangen,2760,18,12.322574,55.75418
76582,Hellevangen,2760,18A,12.322682,55.754094
76583,Hellevangen,2760,19,12.322226,55.75458
76584,Hellevangen,2760,20,12.322837,55.75433
76585,Hellevangen,2760,21,12.322453,55.754649
76586,Hellevangen,2760,22,12.323012,55.754398
76587,Hellevangen,2760,23,12.322896,55.754635
76588,Hellevangen,2760,24,12.323284,55.754478
76589,Hellevangen,2760,25,12.323088,55.754796
76590,Hellevangen,2760,31,12.324147,55.754992
76591,Hellevangen,2760,32,12.32465,55.754848
76592,Hellevangen,2760,33,12.324333,55.755114
76593,Hellevangen,2760,34,12.324887,55.754935
76594,Hellevangen,2760,35,12.324683,55.755158
76595,Hellevangen,2760,36,12.325168,55.754973
76596,Hellevangen,2760,37,12.324983,55.75523
76597,Hellevangen,2760,38,12.325444,55.755059
76598,Hellevangen,2760,39,12.325223,55.755298
76599,Hellevangen,2760,40,12.325704,55.755139
76600,Hellevangen,2760,41,12.325448,55.755366
76601,Hellevangen,2760,42,12.32593,55.755209
76602,Hellevangen,2760,44,12.326201,55.755282
76603,Hellevangen,2760,45,12.325985,55.755499
76604,Hellevangen,2760,46,12.326442,55.755361
76605,Kildedalsvej,2760,2,12.281325,55.752075
76606,Jungshøjvej,2760,1,12.308516,55.751843
76607,Jungshøjvej,2760,6,12.309566,55.753036
76608,Jungshøjvej,2760,8,12.310729,55.7533
76609,Jungshøjvej,2760,10,12.310397,55.753306
76610,Jungshøjvej,2760,12A,12.3097,55.753383
76611,Jungshøjvej,2760,12B,12.309911,55.753306
76612,Jungshøjvej,2760,16,12.300778,55.75906
76613,Jungshøjvej,2760,18,12.299691,55.759852
76614,Jungshøjvej,2760,20,12.297025,55.75988
76637,Jørgen Andersensvej,2760,1,12.320316,55.748364
76638,Jørgen Andersensvej,2760,2,12.320191,55.748816
76639,Jørgen Andersensvej,2760,3,12.320262,55.748276
76640,Jørgen Andersensvej,2760,4,12.319046,55.748584
76641,Jørgen Andersensvej,2760,5,12.320208,55.748181
76642,Jørgen Andersensvej,2760,6,12.319258,55.748546
76643,Jørgen Andersensvej,2760,8,12.319473,55.748506
76644,Jørgen Andersensvej,2760,10,12.319685,55.748468
76645,Jørgen Andersensvej,2760,12,12.319829,55.748312
76956,Kratlodden,2760,1,12.323238,55.752975
76957,Kratlodden,2760,2,12.322487,55.752993
76958,Kratlodden,2760,3,12.323005,55.753167
76959,Kratlodden,2760,4,12.321943,55.752791
76960,Kratlodden,2760,5,12.323492,55.753238
76961,Kratlodden,2760,6,12.322385,55.752759
76962,Kratlodden,2760,7,12.323819,55.75334
76963,Kratlodden,2760,8,12.32222,55.752535
76964,Kratlodden,2760,9,12.324136,55.753449
76965,Kratlodden,2760,10,12.322175,55.752466
76966,Kratlodden,2760,11,12.324462,55.75355
76967,Kratlodden,2760,12,12.322116,55.752389
76968,Kratlodden,2760,13,12.324777,55.753656
76969,Kratlodden,2760,14,12.322075,55.75232
76970,Kratlodden,2760,15,12.324926,55.753358
76971,Kratlodden,2760,16,12.322038,55.752255
76972,Kratlodden,2760,17,12.324814,55.753026
76973,Kratlodden,2760,18,12.321998,55.752193
76974,Kratlodden,2760,19,12.324491,55.753218
76975,Kratlodden,2760,20,12.321637,55.752066
76976,Kratlodden,2760,21,12.324084,55.753138
76977,Kratlodden,2760,22,12.321698,55.752014
76978,Kratlodden,2760,23,12.3237,55.752965
76979,Kratlodden,2760,24,12.321761,55.751959
76980,Kratlodden,2760,25,12.32399,55.752852
76981,Kratlodden,2760,26,12.321822,55.751902
76982,Kratlodden,2760,27,12.324314,55.752815
76983,Kratlodden,2760,28,12.321993,55.751866
76984,Kratlodden,2760,29,12.324614,55.752691
76985,Kratlodden,2760,30,12.322108,55.751845
76986,Kratlodden,2760,31,12.324449,55.752429
76987,Kratlodden,2760,32,12.322218,55.751823
76988,Kratlodden,2760,33,12.324148,55.752487
76989,Kratlodden,2760,34,12.322325,55.751803
76990,Kratlodden,2760,35,12.323847,55.752544
76991,Kratlodden,2760,36,12.322454,55.751784
76992,Kratlodden,2760,37,12.323544,55.752601
76993,Kratlodden,2760,38,12.322558,55.751764
76994,Kratlodden,2760,39,12.323244,55.752658
76995,Kratlodden,2760,40,12.32267,55.751745
76996,Kratlodden,2760,41,12.3229,55.752658
76997,Kratlodden,2760,42,12.322779,55.751724
76998,Kratlodden,2760,43,12.322529,55.752368
76999,Kratlodden,2760,44,12.322947,55.751723
77000,Kratlodden,2760,45,12.322646,55.752343
77001,Kratlodden,2760,46,12.323053,55.751702
77002,Kratlodden,2760,47,12.322765,55.75232
77003,Kratlodden,2760,48,12.323167,55.751683
77004,Kratlodden,2760,49,12.322884,55.7523
77005,Kratlodden,2760,50,12.323271,55.751661
77006,Kratlodden,2760,51,12.323071,55.752264
77007,Kratlodden,2760,52,12.322245,55.752064
77008,Kratlodden,2760,53,12.323178,55.752244
77009,Kratlodden,2760,55,12.323287,55.752224
77010,Kratlodden,2760,57,12.323399,55.752204
77011,Kratlodden,2760,59,12.323618,55.75217
77012,Kratlodden,2760,61,12.323697,55.752122
77013,Kratlodden,2760,63,12.323777,55.752074
77014,Kratlodden,2760,65,12.323853,55.752027
77015,Kratlodden,2760,67,12.32346,55.751927
77016,Kratlodden,2760,69,12.323346,55.75195
77017,Kratlodden,2760,71,12.323228,55.751972
77018,Kratlodden,2760,73,12.323112,55.751993
77019,Kratvej,2760,1,12.315486,55.751668
77020,Kratvej,2760,2,12.315261,55.751415
77021,Kratvej,2760,2A,12.315891,55.751324
77022,Kratvej,2760,2C,12.316002,55.751463
77023,Kratvej,2760,3,12.315846,55.751626
77024,Kratvej,2760,4,12.316338,55.751442
77025,Kratvej,2760,5,12.316093,55.751637
77026,Kratvej,2760,5A,12.316231,55.751912
77027,Kratvej,2760,6,12.316476,55.751224
77028,Kratvej,2760,7,12.317114,55.751873
77029,Kratvej,2760,9,12.317709,55.752257
77030,Kratvej,2760,11,12.318058,55.752475
77031,Kratvej,2760,12B,12.319436,55.75185
77032,Kratvej,2760,13,12.318785,55.752712
77033,Kratvej,2760,14,12.32158,55.751227
77034,Kratvej,2760,15,12.3191,55.752741
77035,Kratvej,2760,16,12.318722,55.752283
77036,Kratvej,2760,17,12.319464,55.75273
77037,Kratvej,2760,19,12.319891,55.752746
77038,Kratvej,2760,20,12.31896,55.752444
77039,Kratvej,2760,20A,12.319295,55.752419
77040,Kratvej,2760,21,12.320318,55.752861
77041,Kratvej,2760,22,12.319521,55.752406
77042,Kratvej,2760,23,12.320627,55.752928
77043,Kratvej,2760,24,12.320279,55.752015
77044,Kratvej,2760,25,12.320901,55.752995
77045,Kratvej,2760,26,12.319939,55.752243
77046,Kratvej,2760,27,12.321133,55.753058
77047,Kratvej,2760,28,12.320272,55.75252
77048,Kratvej,2760,28A,12.320656,55.75252
77049,Kratvej,2760,28B,12.320627,55.752299
77050,Kratvej,2760,28C,12.320662,55.751942
77051,Kratvej,2760,29,12.32141,55.753131
77052,Kratvej,2760,30,12.321261,55.752376
77053,Kratvej,2760,30A,12.321525,55.752446
77054,Kratvej,2760,30B,12.321046,55.752513
77055,Kratvej,2760,30C,12.321518,55.752601
77056,Kratvej,2760,31,12.321726,55.753213
77057,Kratvej,2760,33,12.321949,55.75328
77058,Kratvej,2760,35,12.322263,55.753361
77059,Kratvej,2760,37,12.322481,55.753496
77060,Kratvej,2760,39,12.322747,55.753576
77061,Kratvej,2760,41,12.322953,55.753709
77062,Kratvej,2760,43,12.323314,55.753773
77063,Kratvej,2760,45,12.323563,55.753852
77064,Kratvej,2760,47,12.323784,55.753979
77065,Kratvej,2760,55,12.324963,55.754383
77066,Kratvej,2760,57,12.325325,55.754394
77067,Kratvej,2760,59,12.325449,55.754623
77068,Kratvej,2760,61,12.325855,55.754635
77069,Kratvej,2760,63,12.326158,55.754893
77070,Kratvej,2760,65,12.326395,55.754702
77071,Kratvej,2760,67,12.326683,55.754758
77072,Kratvej,2760,69,12.326998,55.754811
77122,Kærlodden,2760,1,12.327358,55.754304
77123,Kærlodden,2760,2,12.326714,55.754142
77124,Kærlodden,2760,4,12.326566,55.754306
77125,Kærlodden,2760,5,12.327284,55.753336
77126,Kærlodden,2760,6,12.326203,55.754117
77127,Kærlodden,2760,7,12.327464,55.753302
77128,Kærlodden,2760,8,12.325901,55.754019
77129,Kærlodden,2760,9,12.327647,55.753267
77130,Kærlodden,2760,10,12.325465,55.75396
77131,Kærlodden,2760,11,12.327829,55.753232
77132,Kærlodden,2760,12,12.325151,55.753777
77133,Kærlodden,2760,13,12.328153,55.753138
77134,Kærlodden,2760,14,12.325371,55.753605
77135,Kærlodden,2760,15,12.328366,55.753088
77136,Kærlodden,2760,16,12.325841,55.753728
77137,Kærlodden,2760,17,12.328546,55.753054
77138,Kærlodden,2760,18,12.326287,55.753823
77139,Kærlodden,2760,19,12.328729,55.753018
77140,Kærlodden,2760,20,12.325909,55.753488
77141,Kærlodden,2760,21,12.328911,55.752984
77142,Kærlodden,2760,22,12.326325,55.753505
77143,Kærlodden,2760,23,12.328849,55.752702
77144,Kærlodden,2760,24,12.326634,55.753518
77145,Kærlodden,2760,25,12.328811,55.752636
77146,Kærlodden,2760,26,12.32673,55.753884
77147,Kærlodden,2760,27,12.328772,55.752572
77148,Kærlodden,2760,28,12.326388,55.753105
77149,Kærlodden,2760,29,12.328735,55.752509
77150,Kærlodden,2760,30,12.326085,55.753172
77151,Kærlodden,2760,31,12.328698,55.752447
77152,Kærlodden,2760,32,12.325765,55.753233
77153,Kærlodden,2760,33,12.32866,55.752384
77154,Kærlodden,2760,34,12.325408,55.753226
77155,Kærlodden,2760,35,12.328327,55.752816
77156,Kærlodden,2760,36,12.325203,55.752981
77157,Kærlodden,2760,37,12.328272,55.752722
77158,Kærlodden,2760,38,12.325546,55.752896
77159,Kærlodden,2760,39,12.328183,55.752574
77160,Kærlodden,2760,40,12.325938,55.752887
77161,Kærlodden,2760,41,12.328126,55.75248
77162,Kærlodden,2760,42,12.326203,55.752794
77163,Kærlodden,2760,43,12.328028,55.752368
77164,Kærlodden,2760,44,12.325991,55.752438
77165,Kærlodden,2760,45,12.32801,55.752285
77166,Kærlodden,2760,46,12.325688,55.752517
77167,Kærlodden,2760,47,12.327702,55.752359
77168,Kærlodden,2760,48,12.325355,55.75257
77169,Kærlodden,2760,49,12.32776,55.752453
77170,Kærlodden,2760,50,12.325034,55.75264
77171,Kærlodden,2760,51,12.327845,55.752601
77172,Kærlodden,2760,52,12.324811,55.752323
77173,Kærlodden,2760,53,12.327902,55.752696
77174,Kærlodden,2760,54,12.325152,55.752239
77175,Kærlodden,2760,55,12.327942,55.752779
77176,Kærlodden,2760,56,12.325544,55.75223
77177,Kærlodden,2760,57,12.32805,55.752898
77178,Kærlodden,2760,58,12.325811,55.752136
77179,Kærlodden,2760,59,12.327525,55.753046
77180,Kærlodden,2760,61,12.327469,55.752952
77181,Kærlodden,2760,63,12.327427,55.752829
77182,Kærlodden,2760,65,12.32737,55.752735
77183,Kærlodden,2760,67,12.327283,55.752587
77184,Kærlodden,2760,69,12.327226,55.752492
77185,Kærlodden,2760,71,12.326901,55.752528
77186,Kærlodden,2760,73,12.326956,55.752616
77187,Kærlodden,2760,75,12.327018,55.752734
77188,Kærlodden,2760,77,12.327074,55.752828
77189,Kærlodden,2760,79,12.327166,55.752975
77190,Kærlodden,2760,81,12.32722,55.75307
77191,Kærlodden,2760,83,12.325796,55.751675
77192,Kærlodden,2760,85,12.325976,55.751641
77193,Kærlodden,2760,87,12.326158,55.751606
77194,Kærlodden,2760,89,12.326339,55.751572
77195,Kærlodden,2760,91,12.326521,55.751537
77196,Kærlodden,2760,93,12.326848,55.751406
77197,Kærlodden,2760,95,12.32703,55.751372
77198,Kærlodden,2760,97,12.32721,55.751337
77199,Kærlodden,2760,99,12.327392,55.751302
77200,Kærlodden,2760,101,12.327574,55.751268
77201,Kærlodden,2760,103,12.327756,55.751233
77202,Kærlodden,2760,105,12.328066,55.751545
77203,Kærlodden,2760,107,12.328102,55.751611
77204,Kærlodden,2760,109,12.328138,55.751678
77205,Kærlodden,2760,111,12.328172,55.751738
77206,Kærlodden,2760,113,12.328207,55.751802
77207,Kærlodden,2760,115,12.328243,55.751868
77208,Kærlodden,2760,117,12.32815,55.752094
77209,Kærlodden,2760,119,12.327444,55.751559
77210,Kærlodden,2760,121,12.327527,55.751646
77211,Kærlodden,2760,123,12.327584,55.75174
77212,Kærlodden,2760,125,12.327625,55.751863
77213,Kærlodden,2760,127,12.327682,55.751957
77214,Kærlodden,2760,129,12.327353,55.752031
77215,Kærlodden,2760,131,12.327341,55.75192
77216,Kærlodden,2760,133,12.327282,55.751825
77217,Kærlodden,2760,135,12.327241,55.751703
77218,Kærlodden,2760,137,12.327182,55.751609
77219,Kærlodden,2760,139,12.326676,55.751762
77220,Kærlodden,2760,141,12.326725,55.751839
77221,Kærlodden,2760,143,12.326809,55.751976
77222,Kærlodden,2760,145,12.326865,55.752056
77223,Kærlodden,2760,147,12.326933,55.752173
77224,Kærlodden,2760,149,12.326992,55.752268
77225,Kærlodden,2760,151,12.326737,55.752384
77226,Kærlodden,2760,153,12.326682,55.75229
77227,Kærlodden,2760,155,12.326587,55.752177
77228,Kærlodden,2760,157,12.326531,55.752083
77229,Kærlodden,2760,159,12.326437,55.751935
77230,Kærlodden,2760,161,12.326397,55.751839
77231,Liljevangsvej,2760,2,12.31771,55.749915
77232,Liljevangsvej,2760,8,12.318204,55.750499
77233,Liljevangsvej,2760,9,12.317239,55.750752
77234,Liljevangsvej,2760,11,12.31688,55.751068
77235,Liljevangsvej,2760,12,12.318801,55.750503
77236,Liljevangsvej,2760,13,12.316628,55.751174
77237,Liljevangsvej,2760,14,12.318844,55.750359
77238,Liljevangsvej,2760,15,12.316779,55.751322
77239,Liljevangsvej,2760,16,12.318885,55.750212
77240,Liljevangsvej,2760,18,12.319445,55.750354
77241,Liljevangsvej,2760,20,12.319486,55.750213
77242,Liljevangsvej,2760,22,12.319527,55.750075
77243,Liljevangsvej,2760,24,12.320084,55.750221
77244,Liljevangsvej,2760,26,12.320123,55.750078
77245,Liljevangsvej,2760,28,12.320168,55.749938
77246,Liljevangsvej,2760,30,12.319533,55.750667
77247,Liljevangsvej,2760,32,12.31949,55.750806
77248,Liljevangsvej,2760,34,12.318864,55.750829
77249,Liljevangsvej,2760,36,12.318822,55.75097
77250,Liljevangsvej,2760,38A,12.318979,55.75176
77251,Liljevangsvej,2760,38B,12.317999,55.751127
77252,Liljevangsvej,2760,40,12.31752,55.751055
77253,Liljevangsvej,2760,42,12.317271,55.751316
77312,Marklodden,2760,1,12.328443,55.754582
77313,Marklodden,2760,2,12.328402,55.75453
77314,Marklodden,2760,3,12.328355,55.754474
77315,Marklodden,2760,4,12.328311,55.754419
77316,Marklodden,2760,5,12.328226,55.754235
77317,Marklodden,2760,6,12.32822,55.754177
77318,Marklodden,2760,7,12.328221,55.754115
77319,Marklodden,2760,8,12.328219,55.754059
77320,Marklodden,2760,9,12.328097,55.753874
77321,Marklodden,2760,10,12.327999,55.753874
77322,Marklodden,2760,11,12.327902,55.753878
77323,Marklodden,2760,12,12.327791,55.753879
77324,Marklodden,2760,13,12.327693,55.753881
77325,Marklodden,2760,14,12.327578,55.753881
77326,Marklodden,2760,15,12.327527,55.753713
77327,Marklodden,2760,16,12.327623,55.753693
77328,Marklodden,2760,17,12.32772,55.75367
77329,Marklodden,2760,18,12.327892,55.753659
77330,Marklodden,2760,19,12.327991,55.753657
77331,Marklodden,2760,20,12.32809,55.753654
77332,Marklodden,2760,21,12.328774,55.754252
77333,Marklodden,2760,22,12.328859,55.754283
77334,Marklodden,2760,23,12.328946,55.754311
77335,Marklodden,2760,24,12.329039,55.754345
77336,Marklodden,2760,25,12.329248,55.754382
77337,Marklodden,2760,26,12.329342,55.754405
77338,Marklodden,2760,27,12.32944,55.754431
77339,Marklodden,2760,28,12.329533,55.754455
77340,Marklodden,2760,29,12.329628,55.754475
77341,Marklodden,2760,30,12.329715,55.754503
77342,Marklodden,2760,31,12.328713,55.75398
77343,Marklodden,2760,32,12.328794,55.75401
77344,Marklodden,2760,33,12.328884,55.754042
77345,Marklodden,2760,34,12.328965,55.754074
77346,Marklodden,2760,35,12.329189,55.754116
77347,Marklodden,2760,36,12.329278,55.754138
77348,Marklodden,2760,37,12.329371,55.754161
77349,Marklodden,2760,38,12.329467,55.754185
77350,Marklodden,2760,39,12.329568,55.75421
77351,Marklodden,2760,40,12.329651,55.754232
77352,Marklodden,2760,41,12.328654,55.753707
77353,Marklodden,2760,42,12.328736,55.75374
77354,Marklodden,2760,43,12.328826,55.753774
77355,Marklodden,2760,44,12.32891,55.753807
77356,Marklodden,2760,45,12.329104,55.753829
77357,Marklodden,2760,46,12.329176,55.753848
77358,Marklodden,2760,47,12.329259,55.753869
77359,Marklodden,2760,48,12.329345,55.753892
77360,Marklodden,2760,49,12.329431,55.753915
77361,Marklodden,2760,50,12.329524,55.75394
77362,Marklodden,2760,51,12.329603,55.75396
77393,Møllemosen,2760,1,12.332967,55.754717
77394,Møllemosen,2760,2,12.333324,55.754465
77395,Møllemosen,2760,3,12.332692,55.754795
77396,Møllemosen,2760,4,12.333476,55.754496
77397,Møllemosen,2760,4A,12.33375,55.754484
77398,Møllemosen,2760,5,12.332365,55.754879
77399,Møllemosen,2760,6,12.334005,55.754635
77400,Møllemosen,2760,7,12.331915,55.754962
77401,Møllemosen,2760,8,12.333771,55.754639
77402,Møllemosen,2760,9,12.331605,55.755005
77403,Møllemosen,2760,10,12.333843,55.754907
77404,Møllemosen,2760,11,12.331276,55.755049
77405,Møllemosen,2760,12,12.333995,55.754942
77406,Møllemosen,2760,13,12.33085,55.7551
77407,Møllemosen,2760,14,12.334199,55.755181
77408,Møllemosen,2760,15,12.330485,55.755131
77409,Møllemosen,2760,16,12.334356,55.755209
77410,Møllemosen,2760,17,12.330464,55.755341
77411,Møllemosen,2760,18,12.334551,55.755459
77412,Møllemosen,2760,19,12.330892,55.755355
77413,Møllemosen,2760,20,12.334703,55.755491
77414,Møllemosen,2760,21,12.33135,55.755257
77415,Møllemosen,2760,22,12.33471,55.755746
77416,Møllemosen,2760,23,12.331698,55.755185
77417,Møllemosen,2760,24,12.334719,55.755931
77418,Møllemosen,2760,25,12.332147,55.755135
77419,Møllemosen,2760,26,12.334567,55.756107
77420,Møllemosen,2760,27,12.332548,55.755069
77421,Møllemosen,2760,28,12.334463,55.756305
77422,Møllemosen,2760,29,12.332923,55.754997
77423,Møllemosen,2760,30,12.3342,55.756564
77424,Møllemosen,2760,31,12.333286,55.754925
77425,Møllemosen,2760,32,12.333924,55.756731
77426,Møllemosen,2760,33,12.333536,55.755202
77427,Møllemosen,2760,34,12.333737,55.756873
77428,Møllemosen,2760,35,12.333198,55.755277
77429,Møllemosen,2760,36,12.333497,55.757045
77430,Møllemosen,2760,37,12.332802,55.755386
77431,Møllemosen,2760,38,12.333208,55.757228
77432,Møllemosen,2760,39,12.332456,55.755459
77433,Møllemosen,2760,40,12.33294,55.757386
77434,Møllemosen,2760,41,12.331929,55.755554
77435,Møllemosen,2760,42,12.332544,55.757437
77436,Møllemosen,2760,43,12.331628,55.755602
77437,Møllemosen,2760,44,12.3321,55.757525
77438,Møllemosen,2760,45,12.331207,55.755654
77439,Møllemosen,2760,47,12.330751,55.755695
77440,Møllemosen,2760,49,12.330429,55.755718
77441,Møllemosen,2760,51,12.330458,55.755925
77442,Møllemosen,2760,53,12.330988,55.755925
77443,Møllemosen,2760,55,12.331394,55.755864
77444,Møllemosen,2760,57,12.331836,55.755793
77445,Møllemosen,2760,59,12.332248,55.755727
77446,Møllemosen,2760,61,12.33255,55.755682
77447,Møllemosen,2760,63,12.332876,55.755612
77448,Møllemosen,2760,65,12.333247,55.755585
77449,Møllemosen,2760,67,12.333498,55.7555
77450,Møllemosen,2760,69,12.334,55.755409
77451,Møllemosen,2760,71,12.334237,55.755575
77452,Møllemosen,2760,73,12.334326,55.755866
77453,Møllemosen,2760,75,12.334087,55.756085
77454,Møllemosen,2760,77,12.333609,55.755975
77455,Møllemosen,2760,79,12.33324,55.755978
77456,Møllemosen,2760,81,12.332848,55.755999
77457,Møllemosen,2760,83,12.332382,55.756064
77458,Møllemosen,2760,85,12.331967,55.756111
77459,Møllemosen,2760,87,12.331518,55.756167
77460,Møllemosen,2760,89,12.330995,55.75623
77461,Møllemosen,2760,91,12.330662,55.756269
77462,Møllemosen,2760,93,12.330656,55.756417
77463,Møllemosen,2760,95,12.331159,55.756439
77464,Møllemosen,2760,97,12.331559,55.756352
77465,Møllemosen,2760,99,12.331981,55.75631
77466,Møllemosen,2760,101,12.33238,55.756278
77467,Møllemosen,2760,103,12.332685,55.756279
77468,Møllemosen,2760,105,12.333025,55.75622
77469,Møllemosen,2760,107,12.333465,55.756234
77470,Møllemosen,2760,109,12.333865,55.756359
77471,Møllemosen,2760,111,12.333638,55.756547
77472,Møllemosen,2760,113,12.333238,55.756789
77473,Møllemosen,2760,115,12.33286,55.756666
77474,Møllemosen,2760,117,12.332448,55.756631
77475,Møllemosen,2760,119,12.332065,55.756674
77476,Møllemosen,2760,121,12.331634,55.756735
77477,Møllemosen,2760,123,12.331148,55.756775
77478,Møllemosen,2760,125,12.330917,55.756824
77479,Møllemosen,2760,129,12.331322,55.757009
77480,Møllemosen,2760,131,12.331706,55.756937
77481,Møllemosen,2760,133,12.33211,55.75692
77482,Møllemosen,2760,135,12.332489,55.75689
77483,Møllemosen,2760,137,12.332978,55.757022
77484,Møllemosen,2760,139,12.332577,55.757206
77485,Møllemosen,2760,141,12.332077,55.757258
77486,Møllemosen,2760,143,12.331637,55.757322
77487,Møllestykket,2760,1,12.327506,55.755183
77488,Møllestykket,2760,2,12.328031,55.755063
77489,Møllestykket,2760,4,12.328444,55.755114
77490,Møllestykket,2760,6,12.328766,55.755108
77491,Møllestykket,2760,8,12.329188,55.755143
77492,Møllestykket,2760,9,12.327966,55.755345
77493,Møllestykket,2760,10,12.329486,55.755207
77494,Møllestykket,2760,11,12.328272,55.755345
77495,Møllestykket,2760,12,12.329438,55.755443
77496,Møllestykket,2760,13,12.328696,55.755377
77497,Møllestykket,2760,14,12.32946,55.755657
77498,Møllestykket,2760,15,12.329015,55.755392
77499,Møllestykket,2760,16,12.32948,55.755858
77500,Møllestykket,2760,17,12.328597,55.755678
77501,Møllestykket,2760,18,12.329779,55.756059
77502,Møllestykket,2760,19,12.329023,55.755738
77503,Møllestykket,2760,20,12.329451,55.75604
77504,Møllestykket,2760,21,12.329041,55.755972
77505,Måløv Byvej,2760,5,12.32778,55.7437
77506,Måløv Byvej,2760,8,12.330566,55.744494
77507,Måløv Byvej,2760,13,12.325843,55.745134
77508,Måløv Byvej,2760,25,12.322256,55.746367
77509,Måløv Byvej,2760,99,12.309056,55.75062
77510,Måløv Byvej,2760,187,12.29729,55.752506
77511,Måløv Byvej,2760,227,12.289902,55.752927
77512,Måløv Byvej,2760,228,12.291938,55.756214
77513,Måløv Byvej,2760,229,12.292682,55.752599
77514,Måløv Byvej,2760,273,12.28082,55.754252
77515,Måløv Byvej,2760,278,12.28499,55.755074
77516,Måløv Byvej,2760,288,12.283371,55.755757
77517,Måløv Byvej,2760,294,12.282148,55.755416
77518,Måløv Byvej,2760,300,12.281082,55.755359
77519,Måløv Byvej,2760,304,12.28042,55.755312
77520,Måløv Byvej,2760,304A,12.280084,55.75542
77521,Måløv Byvej,2760,306,12.279325,55.755662
77573,Måløv Hovedgade,2760,1,12.324743,55.746438
77574,Måløv Hovedgade,2760,1A,12.325714,55.745971
77575,Måløv Hovedgade,2760,3,12.323942,55.746846
77576,Måløv Hovedgade,2760,45,12.32093,55.747798
77577,Måløv Hovedgade,2760,47,12.321366,55.748252
77578,Måløv Hovedgade,2760,48,12.324088,55.75032
77579,Måløv Hovedgade,2760,50,12.323198,55.750113
77580,Måløv Hovedgade,2760,50A,12.320668,55.749224
77581,Måløv Hovedgade,2760,51,12.320165,55.748909
77582,Måløv Hovedgade,2760,52,12.320224,55.749111
77583,Måløv Hovedgade,2760,54,12.319968,55.749188
77584,Måløv Hovedgade,2760,56,12.31976,55.749223
77585,Måløv Hovedgade,2760,57,12.319109,55.749082
77586,Måløv Hovedgade,2760,58A,12.319648,55.749759
77587,Måløv Hovedgade,2760,58B,12.319823,55.749728
77588,Måløv Hovedgade,2760,58C,12.319999,55.749697
77589,Måløv Hovedgade,2760,58D,12.320144,55.749671
77590,Måløv Hovedgade,2760,60,12.319274,55.749683
77591,Måløv Hovedgade,2760,61,12.318401,55.74921
77592,Måløv Hovedgade,2760,64,12.318555,55.749442
77593,Måløv Hovedgade,2760,65,12.317794,55.7494
77594,Måløv Hovedgade,2760,66,12.318293,55.749676
77595,Måløv Hovedgade,2760,66A,12.31833,55.749792
77596,Måløv Hovedgade,2760,67,12.317565,55.74952
77597,Måløv Hovedgade,2760,68,12.318369,55.749928
77598,Måløv Hovedgade,2760,69,12.31711,55.749748
77599,Måløv Hovedgade,2760,70,12.317663,55.749819
77600,Måløv Hovedgade,2760,71A,12.316832,55.749863
77601,Måløv Hovedgade,2760,71B,12.3168,55.749742
77602,Måløv Hovedgade,2760,72,12.317283,55.74994
77603,Måløv Hovedgade,2760,73,12.316599,55.749952
77604,Måløv Hovedgade,2760,74,12.317173,55.750027
77605,Måløv Hovedgade,2760,75,12.316411,55.750039
77606,Måløv Hovedgade,2760,76,12.317134,55.750229
77607,Måløv Hovedgade,2760,77,12.316237,55.750123
77608,Måløv Hovedgade,2760,78,12.316851,55.750271
77609,Måløv Hovedgade,2760,79,12.316056,55.750213
77610,Måløv Hovedgade,2760,80,12.316599,55.750302
77611,Måløv Hovedgade,2760,81,12.315888,55.750297
77612,Måløv Hovedgade,2760,82,12.316458,55.750448
77613,Måløv Hovedgade,2760,83,12.315706,55.750388
77614,Måløv Hovedgade,2760,84,12.316378,55.75082
77615,Måløv Hovedgade,2760,86,12.316047,55.750504
77616,Måløv Hovedgade,2760,88,12.315479,55.750814
77617,Måløv Hovedgade,2760,90,12.315487,55.75097
77618,Måløv Hovedgade,2760,91,12.314414,55.751329
77619,Måløv Hovedgade,2760,93,12.314208,55.751396
77620,Måløv Hovedgade,2760,95,12.314344,55.751529
77621,Måløv Hovedgade,2760,96,12.314686,55.751746
77622,Måløv Hovedgade,2760,97,12.314034,55.751666
77623,Måløv Hovedgade,2760,98,12.314533,55.751878
77624,Måløv Hovedgade,2760,99,12.313878,55.751754
77625,Måløv Hovedgade,2760,100,12.314225,55.751929
77626,Måløv Hovedgade,2760,101,12.313685,55.751864
77627,Måløv Hovedgade,2760,101A,12.313376,55.751893
77628,Måløv Hovedgade,2760,102,12.313874,55.752087
77629,Måløv Hovedgade,2760,103,12.313154,55.751939
77630,Måløv Hovedgade,2760,104,12.313696,55.752188
77631,Måløv Hovedgade,2760,105,12.312392,55.752092
77632,Måløv Hovedgade,2760,105A,12.312837,55.751947
77633,Måløv Hovedgade,2760,106,12.313414,55.752244
77634,Måløv Hovedgade,2760,107,12.312618,55.751666
77635,Måløv Hovedgade,2760,107A,12.312254,55.751817
77636,Måløv Hovedgade,2760,109,12.312006,55.751855
77637,Måløv Hovedgade,2760,109A,12.311591,55.751796
77638,Måløv Hovedgade,2760,111,12.311317,55.751875
77639,Måløv Hovedgade,2760,113A,12.311465,55.752022
77640,Måløv Hovedgade,2760,113B,12.311773,55.752113
77641,Måløv Hovedgade,2760,113C,12.311706,55.752403
77642,Måløv Hovedgade,2760,115,12.311227,55.752315
77643,Måløv Hovedgade,2760,123,12.30924,55.752516
77644,Måløv Hovedgade,2760,134,12.312449,55.752566
77645,Måløv Hovedgade,2760,136,12.311925,55.752727
77646,Måløv Hovedgade,2760,138,12.311627,55.752878
77647,Måløv Hovedgade,2760,140,12.311362,55.752853
77648,Måløv Hovedgade,2760,142A,12.310873,55.752805
77649,Måløv Hovedgade,2760,142B,12.310901,55.753032
77650,Måløv Hovedgade,2760,144,12.310359,55.752871
77651,Måløv Hovedgade,2760,146A,12.310075,55.752979
77652,Måløv Hovedgade,2760,146B,12.310045,55.752746
77653,Måløv Hovedgade,2760,148,12.30958,55.752828
77654,Måløv Hovedgade,2760,150,12.308596,55.752907
77681,Nørreled,2760,1,12.318294,55.753018
77682,Nørreled,2760,3,12.318391,55.753199
77683,Nørreled,2760,5,12.318441,55.753396
77684,Nørreled,2760,6,12.31878,55.753326
77685,Nørreled,2760,7,12.318541,55.7536
77699,Novo Nordisk Park,2760,1,12.299609,55.755505
77700,Passet,2760,1,12.323437,55.757842
77701,Passet,2760,3,12.323573,55.758064
77702,Passet,2760,4,12.323919,55.757882
77703,Parklodden,2760,1,12.330033,55.751261
77704,Parklodden,2760,3,12.329834,55.751299
77705,Parklodden,2760,5,12.329955,55.751
77706,Parklodden,2760,7,12.329779,55.751033
77707,Parklodden,2760,9,12.329778,55.750817
77708,Parklodden,2760,11,12.329707,55.750698
77709,Parklodden,2760,13,12.32965,55.750547
77710,Parklodden,2760,15,12.329582,55.750431
77711,Parklodden,2760,17,12.329295,55.75043
77712,Parklodden,2760,19,12.3291,55.750467
77713,Parklodden,2760,21,12.328842,55.750515
77714,Parklodden,2760,23,12.328659,55.75055
77715,Parklodden,2760,25,12.328415,55.750651
77716,Parklodden,2760,27,12.328302,55.750746
77717,Parklodden,2760,29,12.328338,55.750899
77718,Parklodden,2760,31,12.328405,55.751015
77719,Parklodden,2760,33,12.329257,55.750683
77720,Parklodden,2760,35,12.329319,55.750789
77721,Parklodden,2760,37,12.32931,55.750957
77722,Parklodden,2760,39,12.329373,55.751064
77723,Parklodden,2760,41,12.329028,55.751122
77724,Parklodden,2760,43,12.328833,55.751158
77725,Parklodden,2760,45,12.328511,55.751183
77726,Parklodden,2760,47,12.328589,55.751316
77727,Parklodden,2760,49,12.329443,55.751349
77728,Parklodden,2760,51,12.329221,55.751391
77729,Parklodden,2760,53,12.328988,55.751436
77730,Parklodden,2760,55,12.328747,55.751482
77731,Parklodden,2760,57,12.329018,55.751621
77732,Parklodden,2760,59,12.329096,55.751752
77733,Parklodden,2760,61,12.329406,55.751651
77734,Parklodden,2760,63,12.329643,55.751606
77735,Parklodden,2760,65,12.32989,55.751546
77736,Parklodden,2760,67,12.330086,55.751508
77768,Smørumvej,2760,8,12.308121,55.750261
77769,Smørumvej,2760,8A,12.307715,55.750375
77770,Smørumvej,2760,10,12.307969,55.750054
77811,Stationsvej,2760,1,12.318702,55.749044
77812,Stationsvej,2760,3,12.318641,55.748928
77813,Stationsvej,2760,4,12.318262,55.748695
77814,Stationsvej,2760,7,12.318699,55.748557
77863,Sølodden,2760,1,12.331103,55.754587
77864,Sølodden,2760,3,12.331419,55.754516
77865,Sølodden,2760,5,12.331725,55.754473
77866,Sølodden,2760,7,12.331992,55.754419
77867,Sølodden,2760,9,12.332334,55.754344
77868,Sølodden,2760,11,12.332307,55.754145
77869,Sølodden,2760,13,12.331987,55.754188
77870,Sølodden,2760,15,12.33169,55.754228
77871,Sølodden,2760,17,12.331368,55.754272
77872,Sølodden,2760,19,12.331272,55.754048
77873,Sølodden,2760,21,12.331602,55.754003
77874,Sølodden,2760,23,12.331883,55.753965
77875,Sølodden,2760,25,12.332211,55.75392
77876,Sølodden,2760,27,12.332132,55.753688
77877,Sølodden,2760,29,12.331812,55.753731
77878,Sølodden,2760,31,12.331495,55.753775
77879,Sølodden,2760,33,12.331173,55.753819
77880,Sølodden,2760,35,12.331457,55.753557
77881,Sølodden,2760,37,12.331756,55.753499
77882,Sølodden,2760,39,12.332094,55.753453
77883,Sølodden,2760,41,12.332056,55.753222
77884,Sølodden,2760,43,12.331831,55.753088
77885,Sølodden,2760,45,12.331603,55.752957
77886,Sølodden,2760,47,12.331374,55.752832
77887,Sølodden,2760,49,12.331147,55.752709
77888,Sølodden,2760,51,12.330891,55.75257
77889,Sølodden,2760,53,12.33057,55.75259
77890,Sølodden,2760,55,12.330259,55.75265
77891,Sølodden,2760,57,12.329957,55.752702
77892,Sølodden,2760,59,12.330024,55.752888
77893,Sølodden,2760,61,12.330065,55.753077
77894,Sølodden,2760,63,12.33007,55.75329
77895,Sølodden,2760,65,12.330338,55.753333
77896,Sølodden,2760,67,12.330656,55.753314
77897,Sølodden,2760,69,12.330933,55.7532
77898,Sølodden,2760,71,12.33117,55.75306
77899,Sølodden,2760,73,12.330527,55.753054
77900,Sølodden,2760,75,12.330784,55.752909
77901,Sølodden,2760,77,12.331541,55.75322
77902,Sølodden,2760,79,12.331318,55.75335
77903,Sølodden,2760,81,12.331119,55.753483
77904,Sølodden,2760,83,12.330884,55.75362
77905,Sølodden,2760,85,12.330797,55.753805
77906,Sølodden,2760,87,12.330869,55.753986
77907,Sølodden,2760,89,12.330924,55.754114
77908,Sølodden,2760,91,12.331005,55.754291
77909,Sølodden,2760,93,12.330719,55.754466
77910,Sølodden,2760,95,12.330784,55.754631
77960,Tjæreborgvej,2760,1,12.323787,55.747415
77961,Tjæreborgvej,2760,3,12.324013,55.74753
77962,Tjæreborgvej,2760,4,12.324551,55.747514
77963,Tjæreborgvej,2760,5,12.324247,55.747668
77964,Tjæreborgvej,2760,6,12.324731,55.74765
77965,Tjæreborgvej,2760,7,12.324496,55.747933
77966,Tjæreborgvej,2760,8,12.324933,55.747773
77967,Tjæreborgvej,2760,9,12.324117,55.748045
77968,Tjæreborgvej,2760,10,12.325108,55.747914
77969,Tjæreborgvej,2760,11,12.323825,55.747913
77970,Tjæreborgvej,2760,12,12.325251,55.748052
77971,Tjæreborgvej,2760,13,12.323503,55.747759
77972,Tjæreborgvej,2760,14,12.325426,55.748252
77973,Tjæreborgvej,2760,15,12.323217,55.74788
77974,Tjæreborgvej,2760,16,12.325546,55.748421
77975,Tjæreborgvej,2760,17,12.323401,55.748051
77976,Tjæreborgvej,2760,18,12.325607,55.7486
77977,Tjæreborgvej,2760,19,12.323604,55.748242
77978,Tjæreborgvej,2760,20,12.32568,55.748763
77979,Tjæreborgvej,2760,21,12.323728,55.748434
77980,Tjæreborgvej,2760,22,12.325778,55.748949
77981,Tjæreborgvej,2760,23,12.324033,55.748389
77982,Tjæreborgvej,2760,24,12.32581,55.749131
77983,Tjæreborgvej,2760,25,12.324418,55.748177
77984,Tjæreborgvej,2760,26,12.325814,55.749378
77985,Tjæreborgvej,2760,27,12.324793,55.748066
77986,Tjæreborgvej,2760,29,12.32507,55.748368
77987,Tjæreborgvej,2760,31,12.325198,55.748562
77988,Tjæreborgvej,2760,33,12.325297,55.748762
77989,Tjæreborgvej,2760,35,12.32537,55.748964
77990,Tjæreborgvej,2760,37,12.325407,55.74917
77991,Tjæreborgvej,2760,39,12.32538,55.749405
78009,Ulborgvej,2760,1,12.325392,55.746555
78010,Ulborgvej,2760,3,12.325601,55.746672
78011,Ulborgvej,2760,4,12.326118,55.746517
78012,Ulborgvej,2760,5,12.325836,55.746811
78013,Ulborgvej,2760,6,12.326355,55.746661
78014,Ulborgvej,2760,7,12.326065,55.746954
78015,Ulborgvej,2760,8,12.326533,55.74677
78016,Ulborgvej,2760,9,12.326259,55.747086
78017,Ulborgvej,2760,10,12.326711,55.746894
78018,Ulborgvej,2760,11,12.326483,55.747261
78019,Ulborgvej,2760,12,12.32684,55.747017
78020,Ulborgvej,2760,13,12.326623,55.747377
78021,Ulborgvej,2760,14,12.326983,55.747157
78022,Ulborgvej,2760,15,12.326837,55.747585
78023,Ulborgvej,2760,16,12.327199,55.747297
78024,Ulborgvej,2760,17,12.327015,55.747783
78025,Ulborgvej,2760,18,12.327355,55.747453
78026,Ulborgvej,2760,19,12.327139,55.747943
78027,Ulborgvej,2760,20,12.327523,55.747642
78028,Ulborgvej,2760,21,12.327265,55.748135
78029,Ulborgvej,2760,22,12.327651,55.747808
78030,Ulborgvej,2760,23,12.327383,55.748302
78031,Ulborgvej,2760,24,12.327768,55.747978
78032,Ulborgvej,2760,25,12.32748,55.748503
78033,Ulborgvej,2760,26,12.327876,55.748192
78034,Ulborgvej,2760,27,12.327567,55.748733
78035,Ulborgvej,2760,28,12.327988,55.748447
78036,Ulborgvej,2760,29,12.327608,55.748977
78037,Ulborgvej,2760,30,12.328209,55.748742
78038,Ulborgvej,2760,31,12.327779,55.749108
78039,Ulborgvej,2760,32,12.328507,55.748706
78040,Ulborgvej,2760,33,12.328283,55.748994
78041,Ulborgvej,2760,34,12.328587,55.748448
78042,Ulborgvej,2760,35,12.328689,55.748918
78043,Ulborgvej,2760,36,12.328509,55.74818
78044,Ulborgvej,2760,37,12.329038,55.748935
78045,Ulborgvej,2760,38,12.328512,55.747958
78046,Ulborgvej,2760,39,12.328955,55.748645
78047,Ulborgvej,2760,40,12.328456,55.747788
78048,Ulborgvej,2760,41,12.32891,55.74838
78049,Ulborgvej,2760,42,12.328106,55.747578
78050,Ulborgvej,2760,43,12.328861,55.748093
78051,Ulborgvej,2760,44,12.328374,55.747592
78052,Ulborgvej,2760,45,12.328813,55.747815
78053,Ulborgvej,2760,47,12.328766,55.74755
78054,Vadsbjerg,2760,1,12.321105,55.759118
78055,Vadsbjerg,2760,2,12.320451,55.758983
78056,Vadsbjerg,2760,4,12.320812,55.758976
78057,Vadsbjerg,2760,5,12.321957,55.75902
78058,Vadsbjerg,2760,6,12.3211,55.758907
78059,Vadsbjerg,2760,7,12.322334,55.758947
78060,Vadsbjerg,2760,8,12.321365,55.758835
78061,Vadsbjerg,2760,9,12.322634,55.758892
78062,Vadsbjerg,2760,10,12.321684,55.758773
78063,Vadsbjerg,2760,11,12.322912,55.758863
78064,Vadsbjerg,2760,12,12.322042,55.758689
78065,Vadsbjerg,2760,13,12.323179,55.758812
78066,Vadsbjerg,2760,14,12.322321,55.75869
78067,Vadsbjerg,2760,15,12.323449,55.758761
78068,Vadsbjerg,2760,16,12.322619,55.75864
78069,Vadsbjerg,2760,17,12.32371,55.758691
78070,Vadsbjerg,2760,18,12.322932,55.758568
78071,Vadsbjerg,2760,20,12.323179,55.758529
78072,Vadsbjerg,2760,21,12.32425,55.75859
78073,Vadsbjerg,2760,22,12.323469,55.758465
78074,Vadsbjerg,2760,23,12.324496,55.758531
78075,Vadsbjerg,2760,24,12.323755,55.758417
78076,Vadsbjerg,2760,25,12.32476,55.758481
78077,Vadsbjerg,2760,26,12.324386,55.758343
78078,Vadsbjerg,2760,27,12.32505,55.758424
78079,Vadsbjerg,2760,28,12.324523,55.75822
78080,Vadsbjerg,2760,29,12.325305,55.75838
78081,Vadsbjerg,2760,30,12.324755,55.758198
78082,Vadsbjerg,2760,31,12.325592,55.758325
78083,Vadsbjerg,2760,32,12.3251,55.758123
78084,Vadsbjerg,2760,33,12.325865,55.758269
78085,Vadsbjerg,2760,34,12.325349,55.758114
78086,Vadsbjerg,2760,36,12.325666,55.75804
78102,Ved Gershøj,2760,1,12.309835,55.754984
78103,Ved Gershøj,2760,2,12.309829,55.754623
78104,Ved Gershøj,2760,3,12.309823,55.755181
78105,Ved Gershøj,2760,4,12.309793,55.754393
78106,Ved Gershøj,2760,5,12.310355,55.755103
78107,Ved Gershøj,2760,6,12.309724,55.754184
78108,Ved Gershøj,2760,7,12.31067,55.755103
78109,Ved Gershøj,2760,8,12.310195,55.754181
78110,Ved Gershøj,2760,9,12.310672,55.754935
78111,Ved Gershøj,2760,10,12.310583,55.754179
78112,Ved Gershøj,2760,11,12.311554,55.754909
78113,Ved Gershøj,2760,12,12.310767,55.754471
78114,Ved Gershøj,2760,13,12.311177,55.754843
78115,Ved Gershøj,2760,14,12.310355,55.754472
78116,Ved Gershøj,2760,15,12.31099,55.7551
78117,Ved Gershøj,2760,16,12.311191,55.754469
78118,Ved Gershøj,2760,17,12.311324,55.755099
78119,Ved Gershøj,2760,18,12.310981,55.754176
78120,Ved Gershøj,2760,19,12.31165,55.755096
78121,Ved Gershøj,2760,20,12.311379,55.754172
78122,Ved Gershøj,2760,21,12.311267,55.7561
78123,Ved Gershøj,2760,22,12.311868,55.754172
78124,Ved Gershøj,2760,23,12.311177,55.755902
78125,Ved Gershøj,2760,24,12.312262,55.754168
78126,Ved Gershøj,2760,25,12.311353,55.755674
78127,Ved Gershøj,2760,26,12.312408,55.75394
78128,Ved Gershøj,2760,27,12.311126,55.755687
78129,Ved Gershøj,2760,28,12.312834,55.753907
78130,Ved Gershøj,2760,29,12.310718,55.755687
78131,Ved Gershøj,2760,30,12.312761,55.75414
78132,Ved Gershøj,2760,31,12.310829,55.756052
78133,Ved Gershøj,2760,32,12.312524,55.754426
78134,Ved Gershøj,2760,33,12.310423,55.756101
78135,Ved Gershøj,2760,34,12.312125,55.754437
78136,Ved Gershøj,2760,35,12.310237,55.755921
78137,Ved Gershøj,2760,36,12.31179,55.754443
78138,Ved Gershøj,2760,37,12.3102,55.755646
78139,Ved Gershøj,2760,38,12.312128,55.754656
78140,Ved Gershøj,2760,39,12.309845,55.755486
78141,Ved Gershøj,2760,40,12.31254,55.754672
78142,Ved Gershøj,2760,41,12.309834,55.755758
78143,Ved Gershøj,2760,42,12.31262,55.754849
78144,Ved Gershøj,2760,43,12.309859,55.755993
78145,Ved Gershøj,2760,44,12.31261,55.754998
78146,Ved Gershøj,2760,46,12.312628,55.755075
78147,Ved Gershøj,2760,48A,12.312631,55.755203
78148,Ved Gershøj,2760,48B,12.312394,55.755202
78149,Ved Gershøj,2760,50,12.312206,55.755203
78150,Ved Gershøj,2760,52,12.312197,55.755101
78151,Ved Gershøj,2760,54,12.312203,55.754982
78152,Ved Gershøj,2760,56,12.312201,55.754876
78153,Ved Gershøj,2760,58,12.311866,55.755755
78154,Ved Gershøj,2760,60,12.311888,55.755961
78155,Ved Gershøj,2760,62,12.311946,55.756165
78156,Ved Gershøj,2760,64,12.312146,55.756402
78157,Ved Gershøj,2760,66,12.311263,55.756376
78158,Ved Gershøj,2760,68,12.311174,55.756564
78159,Ved Gershøj,2760,70,12.311274,55.756781
78160,Ved Gershøj,2760,72,12.310759,55.756985
78161,Ved Gershøj,2760,74,12.310847,55.756687
78162,Ved Gershøj,2760,76,12.310857,55.75645
78163,Ved Gershøj,2760,78,12.310391,55.756416
78164,Ved Gershøj,2760,80,12.310398,55.756687
78165,Ved Gershøj,2760,82,12.310407,55.756918
78166,Ved Gershøj,2760,84,12.309873,55.756929
78167,Ved Gershøj,2760,86,12.309893,55.756796
78168,Ved Gershøj,2760,88,12.309848,55.756536
78169,Ved Gershøj,2760,90,12.309865,55.756338
78280,Måløv Stationsplads,2760,6,12.317546,55.748076
78281,Måløv Stationsplads,2760,10,12.318441,55.747445
78282,Måløv Stationsplads,2760,14,12.318887,55.747636
78283,Måløv Teknikerby,2760,1,12.298554,55.751505
78284,Måløv Teknikerby,2760,2,12.298626,55.752194
78285,Måløvvang,2760,1,12.314848,55.75065
78286,Måløvvang,2760,2,12.314646,55.751189
78287,Måløvvang,2760,3,12.315053,55.750579
78288,Måløvvang,2760,4,12.314562,55.751084
78289,Måløvvang,2760,6,12.31448,55.75098
78290,Måløvvang,2760,8,12.314535,55.750886
78291,Måløvvang,2760,9,12.315652,55.750379
78292,Måløvvang,2760,11,12.31572,55.750345
78293,Måløvvang,2760,13,12.315798,55.750306
78294,Måløvvang,2760,15,12.315879,55.750266
78295,Måløvvang,2760,17,12.316001,55.750204
78296,Måløvvang,2760,19,12.316077,55.750166
78297,Måløvvang,2760,21,12.316149,55.75013
78298,Måløvvang,2760,23,12.316227,55.75009
78299,Måløvvang,2760,25,12.316358,55.750028
78300,Måløvvang,2760,27,12.316437,55.749991
78301,Måløvvang,2760,29,12.316515,55.749954
78302,Måløvvang,2760,31,12.31659,55.749919
78303,Måløvvang,2760,33,12.315137,55.750224
78304,Måløvvang,2760,35,12.315188,55.750006
78305,Måløvvang,2760,37,12.315419,55.749818
78306,Måløvvang,2760,39,12.315787,55.749758
78307,Måløv Værkstedsby,2760,1,12.300217,55.752172
78308,Måløv Værkstedsby,2760,51,12.302083,55.75203
78309,Måløv Værkstedsby,2760,53,12.302021,55.751908
78310,Måløv Værkstedsby,2760,54,12.304636,55.751421
78311,Måløv Værkstedsby,2760,55,12.301939,55.751793
78312,Måløv Værkstedsby,2760,59,12.302066,55.751666
78313,Måløv Værkstedsby,2760,60,12.305007,55.751379
78314,Måløv Værkstedsby,2760,62,12.305117,55.751354
78315,Måløv Værkstedsby,2760,63,12.302212,55.751948
78316,Måløv Værkstedsby,2760,65,12.302334,55.75203
78317,Måløv Værkstedsby,2760,69,12.302643,55.751961
78318,Måløv Værkstedsby,2760,70,12.304776,55.75112
78319,Måløv Værkstedsby,2760,72,12.304789,55.751254
78320,Måløv Værkstedsby,2760,73,12.302684,55.7518
78321,Måløv Værkstedsby,2760,74,12.304784,55.75132
78322,Måløv Værkstedsby,2760,77,12.302358,55.7516
78323,Måløv Værkstedsby,2760,79,12.302463,55.751576
78324,Måløv Værkstedsby,2760,80,12.305159,55.751235
78325,Måløv Værkstedsby,2760,82,12.305487,55.751232
78326,Måløv Værkstedsby,2760,83,12.303139,55.75144
78327,Måløv Værkstedsby,2760,84,12.305607,55.751205
78328,Måløv Værkstedsby,2760,87,12.303389,55.751365
78329,Måløv Værkstedsby,2760,88,12.305828,55.751155
78330,Måløv Værkstedsby,2760,89,12.303388,55.751544
78331,Måløv Værkstedsby,2760,91,12.303454,55.751636
78332,Måløv Værkstedsby,2760,93,12.303514,55.75172
78333,Måløv Værkstedsby,2760,94,12.306198,55.7511
78334,Måløv Værkstedsby,2760,95,12.303594,55.751745
78335,Måløv Værkstedsby,2760,99,12.30391,55.751673
78336,Måløv Værkstedsby,2760,101,12.30399,55.751576
78337,Måløv Værkstedsby,2760,103,12.303895,55.751443
78338,Måløv Værkstedsby,2760,104,12.306765,55.751
78339,Måløv Værkstedsby,2760,105,12.303617,55.751314
78340,Måløv Værkstedsby,2760,108,12.306987,55.75095
78341,Måløv Værkstedsby,2760,109,12.303882,55.751254
735067,Kildedalsvej,2760,37,12.272153,55.750565
735068,Kildedalsvej,2760,15,12.279695,55.74994
735069,Kildedalsvej,2760,4,12.281092,55.752076
735070,Kildedalsvej,2760,1,12.286847,55.752001
788511,Hovedgade,2760,3,12.3236688,55.7469627
803738,Kærlodden,2760,3,12.327739,55.754316
803914,Måløv Hovedgade,2760,27,12.322104,55.748175
803915,Måløv Hovedgade,2760,46,12.324459,55.749848
803916,Måløv Hovedgade,2760,58,12.319545,55.749259
803920,Kratvej,2760,10,12.317851,55.751818
803930,Gershøjvej,2760,4,12.31299,55.752768
803940,Liljevangsvej,2760,10,12.318248,55.75036
803941,Jungshøjvej,2760,21,12.296149,55.759778
803942,Jungshøjvej,2760,23,12.29738,55.759641
803946,Måløv Værkstedsby,2760,49,12.299963,55.752297
803947,Måløv Værkstedsby,2760,50,12.304437,55.751141
803948,Nørreled,2760,9,12.318617,55.753788
803951,Måløvvang,2760,10,12.314308,55.750373
803952,Måløv Byvej,2760,7,12.327308,55.744864
803953,Måløv Byvej,2760,27,12.322048,55.746427
803954,Måløv Byvej,2760,227A,12.289697,55.752905
803955,Måløv Byvej,2760,229B,12.294391,55.75255
803956,Måløv Byvej,2760,999,12.290265,55.755696
896044,Måløv Stationsplads,2760,1,12.323004,55.745895
896045,Måløv Stationsplads,2760,9,12.323807,55.745797
896046,Måløv Stationsplads,2760,10A,12.32007,55.746591
896047,Måløv Stationsplads,2760,11,12.324606,55.745601
896048,Måløv Stationsplads,2760,12,12.318631,55.747352
896049,Måløv Stationsplads,2760,15,12.324278,55.745066
971720,Bakkesvinget,2760,2,12.324705,55.754206
971721,Vadsbjerg,2760,19,12.323981,55.75864
1216097,Måløv Teknikerby,2760,18,12.293652,55.753225
1216098,Måløv Teknikerby,2760,20,12.29313,55.753288
1499122,Myrholmen,2760,1,12.318853,55.742555
1499123,Myrholmen,2760,2,12.318605,55.742921
1499125,Myrholmen,2760,3,12.318896,55.742488
1499127,Myrholmen,2760,4,12.318624,55.743004
1499128,Myrholmen,2760,5,12.318966,55.742427
1499130,Myrholmen,2760,6,12.318593,55.74313
1499132,Myrholmen,2760,7,12.319017,55.742326
1499133,Myrholmen,2760,8,12.318539,55.743218
1499135,Myrholmen,2760,9,12.319052,55.742261
1499136,Myrholmen,2760,10,12.318358,55.743331
1499137,Myrholmen,2760,11,12.31882,55.742081
1499138,Myrholmen,2760,12,12.318263,55.743369
1499139,Myrholmen,2760,13,12.318751,55.742143
1499140,Myrholmen,2760,14,12.317832,55.743296
1499142,Myrholmen,2760,15,12.318684,55.742202
1499143,Myrholmen,2760,16,12.317714,55.743269
1499146,Myrholmen,2760,17,12.318618,55.742267
1499147,Myrholmen,2760,18,12.317596,55.743241
1499150,Myrholmen,2760,19,12.318437,55.741922
1499153,Myrholmen,2760,20,12.317781,55.743064
1499155,Myrholmen,2760,21,12.318415,55.741995
1499157,Myrholmen,2760,22,12.317828,55.742987
1499159,Myrholmen,2760,23,12.318353,55.742056
1499161,Myrholmen,2760,24,12.317841,55.742797
1499163,Myrholmen,2760,25,12.31829,55.742111
1499166,Myrholmen,2760,26,12.317967,55.742821
1499168,Myrholmen,2760,27,12.318253,55.742222
1499169,Myrholmen,2760,28,12.317481,55.742683
1499171,Myrholmen,2760,29,12.318184,55.742285
1499172,Myrholmen,2760,30,12.317295,55.742975
1499173,Myrholmen,2760,31,12.318124,55.742341
1499176,Myrholmen,2760,32,12.317205,55.743135
1499178,Myrholmen,2760,33,12.318109,55.74241
1499179,Myrholmen,2760,34,12.31669,55.743032
1499184,Myrholmen,2760,35,12.317535,55.742421
1499185,Myrholmen,2760,36,12.316692,55.742904
1499192,Myrholmen,2760,37,12.317564,55.742169
1499193,Myrholmen,2760,38,12.316794,55.742717
1499196,Myrholmen,2760,39,12.317752,55.741967
1499199,Myrholmen,2760,40,12.316861,55.742558
1499200,Myrholmen,2760,41,12.31785,55.741805
1499204,Myrholmen,2760,42,12.316189,55.742415
1499206,Myrholmen,2760,43,12.31795,55.741644
1499208,Myrholmen,2760,44,12.31612,55.742608
1499211,Myrholmen,2760,45,12.317498,55.741529
1499213,Myrholmen,2760,46,12.316073,55.742833
1499215,Myrholmen,2760,47,12.317248,55.741646
1499218,Myrholmen,2760,48,12.315988,55.743008
1499222,Myrholmen,2760,49,12.317154,55.741828
1499223,Myrholmen,2760,50,12.315586,55.7429
1499228,Myrholmen,2760,51,12.317175,55.74202
1499230,Myrholmen,2760,52,12.315548,55.742641
1499231,Myrholmen,2760,53,12.317014,55.742241
1499235,Myrholmen,2760,54,12.315764,55.742499
1499236,Myrholmen,2760,55,12.31627,55.7421
1499238,Myrholmen,2760,56,12.315726,55.742295
1499240,Myrholmen,2760,57,12.316559,55.741933
1499241,Myrholmen,2760,59,12.31661,55.741783
1499242,Myrholmen,2760,61,12.316693,55.741582
1499244,Myrholmen,2760,63,12.316462,55.74142
1499245,Myrholmen,2760,65,12.316114,55.741382
1499247,Myrholmen,2760,67,12.315978,55.741585
1499248,Myrholmen,2760,69,12.315958,55.741798
1499250,Myrholmen,2760,71,12.315772,55.742
1499441,Vaseholmen,2760,1,12.317249,55.744138
1499444,Vaseholmen,2760,1B,12.317412,55.7441
1499448,Vaseholmen,2760,2,12.317282,55.74439
1499450,Vaseholmen,2760,3,12.317278,55.744091
1499454,Vaseholmen,2760,4,12.317157,55.744457
1499456,Vaseholmen,2760,5,12.317306,55.744046
1499459,Vaseholmen,2760,6,12.317024,55.744629
1499461,Vaseholmen,2760,7,12.317333,55.744002
1499462,Vaseholmen,2760,8,12.317142,55.744678
1499465,Vaseholmen,2760,9,12.31749,55.743886
1499466,Vaseholmen,2760,10,12.316993,55.744801
1499469,Vaseholmen,2760,11,12.317517,55.743842
1499471,Vaseholmen,2760,12,12.316878,55.744752
1499473,Vaseholmen,2760,13,12.317546,55.743794
1499475,Vaseholmen,2760,14,12.316463,55.744628
1499477,Vaseholmen,2760,15,12.317574,55.743748
1499479,Vaseholmen,2760,16,12.316553,55.744684
1499481,Vaseholmen,2760,17,12.317569,55.743623
1499482,Vaseholmen,2760,18,12.316608,55.744828
1499483,Vaseholmen,2760,19,12.317487,55.743607
1499484,Vaseholmen,2760,20,12.316393,55.744797
1499485,Vaseholmen,2760,21,12.317394,55.743589
1499486,Vaseholmen,2760,22,12.316302,55.744741
1499487,Vaseholmen,2760,23,12.317298,55.74357
1499488,Vaseholmen,2760,24,12.316214,55.744656
1499489,Vaseholmen,2760,25,12.317086,55.743534
1499490,Vaseholmen,2760,26,12.316127,55.744601
1499491,Vaseholmen,2760,27,12.317005,55.743518
1499492,Vaseholmen,2760,28,12.316576,55.744343
1499493,Vaseholmen,2760,29,12.316881,55.743606
1499494,Vaseholmen,2760,30,12.31655,55.744245
1499495,Vaseholmen,2760,31,12.316855,55.743649
1499496,Vaseholmen,2760,32,12.315582,55.744233
1499497,Vaseholmen,2760,33,12.316823,55.743701
1499498,Vaseholmen,2760,34,12.315969,55.744143
1499499,Vaseholmen,2760,35,12.316792,55.743751
1499500,Vaseholmen,2760,36,12.315925,55.744209
1499501,Vaseholmen,2760,37,12.316735,55.743879
1499502,Vaseholmen,2760,38,12.315895,55.744301
1499503,Vaseholmen,2760,39,12.316707,55.743926
1499504,Vaseholmen,2760,40,12.315855,55.744361
1499507,Vaseholmen,2760,41,12.316678,55.743974
1499508,Vaseholmen,2760,42,12.315822,55.744419
1499510,Vaseholmen,2760,43,12.316647,55.744023
1499511,Vaseholmen,2760,44,12.315745,55.744508
1499514,Vaseholmen,2760,45,12.315943,55.743887
1499515,Vaseholmen,2760,46,12.315649,55.744651
1499516,Vaseholmen,2760,47,12.316172,55.743721
1499518,Vaseholmen,2760,48,12.315446,55.744627
1499521,Vaseholmen,2760,49,12.316198,55.743552
1499522,Vaseholmen,2760,50,12.315249,55.744602
1499523,Vaseholmen,2760,51,12.316337,55.743397
1499525,Vaseholmen,2760,52,12.315049,55.744577
1499528,Vaseholmen,2760,53,12.31588,55.743373
1499531,Vaseholmen,2760,54,12.315174,55.744408
1499533,Vaseholmen,2760,55,12.315616,55.743536
1499535,Vaseholmen,2760,56,12.315323,55.744437
1499536,Vaseholmen,2760,57,12.315576,55.743786
1499540,Vaseholmen,2760,58,12.315468,55.744464
1499542,Vaseholmen,2760,60,12.314808,55.744557
1499544,Vaseholmen,2760,62,12.314866,55.744464
1499546,Vaseholmen,2760,64,12.314922,55.744375
1499547,Vaseholmen,2760,66,12.314975,55.744286
1499550,Vaseholmen,2760,68,12.31509,55.744188
1499552,Vaseholmen,2760,70,12.315129,55.744122
1499553,Vaseholmen,2760,72,12.315222,55.744016
1499649,Moseholmen,2760,1,12.315219,55.745299
1499650,Moseholmen,2760,2,12.31474,55.745583
1499652,Moseholmen,2760,3,12.315375,55.745182
1499654,Moseholmen,2760,4,12.315053,55.745615
1499656,Moseholmen,2760,5,12.315443,55.745001
1499658,Moseholmen,2760,6,12.31518,55.74564
1499660,Moseholmen,2760,7,12.314868,55.744853
1499662,Moseholmen,2760,8,12.315312,55.745665
1499664,Moseholmen,2760,9,12.314852,55.744979
1499666,Moseholmen,2760,10,12.315201,55.745779
1499668,Moseholmen,2760,11,12.314768,55.745125
1499670,Moseholmen,2760,12,12.31515,55.745864
1499672,Moseholmen,2760,13,12.314758,55.745306
1499674,Moseholmen,2760,14,12.315096,55.745953
1499677,Moseholmen,2760,16,12.315045,55.746038
1499680,Moseholmen,2760,18,12.314922,55.746169
1499682,Moseholmen,2760,20,12.314773,55.74614
1499686,Moseholmen,2760,22,12.314592,55.746128
1499687,Moseholmen,2760,24,12.314465,55.746103
1499689,Moseholmen,2760,26,12.314346,55.74608
1499690,Moseholmen,2760,28,12.314469,55.745932
1499692,Moseholmen,2760,30,12.314627,55.745962
1499695,Moseholmen,2760,32,12.314144,55.745983
1499696,Moseholmen,2760,34,12.314195,55.7459
1499700,Moseholmen,2760,36,12.314233,55.745768
1499703,Moseholmen,2760,38,12.314281,55.74569
1499705,Moseholmen,2760,40,12.314314,55.745572
1499708,Moseholmen,2760,42,12.314366,55.745485
1499772,Damholmen,2760,1,12.319258,55.7432
1499774,Damholmen,2760,2,12.319475,55.742832
1499775,Damholmen,2760,3,12.319152,55.743411
1499777,Damholmen,2760,4,12.319583,55.742623
1499779,Damholmen,2760,5,12.319341,55.743647
1499781,Damholmen,2760,6,12.319679,55.742471
1499785,Damholmen,2760,7,12.319748,55.74352
1499788,Damholmen,2760,8,12.320068,55.742464
1499790,Damholmen,2760,9,12.319862,55.743318
1499792,Damholmen,2760,10,12.320342,55.742593
1499795,Damholmen,2760,12,12.320242,55.742756
1499798,Damholmen,2760,14,12.320124,55.742944
1499801,Damholmen,2760,16,12.320771,55.743086
1499802,Damholmen,2760,18,12.320778,55.743452
1499855,Bækholmen,2760,1,12.31796,55.744468
1499859,Bækholmen,2760,2,12.318151,55.744213
1499861,Bækholmen,2760,3,12.317924,55.744528
1499863,Bækholmen,2760,4,12.318191,55.744147
1499864,Bækholmen,2760,5,12.317886,55.744591
1499865,Bækholmen,2760,6,12.318231,55.744083
1499866,Bækholmen,2760,7,12.31785,55.74465
1499867,Bækholmen,2760,8,12.318264,55.744029
1499868,Bækholmen,2760,9,12.317851,55.744757
1499869,Bækholmen,2760,10,12.318427,55.743955
1499870,Bækholmen,2760,11,12.317814,55.744819
1499871,Bækholmen,2760,12,12.318462,55.743894
1499872,Bækholmen,2760,13,12.317781,55.744873
1499873,Bækholmen,2760,14,12.318499,55.743831
1499874,Bækholmen,2760,15,12.317744,55.744932
1499875,Bækholmen,2760,16,12.318533,55.743772
1499876,Bækholmen,2760,17,12.318299,55.745013
1499877,Bækholmen,2760,18,12.318966,55.743886
1499878,Bækholmen,2760,19,12.31841,55.745034
1499879,Bækholmen,2760,20,12.319069,55.743907
1499880,Bækholmen,2760,21,12.318409,55.744817
1499881,Bækholmen,2760,22,12.319182,55.743929
1499882,Bækholmen,2760,23,12.318509,55.744837
1499884,Bækholmen,2760,24,12.319298,55.743952
1499886,Bækholmen,2760,25,12.318614,55.744857
1499887,Bækholmen,2760,26,12.319413,55.743975
1499888,Bækholmen,2760,27,12.318724,55.744878
1499891,Bækholmen,2760,28,12.318842,55.744101
1499892,Bækholmen,2760,29,12.318529,55.74462
1499893,Bækholmen,2760,30,12.318941,55.744121
1499894,Bækholmen,2760,31,12.318636,55.744641
1499895,Bækholmen,2760,32,12.319054,55.744143
1499896,Bækholmen,2760,33,12.318752,55.744664
1499899,Bækholmen,2760,34,12.319168,55.744166
1499900,Bækholmen,2760,35,12.318863,55.744686
1499903,Bækholmen,2760,36,12.318709,55.744312
1499904,Bækholmen,2760,38,12.318814,55.744333
1499908,Bækholmen,2760,40,12.318928,55.744356
1499912,Bækholmen,2760,42,12.319044,55.744378
1499913,Bækholmen,2760,44,12.319636,55.744477
1499916,Bækholmen,2760,46,12.319195,55.744885
1500004,Søholmen,2760,1,12.316036,55.745757
1500005,Søholmen,2760,2,12.316394,55.745456
1500006,Søholmen,2760,42,12.318031,55.745406
1500007,Søholmen,2760,44,12.3175315,55.7456721
1500097,Søndergårds Allé,2760,13,12.321065,55.745242
1500099,Søndergårds Allé,2760,15,12.320678,55.745237
1500100,Søndergårds Allé,2760,17,12.320526,55.745139
1500101,Søndergårds Allé,2760,19,12.320367,55.745035
1500104,Søndergårds Allé,2760,21,12.320298,55.745606
1500105,Søndergårds Allé,2760,23,12.319975,55.745601
1500106,Søndergårds Allé,2760,25,12.319809,55.745493
1500109,Søndergårds Allé,2760,27,12.319697,55.74542
1500111,Søndergårds Allé,2760,29,12.319699,55.745916
1500114,Søndergårds Allé,2760,31,12.319481,55.746024
1500115,Søndergårds Allé,2760,33,12.319161,55.74589
1500119,Søndergårds Allé,2760,35,12.31895,55.745754
1500122,Søndergårds Allé,2760,39,12.318757,55.74638
1500128,Søndergårds Allé,2760,41,12.318444,55.746249
1500130,Søndergårds Allé,2760,43,12.318233,55.746113
1500136,Søndergårds Allé,2760,45,12.318161,55.746599
1500140,Søndergårds Allé,2760,47,12.317898,55.74673
1500145,Søndergårds Allé,2760,49,12.317571,55.74669
1500151,Søndergårds Allé,2760,51,12.317329,55.746541
1500153,Søndergårds Allé,2760,53,12.316382,55.746996
1500156,Søndergårds Allé,2760,100,12.31436,55.747952
1500160,Søndergårds Allé,2760,100A,12.31436,55.747952
1500161,Søndergårds Allé,2760,160,12.313249,55.747289
1500164,Søndergårds Allé,2760,160A,12.313601,55.747187
1500165,Søndergårds Allé,2760,162,12.313182,55.747289
1500168,Søndergårds Allé,2760,164,12.312858,55.747487
1500170,Søndergårds Allé,2760,166,12.312804,55.747503
1500172,Søndergårds Allé,2760,168,12.312785,55.74741
1500173,Søndergårds Allé,2760,170,12.312732,55.747427
1500174,Søndergårds Allé,2760,172,12.312639,55.747312
1500176,Søndergårds Allé,2760,174,12.31258,55.747327
1500178,Søndergårds Allé,2760,176,12.312586,55.747239
1500180,Søndergårds Allé,2760,178,12.312529,55.747255
1500181,Søndergårds Allé,2760,180,12.312501,55.747118
1500182,Søndergårds Allé,2760,182,12.312435,55.747121
1500183,Søndergårds Allé,2760,184,12.31249,55.747032
1500184,Søndergårds Allé,2760,186,12.312426,55.747035
1500185,Søndergårds Allé,2760,188,12.312547,55.746909
1500186,Søndergårds Allé,2760,190,12.312481,55.746902
1500187,Søndergårds Allé,2760,192,12.312569,55.746827
1500188,Søndergårds Allé,2760,194,12.312506,55.74682
1500189,Søndergårds Allé,2760,196,12.313155,55.746968
1500190,Søndergårds Allé,2760,198,12.313099,55.746982
1500191,Søndergårds Allé,2760,200,12.313767,55.746763
1500192,Søndergårds Allé,2760,202,12.313669,55.746699
1500193,Søndergårds Allé,2760,204,12.313501,55.746648
1500194,Søndergårds Allé,2760,206,12.313347,55.746604
1500195,Søndergårds Allé,2760,208,12.313188,55.746557
1500196,Søndergårds Allé,2760,210,12.312969,55.746498
1500197,Søndergårds Allé,2760,212,12.313088,55.746439
1500199,Søndergårds Allé,2760,214,12.313187,55.746371
1500201,Søndergårds Allé,2760,216,12.313299,55.746318
1500203,Søndergårds Allé,2760,218,12.313407,55.746266
1500206,Søndergårds Allé,2760,220,12.313516,55.746213
1500207,Søndergårds Allé,2760,222,12.313619,55.746091
1500211,Søndergårds Allé,2760,224,12.313712,55.746153
1500213,Søndergårds Allé,2760,226,12.313808,55.746217
1500215,Søndergårds Allé,2760,228,12.313897,55.746276
1500218,Søndergårds Allé,2760,230,12.314007,55.746323
1500219,Søndergårds Allé,2760,232,12.3141,55.746384
1500222,Søndergårds Allé,2760,234,12.314191,55.746445
1500223,Søndergårds Allé,2760,236,12.314308,55.7465
1500224,Søndergårds Allé,2760,238,12.313996,55.746608
2132364,Jungshøjgård,2760,2,12.30965,55.75376
2132382,Jungshøjgård,2760,4,12.309671,55.753669
2132400,Jungshøjgård,2760,6,12.309677,55.753563
2132406,Jungshøjgård,2760,8,12.309963,55.753762
2132421,Jungshøjgård,2760,10,12.309976,55.753661
2132430,Jungshøjgård,2760,12,12.309988,55.753557
2132441,Jungshøjgård,2760,14,12.310318,55.753755
2132446,Jungshøjgård,2760,16,12.310292,55.753656
2132458,Jungshøjgård,2760,18,12.310274,55.753549
2132468,Jungshøjgård,2760,20,12.310622,55.753753
2132472,Jungshøjgård,2760,22,12.310597,55.753652
2132480,Jungshøjgård,2760,24,12.310576,55.753544
2132484,Jungshøjgård,2760,26,12.311023,55.753462
2132492,Jungshøjgård,2760,28,12.31102,55.753398
2132496,Jungshøjgård,2760,30,12.31102,55.753332
2132505,Jungshøjgård,2760,32,12.311018,55.753263
2132514,Jungshøjgård,2760,34,12.311016,55.753204
2132516,Jungshøjgård,2760,36,12.311338,55.753459
2132526,Jungshøjgård,2760,38,12.311336,55.753398
2132529,Jungshøjgård,2760,40,12.311336,55.753337
2132537,Jungshøjgård,2760,42,12.311353,55.753271
2132539,Jungshøjgård,2760,44,12.311364,55.753209
2132547,Jungshøjgård,2760,46,12.311289,55.753581
2132556,Jungshøjgård,2760,48,12.311289,55.753637
2132559,Jungshøjgård,2760,50,12.311292,55.753703
2132565,Jungshøjgård,2760,52,12.311291,55.753766
2132567,Jungshøjgård,2760,54,12.311296,55.753828
2183902,Tueholmen,2760,4,12.324084,55.742989
2183903,Tueholmen,2760,6,12.323226,55.743416
2183904,Tueholmen,2760,8,12.322682,55.742907
2196371,Bjørnekær,2760,2,12.308201,55.749774
2196372,Bjørnekær,2760,4,12.308425,55.749603
2196373,Bjørnekær,2760,6,12.308623,55.749459
2199553,Knardrupvej,2760,2,12.290144,55.755165
2216356,Tueholmen,2760,2A,12.323136,55.74236
2223310,Måløv Værkstedsby,2760,100,12.3065,55.751032
2225076,Søndergårds Allé,2760,55,12.31662,55.747154
2225077,Søndergårds Allé,2760,57,12.316483,55.74733
2225078,Søndergårds Allé,2760,71,12.314756,55.746982
2225079,Søndergårds Allé,2760,73,12.315163,55.746848
2225080,Søndergårds Allé,2760,75,12.315146,55.746908
2225081,Søndergårds Allé,2760,77,12.315019,55.746907
2225082,Søndergårds Allé,2760,79,12.315003,55.746979
2225083,Søndergårds Allé,2760,81,12.314875,55.746968
2225084,Søndergårds Allé,2760,83,12.314819,55.747049
2225085,Søndergårds Allé,2760,85,12.314718,55.747044
2225086,Søndergårds Allé,2760,87,12.31467,55.747114
2225087,Søndergårds Allé,2760,89,12.314566,55.747112
2225088,Søndergårds Allé,2760,91,12.314559,55.747186
2225089,Søndergårds Allé,2760,93,12.314452,55.747158
2225090,Søndergårds Allé,2760,95,12.314427,55.747233
2225091,Søndergårds Allé,2760,97,12.314326,55.747215
2225092,Søndergårds Allé,2760,99,12.314674,55.746887
2225093,Søndergårds Allé,2760,101,12.3147009,55.7468303
2225094,Søndergårds Allé,2760,102,12.3137972,55.7478272
2225095,Søndergårds Allé,2760,103,12.3147929,55.7468336
2225096,Søndergårds Allé,2760,104,12.3141,55.747678
2225097,Søndergårds Allé,2760,105,12.314792,55.746779
2225098,Søndergårds Allé,2760,106,12.313877,55.747604
2225099,Søndergårds Allé,2760,107,12.3149,55.746782
2225100,Søndergårds Allé,2760,109,12.314922,55.746731
2233429,Tueholmen,2760,9,12.322458,55.742895
2233430,Tueholmen,2760,10,12.322233,55.742912
2233431,Tueholmen,2760,11,12.322465,55.743046
2233432,Tueholmen,2760,12,12.322287,55.74307
2233433,Tueholmen,2760,13,12.322124,55.743104
2233434,Tueholmen,2760,14,12.322741,55.743145
2233435,Tueholmen,2760,15,12.322579,55.743191
2233436,Tueholmen,2760,16,12.322412,55.743255
2233437,Tueholmen,2760,17,12.322208,55.74331
2233438,Tueholmen,2760,18,12.322885,55.743267
2233439,Tueholmen,2760,19,12.322727,55.743336
2233440,Tueholmen,2760,20,12.3225871,55.7433891
2233441,Tueholmen,2760,21,12.322403,55.743453
2233442,Tueholmen,2760,22,12.322244,55.743517
2245398,Bringevej,2760,151,12.305964,55.759734
2245399,Kildedalsvej,2760,15A,12.2847539,55.7512776
2245400,Måløv Byvej,2760,306A,12.279065,55.755504
2245401,Nørreled,2760,11A,12.318578,55.753876
2245402,Nørreled,2760,11B,12.318459,55.753882
2245403,Søndergårds Allé,2760,5,12.32198,55.744185
2245404,Søndergårds Allé,2760,3,12.321642,55.744654
2245405,Søndergårds Allé,2760,7,12.321745,55.744428
