idx,street,postcode,housenumber,lon,lat
321261,Kragerupgårdsvej,4291,33,11.3781239,55.5099139
930150,Kalundborgvej,4291,1,11.3713698,55.5405914
930151,Kalundborgvej,4291,2,11.3711125,55.540772
930152,Kalundborgvej,4291,3,11.3710284,55.5405973
930153,Kalundborgvej,4291,4,11.3708514,55.5407696
930154,Kalundborgvej,4291,5A,11.370972,55.540269
930155,Kalundborgvej,4291,5B,11.3705854,55.5401128
930156,Kalundborgvej,4291,5C,11.3705522,55.5405461
930157,Kalundborgvej,4291,6,11.37062,55.5407723
930158,Kalundborgvej,4291,7,11.3702651,55.5405913
930159,Kalundborgvej,4291,8,11.3704305,55.5407701
930160,Kalundborgvej,4291,9,11.3698968,55.5403183
930161,Kalundborgvej,4291,10,11.3702441,55.5407658
930162,Kalundborgvej,4291,11,11.3695328,55.5406307
930163,Kalundborgvej,4291,12,11.3700348,55.5407674
930164,Kalundborgvej,4291,13A,11.368555,55.540606
930165,Kalundborgvej,4291,13B,11.3689313,55.540777
930166,Kalundborgvej,4291,13C,11.36846,55.5409815
930167,Kalundborgvej,4291,14,11.3696729,55.5408628
930168,Kalundborgvej,4291,17,11.3677615,55.5416971
930169,Kalundborgvej,4291,18,11.3692607,55.5410565
930170,Kalundborgvej,4291,20,11.3689115,55.5413857
930171,Kalundborgvej,4291,22,11.36859,55.5416278
930172,Kalundborgvej,4291,25,11.3529563,55.5458407
930173,Kalundborgvej,4291,27,11.3525049,55.5458764
930174,Kalundborgvej,4291,29,11.3521437,55.5460321
930175,Kalundborgvej,4291,31,11.3514933,55.5462163
930176,Kalundborgvej,4291,32,11.3511221,55.5468668
930177,Kalundborgvej,4291,33,11.3509655,55.5463623
930178,Kalundborgvej,4291,34,11.3494194,55.5470151
930179,Kalundborgvej,4291,35,11.3509007,55.5460278
930180,Kalundborgvej,4291,36,11.3487618,55.5472408
930181,Kalundborgvej,4291,37,11.3505673,55.5445199
930182,Kalundborgvej,4291,39,11.3496078,55.5449417
930183,Kalundborgvej,4291,42,11.3438148,55.5481026
930184,Kalundborgvej,4291,43,11.3483536,55.5470825
930185,Kalundborgvej,4291,44,11.3389744,55.5485337
930186,Kalundborgvej,4291,45,11.3472191,55.5473934
930187,Kalundborgvej,4291,47,11.3468855,55.5472816
930188,Kalundborgvej,4291,51,11.3462771,55.5476212
930189,Kalundborgvej,4291,53,11.3463916,55.5466747
930190,Kalundborgvej,4291,55,11.345833,55.5473652
930191,Kalundborgvej,4291,57,11.3456076,55.547711
930192,Kalundborgvej,4291,59,11.344866,55.5477838
930193,Kalundborgvej,4291,61,11.344262,55.544889
1147951,Nykøbingvej,4291,43,11.3822419,55.4944323
1147959,Nykøbingvej,4291,58,11.3835763,55.498554
1325192,Sæbyvej,4291,43,11.3160033,55.5647034
1325193,Sæbyvej,4291,45,11.3160273,55.5647912
1325194,Sæbyvej,4291,47,11.3161815,55.5653311
1325197,Sæbyvej,4291,49,11.3162014,55.5654252
1325200,Sæbyvej,4291,51,11.315678,55.5738094
1325201,Sæbyvej,4291,52,11.3176474,55.5634513
1325204,Sæbyvej,4291,54,11.3180164,55.5633231
1325206,Sæbyvej,4291,56A,11.327821,55.564575
1325207,Sæbyvej,4291,56B,11.327549,55.564727
1325209,Sæbyvej,4291,56C,11.327919,55.564939
1325212,Sæbyvej,4291,56D,11.328248,55.564547
1325213,Sæbyvej,4291,58,11.3290276,55.5642637
1325216,Sæbyvej,4291,60,11.3297723,55.5645248
1340813,Kragerupgårdsvej,4291,29,11.3803943,55.5087938
1340814,Kragerupgårdsvej,4291,31,11.3807678,55.5090116
1340815,Kragerupgårdsvej,4291,33,11.3781893,55.509874
1340816,Kragerupgårdsvej,4291,35,11.3811007,55.509604
1340817,Kragerupgårdsvej,4291,37,11.3807661,55.51013
1340818,Kragerupgårdsvej,4291,39,11.380344,55.510149
1340819,Kragerupgårdsvej,4291,41,11.3803341,55.5103626
1340820,Kragerupgårdsvej,4291,43,11.3773171,55.512842
1340971,Sorøvej,4291,9B,11.3872764,55.5411281
1340972,Sorøvej,4291,9C,11.3871947,55.5411484
1340973,Sorøvej,4291,9D,11.3871129,55.5411688
1340974,Sorøvej,4291,9E,11.3876517,55.5414851
1340975,Sorøvej,4291,9F,11.3870033,55.5415448
1340976,Sorøvej,4291,9G,11.3867333,55.541175
1340978,Sorøvej,4291,11,11.3869378,55.5407597
1340980,Sorøvej,4291,13,11.387179,55.540648
1340982,Sorøvej,4291,15A,11.3874405,55.5405959
1340983,Sorøvej,4291,15B,11.3877975,55.5410399
1340985,Sorøvej,4291,15C,11.389221,55.541828
1340989,Sorøvej,4291,17,11.3883169,55.5409686
1340990,Sorøvej,4291,18,11.3867235,55.5405182
1340991,Sorøvej,4291,19,11.3880751,55.5408422
1340992,Sorøvej,4291,20,11.3869333,55.5404384
1340993,Sorøvej,4291,21,11.3877264,55.5405059
1340994,Sorøvej,4291,22,11.3871862,55.5402578
1340995,Sorøvej,4291,23,11.3879371,55.5404332
1340996,Sorøvej,4291,24,11.387421,55.54017
1340997,Sorøvej,4291,25,11.3881065,55.5403225
1340998,Sorøvej,4291,26,11.3880497,55.5398509
1340999,Sorøvej,4291,27,11.388407,55.5402098
1341000,Sorøvej,4291,29,11.388649,55.5401294
1341001,Sorøvej,4291,31,11.3889481,55.5400854
1341002,Sorøvej,4291,41,11.3906347,55.539533
1341003,Sorøvej,4291,46,11.3982825,55.5361273
1341004,Sorøvej,4291,48,11.404691,55.536943
1341005,Sorøvej,4291,50,11.4144072,55.5362466
1341006,Sorøvej,4291,52,11.414483,55.5367521
1341007,Sorøvej,4291,54,11.417685,55.537134
1341008,Sorøvej,4291,55,11.4021449,55.5378954
1341009,Sorøvej,4291,56,11.421574,55.5378918
1341010,Sorøvej,4291,57,11.4030975,55.5392998
1341011,Sorøvej,4291,58,11.4240302,55.5377532
1341012,Sorøvej,4291,59,11.4029701,55.537649
1341013,Sorøvej,4291,60,11.4260586,55.5376354
1341014,Sorøvej,4291,61,11.4043075,55.5374615
1341015,Sorøvej,4291,62,11.4338616,55.5381404
1585708,Jyderupvej,4291,50,11.3798929,55.5236257
1585709,Jyderupvej,4291,51,11.3786632,55.5263432
1585711,Jyderupvej,4291,52,11.3809127,55.5270447
1585713,Jyderupvej,4291,54,11.3820238,55.527722
1585715,Jyderupvej,4291,55,11.3876993,55.5339589
1585717,Jyderupvej,4291,56,11.3892609,55.5327178
1585719,Jyderupvej,4291,58,11.3919183,55.5346078
1585721,Jyderupvej,4291,60,11.3926035,55.5346606
1585723,Jyderupvej,4291,62,11.3932764,55.5352705
1585725,Jyderupvej,4291,68,11.3960093,55.5467457
1585727,Jyderupvej,4291,81,11.3801523,55.5752723
1585730,Jyderupvej,4291,83,11.3805601,55.5753123
1585735,Jyderupvej,4291,85,11.3812786,55.5744191
1585738,Jyderupvej,4291,87,11.3839724,55.5820797
1585742,Jyderupvej,4291,89,11.3850347,55.5824656
1587675,Hestehaven,4291,1,11.3974236,55.5433931
1587677,Hestehaven,4291,5,11.401513,55.545099
1587678,Hestehaven,4291,6A,11.397618,55.5427222
1587680,Hestehaven,4291,6B,11.3978869,55.5427659
1587682,Hestehaven,4291,7,11.4018276,55.545487
1587683,Hestehaven,4291,8,11.3993643,55.5433149
1587684,Hestehaven,4291,10,11.4027864,55.5428364
1587686,Hestehaven,4291,12,11.4084234,55.5437501
1587687,Hestehaven,4291,14,11.4074906,55.5436769
1587689,Hestehaven,4291,16,11.4060452,55.5436619
1587690,Hestehaven,4291,18,11.4046422,55.5435398
1587692,Hestehaven,4291,22,11.4021897,55.5437454
1587693,Hestehaven,4291,24,11.4037157,55.5464854
1587836,Rudsgade,4291,1A,11.3714659,55.5408602
1587837,Rudsgade,4291,1B,11.371497,55.540862
1587839,Rudsgade,4291,1C,11.371606,55.540863
1587841,Rudsgade,4291,1D,11.3717305,55.5408693
1587842,Rudsgade,4291,1E,11.3718248,55.540877
1587843,Rudsgade,4291,1F,11.371871,55.5408807
1587845,Rudsgade,4291,2,11.3720887,55.5406439
1587846,Rudsgade,4291,3,11.3728912,55.5410332
1587847,Rudsgade,4291,4A,11.3723154,55.5406586
1587849,Rudsgade,4291,4B,11.3723779,55.5406634
1587851,Rudsgade,4291,4C,11.3724398,55.5406683
1587852,Rudsgade,4291,5,11.373198,55.540939
1587854,Rudsgade,4291,6,11.3727292,55.5404716
1587856,Rudsgade,4291,7,11.3733397,55.5409738
1587857,Rudsgade,4291,8A,11.372941,55.540733
1587858,Rudsgade,4291,8B,11.3731781,55.5406958
1587860,Rudsgade,4291,9A,11.3737336,55.5410571
1587861,Rudsgade,4291,9B,11.3738103,55.5410781
1587863,Rudsgade,4291,10A,11.3736804,55.5408526
1587864,Rudsgade,4291,10B,11.37382,55.540887
1587866,Rudsgade,4291,12A,11.3742481,55.5406649
1587867,Rudsgade,4291,12B,11.3744012,55.5406928
1587868,Rudsgade,4291,12C,11.3745529,55.5407202
1587870,Rudsgade,4291,13,11.3743693,55.5413239
1587872,Rudsgade,4291,14A,11.373999,55.540926
1587873,Rudsgade,4291,14B,11.374063,55.540942
1587875,Rudsgade,4291,15A,11.374681,55.541349
1587876,Rudsgade,4291,15C,11.3748653,55.541461
1587877,Rudsgade,4291,15D,11.3758552,55.5417087
1587879,Rudsgade,4291,16,11.3742221,55.5409939
1587881,Rudsgade,4291,18,11.3749156,55.5409229
1587883,Rudsgade,4291,19,11.3771026,55.541629
1587884,Rudsgade,4291,20,11.3750339,55.5412544
1587886,Rudsgade,4291,21,11.3772878,55.5418001
1587887,Rudsgade,4291,22,11.3754468,55.5413588
1587888,Rudsgade,4291,23,11.3774985,55.5416294
1587889,Rudsgade,4291,24A,11.375701,55.541399
1587891,Rudsgade,4291,24B,11.3758281,55.5414229
1587893,Rudsgade,4291,25,11.3777608,55.5416369
1587894,Rudsgade,4291,26,11.3760383,55.541446
1587895,Rudsgade,4291,28,11.376448,55.5414593
1587897,Rudsgade,4291,28A,11.3762906,55.5414622
1587898,Rudsgade,4291,28B,11.3764383,55.5414617
1587899,Rudsgade,4291,28C,11.3765859,55.5414613
1587900,Rudsgade,4291,29,11.3780602,55.5418046
1587901,Rudsgade,4291,31,11.3782698,55.541652
1587904,Rudsgade,4291,32A,11.376758,55.541459
1587905,Rudsgade,4291,32B,11.3768094,55.541458
1587908,Rudsgade,4291,32C,11.376861,55.541458
1587912,Rudsgade,4291,33,11.3785271,55.541878
1587913,Rudsgade,4291,34,11.3774676,55.5414692
1587914,Rudsgade,4291,35A,11.378764,55.541717
1587915,Rudsgade,4291,35B,11.37876,55.54179
1587917,Rudsgade,4291,35C,11.378756,55.541864
1587919,Rudsgade,4291,35D,11.379072,55.5416276
1587920,Rudsgade,4291,35E,11.3789332,55.5420178
1587922,Rudsgade,4291,35F,11.3789331,55.5420178
1587923,Rudsgade,4291,35G,11.3789331,55.5420178
1587924,Rudsgade,4291,35H,11.3789331,55.5420178
1587926,Rudsgade,4291,35I,11.3789331,55.5420178
1587927,Rudsgade,4291,36A,11.3778381,55.5414734
1587929,Rudsgade,4291,36B,11.3779321,55.5414781
1587930,Rudsgade,4291,37,11.3793025,55.5416124
1587931,Rudsgade,4291,38,11.3782658,55.5414708
1587933,Rudsgade,4291,39A,11.3796912,55.5416022
1587935,Rudsgade,4291,39B,11.3799688,55.5417583
1587938,Rudsgade,4291,40,11.3785571,55.5414727
1587939,Rudsgade,4291,41A,11.3801793,55.541582
1587943,Rudsgade,4291,41B,11.3801893,55.5416442
1587945,Rudsgade,4291,41C,11.3801968,55.5417063
1587948,Rudsgade,4291,41D,11.3802061,55.5417684
1587950,Rudsgade,4291,42,11.3788795,55.54147
1587951,Rudsgade,4291,43,11.3807986,55.5418277
1587955,Rudsgade,4291,44A,11.3791468,55.5414285
1587957,Rudsgade,4291,44B,11.3795051,55.5414321
1587958,Rudsgade,4291,44C,11.3795945,55.5414286
1587960,Rudsgade,4291,44D,11.3796838,55.541425
1587961,Rudsgade,4291,44E,11.379773,55.541422
1587962,Rudsgade,4291,44F,11.3798625,55.5414179
1587963,Rudsgade,4291,45,11.3814567,55.5415428
1587964,Rudsgade,4291,46,11.3803916,55.5412997
1587965,Rudsgade,4291,48,11.3806397,55.5414013
1587966,Rudsgade,4291,50,11.3809153,55.5413305
1587967,Rudsgade,4291,52,11.3811872,55.5412864
1587968,Rudsgade,4291,54,11.3814685,55.5413172
1587969,Rudsgade,4291,56,11.3820015,55.5413284
1588071,Engvej,4291,1A,11.3784149,55.540003
1588072,Engvej,4291,1B,11.3775549,55.5398779
1588074,Engvej,4291,2C,11.3765627,55.5403696
1588076,Engvej,4291,2D,11.3769809,55.540087
1588078,Engvej,4291,4A,11.3765639,55.5397943
1588080,Engvej,4291,4B,11.3768592,55.5397174
1588082,Engvej,4291,4C,11.377195,55.539877
1588085,Engvej,4291,4D,11.3770613,55.5397209
1588087,Engvej,4291,4E,11.375756,55.539001
1588089,Engvej,4291,4F,11.377217,55.538769
1588091,Engvej,4291,6,11.3773296,55.5395405
1588093,Engvej,4291,8,11.3775782,55.5393914
1588095,Engvej,4291,10,11.3777898,55.5390819
1588097,Engvej,4291,12,11.3778112,55.5388516
1588099,Engvej,4291,14,11.3777609,55.5386983
1588101,Engvej,4291,16,11.3777565,55.5385599
1588119,Glentevej,4291,1,11.3695133,55.5353976
1588120,Glentevej,4291,2,11.3691363,55.5356579
1588121,Glentevej,4291,3,11.3694013,55.5352281
1588122,Glentevej,4291,4,11.3690695,55.5354236
1588123,Glentevej,4291,5,11.3693365,55.5350469
1588124,Glentevej,4291,6,11.3689653,55.5352486
1588125,Glentevej,4291,7,11.3700172,55.535101
1588126,Glentevej,4291,8,11.3688469,55.5350962
1588127,Glentevej,4291,9,11.3700375,55.5349148
1588128,Glentevej,4291,10,11.368734,55.5349159
1588129,Glentevej,4291,11,11.3698919,55.5347367
1588130,Glentevej,4291,13A,11.3687748,55.534538
1588131,Glentevej,4291,13B,11.368454,55.5345769
1588132,Glentevej,4291,15,11.3691839,55.534802
1588137,Vinkelvej,4291,1,11.3783044,55.5389399
1588138,Vinkelvej,4291,2,11.3787637,55.5390692
1588139,Vinkelvej,4291,3,11.3783299,55.5390966
1588140,Vinkelvej,4291,4,11.3787768,55.539221
1588141,Vinkelvej,4291,6,11.3787898,55.5394024
1588142,Vinkelvej,4291,7,11.3783395,55.5395028
1588143,Vinkelvej,4291,8,11.3788135,55.5395876
1588144,Vinkelvej,4291,9,11.3784761,55.5396509
1588170,Slagelsevej,4291,1A,11.3721169,55.5403783
1588171,Slagelsevej,4291,1B,11.3719872,55.5402537
1588177,Slagelsevej,4291,1C,11.3719883,55.5403018
1588185,Slagelsevej,4291,2A,11.3716038,55.5401675
1588190,Slagelsevej,4291,2B,11.3714268,55.5398394
1588198,Slagelsevej,4291,4A,11.3711434,55.5395997
1588202,Slagelsevej,4291,4B,11.3700812,55.5391994
1588211,Slagelsevej,4291,5A,11.37205,55.539787
1588220,Slagelsevej,4291,5B,11.372179,55.539807
1588226,Slagelsevej,4291,5C,11.371994,55.539928
1588233,Slagelsevej,4291,5E,11.371997,55.540086
1588237,Slagelsevej,4291,6A,11.371562,55.539142
1588244,Slagelsevej,4291,6B,11.3715552,55.5390738
1588250,Slagelsevej,4291,6C,11.3712151,55.5390647
1588253,Slagelsevej,4291,6D,11.3712177,55.5391102
1588260,Slagelsevej,4291,7,11.3719544,55.5391191
1588264,Slagelsevej,4291,8A,11.371548,55.53899
1588271,Slagelsevej,4291,8B,11.371546,55.538959
1588279,Slagelsevej,4291,8C,11.371543,55.538929
1588281,Slagelsevej,4291,9,11.3718824,55.5387197
1588285,Slagelsevej,4291,10,11.3715237,55.5387645
1588286,Slagelsevej,4291,11,11.3717755,55.5385631
1588291,Slagelsevej,4291,12,11.3714393,55.538621
1588293,Slagelsevej,4291,13,11.37162,55.5384126
1588295,Slagelsevej,4291,14A,11.3703187,55.5386786
1588299,Slagelsevej,4291,14B,11.3708886,55.5382167
1588300,Slagelsevej,4291,15,11.3713887,55.5382169
1588303,Slagelsevej,4291,16,11.3705673,55.5380013
1588307,Slagelsevej,4291,17,11.3711076,55.5379948
1588310,Slagelsevej,4291,18,11.3703547,55.5378471
1588312,Slagelsevej,4291,19,11.3709742,55.537899
1588313,Slagelsevej,4291,20,11.3701154,55.5377376
1588317,Slagelsevej,4291,21,11.3708309,55.5378114
1588323,Slagelsevej,4291,22,11.3696429,55.5376477
1588328,Slagelsevej,4291,23,11.3707093,55.537706
1588333,Slagelsevej,4291,25,11.37055,55.537615
1588335,Slagelsevej,4291,26,11.3670111,55.5338542
1588339,Slagelsevej,4291,27,11.368301,55.5347926
1588342,Slagelsevej,4291,28,11.3666762,55.5328506
1588345,Slagelsevej,4291,30,11.3657932,55.5304898
1588346,Slagelsevej,4291,32,11.36512,55.5292176
1588349,Slagelsevej,4291,32A,11.3635467,55.5293356
1588352,Slagelsevej,4291,34,11.362008,55.52929
1588355,Slagelsevej,4291,36,11.3646725,55.5276505
1588358,Slagelsevej,4291,38,11.3639625,55.5259483
1588363,Slagelsevej,4291,328,11.3657529,55.5307092
1588589,Krogen,4291,1,11.39886,55.538559
1588591,Krogen,4291,2,11.3996189,55.5386632
1588593,Krogen,4291,3,11.3966048,55.5391671
1588594,Krogen,4291,4,11.3981846,55.5392283
1588596,Krogen,4291,6,11.3977233,55.5392005
1588597,Krogen,4291,8,11.3963583,55.539526
1588600,Krogen,4291,10,11.3955919,55.5394985
1588603,Krogen,4291,12,11.3950351,55.5393655
1588957,Almindevej,4291,1,11.3999248,55.5160339
1588961,Almindevej,4291,2,11.4014274,55.5152475
1588965,Almindevej,4291,4,11.3987202,55.5190834
1589167,Teglværksparken,4291,1,11.3704738,55.5395049
1589169,Teglværksparken,4291,2,11.3703561,55.5395182
1589172,Teglværksparken,4291,3,11.3702382,55.5395302
1589173,Teglværksparken,4291,4,11.369954,55.539616
1589177,Teglværksparken,4291,5,11.370051,55.539606
1589179,Teglværksparken,4291,6,11.3703489,55.5396554
1589180,Teglværksparken,4291,7,11.3703773,55.539729
1589183,Teglværksparken,4291,8,11.3704059,55.5398039
1589186,Teglværksparken,4291,9,11.3698687,55.5397571
1589189,Teglværksparken,4291,10,11.3698993,55.5398461
1589190,Teglværksparken,4291,11,11.3699283,55.5399349
1589193,Teglværksparken,4291,12,11.370189,55.539981
1589196,Teglværksparken,4291,13,11.370291,55.539965
1589197,Teglværksparken,4291,14,11.3700527,55.5400895
1589201,Teglværksparken,4291,15,11.3699342,55.5401012
1589202,Teglværksparken,4291,16,11.3698155,55.5401132
1589562,Frendvedvej,4291,1,11.3422972,55.5809177
1589565,Frendvedvej,4291,3,11.3395455,55.5758333
1589568,Frendvedvej,4291,4,11.3416381,55.57847
1589570,Frendvedvej,4291,5,11.3399718,55.5725499
1589573,Frendvedvej,4291,6,11.3372284,55.5775663
1590137,Selchausdalvej,4291,1,11.3243971,55.5848049
1590140,Selchausdalvej,4291,2,11.3267762,55.5809385
1590144,Selchausdalvej,4291,4,11.3268088,55.5840553
1590146,Selchausdalvej,4291,6,11.326661,55.585117
1590150,Selchausdalvej,4291,6A,11.32594,55.584746
1590151,Selchausdalvej,4291,8,11.3258522,55.5851456
1590155,Selchausdalvej,4291,10,11.3253947,55.5890394
1590251,Skovlyvej,4291,2,11.3639917,55.5251514
1590252,Skovlyvej,4291,4,11.3647682,55.5250541
1590253,Skovlyvej,4291,6,11.3652558,55.5249546
1590338,Tjørnebakken,4291,1,11.387016,55.543399
1590339,Tjørnebakken,4291,2,11.3873982,55.5432916
1590343,Tjørnebakken,4291,3,11.3872498,55.5437068
1590347,Tjørnebakken,4291,4,11.3875733,55.5435096
1590349,Tjørnebakken,4291,5,11.3874803,55.5439289
1590352,Tjørnebakken,4291,6,11.3876612,55.5437306
1590354,Tjørnebakken,4291,7,11.3875896,55.5441085
1590357,Tjørnebakken,4291,8,11.3879896,55.5439568
1590362,Tjørnebakken,4291,9,11.3877347,55.5443591
1590363,Tjørnebakken,4291,10,11.3882302,55.5441816
1590368,Tjørnebakken,4291,11,11.3883508,55.5449989
1590369,Tjørnebakken,4291,12,11.3886255,55.5443677
1590372,Tjørnebakken,4291,14,11.3889552,55.5445289
1590376,Tjørnebakken,4291,16,11.3891621,55.544749
1590501,Rugskovvej,4291,8A,11.4161699,55.5083891
1590502,Rugskovvej,4291,8B,11.4228519,55.502644
1590503,Rugskovvej,4291,10,11.4190269,55.5094942
1590504,Rugskovvej,4291,11,11.4161396,55.5099972
1590505,Rugskovvej,4291,13,11.4184729,55.5136208
1590506,Rugskovvej,4291,15,11.4228726,55.5104146
1590702,Kragerupvej,4291,9,11.4171694,55.5172842
1590706,Kragerupvej,4291,10,11.4222578,55.5203091
1590710,Kragerupvej,4291,11,11.4179116,55.5151742
1590711,Kragerupvej,4291,12,11.4166819,55.5182636
1590717,Kragerupvej,4291,13,11.4149915,55.5145765
1590721,Kragerupvej,4291,14,11.4155018,55.5239119
1590725,Kragerupvej,4291,15,11.4163015,55.5154771
1590729,Kragerupvej,4291,16,11.4143353,55.5209003
1590731,Kragerupvej,4291,17,11.4152498,55.5168448
1591779,Rosenvænget,4291,1,11.3852721,55.542088
1591780,Rosenvænget,4291,2,11.3841151,55.5416618
1591781,Rosenvænget,4291,3,11.3854507,55.5422449
1591782,Rosenvænget,4291,4,11.3849325,55.5417779
1591783,Rosenvænget,4291,5,11.385602,55.5424044
1591784,Rosenvænget,4291,6,11.3856954,55.5419473
1591785,Rosenvænget,4291,7,11.3857896,55.5425561
1591786,Rosenvænget,4291,8,11.385827,55.5419359
1591787,Rosenvænget,4291,9,11.3858177,55.542727
1591788,Rosenvænget,4291,10,11.3859585,55.541924
1591789,Rosenvænget,4291,12,11.3860902,55.5419125
1591790,Rosenvænget,4291,14,11.3862217,55.5419015
1591791,Rosenvænget,4291,16,11.38594,55.542168
1591792,Rosenvænget,4291,18,11.3860683,55.5421561
1591793,Rosenvænget,4291,20,11.3861976,55.542147
1591795,Rosenvænget,4291,22,11.3863269,55.5421349
1591797,Rosenvænget,4291,24,11.3864563,55.5421229
1591799,Rosenvænget,4291,26,11.3861702,55.542385
1591803,Rosenvænget,4291,28,11.3862994,55.5423729
1591804,Rosenvænget,4291,30,11.3864296,55.5423621
1591806,Rosenvænget,4291,32,11.3865596,55.54235
1591809,Rosenvænget,4291,34,11.386689,55.542338
1591810,Rosenvænget,4291,36,11.3862473,55.542624
1591813,Rosenvænget,4291,38,11.3863865,55.5426108
1591815,Rosenvænget,4291,40,11.3865265,55.5425989
1591817,Rosenvænget,4291,42,11.3866655,55.5425859
1591820,Rosenvænget,4291,44,11.3868049,55.5425732
1591822,Rosenvænget,4291,46,11.3861154,55.5425407
1591877,Lærkevænget,4291,1,11.3858064,55.5396729
1591880,Lærkevænget,4291,2,11.3852482,55.5394901
1592179,Nyvej,4291,1,11.3810084,55.5405369
1592181,Nyvej,4291,2,11.380487,55.540239
1592184,Nyvej,4291,3,11.3812618,55.5405753
1592186,Nyvej,4291,4,11.3809383,55.540332
1592188,Nyvej,4291,5,11.3816636,55.5406343
1592190,Nyvej,4291,6,11.3812598,55.5403797
1592192,Nyvej,4291,7,11.3819606,55.5406851
1592194,Nyvej,4291,8,11.3815915,55.540439
1592195,Nyvej,4291,9,11.3822354,55.540726
1592196,Nyvej,4291,10,11.3818915,55.5404839
1592197,Nyvej,4291,11,11.3825717,55.5408174
1592199,Nyvej,4291,12,11.3823123,55.5405439
1592200,Nyvej,4291,13,11.3830323,55.540848
1592201,Nyvej,4291,14,11.3825561,55.5405699
1592203,Nyvej,4291,15,11.3832718,55.5408864
1592574,Ougtvedvej,4291,1,11.3481921,55.5488268
1592576,Ougtvedvej,4291,2,11.3482443,55.547559
1592577,Ougtvedvej,4291,4,11.3511015,55.5480499
1592578,Ougtvedvej,4291,8,11.3487906,55.5551939
1592581,Ougtvedvej,4291,9,11.3508542,55.5556729
1592582,Ougtvedvej,4291,10,11.3514771,55.555573
1592583,Ougtvedvej,4291,11,11.3514959,55.5559676
1592585,Ougtvedvej,4291,12,11.3589293,55.5564421
1592587,Ougtvedvej,4291,13,11.3552279,55.5561952
1592588,Ougtvedvej,4291,14A,11.360877,55.555015
1592590,Ougtvedvej,4291,14B,11.360961,55.555015
1592591,Ougtvedvej,4291,15,11.357785,55.5590966
1592594,Ougtvedvej,4291,16,11.3569529,55.5569122
1592596,Ougtvedvej,4291,17,11.3595573,55.560688
1592597,Ougtvedvej,4291,18,11.3584292,55.5581211
1592600,Ougtvedvej,4291,19,11.3619265,55.5632034
1592603,Ougtvedvej,4291,20,11.3586538,55.5589182
1592605,Ougtvedvej,4291,22,11.35947,55.559876
1592608,Ougtvedvej,4291,24,11.3624737,55.563087
1592611,Ougtvedvej,4291,26,11.3630892,55.5634165
1592613,Ougtvedvej,4291,28,11.3644201,55.56401
1592616,Ougtvedvej,4291,30,11.3650623,55.5641619
1592619,Ougtvedvej,4291,32,11.3678008,55.5653869
1592885,Skovvej,4291,1,11.3803644,55.5410434
1592887,Skovvej,4291,2A,11.3800136,55.5405368
1592889,Skovvej,4291,2B,11.3794057,55.5401703
1592891,Skovvej,4291,2C,11.3799989,55.5401723
1592893,Skovvej,4291,3,11.3803841,55.540895
1592894,Skovvej,4291,4,11.3799813,55.5398714
1592897,Skovvej,4291,5,11.380401,55.5406288
1592898,Skovvej,4291,6,11.379968,55.5397081
1592900,Skovvej,4291,7,11.3804349,55.5404648
1592902,Skovvej,4291,8,11.3798882,55.5395471
1592904,Skovvej,4291,9,11.3805101,55.5400131
1592906,Skovvej,4291,10,11.3798794,55.5394071
1592908,Skovvej,4291,11,11.3805,55.539871
1592910,Skovvej,4291,12,11.3798499,55.5392702
1592912,Skovvej,4291,13,11.3807292,55.5394282
1592914,Skovvej,4291,14,11.3798675,55.5391273
1592916,Skovvej,4291,15A,11.3809054,55.539292
1592918,Skovvej,4291,15B,11.3811875,55.5394872
1592920,Skovvej,4291,15C,11.3812671,55.5395005
1592921,Skovvej,4291,15D,11.381627,55.5393668
1592924,Skovvej,4291,15E,11.3816386,55.539343
1592926,Skovvej,4291,16,11.3798571,55.538983
1592928,Skovvej,4291,17A,11.381524,55.539142
1592929,Skovvej,4291,17B,11.3811092,55.5391237
1592931,Skovvej,4291,18,11.3798375,55.5388216
1592934,Skovvej,4291,19A,11.380275,55.538917
1592935,Skovvej,4291,19B,11.3806583,55.5389568
1592938,Skovvej,4291,21,11.3819449,55.5389187
1592939,Skovvej,4291,22,11.3798701,55.5384871
1592941,Skovvej,4291,23,11.3820366,55.5386583
1592944,Skovvej,4291,24,11.379861,55.5383428
1592945,Skovvej,4291,25A,11.381506,55.538875
1592948,Skovvej,4291,25B,11.380634,55.53874
1592949,Skovvej,4291,26,11.3798509,55.5382117
1592951,Skovvej,4291,27,11.3805701,55.5386122
1592953,Skovvej,4291,28,11.3798418,55.5380657
1592955,Skovvej,4291,29,11.3803645,55.5383836
1592956,Skovvej,4291,30,11.3798288,55.5379168
1592958,Skovvej,4291,31,11.3803616,55.5381803
1592961,Skovvej,4291,32,11.3798866,55.5377321
1592963,Skovvej,4291,33,11.3803183,55.5379771
1592965,Skovvej,4291,34,11.3798572,55.5375416
1592967,Skovvej,4291,35,11.380323,55.537701
1592970,Skovvej,4291,36,11.3798248,55.5372868
1592974,Skovvej,4291,37,11.3802099,55.5371472
1592976,Skovvej,4291,38,11.3797902,55.5370623
1592978,Skovvej,4291,39,11.3802023,55.5368761
1592981,Skovvej,4291,40,11.3793768,55.5367474
1592983,Skovvej,4291,51,11.3801485,55.535824
1592984,Skovvej,4291,53,11.3799989,55.535077
1592985,Skovvej,4291,55,11.3802744,55.5348262
1592986,Skovvej,4291,59,11.3820163,55.5336745
1592988,Skovvej,4291,61,11.3799664,55.5334525
1592990,Skovvej,4291,65,11.380018,55.5287012
1592991,Skovvej,4291,69,11.379527,55.528294
1593424,Dragsøvej,4291,11,11.367974,55.543842
1594508,Risbjergvej,4291,1,11.3945775,55.5554899
1594509,Risbjergvej,4291,2,11.3918428,55.5557636
1594511,Risbjergvej,4291,3,11.3949905,55.5554135
1594513,Risbjergvej,4291,4,11.3920809,55.5557128
1594514,Risbjergvej,4291,5,11.4002518,55.5545401
1594515,Risbjergvej,4291,6,11.3923391,55.5556663
1594516,Risbjergvej,4291,7,11.4061658,55.55473
1594518,Risbjergvej,4291,8,11.3925938,55.555607
1594519,Risbjergvej,4291,9,11.4056221,55.5560081
1594521,Risbjergvej,4291,10,11.3928602,55.5555564
1594522,Risbjergvej,4291,11,11.411628,55.552558
1594524,Risbjergvej,4291,12,11.3932398,55.5554891
1594525,Risbjergvej,4291,13,11.4177168,55.5529059
1594526,Risbjergvej,4291,14,11.408564,55.550757
1594529,Risbjergvej,4291,15,11.4179953,55.5534819
1594530,Risbjergvej,4291,16,11.411359,55.552232
1594532,Risbjergvej,4291,17,11.4207256,55.5541968
1594533,Risbjergvej,4291,18,11.4125696,55.5510286
1594534,Risbjergvej,4291,19,11.4200695,55.5588386
1594537,Risbjergvej,4291,20,11.424552,55.550847
1594538,Risbjergvej,4291,21,11.4220989,55.5524026
1594539,Risbjergvej,4291,22,11.4237212,55.5493983
1594542,Risbjergvej,4291,23,11.4232509,55.5518464
1594543,Risbjergvej,4291,24,11.4256476,55.5479336
1594544,Risbjergvej,4291,25,11.42384,55.551608
1594545,Risbjergvej,4291,26,11.4274295,55.5496831
1594547,Risbjergvej,4291,27,11.4256681,55.5513878
1594548,Risbjergvej,4291,28,11.431728,55.5486945
1594550,Risbjergvej,4291,29,11.4311939,55.5503484
1594552,Risbjergvej,4291,30,11.4358844,55.5475106
1594553,Risbjergvej,4291,31,11.4340443,55.5491331
1594555,Risbjergvej,4291,32,11.439422,55.545976
1594557,Risbjergvej,4291,33,11.4404477,55.5468801
1595475,Kragevigvej,4291,20,11.4020232,55.5262719
1595477,Kragevigvej,4291,21,11.3867708,55.5240703
1595479,Kragevigvej,4291,22,11.392736,55.525807
1595481,Kragevigvej,4291,23,11.3850522,55.5242909
1595483,Kragevigvej,4291,24,11.3875752,55.5252885
1595485,Kragevigvej,4291,25,11.3839253,55.5247437
1595487,Kragevigvej,4291,26,11.3850876,55.5258447
1595489,Kragevigvej,4291,27,11.3833044,55.522589
1595490,Kragevigvej,4291,28,11.3844299,55.5249833
1595493,Kragevigvej,4291,29,11.3826207,55.5212002
1595496,Kragevigvej,4291,30,11.3823999,55.525229
1595500,Kragevigvej,4291,31,11.3807607,55.5253728
1595798,Tågerupvej,4291,1,11.4344799,55.5530325
1595804,Tågerupvej,4291,2,11.439441,55.554362
1595808,Tågerupvej,4291,3,11.4384636,55.5528202
1595809,Tågerupvej,4291,4,11.4484965,55.55768
1595813,Tågerupvej,4291,5,11.4458243,55.5596938
1595817,Tågerupvej,4291,7,11.448595,55.5613542
1595997,Låddenvej,4291,1,11.4259928,55.5622719
1596001,Låddenvej,4291,2,11.4264334,55.5625116
1596005,Låddenvej,4291,4,11.423842,55.5607473
1596008,Låddenvej,4291,6,11.4237222,55.5602586
1596106,Strædet,4291,1,11.3675447,55.5231419
1596107,Strædet,4291,2A,11.366006,55.522706
1596109,Strædet,4291,2B,11.3651756,55.5219182
1596110,Strædet,4291,3,11.3672981,55.5228271
1596113,Strædet,4291,4A,11.362015,55.520223
1596114,Strædet,4291,4B,11.362013,55.520125
1596116,Strædet,4291,5,11.3666715,55.5212271
1596118,Strædet,4291,7,11.365307,55.521476
1596120,Strædet,4291,9,11.3632393,55.5214586
1596122,Strædet,4291,11,11.3637853,55.5206483
1596382,Tværmarksvej,4291,2,11.3851229,55.5431929
1596383,Tværmarksvej,4291,4,11.3855119,55.543169
1596384,Tværmarksvej,4291,6,11.3858232,55.5431176
1596385,Tværmarksvej,4291,8,11.3865726,55.5430908
1596386,Tværmarksvej,4291,10,11.3865256,55.5430107
1596387,Tværmarksvej,4291,12,11.386789,55.542815
1596388,Tværmarksvej,4291,14,11.386856,55.5428724
1596389,Tværmarksvej,4291,16,11.3869477,55.5429678
1596390,Tværmarksvej,4291,18,11.3870016,55.5430483
1596393,Tværmarksvej,4291,20,11.3871177,55.5427022
1596394,Tværmarksvej,4291,22,11.387216,55.542757
1596402,Tværmarksvej,4291,24,11.3872961,55.5428761
1596405,Tværmarksvej,4291,26,11.387369,55.54293
1596412,Tværmarksvej,4291,28,11.3874636,55.5429874
1596420,Tværmarksvej,4291,30,11.3877318,55.5426006
1596425,Tværmarksvej,4291,32,11.3880183,55.5425017
1596434,Tværmarksvej,4291,632,11.3864542,55.54287
1596917,Ternevej,4291,1,11.36942,55.5359612
1596921,Ternevej,4291,2,11.3698665,55.5358373
1596922,Ternevej,4291,3,11.3694907,55.536132
1596928,Ternevej,4291,4,11.3698952,55.5360062
1596931,Ternevej,4291,5,11.3696192,55.5362688
1596933,Ternevej,4291,6,11.3700216,55.5361785
1596937,Ternevej,4291,7,11.3697293,55.5364335
1596939,Ternevej,4291,8,11.3701298,55.5363573
1596940,Ternevej,4291,9,11.3698608,55.5366248
1596942,Ternevej,4291,10,11.3702307,55.5365473
1596944,Ternevej,4291,11,11.369922,55.536784
1596947,Ternevej,4291,12,11.3703304,55.5367132
1596948,Ternevej,4291,13,11.3700524,55.536961
1596950,Ternevej,4291,14,11.3709431,55.5369757
1596952,Ternevej,4291,15,11.3702804,55.5371762
1596954,Ternevej,4291,16,11.3709056,55.5372493
1596957,Ternevej,4291,17,11.3705082,55.5373847
1597456,Fuglebakken,4291,1,11.3704949,55.535758
1597460,Fuglebakken,4291,2,11.3698654,55.5355184
1597462,Fuglebakken,4291,3,11.3707727,55.5361886
1597464,Fuglebakken,4291,4,11.3702027,55.535448
1597465,Fuglebakken,4291,5,11.3710789,55.5361751
1597467,Fuglebakken,4291,6,11.3704227,55.5353128
1597469,Fuglebakken,4291,7,11.3713291,55.5360296
1597470,Fuglebakken,4291,8,11.3707786,55.535283
1597472,Fuglebakken,4291,9,11.371028,55.535872
1597473,Fuglebakken,4291,10,11.3711562,55.5352289
1597475,Fuglebakken,4291,11,11.370885,55.535659
1597478,Fuglebakken,4291,12,11.3715117,55.5351564
1597479,Fuglebakken,4291,13,11.3715353,55.5354183
1597481,Fuglebakken,4291,14,11.3718656,55.5350483
1597482,Fuglebakken,4291,15,11.3716374,55.535569
1597483,Fuglebakken,4291,16,11.3722283,55.5350039
1597485,Fuglebakken,4291,17,11.3716106,55.5358034
1597486,Fuglebakken,4291,18,11.3724836,55.534945
1597488,Fuglebakken,4291,19,11.3719866,55.5358086
1597489,Fuglebakken,4291,20,11.3728205,55.5348846
1597492,Fuglebakken,4291,21,11.372311,55.535769
1597493,Fuglebakken,4291,22,11.3731806,55.5348432
1597495,Fuglebakken,4291,23,11.3725396,55.5356488
1597497,Fuglebakken,4291,24,11.3736802,55.5347938
1597498,Fuglebakken,4291,25,11.3724086,55.5354709
1597499,Fuglebakken,4291,26,11.3743147,55.5347758
1597500,Fuglebakken,4291,27,11.3722618,55.5353046
1597501,Fuglebakken,4291,28,11.3742732,55.5345521
1597502,Fuglebakken,4291,29,11.3728877,55.53516
1597503,Fuglebakken,4291,31,11.3729201,55.5353251
1597504,Fuglebakken,4291,33,11.3728489,55.5355529
1597505,Fuglebakken,4291,35,11.3732286,55.535524
1597506,Fuglebakken,4291,37,11.3737441,55.5354719
1597507,Fuglebakken,4291,39,11.3742602,55.5353865
1597508,Fuglebakken,4291,41,11.3734541,55.5351071
1597509,Fuglebakken,4291,43,11.3737459,55.535068
1597510,Fuglebakken,4291,45,11.3740573,55.5350494
1597511,Fuglebakken,4291,47,11.3743374,55.5350369
1597927,Sølvbjerg,4291,4,11.3948587,55.543683
1597930,Sølvbjerg,4291,6,11.3940656,55.5438732
1597932,Sølvbjerg,4291,10,11.3928077,55.5440506
1597933,Sølvbjerg,4291,12,11.3905971,55.5447404
1598140,Violvej,4291,1,11.393021,55.555866
1598141,Violvej,4291,2,11.3935089,55.5557516
1598142,Violvej,4291,3A,11.3930773,55.5560476
1598143,Violvej,4291,3B,11.3930636,55.5562528
1598144,Violvej,4291,3C,11.3934411,55.5563339
1598145,Violvej,4291,4,11.3936073,55.5559284
1598146,Violvej,4291,5,11.3938098,55.5561414
1598147,Violvej,4291,7,11.3941579,55.5560717
1598289,Hovsøvej,4291,1,11.3738803,55.5424363
1598291,Hovsøvej,4291,2,11.3770558,55.5424757
1598293,Hovsøvej,4291,3,11.373492,55.542246
1598295,Hovsøvej,4291,4,11.3771836,55.5424927
1598300,Hovsøvej,4291,5,11.3749436,55.5438884
1598303,Hovsøvej,4291,7,11.3781394,55.5429586
1598307,Hovsøvej,4291,9,11.3786624,55.5430503
1598312,Hovsøvej,4291,703,11.3724569,55.5433991
1599504,Frihedsdalsvej,4291,1,11.385727,55.5413739
1599506,Frihedsdalsvej,4291,2,11.3860418,55.5413421
1599508,Frihedsdalsvej,4291,4,11.3864559,55.5415572
1599549,Tindingevej,4291,12,11.364895,55.5198876
1599557,Tindingevej,4291,14,11.362295,55.5216004
1599558,Tindingevej,4291,14A,11.3648082,55.5227503
1599565,Tindingevej,4291,16,11.3634309,55.5228589
1599573,Tindingevej,4291,18,11.363671,55.5233409
1599580,Tindingevej,4291,20,11.3638275,55.5237757
1599596,Tindingevej,4291,22,11.3596727,55.524704
1599605,Tindingevej,4291,23,11.3631977,55.5231578
1599619,Tindingevej,4291,25,11.3634576,55.5238202
1599623,Tindingevej,4291,27,11.3615873,55.5236667
1599632,Tindingevej,4291,31,11.3563995,55.5226962
1599819,Reerslevvej,4291,10,11.3923494,55.5549828
1599830,Reerslevvej,4291,11,11.3905222,55.5550344
1599837,Reerslevvej,4291,12,11.3921346,55.555103
1599851,Reerslevvej,4291,14,11.3919449,55.5553472
1599855,Reerslevvej,4291,15,11.388729,55.5538237
1599865,Reerslevvej,4291,16,11.3905281,55.5554709
1599869,Reerslevvej,4291,18A,11.3899962,55.5557276
1599875,Reerslevvej,4291,18B,11.3904302,55.5558725
1599885,Reerslevvej,4291,19,11.3887834,55.5556582
1599886,Reerslevvej,4291,19B,11.3880559,55.5561144
1599890,Reerslevvej,4291,20A,11.3892986,55.5557423
1599892,Reerslevvej,4291,20B,11.3895985,55.5561023
1599897,Reerslevvej,4291,21,11.3876909,55.5563474
1599901,Reerslevvej,4291,22,11.3888334,55.5560823
1599904,Reerslevvej,4291,23,11.3871627,55.5565697
1599908,Reerslevvej,4291,24,11.3886506,55.5559477
1599909,Reerslevvej,4291,25,11.3870444,55.5567451
1599913,Reerslevvej,4291,26,11.3885531,55.5560479
1599918,Reerslevvej,4291,27,11.3866492,55.5572685
1599921,Reerslevvej,4291,28,11.3883675,55.556145
1599925,Reerslevvej,4291,29,11.3866391,55.5574069
1599929,Reerslevvej,4291,31,11.3858461,55.5575659
1599931,Reerslevvej,4291,32,11.3882039,55.5564539
1599935,Reerslevvej,4291,33,11.3864742,55.5575751
1599938,Reerslevvej,4291,34,11.3876917,55.5566174
1599940,Reerslevvej,4291,35,11.3864237,55.5577758
1599944,Reerslevvej,4291,36,11.3873969,55.5569824
1599945,Reerslevvej,4291,37,11.3860422,55.5580682
1599949,Reerslevvej,4291,38,11.3871889,55.5570809
1599953,Reerslevvej,4291,39,11.386136,55.5585679
1599954,Reerslevvej,4291,40,11.387113,55.557311
1599956,Reerslevvej,4291,41,11.3858219,55.5595127
1599958,Reerslevvej,4291,42,11.386872,55.5574801
1599960,Reerslevvej,4291,43,11.3859786,55.5597633
1599963,Reerslevvej,4291,44,11.3869841,55.5578897
1599965,Reerslevvej,4291,45,11.3857885,55.5601702
1599967,Reerslevvej,4291,46,11.3874431,55.5579371
1599969,Reerslevvej,4291,47,11.385965,55.5604477
1599972,Reerslevvej,4291,48,11.3868432,55.5580733
1599974,Reerslevvej,4291,49,11.3853657,55.5610124
1599975,Reerslevvej,4291,50,11.386893,55.5582916
1599978,Reerslevvej,4291,52,11.386647,55.5585077
1599980,Reerslevvej,4291,54,11.3864702,55.5590958
1600377,Blomstervej,4291,1,11.4062433,55.5225631
1600379,Blomstervej,4291,2,11.4045615,55.5228428
1600382,Blomstervej,4291,3,11.4021023,55.5223591
1600386,Blomstervej,4291,4,11.3995025,55.5224818
1600403,Bakkekammen,4291,1,11.3861421,55.5453333
1600404,Bakkekammen,4291,2,11.3858425,55.5451601
1600405,Bakkekammen,4291,3,11.386417,55.5452908
1600406,Bakkekammen,4291,4,11.3860543,55.5450957
1600408,Bakkekammen,4291,5,11.3867201,55.5451941
1600410,Bakkekammen,4291,6,11.3864711,55.5450009
1600413,Bakkekammen,4291,7,11.387079,55.545152
1600415,Bakkekammen,4291,8,11.3867224,55.5449006
1600419,Bakkekammen,4291,9,11.3873807,55.5450582
1600423,Bakkekammen,4291,10,11.387308,55.544796
1600426,Bakkekammen,4291,11,11.3877005,55.5450059
1600431,Bakkekammen,4291,12,11.3876828,55.5447152
1600432,Bakkekammen,4291,14,11.3880348,55.5445799
1600642,Syrenvej,4291,1,11.3824558,55.5422631
1600643,Syrenvej,4291,3,11.382016,55.5422677
1600644,Syrenvej,4291,5,11.3816402,55.5423314
1600652,Conradineslyst,4291,1,11.4221351,55.5430162
1600653,Conradineslyst,4291,2,11.421257,55.538611
1600654,Conradineslyst,4291,3,11.4215775,55.5428648
1600655,Conradineslyst,4291,4,11.4318395,55.5421874
1600656,Conradineslyst,4291,5,11.4217086,55.5428653
1600657,Conradineslyst,4291,6,11.4325427,55.541098
1600658,Conradineslyst,4291,7,11.4218406,55.5428658
1600853,Hjorthøjvej,4291,1,11.3387871,55.5464417
1600857,Hjorthøjvej,4291,2,11.3385553,55.5474023
1600859,Hjorthøjvej,4291,3,11.3383716,55.5453315
1600861,Hjorthøjvej,4291,4,11.3378993,55.5449206
1600863,Hjorthøjvej,4291,6,11.3372622,55.5431388
1600864,Hjorthøjvej,4291,7,11.3346627,55.5397317
1600867,Hjorthøjvej,4291,8,11.3327568,55.5411928
1600870,Hjorthøjvej,4291,10,11.330223,55.537849
1600871,Hjorthøjvej,4291,12,11.3325148,55.5378545
1600970,Grandalen,4291,1,11.3835351,55.5396302
1600972,Grandalen,4291,2,11.3827926,55.5397189
1600975,Grandalen,4291,3,11.3834978,55.539419
1600977,Grandalen,4291,4,11.382438,55.5395982
1600978,Grandalen,4291,5,11.3834572,55.5392043
1600979,Grandalen,4291,6,11.3817303,55.5394255
1600980,Grandalen,4291,7,11.3834402,55.538966
1600981,Grandalen,4291,8,11.3822226,55.5392199
1600982,Grandalen,4291,10,11.3825464,55.5392466
1600983,Grandalen,4291,12,11.3831279,55.5393321
1600984,Grandalen,4291,14,11.3829892,55.5391241
1600985,Grandalen,4291,16,11.3829715,55.5389449
1600986,Grandalen,4291,18,11.3828479,55.5387575
1601234,Ravnegårdsvej,4291,1A,11.392082,55.5375854
1601237,Ravnegårdsvej,4291,1B,11.392006,55.537301
1601477,Nøragervej,4291,1,11.3673494,55.5603594
1601478,Nøragervej,4291,2,11.368439,55.5654063
1601479,Nøragervej,4291,3,11.3717573,55.5628341
1601480,Nøragervej,4291,4,11.3689099,55.5726694
1601481,Nøragervej,4291,5,11.3678482,55.5630457
1601483,Nøragervej,4291,7,11.3620028,55.5652556
1601485,Nøragervej,4291,9,11.3623019,55.5685152
1601487,Nøragervej,4291,11,11.3585169,55.569289
1601488,Nøragervej,4291,12,11.324467,55.576635
1601489,Nøragervej,4291,13,11.3555394,55.5737291
1601490,Nøragervej,4291,13A,11.3557356,55.5736144
1601491,Nøragervej,4291,15,11.3545539,55.5747465
1601492,Nøragervej,4291,17,11.3538707,55.575279
1601493,Nøragervej,4291,19,11.3539736,55.5757605
1601494,Nøragervej,4291,21,11.3538485,55.5763736
1601495,Nøragervej,4291,23,11.354419,55.5767277
1601497,Nøragervej,4291,27,11.3340029,55.5817294
1601498,Nøragervej,4291,29,11.3294846,55.5794049
1601871,Overdrevsvej,4291,1,11.414138,55.5539395
1601873,Overdrevsvej,4291,2,11.4147969,55.5578408
1601875,Overdrevsvej,4291,3,11.4145923,55.556627
1603435,Fælledvej,4291,1,11.3157402,55.5889172
1603439,Fælledvej,4291,2,11.3266749,55.5892623
1603441,Fælledvej,4291,3,11.325395,55.5894244
1603447,Fælledvej,4291,5,11.3281649,55.5905127
1603481,Bendtsens Gård,4291,1,11.3701171,55.5412954
1603482,Bendtsens Gård,4291,2,11.3701058,55.541362
1603483,Bendtsens Gård,4291,3,11.3700906,55.5414652
1603484,Bendtsens Gård,4291,4,11.3700785,55.5415301
1603485,Bendtsens Gård,4291,5,11.3703504,55.5415418
1603486,Bendtsens Gård,4291,6,11.3704667,55.5415307
1603487,Bendtsens Gård,4291,7,11.3706489,55.5415134
1603488,Bendtsens Gård,4291,8,11.3707707,55.5415007
1603489,Bendtsens Gård,4291,9,11.3710614,55.5415582
1603490,Bendtsens Gård,4291,10,11.3711878,55.5415463
1603491,Bendtsens Gård,4291,11,11.371305,55.5415342
1603492,Bendtsens Gård,4291,12,11.3715439,55.5415838
1603493,Bendtsens Gård,4291,13,11.3716672,55.5415725
1603494,Bendtsens Gård,4291,14,11.3717823,55.5415608
1603495,Bendtsens Gård,4291,15,11.3719021,55.5415496
1603496,Bendtsens Gård,4291,16,11.3721731,55.5415534
1603497,Bendtsens Gård,4291,17,11.3722995,55.5415404
1603500,Bendtsens Gård,4291,18,11.3724226,55.5415301
1603501,Bendtsens Gård,4291,19,11.3722945,55.5413247
1603502,Bendtsens Gård,4291,20,11.3723138,55.5412581
1603505,Bendtsens Gård,4291,21,11.3723412,55.5411601
1603507,Bendtsens Gård,4291,22,11.3723584,55.5410877
1603509,Bendtsens Gård,4291,23,11.3719277,55.5411161
1603511,Bendtsens Gård,4291,24,11.3717622,55.5411074
1603513,Bendtsens Gård,4291,25,11.3716267,55.5411003
1603516,Bendtsens Gård,4291,26,11.3714564,55.5410915
1603517,Bendtsens Gård,4291,27,11.3716538,55.5413209
1603573,Rødtjørnevej,4291,1,11.3639454,55.5246991
1603574,Rødtjørnevej,4291,1B,11.364077,55.524348
1603575,Rødtjørnevej,4291,2,11.3635738,55.5243487
1603577,Rødtjørnevej,4291,3,11.3639859,55.524043
1603579,Rødtjørnevej,4291,4,11.3658411,55.5234876
1603582,Rødtjørnevej,4291,5,11.3651492,55.5239106
1603584,Rødtjørnevej,4291,6,11.3666601,55.5233298
1603586,Rødtjørnevej,4291,7,11.3673759,55.5237579
1603588,Rødtjørnevej,4291,8,11.3681567,55.522973
1603590,Rødtjørnevej,4291,9,11.3676686,55.523496
1603592,Rødtjørnevej,4291,10,11.3696944,55.5221926
1603594,Rødtjørnevej,4291,11,11.3711769,55.5231908
1603598,Rødtjørnevej,4291,12,11.3736092,55.5188667
1603602,Rødtjørnevej,4291,13,11.3723979,55.521082
1603606,Rødtjørnevej,4291,14,11.3743447,55.5168831
1603611,Rødtjørnevej,4291,15,11.3734492,55.5206532
1603613,Rødtjørnevej,4291,16,11.3751535,55.5153722
1603620,Rødtjørnevej,4291,17,11.3734129,55.5200718
1603624,Rødtjørnevej,4291,18,11.3749925,55.515963
1603626,Rødtjørnevej,4291,19,11.3743226,55.5197661
1603630,Rødtjørnevej,4291,20,11.3749369,55.5162016
1603633,Rødtjørnevej,4291,20A,11.3749377,55.5161999
1603637,Rødtjørnevej,4291,20B,11.3750385,55.5162108
1603640,Rødtjørnevej,4291,22,11.3749737,55.5164469
1603642,Rødtjørnevej,4291,24,11.37429,55.518055
1603645,Rødtjørnevej,4291,26,11.374264,55.518349
1603713,Nåleskovvej,4291,1,11.3647827,55.5240544
1603714,Nåleskovvej,4291,3,11.364975,55.5244907
1603716,Nåleskovvej,4291,3A,11.3657306,55.5242071
1603718,Nåleskovvej,4291,5,11.367285,55.5241449
1603719,Nåleskovvej,4291,7,11.3676213,55.5244624
1603721,Nåleskovvej,4291,9,11.3679911,55.5241614
1603855,Overdrevet,4291,1,11.4318477,55.5360634
1603856,Overdrevet,4291,2,11.4292533,55.5360732
1603857,Overdrevet,4291,3,11.4301089,55.5334619
1603860,Overdrevet,4291,4,11.4278544,55.5328784
1603861,Overdrevet,4291,5,11.4272083,55.5323432
1603900,Skovvang,4291,1,11.4403972,55.5544403
1603901,Skovvang,4291,3,11.447782,55.5513769
1603902,Skovvang,4291,5,11.4401443,55.5528767
1603903,Skovvang,4291,7,11.4399993,55.5527333
1603904,Skovvang,4291,9,11.4409687,55.5503357
1603905,Skovvang,4291,11,11.444462,55.5509132
1603942,Sportsvej,4291,1,11.3791393,55.5385252
1603943,Sportsvej,4291,2,11.378744,55.5388648
1603946,Sportsvej,4291,4,11.3782288,55.5387197
1603947,Sportsvej,4291,5,11.3790351,55.5382103
1603949,Sportsvej,4291,6,11.3782244,55.5385517
1603952,Sportsvej,4291,7,11.3787239,55.5382328
1603953,Sportsvej,4291,9,11.3786213,55.5382384
1603955,Sportsvej,4291,10,11.3760739,55.5379906
1603956,Sportsvej,4291,11,11.3783866,55.5382484
1603959,Sportsvej,4291,13,11.3779667,55.538221
1603961,Sportsvej,4291,15,11.3776515,55.5382404
1605150,Egernvej,4291,1,11.3797335,55.5408457
1605151,Egernvej,4291,2,11.3797526,55.5410344
1605153,Egernvej,4291,3,11.3794171,55.5408192
1605155,Egernvej,4291,4,11.3790336,55.5410137
1605156,Egernvej,4291,5,11.3789993,55.5408173
1605157,Egernvej,4291,6,11.3787997,55.541033
1605158,Egernvej,4291,7,11.3785309,55.5408333
1605402,Birkevej,4291,1,11.3810383,55.540039
1605407,Birkevej,4291,2,11.3806511,55.539689
1605410,Birkevej,4291,3A,11.3814556,55.5400178
1605414,Birkevej,4291,3B,11.381574,55.540037
1605419,Birkevej,4291,4,11.3810598,55.5397498
1605422,Birkevej,4291,5,11.3818382,55.5400694
1605426,Birkevej,4291,6,11.381486,55.5398075
1605430,Birkevej,4291,7,11.3821173,55.540105
1605433,Birkevej,4291,8,11.38191,55.5398704
1605435,Birkevej,4291,9,11.3825874,55.5402984
1605439,Birkevej,4291,10,11.3821916,55.5399132
1605443,Birkevej,4291,11,11.3830411,55.5404532
1605446,Birkevej,4291,12,11.3826039,55.5399688
1605450,Birkevej,4291,13,11.38339,55.540665
1605454,Birkevej,4291,14A,11.3830419,55.5398076
1605460,Birkevej,4291,14B,11.3830831,55.5399586
1605466,Birkevej,4291,20,11.3839824,55.5406825
1605713,Sæbygårdsalle,4291,6,11.3339052,55.5539743
1605714,Sæbygårdsalle,4291,7,11.331422,55.5567649
1605715,Sæbygårdsalle,4291,9,11.3354866,55.5542122
1605757,Sømarksvej,4291,4,11.3665447,55.5408496
1605758,Sømarksvej,4291,5,11.3677198,55.5406891
1605761,Sømarksvej,4291,6,11.3666627,55.5408758
1605762,Sømarksvej,4291,7,11.3656425,55.5404839
1605765,Sømarksvej,4291,8,11.3667778,55.540901
1605766,Sømarksvej,4291,9,11.3655734,55.5407608
1605768,Sømarksvej,4291,10,11.3661624,55.5406551
1605772,Sømarksvej,4291,11,11.3654224,55.54091
1605773,Sømarksvej,4291,12,11.3662789,55.5406814
1605774,Sømarksvej,4291,14,11.3663952,55.5407078
1605776,Sømarksvej,4291,16,11.3660605,55.5408228
1605779,Sømarksvej,4291,18,11.3661748,55.5408485
1605780,Sømarksvej,4291,20,11.366294,55.540876
1605781,Sømarksvej,4291,22,11.3661053,55.5410238
1605784,Sømarksvej,4291,24,11.3662586,55.5410562
1605968,Buskysmindevej,4291,2A,11.3734152,55.5310128
1605969,Buskysmindevej,4291,2B,11.3754838,55.5310162
1605970,Buskysmindevej,4291,4,11.3769499,55.5309141
1606190,Tranemosevej,4291,1,11.3866339,55.5587386
1606191,Tranemosevej,4291,2,11.3885648,55.5588139
1606192,Tranemosevej,4291,2B,11.3887661,55.5589509
1606193,Tranemosevej,4291,2C,11.3885762,55.5591632
1606194,Tranemosevej,4291,3,11.3868076,55.5588465
1606195,Tranemosevej,4291,4,11.3891724,55.5594461
1606198,Tranemosevej,4291,5,11.3870306,55.559184
1606199,Tranemosevej,4291,6,11.3893584,55.559682
1606201,Tranemosevej,4291,7,11.3874397,55.5590185
1606202,Tranemosevej,4291,8,11.392536,55.56215
1606203,Tranemosevej,4291,9,11.3869505,55.5601514
1606204,Tranemosevej,4291,9A,11.3873081,55.5604382
1606205,Tranemosevej,4291,10,11.3930395,55.5658879
1606206,Tranemosevej,4291,11,11.3877913,55.5591031
1606207,Tranemosevej,4291,12,11.398996,55.568654
1606208,Tranemosevej,4291,13,11.3887452,55.559478
1606209,Tranemosevej,4291,14A,11.396085,55.569274
1606210,Tranemosevej,4291,14B,11.398279,55.570178
1606211,Tranemosevej,4291,15,11.3908346,55.5633592
1606212,Tranemosevej,4291,16,11.4016444,55.5727689
1606213,Tranemosevej,4291,17,11.3932745,55.5681137
1606214,Tranemosevej,4291,18,11.3995456,55.5744625
1606215,Tranemosevej,4291,19,11.3937276,55.5737273
1606216,Tranemosevej,4291,21,11.401126,55.576418
1606217,Tranemosevej,4291,23,11.4020228,55.5770027
1606218,Tranemosevej,4291,25,11.4045753,55.5788525
1606297,Vestermarken,4291,1,11.35928,55.5362493
1606299,Vestermarken,4291,4,11.3486352,55.5367466
1606301,Vestermarken,4291,5,11.3540883,55.5357359
1606302,Vestermarken,4291,6,11.3488342,55.5399662
1606305,Vestermarken,4291,7,11.3476599,55.5337371
1606307,Vestermarken,4291,8,11.3481585,55.5407783
1606308,Vestermarken,4291,9,11.345822,55.535772
1606310,Vestermarken,4291,10,11.342252,55.5393251
1606312,Vestermarken,4291,11,11.3477258,55.53654
1606313,Vestermarken,4291,12,11.338019,55.540416
1606315,Vestermarken,4291,15,11.3427561,55.5404583
1606317,Vestermarken,4291,17,11.3410301,55.5373425
1606320,Vestermarken,4291,19,11.3381388,55.5384932
1607322,Jernbanegade,4291,1,11.3755767,55.5410764
1607323,Jernbanegade,4291,3,11.3756333,55.5409301
1607324,Jernbanegade,4291,4,11.375229,55.5405341
1607325,Jernbanegade,4291,5,11.3756504,55.5407063
1607326,Jernbanegade,4291,6,11.3751133,55.5403659
1607327,Jernbanegade,4291,7A,11.3759129,55.5404474
1607328,Jernbanegade,4291,7B,11.3758732,55.5405368
1607329,Jernbanegade,4291,7C,11.3754518,55.540424
1607330,Jernbanegade,4291,7D,11.3754935,55.5404773
1607331,Jernbanegade,4291,8,11.3744034,55.5400906
1607332,Jernbanegade,4291,9,11.375091,55.5400514
1607334,Jernbanegade,4291,10A,11.3734012,55.540015
1607335,Jernbanegade,4291,10C,11.3734572,55.5403564
1607336,Jernbanegade,4291,10D,11.3727982,55.5401891
1607337,Jernbanegade,4291,12,11.3728845,55.5399277
1607339,Jernbanegade,4291,14,11.37256,55.5398798
1607647,Søparken,4291,1,11.367986,55.541279
1607648,Søparken,4291,2,11.3680469,55.5414987
1607649,Søparken,4291,3,11.3680127,55.5415321
1607650,Søparken,4291,4,11.3679785,55.5415656
1607651,Søparken,4291,5,11.3679434,55.5415989
1607652,Søparken,4291,10,11.3679428,55.5411823
1607653,Søparken,4291,11,11.3678401,55.5411322
1607654,Søparken,4291,12,11.3677866,55.5411841
1607655,Søparken,4291,13,11.367733,55.5412358
1607656,Søparken,4291,14,11.3676795,55.5412877
1607657,Søparken,4291,15,11.3676265,55.5413396
1607658,Søparken,4291,16,11.367573,55.5413913
1607659,Søparken,4291,17,11.3675194,55.5414433
1607660,Søparken,4291,18,11.3676491,55.5414699
1607661,Søparken,4291,19,11.3677286,55.5413932
1607662,Søparken,4291,20,11.3678076,55.5413168
1607663,Søparken,4291,21,11.3675539,55.5411472
1607664,Søparken,4291,22,11.3674593,55.5411158
1607665,Søparken,4291,23,11.3673647,55.5410843
1607666,Søparken,4291,24,11.3672701,55.541053
1607667,Søparken,4291,25,11.3671237,55.5409921
1607668,Søparken,4291,26,11.3670643,55.5410496
1607669,Søparken,4291,27,11.3669895,55.5411087
1607670,Søparken,4291,28,11.3669093,55.5411624
1607671,Søparken,4291,29,11.3668282,55.541216
1607672,Søparken,4291,30,11.3672959,55.5412247
1607673,Søparken,4291,31,11.367253,55.541284
1607674,Søparken,4291,32,11.3672105,55.5413442
1607895,Smedelodden,4291,1,11.38326,55.5376
1607897,Smedelodden,4291,5,11.3820565,55.5362386
1607905,Smedelodden,4291,7,11.3837722,55.5359055
1607909,Smedelodden,4291,8,11.38393,55.5328952
1607915,Smedelodden,4291,9,11.3840779,55.5351398
1607918,Smedelodden,4291,11,11.3848947,55.5338592
1607920,Smedelodden,4291,13,11.3856062,55.5325804
1607939,Kongstedvej,4291,1,11.3910632,55.555549
1607941,Kongstedvej,4291,2,11.3914117,55.5553728
1607942,Kongstedvej,4291,3,11.3915449,55.5559724
1607943,Kongstedvej,4291,4,11.3923479,55.5562073
1607945,Kongstedvej,4291,5,11.3918299,55.5563238
1607947,Kongstedvej,4291,6,11.3927345,55.5567944
1607948,Kongstedvej,4291,7,11.3932611,55.5582352
1607950,Kongstedvej,4291,8,11.39294,55.5570622
1607951,Kongstedvej,4291,9,11.393434,55.558495
1607953,Kongstedvej,4291,10,11.3936744,55.5573858
1607954,Kongstedvej,4291,11,11.3994396,55.56414
1607955,Kongstedvej,4291,12,11.3935617,55.557952
1607956,Kongstedvej,4291,13,11.408196,55.56402
1607957,Kongstedvej,4291,14,11.3937517,55.5581882
1607958,Kongstedvej,4291,15,11.4204818,55.5671756
1607959,Kongstedvej,4291,16,11.3937752,55.5583893
1607960,Kongstedvej,4291,17,11.4208175,55.5670374
1607961,Kongstedvej,4291,18,11.3943569,55.5588476
1607962,Kongstedvej,4291,19,11.4206968,55.5673718
1607963,Kongstedvej,4291,20,11.4028274,55.5608026
1607964,Kongstedvej,4291,22,11.4029184,55.5624672
1607965,Kongstedvej,4291,24,11.4065249,55.5601578
1607966,Kongstedvej,4291,26,11.4058865,55.5630531
1607967,Kongstedvej,4291,28,11.4113076,55.5621238
1607968,Kongstedvej,4291,30,11.409405,55.5599331
1608822,Nøddestivej,4291,4,11.4523446,55.5622789
1608824,Nøddestivej,4291,6,11.451812,55.5616
1608825,Sorøvej,4291,1,11.3847346,55.5412954
1608826,Sorøvej,4291,2,11.3836786,55.5411659
1608827,Sorøvej,4291,4,11.3841502,55.5411609
1608828,Sorøvej,4291,5,11.3860237,55.5411105
1608829,Sorøvej,4291,6,11.3852615,55.5409692
1608830,Sorøvej,4291,7,11.3862332,55.5410161
1608831,Sorøvej,4291,8,11.3854413,55.5407338
1608832,Sorøvej,4291,9A,11.3866401,55.5408608
1608833,Sorøvej,4291,10,11.3851618,55.5405422
1608834,Sorøvej,4291,12,11.3857246,55.5408671
1608836,Sorøvej,4291,14,11.3860581,55.5407976
1608839,Sorøvej,4291,16,11.3864161,55.5406678
1609594,Hybenvej,4291,1,11.3840489,55.5421954
1609596,Hybenvej,4291,2,11.3846946,55.5421356
1609598,Hybenvej,4291,3A,11.3841874,55.5421837
1609602,Hybenvej,4291,3B,11.3843259,55.5421727
1609605,Hybenvej,4291,4,11.3847395,55.5423059
1609608,Hybenvej,4291,5,11.384111,55.5424486
1609612,Hybenvej,4291,6,11.3847842,55.5424701
1609614,Hybenvej,4291,7A,11.3842526,55.5424348
1609618,Hybenvej,4291,7B,11.3843948,55.5424231
1609620,Hybenvej,4291,8,11.3848358,55.5426388
1609623,Hybenvej,4291,9,11.3841827,55.542684
1609626,Hybenvej,4291,10,11.3848835,55.5428036
1609629,Hybenvej,4291,11A,11.384322,55.542666
1609632,Hybenvej,4291,11B,11.3844626,55.5426547
1609635,Hybenvej,4291,12,11.3852423,55.5428793
1609639,Hybenvej,4291,13,11.3842522,55.5429258
1609640,Hybenvej,4291,15A,11.3843877,55.5429122
1609645,Hybenvej,4291,15B,11.3845237,55.5429
1609646,Hybenvej,4291,16,11.3851714,55.5435034
1609648,Hybenvej,4291,17,11.3844951,55.5431177
1609652,Hybenvej,4291,18,11.3852244,55.5436929
1609653,Hybenvej,4291,19,11.3846524,55.5433301
1609656,Hybenvej,4291,20,11.3853496,55.5438803
1609659,Hybenvej,4291,21,11.3847559,55.5435865
1609661,Hybenvej,4291,22,11.3854631,55.5440796
1609664,Hybenvej,4291,23,11.384789,55.5437771
1609666,Hybenvej,4291,24,11.3854323,55.5442745
1609669,Hybenvej,4291,25,11.3848746,55.5439973
1609671,Hybenvej,4291,26,11.3855591,55.5444599
1609674,Hybenvej,4291,27,11.3849173,55.5442309
1609678,Hybenvej,4291,28,11.3854845,55.5446764
1609679,Hybenvej,4291,29,11.3849874,55.544404
1609680,Hybenvej,4291,30,11.3855786,55.5448602
1609681,Hybenvej,4291,31,11.385048,55.5446021
1609683,Hybenvej,4291,33,11.3851181,55.5448345
1609684,Hybenvej,4291,34,11.3857308,55.5454962
1609685,Hybenvej,4291,35,11.3851407,55.5450617
1609687,Hybenvej,4291,37,11.3852404,55.5452596
1609689,Hybenvej,4291,39,11.3853072,55.5455441
1609759,Lindevej,4291,1,11.3838483,55.5403312
1609763,Lindevej,4291,2,11.3837093,55.5399712
1609766,Lindevej,4291,3A,11.3841291,55.5402486
1609770,Lindevej,4291,4A,11.384662,55.5394288
1609774,Lindevej,4291,4B,11.3847553,55.5399158
1609775,Lindevej,4291,5,11.3851217,55.5401683
1609779,Lindevej,4291,6,11.3850528,55.5397971
1609781,Lindevej,4291,7,11.3855726,55.5401174
1609782,Lindevej,4291,8,11.3853685,55.5398617
1609783,Lindevej,4291,9,11.385842,55.5401002
1609784,Lindevej,4291,10,11.3858379,55.5398546
1609785,Lindevej,4291,11,11.3861075,55.5401683
1609786,Lindevej,4291,12,11.3861629,55.5397739
1609787,Lindevej,4291,13,11.386452,55.5401381
1609788,Lindevej,4291,15,11.3866988,55.5401271
1609839,Vævervænget,4291,1,11.4089759,55.5481795
1609841,Vævervænget,4291,2,11.414076,55.5473303
1609842,Vævervænget,4291,3,11.4126098,55.5485151
1610415,Moltkesvej,4291,1,11.4204725,55.5377259
1610417,Moltkesvej,4291,2,11.4202465,55.5376288
1610418,Moltkesvej,4291,3,11.4213263,55.5351933
1610419,Moltkesvej,4291,4A,11.420343,55.5370509
1610420,Moltkesvej,4291,4B,11.4203889,55.5369127
1610421,Moltkesvej,4291,6,11.4197366,55.5318161
1610422,Moltkesvej,4291,8,11.4217662,55.5322048
1610763,Sønderødvej,4291,2A,11.382282,55.5793536
1610767,Sønderødvej,4291,2B,11.3835499,55.5795164
1610772,Sønderødvej,4291,3A,11.38444,55.57992
1610776,Sønderødvej,4291,3B,11.384833,55.579818
1610781,Sønderødvej,4291,4,11.3840177,55.5795822
1610787,Sønderødvej,4291,5,11.3866345,55.5800781
1610793,Sønderødvej,4291,6,11.3847779,55.5795743
1610795,Sønderødvej,4291,7,11.3877465,55.5802362
1610798,Sønderødvej,4291,8,11.386554,55.579255
1610799,Sønderødvej,4291,9,11.3943145,55.5817396
1610800,Sønderødvej,4291,10,11.3938005,55.5770507
1610804,Sønderødvej,4291,11,11.3950747,55.5849012
1610806,Sønderødvej,4291,12,11.3877017,55.579859
1610807,Sønderødvej,4291,13,11.3999939,55.5801192
1610812,Sønderødvej,4291,14,11.3894287,55.5799316
1610816,Sønderødvej,4291,16,11.3889139,55.5803726
1610818,Sønderødvej,4291,17,11.4039853,55.5798318
1610820,Sønderødvej,4291,18,11.3939488,55.5802786
1610821,Sønderødvej,4291,18A,11.4151403,55.576062
1610822,Sønderødvej,4291,19,11.409838,55.578422
1610823,Sønderødvej,4291,20,11.4155029,55.575958
1610824,Sønderødvej,4291,21,11.415995,55.576029
1610825,Sønderødvej,4291,22A,11.4192654,55.568495
1610826,Sønderødvej,4291,22B,11.4201392,55.5683408
1610827,Sønderødvej,4291,23,11.4166534,55.5754664
1610828,Sønderødvej,4291,24,11.424162,55.5639707
1610829,Sønderødvej,4291,25,11.4311151,55.5610584
1610830,Sønderødvej,4291,26,11.4293115,55.5594344
1610831,Sønderødvej,4291,27,11.4318134,55.5604837
1610832,Sønderødvej,4291,28,11.4309818,55.560817
1610834,Sønderødvej,4291,29,11.4325409,55.5599677
1610836,Sønderødvej,4291,30,11.4315488,55.5604292
1610837,Sønderødvej,4291,31,11.4335309,55.5592917
1610838,Almagervej,4291,1,11.3780876,55.5685337
1610839,Almagervej,4291,1A,11.378298,55.5683152
1610840,Sønderødvej,4291,32,11.4318086,55.5602501
1610841,Almagervej,4291,2,11.3778287,55.5692968
1610844,Almagervej,4291,3,11.3806587,55.5718277
1610845,Almagervej,4291,4,11.3761061,55.5716502
1610846,Sønderødvej,4291,33,11.4379897,55.5587954
1610849,Sønderødvej,4291,34,11.4323537,55.559878
1610852,Sønderødvej,4291,35,11.4395836,55.5589732
1610856,Sønderødvej,4291,36,11.4272049,55.5575979
1610858,Sønderødvej,4291,38,11.4324949,55.559761
1610862,Sønderødvej,4291,40,11.4332786,55.5575561
1610886,Topperne,4291,2,11.3696704,55.517449
1610888,Topperne,4291,3,11.3694443,55.5159193
1610889,Topperne,4291,4,11.3696224,55.5137908
1610890,Topperne,4291,5,11.370504,55.5133214
1611220,Møllemarksvej,4291,1,11.3823883,55.5415669
1611222,Møllemarksvej,4291,2,11.3829909,55.5418284
1611224,Møllemarksvej,4291,3,11.3818984,55.5417305
1611226,Møllemarksvej,4291,4,11.3832177,55.5423931
1611227,Møllemarksvej,4291,5,11.3819734,55.5420059
1611230,Møllemarksvej,4291,6A,11.3832432,55.5425836
1611231,Møllemarksvej,4291,6B,11.3832567,55.5426306
1611233,Møllemarksvej,4291,7,11.3825384,55.5419803
1611236,Møllemarksvej,4291,8,11.3832394,55.5427903
1611238,Møllemarksvej,4291,9,11.382607,55.5424227
1611242,Møllemarksvej,4291,10,11.383259,55.5429968
1611245,Møllemarksvej,4291,11,11.3826341,55.5426163
1611248,Møllemarksvej,4291,12,11.3835166,55.5431661
1611250,Møllemarksvej,4291,13,11.382722,55.5429
1611254,Møllemarksvej,4291,14,11.3834144,55.543395
1611258,Møllemarksvej,4291,15,11.3828343,55.5431031
1611260,Møllemarksvej,4291,16,11.3836525,55.5435259
1611262,Møllemarksvej,4291,17,11.3828,55.543296
1611263,Møllemarksvej,4291,18,11.3835191,55.5437973
1611266,Møllemarksvej,4291,19,11.382828,55.543473
1611269,Møllemarksvej,4291,20,11.3835808,55.5439397
1611270,Møllemarksvej,4291,21,11.382824,55.543675
1611272,Møllemarksvej,4291,22,11.3837037,55.5441488
1611273,Møllemarksvej,4291,23,11.382872,55.543835
1611276,Møllemarksvej,4291,24,11.3836487,55.544325
1611279,Møllemarksvej,4291,25,11.383086,55.5440016
1611280,Møllemarksvej,4291,26,11.383925,55.5444848
1611282,Møllemarksvej,4291,27,11.383141,55.54416
1611283,Møllemarksvej,4291,28,11.3839368,55.5446736
1611286,Møllemarksvej,4291,29,11.383175,55.544332
1611288,Møllemarksvej,4291,30,11.3839624,55.5449548
1611289,Møllemarksvej,4291,31,11.3832288,55.5445139
1611292,Møllemarksvej,4291,611,11.3817784,55.5426077
2138764,Birkebjergvej,4291,1,11.3525467,55.5539744
2138774,Birkebjergvej,4291,2,11.3509772,55.555166
2138778,Birkebjergvej,4291,3,11.353183,55.55356
2138789,Birkebjergvej,4291,4,11.3580686,55.5521843
2142703,Hestehaven,4291,15,11.3981438,55.5501111
2142708,Hestehaven,4291,26,11.4042025,55.5486678
2142712,Hestehaven,4291,28,11.403766,55.5496962
2142714,Hestehaven,4291,30,11.4035851,55.5504809
2142720,Hestehaven,4291,32,11.3995582,55.5505361
2142727,Hestehaven,4291,34,11.3966026,55.551829
2144896,Kragevigvej,4291,1,11.4072885,55.5159763
2144909,Kragevigvej,4291,2,11.4077945,55.5158057
2144918,Kragevigvej,4291,3,11.4109019,55.5258591
2144921,Kragevigvej,4291,4,11.4085027,55.5219312
2144928,Kragevigvej,4291,5,11.4053884,55.5256032
2144934,Kragevigvej,4291,6,11.4104639,55.5238819
2144942,Kragevigvej,4291,8,11.4112314,55.5257537
2144949,Kragevigvej,4291,10,11.411208,55.526647
2144953,Kragevigvej,4291,12,11.4098112,55.5262224
2144962,Kragevigvej,4291,14,11.4075795,55.5274004
2148141,Rugskovvej,4291,1,11.393217,55.5085055
2148146,Rugskovvej,4291,2,11.3946464,55.5086433
2148160,Rugskovvej,4291,3,11.3968009,55.5092946
2148176,Rugskovvej,4291,4,11.4021852,55.5079946
2148198,Rugskovvej,4291,5,11.3974922,55.5094774
2148201,Rugskovvej,4291,6,11.401948,55.507978
2148213,Rugskovvej,4291,7,11.3981957,55.5094893
2148652,Slagelsevej,4291,34A,11.355585,55.527639
2179428,Lersøparken,4291,1,11.368444,55.536913
2179429,Lersøparken,4291,2,11.3685814,55.5372104
2179430,Lersøparken,4291,3,11.3682786,55.5370367
2179431,Lersøparken,4291,4,11.3684791,55.5372876
2179432,Lersøparken,4291,5,11.3681063,55.5371454
2179433,Lersøparken,4291,6,11.3683768,55.5373647
2179434,Lersøparken,4291,7,11.3679511,55.5372659
2179435,Lersøparken,4291,8,11.368213,55.5374703
2179436,Lersøparken,4291,9,11.3677734,55.5373743
2179439,Lersøparken,4291,10,11.3681114,55.5375468
2179444,Lersøparken,4291,12,11.36801,55.5376232
2179449,Lersøparken,4291,14,11.3678479,55.5377368
2179450,Lersøparken,4291,22,11.3681083,55.5363685
2179455,Lersøparken,4291,24,11.3678232,55.5364725
2179457,Lersøparken,4291,26,11.3674919,55.536284
2179460,Lersøparken,4291,28,11.3673616,55.5360897
2179464,Lersøparken,4291,30,11.3671777,55.5358988
2179467,Lersøparken,4291,32,11.36704,55.535701
2179469,Lersøparken,4291,34,11.3668136,55.535526
2179472,Lersøparken,4291,36,11.3669883,55.5353569
2180420,Reerslevvej,4291,4,11.391239,55.5502803
2181033,Smedebakken,4291,1,11.381233,55.53805
2181035,Smedebakken,4291,3,11.381391,55.538277
2181038,Smedebakken,4291,5,11.381792,55.538408
2181040,Smedebakken,4291,7,11.381953,55.538163
2181044,Smedebakken,4291,9,11.382456,55.538238
2181048,Smedebakken,4291,11,11.382435,55.538442
2181049,Smedebakken,4291,13,11.382869,55.538572
2181053,Smedebakken,4291,15,11.382994,55.538328
2181057,Smedebakken,4291,24,11.382138,55.537606
2181062,Smedebakken,4291,26,11.382064,55.53772
2181064,Smedebakken,4291,28,11.381985,55.537767
2181067,Smedebakken,4291,30,11.381919,55.537819
2181068,Smedebakken,4291,32,11.382364,55.537913
2181072,Smedebakken,4291,34,11.382426,55.537867
2181075,Smedebakken,4291,36,11.382498,55.537821
2181077,Smedebakken,4291,38,11.382605,55.537706
2181081,Smedebakken,4291,40,11.382719,55.537634
2181082,Smedebakken,4291,42,11.38308,55.537704
2181083,Smedebakken,4291,44,11.382973,55.537769
2181085,Smedebakken,4291,46,11.382893,55.537892
2181088,Smedebakken,4291,48,11.382804,55.537944
2181089,Smedebakken,4291,50,11.383241,55.537865
2181091,Smedebakken,4291,52,11.383375,55.537932
2181095,Smedebakken,4291,54,11.383796,55.538206
2181096,Smedebakken,4291,56,11.383893,55.538117
2181098,Smedebakken,4291,58,11.384047,55.538271
2181102,Smedebakken,4291,60,11.383687,55.538653
2181104,Smedebakken,4291,62,11.383307,55.538675
2181106,Smedebakken,4291,64,11.383372,55.538585
2181107,Smedebakken,4291,66,11.383476,55.538454
2181110,Smedebakken,4291,68,11.38358,55.538366
2181112,Smedebakken,4291,70,11.3838,55.537711
2181115,Smedebakken,4291,74,11.383865,55.537516
2181116,Smedebakken,4291,76,11.383859,55.537456
2181120,Smedebakken,4291,78,11.38388,55.537395
2181125,Smedebakken,4291,82,11.384087,55.537228
2181127,Smedebakken,4291,84,11.384183,55.537178
2181129,Smedebakken,4291,86,11.3843,55.537084
2181132,Smedebakken,4291,88,11.384384,55.537031
2181134,Smedebakken,4291,90,11.384478,55.53698
2181138,Smedebakken,4291,92,11.384822,55.537195
2181142,Smedebakken,4291,94,11.38493,55.537177
2181143,Smedebakken,4291,96,11.385139,55.537352
2181148,Smedebakken,4291,98,11.385243,55.53733
2181149,Smedebakken,4291,100,11.385467,55.537504
2181153,Smedebakken,4291,102,11.385574,55.537488
2181156,Smedebakken,4291,104,11.385587,55.537629
2181158,Smedebakken,4291,106,11.38553,55.537678
2181162,Smedebakken,4291,108,11.385468,55.537732
2181163,Smedebakken,4291,110,11.385371,55.537789
2181167,Smedebakken,4291,112,11.385309,55.537854
2181169,Smedebakken,4291,114,11.385174,55.537976
2181172,Smedebakken,4291,116,11.385115,55.53802
2181177,Smedebakken,4291,118,11.385069,55.538069
2181178,Smedebakken,4291,120,11.384986,55.538137
2181183,Smedebakken,4291,122,11.384564,55.538134
2181185,Smedebakken,4291,124,11.38447,55.538089
2181189,Smedebakken,4291,126,11.384367,55.538054
2181191,Smedebakken,4291,128,11.38422,55.537973
2181194,Smedebakken,4291,130,11.384126,55.537918
2181198,Smedebakken,4291,132,11.384033,55.537881
2181200,Smedebakken,4291,134,11.384241,55.537591
2181204,Smedebakken,4291,136,11.384254,55.537514
2181207,Smedebakken,4291,138,11.38438,55.53738
2181210,Smedebakken,4291,140,11.384451,55.537331
2181211,Smedebakken,4291,142,11.384538,55.537287
2181213,Smedebakken,4291,144,11.384752,55.537443
2181215,Smedebakken,4291,146,11.384836,55.537482
2181217,Smedebakken,4291,148,11.385111,55.537577
2181218,Smedebakken,4291,150,11.38507,55.537634
2181221,Smedebakken,4291,152,11.385013,55.537678
2181222,Smedebakken,4291,154,11.384943,55.537739
2181225,Smedebakken,4291,156,11.384847,55.537835
2181227,Smedebakken,4291,158,11.384785,55.537883
2181230,Smedebakken,4291,160,11.38472,55.537934
2199149,Rudsgade,4291,32D,11.376811,55.541389
2200268,Smedelunden,4291,2,11.382651,55.536767
2200269,Smedelunden,4291,3,11.382651,55.536767
2200270,Smedelunden,4291,4,11.382651,55.536767
2200271,Smedelunden,4291,5,11.382651,55.536767
2200272,Smedelunden,4291,6,11.382651,55.536767
2200273,Smedelunden,4291,7,11.382651,55.536767
2200274,Smedelunden,4291,8,11.382651,55.536767
2200275,Smedelunden,4291,9,11.382651,55.536767
2200276,Smedelunden,4291,10,11.382651,55.536767
2200277,Smedelunden,4291,11,11.382651,55.536767
2200278,Smedelunden,4291,12,11.382651,55.536767
2200279,Smedelunden,4291,13,11.382651,55.536767
2200280,Smedelunden,4291,14,11.382651,55.536767
2200281,Smedelunden,4291,15,11.382651,55.536767
2200282,Smedelunden,4291,16,11.382651,55.536767
2200283,Smedelunden,4291,17,11.382651,55.536767
2200284,Smedelunden,4291,18,11.382651,55.536767
2200285,Smedelunden,4291,19,11.382651,55.536767
2200286,Smedelunden,4291,20,11.382651,55.536767
2200287,Smedelunden,4291,21,11.382651,55.536767
2200288,Smedelunden,4291,22,11.382651,55.536767
2200289,Smedelunden,4291,23,11.382651,55.536767
2200290,Smedelunden,4291,24,11.382651,55.536767
2200291,Smedelunden,4291,26,11.382651,55.536767
2200292,Smedelunden,4291,28,11.382651,55.536767
2200293,Smedelunden,4291,30,11.382651,55.536767
2200294,Smedelunden,4291,32,11.382651,55.536767
2200295,Smedelunden,4291,34,11.382651,55.536767
2200296,Smedelunden,4291,36,11.382651,55.536767
2200297,Smedelunden,4291,38,11.382651,55.536767
2200298,Smedelunden,4291,40,11.382651,55.536767
2228416,Nykøbingvej,4291,56A,11.3998319,55.5001685
2228417,Nykøbingvej,4291,56B,11.395954,55.501789
2228418,Nykøbingvej,4291,56C,11.392012,55.503364
2228419,Nykøbingvej,4291,56D,11.403914,55.498659
2228420,Nykøbingvej,4291,56E,11.407895,55.497049
2228421,Nykøbingvej,4291,56F,11.411948,55.495584
2231635,Jyderupvej,4291,71,11.383041,55.563841
2231636,Jyderupvej,4291,72,11.384341,55.566796
2231637,Jyderupvej,4291,73,11.382694,55.565332
2231638,Jyderupvej,4291,74,11.384874,55.568409
2231639,Jyderupvej,4291,75,11.382247,55.572899
2231640,Jyderupvej,4291,76,11.384348,55.570728
2231641,Jyderupvej,4291,77,11.381443,55.574003
2231642,Jyderupvej,4291,78,11.389104,55.574841
2231643,Jyderupvej,4291,79,11.378887,55.574996
2231644,Jyderupvej,4291,80,11.384183,55.580737
2231659,Slagelsevej,4291,5D,11.371998,55.540006
2231695,Ougtvedvej,4291,5,11.3484033,55.549959
2231696,Ougtvedvej,4291,6,11.3497339,55.5545298
2231697,Ougtvedvej,4291,7,11.349919,55.555742
2231746,Reerslevvej,4291,13B,11.389419,55.554961
2231836,Kongstedvej,4291,4B,11.39252,55.556497
2231837,Kongstedvej,4291,13A,11.407889,55.563925
2239520,Rudsgade,4291,14,11.37412,55.54096
2242753,Lersøparken,4291,11,11.3676179,55.5374973
2247865,Nykøbingvej,4291,58A,11.3819106,55.4945933
2247888,Reerslevvej,4291,13A,11.389928,55.555229
