idx,street,postcode,housenumber,lon,lat
867364,Sandmandsvej,4673,2,12.3679658,55.2544759
867365,Sandmandsvej,4673,2A,12.367952,55.254813
867366,Sandmandsvej,4673,2B,12.367811,55.25478
867367,Sandmandsvej,4673,2C,12.367649,55.254742
867368,Sandmandsvej,4673,2D,12.367481,55.254694
867369,Sandmandsvej,4673,2E,12.367235,55.2548
867370,Sandmandsvej,4673,2F,12.367083,55.254754
867371,Sandmandsvej,4673,2G,12.367009,55.254576
867372,Sandmandsvej,4673,2H,12.366786,55.254661
867373,Sandmandsvej,4673,3,12.368233,55.254964
867374,Sandmandsvej,4673,4,12.368079,55.254343
867375,Sandmandsvej,4673,6,12.3681473,55.2542239
867376,Sandmandsvej,4673,8,12.3681649,55.2541085
867377,Sandmandsvej,4673,15,12.3685985,55.253868
867378,Klintebakken,4673,1,12.368379,55.253697
867379,Klintebakken,4673,2,12.368296,55.253919
867380,Klintebakken,4673,3,12.368169,55.2536364
867381,Klintebakken,4673,4,12.3679676,55.2538164
867382,Klintebakken,4673,5,12.367986,55.253613
867383,Klintebakken,4673,6,12.3678017,55.2537404
867384,Klintebakken,4673,7,12.3676363,55.2534933
867385,Klintebakken,4673,8,12.3675871,55.2536708
867386,Klintebakken,4673,9,12.3674495,55.2534171
867387,Klintebakken,4673,10,12.3672547,55.2535378
867388,Klintebakken,4673,11,12.367332,55.253317
867389,Knudsvej,4673,3,12.3689255,55.2549442
867390,Knudsvej,4673,4,12.368409,55.255026
867391,Knudsvej,4673,5,12.3686952,55.2548837
867392,Knudsvej,4673,9,12.3688395,55.2543637
867394,Højvang,4673,2,12.3691473,55.2541189
867396,Højvang,4673,4,12.3694799,55.2542422
867397,Højvang,4673,5,12.3693692,55.2543641
867398,Højvang,4673,6,12.369724,55.254322
867428,Rødvig Strandvej,4673,1,12.3719394,55.2562897
867429,Rødvig Strandvej,4673,2,12.3717473,55.256536
867430,Rødvig Strandvej,4673,3,12.371563,55.256202
867431,Rødvig Strandvej,4673,4,12.3714665,55.2565221
867432,Rødvig Strandvej,4673,5,12.3711398,55.256156
867433,Rødvig Strandvej,4673,6,12.3712142,55.2564748
867434,Rødvig Strandvej,4673,7,12.37085,55.2560842
867435,Rødvig Strandvej,4673,8,12.370903,55.256326
867436,Rødvig Strandvej,4673,9,12.370178,55.255945
867437,Rødvig Strandvej,4673,10,12.370595,55.256235
867438,Rødvig Strandvej,4673,11,12.3698418,55.2557768
867439,Rødvig Strandvej,4673,12,12.370291,55.256193
867440,Rødvig Strandvej,4673,13,12.3695925,55.2556959
867441,Rødvig Strandvej,4673,14,12.3699239,55.2561271
867442,Rødvig Strandvej,4673,15,12.3691052,55.2555364
867443,Rødvig Strandvej,4673,16,12.3696901,55.2560708
867444,Rødvig Strandvej,4673,17,12.368764,55.255428
867445,Rødvig Strandvej,4673,18,12.3693595,55.2559849
867446,Rødvig Strandvej,4673,19,12.368119,55.2553477
867447,Rødvig Strandvej,4673,19A,12.368038,55.255067
867448,Rødvig Strandvej,4673,20,12.3691282,55.2559332
867449,Rødvig Strandvej,4673,21,12.367787,55.255225
867450,Rødvig Strandvej,4673,22,12.3688911,55.255854
867451,Rødvig Strandvej,4673,23,12.367065,55.255078
867452,Rødvig Strandvej,4673,24,12.3686674,55.2558041
867453,Rødvig Strandvej,4673,25,12.366811,55.254987
867454,Rødvig Strandvej,4673,26,12.3684345,55.2557472
867455,Rødvig Strandvej,4673,27,12.366465,55.254805
867456,Rødvig Strandvej,4673,27A,12.3662171,55.2547363
867457,Rødvig Strandvej,4673,28,12.368203,55.255685
867458,Rødvig Strandvej,4673,29,12.3658146,55.2545718
867459,Rødvig Strandvej,4673,30,12.3680052,55.2556286
867460,Rødvig Strandvej,4673,31,12.365341,55.25458
867461,Rødvig Strandvej,4673,31A,12.3652634,55.2545532
867462,Rødvig Strandvej,4673,31B,12.3654014,55.2545907
867463,Rødvig Strandvej,4673,31C,12.3655938,55.2545461
867464,Rødvig Strandvej,4673,32,12.3677799,55.2555729
867465,Rødvig Strandvej,4673,34,12.367543,55.255512
867466,Rødvig Strandvej,4673,35,12.3649022,55.254497
867467,Rødvig Strandvej,4673,36,12.367312,55.255336
867468,Rødvig Strandvej,4673,37,12.364588,55.254449
867469,Rødvig Strandvej,4673,38,12.367035,55.255278
867470,Rødvig Strandvej,4673,39,12.364012,55.254314
867471,Rødvig Strandvej,4673,40,12.366636,55.255189
867472,Rødvig Strandvej,4673,41,12.3635509,55.2542103
867473,Rødvig Strandvej,4673,42,12.366354,55.2551211
867474,Rødvig Strandvej,4673,43,12.363098,55.254135
867475,Rødvig Strandvej,4673,44,12.3659437,55.2550628
867476,Rødvig Strandvej,4673,45,12.3628023,55.2540914
867477,Rødvig Strandvej,4673,46,12.3656818,55.2549869
867478,Rødvig Strandvej,4673,47,12.362385,55.254065
867479,Rødvig Strandvej,4673,48,12.3654444,55.2549311
867480,Rødvig Strandvej,4673,49,12.361995,55.253986
867481,Rødvig Strandvej,4673,50,12.3651781,55.2548337
867482,Rødvig Strandvej,4673,51,12.3616517,55.2539598
867483,Rødvig Strandvej,4673,53,12.361297,55.2538919
867484,Rødvig Strandvej,4673,54,12.3643124,55.2546001
867485,Rødvig Strandvej,4673,55,12.360979,55.253864
867486,Rødvig Strandvej,4673,58,12.363737,55.254594
867487,Rødvig Strandvej,4673,60,12.3631148,55.2544087
867488,Rødvig Strandvej,4673,61,12.3603652,55.2540011
867489,Rødvig Strandvej,4673,62,12.3628102,55.254357
867490,Rødvig Strandvej,4673,63,12.360352,55.254261
867491,Rødvig Strandvej,4673,64,12.3624471,55.2543161
867492,Rødvig Strandvej,4673,66,12.3620851,55.2543136
867493,Rødvig Strandvej,4673,68,12.3617514,55.2542286
867494,Rødvig Strandvej,4673,70,12.3613565,55.2541753
867495,Rødvig Strandvej,4673,72,12.3610307,55.2541703
1477550,Jørgensvej,4673,1,12.364565,55.253674
1477553,Jørgensvej,4673,3,12.3647284,55.2534317
1477554,Jørgensvej,4673,5,12.364996,55.2530639
1477556,Jørgensvej,4673,7,12.3651907,55.252883
1477558,Jørgensvej,4673,8,12.3647247,55.2527107
1477561,Jørgensvej,4673,9,12.3651008,55.252589
1477563,Jørgensvej,4673,11,12.3654151,55.2523653
1477661,Murervej,4673,1,12.389985,55.273719
1477663,Murervej,4673,3,12.3916826,55.2732976
1477665,Murervej,4673,5,12.3918961,55.273445
1477667,Murervej,4673,7,12.3920668,55.2733175
1477669,Murervej,4673,9,12.392793,55.273543
1477671,Murervej,4673,11,12.393043,55.2731348
1477697,Vissemosevej,4673,3,12.3384043,55.2678789
1477703,Vissemosevej,4673,4,12.3375171,55.267774
1477706,Vissemosevej,4673,6,12.3377631,55.2676391
1477709,Vissemosevej,4673,8,12.3380866,55.2671866
1477711,Vissemosevej,4673,9,12.338257,55.267463
1477713,Vissemosevej,4673,10,12.337962,55.266695
1477716,Vissemosevej,4673,11,12.338295,55.265754
1477718,Vissemosevej,4673,12,12.337366,55.266399
1477720,Vissemosevej,4673,14,12.334525,55.26454
1477722,Vissemosevej,4673,16,12.3326542,55.2610379
1479343,Vemmetoftevej,4673,1,12.3799446,55.2572782
1479348,Vemmetoftevej,4673,2,12.3804546,55.2577331
1479349,Vemmetoftevej,4673,3,12.3790561,55.2575558
1479353,Vemmetoftevej,4673,5,12.377412,55.257457
1479355,Vemmetoftevej,4673,6,12.378792,55.257999
1479359,Vemmetoftevej,4673,7,12.3689659,55.2569646
1479361,Vemmetoftevej,4673,8,12.3775331,55.2582668
1479363,Vemmetoftevej,4673,8A,12.378035,55.258087
1479366,Vemmetoftevej,4673,10,12.3767543,55.2580909
1480563,Agertoften,4673,1,12.3848415,55.2578195
1480565,Agertoften,4673,2,12.3851591,55.2577097
1480567,Agertoften,4673,3,12.3850249,55.2581357
1480568,Agertoften,4673,4,12.3854407,55.2580202
1481262,Strandstræde,4673,2A,12.3598279,55.253385
1481265,Strandstræde,4673,3,12.360823,55.25364
1481268,Strandstræde,4673,4,12.360203,55.253331
1481270,Strandstræde,4673,5,12.3607962,55.253462
1481273,Strandstræde,4673,6,12.3603547,55.2530694
1481276,Strandstræde,4673,7,12.3608236,55.2532721
1481278,Strandstræde,4673,9,12.360689,55.2528961
1481282,Strandstræde,4673,10,12.3602979,55.2523281
1481284,Strandstræde,4673,12,12.3601441,55.2521433
1481288,Strandstræde,4673,13,12.3607524,55.2525614
1481294,Strandstræde,4673,14,12.3603431,55.2519336
1481297,Strandstræde,4673,15,12.360677,55.2520994
1481300,Strandstræde,4673,16,12.3600663,55.2517274
1481304,Strandstræde,4673,17,12.3606615,55.2518084
1481309,Strandstræde,4673,18,12.360336,55.251523
1481314,Strandstræde,4673,18A,12.360056,55.25125
1481318,Strandstræde,4673,18B,12.359478,55.251178
1481322,Strandstræde,4673,20,12.3602943,55.2508563
1481326,Strandstræde,4673,21,12.3607325,55.2514264
1481328,Strandstræde,4673,25,12.3607318,55.2509425
1481334,Strandstræde,4673,27,12.360633,55.250592
1481336,Strandstræde,4673,29,12.3607637,55.2502226
1481341,Strandstræde,4673,31,12.3606413,55.2498931
1481345,Strandstræde,4673,33,12.3612197,55.2493681
1481937,Stevnsbovej,4673,3,12.3175237,55.242744
1481939,Stevnsbovej,4673,5,12.3175403,55.2416486
1481941,Stevnsbovej,4673,6,12.317206,55.2393528
1481943,Stevnsbovej,4673,6A,12.3171459,55.2393305
1481945,Stevnsbovej,4673,6B,12.3169355,55.2393301
1481946,Stevnsbovej,4673,6C,12.3167258,55.2393299
1481949,Stevnsbovej,4673,7,12.31855,55.239811
1482636,Thorsvej,4673,1,12.373545,55.257776
1482638,Thorsvej,4673,2,12.372976,55.257828
1482640,Thorsvej,4673,2A,12.3730291,55.2578843
1482642,Thorsvej,4673,2B,12.372651,55.257824
1482645,Thorsvej,4673,3,12.3739777,55.2578373
1482649,Thorsvej,4673,5,12.3746092,55.257823
1482654,Thorsvej,4673,7,12.3754963,55.2578761
1482655,Thorsvej,4673,16,12.3753357,55.2575014
1482658,Thorsvej,4673,18,12.375879,55.257616
1483188,Skørpinge Mark,4673,2,12.37245,55.256565
1483190,Skørpinge Mark,4673,3,12.371913,55.2568183
1483192,Skørpinge Mark,4673,4,12.3724083,55.256748
1483194,Skørpinge Mark,4673,5,12.3715604,55.2570805
1483196,Skørpinge Mark,4673,6,12.3722986,55.2568838
1483198,Skørpinge Mark,4673,7,12.3712213,55.2574727
1483200,Skørpinge Mark,4673,8,12.3721318,55.2570586
1483202,Skørpinge Mark,4673,10,12.372022,55.257292
1483204,Skørpinge Mark,4673,12,12.3717696,55.2573999
1483206,Skørpinge Mark,4673,12A,12.37238,55.257606
1483208,Skørpinge Mark,4673,14,12.371705,55.257602
1483211,Skørpinge Mark,4673,15,12.367135,55.257963
1483212,Skørpinge Mark,4673,16,12.370883,55.259629
1483214,Skørpinge Mark,4673,17,12.3697817,55.2614578
1483216,Skørpinge Mark,4673,19,12.3643797,55.2629399
1483218,Skørpinge Mark,4673,20,12.3697875,55.2620964
1483220,Skørpinge Mark,4673,22,12.369298,55.264235
1483221,Skørpinge Mark,4673,22A,12.3695197,55.2645246
1483224,Skørpinge Mark,4673,25,12.3682303,55.2647981
1483227,Skørpinge Mark,4673,26,12.367258,55.268287
1483230,Skørpinge Mark,4673,27,12.3681435,55.2650448
1483234,Skørpinge Mark,4673,28,12.3670685,55.2684815
1483237,Skørpinge Mark,4673,29,12.3680713,55.2654173
1483241,Skørpinge Mark,4673,31,12.3671393,55.2674629
1483244,Skørpinge Mark,4673,33,12.3670881,55.267757
1484677,Stranddalsvej,4673,1,12.360356,55.254701
1484678,Stranddalsvej,4673,2,12.3605202,55.255159
1484681,Stranddalsvej,4673,4,12.360281,55.255675
1484833,Poppelager,4673,1,12.3595535,55.2479044
1484834,Poppelager,4673,3,12.3591686,55.2479557
1484835,Poppelager,4673,5,12.358875,55.247941
1484836,Poppelager,4673,7,12.358441,55.247842
1485107,Korsnæbsvej,4673,2,12.381278,55.258273
1485109,Korsnæbsvej,4673,4,12.381807,55.25809
1485111,Korsnæbsvej,4673,5,12.3822682,55.2583506
1485112,Korsnæbsvej,4673,6,12.3820138,55.2580529
1485115,Korsnæbsvej,4673,7,12.3825191,55.2582499
1485117,Korsnæbsvej,4673,8,12.3825149,55.2579134
1485119,Korsnæbsvej,4673,9,12.382854,55.258246
1485122,Korsnæbsvej,4673,10,12.3832222,55.2577671
1485124,Korsnæbsvej,4673,11,12.3831195,55.2581316
1485127,Korsnæbsvej,4673,12,12.3837926,55.2576247
1485129,Korsnæbsvej,4673,13,12.3834103,55.2580721
1485133,Korsnæbsvej,4673,14,12.3844607,55.2574522
1485136,Korsnæbsvej,4673,15,12.383723,55.2580304
1485140,Korsnæbsvej,4673,16,12.3850495,55.257297
1485143,Korsnæbsvej,4673,17,12.3839312,55.2579344
1485144,Korsnæbsvej,4673,18,12.385357,55.257214
1485148,Korsnæbsvej,4673,19,12.3843308,55.2578459
1485151,Korsnæbsvej,4673,25,12.3856324,55.2575772
1485153,Korsnæbsvej,4673,27,12.3860149,55.2575343
1485156,Korsnæbsvej,4673,28,12.390087,55.258214
1485162,Korsnæbsvej,4673,30,12.396516,55.2607955
1485164,Korsnæbsvej,4673,31,12.3943988,55.2603466
1485169,Korsnæbsvej,4673,32,12.3975183,55.2612447
1485171,Korsnæbsvej,4673,33,12.3958637,55.2609798
1485173,Korsnæbsvej,4673,34,12.397806,55.2614367
1485178,Korsnæbsvej,4673,36,12.398349,55.261579
1485181,Korsnæbsvej,4673,37,12.397683,55.261669
1485185,Korsnæbsvej,4673,38,12.398643,55.261703
1485190,Korsnæbsvej,4673,40,12.3988686,55.2618297
1485192,Korsnæbsvej,4673,42,12.3991995,55.2619453
1485196,Korsnæbsvej,4673,44,12.3995259,55.2620603
1485197,Korsnæbsvej,4673,46,12.4004637,55.2624553
1485199,Korsnæbsvej,4673,48,12.4007751,55.2625614
1485200,Korsnæbsvej,4673,50,12.4009681,55.2626476
1485203,Korsnæbsvej,4673,52,12.4011753,55.2627316
1485205,Korsnæbsvej,4673,54,12.4014509,55.2628189
1485206,Korsnæbsvej,4673,56,12.4017538,55.262861
1485209,Korsnæbsvej,4673,57,12.4029098,55.2638723
1485210,Korsnæbsvej,4673,58,12.4032808,55.263446
1485212,Korsnæbsvej,4673,58A,12.4035512,55.2636237
1485214,Korsnæbsvej,4673,59,12.4035173,55.2639212
1485216,Korsnæbsvej,4673,60,12.409736,55.264562
1485218,Korsnæbsvej,4673,60A,12.4110232,55.2598689
1485220,Korsnæbsvej,4673,60B,12.4151207,55.2645896
1485222,Korsnæbsvej,4673,61,12.404728,55.264383
1485223,Korsnæbsvej,4673,62,12.4105215,55.2663194
1485226,Korsnæbsvej,4673,63,12.4085417,55.2668057
1485229,Korsnæbsvej,4673,64,12.4123921,55.2673662
1485230,Korsnæbsvej,4673,66,12.4135965,55.2682291
1485234,Korsnæbsvej,4673,68,12.4146055,55.2687244
1485235,Korsnæbsvej,4673,69,12.413927,55.269786
1485237,Korsnæbsvej,4673,72,12.4166504,55.2729659
1485240,Korsnæbsvej,4673,74,12.4186623,55.2735777
1485241,Korsnæbsvej,4673,76,12.4192347,55.2738232
1485243,Korsnæbsvej,4673,78,12.420564,55.274207
1485244,Korsnæbsvej,4673,80,12.4247484,55.2757202
1485247,Korsnæbsvej,4673,82,12.4254599,55.2758986
1485250,Korsnæbsvej,4673,83,12.426269,55.276662
1485251,Korsnæbsvej,4673,83A,12.4264127,55.2766594
1485253,Korsnæbsvej,4673,84,12.426889,55.276486
1485254,Korsnæbsvej,4673,85,12.427749,55.277059
1485422,Pileager,4673,1,12.3602075,55.24899
1485426,Pileager,4673,2,12.3601253,55.249341
1485429,Pileager,4673,3,12.3596167,55.2489997
1485430,Pileager,4673,4,12.3595971,55.2492114
1485432,Pileager,4673,5,12.3592273,55.2489907
1485434,Pileager,4673,6,12.3592663,55.2493162
1485436,Pileager,4673,7,12.3587541,55.2489149
1485439,Pileager,4673,8,12.3588569,55.2493178
1485440,Pileager,4673,9,12.3584774,55.248982
1485445,Pileager,4673,10,12.3584458,55.2493041
1485759,Rødvigvej,4673,31,12.39009,55.279553
1485760,Rødvigvej,4673,33,12.390218,55.278867
1485766,Rødvigvej,4673,34,12.389638,55.274427
1485768,Rødvigvej,4673,34A,12.3897975,55.2773884
1485772,Rødvigvej,4673,37,12.390549,55.274407
1485775,Rødvigvej,4673,39,12.3898,55.273835
1485778,Rødvigvej,4673,40,12.3895916,55.2730637
1485780,Rødvigvej,4673,41,12.3902109,55.2729111
1485783,Rødvigvej,4673,42,12.3896829,55.2729521
1485784,Rødvigvej,4673,43,12.3906499,55.2723407
1485787,Rødvigvej,4673,44,12.389602,55.272755
1485790,Rødvigvej,4673,46,12.389959,55.27168
1485792,Rødvigvej,4673,48,12.3895,55.271018
1485796,Rødvigvej,4673,48A,12.3895077,55.2717031
1485798,Rødvigvej,4673,50,12.3898756,55.2707464
1485802,Rødvigvej,4673,52,12.3897177,55.270561
1485803,Rødvigvej,4673,52A,12.3896638,55.2704839
1485807,Rødvigvej,4673,54,12.3894677,55.2700721
1485808,Rødvigvej,4673,54A,12.3894172,55.2703871
1485812,Rødvigvej,4673,60,12.3841601,55.2628014
1485814,Rødvigvej,4673,61,12.3853459,55.2636187
1485818,Rødvigvej,4673,62,12.381678,55.26125
1485820,Rødvigvej,4673,63,12.38437,55.262164
1485826,Rødvigvej,4673,63A,12.384818,55.262218
1485828,Rødvigvej,4673,63B,12.3847663,55.2621531
1485833,Rødvigvej,4673,63C,12.3847217,55.2620956
1485835,Rødvigvej,4673,63D,12.3846724,55.2620322
1485838,Rødvigvej,4673,63E,12.3846317,55.2619782
1485844,Rødvigvej,4673,66A,12.377387,55.259963
1485847,Rødvigvej,4673,67,12.3810835,55.2579819
1485850,Rødvigvej,4673,69,12.3810778,55.2577947
1485851,Rødvigvej,4673,71,12.3811015,55.2575
1485852,Rødvigvej,4673,71A,12.3812928,55.2572882
1485853,Rødvigvej,4673,73,12.3809236,55.257262
1485855,Rødvigvej,4673,75A,12.380869,55.257061
1485856,Rødvigvej,4673,75B,12.3807093,55.2567097
1485857,Rødvigvej,4673,77,12.380502,55.256565
1485858,Rødvigvej,4673,79,12.380454,55.256449
1485859,Rødvigvej,4673,80,12.3799506,55.256007
1485860,Rødvigvej,4673,81,12.3804076,55.2563143
1485862,Rødvigvej,4673,83,12.3803348,55.2561193
1485863,Rødvigvej,4673,85,12.3801733,55.255769
1486061,Ved Kirken,4673,3,12.3907318,55.27365
1486065,Ved Kirken,4673,4,12.3911398,55.2736735
1486068,Ved Kirken,4673,4A,12.3912142,55.2737792
1486071,Ved Kirken,4673,5,12.390703,55.273826
1486075,Ved Kirken,4673,6,12.391513,55.273521
1487061,Havnepladsen,4673,1,12.376704,55.253604
1487062,Havnepladsen,4673,2,12.377382,55.253449
1487065,Havnepladsen,4673,3,12.3756973,55.2539185
1487066,Havnepladsen,4673,5,12.37541,55.25349
1487067,Havnepladsen,4673,6,12.3769026,55.2540049
1487068,Havnepladsen,4673,8,12.376312,55.254058
1487071,Havnepladsen,4673,8A,12.3762337,55.2540272
1487072,Havnepladsen,4673,8B,12.3763592,55.2540107
1487073,Havnepladsen,4673,10,12.3759354,55.2541034
1487076,Havnepladsen,4673,12,12.3758107,55.2542272
1487373,Harvig,4673,1,12.417383,55.270487
1487374,Harvig,4673,2,12.425269,55.270514
1487375,Harvig,4673,3,12.4231541,55.2696593
1487378,Harvig,4673,4,12.4292865,55.27248
1487379,Harvig,4673,5,12.424629,55.2705833
1487380,Harvig,4673,6,12.4301858,55.2734899
1487381,Harvig,4673,7,12.4276743,55.2719517
1487382,Harvig,4673,9,12.4297637,55.2728891
1487383,Harvig,4673,11,12.429529,55.2735477
1487472,Gadekærsvej,4673,1,12.3643643,55.2684271
1487474,Gadekærsvej,4673,2,12.3638557,55.268494
1487476,Gadekærsvej,4673,3,12.3647696,55.268396
1487479,Gadekærsvej,4673,4,12.3635242,55.268362
1487480,Gadekærsvej,4673,5,12.365221,55.268392
1487482,Gadekærsvej,4673,6,12.36342,55.268656
1487572,Bakkevej,4673,1,12.3815731,55.2584992
1487573,Bakkevej,4673,2,12.3819227,55.2584203
1487575,Bakkevej,4673,3,12.3817161,55.2586755
1487577,Bakkevej,4673,5,12.3818177,55.2588275
1487578,Bakkevej,4673,7,12.381912,55.259029
1487580,Bakkevej,4673,7A,12.3819998,55.2589856
1487581,Bakkevej,4673,7B,12.3820331,55.2590292
1487584,Bakkevej,4673,8,12.3828407,55.2594252
1487585,Bakkevej,4673,9,12.3821745,55.2591444
1487587,Bakkevej,4673,10,12.3828903,55.2596273
1487589,Bakkevej,4673,11,12.382207,55.2593233
1487591,Bakkevej,4673,13,12.3823325,55.2595118
1487594,Bakkevej,4673,15,12.3825161,55.2597291
1487595,Bakkevej,4673,17,12.3826722,55.2599389
1487598,Bakkevej,4673,19,12.3829,55.260254
1487792,Lillevang,4673,1A,12.3691799,55.2551861
1487897,Søvej,4673,2,12.3752569,55.2558086
1487898,Søvej,4673,3,12.375554,55.255661
1487899,Søvej,4673,3A,12.37599,55.2555876
1487900,Søvej,4673,4,12.3752629,55.2556711
1487901,Søvej,4673,5,12.375601,55.255509
1487902,Søvej,4673,6,12.3752355,55.2554303
1487903,Søvej,4673,7,12.3756828,55.2553825
1487904,Søvej,4673,8,12.3752224,55.2552758
1487905,Søvej,4673,9,12.3756621,55.2552122
1487906,Søvej,4673,10,12.3753047,55.2550177
1487907,Søvej,4673,11,12.3758192,55.2550846
1487908,Søvej,4673,13,12.3758187,55.2548952
1487909,Søvej,4673,14,12.3752823,55.2546199
1487910,Søvej,4673,15,12.3756542,55.2546839
1487911,Søvej,4673,17,12.375849,55.254512
1491342,Skelbovej,4673,4,12.363533,55.254878
1491344,Skelbovej,4673,6,12.3630661,55.2548683
1491346,Skelbovej,4673,8,12.3627136,55.25468
1491347,Skelbovej,4673,10,12.3623281,55.2546486
1491350,Skelbovej,4673,12,12.361923,55.254592
1491351,Skelbovej,4673,14,12.3615789,55.2545301
1491353,Skelbovej,4673,16,12.3610457,55.2544663
1491478,Møllekærvej,4673,2,12.3535414,55.2730122
1491480,Møllekærvej,4673,4,12.356179,55.275235
1491602,Kobbelskovvej,4673,3,12.338476,55.239037
1491608,Strandgabsvej,4673,5,12.3602186,55.2545057
1491613,Strandgabsvej,4673,8,12.360011,55.254681
1491618,Strandgabsvej,4673,14,12.358788,55.254632
1491619,Strandgabsvej,4673,16,12.3579544,55.2544039
1491623,Strandgabsvej,4673,18,12.3572309,55.2542756
1491624,Strandgabsvej,4673,22,12.356718,55.254263
1491628,Strandgabsvej,4673,24,12.356284,55.2541727
1491633,Strandgabsvej,4673,26,12.355736,55.254104
1491635,Strandgabsvej,4673,27,12.357346,55.254068
1491637,Strandgabsvej,4673,28,12.3552711,55.2539006
1491640,Strandgabsvej,4673,29,12.3521016,55.2532618
1491644,Strandgabsvej,4673,30,12.3547758,55.2538383
1491646,Strandgabsvej,4673,41,12.3501411,55.2529035
1491649,Strandgabsvej,4673,43,12.349567,55.252853
1491653,Strandgabsvej,4673,45,12.3494962,55.2528442
1491655,Strandgabsvej,4673,47,12.3491352,55.2527706
1491802,Højstrupvej,4673,2,12.345562,55.251645
1491804,Højstrupvej,4673,2A,12.349258,55.250837
1491806,Højstrupvej,4673,3,12.349158,55.252398
1491809,Højstrupvej,4673,4,12.349789,55.247789
1491813,Højstrupvej,4673,5,12.351475,55.250809
1491814,Højstrupvej,4673,5A,12.350105,55.248129
1491816,Højstrupvej,4673,6,12.347375,55.246265
1491819,Højstrupvej,4673,7,12.350323,55.246774
1491820,Højstrupvej,4673,7A,12.350373,55.245966
1491823,Højstrupvej,4673,8,12.3496606,55.2451754
1491825,Højstrupvej,4673,9,12.3571906,55.2462818
1491826,Højstrupvej,4673,10,12.3328408,55.2427606
1491829,Højstrupvej,4673,10A,12.332823,55.2429848
1491830,Højstrupvej,4673,11,12.3600808,55.2463601
1491833,Højstrupvej,4673,12,12.324096,55.243095
1491836,Højstrupvej,4673,14,12.319989,55.243342
1491837,Højstrupvej,4673,15,12.3256161,55.2403947
1491839,Højstrupvej,4673,15A,12.326801,55.238998
1491842,Højstrupvej,4673,16,12.3158024,55.243744
1491843,Højstrupvej,4673,17,12.322166,55.240587
1491846,Højstrupvej,4673,18,12.3039616,55.2429043
1491848,Højstrupvej,4673,19,12.317516,55.243335
1491849,Højstrupvej,4673,20,12.3033959,55.242865
1491852,Højstrupvej,4673,21,12.30254,55.241445
1491855,Højstrupvej,4673,22,12.3030563,55.242853
1491856,Højstrupvej,4673,23,12.30237,55.242517
1491859,Højstrupvej,4673,24,12.3027542,55.2427223
1491860,Højstrupvej,4673,26,12.302285,55.2426953
1492008,Klintevej,4673,2,12.3801469,55.2555461
1492010,Klintevej,4673,3,12.380386,55.255725
1492013,Klintevej,4673,4,12.3806182,55.25554
1492015,Klintevej,4673,5,12.380559,55.255702
1492019,Klintevej,4673,6,12.3809106,55.255483
1492022,Klintevej,4673,7,12.3807796,55.255662
1492024,Klintevej,4673,8,12.3820039,55.2554981
1492028,Klintevej,4673,9,12.38099,55.2556306
1492030,Klintevej,4673,10,12.382478,55.255478
1492034,Klintevej,4673,11,12.381206,55.2556044
1492037,Klintevej,4673,12,12.382675,55.255689
1492040,Klintevej,4673,13,12.381418,55.25559
1492042,Klintevej,4673,14,12.3829285,55.2556521
1492044,Klintevej,4673,15,12.3816415,55.2556068
1492048,Klintevej,4673,16,12.3831769,55.2557719
1492051,Klintevej,4673,17,12.3822641,55.2557918
1492053,Klintevej,4673,18,12.383438,55.255756
1492057,Klintevej,4673,21,12.3831997,55.2559954
1492058,Klintevej,4673,22,12.3838303,55.2557264
1492063,Klintevej,4673,23,12.3835234,55.2560478
1492064,Klintevej,4673,24,12.384281,55.255748
1492069,Klintevej,4673,25,12.383882,55.2561179
1492071,Klintevej,4673,26,12.3843509,55.2559411
1492073,Klintevej,4673,26A,12.3849723,55.2557609
1492077,Klintevej,4673,27,12.3839645,55.2563699
1492079,Klintevej,4673,28,12.384346,55.256141
1492082,Klintevej,4673,29,12.3840922,55.2565309
1492086,Klintevej,4673,30,12.384432,55.2564359
1492087,Klintevej,4673,31A,12.3842146,55.2568092
1492091,Klintevej,4673,31B,12.383948,55.2568829
1492094,Klintevej,4673,32,12.384524,55.256572
1492097,Klintevej,4673,33,12.3843143,55.2569543
1492101,Klintevej,4673,34,12.384632,55.256729
1492103,Klintevej,4673,35,12.3843742,55.2571312
1492106,Klintevej,4673,36,12.3849266,55.2568124
1492109,Klintevej,4673,37,12.3844446,55.257283
1492112,Klintevej,4673,38,12.384745,55.2569783
1492116,Klintevej,4673,40,12.3849368,55.2571197
1492329,Mindehøjvej,4673,1,12.341691,55.268264
1492331,Mindehøjvej,4673,2,12.3414054,55.2682565
1492333,Mindehøjvej,4673,3,12.342423,55.267961
1492335,Mindehøjvej,4673,4,12.341537,55.267958
1492336,Mindehøjvej,4673,5,12.349179,55.265374
1492339,Mindehøjvej,4673,6,12.343797,55.263437
1492340,Mindehøjvej,4673,7,12.3518257,55.2623061
1492341,Mindehøjvej,4673,8,12.3441166,55.2625935
1492343,Mindehøjvej,4673,9,12.3468919,55.2586602
1492346,Mindehøjvej,4673,10,12.344687,55.261174
1492347,Mindehøjvej,4673,11,12.3475894,55.2561429
1492349,Mindehøjvej,4673,12,12.3448153,55.2606589
1492354,Mindehøjvej,4673,12A,12.3450755,55.2603323
1492355,Mindehøjvej,4673,12B,12.344908,55.260309
1492360,Mindehøjvej,4673,12C,12.344739,55.2602851
1492361,Mindehøjvej,4673,13,12.3476644,55.2559191
1492366,Mindehøjvej,4673,15,12.349488,55.255184
1492368,Mindehøjvej,4673,16,12.3466678,55.2567791
1492372,Mindehøjvej,4673,18,12.3436062,55.2554911
1492403,Brøndvej,4673,2,12.367893,55.255855
1492405,Brøndvej,4673,4,12.3679693,55.2560557
1492407,Brøndvej,4673,5,12.36713,55.2558365
1492929,Skovstumperne,4673,1,12.3552576,55.2534373
1492930,Skovstumperne,4673,2,12.3546675,55.2532784
1492931,Skovstumperne,4673,3,12.3557153,55.2534915
1492932,Skovstumperne,4673,4,12.3540688,55.2532237
1492933,Skovstumperne,4673,5,12.3562825,55.253615
1492934,Skovstumperne,4673,6,12.3535497,55.2531036
1492935,Skovstumperne,4673,7,12.3564943,55.253279
1492936,Skovstumperne,4673,8,12.3536533,55.2528436
1492937,Skovstumperne,4673,9,12.3558646,55.2532049
1492938,Skovstumperne,4673,10,12.354176,55.25289
1492939,Skovstumperne,4673,11,12.355393,55.2531009
1492940,Skovstumperne,4673,12,12.3545909,55.2530626
1492941,Skovstumperne,4673,13,12.3555115,55.2528091
1492942,Skovstumperne,4673,14,12.3546607,55.2527949
1492943,Skovstumperne,4673,15,12.3558867,55.2529528
1492945,Skovstumperne,4673,16,12.3543591,55.2526718
1492946,Skovstumperne,4673,17,12.356579,55.252994
1492949,Skovstumperne,4673,18,12.353831,55.252586
1492950,Skovstumperne,4673,19,12.356679,55.252712
1492952,Skovstumperne,4673,20,12.353933,55.252301
1492953,Skovstumperne,4673,21,12.3563137,55.2525748
1492956,Skovstumperne,4673,22,12.3543451,55.2523576
1492959,Skovstumperne,4673,23,12.3556423,55.2525779
1492960,Skovstumperne,4673,24,12.3549162,55.2524553
1492962,Skovstumperne,4673,25,12.3557142,55.2522604
1492964,Skovstumperne,4673,26,12.355146,55.252163
1492965,Skovstumperne,4673,27,12.356332,55.252366
1492966,Skovstumperne,4673,28,12.3546044,55.2521234
1492967,Skovstumperne,4673,29,12.3568508,55.2524634
1492968,Skovstumperne,4673,30,12.3540128,55.2519954
1492969,Skovstumperne,4673,31,12.356886,55.252158
1492970,Skovstumperne,4673,32,12.3541456,55.2517446
1492971,Skovstumperne,4673,33,12.3565685,55.2519792
1492972,Skovstumperne,4673,34,12.3547248,55.2518376
1492973,Skovstumperne,4673,35,12.3558553,55.2519458
1492974,Skovstumperne,4673,36,12.3552742,55.2519244
1492977,Skovstumperne,4673,37,12.3560483,55.2515861
1492979,Skovstumperne,4673,38,12.3553731,55.2514803
1492981,Skovstumperne,4673,39,12.3564251,55.2518205
1492983,Skovstumperne,4673,40,12.3548586,55.2515319
1492985,Skovstumperne,4673,41,12.3569487,55.2518
1492987,Skovstumperne,4673,42,12.354967,55.251243
1492989,Skovstumperne,4673,43,12.357306,55.251678
1492991,Skovstumperne,4673,44,12.3556207,55.2513461
1492993,Skovstumperne,4673,45,12.3568127,55.251551
1492995,Skovstumperne,4673,46,12.3538689,55.2506643
1492997,Skovstumperne,4673,47,12.3561208,55.2514133
1493000,Skovstumperne,4673,48,12.3564425,55.2509574
1493110,Thormodsvej,4673,4,12.3614745,55.2523019
1493112,Thormodsvej,4673,5,12.3617904,55.2528179
1493114,Thormodsvej,4673,6,12.3618411,55.2526365
1493117,Thormodsvej,4673,7,12.3621391,55.2530074
1493119,Thormodsvej,4673,8,12.362234,55.252664
1493121,Thormodsvej,4673,9,12.3625428,55.2530591
1493122,Thormodsvej,4673,10,12.362615,55.252721
1493125,Thormodsvej,4673,11,12.3629,55.253113
1493127,Thormodsvej,4673,12,12.3630031,55.2527857
1493129,Thormodsvej,4673,13,12.3632141,55.2531874
1493131,Thormodsvej,4673,14,12.3633512,55.2528143
1493132,Thormodsvej,4673,15,12.3636363,55.2532426
1493135,Thormodsvej,4673,16,12.363748,55.2528753
1493137,Thormodsvej,4673,17,12.3639512,55.2532413
1493139,Thormodsvej,4673,18,12.3641356,55.2529356
1493141,Thormodsvej,4673,19,12.3642994,55.2532712
1493142,Thormodsvej,4673,20,12.3644923,55.2530268
1493281,Tværager,4673,3,12.3601753,55.2486795
1493283,Tværager,4673,4,12.3596399,55.2486632
1493285,Tværager,4673,5,12.3601246,55.2484512
1493287,Tværager,4673,6,12.3595577,55.2482301
1493288,Tværager,4673,7,12.3601402,55.2481612
1493290,Tværager,4673,9,12.359867,55.2479532
1493304,Markskellet,4673,2,12.3832768,55.2597512
1493305,Markskellet,4673,3,12.3835501,55.2599724
1493306,Markskellet,4673,4,12.383933,55.259602
1493307,Markskellet,4673,5,12.383823,55.2598458
1493308,Markskellet,4673,7,12.384317,55.259688
1493309,Markskellet,4673,8,12.3844607,55.2593747
1493310,Markskellet,4673,9,12.384708,55.259623
1493311,Markskellet,4673,10,12.3847902,55.2592684
1493313,Markskellet,4673,11,12.3851078,55.2594564
1493314,Markskellet,4673,12,12.385096,55.259165
1493316,Markskellet,4673,13,12.385525,55.259287
1493317,Markskellet,4673,14,12.3854713,55.2590397
1493319,Markskellet,4673,15,12.3859217,55.2592026
1493321,Markskellet,4673,16,12.385941,55.258889
1493322,Markskellet,4673,17,12.386348,55.259169
1493324,Markskellet,4673,17A,12.386248,55.259165
1493325,Markskellet,4673,17B,12.386392,55.259119
1493326,Markskellet,4673,18,12.3864009,55.2587376
1493328,Markskellet,4673,19,12.386747,55.258912
1493329,Markskellet,4673,20,12.3868359,55.2585951
1493330,Markskellet,4673,21,12.387192,55.2587791
1493331,Markskellet,4673,22,12.387148,55.2585071
1493332,Markskellet,4673,23,12.3875398,55.2586927
1493333,Markskellet,4673,24,12.387392,55.258458
1493434,Havnevej,4673,1,12.3769781,55.2556601
1493436,Havnevej,4673,2,12.3767436,55.2558619
1493438,Havnevej,4673,6,12.376508,55.255457
1493441,Havnevej,4673,6B,12.3764498,55.2555013
1493446,Havnevej,4673,7,12.3768721,55.2551241
1493447,Havnevej,4673,8,12.3765375,55.2552586
1493450,Havnevej,4673,9,12.376726,55.254844
1493451,Havnevej,4673,10,12.3764575,55.2551138
1493454,Havnevej,4673,11,12.3768609,55.2545744
1493456,Havnevej,4673,12,12.3763515,55.2549497
1493458,Havnevej,4673,13,12.3772174,55.2545851
1493460,Havnevej,4673,14,12.3762161,55.2547858
1493462,Havnevej,4673,15,12.3769063,55.2543473
1493464,Havnevej,4673,16,12.376249,55.2546321
1493466,Havnevej,4673,18A,12.376207,55.254466
1493467,Havnevej,4673,18B,12.3763685,55.2545086
1493468,Havnevej,4673,20,12.376175,55.254312
1493469,Havnevej,4673,21,12.3765882,55.2541537
1493593,Boesdalsvej,4673,1,12.395092,55.268322
1493596,Boesdalsvej,4673,3,12.3952047,55.2679737
1493597,Boesdalsvej,4673,5,12.3954384,55.2669873
1493599,Boesdalsvej,4673,7,12.3958931,55.2657481
1493602,Boesdalsvej,4673,11,12.3999317,55.2621043
1493605,Boesdalsvej,4673,14,12.4012312,55.25835
1493606,Boesdalsvej,4673,14A,12.4017709,55.260271
1493608,Boesdalsvej,4673,14B,12.401852,55.258929
1493609,Boesdalsvej,4673,16,12.4035624,55.2590424
1493612,Boesdalsvej,4673,17,12.4036704,55.2594947
1493613,Boesdalsvej,4673,18,12.4040074,55.2586997
1493615,Boesdalsvej,4673,19,12.4045523,55.2585593
1493948,Højager,4673,1,12.3602638,55.2526589
1493953,Højager,4673,3,12.3599666,55.2526845
1493957,Højager,4673,4,12.3599111,55.2530552
1493959,Højager,4673,5,12.3596055,55.2526813
1493961,Højager,4673,6,12.3595373,55.2530746
1493962,Højager,4673,7,12.359131,55.25268
1493965,Højager,4673,9,12.3585458,55.2526587
1493967,Højager,4673,12,12.3584326,55.2530105
1494104,Østervej,4673,3,12.3808976,55.2562586
1494106,Østervej,4673,4A,12.3806971,55.2560645
1494107,Østervej,4673,4B,12.3807993,55.2560522
1494110,Østervej,4673,4C,12.380901,55.2560402
1494113,Østervej,4673,5,12.3811114,55.2562327
1494114,Østervej,4673,7,12.3814078,55.2562229
1494116,Østervej,4673,8,12.381267,55.256022
1494118,Østervej,4673,9,12.381439,55.256586
1494121,Østervej,4673,10,12.381433,55.255878
1494125,Østervej,4673,10A,12.381719,55.2559262
1494127,Østervej,4673,11,12.3815518,55.256735
1494132,Østervej,4673,12,12.3817543,55.2562509
1494133,Østervej,4673,13,12.3815754,55.2569455
1494136,Østervej,4673,14,12.3818763,55.2565361
1494139,Østervej,4673,15,12.3816616,55.25714
1494141,Østervej,4673,16,12.382005,55.2566977
1494144,Østervej,4673,17,12.3817588,55.2573363
1494145,Østervej,4673,18,12.3819571,55.2568875
1494148,Østervej,4673,19,12.3818338,55.2574879
1494150,Østervej,4673,20,12.3821712,55.2570341
1494151,Østervej,4673,21,12.3818506,55.2577299
1494153,Østervej,4673,22,12.382315,55.257204
1494154,Østervej,4673,24,12.382335,55.257375
1494155,Østervej,4673,26,12.3824096,55.257555
1494156,Østervej,4673,28,12.3824712,55.2577386
1494215,Møllehavevej,4673,1,12.3382474,55.2687599
1494218,Møllehavevej,4673,2,12.3391442,55.2686734
1494223,Møllehavevej,4673,3,12.338426,55.269092
1494226,Møllehavevej,4673,4,12.3391672,55.2690902
1494229,Møllehavevej,4673,7,12.3391722,55.2693752
1494239,Rønager,4673,3,12.3592194,55.2481439
1494240,Rønager,4673,4,12.3592647,55.2485776
1494241,Rønager,4673,5,12.3588897,55.248266
1494242,Rønager,4673,6,12.3588759,55.2485984
1494243,Rønager,4673,7,12.3585392,55.2482969
1494244,Rønager,4673,8,12.358521,55.248516
1494620,Skansevej,4673,1,12.374511,55.256079
1494622,Skansevej,4673,2,12.374294,55.255993
1494624,Skansevej,4673,2A,12.3742375,55.2559961
1494626,Skansevej,4673,3,12.3745585,55.2558755
1494628,Skansevej,4673,4,12.3742113,55.2557476
1494629,Skansevej,4673,5,12.3745607,55.255711
1494632,Skansevej,4673,6,12.3739872,55.2555975
1494633,Skansevej,4673,7,12.374575,55.25556
1494636,Skansevej,4673,8,12.3743097,55.2553424
1494638,Skansevej,4673,9,12.3745792,55.2552686
1494639,Skansevej,4673,10,12.3741685,55.2550957
1494642,Skansevej,4673,11,12.3747351,55.2551164
1494643,Skansevej,4673,12,12.3742277,55.2548887
1494645,Skansevej,4673,13,12.374564,55.255037
1494646,Skansevej,4673,14,12.374461,55.254785
1494647,Skansevej,4673,16,12.3747723,55.2548022
1494648,Skansevej,4673,18,12.3749138,55.2548015
1495933,Østersøvej,4673,1,12.379987,55.255421
1495934,Østersøvej,4673,2A,12.3789472,55.2553179
1495935,Østersøvej,4673,4,12.3787344,55.2549992
1495937,Østersøvej,4673,6,12.3787712,55.2548182
1495939,Østersøvej,4673,7,12.3797767,55.2548613
1495940,Østersøvej,4673,8,12.3793183,55.254422
1495942,Østersøvej,4673,10,12.3790848,55.2541153
1495943,Østersøvej,4673,12,12.3780251,55.2539126
1495946,Østersøvej,4673,12A,12.378285,55.253812
1495947,Østersøvej,4673,14,12.378025,55.253682
1495948,Østersøvej,4673,16,12.377658,55.253301
1496735,Havnelev Enghave,4673,1,12.344111,55.2487487
1496738,Havnelev Enghave,4673,2,12.3445955,55.2490991
1496739,Havnelev Enghave,4673,3,12.3436875,55.249123
1496740,Havnelev Enghave,4673,4,12.3444564,55.2492869
1496741,Havnelev Enghave,4673,5,12.3431187,55.2490417
1496742,Havnelev Enghave,4673,6,12.3443046,55.2495071
1496743,Havnelev Enghave,4673,7,12.342702,55.248953
1496744,Havnelev Enghave,4673,8,12.3435388,55.2496651
1496745,Havnelev Enghave,4673,10,12.3440996,55.2498022
1496746,Havnelev Enghave,4673,11,12.342495,55.248183
1496747,Havnelev Enghave,4673,12,12.3438951,55.2501162
1496748,Havnelev Enghave,4673,13,12.3421141,55.2484008
1496749,Havnelev Enghave,4673,14,12.3431757,55.2499609
1496750,Havnelev Enghave,4673,15,12.3420957,55.2489148
1496753,Havnelev Enghave,4673,16,12.3431347,55.2494829
1496756,Havnelev Enghave,4673,18,12.3428401,55.2491933
1496761,Havnelev Enghave,4673,20,12.3423699,55.2493586
1496763,Havnelev Enghave,4673,22,12.3419193,55.2493094
1496772,Havnelev Enghave,4673,24,12.3414591,55.2491859
1497200,Lilleager,4673,1,12.3591362,55.2541027
1497208,Lilleager,4673,2,12.3592219,55.2538971
1497210,Lilleager,4673,3,12.3595074,55.254168
1497216,Lilleager,4673,4,12.3596437,55.2539593
1497224,Lilleager,4673,5,12.3599947,55.2542532
1497228,Lilleager,4673,6,12.3599974,55.2536912
1497237,Lilleager,4673,8,12.359995,55.25406
1497904,Hovvej,4673,2,12.3351822,55.2432638
1497907,Hovvej,4673,2A,12.3351646,55.2433808
1497909,Hovvej,4673,4,12.333511,55.244277
1497911,Hovvej,4673,6,12.334167,55.244365
1497914,Hovvej,4673,8,12.3344454,55.2442704
1497915,Hovvej,4673,9,12.3324887,55.2455317
1497916,Hovvej,4673,11,12.3257147,55.2574363
1497954,Peder Minesvej,4673,3,12.3642003,55.2538906
1497957,Peder Minesvej,4673,4,12.363644,55.2539069
1497960,Peder Minesvej,4673,5,12.3641241,55.253609
1497964,Peder Minesvej,4673,7,12.3637879,55.2535485
1497966,Peder Minesvej,4673,8,12.363295,55.253877
1497971,Peder Minesvej,4673,9,12.3634254,55.2535063
1497975,Peder Minesvej,4673,10,12.362964,55.253823
1497976,Peder Minesvej,4673,11,12.3630399,55.2534869
1497982,Peder Minesvej,4673,12,12.36252,55.2537947
1497983,Peder Minesvej,4673,13,12.3627362,55.2534548
1497986,Peder Minesvej,4673,14,12.3621586,55.2537438
1497989,Peder Minesvej,4673,15,12.3623821,55.2534128
1497995,Peder Minesvej,4673,16,12.3617786,55.2536688
1498001,Peder Minesvej,4673,17,12.361946,55.253348
1498002,Peder Minesvej,4673,18,12.3614241,55.2535607
1498009,Peder Minesvej,4673,19,12.361638,55.253321
1498388,Ærtebjergvej,4673,29,12.3013948,55.24863
1498389,Ærtebjergvej,4673,30,12.3007691,55.2504069
1498390,Ærtebjergvej,4673,32,12.3005385,55.2502766
1498391,Ærtebjergvej,4673,34,12.3008181,55.2497684
1499033,Plushøj,4673,3,12.3707114,55.2558131
1499035,Plushøj,4673,4,12.370772,55.255664
1499039,Plushøj,4673,5,12.3708311,55.2558305
1499040,Plushøj,4673,6,12.370891,55.255683
1499048,Plushøj,4673,7,12.3709517,55.2558481
1499055,Plushøj,4673,9,12.3710713,55.2558659
1499061,Plushøj,4673,10,12.3711689,55.2555924
1499063,Plushøj,4673,11,12.3712134,55.2559029
1499069,Plushøj,4673,12,12.3711947,55.2555313
1499076,Plushøj,4673,13,12.3713368,55.2559209
1499079,Plushøj,4673,14,12.37122,55.25547
1499086,Plushøj,4673,15,12.3713816,55.2557993
1499089,Plushøj,4673,16,12.3712459,55.2554094
1499096,Plushøj,4673,17,12.3714071,55.2557364
1499099,Plushøj,4673,19,12.3714326,55.2556728
1499100,Plushøj,4673,21,12.3714583,55.2556096
1499102,Plushøj,4673,23,12.3714837,55.2555463
1499103,Plushøj,4673,25,12.3715094,55.255483
1499106,Plushøj,4673,27,12.3715358,55.2554196
1499107,Plushøj,4673,29,12.371561,55.255357
1499577,Vognmandsmarken,4673,3,12.3746827,55.2568208
1499578,Vognmandsmarken,4673,4,12.3742399,55.256944
1499579,Vognmandsmarken,4673,5,12.3746144,55.2565776
1499580,Vognmandsmarken,4673,6,12.374117,55.256815
1499581,Vognmandsmarken,4673,8,12.373967,55.25664
1500252,Strandstien,4673,3,12.3611171,55.2486951
1500253,Strandstien,4673,5,12.3614851,55.2483696
1500254,Strandstien,4673,7,12.3605229,55.2478659
1500686,Fiskerihavnen,4673,1,12.3754557,55.2537656
1500687,Fiskerihavnen,4673,2,12.375138,55.2542804
1500689,Fiskerihavnen,4673,3,12.3753897,55.253674
1500692,Fiskerihavnen,4673,4,12.374918,55.254357
1500693,Fiskerihavnen,4673,5,12.375221,55.253738
1500694,Fiskerihavnen,4673,6,12.3746057,55.2544133
1500697,Fiskerihavnen,4673,7,12.3751358,55.2535917
1500699,Fiskerihavnen,4673,8,12.374214,55.2545126
1500701,Fiskerihavnen,4673,9,12.3724779,55.2540166
1500704,Fiskerihavnen,4673,12,12.3734169,55.2545606
1500707,Fiskerihavnen,4673,13,12.371671,55.2538992
1500708,Fiskerihavnen,4673,14,12.3730605,55.2545665
1500711,Fiskerihavnen,4673,15,12.3715732,55.2540313
1500713,Fiskerihavnen,4673,16,12.372727,55.254639
1500715,Fiskerihavnen,4673,18,12.372434,55.2544972
1500718,Fiskerihavnen,4673,18A,12.372217,55.2544732
1500779,Lærkevej,4673,3,12.3644854,55.2515941
1500781,Lærkevej,4673,4,12.3633065,55.2513356
1500782,Lærkevej,4673,5,12.3644773,55.2514329
1500788,Lærkevej,4673,6,12.3632597,55.2511897
1500791,Lærkevej,4673,7,12.363812,55.251214
1500792,Lærkevej,4673,8,12.363211,55.2510052
1500794,Lærkevej,4673,9,12.363595,55.2510061
1500798,Lærkevej,4673,11,12.3636028,55.2508878
1500801,Lærkevej,4673,13,12.3633783,55.2508479
1500803,Lærkevej,4673,15,12.3633209,55.2507181
1500805,Lærkevej,4673,17,12.3632747,55.2505912
1500811,Lærkevej,4673,19,12.3630483,55.2504807
1500812,Lærkevej,4673,21,12.3630907,55.2503711
1500870,Gøgevej,4673,1,12.3606648,55.24922
1500873,Gøgevej,4673,2,12.3607641,55.249009
1500875,Gøgevej,4673,3,12.360973,55.24923
1500876,Gøgevej,4673,4,12.3612392,55.2490492
1500878,Gøgevej,4673,5,12.3612169,55.2492985
1500879,Gøgevej,4673,6,12.3618294,55.2491021
1500882,Gøgevej,4673,7,12.3614388,55.2492842
1500884,Gøgevej,4673,8,12.3621012,55.249299
1500885,Gøgevej,4673,9,12.3617619,55.2493247
1500886,Gøgevej,4673,10,12.3622723,55.2493907
1500887,Gøgevej,4673,11,12.361794,55.249521
1500888,Gøgevej,4673,12,12.3622344,55.2495548
1500889,Gøgevej,4673,13,12.361867,55.24974
1500890,Gøgevej,4673,14,12.3623808,55.2497869
1500891,Gøgevej,4673,15,12.3619438,55.2499031
1500892,Gøgevej,4673,16,12.3627654,55.2501006
1500893,Gøgevej,4673,17,12.3618501,55.2500743
1500894,Gøgevej,4673,18,12.36235,55.2500481
1501140,Strandlaugsvej,4673,4,12.361211,55.251259
1501142,Strandlaugsvej,4673,5,12.3613244,55.2516187
1501146,Strandlaugsvej,4673,5A,12.3611582,55.2518369
1501151,Strandlaugsvej,4673,7,12.3616246,55.2516568
1501153,Strandlaugsvej,4673,7A,12.3618096,55.2519042
1501159,Strandlaugsvej,4673,9,12.3623192,55.2517699
1501161,Strandlaugsvej,4673,9A,12.362215,55.252024
1501169,Strandlaugsvej,4673,10,12.3627311,55.2514563
1501175,Strandlaugsvej,4673,11,12.3628425,55.2518779
1501176,Strandlaugsvej,4673,11A,12.3627616,55.2520797
1501182,Strandlaugsvej,4673,12,12.3630589,55.2514872
1501184,Strandlaugsvej,4673,13,12.3633414,55.2518935
1501189,Strandlaugsvej,4673,13A,12.3632165,55.2521524
1501190,Strandlaugsvej,4673,14,12.3633336,55.2515323
1501194,Strandlaugsvej,4673,15,12.3637065,55.2519624
1501197,Strandlaugsvej,4673,15A,12.363798,55.252191
1501199,Strandlaugsvej,4673,16,12.3640892,55.2516066
1501204,Strandlaugsvej,4673,17,12.3643332,55.2520031
1501206,Strandlaugsvej,4673,17A,12.364306,55.2523041
1501209,Strandlaugsvej,4673,18,12.3644837,55.2517258
1501212,Strandlaugsvej,4673,19,12.3648286,55.2520689
1501214,Strandlaugsvej,4673,19A,12.3647782,55.251894
1501217,Strandlaugsvej,4673,20,12.3647634,55.2516783
1501218,Strandlaugsvej,4673,20A,12.3647402,55.251649
1501506,Laurasvej,4673,1,12.361948,55.252285
1501507,Laurasvej,4673,3,12.3622828,55.2524022
1501509,Laurasvej,4673,4,12.3614108,55.2520886
1501511,Laurasvej,4673,5,12.3626425,55.2524047
1501513,Laurasvej,4673,7,12.3630878,55.2524673
1501514,Laurasvej,4673,9,12.363523,55.2524991
1501516,Laurasvej,4673,11,12.3638154,55.2525312
1501518,Laurasvej,4673,13,12.364275,55.252619
1501520,Laurasvej,4673,18,12.3650173,55.2522827
1501521,Laurasvej,4673,18A,12.365045,55.252222
1501857,Stuven,4673,2,12.350866,55.246377
1501858,Stuven,4673,3,12.350618,55.247132
1501859,Stuven,4673,4,12.350769,55.246091
1501860,Stuven,4673,5,12.350623,55.247402
1501861,Stuven,4673,6,12.350833,55.245804
1501862,Stuven,4673,7,12.351075,55.247494
1501863,Stuven,4673,8,12.351528,55.245859
1501864,Stuven,4673,9,12.35103,55.247139
1501865,Stuven,4673,10,12.3512912,55.2461564
1501866,Stuven,4673,11,12.351341,55.24689
1501867,Stuven,4673,12,12.351085,55.246482
1501869,Stuven,4673,13,12.351799,55.246955
1501871,Stuven,4673,14,12.351736,55.24656
1501875,Stuven,4673,15,12.351615,55.247259
1501876,Stuven,4673,16,12.351781,55.246268
1501878,Stuven,4673,17,12.351492,55.247551
1501879,Stuven,4673,18,12.351948,55.245956
1501881,Stuven,4673,19,12.35206,55.247633
1501883,Stuven,4673,20,12.352492,55.246027
1501884,Stuven,4673,21,12.352181,55.247364
1501885,Stuven,4673,22,12.352386,55.246303
1501887,Stuven,4673,23,12.352326,55.247033
1501888,Stuven,4673,24,12.35222,55.24663
1501889,Stuven,4673,25,12.3528803,55.247114
1501891,Stuven,4673,26,12.352772,55.246678
1501892,Stuven,4673,27,12.352671,55.247423
1501894,Stuven,4673,28,12.3529818,55.2463458
1501897,Stuven,4673,29,12.3525199,55.2476936
1501898,Stuven,4673,30,12.353048,55.246096
1501900,Stuven,4673,31,12.35329,55.247508
1501902,Stuven,4673,32,12.353425,55.246032
1501904,Stuven,4673,33,12.3531998,55.2471397
1501907,Stuven,4673,34,12.353572,55.246333
1501908,Stuven,4673,35,12.353943,55.24683
1501910,Stuven,4673,36,12.353942,55.24652
1501913,Stuven,4673,37,12.353833,55.247144
1501914,Stuven,4673,38,12.353872,55.246136
1501916,Stuven,4673,39,12.353764,55.247478
1501920,Stuven,4673,40,12.354521,55.246173
1501921,Stuven,4673,41,12.354065,55.247349
1501925,Stuven,4673,42,12.3545456,55.24651
1501928,Stuven,4673,43,12.354268,55.247221
1501930,Stuven,4673,44,12.355055,55.246464
1501932,Stuven,4673,45,12.354399,55.246862
1501933,Stuven,4673,46,12.355028,55.246228
1501936,Stuven,4673,47,12.354927,55.246917
1501941,Stuven,4673,48,12.355565,55.246237
1501942,Stuven,4673,49,12.354914,55.247199
1501945,Stuven,4673,50,12.355409,55.24661
1501949,Stuven,4673,51,12.354746,55.247595
1501952,Stuven,4673,52,12.355949,55.24663
1501955,Stuven,4673,53,12.35533,55.247617
1501959,Stuven,4673,54,12.3561993,55.2462918
1501960,Stuven,4673,55,12.3551766,55.2472292
1501961,Stuven,4673,57,12.3553718,55.2469764
1501962,Stuven,4673,59,12.355954,55.246958
1501963,Stuven,4673,61,12.3558056,55.247327
1501964,Stuven,4673,63,12.355769,55.247647
1501965,Stuven,4673,65,12.356374,55.247642
1501966,Stuven,4673,67,12.356269,55.247276
1501967,Stuven,4673,69,12.356419,55.247037
1504051,Maelskifterne,4673,1,12.351285,55.249279
1504053,Maelskifterne,4673,2,12.3505554,55.2488122
1504055,Maelskifterne,4673,3,12.350749,55.249298
1504056,Maelskifterne,4673,4,12.350649,55.248473
1504058,Maelskifterne,4673,5,12.351081,55.249441
1504061,Maelskifterne,4673,6,12.35077,55.24819
1504062,Maelskifterne,4673,8,12.350704,55.247758
1504065,Maelskifterne,4673,10,12.3514414,55.2479246
1504066,Maelskifterne,4673,12,12.351144,55.24815
1504068,Maelskifterne,4673,14,12.351179,55.248562
1504070,Maelskifterne,4673,16,12.35109,55.248871
1504072,Maelskifterne,4673,17,12.351692,55.249346
1504073,Maelskifterne,4673,18,12.351482,55.24896
1504076,Maelskifterne,4673,19,12.352219,55.249429
1504077,Maelskifterne,4673,20,12.351578,55.248639
1504080,Maelskifterne,4673,22,12.351765,55.248298
1504082,Maelskifterne,4673,24,12.351856,55.247964
1504083,Maelskifterne,4673,26,12.352463,55.248061
1504085,Maelskifterne,4673,28,12.3522459,55.2484319
1504087,Maelskifterne,4673,29,12.352763,55.249491
1504088,Maelskifterne,4673,30,12.352128,55.248708
1504089,Maelskifterne,4673,31,12.353478,55.249212
1504090,Maelskifterne,4673,32,12.352001,55.249046
1504091,Maelskifterne,4673,33,12.353325,55.2495
1504092,Maelskifterne,4673,34,12.352498,55.249085
1504093,Maelskifterne,4673,35,12.353138,55.249889
1504094,Maelskifterne,4673,36,12.352738,55.24872
1504095,Maelskifterne,4673,37,12.35317,55.25009
1504096,Maelskifterne,4673,38,12.352723,55.248441
1504097,Maelskifterne,4673,39,12.353783,55.250199
1504098,Maelskifterne,4673,40,12.35285,55.248135
1504099,Maelskifterne,4673,41,12.353858,55.249863
1504100,Maelskifterne,4673,42,12.353319,55.248845
1504101,Maelskifterne,4673,43,12.353859,55.249583
1504102,Maelskifterne,4673,44,12.3534949,55.2484897
1504103,Maelskifterne,4673,45,12.354011,55.249239
1504104,Maelskifterne,4673,46,12.353561,55.248224
1504105,Maelskifterne,4673,47,12.354526,55.249219
1504106,Maelskifterne,4673,48,12.353759,55.247864
1504107,Maelskifterne,4673,49,12.35433,55.249598
1504108,Maelskifterne,4673,50,12.354215,55.247886
1504109,Maelskifterne,4673,51,12.354229,55.249874
1504110,Maelskifterne,4673,52,12.354163,55.248227
1504111,Maelskifterne,4673,53,12.354158,55.2502323
1504112,Maelskifterne,4673,54,12.354104,55.248526
1504113,Maelskifterne,4673,55,12.354739,55.250266
1504114,Maelskifterne,4673,56,12.35406,55.248853
1504115,Maelskifterne,4673,57,12.354775,55.249976
1504116,Maelskifterne,4673,58,12.354549,55.248929
1504117,Maelskifterne,4673,59,12.354822,55.249651
1504118,Maelskifterne,4673,60,12.354656,55.248529
1504119,Maelskifterne,4673,61,12.355033,55.249229
1504120,Maelskifterne,4673,62,12.35463,55.248243
1504121,Maelskifterne,4673,63,12.355419,55.249287
1504122,Maelskifterne,4673,64,12.354732,55.247804
1504123,Maelskifterne,4673,65,12.355477,55.249602
1504124,Maelskifterne,4673,66,12.355215,55.247957
1504125,Maelskifterne,4673,67,12.355255,55.250019
1504128,Maelskifterne,4673,68,12.355169,55.248246
1504129,Maelskifterne,4673,69,12.355235,55.250298
1504131,Maelskifterne,4673,70,12.355144,55.248591
1504132,Maelskifterne,4673,71,12.355855,55.250285
1504133,Maelskifterne,4673,72,12.355073,55.248986
1504134,Maelskifterne,4673,73,12.355913,55.249993
1504135,Maelskifterne,4673,74,12.355624,55.248939
1504136,Maelskifterne,4673,75,12.35587,55.249728
1504137,Maelskifterne,4673,76,12.355593,55.248667
1504138,Maelskifterne,4673,77,12.3558945,55.2493674
1504139,Maelskifterne,4673,78,12.355613,55.24834
1504140,Maelskifterne,4673,80,12.35581,55.247952
1504141,Maelskifterne,4673,82,12.3561931,55.2479953
1504142,Maelskifterne,4673,84,12.356006,55.248257
1504143,Maelskifterne,4673,86,12.35611,55.248656
1504144,Maelskifterne,4673,88,12.355954,55.248931
1504445,Klintager,4673,1,12.3602503,55.2496003
1504447,Klintager,4673,2,12.3601533,55.2499468
1504450,Klintager,4673,3,12.3597771,55.2496153
1504451,Klintager,4673,4,12.359749,55.249913
1504454,Klintager,4673,5,12.359383,55.249616
1504456,Klintager,4673,6,12.3593494,55.2499167
1504459,Klintager,4673,7,12.3588961,55.2496188
1504462,Klintager,4673,8,12.3588838,55.2499147
1504463,Klintager,4673,9,12.3583738,55.2496202
1504467,Klintager,4673,10,12.3585074,55.2498819
1505209,Provstevej,4673,1,12.3939075,55.2775123
1505211,Provstevej,4673,3,12.39532,55.277088
1505261,Brinkvej,4673,3,12.380552,55.255267
1505263,Brinkvej,4673,4,12.3806915,55.2551358
1505265,Brinkvej,4673,6,12.3808863,55.2551976
1505266,Brinkvej,4673,8,12.3813002,55.2552841
1505269,Brinkvej,4673,10,12.3815742,55.2553412
1505584,Kornvænget,4673,1,12.3825434,55.259132
1505585,Kornvænget,4673,2,12.3823373,55.2588617
1505586,Kornvænget,4673,3,12.3827758,55.2590418
1505587,Kornvænget,4673,4,12.3825851,55.2588061
1505588,Kornvænget,4673,5,12.383126,55.259035
1505589,Kornvænget,4673,6,12.3828787,55.2587278
1505590,Kornvænget,4673,7,12.3833255,55.2589366
1505591,Kornvænget,4673,8,12.3831936,55.2586501
1505592,Kornvænget,4673,9,12.3836144,55.2587962
1505593,Kornvænget,4673,10,12.3834403,55.2585871
1505594,Kornvænget,4673,11,12.3840003,55.2587306
1505595,Kornvænget,4673,12,12.383578,55.258413
1505597,Kornvænget,4673,12A,12.3836991,55.2584893
1505599,Kornvænget,4673,12B,12.383778,55.2584696
1505600,Kornvænget,4673,13,12.384243,55.2589619
1505601,Kornvænget,4673,14,12.384313,55.258342
1505602,Kornvænget,4673,14A,12.3839689,55.2584697
1505603,Kornvænget,4673,14B,12.3840742,55.2584425
1505604,Kornvænget,4673,14C,12.3841796,55.258415
1505605,Kornvænget,4673,14D,12.384285,55.258388
1505606,Kornvænget,4673,14E,12.3843911,55.2583604
1505607,Kornvænget,4673,14F,12.3844966,55.2583332
1505608,Kornvænget,4673,14G,12.384602,55.258306
1505609,Kornvænget,4673,14H,12.3847073,55.2582784
1505610,Kornvænget,4673,14I,12.3838375,55.258301
1505611,Kornvænget,4673,14K,12.3839439,55.2582739
1505612,Kornvænget,4673,14L,12.3840499,55.2582472
1505613,Kornvænget,4673,14M,12.3841561,55.2582201
1505614,Kornvænget,4673,14N,12.3842622,55.2581931
1505615,Kornvænget,4673,14O,12.3843646,55.2581654
1505617,Kornvænget,4673,14P,12.384475,55.258139
1505619,Kornvænget,4673,14R,12.3845807,55.2581125
1505620,Kornvænget,4673,15,12.3843796,55.2586247
1505621,Kornvænget,4673,17,12.3845556,55.2589429
1505624,Kornvænget,4673,19,12.3847259,55.2584972
1505626,Kornvænget,4673,21,12.384986,55.258763
1505628,Kornvænget,4673,23,12.3851485,55.258467
1505629,Kornvænget,4673,24,12.3858219,55.2579814
1505630,Kornvænget,4673,25,12.3853637,55.2586491
1505631,Kornvænget,4673,26,12.3862352,55.2578604
1505632,Kornvænget,4673,27,12.385573,55.258396
1505633,Kornvænget,4673,28,12.3866177,55.2577724
1505634,Kornvænget,4673,29,12.3857536,55.2585317
1505635,Kornvænget,4673,30,12.3869575,55.2578304
1505636,Kornvænget,4673,31,12.385979,55.258222
1505637,Kornvænget,4673,32,12.38732,55.25791
1505638,Kornvænget,4673,33,12.3861509,55.258467
1505639,Kornvænget,4673,34,12.3876285,55.2580116
1505640,Kornvænget,4673,35,12.3863915,55.2580887
1505641,Kornvænget,4673,36,12.387939,55.2581761
1505642,Kornvænget,4673,37,12.3865641,55.2583304
1505643,Kornvænget,4673,38,12.3883404,55.2583269
1505644,Kornvænget,4673,39,12.3867352,55.2580741
1505645,Kornvænget,4673,40,12.388669,55.258382
1505646,Kornvænget,4673,43,12.3881208,55.2585661
1505683,Skørpingevej,4673,1,12.3898299,55.2721682
1505684,Skørpingevej,4673,2,12.3898831,55.2724986
1505685,Skørpingevej,4673,3,12.3892075,55.2722162
1505686,Skørpingevej,4673,3A,12.3885688,55.2718404
1505687,Skørpingevej,4673,4,12.3893507,55.2725583
1505688,Skørpingevej,4673,5,12.388706,55.272277
1505689,Skørpingevej,4673,6,12.3890409,55.2725899
1505690,Skørpingevej,4673,7,12.388484,55.272507
1505691,Skørpingevej,4673,8,12.388644,55.272944
1505693,Skørpingevej,4673,9,12.38799,55.272666
1505694,Skørpingevej,4673,10,12.3887726,55.2730612
1505695,Skørpingevej,4673,11,12.3875647,55.2727246
1505698,Skørpingevej,4673,13,12.38375,55.271185
1505699,Skørpingevej,4673,14,12.3830098,55.2722262
1505701,Skørpingevej,4673,14A,12.3779127,55.2690347
1505702,Skørpingevej,4673,15,12.380055,55.2711794
1505703,Skørpingevej,4673,16,12.375317,55.268931
1505706,Skørpingevej,4673,17,12.3781784,55.2688262
1505707,Skørpingevej,4673,18,12.374167,55.268913
1505709,Skørpingevej,4673,19,12.376049,55.268637
1505710,Skørpingevej,4673,20,12.369616,55.268944
1505713,Skørpingevej,4673,21,12.369213,55.268452
1505714,Skørpingevej,4673,21A,12.3699385,55.2685181
1505715,Skørpingevej,4673,22,12.368592,55.268992
1505716,Skørpingevej,4673,23,12.3685403,55.2685314
1505717,Skørpingevej,4673,24,12.367602,55.268673
1505718,Skørpingevej,4673,25,12.368286,55.2685173
1505719,Skørpingevej,4673,26,12.3663526,55.2689572
1505720,Skørpingevej,4673,27,12.367843,55.268436
1505721,Skørpingevej,4673,29,12.3660538,55.2683783
1505722,Skørpingevej,4673,30,12.3656253,55.269116
1505723,Skørpingevej,4673,31,12.365353,55.268766
1505724,Skørpingevej,4673,32,12.3651186,55.2690723
1505725,Skørpingevej,4673,33,12.364875,55.268883
1505726,Skørpingevej,4673,34,12.364006,55.269527
1505727,Skørpingevej,4673,35,12.363706,55.268972
1505728,Skørpingevej,4673,36,12.3632325,55.2696083
1505729,Skørpingevej,4673,37,12.362277,55.268363
1505730,Skørpingevej,4673,38,12.3627913,55.269421
1505731,Skørpingevej,4673,40,12.3626614,55.269894
1505732,Skørpingevej,4673,41,12.361824,55.2688471
1505733,Skørpingevej,4673,42,12.3623474,55.2696166
1505734,Skørpingevej,4673,44,12.362034,55.269505
1505735,Skørpingevej,4673,45,12.356513,55.269001
1505736,Skørpingevej,4673,46,12.3616251,55.2695918
1505737,Skørpingevej,4673,48,12.361328,55.269821
1505738,Skørpingevej,4673,49,12.3551992,55.2690266
1505739,Skørpingevej,4673,52,12.3557736,55.2693069
1505741,Skørpingevej,4673,53,12.3530784,55.2690233
1505742,Skørpingevej,4673,54,12.3526762,55.2693558
1505744,Skørpingevej,4673,55,12.3525518,55.2690349
1505746,Skørpingevej,4673,56,12.3520098,55.2697054
1505748,Skørpingevej,4673,57,12.3519197,55.2688893
1505750,Skørpingevej,4673,58,12.3518985,55.2692206
1505752,Skørpingevej,4673,60,12.3442,55.268699
1505754,Skørpingevej,4673,61,12.3428334,55.2683824
1505755,Skørpingevej,4673,62,12.3432054,55.2685548
1505758,Skørpingevej,4673,64,12.3426633,55.2688012
1505760,Skørpingevej,4673,66,12.3422796,55.2685941
1505762,Skørpingevej,4673,68,12.3420706,55.2685617
1505763,Skørpingevej,4673,70,12.3417184,55.2685181
1505790,Mellemvang,4673,2,12.3687899,55.254613
1505791,Mellemvang,4673,4,12.3689332,55.2546773
1505792,Mellemvang,4673,5,12.3692059,55.2549501
1505793,Mellemvang,4673,6,12.369253,55.254705
1505794,Mellemvang,4673,7,12.3694037,55.2550312
1505795,Mellemvang,4673,8,12.3695146,55.2546908
1506108,Ryttervej,4673,1,12.3894129,55.2731738
1506109,Ryttervej,4673,2,12.3893972,55.2735026
1506110,Ryttervej,4673,3,12.3888332,55.2734034
1506111,Ryttervej,4673,4,12.389056,55.27355
1506112,Ryttervej,4673,5,12.3884925,55.273303
1506113,Ryttervej,4673,6,12.3888539,55.2735719
1506114,Ryttervej,4673,7,12.3883115,55.2732446
1506115,Ryttervej,4673,8,12.388533,55.273707
1506116,Ryttervej,4673,9,12.3878145,55.2731554
1506117,Ryttervej,4673,10,12.387841,55.2737779
1506118,Ryttervej,4673,11,12.3873129,55.2736143
1506119,Ryttervej,4673,12,12.387519,55.273906
1506120,Ryttervej,4673,13,12.3870092,55.2735674
1506121,Ryttervej,4673,14,12.3871121,55.2743406
1506122,Ryttervej,4673,15,12.3864728,55.2735947
1506124,Ryttervej,4673,16,12.3868589,55.2744094
1506125,Ryttervej,4673,17,12.3861373,55.2743543
1506128,Ryttervej,4673,18,12.386585,55.274807
1506367,Strandvænget,4673,1,12.3661118,55.2540799
1506368,Strandvænget,4673,3,12.365824,55.2539289
1506369,Strandvænget,4673,4,12.3656194,55.2542566
1506370,Strandvænget,4673,5,12.3655773,55.2539176
1506371,Strandvænget,4673,6,12.3652677,55.2542347
1506372,Strandvænget,4673,7,12.3652511,55.2537828
1506373,Strandvænget,4673,8,12.365015,55.2541163
1506374,Strandvænget,4673,9,12.3650209,55.2536936
1506375,Strandvænget,4673,10,12.3646689,55.2540389
1507008,Lundeledsvej,4673,1,12.3012758,55.2449114
1507009,Lundeledsvej,4673,2,12.3014432,55.2450872
1507010,Lundeledsvej,4673,3,12.2924142,55.2458211
1507011,Lundeledsvej,4673,4,12.299262,55.245617
1507012,Lundeledsvej,4673,5,12.2879905,55.2453363
1507013,Lundeledsvej,4673,5A,12.295192,55.245496
1507014,Lundeledsvej,4673,6,12.293478,55.2458927
1507015,Lundeledsvej,4673,7,12.2875418,55.2462585
1507016,Lundeledsvej,4673,8,12.289679,55.246444
1507017,Lundeledsvej,4673,8A,12.2894883,55.2464637
1507018,Lundeledsvej,4673,9,12.2856527,55.2465464
1507019,Lundeledsvej,4673,10,12.288198,55.246559
1507020,Lundeledsvej,4673,11,12.2851593,55.2465311
1507022,Lundeledsvej,4673,13,12.2843987,55.2466818
1507261,Kirkebjergvej,4673,1,12.3277467,55.2716157
1507262,Kirkebjergvej,4673,2,12.3283489,55.2715127
1507263,Kirkebjergvej,4673,3,12.327932,55.271725
1507264,Kirkebjergvej,4673,4,12.3287238,55.2715563
1507265,Kirkebjergvej,4673,5,12.3283308,55.2717566
1507266,Kirkebjergvej,4673,6,12.32903,55.271622
1507267,Kirkebjergvej,4673,7,12.3286599,55.2718111
1507268,Kirkebjergvej,4673,8,12.32947,55.271714
1507269,Kirkebjergvej,4673,9,12.328901,55.2718919
1507270,Kirkebjergvej,4673,10,12.3296991,55.271781
1507271,Kirkebjergvej,4673,12,12.330024,55.271827
1507272,Kirkebjergvej,4673,13,12.3294737,55.2720473
1507273,Kirkebjergvej,4673,14,12.3302736,55.271955
1507274,Kirkebjergvej,4673,15,12.3298708,55.2720819
1507275,Kirkebjergvej,4673,16,12.3305908,55.2719531
1507276,Kirkebjergvej,4673,17,12.3301797,55.2720784
1507277,Kirkebjergvej,4673,19,12.3304649,55.2722259
1507278,Kirkebjergvej,4673,20,12.331148,55.272064
1507279,Kirkebjergvej,4673,21,12.3307662,55.2723142
1507280,Kirkebjergvej,4673,23,12.331081,55.2723686
1507281,Kirkebjergvej,4673,25,12.3313872,55.2724181
1507282,Kirkebjergvej,4673,27,12.3316921,55.2725643
1507283,Kirkebjergvej,4673,29,12.3317742,55.2723417
1507284,Kirkebjergvej,4673,31,12.3317992,55.2720835
1507339,Langager,4673,2,12.3586205,55.2541136
1507340,Langager,4673,4,12.358686,55.253879
1507341,Langager,4673,5,12.359276,55.253624
1507342,Langager,4673,6,12.3586644,55.2536761
1507343,Langager,4673,7,12.3593598,55.2533989
1507344,Langager,4673,8,12.3587387,55.2534562
1507345,Langager,4673,9,12.359212,55.2530486
1507346,Langager,4673,10,12.3587163,55.2532483
1507347,Langager,4673,12,12.3587229,55.2530022
1507348,Langager,4673,13,12.3595881,55.2523973
1507349,Langager,4673,15,12.359187,55.252382
1507350,Langager,4673,16,12.358596,55.2523757
1507351,Langager,4673,17,12.3595063,55.2521527
1507352,Langager,4673,18,12.35858,55.252111
1507353,Langager,4673,19,12.359069,55.252111
1507354,Langager,4673,20,12.358578,55.251895
1507355,Langager,4673,21,12.3596715,55.2518844
1507356,Langager,4673,22,12.358495,55.251654
1507357,Langager,4673,23,12.3591251,55.2518596
1507358,Langager,4673,25,12.3595732,55.251631
1507359,Langager,4673,27,12.3590944,55.2516098
1507381,Lodsvej,4673,3,12.377919,55.255087
1507382,Lodsvej,4673,3A,12.377783,55.255233
1507383,Lodsvej,4673,3B,12.3778094,55.2551811
1507384,Lodsvej,4673,3C,12.3778333,55.2551332
1507385,Lodsvej,4673,3D,12.3778613,55.2550882
1507386,Lodsvej,4673,3E,12.3778939,55.2550426
1507387,Lodsvej,4673,3F,12.3779105,55.2549966
1507388,Lodsvej,4673,3G,12.377853,55.254952
1507389,Lodsvej,4673,3H,12.3778767,55.254901
1507390,Lodsvej,4673,5,12.377923,55.254671
1507391,Lodsvej,4673,5A,12.3779003,55.2548119
1507392,Lodsvej,4673,5B,12.3779219,55.2547602
1507393,Lodsvej,4673,5C,12.377832,55.2547187
1507394,Lodsvej,4673,5D,12.3778568,55.2546696
1507395,Lodsvej,4673,5E,12.3778065,55.2546339
1507396,Lodsvej,4673,5F,12.377837,55.254587
1507397,Lodsvej,4673,5G,12.377789,55.254549
1507398,Lodsvej,4673,5H,12.3778086,55.2544954
1507399,Lodsvej,4673,9,12.377649,55.254199
1507400,Lodsvej,4673,10,12.377381,55.254267
1507401,Lodsvej,4673,11,12.3776553,55.2539948
1507402,Lodsvej,4673,12,12.3773587,55.2541937
1507403,Lodsvej,4673,13,12.377902,55.2536
1507404,Lodsvej,4673,15,12.3778551,55.2535493
1507405,Lodsvej,4673,17,12.377808,55.253498
1507406,Lodsvej,4673,19,12.3777605,55.2534473
1507407,Lodsvej,4673,20,12.377321,55.253896
1507408,Lodsvej,4673,21,12.3777134,55.2533962
1507409,Lodsvej,4673,22,12.3771763,55.2536727
1507500,Bæverdalen,4673,2,12.3622648,55.2513938
1507501,Bæverdalen,4673,3,12.3626533,55.2511727
1507502,Bæverdalen,4673,4,12.3623202,55.2511421
1507503,Bæverdalen,4673,5,12.362951,55.250925
1507504,Bæverdalen,4673,6,12.3623938,55.2509037
1507505,Bæverdalen,4673,7,12.3628283,55.2507228
1507506,Bæverdalen,4673,8,12.361983,55.250693
1507507,Bæverdalen,4673,9,12.362627,55.250641
1507508,Bæverdalen,4673,10,12.36202,55.250492
1507509,Bæverdalen,4673,11,12.3626103,55.2504639
1507510,Bæverdalen,4673,12,12.3617623,55.2503743
1507511,Bæverdalen,4673,13,12.362249,55.250369
1507512,Bæverdalen,4673,14,12.3614278,55.2503464
1507513,Bæverdalen,4673,16,12.361517,55.2505433
1507514,Bæverdalen,4673,18,12.3617113,55.2507599
1507515,Bæverdalen,4673,20,12.3613915,55.2507543
1507516,Bæverdalen,4673,22,12.3611322,55.2503261
1507518,Søndervej,4673,4,12.369689,55.2555056
1507519,Søndervej,4673,5,12.3703767,55.2554066
1507520,Søndervej,4673,7,12.3704843,55.2551697
1507521,Søndervej,4673,8,12.3704778,55.2549646
1507522,Søndervej,4673,9,12.371122,55.255137
1507523,Søndervej,4673,9A,12.3709525,55.2551461
1507676,Rønnebærvej,4673,2,12.432428,55.275694
1507677,Rønnebærvej,4673,4,12.4329367,55.2753757
1507678,Rønnebærvej,4673,6,12.4341452,55.2757452
1507679,Klokkervej,4673,1,12.3889648,55.2742776
1507680,Klokkervej,4673,4,12.388974,55.2744288
1507714,Plusvej,4673,2,12.373077,55.255866
1507715,Plusvej,4673,2A,12.3727777,55.2558317
1507716,Plusvej,4673,2B,12.372644,55.255814
1507717,Plusvej,4673,2C,12.3725313,55.2556581
1507718,Plusvej,4673,2D,12.3725627,55.2555811
1507719,Plusvej,4673,3,12.3733101,55.2560008
1507720,Plusvej,4673,3A,12.3735107,55.2558509
1507721,Plusvej,4673,4,12.372948,55.255846
1507722,Plusvej,4673,4A,12.3723111,55.2557679
1507723,Plusvej,4673,4B,12.3721784,55.2557502
1507724,Plusvej,4673,4C,12.3720459,55.2557325
1507725,Plusvej,4673,4D,12.3717239,55.2559224
1507726,Plusvej,4673,4E,12.3717556,55.2558454
1507727,Plusvej,4673,5,12.3734347,55.2556461
1507728,Plusvej,4673,6,12.37321,55.255422
1507729,Plusvej,4673,6A,12.3730641,55.2557889
1507730,Plusvej,4673,6B,12.373087,55.255712
1507731,Plusvej,4673,6C,12.37311,55.255634
1507732,Plusvej,4673,7,12.3734977,55.255426
1507733,Plusvej,4673,8,12.373082,55.255387
1507734,Plusvej,4673,8A,12.3729412,55.2553855
1507735,Plusvej,4673,8B,12.3728075,55.2553674
1507736,Plusvej,4673,8C,12.3731983,55.2553186
1507737,Plusvej,4673,8D,12.3732158,55.2552406
1507738,Plusvej,4673,8E,12.3732334,55.2551627
1507739,Plusvej,4673,9,12.373775,55.255157
1507740,Plusvej,4673,9A,12.37369,55.2552
1507741,Plusvej,4673,9B,12.3736734,55.2551277
1507742,Plusvej,4673,10,12.373378,55.254963
1507743,Plusvej,4673,11,12.3735703,55.2549881
1507744,Plusvej,4673,12,12.3728714,55.2548216
1507745,Plusvej,4673,13,12.3738928,55.2548561
1507746,Plusvej,4673,14,12.3726646,55.2548205
1507747,Plusvej,4673,18,12.372106,55.255102
1507748,Plusvej,4673,20,12.372297,55.255196
1507749,Plusvej,4673,22,12.372309,55.255218
1507750,Plusvej,4673,24,12.37248,55.255242
1507751,Plusvej,4673,26,12.372517,55.255232
1507752,Plusvej,4673,28,12.372559,55.255133
1507753,Plusvej,4673,30,12.372521,55.255104
1507754,Plusvej,4673,32,12.37228,55.254987
1507755,Plusvej,4673,34,12.3723141,55.2549049
1507756,Plusvej,4673,36,12.372287,55.254884
1507757,Plusvej,4673,38,12.372111,55.25486
1507758,Plusvej,4673,40,12.372077,55.254867
1507759,Plusvej,4673,42,12.372036,55.2549528
1507760,Plusvej,4673,44,12.371704,55.25501
1507761,Plusvej,4673,46,12.3716627,55.2550207
1507762,Plusvej,4673,48,12.371623,55.255115
1507763,Plusvej,4673,50,12.371642,55.255144
1507764,Plusvej,4673,52,12.371797,55.255165
1507765,Plusvej,4673,54,12.371841,55.25515
1507766,Plusvej,4673,56,12.371874,55.255411
1507767,Plusvej,4673,58,12.371836,55.255507
1507768,Plusvej,4673,60,12.371814,55.255555
1507769,Plusvej,4673,62,12.37198,55.255577
1507770,Plusvej,4673,64,12.371999,55.255532
1507771,Plusvej,4673,66,12.372016,55.255487
1507772,Plusvej,4673,68,12.372045,55.255427
1507773,Plusvej,4673,70,12.372061,55.25538
1507849,Dyssevej,4673,2,12.311722,55.245821
1507850,Dyssevej,4673,4,12.310716,55.248326
1507851,Dyssevej,4673,6,12.307731,55.253341
1508261,Lillevej,4673,3,12.3421502,55.2691432
1508262,Lillevej,4673,4,12.3416945,55.2688894
1508263,Lillevej,4673,5,12.342606,55.269175
1508379,Marmorvej,4673,1,12.3772525,55.2596189
1508380,Marmorvej,4673,2,12.3766842,55.2589827
1508381,Marmorvej,4673,3,12.3775596,55.2594162
1508382,Marmorvej,4673,4,12.3767059,55.2589016
1508383,Marmorvej,4673,5,12.3778191,55.259339
1508384,Marmorvej,4673,6,12.3769709,55.2589914
1508385,Marmorvej,4673,7,12.378187,55.2591547
1508386,Marmorvej,4673,8,12.3769924,55.2589054
1508387,Marmorvej,4673,9,12.3785674,55.259076
1508388,Marmorvej,4673,10,12.3772989,55.2589179
1508389,Marmorvej,4673,12,12.3772497,55.2589947
1508390,Marmorvej,4673,14,12.3772006,55.2590718
1508391,Marmorvej,4673,16,12.3774616,55.2591859
1508392,Marmorvej,4673,18,12.3774854,55.259103
1508393,Marmorvej,4673,20,12.37751,55.2590201
1508394,Marmorvej,4673,22,12.377161,55.259218
1508395,Marmorvej,4673,24,12.3771357,55.2593175
1508396,Marmorvej,4673,26,12.3769168,55.259404
1508397,Marmorvej,4673,28,12.3769369,55.2593213
1508398,Marmorvej,4673,30,12.3769569,55.2592386
1508399,Marmorvej,4673,32,12.3767177,55.2591084
1508400,Marmorvej,4673,34,12.3778205,55.2590533
1508401,Marmorvej,4673,36,12.378298,55.258867
1508456,Vinkelager,4673,1,12.360221,55.250187
1508457,Vinkelager,4673,2,12.3602249,55.2505586
1508458,Vinkelager,4673,3,12.3597824,55.2502187
1508459,Vinkelager,4673,4,12.3597312,55.2505109
1508460,Vinkelager,4673,5,12.3593202,55.2502107
1508461,Vinkelager,4673,6,12.3594977,55.2505486
1508462,Vinkelager,4673,7,12.3589505,55.25019
1508463,Vinkelager,4673,8,12.3589995,55.250577
1508464,Vinkelager,4673,9,12.3584835,55.2502183
1508465,Vinkelager,4673,10,12.3592547,55.2507599
1508466,Vinkelager,4673,11,12.358544,55.2504617
1508467,Vinkelager,4673,12,12.359177,55.25097
1508468,Vinkelager,4673,13,12.3585584,55.2508105
1508469,Vinkelager,4673,14,12.3592079,55.2511244
1508470,Vinkelager,4673,15,12.3585584,55.2510347
1508471,Vinkelager,4673,16,12.3590571,55.2513354
1508472,Vinkelager,4673,17,12.3585514,55.251321
1512296,Boestoftevej,4673,3,12.3408821,55.2683007
1512297,Boestoftevej,4673,3A,12.340395,55.2680121
1512298,Boestoftevej,4673,4,12.340714,55.268565
1512299,Boestoftevej,4673,5,12.3404383,55.2683197
1512300,Boestoftevej,4673,6,12.3399939,55.2686695
1512301,Boestoftevej,4673,7,12.3401276,55.2682531
1512302,Boestoftevej,4673,8,12.3397655,55.268555
1512303,Boestoftevej,4673,9,12.3395066,55.2683912
1512304,Boestoftevej,4673,10,12.3395998,55.26868
1512305,Boestoftevej,4673,11,12.3390925,55.2684085
1512306,Boestoftevej,4673,13,12.3392213,55.2680898
1512307,Boestoftevej,4673,15,12.3386488,55.2683514
1512308,Boestoftevej,4673,17,12.3379016,55.2681752
1512309,Boestoftevej,4673,18,12.3376082,55.268672
1512310,Boestoftevej,4673,19,12.3374684,55.2681753
1512311,Boestoftevej,4673,20,12.3370221,55.2685224
1512312,Boestoftevej,4673,20A,12.3367796,55.2685637
1512313,Boestoftevej,4673,21,12.336465,55.268136
1512314,Boestoftevej,4673,22,12.336035,55.268536
1512315,Boestoftevej,4673,24,12.3348325,55.2685552
1512316,Boestoftevej,4673,25,12.3349909,55.268171
1512317,Boestoftevej,4673,26,12.332455,55.270037
1512318,Boestoftevej,4673,26A,12.3335968,55.2691353
1512319,Boestoftevej,4673,27,12.3318587,55.2697513
1512320,Boestoftevej,4673,29,12.331566,55.269872
1512321,Boestoftevej,4673,31,12.3312935,55.269989
1512322,Boestoftevej,4673,33,12.330941,55.270156
1512323,Boestoftevej,4673,35,12.3305806,55.269924
1512324,Boestoftevej,4673,37,12.3299355,55.2702224
1512325,Boestoftevej,4673,39,12.330504,55.270224
1512326,Boestoftevej,4673,41,12.3303652,55.2704374
1512327,Boestoftevej,4673,43,12.329452,55.270463
1512328,Boestoftevej,4673,47,12.329179,55.270568
1512329,Boestoftevej,4673,49,12.3291164,55.2708104
1512330,Boestoftevej,4673,51,12.3285148,55.2709739
1512331,Boestoftevej,4673,53,12.327974,55.27119
1512334,Boestoftevej,4673,55,12.3271002,55.2713769
1513614,Vinkelvej,4673,1,12.3768,55.256072
1513616,Vinkelvej,4673,2,12.377271,55.256176
1513619,Vinkelvej,4673,2A,12.3771229,55.2562663
1513620,Vinkelvej,4673,2B,12.3771532,55.2561727
1513624,Vinkelvej,4673,2C,12.3772202,55.256094
1513625,Vinkelvej,4673,2D,12.37701,55.2563979
1513629,Vinkelvej,4673,2E,12.377143,55.2564401
1513634,Vinkelvej,4673,2F,12.3773437,55.2563366
1513636,Vinkelvej,4673,2G,12.3774425,55.2562502
1513639,Vinkelvej,4673,2H,12.3775328,55.2561681
1513642,Vinkelvej,4673,2K,12.376999,55.256593
1513645,Vinkelvej,4673,2L,12.3769036,55.2566722
1513649,Vinkelvej,4673,3,12.3766114,55.2564053
1513650,Vinkelvej,4673,5,12.3763749,55.2565514
1513653,Vinkelvej,4673,6,12.3760328,55.2572714
1513656,Vinkelvej,4673,7,12.3762286,55.2567255
1513660,Vinkelvej,4673,8,12.3755824,55.2573041
1513663,Vinkelvej,4673,10,12.374889,55.2573653
1513665,Vinkelvej,4673,11,12.3761046,55.2570468
1513668,Vinkelvej,4673,11A,12.3756966,55.2566733
1513670,Vinkelvej,4673,13,12.3755275,55.2570563
1513673,Vinkelvej,4673,13A,12.3755202,55.2567627
1513679,Vinkelvej,4673,14,12.3745347,55.2573808
1513680,Vinkelvej,4673,15,12.3751327,55.2571112
1513684,Vinkelvej,4673,16,12.3742025,55.2575211
1513686,Vinkelvej,4673,17,12.3747829,55.2571404
1513689,Vinkelvej,4673,18,12.3738866,55.2574125
1513693,Vinkelvej,4673,19,12.3742716,55.25718
1513695,Vinkelvej,4673,20,12.3736831,55.2574279
1513698,Vinkelvej,4673,22,12.373161,55.257444
1513699,Vinkelvej,4673,23,12.3735623,55.2571971
1513703,Vinkelvej,4673,24,12.3730093,55.2573282
1513707,Vinkelvej,4673,25,12.373312,55.256787
1513708,Vinkelvej,4673,26,12.3730158,55.2571564
1513712,Vinkelvej,4673,28,12.3729619,55.2570175
1513727,Malervej,4673,1,12.395064,55.2728966
1513729,Malervej,4673,2,12.394966,55.272775
1513731,Malervej,4673,3,12.3952425,55.2728515
1513733,Malervej,4673,3A,12.3953704,55.2728315
1673384,Storemarksvej,4673,19,12.3788258,55.2768603
1673390,Storemarksvej,4673,20,12.378348,55.2775202
1673391,Storemarksvej,4673,21,12.3745406,55.2783173
1673395,Storemarksvej,4673,22,12.377432,55.278507
1673398,Storemarksvej,4673,22A,12.3725196,55.2848277
1673400,Storemarksvej,4673,23,12.367512,55.279885
1673403,Storemarksvej,4673,24,12.3643886,55.2818223
1673406,Storemarksvej,4673,25,12.3654589,55.2812031
1673408,Storemarksvej,4673,26,12.361269,55.285302
1673412,Storemarksvej,4673,27,12.3632082,55.2817661
1673413,Storemarksvej,4673,29,12.361028,55.2819349
1673416,Storemarksvej,4673,30,12.353508,55.28362
1673420,Storemarksvej,4673,31,12.358264,55.283329
1675366,Kaspervej,4673,1,12.3617465,55.2512976
1675369,Kaspervej,4673,3,12.3617523,55.2509881
1675371,Kaspervej,4673,4,12.36138,55.2509612
1686224,Nordvangen,4673,1,12.3569489,55.2561632
1692492,Tornebjergvej,4673,3,12.341095,55.26888
1692493,Tornebjergvej,4673,6,12.3414554,55.2690782
1692494,Tornebjergvej,4673,10,12.3415345,55.2692806
1692495,Tornebjergvej,4673,11,12.3409102,55.2696906
1692496,Tornebjergvej,4673,12,12.3423087,55.2698934
1692497,Tornebjergvej,4673,13,12.3406133,55.2701585
1692498,Tornebjergvej,4673,14,12.3410968,55.2700149
1692499,Tornebjergvej,4673,15,12.340595,55.270793
1692500,Tornebjergvej,4673,16,12.3411658,55.2702283
1692501,Tornebjergvej,4673,18,12.3415912,55.2707719
1692502,Tornebjergvej,4673,18C,12.3451154,55.271411
1692503,Tornebjergvej,4673,20,12.3439867,55.2729751
1692504,Tornebjergvej,4673,21,12.344766,55.275338
1692505,Tornebjergvej,4673,22,12.3478158,55.2753886
1692506,Tornebjergvej,4673,23,12.346203,55.27755
1692507,Tornebjergvej,4673,23A,12.3458148,55.2788014
1692508,Tornebjergvej,4673,24,12.3505721,55.2788282
1692509,Tornebjergvej,4673,25,12.3494179,55.2813536
1692510,Tornebjergvej,4673,27,12.349446,55.282525
1692511,Tornebjergvej,4673,29,12.345315,55.283157
1692512,Tornebjergvej,4673,29A,12.3454434,55.2829421
1692513,Tornebjergvej,4673,29B,12.3451774,55.2829306
1695154,Lund Gade,4673,1,12.301995,55.244973
1695155,Lund Gade,4673,2,12.301732,55.2435715
1695156,Lund Gade,4673,3,12.302016,55.244486
1695157,Lund Gade,4673,4,12.301786,55.243384
1695158,Lund Gade,4673,5,12.301844,55.244139
1695159,Lund Gade,4673,5A,12.3021839,55.2440722
1695160,Lund Gade,4673,6,12.301877,55.243138
1695161,Lund Gade,4673,7,12.3024634,55.2433112
1695162,Lund Gade,4673,8,12.301942,55.242947
1695163,Lund Gade,4673,9,12.3024608,55.2429175
1695164,Lund Gade,4673,10,12.301398,55.24247
1695165,Lund Gade,4673,12,12.30173,55.2422884
1695166,Lund Gade,4673,14,12.3012468,55.2420789
1695167,Lund Gade,4673,15,12.302014,55.24213
1695168,Lund Gade,4673,16,12.300987,55.241949
1695169,Lund Gade,4673,17,12.301997,55.241691
1695170,Lund Gade,4673,18,12.3010518,55.2417898
1695171,Lund Gade,4673,19,12.301549,55.241837
1695172,Lund Gade,4673,20,12.3008891,55.2416003
1695173,Lund Gade,4673,21,12.301211,55.241607
1695174,Lund Gade,4673,22,12.300625,55.241497
1695175,Lund Gade,4673,23,12.3012749,55.2412711
1695176,Lund Gade,4673,23A,12.302394,55.240935
1695177,Lund Gade,4673,24,12.300493,55.241331
1695178,Lund Gade,4673,25,12.3010499,55.2410813
1695179,Lund Gade,4673,26,12.30064,55.241119
1695180,Lund Gade,4673,27,12.3010279,55.240925
1695181,Lund Gade,4673,28,12.300377,55.241156
1695182,Lund Gade,4673,29,12.3010101,55.2407762
1695183,Lund Gade,4673,30,12.299447,55.241263
1695184,Lund Gade,4673,31,12.3009004,55.2405297
1695185,Lund Gade,4673,32,12.3005546,55.240997
1695186,Lund Gade,4673,33,12.3012739,55.2404711
1695187,Lund Gade,4673,34,12.3004044,55.2408367
1695188,Lund Gade,4673,35,12.300957,55.240225
1695189,Lund Gade,4673,36,12.3002928,55.2405635
1695190,Lund Gade,4673,37,12.301684,55.239631
1695191,Lund Gade,4673,38,12.3002366,55.2402934
1695192,Lund Gade,4673,39,12.3014834,55.2390116
1695193,Lund Gade,4673,40,12.3005636,55.2400939
1695194,Lund Gade,4673,42,12.300646,55.239868
1695195,Lund Gade,4673,44,12.300206,55.239847
1695196,Lund Gade,4673,44A,12.2997589,55.239579
1695197,Lund Gade,4673,46,12.3007782,55.2395266
1695198,Lund Gade,4673,48,12.3009606,55.23931
1695199,Lund Gade,4673,50,12.300592,55.239127
1695200,Lund Gade,4673,52,12.3015084,55.2386676
1699458,Skomagervej,4673,1,12.364854,55.254747
1699459,Skomagervej,4673,3,12.3644887,55.2549129
1699460,Skomagervej,4673,3A,12.364452,55.255474
1699461,Skomagervej,4673,4,12.3654948,55.2552724
1699462,Skomagervej,4673,5,12.3645002,55.255156
1699463,Skomagervej,4673,6,12.364894,55.255394
1699464,Skomagervej,4673,7,12.364411,55.255259
1699465,Skomagervej,4673,8,12.365171,55.255582
1699673,Toftemosevej,4673,1,12.366345,55.269291
1699674,Toftemosevej,4673,2,12.3671862,55.2688761
1699675,Toftemosevej,4673,4,12.367515,55.274943
1913954,Nordre Klintevej,4673,1,12.382202,55.256015
1913955,Nordre Klintevej,4673,2,12.382782,55.255993
1913956,Nordre Klintevej,4673,3,12.382458,55.256194
1913957,Nordre Klintevej,4673,4,12.382934,55.256353
1913958,Nordre Klintevej,4673,9,12.382773,55.256717
1913959,Nordre Klintevej,4673,10,12.383217,55.256757
1913960,Nordre Klintevej,4673,11,12.382863,55.25692
1913961,Nordre Klintevej,4673,12,12.383394,55.256974
1913962,Nordre Klintevej,4673,13,12.382913,55.25713
1913963,Nordre Klintevej,4673,14,12.383423,55.257132
1913964,Nordre Klintevej,4673,15,12.383075,55.257318
1913965,Nordre Klintevej,4673,16,12.383515,55.257339
1913966,Nordre Klintevej,4673,17,12.383182,55.257534
1913967,Nordre Klintevej,4673,18,12.3836,55.257493
2000550,Broveshøjvej,4673,1,12.3898368,55.2734918
2000551,Broveshøjvej,4673,3,12.3914574,55.2730243
2000552,Broveshøjvej,4673,4,12.3908054,55.2726138
2000553,Broveshøjvej,4673,8,12.3913706,55.2728952
2000554,Broveshøjvej,4673,9,12.391638,55.27298
2000555,Broveshøjvej,4673,10,12.3916751,55.2727187
2000556,Broveshøjvej,4673,11,12.3921415,55.2728915
2000557,Broveshøjvej,4673,12,12.391976,55.272774
2000558,Broveshøjvej,4673,13,12.3928234,55.2728386
2000559,Broveshøjvej,4673,14,12.3925501,55.2722187
2000560,Broveshøjvej,4673,15,12.3933841,55.2729
2000561,Broveshøjvej,4673,16,12.3926381,55.2726792
2000562,Broveshøjvej,4673,16A,12.393075,55.2726327
2000563,Broveshøjvej,4673,17,12.3936453,55.2729135
2000564,Broveshøjvej,4673,18,12.3932877,55.2724945
2000565,Broveshøjvej,4673,19,12.394178,55.273152
2000566,Broveshøjvej,4673,20,12.3935032,55.2726383
2000567,Broveshøjvej,4673,22,12.3939061,55.2726033
2000568,Broveshøjvej,4673,23,12.3952332,55.2726234
2000569,Broveshøjvej,4673,24,12.3942544,55.2724996
2000570,Broveshøjvej,4673,25,12.395599,55.272678
2000571,Broveshøjvej,4673,26,12.394493,55.272136
2000572,Broveshøjvej,4673,27,12.413544,55.273466
2000573,Broveshøjvej,4673,29,12.4162596,55.273258
2104067,Byvangen,4673,1,12.367609,55.256317
2104068,Byvangen,4673,1A,12.3676181,55.2562558
2104069,Byvangen,4673,1B,12.3675317,55.2563454
2104070,Byvangen,4673,2,12.366935,55.25608
2104071,Byvangen,4673,3,12.367985,55.256407
2104072,Byvangen,4673,3A,12.367975,55.2563523
2104073,Byvangen,4673,3B,12.3678908,55.2564403
2104074,Byvangen,4673,4,12.3664514,55.2559702
2104075,Byvangen,4673,5,12.368342,55.256515
2104076,Byvangen,4673,5A,12.368345,55.256455
2104077,Byvangen,4673,5B,12.3682557,55.2565439
2104078,Byvangen,4673,6,12.365941,55.255833
2104079,Byvangen,4673,6A,12.3660938,55.2558771
2104080,Byvangen,4673,6B,12.3658501,55.2557718
2104081,Byvangen,4673,7,12.368713,55.256689
2104082,Byvangen,4673,7A,12.3687144,55.2566305
2104083,Byvangen,4673,7B,12.3686234,55.2567181
2104084,Byvangen,4673,8,12.3656587,55.2556103
2104085,Byvangen,4673,9,12.36913,55.256821
2104086,Byvangen,4673,9A,12.3691276,55.2567626
2104087,Byvangen,4673,9B,12.3690413,55.2568506
2104088,Byvangen,4673,10,12.365689,55.255512
2104089,Byvangen,4673,11,12.369534,55.256954
2104090,Byvangen,4673,11A,12.3695409,55.2568923
2104091,Byvangen,4673,11B,12.3694521,55.2569806
2104092,Byvangen,4673,12,12.366207,55.25555
2104093,Byvangen,4673,13,12.369954,55.257077
2104094,Byvangen,4673,13A,12.369947,55.257025
2104095,Byvangen,4673,13B,12.3698609,55.2571128
2104096,Byvangen,4673,14,12.3664525,55.255709
2104097,Byvangen,4673,15,12.370323,55.257207
2104098,Byvangen,4673,15A,12.3703228,55.2571447
2104099,Byvangen,4673,15B,12.3702358,55.257235
2104100,Byvangen,4673,17,12.3711034,55.2569344
2104101,Byvangen,4673,19,12.370633,55.256885
2104102,Byvangen,4673,21,12.370164,55.256723
2104103,Byvangen,4673,23,12.3697841,55.2566582
2104104,Byvangen,4673,25,12.369415,55.256524
2104105,Byvangen,4673,27,12.36922,55.2563861
2104106,Byvangen,4673,29,12.3688634,55.2562973
2104107,Byvangen,4673,31,12.3684768,55.2561693
2104108,Rødvig Hovedgade,4673,1,12.3790487,55.2556608
2104109,Rødvig Hovedgade,4673,2,12.3797816,55.2557655
2104110,Rødvig Hovedgade,4673,3,12.3785941,55.2556828
2104111,Rødvig Hovedgade,4673,4,12.3790961,55.2558499
2104112,Rødvig Hovedgade,4673,5,12.3776416,55.2557604
2104113,Rødvig Hovedgade,4673,6,12.3787983,55.2558896
2104114,Rødvig Hovedgade,4673,6A,12.378412,55.25597
2104115,Rødvig Hovedgade,4673,6B,12.3783435,55.2560584
2104116,Rødvig Hovedgade,4673,6C,12.3782787,55.2561389
2104117,Rødvig Hovedgade,4673,7,12.3773687,55.2557071
2104118,Rødvig Hovedgade,4673,8,12.3776578,55.2560049
2104119,Rødvig Hovedgade,4673,12,12.376247,55.256123
2104120,Rødvig Hovedgade,4673,12A,12.376089,55.256266
2104121,Rødvig Hovedgade,4673,13,12.376251,55.255919
2104122,Rødvig Hovedgade,4673,14,12.3758971,55.2561173
2104123,Rødvig Hovedgade,4673,15,12.3757463,55.255979
2104124,Rødvig Hovedgade,4673,16,12.3756146,55.2563225
2104125,Rødvig Hovedgade,4673,17,12.3753615,55.2560204
2104126,Rødvig Hovedgade,4673,17A,12.3753841,55.2559274
2104127,Rødvig Hovedgade,4673,18,12.375302,55.256228
2104128,Rødvig Hovedgade,4673,19,12.374928,55.255933
2104129,Rødvig Hovedgade,4673,19A,12.374953,55.255846
2104130,Rødvig Hovedgade,4673,20,12.3747644,55.2562489
2104131,Rødvig Hovedgade,4673,20A,12.3748331,55.2563809
2104132,Rødvig Hovedgade,4673,22,12.3744675,55.2562745
2104133,Rødvig Hovedgade,4673,23,12.374237,55.25613
2104134,Rødvig Hovedgade,4673,24,12.3743,55.256296
2104135,Rødvig Hovedgade,4673,25,12.3740906,55.2561471
2104136,Rødvig Hovedgade,4673,26,12.3740747,55.2563867
2104137,Rødvig Hovedgade,4673,26A,12.3740735,55.256299
2104138,Rødvig Hovedgade,4673,26B,12.3741031,55.2563333
2104139,Rødvig Hovedgade,4673,26C,12.3740496,55.2564126
2104140,Rødvig Hovedgade,4673,27,12.373895,55.256135
2104141,Rødvig Hovedgade,4673,28,12.3738564,55.2563361
2104142,Rødvig Hovedgade,4673,29,12.373559,55.256184
2104143,Rødvig Hovedgade,4673,30,12.3734588,55.2563787
2104144,Rødvig Hovedgade,4673,32,12.372984,55.256416
2104145,Rødvig Hovedgade,4673,33,12.3726401,55.2561486
2104146,Rødvig Hovedgade,4673,35,12.3723268,55.2562561
2173331,Bakkegården,4673,2,12.3896715,55.2748282
2173333,Bakkegården,4673,4,12.3891103,55.2751592
2173334,Bakkegården,4673,6,12.38844,55.275282
2173336,Bakkegården,4673,8,12.3877748,55.2753898
2173337,Bakkegården,4673,10,12.3870938,55.275481
2173338,Bakkegården,4673,12,12.3860796,55.2758244
2173339,Bakkegården,4673,14,12.386151,55.275543
2175419,Ræveholm,4673,1,12.374827,55.259135
2175427,Ræveholm,4673,2,12.374954,55.259056
2175428,Ræveholm,4673,3,12.375091,55.258999
2175436,Ræveholm,4673,4,12.375209,55.258927
2175440,Ræveholm,4673,5,12.3750489,55.2592775
2175445,Ræveholm,4673,6,12.375143,55.259222
2175449,Ræveholm,4673,7,12.375224,55.259171
2175454,Ræveholm,4673,8,12.375334,55.25913
2175461,Ræveholm,4673,9,12.37543,55.259072
2175466,Ræveholm,4673,10,12.375383,55.259312
2175469,Ræveholm,4673,11,12.375547,55.259316
2175476,Ræveholm,4673,12,12.375689,55.259319
2175483,Ræveholm,4673,13,12.375225,55.259495
2175486,Ræveholm,4673,14,12.3754077,55.2594977
2175493,Ræveholm,4673,15,12.375582,55.25952
2175499,Ræveholm,4673,16,12.375754,55.259523
2175502,Ræveholm,4673,17,12.375227,55.259684
2175508,Ræveholm,4673,18,12.375387,55.259687
2175511,Ræveholm,4673,19,12.375557,55.259708
2175516,Ræveholm,4673,20,12.375756,55.259711
2175522,Ræveholm,4673,21,12.37497,55.259607
2175523,Ræveholm,4673,22,12.3745192,55.2595511
2175528,Ræveholm,4673,23,12.374432,55.25964
2175535,Ræveholm,4673,24,12.374192,55.259523
2175536,Ræveholm,4673,25,12.374054,55.259608
2175767,Strandageren,4673,3,12.3663192,55.2545327
2175770,Strandageren,4673,4,12.3659712,55.2544186
2175771,Strandageren,4673,5,12.3665859,55.2542823
2175773,Strandageren,4673,7,12.366648,55.254053
2175774,Strandageren,4673,8,12.3662134,55.2536498
2175775,Strandageren,4673,9,12.3666894,55.2538541
2175776,Strandageren,4673,10,12.3663963,55.2534908
2175777,Strandageren,4673,11,12.3668132,55.2536074
2175778,Strandageren,4673,12,12.3660873,55.2532045
2175779,Strandageren,4673,13,12.366911,55.2533403
2175780,Strandageren,4673,14,12.3659629,55.2533802
2175781,Strandageren,4673,15,12.3667086,55.2531687
2175782,Strandageren,4673,16,12.3657615,55.2535162
2175783,Strandageren,4673,17,12.3664821,55.2530952
2175784,Strandageren,4673,19,12.3663129,55.2529459
2175785,Strandageren,4673,21,12.3661709,55.2527619
2175786,Strandageren,4673,23,12.365911,55.2526376
2175787,Strandageren,4673,25,12.3655109,55.2531126
2175789,Strandageren,4673,27,12.3651833,55.2534002
2176258,Thorsvænge,4673,1,12.372805,55.258437
2176263,Thorsvænge,4673,2,12.373427,55.258444
2176265,Thorsvænge,4673,3,12.372469,55.258368
2176268,Thorsvænge,4673,4,12.37391,55.258481
2176271,Thorsvænge,4673,5,12.372044,55.258331
2176274,Thorsvænge,4673,6,12.3742667,55.258505
2176277,Thorsvænge,4673,7,12.371729,55.258231
2176279,Thorsvænge,4673,8,12.374607,55.258538
2176283,Thorsvænge,4673,9,12.371597,55.25847
2176284,Thorsvænge,4673,10,12.374877,55.258593
2176288,Thorsvænge,4673,11,12.37147,55.258659
2176292,Thorsvænge,4673,12,12.3751822,55.2586811
2176298,Thorsvænge,4673,12B,12.375537,55.258973
2176302,Thorsvænge,4673,13,12.372004,55.258618
2176305,Thorsvænge,4673,14,12.374753,55.258798
2176309,Thorsvænge,4673,15,12.372374,55.258611
2176312,Thorsvænge,4673,16,12.374264,55.258703
2176320,Thorsvænge,4673,17,12.372776,55.258561
2176323,Thorsvænge,4673,18,12.3737982,55.2586388
2176331,Thorsvænge,4673,19,12.3727777,55.2590065
2176335,Thorsvænge,4673,20,12.373447,55.25865
2176338,Thorsvænge,4673,21,12.372443,55.259077
2176345,Thorsvænge,4673,22,12.373387,55.25914
2176347,Thorsvænge,4673,23,12.372039,55.259083
2176352,Thorsvænge,4673,24,12.373646,55.259158
2176356,Thorsvænge,4673,25,12.371696,55.259012
2176358,Thorsvænge,4673,26,12.374159,55.25915
2176360,Thorsvænge,4673,28A,12.373194,55.25937
2176362,Thorsvænge,4673,28B,12.373163,55.259499
2176364,Thorsvænge,4673,29A,12.371176,55.25921
2176367,Thorsvænge,4673,29B,12.371152,55.259306
2176369,Thorsvænge,4673,30,12.373583,55.259464
2176371,Thorsvænge,4673,31,12.371497,55.259383
2176374,Thorsvænge,4673,32,12.3731671,55.2598705
2176375,Thorsvænge,4673,33,12.371523,55.259275
2176379,Thorsvænge,4673,34,12.373564,55.259868
2176383,Thorsvænge,4673,35,12.37189,55.259406
2176384,Thorsvænge,4673,36,12.374095,55.259921
2176389,Thorsvænge,4673,37,12.371923,55.259267
2176391,Thorsvænge,4673,38,12.374442,55.259982
2176397,Thorsvænge,4673,39,12.372279,55.259439
2176401,Thorsvænge,4673,40,12.374478,55.260214
2176404,Thorsvænge,4673,41,12.372313,55.259299
2176407,Thorsvænge,4673,42,12.374063,55.260158
2176411,Thorsvænge,4673,43,12.372673,55.259468
2176415,Thorsvænge,4673,44,12.373455,55.260126
2176418,Thorsvænge,4673,45,12.372706,55.259328
2176423,Thorsvænge,4673,46,12.373,55.260096
2176426,Thorsvænge,4673,47,12.372604,55.259783
2176428,Thorsvænge,4673,48,12.373278,55.260594
2176433,Thorsvænge,4673,49,12.3722746,55.2598318
2176434,Thorsvænge,4673,50,12.372866,55.260583
2176440,Thorsvænge,4673,51A,12.37184,55.259744
2176444,Thorsvænge,4673,51B,12.371867,55.259611
2176447,Thorsvænge,4673,52,12.372894,55.260354
2176452,Thorsvænge,4673,53,12.371438,55.259676
2176454,Thorsvænge,4673,54,12.3743531,55.2604879
2176459,Thorsvænge,4673,55,12.371968,55.26001
2176462,Thorsvænge,4673,56,12.373894,55.260499
2176469,Thorsvænge,4673,57,12.372404,55.260042
2176478,Thorsvænge,4673,58,12.375,55.260579
2176481,Thorsvænge,4673,59A,12.372352,55.260299
2176489,Thorsvænge,4673,59B,12.372066,55.260265
2176492,Thorsvænge,4673,60,12.3749725,55.2602176
2176498,Thorsvænge,4673,61,12.371652,55.260251
2176503,Thorsvænge,4673,62,12.37501,55.260006
2176511,Thorsvænge,4673,64,12.37562,55.260025
2176513,Thorsvænge,4673,65,12.371085,55.260028
2176519,Thorsvænge,4673,66,12.375658,55.260255
2176525,Thorsvænge,4673,67,12.370975,55.260201
2176526,Thorsvænge,4673,68,12.375641,55.260538
2176531,Thorsvænge,4673,68A,12.376224,55.2605
2176535,Thorsvænge,4673,68B,12.37854,55.261187
2176539,Thorsvænge,4673,69,12.3709014,55.2604223
2176543,Thorsvænge,4673,70,12.379651,55.261844
2176547,Thorsvænge,4673,71,12.371367,55.260411
2176553,Thorsvænge,4673,72,12.379932,55.261953
2176555,Thorsvænge,4673,73,12.371768,55.260511
2176558,Thorsvænge,4673,74,12.380192,55.262074
2176561,Thorsvænge,4673,75,12.372126,55.260535
2176565,Thorsvænge,4673,76,12.380465,55.262191
2176569,Thorsvænge,4673,77,12.37188,55.261043
2176572,Thorsvænge,4673,78,12.380785,55.262431
2176576,Thorsvænge,4673,79,12.3714753,55.2609818
2176578,Thorsvænge,4673,80,12.38117,55.262505
2176581,Thorsvænge,4673,81,12.371111,55.260925
2176585,Thorsvænge,4673,82,12.381297,55.262781
2176590,Thorsvænge,4673,83,12.37081,55.260817
2176594,Thorsvænge,4673,84,12.381478,55.26298
2176597,Thorsvænge,4673,85,12.3705833,55.260949
2176601,Thorsvænge,4673,86,12.381684,55.263218
2176603,Thorsvænge,4673,87,12.370445,55.261126
2176607,Thorsvænge,4673,88,12.381834,55.263471
2176613,Thorsvænge,4673,89,12.371037,55.261166
2176616,Thorsvænge,4673,90,12.381844,55.26379
2176621,Thorsvænge,4673,91,12.371426,55.261209
2176625,Thorsvænge,4673,92,12.381728,55.263874
2176629,Thorsvænge,4673,93,12.371814,55.261252
2176635,Thorsvænge,4673,94,12.381404,55.263867
2176637,Thorsvænge,4673,95,12.372203,55.261296
2176643,Thorsvænge,4673,97,12.372591,55.261339
2176645,Thorsvænge,4673,99,12.37298,55.261382
2176648,Thorsvænge,4673,101,12.3734057,55.2614061
2176651,Thorsvænge,4673,103,12.373297,55.261195
2176656,Thorsvænge,4673,105,12.3733372,55.2608958
2176662,Thorsvænge,4673,107,12.372915,55.26115
2176664,Thorsvænge,4673,111,12.3738323,55.2608821
2176671,Thorsvænge,4673,113,12.373946,55.261135
2176673,Thorsvænge,4673,115,12.373871,55.261564
2176683,Thorsvænge,4673,119,12.374667,55.261466
2176692,Thorsvænge,4673,123,12.374414,55.260839
2176695,Thorsvænge,4673,125,12.376558,55.261173
2176700,Thorsvænge,4673,127,12.37613,55.261098
2176701,Thorsvænge,4673,129,12.375902,55.260988
2176707,Thorsvænge,4673,131,12.375376,55.260867
2176713,Thorsvænge,4673,133,12.374963,55.260827
2176715,Thorsvænge,4673,135,12.3749988,55.2611951
2176724,Thorsvænge,4673,139,12.375532,55.261545
2176728,Thorsvænge,4673,141,12.3756174,55.2612413
2176737,Thorsvænge,4673,145,12.376167,55.261344
2176745,Thorsvænge,4673,147,12.3766455,55.2614085
2176747,Thorsvænge,4673,149A,12.376822,55.261615
2176753,Thorsvænge,4673,149B,12.376561,55.261846
2176757,Thorsvænge,4673,151A,12.377046,55.261747
2176760,Thorsvænge,4673,151B,12.376926,55.261861
2176764,Thorsvænge,4673,153,12.377184,55.261528
2176766,Thorsvænge,4673,155,12.377709,55.261777
2176770,Thorsvænge,4673,157,12.3775768,55.2619179
2176772,Thorsvænge,4673,159,12.377621,55.261943
2176778,Thorsvænge,4673,161,12.378125,55.261824
2176783,Thorsvænge,4673,163,12.378199,55.261784
2176785,Thorsvænge,4673,165,12.378216,55.261632
2176789,Thorsvænge,4673,167,12.377794,55.261491
2176792,Thorsvænge,4673,169,12.377449,55.2613
2176798,Thorsvænge,4673,171,12.377191,55.261266
2176807,Thorsvænge,4673,173,12.377625,55.26241
2176809,Thorsvænge,4673,175,12.377109,55.26215
2176814,Thorsvænge,4673,177,12.376932,55.262079
2176817,Thorsvænge,4673,179,12.3768984,55.2623395
2176822,Thorsvænge,4673,181,12.376913,55.262607
2176826,Thorsvænge,4673,183,12.376927,55.262873
2176831,Thorsvænge,4673,185,12.376754,55.263042
2176839,Thorsvænge,4673,187,12.37707,55.263132
2176842,Thorsvænge,4673,189,12.377182,55.262944
2176849,Thorsvænge,4673,191,12.377381,55.262791
2176852,Thorsvænge,4673,193,12.377257,55.262716
2176860,Thorsvænge,4673,195,12.377984,55.263031
2176864,Thorsvænge,4673,197,12.3780337,55.2632345
2176866,Thorsvænge,4673,199,12.37823,55.263331
2176874,Thorsvænge,4673,203,12.378843,55.263208
2176880,Thorsvænge,4673,205,12.378903,55.263393
2176884,Thorsvænge,4673,207,12.378977,55.263406
2176892,Thorsvænge,4673,213,12.379772,55.263551
2176897,Thorsvænge,4673,215,12.379847,55.263565
2176913,Thorsvænge,4673,221,12.380817,55.263482
2176914,Thorsvænge,4673,225,12.380744,55.263219
2176922,Thorsvænge,4673,225A,12.380854,55.263236
2176924,Thorsvænge,4673,225B,12.380617,55.263196
2176945,Thorsvænge,4673,235,12.378371,55.26238
2176952,Thorsvænge,4673,237,12.378781,55.262522
2176955,Thorsvænge,4673,239,12.379314,55.262619
2176962,Thorsvænge,4673,241,12.379831,55.262666
2176966,Thorsvænge,4673,243,12.379548,55.26241
2176971,Thorsvænge,4673,245,12.378819,55.262375
2176976,Thorsvænge,4673,247,12.378476,55.26227
2176978,Thorsvænge,4673,249,12.379199,55.261943
2176984,Thorsvænge,4673,251,12.3794355,55.2620908
2176992,Thorsvænge,4673,253,12.3801281,55.2623996
2176993,Thorsvænge,4673,255,12.3805727,55.2625772
2176998,Thorsvænge,4673,257,12.380917,55.262761
2177001,Thorsvænge,4673,259,12.381265,55.263038
2177007,Thorsvænge,4673,263,12.381142,55.263612
2177011,Thorsvænge,4673,265,12.381134,55.263766
2184997,Thors Allé,4673,1,12.370576,55.261969
2184998,Thors Allé,4673,2,12.370351,55.26151
2184999,Thors Allé,4673,3,12.371086,55.262043
2185000,Thors Allé,4673,4,12.371037,55.261688
2185001,Thors Allé,4673,5,12.3715981,55.2621178
2185002,Thors Allé,4673,6,12.371485,55.261634
2185003,Thors Allé,4673,7,12.372111,55.262193
2185005,Thors Allé,4673,8,12.372003,55.261691
2185007,Thors Allé,4673,9,12.3726235,55.2622679
2185008,Thors Allé,4673,10,12.372522,55.261748
2185012,Thors Allé,4673,11,12.373134,55.262342
2185013,Thors Allé,4673,12,12.373038,55.261806
2185014,Thors Allé,4673,13,12.373885,55.262381
2185015,Thors Allé,4673,14,12.373553,55.261863
2185016,Thors Allé,4673,15,12.374578,55.262581
2185017,Thors Allé,4673,16,12.374069,55.26192
2185018,Thors Allé,4673,18,12.374586,55.261977
2185019,Thors Allé,4673,20,12.375715,55.262185
2185020,Thors Allé,4673,111,12.373086,55.262357
2185021,Thors Allé,4673,401,12.375305,55.261246
2185022,Thors Allé,4673,500,12.373418,55.262081
2185023,Kirsebærvænge,4673,1,12.378731,55.259328
2185024,Kirsebærvænge,4673,2,12.3795714,55.2593766
2185025,Kirsebærvænge,4673,3,12.378942,55.25957
2185026,Kirsebærvænge,4673,4,12.379387,55.259193
2185027,Kirsebærvænge,4673,5,12.378516,55.259709
2185028,Kirsebærvænge,4673,6,12.379169,55.258945
2185029,Kirsebærvænge,4673,7,12.378269,55.259501
2185030,Kirsebærvænge,4673,8,12.379763,55.25881
2185031,Kirsebærvænge,4673,9,12.377729,55.259719
2185032,Kirsebærvænge,4673,10,12.379983,55.258979
2185033,Kirsebærvænge,4673,12,12.380161,55.25918
2185034,Kirsebærvænge,4673,13,12.378244,55.260177
2185035,Kirsebærvænge,4673,14,12.38037,55.259486
2185036,Kirsebærvænge,4673,15,12.378514,55.260301
2185037,Kirsebærvænge,4673,16,12.380525,55.259721
2185038,Kirsebærvænge,4673,17,12.378806,55.260006
2185039,Kirsebærvænge,4673,18,12.380033,55.259886
2185040,Kirsebærvænge,4673,19,12.379141,55.26017
2185041,Kirsebærvænge,4673,20,12.3797792,55.2596874
2185042,Kirsebærvænge,4673,21,12.37954,55.260045
2185043,Kirsebærvænge,4673,23,12.379367,55.259817
2216873,Storemarksvej,4673,20A,12.38057,55.27681
2216874,Korsnæbsvej,4673,63A,12.405597,55.268224
2222981,Thorsvænge,4673,27A,12.37136,55.258979
2222982,Thorsvænge,4673,27B,12.371413,55.258929
2222983,Thorsvænge,4673,143A,12.375872,55.261642
2222984,Thorsvænge,4673,143B,12.376239,55.261637
2222985,Thorsvænge,4673,195A,12.378009,55.262981
2222986,Thorsvænge,4673,195B,12.377946,55.26311
2222987,Thorsvænge,4673,201A,12.378474,55.263053
2222988,Thorsvænge,4673,201B,12.378402,55.263196
2222989,Thorsvænge,4673,203A,12.378884,55.26313
2222990,Thorsvænge,4673,203B,12.3788,55.263277
2222991,Thorsvænge,4673,209A,12.379354,55.263289
2222992,Thorsvænge,4673,209B,12.379387,55.263207
2222993,Thorsvænge,4673,211A,12.379767,55.263256
2222994,Thorsvænge,4673,211B,12.379615,55.263404
2222995,Thorsvænge,4673,217A,12.380191,55.263443
2222996,Thorsvænge,4673,217B,12.380141,55.263522
2222997,Thorsvænge,4673,219A,12.380714,55.26346
2222998,Thorsvænge,4673,219B,12.380572,55.263394
2222999,Thorsvænge,4673,227A,12.380036,55.263079
2223000,Thorsvænge,4673,227B,12.380319,55.263128
2223001,Thorsvænge,4673,229A,12.37963,55.262992
2223002,Thorsvænge,4673,229B,12.379339,55.262938
2223003,Thorsvænge,4673,231A,12.378981,55.262891
2223004,Thorsvænge,4673,231B,12.37871,55.262842
2223005,Thorsvænge,4673,233A,12.378342,55.262764
2223006,Thorsvænge,4673,233B,12.3781,55.262724
2223007,Thorsvænge,4673,255A,12.380434,55.262663
2230482,Vissemosevej,4673,13,12.337745,55.265827
2230548,Rødvigvej,4673,66,12.38123,55.258992
2230552,Harvig,4673,8,12.430401,55.273135
2230578,Mindehøjvej,4673,9A,12.354018,55.258483
2230579,Mindehøjvej,4673,14A,12.340533,55.258727
2230611,Havnelev Enghave,4673,1D,12.344212,55.247313
2230612,Havnelev Enghave,4673,9,12.343356,55.24839
2230894,Boestoftevej,4673,16,12.337484,55.268389
2235753,Broveshøjvej,4673,28,12.395719,55.272436
2236970,Byvangen,4673,16,12.367275,55.255826
2236971,Rødvig Hovedgade,4673,12E,12.376342,55.25628
2236972,Rødvig Hovedgade,4673,12F,12.376313,55.256188
2237603,Bakkegården,4673,16,12.386459,55.275266
2248143,Rødvig Hovedgade,4673,19B,12.374958,55.256025
2248154,Thorsvænge,4673,137A,12.3751,55.261465
2248155,Thorsvænge,4673,137B,12.375135,55.261634
2248156,Thorsvænge,4673,201,12.378459,55.263126
2248157,Thorsvænge,4673,227,12.380183,55.26311
2248158,Thorsvænge,4673,229,12.379444,55.262985
