idx,street,postcode,housenumber,lon,lat
788492,Sydmotorvejen,4733,3E,11.9585,55.16566
1488295,Leestrupvej,4733,37,12.042414,55.203656
1489165,Hemmestrupvej,4733,4,12.0155551,55.2107427
1489692,Tågeskovvej,4733,2,11.9877305,55.2043751
1489694,Tågeskovvej,4733,3,11.9830148,55.2050968
1489696,Tågeskovvej,4733,4,11.9859599,55.204934
1489697,Tågeskovvej,4733,6,11.9839042,55.206644
1489698,Tågeskovvej,4733,8,11.9811761,55.2056166
1489699,Tågeskovvej,4733,11,11.9713659,55.2057489
1489702,Tågeskovvej,4733,13,11.9641194,55.2064173
1489703,Tågeskovvej,4733,14,11.9646751,55.2073388
1489705,Tågeskovvej,4733,15,11.9554185,55.2074633
1489707,Tågeskovvej,4733,16,11.9654829,55.2088129
1489709,Tågeskovvej,4733,17,11.9534515,55.2074339
1489710,Tågeskovvej,4733,18,11.968152,55.2105186
1489712,Tågeskovvej,4733,19,11.9506462,55.2086274
1489714,Tågeskovvej,4733,20,11.9613495,55.2073902
1489716,Tågeskovvej,4733,21,11.9519205,55.2092963
1489717,Tågeskovvej,4733,22,11.9606641,55.2073771
1489719,Tågeskovvej,4733,24,11.9607595,55.2076529
1489721,Tågeskovvej,4733,24A,11.9608361,55.2082898
1489722,Tågeskovvej,4733,26,11.9600095,55.2072854
1489724,Tågeskovvej,4733,28,11.9598066,55.2070925
1489725,Tågeskovvej,4733,30,11.9523642,55.2102222
1489727,Tågeskovvej,4733,31,11.945285,55.2138177
1489729,Tågeskovvej,4733,32,11.952289,55.210736
1489730,Tågeskovvej,4733,33,11.9456171,55.213377
1489732,Tågeskovvej,4733,34,11.9514717,55.2111431
1489733,Tågeskovvej,4733,35,11.9429749,55.2152762
1506666,Hestehavevej,4733,2,11.9825263,55.2119937
1506667,Hestehavevej,4733,4,11.979877,55.2158046
1508168,Rønnedevej,4733,12,11.9927623,55.2101466
1508169,Rønnedevej,4733,14,11.9907331,55.2066392
1508170,Rønnedevej,4733,15,11.995309,55.2135036
1508171,Rønnedevej,4733,17,11.9952924,55.2128961
1508172,Rønnedevej,4733,19,11.9934919,55.2100363
1508173,Rønnedevej,4733,20,11.9860623,55.2010621
1508174,Rønnedevej,4733,22,11.9889273,55.200261
1508175,Rønnedevej,4733,24,11.9887454,55.198638
1508176,Rønnedevej,4733,26,11.9884535,55.1980248
1508177,Rønnedevej,4733,28,11.9871439,55.1922662
1508178,Rønnedevej,4733,29,11.9902573,55.2029133
1508179,Rønnedevej,4733,31,11.9901215,55.2022736
1508180,Rønnedevej,4733,33,11.9901835,55.2007387
1508181,Rønnedevej,4733,35,11.9895519,55.1998206
1508182,Rønnedevej,4733,37,11.9919018,55.1942612
1508183,Rønnedevej,4733,39,11.992428,55.1953732
1668501,Hovedvejen,4733,5A,11.9828185,55.1709779
1668503,Hovedvejen,4733,29,11.9817202,55.1686946
1668508,Hovedvejen,4733,30B,11.9800149,55.1669464
1668510,Hovedvejen,4733,31,11.9814901,55.1680251
1668511,Hovedvejen,4733,33,11.9814453,55.1678712
1668516,Hovedvejen,4733,35,11.9814028,55.167643
1668519,Hovedvejen,4733,37,11.9813474,55.1674501
1668523,Hovedvejen,4733,39,11.981312,55.1672288
1668525,Hovedvejen,4733,40,11.9802153,55.1654436
1668527,Hovedvejen,4733,41,11.981255,55.167049
1668532,Hovedvejen,4733,42,11.9798498,55.1648094
1668534,Hovedvejen,4733,43,11.9814262,55.1666556
1668536,Hovedvejen,4733,44,11.9798193,55.1644149
1668541,Hovedvejen,4733,46,11.9799454,55.1640602
1668543,Hovedvejen,4733,47A,11.98127,55.1660458
1668548,Hovedvejen,4733,47B,11.9820749,55.1657609
1668552,Hovedvejen,4733,47C,11.9814875,55.1656286
1668553,Hovedvejen,4733,47D,11.9844013,55.1664196
1668558,Hovedvejen,4733,48,11.979886,55.163853
1668560,Hovedvejen,4733,49,11.980985,55.165721
1668563,Hovedvejen,4733,51,11.9809185,55.1654799
1668567,Hovedvejen,4733,52,11.9797474,55.1633648
1668568,Hovedvejen,4733,53,11.9807754,55.1652676
1668571,Hovedvejen,4733,54,11.9792422,55.1633493
1668574,Hovedvejen,4733,55,11.980583,55.1649164
1668577,Hovedvejen,4733,56,11.978665,55.163259
1668581,Hovedvejen,4733,57,11.9810078,55.1644974
1668584,Hovedvejen,4733,57A,11.9813974,55.1647475
1668585,Hovedvejen,4733,59,11.980465,55.1639649
1668589,Hovedvejen,4733,59A,11.980515,55.164412
1668591,Hovedvejen,4733,60,11.9791025,55.1628837
1668596,Hovedvejen,4733,60A,11.9783848,55.1627671
1668599,Hovedvejen,4733,62A,11.97942,55.163062
1668601,Hovedvejen,4733,62B,11.9795713,55.1630346
1668605,Hovedvejen,4733,63,11.9802282,55.1633201
1668606,Hovedvejen,4733,65,11.9801856,55.1631641
1668607,Hovedvejen,4733,66,11.9795148,55.1626404
1668608,Hovedvejen,4733,67,11.9801782,55.1629611
1668609,Hovedvejen,4733,68,11.979524,55.1624164
1668610,Hovedvejen,4733,71,11.9802881,55.162413
1668611,Hovedvejen,4733,72,11.9794054,55.1620466
1668612,Hovedvejen,4733,73,11.979898,55.1619562
1668613,Hovedvejen,4733,74,11.9793667,55.1618935
1668614,Hovedvejen,4733,75,11.9799204,55.1616705
1668615,Hovedvejen,4733,76,11.979316,55.16173
1668616,Hovedvejen,4733,78,11.9792812,55.1615728
1668617,Hovedvejen,4733,79,11.9798896,55.1614327
1668618,Hovedvejen,4733,80,11.9792377,55.1613743
1668619,Hovedvejen,4733,81A,11.979871,55.16128
1668620,Hovedvejen,4733,81B,11.9798615,55.1612504
1668621,Hovedvejen,4733,81C,11.979852,55.1612211
1668622,Hovedvejen,4733,81D,11.9798422,55.1611918
1668623,Hovedvejen,4733,81E,11.9798325,55.1611625
1668624,Hovedvejen,4733,81F,11.9798229,55.1611332
1668625,Hovedvejen,4733,82,11.9791922,55.1612211
1668626,Hovedvejen,4733,84,11.9790649,55.1607821
1668627,Hovedvejen,4733,85,11.9796238,55.1601274
1668628,Hovedvejen,4733,86,11.9789051,55.1604896
1668629,Hovedvejen,4733,87,11.9794446,55.1599196
1668630,Hovedvejen,4733,88,11.9788414,55.1602378
1668631,Hovedvejen,4733,89,11.9797651,55.1594069
1668632,Hovedvejen,4733,90,11.9788054,55.1600433
1668633,Hovedvejen,4733,92A,11.978192,55.15873
1668634,Hovedvejen,4733,92B,11.9766173,55.1589149
1668635,Hovedvejen,4733,94,11.978198,55.157682
1668636,Hovedvejen,4733,95,11.978888,55.1580338
1668637,Hovedvejen,4733,97,11.9786174,55.1566294
1668638,Hovedvejen,4733,99,11.9783849,55.1555331
1668639,Hovedvejen,4733,100,11.9777572,55.1564417
1668640,Hovedvejen,4733,101,11.9782181,55.1542866
1668641,Hovedvejen,4733,102,11.973714,55.140476
1668642,Hovedvejen,4733,103,11.977983,55.1529371
1668643,Hovedvejen,4733,104,11.9734567,55.1389159
1668644,Hovedvejen,4733,105,11.9775682,55.1513046
1668645,Hovedvejen,4733,109,11.9746666,55.1406537
1668646,Hovedvejen,4733,111,11.9753432,55.1406777
1669744,Sandagervej,4733,2A,11.9802794,55.1681633
1669748,Sandagervej,4733,2B,11.9805809,55.1682664
1669749,Sandagervej,4733,3,11.9790861,55.1678757
1669756,Askovvej,4733,1,11.9285252,55.1685136
1669757,Askovvej,4733,2,11.9315578,55.1671261
1669758,Askovvej,4733,3,11.9278875,55.168992
1669759,Askovvej,4733,4,11.9310431,55.1674401
1669760,Askovvej,4733,5,11.9268835,55.1695259
1669761,Askovvej,4733,6,11.928463,55.1689489
1669762,Askovvej,4733,7,11.9260925,55.16987
1669763,Askovvej,4733,8,11.9277136,55.1695237
1669764,Askovvej,4733,10,11.9271927,55.1701098
1669765,Askovvej,4733,12,11.9265643,55.1702298
1669766,Askovvej,4733,13,11.9223509,55.1716174
1669767,Askovvej,4733,14,11.9234883,55.1717343
1669768,Askovvej,4733,15,11.9217739,55.1716833
1669769,Askovvej,4733,16,11.9222065,55.1717952
1669770,Askovvej,4733,17,11.920709,55.1720984
1669771,Askovvej,4733,18,11.9210665,55.1733578
1669772,Askovvej,4733,19,11.9208064,55.1723845
1669773,Askovvej,4733,20A,11.9247233,55.1813749
1669774,Askovvej,4733,20B,11.9247097,55.1815291
1669775,Askovvej,4733,20C,11.9247935,55.1825698
1669776,Askovvej,4733,21,11.9205069,55.1725319
1669777,Askovvej,4733,23,11.920621,55.1728811
1669778,Askovvej,4733,25,11.9203973,55.1728589
1669779,Askovvej,4733,27,11.9200171,55.1724308
1669780,Askovvej,4733,29A,11.9198371,55.1727774
1669781,Askovvej,4733,29B,11.9104859,55.1717285
1669782,Askovvej,4733,31,11.9154049,55.1748652
1669783,Askovvej,4733,33,11.920449,55.173409
1669784,Askovvej,4733,40,11.9225716,55.185864
1669785,Askovvej,4733,41,11.9221607,55.1857523
1669786,Askovvej,4733,42,11.9223485,55.1861283
1669787,Askovvej,4733,43A,11.9218566,55.1860503
1669788,Askovvej,4733,43B,11.9216801,55.1861183
1669789,Askovvej,4733,44,11.9219192,55.1862433
1669790,Askovvej,4733,45,11.920495,55.1859798
1669791,Askovvej,4733,46,11.9215358,55.1865854
1669792,Askovvej,4733,47,11.920317,55.1866843
1669793,Askovvej,4733,48A,11.9209624,55.1871419
1669794,Askovvej,4733,48B,11.9210273,55.1871069
1669795,Askovvej,4733,48C,11.921092,55.1870717
1669796,Askovvej,4733,49,11.918408,55.189032
1669797,Askovvej,4733,50,11.9198994,55.1872141
1669798,Askovvej,4733,52,11.9194579,55.1876745
1669799,Askovvej,4733,54,11.9193176,55.1881086
1669800,Askovvej,4733,56,11.9190256,55.1890128
1669801,Askovvej,4733,58,11.9189279,55.1893121
1670078,Smidstrupvej,4733,2,11.9797626,55.1605174
1670083,Smidstrupvej,4733,3,11.980823,55.1612062
1670085,Smidstrupvej,4733,3A,11.9805519,55.1604443
1670087,Smidstrupvej,4733,4,11.980213,55.160302
1670090,Smidstrupvej,4733,6,11.9803941,55.1602047
1670092,Smidstrupvej,4733,7,11.9809327,55.1603933
1670097,Smidstrupvej,4733,8,11.980752,55.16005
1670100,Smidstrupvej,4733,9,11.9812074,55.1602758
1670103,Smidstrupvej,4733,10,11.9809563,55.1598367
1670105,Smidstrupvej,4733,11,11.9814373,55.1601715
1670110,Smidstrupvej,4733,12A,11.981579,55.159649
1670112,Smidstrupvej,4733,12B,11.981483,55.159693
1670117,Smidstrupvej,4733,12C,11.9813872,55.1597373
1670119,Smidstrupvej,4733,12D,11.981291,55.159781
1670123,Smidstrupvej,4733,13,11.9816293,55.1600826
1670125,Smidstrupvej,4733,14A,11.98138,55.15951
1670129,Smidstrupvej,4733,14B,11.9812793,55.1595524
1670132,Smidstrupvej,4733,14C,11.9811782,55.1595947
1670136,Smidstrupvej,4733,14D,11.9810779,55.1596369
1670138,Smidstrupvej,4733,16A,11.981734,55.159347
1670145,Smidstrupvej,4733,16B,11.9818294,55.1593027
1670149,Smidstrupvej,4733,16C,11.9819258,55.1592578
1670153,Smidstrupvej,4733,16D,11.9820215,55.1592132
1670155,Smidstrupvej,4733,17,11.9821653,55.159984
1670156,Smidstrupvej,4733,18A,11.981932,55.159486
1670158,Smidstrupvej,4733,18B,11.9820284,55.1594414
1670160,Smidstrupvej,4733,18C,11.9821248,55.1593965
1670161,Smidstrupvej,4733,18D,11.9822219,55.1593516
1670162,Smidstrupvej,4733,19,11.9823624,55.1597446
1670163,Smidstrupvej,4733,20,11.9824705,55.1592266
1670164,Smidstrupvej,4733,21,11.9826447,55.1596091
1670165,Smidstrupvej,4733,22,11.982783,55.1591122
1670166,Smidstrupvej,4733,24,11.9833358,55.1589043
1670167,Smidstrupvej,4733,25,11.9829268,55.1594667
1670168,Smidstrupvej,4733,28,11.9834891,55.1588314
1670169,Smidstrupvej,4733,29,11.9831617,55.1592845
1670170,Smidstrupvej,4733,30,11.9835585,55.1585103
1670171,Smidstrupvej,4733,31,11.983655,55.159093
1670172,Smidstrupvej,4733,32,11.983801,55.158576
1670173,Smidstrupvej,4733,33,11.9841879,55.1588934
1670176,Smidstrupvej,4733,34,11.9841055,55.1582773
1670180,Smidstrupvej,4733,35,11.9845323,55.1586906
1670181,Smidstrupvej,4733,46,11.9875484,55.1580872
1670182,Smidstrupvej,4733,51,11.9881213,55.1583063
1670183,Smidstrupvej,4733,52,11.9863616,55.1576672
1670184,Smidstrupvej,4733,53,11.98842,55.1581699
1670185,Smidstrupvej,4733,54,11.989813,55.157414
1670186,Smidstrupvej,4733,55,11.9893795,55.157992
1670187,Smidstrupvej,4733,56,11.9907574,55.1572832
1670188,Smidstrupvej,4733,57,11.9898915,55.1580304
1670189,Smidstrupvej,4733,58,11.991029,55.1571662
1670190,Smidstrupvej,4733,59,11.9902136,55.1578174
1670191,Smidstrupvej,4733,60,11.9914504,55.1569985
1670192,Smidstrupvej,4733,62,11.991658,55.1569082
1670193,Smidstrupvej,4733,64,11.992071,55.1563504
1670194,Smidstrupvej,4733,64A,11.9975588,55.1531724
1670195,Smidstrupvej,4733,64C,11.9931088,55.1557842
1670196,Smidstrupvej,4733,66,11.9986742,55.1539409
1670197,Smidstrupvej,4733,67,11.9918491,55.1570923
1670198,Smidstrupvej,4733,68,12.0000115,55.1535897
1670199,Smidstrupvej,4733,69,11.9928687,55.1568151
1670200,Smidstrupvej,4733,70,12.0004457,55.1533864
1670201,Smidstrupvej,4733,71,11.9948621,55.1551857
1670202,Smidstrupvej,4733,73A,12.0015025,55.153308
1670203,Smidstrupvej,4733,73B,12.0016802,55.1531669
1670204,Smidstrupvej,4733,75,12.0028624,55.1529218
1670205,Smidstrupvej,4733,76,12.0056064,55.1521865
1670206,Smidstrupvej,4733,79,12.0078305,55.1519424
1670207,Smidstrupvej,4733,81,12.0080618,55.1519117
1670208,Smidstrupvej,4733,82,12.0092969,55.1512647
1671566,Teglværksvej,4733,1,11.9327922,55.1638861
1671569,Teglværksvej,4733,2,11.9323426,55.1637088
1671574,Teglværksvej,4733,3,11.9334193,55.1636821
1671577,Teglværksvej,4733,4,11.9460408,55.1563944
1671582,Teglværksvej,4733,5,11.9335589,55.1633533
1671584,Teglværksvej,4733,7,11.9351807,55.1631823
1671589,Teglværksvej,4733,9,11.9387527,55.1607407
1671591,Teglværksvej,4733,13,11.940227,55.160115
1671595,Teglværksvej,4733,15,11.9449364,55.1584788
1671651,Rosenvænget,4733,1,11.9706879,55.1772711
1671653,Rosenvænget,4733,2A,11.9703219,55.1776009
1671655,Rosenvænget,4733,2B,11.9703781,55.1775698
1671657,Rosenvænget,4733,2C,11.9704353,55.1775293
1671660,Rosenvænget,4733,2D,11.9703886,55.1774727
1671662,Rosenvænget,4733,2E,11.9702337,55.177642
1671663,Rosenvænget,4733,2F,11.9701767,55.1776139
1671666,Rosenvænget,4733,2G,11.9700904,55.1775734
1671667,Rosenvænget,4733,2H,11.9700187,55.1775391
1671669,Rosenvænget,4733,3,11.9708027,55.177195
1671671,Rosenvænget,4733,4,11.969601,55.177342
1671672,Rosenvænget,4733,5,11.9709394,55.1771007
1671674,Rosenvænget,4733,6,11.9697037,55.1773897
1671676,Rosenvænget,4733,7,11.9708153,55.1770403
1671678,Rosenvænget,4733,8,11.9698038,55.177438
1671680,Rosenvænget,4733,9,11.9705294,55.1769377
1671681,Rosenvænget,4733,10,11.9694432,55.1772839
1671682,Rosenvænget,4733,11,11.9704076,55.1768771
1671684,Rosenvænget,4733,12,11.9695286,55.1772247
1671686,Rosenvænget,4733,13,11.9701019,55.176848
1671689,Rosenvænget,4733,14,11.9695956,55.1771796
1671690,Rosenvænget,4733,15,11.9699953,55.1769185
1671693,Rosenvænget,4733,16,11.9696831,55.1771223
1671697,Rosenvænget,4733,18,11.9697714,55.1770634
1671898,Bækkeskov Alle,4733,1,12.0151175,55.190651
1671899,Bækkeskov Alle,4733,2,12.0123907,55.1912392
1671902,Bækkeskov Alle,4733,4,12.01193,55.190863
1671904,Bækkeskov Alle,4733,6,12.011599,55.19061
1671919,Mårvænget,4733,1,11.9761288,55.1777793
1671921,Mårvænget,4733,2,11.9758193,55.1779391
1671922,Mårvænget,4733,4,11.9757518,55.1776774
1671924,Mårvænget,4733,6,11.975603,55.1774487
1671930,Mårvænget,4733,7,11.9759313,55.1770474
1671932,Mårvænget,4733,8,11.9755606,55.1772009
1671933,Mårvænget,4733,9,11.9758387,55.1768747
1671937,Mårvænget,4733,10,11.9754929,55.1769839
1671938,Mårvænget,4733,11,11.9757702,55.1766536
1671941,Mårvænget,4733,13,11.9759455,55.1764226
1671942,Mårvænget,4733,14,11.9752024,55.17623
1671944,Mårvænget,4733,16,11.9755361,55.1756801
1671946,Mårvænget,4733,17,11.9758833,55.1760654
1671951,Mårvænget,4733,18,11.9757177,55.1755191
1671952,Mårvænget,4733,19,11.9760545,55.1756439
1671954,Mårvænget,4733,20,11.9759134,55.1753499
1671957,Mårvænget,4733,21,11.9763316,55.1754344
1671958,Mårvænget,4733,22,11.9760877,55.1751588
1671959,Mårvænget,4733,23,11.9765373,55.1752638
1671962,Mårvænget,4733,24,11.9763227,55.1749894
1671963,Mårvænget,4733,25,11.9767328,55.1750817
1671964,Mårvænget,4733,26,11.9764958,55.1747709
1671967,Mårvænget,4733,27,11.97688,55.174944
1671968,Mårvænget,4733,29,11.9770244,55.17471
1672014,Centervej,4733,1B,11.9732958,55.1685752
1672016,Centervej,4733,2,11.9722943,55.1675853
1672021,Centervej,4733,5,11.9731965,55.1677322
1672025,Centervej,4733,7,11.97384,55.167629
1672029,Centervej,4733,11,11.975603,55.167049
1672098,Leestrup Byvej,4733,3,12.038309,55.2022027
1672100,Leestrup Byvej,4733,4,12.0360713,55.2023501
1672103,Leestrup Byvej,4733,5,12.0384576,55.2019084
1672105,Leestrup Byvej,4733,6,12.035906,55.202155
1672107,Leestrup Byvej,4733,8,12.036396,55.201956
1672109,Leestrup Byvej,4733,9,12.038782,55.201802
1672111,Leestrup Byvej,4733,10,12.037005,55.202085
1672114,Leestrup Byvej,4733,14,12.037202,55.201311
1672116,Leestrup Byvej,4733,16,12.0381106,55.2018019
1672118,Leestrup Byvej,4733,20,12.038802,55.201343
1672556,Rødlersvej,4733,1,11.9812965,55.1640642
1672557,Rødlersvej,4733,3,11.9817619,55.1644098
1672558,Rødlersvej,4733,4,11.9823522,55.1635826
1672559,Rødlersvej,4733,5,11.9823592,55.1647618
1672560,Rødlersvej,4733,6,11.983266,55.1635264
1672561,Rødlersvej,4733,9,11.983027,55.164353
1672562,Rødlersvej,4733,11,11.9825176,55.1641299
1672986,Jægersborgvej,4733,1A,12.0229875,55.1644212
1672988,Jægersborgvej,4733,1B,12.0233663,55.1646856
1672989,Jægersborgvej,4733,2,12.0239611,55.1643828
1672990,Jægersborgvej,4733,3,12.0236134,55.1645397
1672991,Jægersborgvej,4733,4,12.0242828,55.1646917
1672992,Jægersborgvej,4733,5,12.0238611,55.1647785
1672993,Jægersborgvej,4733,7,12.023762,55.165057
1672994,Jægersborgvej,4733,9,12.0243057,55.165025
1672995,Jægersborgvej,4733,11,12.02447,55.165224
1673077,Skovholmvej,4733,1,12.040661,55.202233
1673081,Skovholmvej,4733,2,12.0403454,55.202169
1673082,Skovholmvej,4733,4,12.040366,55.202043
1673085,Skovholmvej,4733,5,12.040334,55.20152
1673087,Skovholmvej,4733,6,12.040164,55.201557
1673090,Skovholmvej,4733,7,12.040488,55.201292
1673093,Skovholmvej,4733,9,12.0404558,55.2009782
1673094,Skovholmvej,4733,10,12.03951,55.201059
1673096,Skovholmvej,4733,13,12.0426912,55.1967408
1673101,Skovholmvej,4733,16,12.041228,55.19343
1673103,Skovholmvej,4733,17,12.0488568,55.1947277
1673105,Skovholmvej,4733,18,12.0458958,55.1929339
1673486,Hovskovvej,4733,2,12.0051511,55.1926534
1673489,Hovskovvej,4733,3,12.0065033,55.1978284
1673491,Hovskovvej,4733,4,12.0022412,55.1976607
1673493,Hovskovvej,4733,5,12.0064752,55.19733
1673496,Hovskovvej,4733,7,12.0059497,55.1934764
1674012,Tågeskov Overdrev,4733,2,11.9894863,55.2181272
1674014,Tågeskov Overdrev,4733,4,11.988114,55.2175967
1674016,Tågeskov Overdrev,4733,6,11.98664,55.2175802
1674018,Tågeskov Overdrev,4733,8,11.9866683,55.2189033
1674021,Tågeskov Overdrev,4733,10,11.9859203,55.217822
1674022,Tågeskov Overdrev,4733,12,11.9851644,55.2177072
1674023,Tågeskov Overdrev,4733,12A,11.9842025,55.2177419
1674025,Tågeskov Overdrev,4733,14,11.9836152,55.2187413
1674027,Tågeskov Overdrev,4733,18,11.9828431,55.2181129
1674029,Tågeskov Overdrev,4733,20,11.9825372,55.2176772
1674030,Tågeskov Overdrev,4733,22,11.9808358,55.2174773
1674033,Tågeskov Overdrev,4733,24,11.979711,55.216959
1674498,Jægervænget,4733,1,11.977521,55.1657376
1674502,Jægervænget,4733,2,11.9774207,55.1654636
1674506,Jægervænget,4733,3,11.9779755,55.1656399
1674510,Jægervænget,4733,4,11.9778428,55.1654221
1674514,Jægervænget,4733,6,11.9784762,55.165374
1674519,Jægervænget,4733,7,11.9784223,55.1661731
1674521,Jægervænget,4733,8,11.9790313,55.1653019
1674526,Jægervænget,4733,9,11.9789264,55.1661422
1674528,Jægervænget,4733,10,11.9795356,55.1652398
1674533,Jægervænget,4733,11,11.9793515,55.1662699
1674536,Jægervænget,4733,12,11.9796261,55.1654976
1674540,Jægervænget,4733,13,11.9795668,55.1663624
1674544,Jægervænget,4733,14,11.9790978,55.1655997
1674547,Jægervænget,4733,15,11.9799317,55.1661597
1674552,Jægervænget,4733,16,11.9786839,55.1655847
1674554,Jægervænget,4733,17,11.9801444,55.1658946
1674558,Jægervænget,4733,18,11.9787798,55.1658425
1674560,Jægervænget,4733,19,11.98003,55.1657166
1674561,Jægervænget,4733,20,11.9790661,55.1658055
1674564,Jægervænget,4733,22,11.979606,55.165902
1675095,Brydesvej,4733,2,11.9801738,55.1617379
1675099,Brydesvej,4733,4,11.9804379,55.1617144
1675101,Brydesvej,4733,6,11.9808461,55.161721
1675143,Gammel Skolevej,4733,1,11.924337,55.186393
1675147,Gammel Skolevej,4733,3,11.9249271,55.1865124
1675151,Gammel Skolevej,4733,5,11.924603,55.1892072
1675153,Gammel Skolevej,4733,7,11.924375,55.187769
1675158,Gammel Skolevej,4733,9,11.924821,55.187167
1675160,Gammel Skolevej,4733,11,11.9250118,55.1869476
1675163,Gammel Skolevej,4733,13,11.9253676,55.1866572
1675165,Gammel Skolevej,4733,15,11.9257103,55.1869769
1675170,Gammel Skolevej,4733,17,11.9261174,55.1870937
1675173,Gammel Skolevej,4733,19,11.9271792,55.1875515
1675175,Gammel Skolevej,4733,21,11.928013,55.187853
1675177,Gammel Skolevej,4733,22,11.9370281,55.1848002
1675182,Gammel Skolevej,4733,23,11.936035,55.186036
1675185,Gammel Skolevej,4733,24,11.9372987,55.1847534
1675190,Gammel Skolevej,4733,25,11.937347,55.185383
1675194,Gammel Skolevej,4733,27,11.938077,55.184955
1675197,Gammel Skolevej,4733,29,11.9434718,55.1840233
1675394,Sølperupvej,4733,1,11.9856461,55.1822653
1675397,Sølperupvej,4733,2A,11.986347,55.1818667
1675401,Sølperupvej,4733,2B,11.9868581,55.1808523
1675403,Sølperupvej,4733,2C,11.9866643,55.1820308
1675407,Sølperupvej,4733,2D,11.9870741,55.1820903
1675409,Sølperupvej,4733,3,11.9869379,55.1823881
1675412,Sølperupvej,4733,4A,11.9876277,55.1822182
1675417,Sølperupvej,4733,4B,11.9963381,55.1792147
1675418,Sølperupvej,4733,5A,11.9904865,55.1827038
1675423,Sølperupvej,4733,5B,11.998199,55.185915
1675425,Sølperupvej,4733,6,11.9968555,55.1823423
1675427,Sølperupvej,4733,7,11.9992473,55.1827693
1675432,Sølperupvej,4733,10,12.0095948,55.179105
1675436,Sølperupvej,4733,11,12.0081584,55.179984
1675438,Sølperupvej,4733,13,12.0078439,55.1810791
1675442,Sølperupvej,4733,17,12.0085671,55.1799068
1675444,Sølperupvej,4733,19,12.0095914,55.1794254
1675447,Sølperupvej,4733,21,12.011198,55.1791013
1676193,Fasanvænget,4733,1,11.9725254,55.1772712
1676194,Fasanvænget,4733,2A,11.9720222,55.1771427
1676197,Fasanvænget,4733,2B,11.9721375,55.1770774
1676202,Fasanvænget,4733,2C,11.972281,55.1768307
1676204,Fasanvænget,4733,2D,11.9727975,55.1769356
1676207,Fasanvænget,4733,3,11.9728625,55.177182
1676210,Fasanvænget,4733,4,11.973398,55.176855
1676212,Fasanvænget,4733,5,11.9732071,55.1771998
1676214,Fasanvænget,4733,6,11.973715,55.176798
1676216,Fasanvænget,4733,7,11.9735383,55.177172
1676218,Fasanvænget,4733,8,11.9740851,55.1767754
1676220,Fasanvænget,4733,9,11.9738663,55.1770637
1676223,Fasanvænget,4733,10,11.9744114,55.1767327
1676225,Fasanvænget,4733,11,11.9741528,55.1770293
1676227,Fasanvænget,4733,12,11.9747061,55.1766988
1676230,Fasanvænget,4733,13,11.974453,55.176996
1676232,Fasanvænget,4733,14,11.975041,55.176657
1676234,Fasanvænget,4733,15,11.9748323,55.1769216
1676235,Fasanvænget,4733,16,11.975297,55.1766209
1676238,Fasanvænget,4733,17,11.9727723,55.1764427
1676239,Fasanvænget,4733,18,11.9727367,55.1761606
1676242,Fasanvænget,4733,19,11.9731057,55.1763562
1676243,Fasanvænget,4733,20,11.9731561,55.176109
1676246,Fasanvænget,4733,21,11.9735704,55.1763558
1676247,Fasanvænget,4733,22,11.9737018,55.1760371
1676249,Fasanvænget,4733,23,11.9739905,55.1762833
1676250,Fasanvænget,4733,24,11.9741726,55.1759842
1676253,Fasanvænget,4733,25,11.9743639,55.1762139
1676255,Fasanvænget,4733,26,11.9746664,55.175922
1676258,Fasanvænget,4733,27,11.974746,55.176165
1676259,Fasanvænget,4733,28,11.9750633,55.1758717
1676262,Fasanvænget,4733,30,11.972641,55.1754361
1676264,Fasanvænget,4733,31,11.9727012,55.1756748
1676267,Fasanvænget,4733,32,11.9725762,55.1752006
1676269,Fasanvænget,4733,33,11.9730364,55.1756323
1676271,Fasanvænget,4733,34,11.9731989,55.1751974
1676273,Fasanvænget,4733,35,11.9735229,55.1755939
1676275,Fasanvænget,4733,37,11.9740125,55.1754901
1676277,Fasanvænget,4733,38,11.9738414,55.1753054
1676279,Fasanvænget,4733,39,11.9745302,55.1754489
1676282,Fasanvænget,4733,40,11.9736834,55.1750393
1676284,Fasanvænget,4733,41,11.9748944,55.1753957
1676286,Fasanvænget,4733,42,11.9742104,55.1749948
1676288,Fasanvænget,4733,44,11.9743045,55.1752299
1676290,Fasanvænget,4733,46,11.9748938,55.1751547
1676292,Fasanvænget,4733,48,11.9747634,55.1749654
1676295,Fasanvænget,4733,50,11.9753055,55.1748532
1676297,Fasanvænget,4733,52,11.975381,55.17509
1676301,Fasanvænget,4733,54,11.9758307,55.1747856
1676379,Brøderupvej,4733,1,11.974622,55.1781133
1676380,Brøderupvej,4733,2A,11.9782501,55.1790781
1676381,Brøderupvej,4733,2B,11.9760201,55.1782867
1676382,Brøderupvej,4733,3,11.97421,55.1780707
1676383,Brøderupvej,4733,4,11.973921,55.178384
1676385,Brøderupvej,4733,5A,11.9738532,55.1780443
1676390,Brøderupvej,4733,5B,11.973841,55.1777573
1676396,Brøderupvej,4733,6,11.9733703,55.1783604
1676400,Brøderupvej,4733,7A,11.9734813,55.1780417
1676406,Brøderupvej,4733,7B,11.9733387,55.1776525
1676410,Brøderupvej,4733,8,11.9729886,55.1783027
1676414,Brøderupvej,4733,9,11.9731713,55.1780545
1676418,Brøderupvej,4733,10,11.9720222,55.178095
1676422,Brøderupvej,4733,11,11.9728825,55.1777904
1676426,Brøderupvej,4733,12,11.971879,55.177907
1676431,Brøderupvej,4733,13,11.9726178,55.1775561
1676435,Brøderupvej,4733,14,11.9711719,55.1776198
1676437,Brøderupvej,4733,15A,11.971293,55.176678
1676441,Brøderupvej,4733,15B,11.9705516,55.1763486
1676445,Brøderupvej,4733,16,11.9648248,55.1803691
1676446,Brøderupvej,4733,17,11.967899,55.175231
1676451,Brøderupvej,4733,18,11.9686509,55.1771752
1676455,Brøderupvej,4733,19,11.9670309,55.1748804
1676459,Brøderupvej,4733,20,11.9671767,55.1751433
1676466,Brøderupvej,4733,21,11.9639153,55.1739579
1676469,Brøderupvej,4733,22,11.9650542,55.1745704
1676479,Brøderupvej,4733,25,11.955691,55.1715321
1676482,Brøderupvej,4733,26,11.9575838,55.1755522
1676489,Brøderupvej,4733,27,11.9547611,55.1711952
1676494,Brøderupvej,4733,28,11.9528643,55.1722769
1676498,Brøderupvej,4733,29,11.9526991,55.170557
1676501,Brøderupvej,4733,30,11.9478864,55.1711107
1676506,Brøderupvej,4733,31,11.94797,55.1686682
1676510,Brøderupvej,4733,32,11.9458184,55.1686023
1676513,Brøderupvej,4733,33,11.9475958,55.1687542
1676515,Brøderupvej,4733,34,11.9408572,55.1682056
1676519,Brøderupvej,4733,35,11.9468333,55.1685776
1676522,Brøderupvej,4733,36,11.9386558,55.1674166
1676524,Brøderupvej,4733,37A,11.9354044,55.1657771
1676529,Brøderupvej,4733,37B,11.9348606,55.1656417
1676532,Brøderupvej,4733,38A,11.9369067,55.1665025
1676534,Brøderupvej,4733,38B,11.9361823,55.166501
1676541,Brøderupvej,4733,39,11.9347841,55.165385
1676545,Brøderupvej,4733,40,11.9353404,55.1661433
1676547,Brøderupvej,4733,41,11.934096,55.165308
1676551,Brøderupvej,4733,42,11.9349391,55.1660053
1676553,Brøderupvej,4733,43,11.9336447,55.1649162
1676558,Brøderupvej,4733,44,11.934663,55.165887
1676561,Brøderupvej,4733,45,11.9331718,55.1647408
1676563,Brøderupvej,4733,46,11.9343702,55.1656569
1676566,Brøderupvej,4733,48,11.9337289,55.1652501
1676569,Brøderupvej,4733,50,11.9334899,55.1653149
1676572,Brøderupvej,4733,52,11.9332068,55.1652487
1676574,Brøderupvej,4733,54,11.9328075,55.16514
1676575,Brøderupvej,4733,54A,11.9320722,55.165052
1676578,Brøderupvej,4733,54B,11.9321157,55.1652361
1676851,Snesere Torpvej,4733,1,11.9308793,55.1652978
1676854,Snesere Torpvej,4733,2,11.932475,55.1666911
1676857,Snesere Torpvej,4733,3,11.932351,55.1673771
1676861,Snesere Torpvej,4733,4,11.9332615,55.1670392
1676866,Snesere Torpvej,4733,5,11.9326291,55.1676512
1676871,Snesere Torpvej,4733,6,11.937605,55.1729592
1676873,Snesere Torpvej,4733,7,11.9332163,55.1683282
1676878,Snesere Torpvej,4733,8,11.9383395,55.1740911
1676881,Snesere Torpvej,4733,9,11.9326145,55.16845
1676883,Snesere Torpvej,4733,11,11.9362212,55.1720438
1676886,Snesere Torpvej,4733,13,11.9331699,55.1725993
1676888,Snesere Torpvej,4733,15,11.9363183,55.1722839
1676890,Snesere Torpvej,4733,17,11.9371963,55.173246
1676893,Snesere Torpvej,4733,19,11.9379373,55.1742393
1676894,Snesere Torpvej,4733,20,11.9447559,55.1764178
1676897,Snesere Torpvej,4733,21,11.9446284,55.1830717
1676899,Snesere Torpvej,4733,21A,11.9439355,55.1821984
1676901,Snesere Torpvej,4733,22,11.9413642,55.1775015
1676905,Snesere Torpvej,4733,23,11.947715,55.185762
1676906,Snesere Torpvej,4733,24,11.9442783,55.1775412
1676909,Snesere Torpvej,4733,25,11.9475241,55.1862478
1676910,Snesere Torpvej,4733,26,11.9418343,55.1782878
1676911,Snesere Torpvej,4733,28,11.9483011,55.184733
1676913,Snesere Torpvej,4733,30,11.9483931,55.18539
1676914,Snesere Torpvej,4733,32,11.9486443,55.1862546
1676915,Snesere Torpvej,4733,34,11.9485299,55.1872544
1676917,Snesere Torpvej,4733,37,11.9481522,55.1945949
1676918,Snesere Torpvej,4733,42,11.9541649,55.1968072
1676920,Snesere Torpvej,4733,43,11.9489499,55.1968441
1676922,Snesere Torpvej,4733,45,11.9542292,55.1972393
1676934,Flintemosevej,4733,1,11.949804,55.2019476
1676935,Flintemosevej,4733,2,11.9453926,55.2016207
1676939,Flintemosevej,4733,3,11.9463614,55.2014012
1676942,Flintemosevej,4733,4,11.9413098,55.2011142
1676944,Flintemosevej,4733,6A,11.93871,55.2004454
1676946,Flintemosevej,4733,6B,11.938317,55.200413
1676949,Flintemosevej,4733,7,11.9375626,55.1981516
1676950,Flintemosevej,4733,8,11.937149,55.200211
1676952,Flintemosevej,4733,9,11.9349266,55.1995651
1676953,Flintemosevej,4733,10,11.9368747,55.2002009
1676956,Flintemosevej,4733,11,11.9345832,55.1996613
1676959,Flintemosevej,4733,12,11.936049,55.2000241
1676960,Flintemosevej,4733,14,11.9343973,55.2017314
1676962,Flintemosevej,4733,15,11.9340677,55.1996222
1676964,Flintemosevej,4733,17,11.9321169,55.1997473
1676966,Flintemosevej,4733,18,11.9296816,55.200119
1676968,Flintemosevej,4733,19,11.9301906,55.2000137
1676970,Flintemosevej,4733,20,11.9294062,55.2001148
1676972,Flintemosevej,4733,21,11.9286514,55.1998698
1676974,Flintemosevej,4733,22,11.9285576,55.2001084
1676975,Flintemosevej,4733,23,11.9273322,55.199473
1676977,Flintemosevej,4733,24,11.923273,55.1987206
1676980,Flintemosevej,4733,25,11.9271595,55.1998069
1676982,Flintemosevej,4733,27,11.9261159,55.1995849
1677364,Broskovvej,4733,1,12.000382,55.145119
1677367,Broskovvej,4733,3,12.000243,55.144998
1677370,Broskovvej,4733,12,12.000271,55.145572
1677374,Broskovvej,4733,14,11.999978,55.145349
1677382,Broskovvej,4733,16,11.999469,55.14419
1677384,Broskovvej,4733,18,11.998279,55.144159
1677388,Broskovvej,4733,20,11.995454,55.144901
1677392,Broskovvej,4733,22,11.995225,55.144868
1677396,Broskovvej,4733,24,11.993088,55.145107
1677690,Muldbjergvej,4733,2,11.9697088,55.1537996
1677692,Muldbjergvej,4733,4,11.9697896,55.1536112
1677695,Muldbjergvej,4733,6,11.9699659,55.1530773
1677696,Muldbjergvej,4733,8,11.970049,55.152793
1677944,Lundhøjvej,4733,1,11.9595488,55.2056627
1677946,Lundhøjvej,4733,2,11.9600107,55.2053598
1677948,Lundhøjvej,4733,3,11.9600141,55.2055966
1677951,Lundhøjvej,4733,4,11.9604026,55.2053109
1677953,Lundhøjvej,4733,5,11.9604666,55.2055662
1677956,Lundhøjvej,4733,6,11.9599996,55.2051019
1677959,Lundhøjvej,4733,7,11.9608483,55.2055082
1677962,Lundhøjvej,4733,8A,11.959998,55.204726
1677964,Lundhøjvej,4733,8B,11.9598862,55.2047421
1677967,Lundhøjvej,4733,8C,11.959774,55.204759
1677970,Lundhøjvej,4733,8D,11.9596622,55.2047749
1677972,Lundhøjvej,4733,9,11.9611663,55.2054393
1677973,Lundhøjvej,4733,10A,11.959883,55.204584
1677977,Lundhøjvej,4733,10B,11.9597242,55.2046056
1677979,Lundhøjvej,4733,11,11.9612052,55.2052818
1677982,Lundhøjvej,4733,12,11.9598223,55.204301
1677986,Lundhøjvej,4733,13,11.9611648,55.205029
1677988,Lundhøjvej,4733,14,11.9604619,55.2044305
1677989,Lundhøjvej,4733,15,11.9611245,55.2047622
1677993,Lundhøjvej,4733,16,11.9605223,55.204709
1677994,Lundhøjvej,4733,17,11.960922,55.204562
1677997,Lundhøjvej,4733,19,11.9610005,55.2042518
1678052,Kildevej,4733,2,11.9322012,55.1640307
1678054,Kildevej,4733,5,11.933553,55.164233
1678056,Kildevej,4733,7,11.9338554,55.1642207
1678058,Kildevej,4733,9,11.9341827,55.1641354
1678060,Kildevej,4733,11,11.9347074,55.163957
1678062,Kildevej,4733,13,11.9347934,55.1642043
1678064,Kildevej,4733,15,11.9355034,55.1643374
1678067,Kildevej,4733,17,11.9353967,55.1641801
1678068,Kildevej,4733,19,11.9353775,55.1639586
1678071,Kildevej,4733,21,11.9351544,55.163762
1678194,Strandvejen,4733,1,12.0098016,55.149206
1678200,Strandvejen,4733,2,12.0092505,55.1468704
1678206,Strandvejen,4733,3,12.0100908,55.1497539
1678209,Strandvejen,4733,4,12.0094535,55.1475066
1678214,Strandvejen,4733,7,12.0123031,55.1504869
1678220,Strandvejen,4733,9,12.012254,55.15077
1678225,Strandvejen,4733,11,12.0134911,55.1554611
1678232,Strandvejen,4733,13,12.017157,55.1554525
1678233,Strandvejen,4733,14,12.0129343,55.1504866
1678239,Strandvejen,4733,15,12.017883,55.156704
1678245,Strandvejen,4733,19,12.0197537,55.1591772
1678249,Strandvejen,4733,23,12.0208157,55.162579
1678257,Strandvejen,4733,25,12.0218732,55.1625465
1678267,Strandvejen,4733,27,12.0223678,55.1631962
1678270,Strandvejen,4733,29,12.02318,55.1641
1678275,Strandvejen,4733,30,12.0251079,55.1646955
1678279,Strandvejen,4733,32,12.0252247,55.1647984
1678282,Strandvejen,4733,34,12.0253302,55.1648808
1678286,Strandvejen,4733,36,12.025523,55.164998
1678289,Strandvejen,4733,38,12.0260335,55.1652871
1678293,Strandvejen,4733,40,12.026491,55.1655163
1678296,Strandvejen,4733,42,12.0271443,55.1657394
1678298,Strandvejen,4733,47,12.0245416,55.1648662
1678304,Strandvejen,4733,49,12.0247332,55.1650593
1678307,Strandvejen,4733,51,12.0252063,55.1652849
1678309,Strandvejen,4733,53,12.0253001,55.1654316
1678314,Strandvejen,4733,65,12.0278329,55.1665953
1678318,Strandvejen,4733,69,12.0295322,55.167085
1678320,Strandvejen,4733,71,12.0300419,55.1673194
1678326,Strandvejen,4733,74,12.0360785,55.1694086
1678330,Strandvejen,4733,75,12.0337617,55.1685265
1678332,Strandvejen,4733,76,12.0375089,55.1702462
1678339,Strandvejen,4733,78,12.0404131,55.1714919
1678346,Strandvejen,4733,80,12.0448249,55.1722393
1678692,Lille Røttingevej,4733,1,11.968752,55.166922
1678695,Lille Røttingevej,4733,2,11.9681088,55.1676084
1678697,Lille Røttingevej,4733,3,11.96342,55.167222
1678698,Lille Røttingevej,4733,4,11.967069,55.167915
1678701,Lille Røttingevej,4733,5,11.964209,55.168462
1678703,Lille Røttingevej,4733,6,11.96831,55.170645
1678705,Lille Røttingevej,4733,7,11.9647114,55.1689109
1678707,Lille Røttingevej,4733,8,11.965554,55.171177
1678708,Lille Røttingevej,4733,9,11.9654433,55.170205
1678711,Lille Røttingevej,4733,10,11.9649112,55.1722778
1678713,Lille Røttingevej,4733,11,11.9638728,55.1703755
1678717,Lille Røttingevej,4733,12,11.9646422,55.1727504
1678723,Lille Røttingevej,4733,13,11.9649544,55.1712008
1678726,Lille Røttingevej,4733,15,11.9645904,55.1719001
1678729,Lille Røttingevej,4733,17,11.963922,55.173229
1678989,Harevænget,4733,31,11.9722747,55.1742964
1678991,Harevænget,4733,33,11.972021,55.1744115
1678993,Harevænget,4733,35,11.9722356,55.1746219
1678994,Harevænget,4733,37,11.9724047,55.1747825
1678996,Harevænget,4733,39,11.9728319,55.1747376
1678997,Harevænget,4733,41,11.973281,55.1745502
1678998,Harevænget,4733,42,11.9718534,55.1740636
1679001,Harevænget,4733,43,11.9729661,55.1744116
1679002,Harevænget,4733,44,11.9715736,55.1738355
1679003,Harevænget,4733,45,11.9728786,55.1741155
1679006,Harevænget,4733,46,11.9713229,55.1736587
1679007,Harevænget,4733,47,11.9735745,55.1738964
1679009,Harevænget,4733,48,11.9711555,55.1734592
1679011,Harevænget,4733,49,11.9732791,55.1740498
1679012,Harevænget,4733,50,11.9709557,55.1732126
1679014,Harevænget,4733,51,11.9736447,55.1742517
1679018,Harevænget,4733,52,11.971403,55.173072
1679019,Harevænget,4733,53,11.9738588,55.174446
1679021,Harevænget,4733,54,11.9718197,55.1729837
1679022,Harevænget,4733,55,11.9740796,55.1745984
1679024,Harevænget,4733,56A,11.9716911,55.1733177
1679026,Harevænget,4733,56B,11.9719327,55.1732939
1679027,Harevænget,4733,57,11.97437,55.1745693
1679028,Harevænget,4733,58A,11.971969,55.1736027
1679030,Harevænget,4733,58B,11.9723384,55.1735127
1679031,Harevænget,4733,59,11.9747757,55.1744756
1679034,Harevænget,4733,60,11.9727504,55.1737874
1679035,Harevænget,4733,61,11.9749844,55.1742932
1679036,Harevænget,4733,62,11.9723344,55.1738481
1679039,Harevænget,4733,64,11.973172,55.1735823
1679040,Harevænget,4733,65,11.9746514,55.1739233
1679041,Harevænget,4733,66,11.9728899,55.1734184
1679043,Harevænget,4733,67,11.974555,55.173661
1679044,Harevænget,4733,68,11.972822,55.173231
1679045,Harevænget,4733,69,11.9741362,55.1737577
1679046,Harevænget,4733,70,11.9726635,55.1730841
1679048,Harevænget,4733,71,11.9752034,55.1733552
1679049,Harevænget,4733,72,11.9723714,55.1729476
1679052,Harevænget,4733,73,11.9749678,55.1734887
1679053,Harevænget,4733,74,11.9723012,55.1727927
1679056,Harevænget,4733,75,11.975536,55.1735652
1679058,Harevænget,4733,76A,11.9727568,55.1726884
1679059,Harevænget,4733,76B,11.9731301,55.1725801
1679062,Harevænget,4733,77,11.9751838,55.1737254
1679063,Harevænget,4733,78A,11.9730263,55.1729666
1679066,Harevænget,4733,78B,11.9734228,55.172814
1679068,Harevænget,4733,79,11.9758286,55.1737544
1679070,Harevænget,4733,80A,11.973312,55.1731763
1679072,Harevænget,4733,80B,11.9737601,55.1731363
1679075,Harevænget,4733,81,11.9753891,55.1739144
1679076,Harevænget,4733,82,11.9740838,55.173338
1679078,Harevænget,4733,83,11.9759599,55.1739983
1679081,Harevænget,4733,84,11.9735762,55.173433
1679082,Harevænget,4733,85,11.9756565,55.1741939
1679086,Harevænget,4733,86,11.9745695,55.1732068
1679088,Harevænget,4733,87,11.976799,55.173827
1679089,Harevænget,4733,88,11.9749329,55.1730001
1679093,Harevænget,4733,89,11.9763858,55.1739196
1679094,Harevænget,4733,90,11.9740938,55.1729652
1679098,Harevænget,4733,91,11.9765721,55.1735924
1679101,Harevænget,4733,92,11.9745402,55.1727972
1679103,Harevænget,4733,93,11.9760865,55.1736776
1679105,Harevænget,4733,94,11.9744136,55.1725288
1679109,Harevænget,4733,95,11.9762478,55.1733341
1679110,Harevænget,4733,96,11.9740739,55.1726267
1679112,Harevænget,4733,97,11.9759061,55.1734364
1679113,Harevænget,4733,98A,11.9737512,55.1727142
1679114,Harevænget,4733,98B,11.973534,55.1724178
1679116,Harevænget,4733,99,11.9761987,55.1731184
1679117,Harevænget,4733,100,11.9738586,55.1722993
1679119,Harevænget,4733,101,11.975697,55.1732155
1679120,Harevænget,4733,102,11.9742398,55.1721696
1679121,Harevænget,4733,104,11.9746597,55.172031
1679123,Harevænget,4733,106A,11.9750793,55.1719548
1679124,Harevænget,4733,106B,11.9753027,55.1721971
1679126,Harevænget,4733,108,11.974893,55.1723376
1679128,Harevænget,4733,110,11.9751159,55.1725756
1679129,Harevænget,4733,112,11.9755599,55.1724658
1679130,Harevænget,4733,114,11.975379,55.1729362
1679132,Harevænget,4733,116,11.9758415,55.172808
1680007,St Røttingevej,4733,1,11.9707875,55.1535218
1680008,St Røttingevej,4733,2,11.9735314,55.1535067
1680009,St Røttingevej,4733,3,11.9688161,55.1537938
1680010,St Røttingevej,4733,4,11.9729122,55.153635
1680011,St Røttingevej,4733,5,11.9678726,55.1532748
1680012,St Røttingevej,4733,6,11.9714348,55.1535585
1680013,St Røttingevej,4733,7A,11.9671634,55.1538727
1680014,St Røttingevej,4733,7B,11.9668443,55.1540882
1680015,St Røttingevej,4733,8,11.9710745,55.1542767
1680016,St Røttingevej,4733,9,11.966435,55.1543868
1680017,St Røttingevej,4733,10,11.9702611,55.1542008
1680018,St Røttingevej,4733,12,11.9703201,55.1548779
1680019,St Røttingevej,4733,12A,11.9702068,55.1553242
1680020,St Røttingevej,4733,14,11.9699499,55.1546278
1680021,St Røttingevej,4733,16,11.969557,55.1540236
1680022,St Røttingevej,4733,18,11.9688421,55.154026
1680023,St Røttingevej,4733,20,11.968324,55.1540423
1680024,St Røttingevej,4733,22,11.9676731,55.1539091
1680117,Engelstrupvej,4733,1,11.9866591,55.1916075
1680121,Engelstrupvej,4733,2,11.9864641,55.1922577
1680123,Engelstrupvej,4733,3,11.9861752,55.1916241
1680126,Engelstrupvej,4733,4,11.9862906,55.1918957
1680129,Engelstrupvej,4733,5,11.9858664,55.1916698
1680131,Engelstrupvej,4733,6,11.985783,55.191915
1680133,Engelstrupvej,4733,7,11.9838675,55.1919507
1680134,Engelstrupvej,4733,8,11.9854238,55.1922509
1680137,Engelstrupvej,4733,9,11.9811794,55.1926111
1680139,Engelstrupvej,4733,10,11.9851619,55.1920382
1680142,Engelstrupvej,4733,11,11.9814079,55.1929545
1680146,Engelstrupvej,4733,12,11.9844284,55.1922523
1680149,Engelstrupvej,4733,14,11.9838321,55.1924393
1680152,Engelstrupvej,4733,15,11.9807722,55.1933505
1680155,Engelstrupvej,4733,16,11.983372,55.1924418
1680159,Engelstrupvej,4733,18,11.9830478,55.1924444
1680161,Engelstrupvej,4733,20,11.9827134,55.1926619
1680165,Engelstrupvej,4733,22,11.9818374,55.1929391
1680166,Engelstrupvej,4733,24,11.98159,55.1933981
1680170,Engelstrupvej,4733,26,11.980879,55.19385
1680173,Engelstrupvej,4733,28,11.980256,55.194168
1680175,Engelstrupvej,4733,30,11.9763922,55.1956072
1680178,Engelstrupvej,4733,32,11.9758149,55.1957959
1680381,Ny Prøvevej,4733,2,11.9940256,55.2037727
1680382,Ny Prøvevej,4733,3,11.9968675,55.2020882
1680383,Ny Prøvevej,4733,4,11.9947921,55.2030119
1680384,Ny Prøvevej,4733,5,11.997669,55.202159
1680385,Ny Prøvevej,4733,6,11.9960018,55.2015168
1680386,Ny Prøvevej,4733,7,12.0004321,55.2031751
1680387,Ny Prøvevej,4733,8,11.9975178,55.2015771
1680388,Ny Prøvevej,4733,9,12.0004036,55.2010393
1680389,Ny Prøvevej,4733,10,11.9991601,55.2007349
1680390,Ny Prøvevej,4733,11,12.0020049,55.200844
1680391,Ny Prøvevej,4733,12,12.0013624,55.2006102
1680393,Ny Prøvevej,4733,14,12.0029938,55.1989017
1680556,Saksholmvej,4733,26,12.027968,55.211457
1680557,Saksholmvej,4733,27,12.0318774,55.214261
1680559,Saksholmvej,4733,28,12.0314897,55.2106734
1680561,Saksholmvej,4733,29,12.032501,55.214216
1680562,Saksholmvej,4733,30,12.032183,55.207088
1680563,Saksholmvej,4733,32,12.0273884,55.2069727
1680564,Saksholmvej,4733,33,12.031355,55.212814
1680566,Saksholmvej,4733,34A,12.0274598,55.2080866
1680568,Saksholmvej,4733,34B,12.027349,55.208201
1680569,Saksholmvej,4733,35,12.0313114,55.212305
1680570,Saksholmvej,4733,36A,12.0353626,55.2037148
1680572,Saksholmvej,4733,36B,12.0353859,55.2037808
1680573,Saksholmvej,4733,37,12.033191,55.208268
1680574,Saksholmvej,4733,40,12.0350362,55.2030694
1680575,Saksholmvej,4733,41,12.0357474,55.2038773
1680576,Saksholmvej,4733,43,12.035635,55.2035198
1680578,Saksholmvej,4733,45,12.035434,55.203104
1681205,Egernvænget,4733,1,11.969512,55.1759034
1681206,Egernvænget,4733,2,11.9689024,55.1756123
1681211,Egernvænget,4733,3,11.9699203,55.1760939
1681214,Egernvænget,4733,4,11.9684809,55.175316
1681219,Egernvænget,4733,5,11.97016,55.175889
1681225,Egernvænget,4733,6,11.9691291,55.1754304
1681227,Egernvænget,4733,7,11.969751,55.1756219
1681231,Egernvænget,4733,9A,11.9699384,55.1753782
1681233,Egernvænget,4733,9B,11.9699197,55.1755134
1681237,Egernvænget,4733,10,11.9699349,55.1749721
1681242,Egernvænget,4733,11,11.970458,55.1757104
1681243,Egernvænget,4733,12,11.9694568,55.174609
1681248,Egernvænget,4733,13,11.9707338,55.1755238
1681252,Egernvænget,4733,14,11.9697215,55.1743811
1681257,Egernvænget,4733,15A,11.9701626,55.1752706
1681262,Egernvænget,4733,15B,11.9702944,55.1753351
1681263,Egernvænget,4733,16,11.9702308,55.1746953
1681266,Egernvænget,4733,17,11.9705757,55.1752013
1681267,Egernvænget,4733,18,11.9700422,55.1741819
1681270,Egernvænget,4733,19,11.9710025,55.1753456
1681273,Egernvænget,4733,20,11.9706519,55.1745441
1681276,Egernvænget,4733,21,11.9712715,55.1751632
1681278,Egernvænget,4733,22,11.9709327,55.1743333
1681280,Egernvænget,4733,23A,11.9708672,55.1749751
1681282,Egernvænget,4733,23B,11.97072,55.174901
1681287,Egernvænget,4733,24,11.970631,55.174004
1681290,Egernvænget,4733,25,11.9718215,55.1748813
1681291,Egernvænget,4733,26,11.9699288,55.1738015
1681294,Egernvænget,4733,27,11.9712193,55.1746648
1681297,Egernvænget,4733,28,11.9704843,55.1737375
1681299,Egernvænget,4733,29,11.9716291,55.1745521
1681302,Egernvænget,4733,30,11.9697886,55.1734948
1681304,Egernvænget,4733,31,11.9708858,55.1729468
1681307,Egernvænget,4733,32,11.9703504,55.1734514
1681310,Egernvænget,4733,33,11.9708696,55.1726587
1681312,Egernvænget,4733,34,11.9702982,55.1732296
1681315,Egernvænget,4733,35,11.9708253,55.1723758
1681317,Egernvænget,4733,36,11.9697569,55.173235
1681320,Egernvænget,4733,37,11.9708003,55.1721692
1681323,Egernvænget,4733,38,11.9697186,55.1729763
1681325,Egernvænget,4733,39,11.9707611,55.1718786
1681328,Egernvænget,4733,40,11.9702588,55.1729432
1681331,Egernvænget,4733,41,11.9707066,55.1716092
1681334,Egernvænget,4733,42,11.970225,55.1727183
1681338,Egernvænget,4733,44,11.9696927,55.1727273
1681339,Egernvænget,4733,46,11.9696564,55.1724652
1681343,Egernvænget,4733,48,11.970191,55.1724027
1681345,Egernvænget,4733,50,11.9701628,55.1721891
1681348,Egernvænget,4733,52,11.9696179,55.1721867
1681349,Egernvænget,4733,54,11.96959,55.1719259
1681352,Egernvænget,4733,56,11.9701045,55.1718885
1681354,Egernvænget,4733,58,11.9701532,55.1716309
1681356,Egernvænget,4733,60,11.9697906,55.1716329
1681358,Egernvænget,4733,62,11.9694452,55.1716296
1681361,Egernvænget,4733,64,11.9694069,55.1712739
1681363,Egernvænget,4733,66,11.9698317,55.1712051
1681365,Egernvænget,4733,68,11.970236,55.1712468
1682487,Møllevej,4733,1,11.9755232,55.1625463
1682488,Møllevej,4733,2,11.97596,55.162781
1682491,Møllevej,4733,3,11.9753279,55.1626837
1682493,Møllevej,4733,4,11.9756359,55.1629029
1682496,Møllevej,4733,5,11.9751012,55.1628299
1682497,Møllevej,4733,6,11.9755189,55.1630711
1682499,Møllevej,4733,7,11.9748467,55.1629988
1682502,Møllevej,4733,8,11.9753136,55.1632067
1682505,Møllevej,4733,10,11.9751349,55.1633303
1682506,Møllevej,4733,12,11.9748673,55.1633406
1683088,Irisvej,4733,1,11.960017,55.201765
1683090,Irisvej,4733,2,11.95946,55.2015051
1683097,Irisvej,4733,3,11.9603692,55.2017813
1683101,Irisvej,4733,4,11.9598,55.201491
1683104,Irisvej,4733,6,11.9601738,55.2014647
1683223,Kongskildevej,4733,1,11.9286939,55.1616098
1683224,Kongskildevej,4733,2,11.9287151,55.1618125
1683225,Kongskildevej,4733,2A,11.929799,55.1618264
1683226,Kongskildevej,4733,3,11.9288194,55.1604275
1683227,Kongskildevej,4733,4,11.9279466,55.1620257
1683230,Kongskildevej,4733,6,11.9249741,55.154489
1683231,Kongskildevej,4733,8,11.924524,55.1529824
1683233,Kongskildevej,4733,10,11.9253889,55.1521231
1683285,Centervej Syd,4733,1,11.9703471,55.1662498
1683287,Centervej Syd,4733,2,11.9706111,55.1657335
1683291,Centervej Syd,4733,4,11.9732876,55.1658564
1683293,Centervej Syd,4733,5,11.9723496,55.1663107
1683502,Kærvej,4733,1,11.976906,55.1803682
1683503,Kærvej,4733,2,11.9752763,55.1800566
1683504,Kærvej,4733,3,11.9774344,55.1803922
1683505,Kærvej,4733,4,11.9759372,55.1801427
1683506,Kærvej,4733,5,11.9779231,55.1803332
1683507,Kærvej,4733,6,11.9762195,55.1801353
1683508,Kærvej,4733,7,11.9782861,55.1803407
1683509,Kærvej,4733,8,11.977321,55.180095
1683510,Kærvej,4733,9,11.979754,55.1804871
1683511,Kærvej,4733,10,11.97767,55.1797754
1683512,Kærvej,4733,12,11.9778166,55.18009
1683513,Kærvej,4733,14,11.978717,55.180263
1683770,Leestrup Skovvej,4733,16,12.0402384,55.1895192
1683771,Leestrup Skovvej,4733,17,12.0443202,55.1902011
1683772,Leestrup Skovvej,4733,18,12.03733,55.188931
1683774,Leestrup Skovvej,4733,19,12.0338643,55.1876907
1683775,Leestrup Skovvej,4733,20,12.034671,55.1895533
1683777,Leestrup Skovvej,4733,22,12.0308788,55.1959892
1683778,Leestrup Skovvej,4733,24,12.0309095,55.1965982
1683814,Sneppevænget,4733,1,11.9785509,55.1684529
1683819,Sneppevænget,4733,2,11.978644,55.1688498
1683825,Sneppevænget,4733,3,11.978196,55.1684913
1683828,Sneppevænget,4733,4,11.9788137,55.1691046
1683832,Sneppevænget,4733,5,11.9778582,55.1685459
1683833,Sneppevænget,4733,6,11.9782792,55.1691123
1683834,Sneppevænget,4733,7,11.9774454,55.1685545
1683835,Sneppevænget,4733,8,11.9781533,55.1688768
1683836,Sneppevænget,4733,9,11.9770824,55.1685636
1683837,Sneppevænget,4733,10,11.9777347,55.1688934
1683838,Sneppevænget,4733,11,11.9766598,55.1686482
1683839,Sneppevænget,4733,12,11.9777299,55.169166
1683843,Sneppevænget,4733,13,11.9762253,55.1686636
1683845,Sneppevænget,4733,14,11.9772312,55.169195
1683847,Sneppevænget,4733,15,11.9759433,55.168708
1683848,Sneppevænget,4733,16,11.9770654,55.1689664
1683849,Sneppevænget,4733,17,11.9755552,55.1687519
1683850,Sneppevænget,4733,18,11.9767541,55.1690011
1683851,Sneppevænget,4733,19,11.9751749,55.1687995
1683852,Sneppevænget,4733,20,11.976609,55.1692771
1683853,Sneppevænget,4733,21,11.9748244,55.1688937
1683854,Sneppevænget,4733,22,11.9762691,55.1692925
1683855,Sneppevænget,4733,23,11.9745159,55.1690351
1683857,Sneppevænget,4733,24,11.976073,55.1690623
1683858,Sneppevænget,4733,25,11.9742057,55.1691558
1683860,Sneppevænget,4733,26,11.97569,55.1689879
1683863,Sneppevænget,4733,27,11.9738485,55.1692706
1683866,Sneppevænget,4733,28,11.9752726,55.16907
1683867,Sneppevænget,4733,29,11.9738773,55.1695348
1683868,Sneppevænget,4733,30,11.9749218,55.169175
1683869,Sneppevænget,4733,32,11.974645,55.169403
1683870,Sneppevænget,4733,34,11.974291,55.1694162
1684107,Bygårdsvej,4733,1,11.9783235,55.1645711
1684108,Bygårdsvej,4733,2,11.9778106,55.1646636
1684109,Bygårdsvej,4733,3,11.978089,55.1643973
1684110,Bygårdsvej,4733,4,11.9775825,55.164457
1684111,Bygårdsvej,4733,5,11.9779917,55.1641552
1684112,Bygårdsvej,4733,6,11.977373,55.164252
1684113,Bygårdsvej,4733,7,11.977773,55.1639954
1684114,Bygårdsvej,4733,8,11.9771454,55.1639967
1684115,Bygårdsvej,4733,9,11.9774341,55.1636292
1684116,Bygårdsvej,4733,10,11.9768482,55.1638184
1684117,Bygårdsvej,4733,12,11.9767799,55.16359
1684118,Bygårdsvej,4733,14,11.977001,55.163444
1684119,Bygårdsvej,4733,16,11.9772843,55.1632489
1684120,Bygårdsvej,4733,18,11.977493,55.16309
1684121,Bygårdsvej,4733,20,11.9777327,55.1629276
1684877,Stavnstrupvej,4733,30,12.028902,55.203444
1684879,Stavnstrupvej,4733,30A,12.0285292,55.2020062
1684880,Stavnstrupvej,4733,31,12.0290009,55.2036203
1684881,Stavnstrupvej,4733,34,12.029946,55.202945
1684882,Stavnstrupvej,4733,35,12.0318,55.203731
1684883,Stavnstrupvej,4733,37,12.0323813,55.2031651
1684884,Stavnstrupvej,4733,38,12.032544,55.2029329
1684885,Stavnstrupvej,4733,39,12.0330532,55.2030718
1684886,Stavnstrupvej,4733,40,12.0330701,55.202865
1684887,Stavnstrupvej,4733,41,12.033669,55.203023
1684888,Stavnstrupvej,4733,42,12.033614,55.202791
1684889,Stavnstrupvej,4733,43,12.0342986,55.2029137
1684890,Stavnstrupvej,4733,44,12.0341987,55.202678
1684891,Stavnstrupvej,4733,49,12.0358797,55.2027292
1684894,Stavnstrupvej,4733,50,12.0353133,55.2023234
1684896,Stavnstrupvej,4733,51,12.03604,55.202843
1684899,Stavnstrupvej,4733,52,12.036212,55.202573
1684900,Stavnstrupvej,4733,53,12.036509,55.202888
1684904,Stavnstrupvej,4733,54,12.036726,55.202359
1684906,Stavnstrupvej,4733,55,12.0378051,55.2026619
1684908,Stavnstrupvej,4733,56,12.037191,55.202526
1684910,Stavnstrupvej,4733,57,12.0382196,55.2025411
1684912,Stavnstrupvej,4733,58,12.0377518,55.2024176
1684913,Stavnstrupvej,4733,60,12.0385457,55.2022962
1684914,Stavnstrupvej,4733,61,12.0391399,55.202598
1684915,Stavnstrupvej,4733,62,12.0390226,55.2023274
1684916,Stavnstrupvej,4733,63,12.0403175,55.2026112
1684918,Stavnstrupvej,4733,70,12.041026,55.202248
1684919,Stavnstrupvej,4733,71,12.0531102,55.2005023
1684921,Stavnstrupvej,4733,77,12.0566718,55.1968754
1684922,Stavnstrupvej,4733,78,12.049313,55.198747
1684925,Stavnstrupvej,4733,80,12.0503983,55.198271
1685209,Højgårdsvej,4733,2,12.0091576,55.1720119
1685213,Højgårdsvej,4733,2B,12.009562,55.1731316
1685215,Højgårdsvej,4733,4,12.0081546,55.1763943
1686132,Hulebækvej,4733,1,11.966467,55.164272
1686134,Hulebækvej,4733,2,11.9645357,55.1619625
1686137,Hulebækvej,4733,4,11.9647697,55.1619567
1686139,Hulebækvej,4733,6,11.962003,55.161207
1686242,Hybenvej,4733,1,11.9597911,55.2024836
1686243,Hybenvej,4733,2,11.959479,55.2022009
1686244,Hybenvej,4733,3,11.960129,55.2024623
1686249,Hybenvej,4733,4,11.959785,55.2021823
1686251,Hybenvej,4733,5,11.9605126,55.2024117
1686255,Hybenvej,4733,6,11.9601901,55.2021416
1687110,Størlingevej,4733,9,11.9148365,55.2119159
1687117,Størlingevej,4733,11,11.9160014,55.2122934
1687125,Størlingevej,4733,13,11.9170606,55.2124364
1687133,Størlingevej,4733,15,11.917947,55.212264
1687138,Størlingevej,4733,16,11.9148421,55.2115935
1687139,Størlingevej,4733,17,11.935915,55.2097093
1687142,Størlingevej,4733,19,11.9373387,55.2093222
1687144,Størlingevej,4733,20,11.9175239,55.2119714
1687147,Størlingevej,4733,21,11.9402693,55.2093757
1687149,Størlingevej,4733,22,11.9230959,55.209588
1687152,Størlingevej,4733,24,11.925177,55.2112888
1687153,Størlingevej,4733,25,11.9397997,55.2083614
1687156,Størlingevej,4733,26,11.9282455,55.2097291
1687157,Størlingevej,4733,28,11.9270925,55.2084261
1687161,Størlingevej,4733,30,11.9263964,55.2079524
1687164,Størlingevej,4733,32,11.929999,55.2107686
1687165,Størlingevej,4733,38,11.9329675,55.2102656
1687168,Størlingevej,4733,40,11.9357381,55.2093089
1687170,Størlingevej,4733,42,11.935842,55.2065596
1687173,Størlingevej,4733,44,11.9383027,55.2086375
1687174,Størlingevej,4733,46,11.9395505,55.208258
1687177,Størlingevej,4733,48,11.9400222,55.2075279
1687179,Størlingevej,4733,50,11.939993,55.205528
1687181,Størlingevej,4733,52,11.9433114,55.2064636
1687182,Størlingevej,4733,53,11.9445365,55.2074609
1687183,Størlingevej,4733,55,11.9449169,55.2080546
1687184,Størlingevej,4733,57,11.9443722,55.2082574
1687185,Størlingevej,4733,59,11.9454329,55.206271
1687189,Størlingevej,4733,61,11.946682,55.206521
1687190,Størlingevej,4733,64,11.9455587,55.2058626
1687193,Størlingevej,4733,66,11.9463099,55.2050725
1687195,Størlingevej,4733,68,11.946663,55.204947
1687198,Størlingevej,4733,70,11.9471625,55.2047234
1687200,Størlingevej,4733,72,11.9487916,55.20373
1687204,Størlingevej,4733,74,11.949935,55.202369
1687447,Tværvej,4733,1,11.9585871,55.2029076
1687448,Tværvej,4733,2,11.9586342,55.2027421
1687449,Tværvej,4733,3,11.9591672,55.2030461
1687450,Tværvej,4733,4,11.9603118,55.2029324
1687451,Tværvej,4733,5,11.9595186,55.2030812
1687491,Pilevej,4733,1,11.976221,55.1626003
1687492,Pilevej,4733,2,11.9754919,55.1621629
1687496,Pilevej,4733,2A,11.974824,55.1623356
1687499,Pilevej,4733,3,11.9762404,55.1624053
1687501,Pilevej,4733,4,11.9757232,55.1620542
1687506,Pilevej,4733,5,11.9758833,55.1622995
1687510,Pilevej,4733,6,11.9759921,55.1618889
1687511,Pilevej,4733,7,11.9764791,55.1619577
1687514,Pilevej,4733,8,11.9762272,55.1617437
1687516,Pilevej,4733,9,11.9774761,55.1613442
1687517,Pilevej,4733,10,11.9764446,55.1616107
1687520,Pilevej,4733,11,11.9777865,55.1611579
1687522,Pilevej,4733,12,11.9767101,55.161416
1687523,Pilevej,4733,14,11.977066,55.1611583
1687526,Pilevej,4733,16,11.9773059,55.1609274
1687527,Pilevej,4733,18,11.977775,55.1608943
1687567,Svingkærvej,4733,1,11.9788077,55.1749993
1687570,Svingkærvej,4733,1A,11.9780656,55.1738956
1687571,Svingkærvej,4733,2,11.9791057,55.1771279
1687573,Svingkærvej,4733,4,11.9786957,55.177174
1687574,Svingkærvej,4733,6,11.9782141,55.1772413
1687577,Svingkærvej,4733,7,11.9759761,55.1709987
1687582,Svingkærvej,4733,8,11.9780817,55.1769719
1687584,Svingkærvej,4733,10,11.9784751,55.1769133
1687588,Svingkærvej,4733,12,11.9790077,55.176856
1687589,Svingkærvej,4733,14,11.9789438,55.1765275
1687592,Svingkærvej,4733,16,11.9784804,55.1765787
1687594,Svingkærvej,4733,18,11.977922,55.176635
1687597,Svingkærvej,4733,20,11.9778661,55.1763894
1687599,Svingkærvej,4733,22,11.978265,55.1763153
1687603,Svingkærvej,4733,24,11.9787519,55.1762657
1687604,Svingkærvej,4733,26,11.9787975,55.1759194
1687607,Svingkærvej,4733,28,11.978268,55.1759795
1687610,Svingkærvej,4733,30,11.9777717,55.1760163
1687612,Svingkærvej,4733,32,11.9776569,55.175775
1687615,Svingkærvej,4733,34,11.9781672,55.1757073
1687617,Svingkærvej,4733,36,11.9784411,55.1756835
1687620,Svingkærvej,4733,38,11.978503,55.1753467
1687621,Svingkærvej,4733,40,11.9780408,55.1753497
1687625,Svingkærvej,4733,42,11.977527,55.175395
1687626,Svingkærvej,4733,44,11.9778617,55.1751031
1687629,Svingkærvej,4733,46,11.9781825,55.1751171
1687631,Svingkærvej,4733,48A,11.9712716,55.1702903
1687632,Svingkærvej,4733,50,11.971398,55.168406
1687633,Svingkærvej,4733,52,11.971308,55.168048
1687634,Svingkærvej,4733,54,11.9701657,55.1676176
1687883,Strandvænget,4733,1,12.026008,55.166112
1687885,Strandvænget,4733,3,12.0257404,55.1658905
1687890,Strandvænget,4733,5,12.0255926,55.1657463
1690224,Hjortevej,4733,1,11.9767366,55.1650382
1690227,Hjortevej,4733,3,11.9768557,55.1653873
1690228,Hjortevej,4733,4,11.9780022,55.1663732
1690231,Hjortevej,4733,6,11.9781027,55.1666184
1690234,Hjortevej,4733,8,11.9784257,55.1667968
1690235,Hjortevej,4733,10,11.9787704,55.1666538
1690236,Hjortevej,4733,12,11.9791602,55.1665613
1691138,Kirkevej,4733,2,11.957454,55.201061
1691139,Kirkevej,4733,4,11.9581813,55.2013245
1691140,Kirkevej,4733,6,11.9575829,55.2013511
1691143,Kirkevej,4733,8,11.9576535,55.2016992
1692426,Videbækvej,4733,1,11.975286,55.177975
1692430,Videbækvej,4733,2A,11.9747154,55.1779178
1692434,Videbækvej,4733,2B,11.9747308,55.1776081
1692437,Videbækvej,4733,3,11.9751827,55.177682
1692440,Videbækvej,4733,4,11.9743083,55.1774519
1692442,Videbækvej,4733,5,11.9750626,55.1773309
1692741,Skovvej,4733,1,11.916534,55.212033
1692744,Skovvej,4733,2,11.9164697,55.2115453
1692747,Skovvej,4733,4,11.9178029,55.2029423
1692952,Oddervænget,4733,1,11.9763517,55.1774997
1692953,Oddervænget,4733,2A,11.9761707,55.1772479
1692954,Oddervænget,4733,2B,11.9767249,55.1771476
1692955,Oddervænget,4733,3,11.9767587,55.1775121
1692956,Oddervænget,4733,4,11.9767716,55.1769352
1692958,Oddervænget,4733,5,11.9770926,55.1773844
1692959,Oddervænget,4733,6,11.976702,55.1767
1692960,Oddervænget,4733,7,11.9775192,55.177395
1692963,Oddervænget,4733,8,11.9766193,55.176497
1692964,Oddervænget,4733,9,11.9772762,55.1771013
1692965,Oddervænget,4733,10,11.9765459,55.1762899
1692969,Oddervænget,4733,11,11.9771601,55.1768836
1692971,Oddervænget,4733,12,11.9764712,55.1761041
1692973,Oddervænget,4733,13,11.9771175,55.1766528
1692974,Oddervænget,4733,15,11.9770086,55.1764451
1692975,Oddervænget,4733,17,11.9769911,55.1762571
1692977,Oddervænget,4733,19,11.9768594,55.1760251
1692979,Oddervænget,4733,21,11.9767865,55.175829
1692981,Oddervænget,4733,23,11.9768219,55.1756216
1693291,Snigsvej,4733,2,11.9789141,55.16457
1693293,Snigsvej,4733,3,11.979475,55.1641364
1693294,Snigsvej,4733,4,11.9788406,55.1643216
1693297,Snigsvej,4733,5,11.979346,55.1639507
1693299,Snigsvej,4733,6,11.9787663,55.1640571
1693302,Snigsvej,4733,7,11.9792032,55.1637261
1693304,Snigsvej,4733,8,11.9787144,55.163892
1693305,Snigsvej,4733,10,11.9787335,55.1636187
1693439,Lunden,4733,1,11.957933,55.193254
1693442,Lunden,4733,2,11.9703037,55.1926678
1693444,Lunden,4733,3,11.9567722,55.1997384
1693446,Lunden,4733,4,11.9572964,55.1991622
1693448,Lunden,4733,5,11.9569465,55.2001854
1693463,Karlshøj,4733,1,11.9868573,55.1893292
1693464,Karlshøj,4733,2,11.9861506,55.1886637
1693465,Karlshøj,4733,3,11.9867987,55.189135
1693466,Karlshøj,4733,4,11.985971,55.18839
1693468,Karlshøj,4733,5,11.98956,55.188463
1693469,Karlshøj,4733,6,11.9857033,55.187922
1693470,Karlshøj,4733,7A,11.986231,55.185849
1693471,Karlshøj,4733,7B,11.986402,55.185743
1693472,Karlshøj,4733,7C,11.986155,55.185637
1693474,Karlshøj,4733,7D,11.98608,55.18586
1693475,Karlshøj,4733,7E,11.986004,55.185684
1693477,Karlshøj,4733,8,11.9857056,55.1876257
1693478,Karlshøj,4733,9,11.9859928,55.1855274
1693481,Karlshøj,4733,10,11.9857836,55.1874631
1693483,Karlshøj,4733,12,11.9856753,55.1872142
1693484,Karlshøj,4733,14,11.984451,55.187067
1693485,Karlshøj,4733,14A,11.9839779,55.1875126
1693487,Karlshøj,4733,16,11.9849088,55.1869524
1693490,Karlshøj,4733,18,11.9848986,55.1866817
1693491,Karlshøj,4733,20,11.9848567,55.1864707
1693493,Karlshøj,4733,22,11.9854323,55.1864072
1693494,Karlshøj,4733,24,11.985401,55.18671
1693496,Karlshøj,4733,26,11.9855145,55.1869589
1693498,Karlshøj,4733,28,11.9853875,55.1861957
1693499,Karlshøj,4733,30,11.9854174,55.1860016
1693500,Karlshøj,4733,32A,11.9852704,55.1858398
1693501,Karlshøj,4733,32B,11.9855126,55.1856896
1693505,Karlshøj,4733,34,11.9853524,55.1853931
1693508,Karlshøj,4733,36,11.9852032,55.1851034
1693509,Karlshøj,4733,38,11.9852593,55.1848689
1693512,Karlshøj,4733,39,11.9847647,55.1803805
1693514,Karlshøj,4733,40,11.9842685,55.1838962
1693519,Karlshøj,4733,40B,11.984012,55.1844831
1693522,Karlshøj,4733,40C,11.9834736,55.183954
1693524,Karlshøj,4733,40D,11.9834448,55.1836194
1693526,Karlshøj,4733,40E,11.9837786,55.1836507
1693531,Karlshøj,4733,41,11.9840878,55.1779669
1693532,Karlshøj,4733,42,11.9840164,55.180914
1693536,Karlshøj,4733,44,11.9828587,55.1785868
1693979,Everdrupvej,4733,1,11.9554177,55.201313
1693980,Everdrupvej,4733,2,11.95068,55.2016964
1693981,Everdrupvej,4733,3,11.9558616,55.2013163
1693982,Everdrupvej,4733,4,11.9510496,55.2011418
1693983,Everdrupvej,4733,5A,11.9573494,55.2007805
1693984,Everdrupvej,4733,7,11.9575121,55.2006236
1693985,Everdrupvej,4733,8,11.9521645,55.2010833
1693986,Everdrupvej,4733,8A,11.9521586,55.1996886
1693988,Everdrupvej,4733,9,11.9578398,55.2004419
1693991,Everdrupvej,4733,10,11.956188,55.2007666
1693995,Everdrupvej,4733,11,11.9585377,55.2007108
1693999,Everdrupvej,4733,13,11.958948,55.2005348
1694004,Everdrupvej,4733,15,11.9596553,55.2004896
1694007,Everdrupvej,4733,16,11.9567428,55.2008592
1694009,Everdrupvej,4733,17,11.9598943,55.2005494
1694011,Everdrupvej,4733,18A,11.957152,55.200656
1694014,Everdrupvej,4733,18B,11.957069,55.2004471
1694015,Everdrupvej,4733,19,11.9602476,55.2002566
1694020,Everdrupvej,4733,20,11.9577398,55.2002887
1694025,Everdrupvej,4733,21,11.9608181,55.2003413
1694029,Everdrupvej,4733,22,11.958299,55.20016
1694034,Everdrupvej,4733,23,11.9613519,55.2002503
1694037,Everdrupvej,4733,24,11.9589107,55.2001319
1694041,Everdrupvej,4733,26,11.9594742,55.2000828
1694046,Everdrupvej,4733,27,11.9641055,55.1999572
1694051,Everdrupvej,4733,28,11.9688905,55.1987983
1694056,Everdrupvej,4733,29,11.972833,55.196822
1694058,Everdrupvej,4733,30,11.9728754,55.1966431
1694062,Everdrupvej,4733,32,11.9732237,55.1964893
1694223,Rådegårdsvej,4733,2,11.9393203,55.2106746
1694226,Rådegårdsvej,4733,4,11.9401565,55.2114716
1694228,Rådegårdsvej,4733,6,11.9404188,55.2118138
1694478,Æskebjergvej,4733,1,11.9420544,55.1899163
1694479,Æskebjergvej,4733,2A,11.937646,55.1918066
1694480,Æskebjergvej,4733,2B,11.9333778,55.1905753
1694481,Æskebjergvej,4733,3,11.9343392,55.1905001
1694482,Æskebjergvej,4733,4,11.9328735,55.1905692
1694483,Æskebjergvej,4733,5,11.9337869,55.1902548
1694484,Æskebjergvej,4733,6,11.9306761,55.1938851
1694485,Æskebjergvej,4733,8,11.9276514,55.1937003
1694514,Storgårdsvej,4733,1,11.9531075,55.1630104
1694515,Storgårdsvej,4733,2,11.952748,55.1627429
1694516,Storgårdsvej,4733,3,11.9534264,55.1609116
1694706,Engelholmvej,4733,1,11.982353,55.1414874
1694707,Engelholmvej,4733,3,11.9817935,55.1411283
1694709,Engelholmvej,4733,5,11.9826266,55.1410648
1694711,Engelholmvej,4733,7,11.9834134,55.1412206
1694715,Engelholmvej,4733,9,11.9841674,55.1407529
1694719,Engelholmvej,4733,11,11.9787567,55.1405472
1694767,Teglvej,4733,1,11.9818712,55.163271
1694769,Teglvej,4733,2A,11.981193,55.163191
1694770,Teglvej,4733,2B,11.980819,55.163349
1694771,Teglvej,4733,3,11.9820969,55.1628771
1694772,Teglvej,4733,4A,11.9814251,55.1629795
1694773,Teglvej,4733,4B,11.9819239,55.162094
1694774,Teglvej,4733,6,11.9831747,55.1609426
1694775,Bøgebjergvej,4733,1,11.9129554,55.1826361
1694776,Bøgebjergvej,4733,2,11.9148671,55.1799734
1694777,Bøgebjergvej,4733,4,11.9135228,55.1826901
1695084,Flintholm,4733,1,11.9333131,55.19912
1695085,Flintholm,4733,2,11.9321023,55.1990496
1695088,Flintholm,4733,3,11.9325719,55.1980942
1695096,Sjoltevej,4733,1,11.9888751,55.1767091
1695097,Sjoltevej,4733,2,11.9885496,55.1757497
1695098,Sjoltevej,4733,3,11.9887736,55.176167
1695099,Sjoltevej,4733,4,11.99083,55.17312
1695100,Sjoltevej,4733,5,11.9900393,55.1754477
1695101,Sjoltevej,4733,6,11.9921763,55.174611
1695102,Sjoltevej,4733,8,12.0027607,55.1710069
1695103,Sjoltevej,4733,9,12.0047131,55.1709782
1695104,Sjoltevej,4733,10,12.0041274,55.1709343
1695105,Sjoltevej,4733,11,12.005609,55.1717482
1695106,Sjoltevej,4733,12,12.004746,55.1708099
1695107,Sjoltevej,4733,13,12.0082541,55.171553
1695108,Sjoltevej,4733,14,12.0067832,55.1714777
1695109,Sjoltevej,4733,15,12.0088355,55.1712547
1695110,Sjoltevej,4733,16,12.0091047,55.1703258
1695111,Sjoltevej,4733,17,12.0090127,55.1710436
1695112,Sjoltevej,4733,18,12.0092497,55.1687892
1695113,Sjoltevej,4733,19,12.0093298,55.1707827
1695114,Sjoltevej,4733,20,12.0110768,55.1696819
1695115,Sjoltevej,4733,21A,12.0092857,55.1705197
1695116,Sjoltevej,4733,21B,12.0158598,55.1716232
1695117,Sjoltevej,4733,22,12.011725,55.1696247
1695118,Sjoltevej,4733,23,12.015774,55.1692013
1695120,Sjoltevej,4733,24,12.0121224,55.169426
1695122,Sjoltevej,4733,25,12.0261145,55.1665062
1695125,Sjoltevej,4733,27,12.0274561,55.1663459
1695127,Sjoltevej,4733,28,12.0114493,55.1667222
1695129,Sjoltevej,4733,30,12.0134692,55.1687619
1695132,Sjoltevej,4733,32,12.0159218,55.1686175
1695133,Sjoltevej,4733,34,12.0161257,55.1669207
1695136,Sjoltevej,4733,36,12.0219909,55.1672808
1695139,Sjoltevej,4733,36A,12.0192149,55.1677953
1695140,Sjoltevej,4733,38,12.0230526,55.1669659
1695142,Sjoltevej,4733,40,12.0248719,55.1664482
1695144,Sjoltevej,4733,42,12.0251346,55.1664081
1695146,Sjoltevej,4733,44,12.0254207,55.1662233
1695149,Sjoltevej,4733,46,12.0268178,55.1660348
1695250,Vildtbanevej,4733,1,11.9771607,55.1647863
1695253,Vildtbanevej,4733,3,11.9769453,55.1645981
1695255,Vildtbanevej,4733,5,11.9768244,55.1643334
1695256,Vildtbanevej,4733,7,11.9766629,55.1641656
1695257,Vildtbanevej,4733,8,11.9786736,55.1649003
1695258,Vildtbanevej,4733,9,11.9764745,55.1639758
1695259,Vildtbanevej,4733,10,11.9781543,55.1650552
1695260,Vildtbanevej,4733,11,11.9761314,55.1638778
1695261,Vildtbanevej,4733,14,11.9777851,55.1650777
1695262,Vildtbanevej,4733,16,11.9774463,55.1650882
1695263,Vildtbanevej,4733,20,11.976595,55.164829
1695264,Vildtbanevej,4733,22,11.9763354,55.1646258
1695265,Vildtbanevej,4733,24,11.9762219,55.1644343
1695266,Vildtbanevej,4733,26,11.9760107,55.1642344
1695267,Vildtbanevej,4733,28,11.9758344,55.1640577
1695456,Tyrehule,4733,2,12.0012034,55.1992969
1695459,Tyrehule,4733,3,12.0019159,55.198445
1695464,Tyrehule,4733,4,11.9996149,55.1980607
1695465,Tyrehule,4733,6,12.0008534,55.1975575
1695677,Rypevænget,4733,1,11.9747012,55.1707072
1695678,Rypevænget,4733,2A,11.974481,55.170423
1695679,Rypevænget,4733,2B,11.974925,55.170379
1695680,Rypevænget,4733,2C,11.9749046,55.170299
1695681,Rypevænget,4733,3,11.975101,55.170596
1695682,Rypevænget,4733,5,11.9756128,55.1705339
1695683,Rypevænget,4733,6A,11.974402,55.1701245
1695684,Rypevænget,4733,6B,11.9743747,55.1700472
1695685,Rypevænget,4733,7,11.976081,55.1704932
1695686,Rypevænget,4733,8A,11.974147,55.169864
1695687,Rypevænget,4733,8B,11.9742506,55.1698543
1695688,Rypevænget,4733,8C,11.9743536,55.169845
1695689,Rypevænget,4733,9,11.9765114,55.1704514
1695690,Rypevænget,4733,10A,11.974675,55.16978
1695691,Rypevænget,4733,10B,11.9748406,55.1697649
1695692,Rypevænget,4733,11,11.9769082,55.170418
1695693,Rypevænget,4733,12A,11.975231,55.16977
1695694,Rypevænget,4733,12B,11.975333,55.1697604
1695695,Rypevænget,4733,12C,11.9754353,55.1697506
1695696,Rypevænget,4733,13,11.9773257,55.17043
1695697,Rypevænget,4733,14A,11.975341,55.170031
1695698,Rypevænget,4733,14B,11.975464,55.170019
1695699,Rypevænget,4733,15,11.9776672,55.1703197
1695700,Rypevænget,4733,16A,11.975406,55.170306
1695701,Rypevænget,4733,16B,11.9755699,55.1702954
1695702,Rypevænget,4733,17,11.9781866,55.17014
1695703,Rypevænget,4733,18A,11.9759801,55.170257
1695704,Rypevænget,4733,18B,11.9759496,55.1701763
1695705,Rypevænget,4733,19,11.978546,55.17003
1695708,Rypevænget,4733,20A,11.975952,55.169989
1695709,Rypevænget,4733,20B,11.9759275,55.1699086
1695712,Rypevænget,4733,22A,11.975686,55.169727
1695713,Rypevænget,4733,22B,11.9757673,55.1697199
1695715,Rypevænget,4733,22C,11.9758485,55.1697125
1695718,Rypevænget,4733,23,11.9790921,55.1699258
1695719,Rypevænget,4733,24A,11.9762296,55.1696457
1695721,Rypevænget,4733,24B,11.9763958,55.1696302
1695723,Rypevænget,4733,26A,11.976824,55.16963
1695725,Rypevænget,4733,26B,11.9769483,55.1696188
1695727,Rypevænget,4733,28A,11.976894,55.169897
1695730,Rypevænget,4733,28B,11.9770188,55.1698853
1695732,Rypevænget,4733,30A,11.976485,55.170214
1695733,Rypevænget,4733,30B,11.9766516,55.1701988
1695734,Rypevænget,4733,32A,11.9769466,55.1701724
1695735,Rypevænget,4733,32B,11.9771136,55.1701567
1695736,Rypevænget,4733,34A,11.977411,55.170055
1695737,Rypevænget,4733,34B,11.9775543,55.170051
1695738,Rypevænget,4733,36,11.9779558,55.1698107
1695739,Rypevænget,4733,38,11.9775082,55.1697536
1695740,Rypevænget,4733,42,11.9777178,55.1695171
1695741,Rypevænget,4733,44,11.9783554,55.1694634
1695742,Rypevænget,4733,46,11.9787067,55.1694633
1695743,Rypevænget,4733,50,11.9784448,55.1697876
1695744,Rypevænget,4733,52,11.9788548,55.1696503
1695783,Kildehøjvej,4733,1A,11.959492,55.204016
1695784,Kildehøjvej,4733,1B,11.9595778,55.2039533
1695785,Kildehøjvej,4733,1C,11.9596637,55.2038903
1695786,Kildehøjvej,4733,2,11.960525,55.2032739
1695787,Kildehøjvej,4733,3,11.9601646,55.2036538
1695788,Kildehøjvej,4733,4,11.960687,55.203484
1695789,Kildehøjvej,4733,5,11.9602555,55.2038816
1695790,Kildehøjvej,4733,6,11.9608921,55.203695
1695791,Kildehøjvej,4733,7,11.9604147,55.2040841
1695792,Kildehøjvej,4733,8,11.9607743,55.2039467
1696111,Tågeskov By,4733,1,11.9725641,55.2063938
1696112,Tågeskov By,4733,2,11.9730495,55.2060974
1696113,Tågeskov By,4733,3,11.9727177,55.2067743
1696114,Tågeskov By,4733,4,11.9732239,55.2062407
1696115,Tågeskov By,4733,5,11.9733038,55.2070013
1696116,Tågeskov By,4733,6,11.9732848,55.2065162
1696117,Tågeskov By,4733,7,11.9738092,55.2076849
1696118,Tågeskov By,4733,8,11.974422,55.207314
1696524,Kildebakken,4733,1,11.9560968,55.201545
1696526,Kildebakken,4733,2,11.9566757,55.2014289
1696527,Kildebakken,4733,3,11.9564802,55.2021182
1696530,Kildebakken,4733,4,11.9581426,55.2016824
1696532,Kildebakken,4733,5,11.9568972,55.2022789
1696534,Kildebakken,4733,6,11.9582482,55.2019412
1696536,Kildebakken,4733,7,11.9570024,55.2020344
1696537,Kildebakken,4733,8,11.9583064,55.2021282
1696538,Kildebakken,4733,9,11.9571384,55.201826
1696539,Kildebakken,4733,10,11.9583582,55.2023459
1696540,Kildebakken,4733,11,11.9576665,55.2018757
1696542,Kildebakken,4733,12,11.9585078,55.2024759
1696544,Kildebakken,4733,13A,11.958055,55.202191
1696546,Kildebakken,4733,13B,11.9580696,55.202236
1696548,Kildebakken,4733,13C,11.9580789,55.2022802
1696550,Kildebakken,4733,14,11.9587939,55.2035653
1696551,Kildebakken,4733,15,11.9581311,55.2024148
1696554,Kildebakken,4733,16,11.9591814,55.2038708
1696556,Kildebakken,4733,17,11.9581003,55.2026254
1696558,Kildebakken,4733,18,11.958932,55.204298
1696560,Kildebakken,4733,18B,11.9595059,55.2042545
1696562,Kildebakken,4733,19,11.9580552,55.2028009
1696565,Kildebakken,4733,20,11.9589948,55.2044806
1696566,Kildebakken,4733,21,11.9581623,55.2029851
1696567,Kildebakken,4733,22,11.9591783,55.2046241
1696568,Kildebakken,4733,23,11.9581818,55.2032285
1696569,Kildebakken,4733,24,11.95918,55.204762
1696570,Kildebakken,4733,25,11.9578694,55.2036009
1696571,Kildebakken,4733,25A,11.9577697,55.2034014
1696572,Kildebakken,4733,26,11.959244,55.2049233
1696573,Kildebakken,4733,27,11.9544158,55.2046984
1696575,Kildebakken,4733,28,11.9593266,55.2051192
1696576,Kildebakken,4733,29,11.9585218,55.2039202
1696580,Kildebakken,4733,30,11.9593661,55.2053881
1696582,Kildebakken,4733,31,11.9585862,55.2041326
1696584,Kildebakken,4733,33,11.9587243,55.2046531
1696586,Kildebakken,4733,35,11.9587402,55.2048048
1696588,Kildebakken,4733,37,11.9587163,55.2052473
1696590,Kildebakken,4733,39,11.9588647,55.2056299
1696591,Kildebakken,4733,41,11.9591394,55.2060123
1696594,Kildebakken,4733,43,11.9593986,55.2069163
1697530,Toftegårdsvej,4733,2,11.9359311,55.165493
1697531,Toftegårdsvej,4733,4,11.9367035,55.1650234
1697532,Toftegårdsvej,4733,6,11.9364432,55.1653217
1697533,Toftegårdsvej,4733,8,11.9368536,55.1652928
1697534,Toftegårdsvej,4733,10,11.9372821,55.1649919
1697535,Toftegårdsvej,4733,12,11.9376097,55.1651184
1697536,Toftegårdsvej,4733,14,11.9379395,55.165092
1697537,Toftegårdsvej,4733,16,11.9383879,55.1651239
1697538,Toftegårdsvej,4733,18,11.9388476,55.1651544
1697613,Bækkeskov Stræde,4733,1,11.9961311,55.1928843
1697615,Bækkeskov Stræde,4733,2,11.98867,55.1921588
1697618,Bækkeskov Stræde,4733,3,11.998746,55.192871
1697619,Bækkeskov Stræde,4733,4,11.9909613,55.1922783
1697622,Bækkeskov Stræde,4733,5,11.9997583,55.1955135
1697624,Bækkeskov Stræde,4733,6,11.9923771,55.1923724
1697625,Bækkeskov Stræde,4733,7,11.9999205,55.1958767
1697628,Bækkeskov Stræde,4733,8A,11.9964379,55.1924406
1697629,Bækkeskov Stræde,4733,8B,11.9990629,55.1926042
1697632,Bækkeskov Stræde,4733,9,11.999239,55.1962752
1697633,Bækkeskov Stræde,4733,9A,12.0112931,55.189316
1697635,Bækkeskov Stræde,4733,9B,12.0114174,55.1882094
1697636,Bækkeskov Stræde,4733,10,12.0034688,55.1916889
1697638,Bækkeskov Stræde,4733,11,12.0220453,55.1785392
1697639,Bækkeskov Stræde,4733,12,12.0060317,55.1915557
1697640,Bækkeskov Stræde,4733,13,12.0271418,55.1757188
1697641,Bækkeskov Stræde,4733,14,12.0058034,55.1900355
1697642,Bækkeskov Stræde,4733,15A,12.028613,55.173821
1697643,Bækkeskov Stræde,4733,15B,12.028249,55.174404
1697644,Bækkeskov Stræde,4733,16,12.0228059,55.1777196
1697645,Bækkeskov Stræde,4733,17,12.0296914,55.172368
1697646,Bækkeskov Stræde,4733,18,12.0264051,55.1758454
1697647,Bækkeskov Stræde,4733,19,12.030735,55.171156
1697648,Bækkeskov Stræde,4733,20,12.0277921,55.1733608
1697649,Bækkeskov Stræde,4733,21,12.0315623,55.1700474
1697650,Bækkeskov Stræde,4733,22,12.0293285,55.1720387
1697651,Bækkeskov Stræde,4733,23,12.0328184,55.1681497
1697652,Bækkeskov Stræde,4733,24,12.0293743,55.1715229
1697653,Bækkeskov Stræde,4733,26A,12.029782,55.170367
1697654,Bækkeskov Stræde,4733,26B,12.030674,55.170151
1697661,Bækkeskov Stræde,4733,30,12.0324628,55.1679187
1697783,Sneserevej,4733,1,11.9787987,55.1610137
1697789,Sneserevej,4733,2,11.9787442,55.1614767
1697792,Sneserevej,4733,3,11.9785312,55.1611791
1697793,Sneserevej,4733,4,11.9785807,55.161545
1697794,Sneserevej,4733,5,11.9783527,55.1613194
1697795,Sneserevej,4733,6,11.9783291,55.16167
1697796,Sneserevej,4733,7,11.9781114,55.1614766
1697799,Sneserevej,4733,8,11.9782114,55.1618213
1697804,Sneserevej,4733,9,11.9778999,55.1616111
1697811,Sneserevej,4733,10,11.9780361,55.1619492
1697819,Sneserevej,4733,11,11.9777844,55.1617616
1697823,Sneserevej,4733,12,11.977753,55.1621401
1697830,Sneserevej,4733,13,11.9774546,55.1617468
1697834,Sneserevej,4733,16A,11.9788135,55.1622187
1697840,Sneserevej,4733,16B,11.977605,55.162355
1697852,Sneserevej,4733,18,11.9773516,55.1624671
1697854,Sneserevej,4733,19,11.9770335,55.1619984
1697862,Sneserevej,4733,20,11.9770783,55.1626212
1697868,Sneserevej,4733,21,11.9767609,55.1621459
1697871,Sneserevej,4733,22,11.976823,55.162764
1697877,Sneserevej,4733,23,11.9766394,55.1623372
1697878,Sneserevej,4733,24,11.9766074,55.1629113
1697879,Sneserevej,4733,25,11.9737248,55.163965
1697880,Sneserevej,4733,26,11.9764484,55.1630496
1697881,Sneserevej,4733,28,11.9762226,55.1631992
1697882,Sneserevej,4733,30,11.976112,55.1633547
1697883,Sneserevej,4733,31,11.9727489,55.1640548
1697884,Sneserevej,4733,32,11.9758806,55.1634632
1697885,Sneserevej,4733,34,11.9757186,55.1635848
1697886,Sneserevej,4733,36,11.9751885,55.1637591
1697887,Sneserevej,4733,37,11.9714553,55.1643036
1697888,Sneserevej,4733,38,11.9750804,55.1639617
1697889,Sneserevej,4733,40,11.9746088,55.1640272
1697890,Sneserevej,4733,42,11.9743865,55.1641498
1697891,Sneserevej,4733,44,11.9740193,55.1641289
1697895,Sneserevej,4733,46,11.9736897,55.1641985
1697899,Sneserevej,4733,48,11.9734127,55.1642781
1697905,Sneserevej,4733,50,11.9730037,55.1643992
1697910,Sneserevej,4733,52,11.9728224,55.1646002
1697913,Sneserevej,4733,56,11.967251,55.1646526
1697918,Sneserevej,4733,58,11.9636269,55.1645368
1697921,Sneserevej,4733,60,11.955898,55.165889
1697922,Sneserevej,4733,61,11.9595154,55.1641287
1697923,Sneserevej,4733,62,11.952245,55.1647527
1697924,Sneserevej,4733,64,11.9517839,55.1649547
1697925,Sneserevej,4733,66,11.9468409,55.1650419
1697926,Sneserevej,4733,66A,11.9473181,55.1661272
1697927,Sneserevej,4733,68,11.9452059,55.1662637
1697928,Sneserevej,4733,69,11.9418828,55.1632777
1697929,Sneserevej,4733,71,11.9330576,55.1644325
1697930,Sneserevej,4733,72,11.9358689,55.1649137
1697931,Sneserevej,4733,73,11.9325611,55.164519
1697932,Sneserevej,4733,74,11.9341964,55.1646553
1697934,Sneserevej,4733,75,11.9321665,55.1646442
1697938,Sneserevej,4733,76,11.9338784,55.1646537
1697942,Sneserevej,4733,77,11.9309451,55.1648215
1697945,Sneserevej,4733,80,11.9208763,55.1665571
1697950,Sneserevej,4733,82,11.9184222,55.1675807
1697953,Sneserevej,4733,84,11.9176771,55.1677852
1697957,Sneserevej,4733,88,11.917283,55.1680037
1697961,Sneserevej,4733,90,11.914552,55.168092
1698236,Scheelsvej,4733,1,12.024604,55.1660189
1698237,Scheelsvej,4733,3,12.0244898,55.1658541
1698238,Scheelsvej,4733,5,12.0241575,55.1656928
1698241,Scheelsvej,4733,7,12.0239752,55.1655387
1698549,Stenagervej,4733,1,11.9166677,55.1871709
1698550,Stenagervej,4733,2,11.9172179,55.1873262
1698552,Stenagervej,4733,3,11.9142588,55.186409
1698553,Stenagervej,4733,4,11.9158566,55.1872029
1698555,Stenagervej,4733,6,11.9151754,55.1872428
1698558,Stenagervej,4733,8,11.9125174,55.1855197
1698560,Stenagervej,4733,10,11.9112809,55.1848147
1698752,Korskildevej,4733,1,11.974274,55.1785311
1698753,Korskildevej,4733,2A,11.9754377,55.1789994
1698754,Korskildevej,4733,2B,11.9750695,55.1795329
1698755,Korskildevej,4733,3,11.9741092,55.178887
1698756,Korskildevej,4733,4,11.9755278,55.1804818
1698757,Korskildevej,4733,5,11.974559,55.1798449
1698758,Korskildevej,4733,5A,11.9745428,55.1791586
1698760,Korskildevej,4733,6,11.9752842,55.1808301
1698763,Korskildevej,4733,7,11.9746835,55.1803459
1698764,Korskildevej,4733,8,11.9742189,55.1847589
1698769,Korskildevej,4733,9,11.9735771,55.1853487
1698774,Korskildevej,4733,11,11.9735092,55.1859714
1698775,Korskildevej,4733,13,11.9721617,55.1868683
1698780,Korskildevej,4733,14,11.971354,55.18783
1698782,Korskildevej,4733,15,11.969829,55.1885047
1698915,Damsvej,4733,1,11.9763752,55.1785311
1698916,Damsvej,4733,2,11.9766906,55.1782048
1698917,Damsvej,4733,3,11.9764604,55.1788243
1698918,Damsvej,4733,4,11.9768392,55.1785117
1698919,Damsvej,4733,6,11.9768734,55.1787996
1698920,Damsvej,4733,8,11.977063,55.178994
1699262,Åsidevej,4733,1,11.9168434,55.1683921
1699264,Åsidevej,4733,2,11.9241766,55.1720255
1699266,Åsidevej,4733,3,11.9159321,55.1698961
1699268,Åsidevej,4733,4,11.924765,55.172367
1699270,Åsidevej,4733,5,11.9158375,55.1702267
1699273,Åsidevej,4733,5A,11.9202487,55.1706898
1699275,Åsidevej,4733,7,11.9288411,55.1741722
1699277,Åsidevej,4733,9,11.9370112,55.1768071
1699281,Åsidevej,4733,9A,11.938236,55.1771482
1699282,Åsidevej,4733,11,11.9392089,55.1766489
1699376,Bredeshave Strand,4733,1,12.0115413,55.1508914
1699377,Bredeshave Strand,4733,2,12.0096219,55.1512007
1699378,Bredeshave Strand,4733,3,12.0104981,55.150587
1699379,Bredeshave Strand,4733,4,12.009283,55.1510372
1699382,Bredeshave Strand,4733,5,12.0117306,55.1505926
1699385,Bredeshave Strand,4733,6,12.009201,55.1508079
1699388,Bredeshave Strand,4733,8,12.0091613,55.1506313
1699391,Bredeshave Strand,4733,10A,12.0091012,55.1504187
1699393,Bredeshave Strand,4733,10B,12.0090224,55.1502382
1699395,Bredeshave Strand,4733,12,12.0097108,55.1503379
1699396,Bredeshave Strand,4733,14,12.009785,55.1505338
1699397,Bredeshave Strand,4733,16,12.0098964,55.1507431
1699490,Nyvej,4733,1,11.959046,55.2011146
1699493,Nyvej,4733,2,11.9595597,55.2010141
1699494,Nyvej,4733,3,11.9588777,55.2012892
1699497,Nyvej,4733,4,11.9603804,55.2010018
1699498,Nyvej,4733,5,11.9589198,55.2014742
1699500,Nyvej,4733,6,11.9593855,55.201795
1699502,Nyvej,4733,7,11.9588871,55.2016778
1699505,Nyvej,4733,8,11.9594189,55.2025532
1699506,Nyvej,4733,9,11.9589655,55.2018972
1699508,Nyvej,4733,10,11.9594729,55.2027684
1699510,Nyvej,4733,11,11.958999,55.202099
1699512,Nyvej,4733,13,11.959016,55.2024058
1699515,Nyvej,4733,15,11.9590102,55.2026803
1699564,Hovvej,4733,1,11.955927,55.1858387
1699566,Hovvej,4733,2,11.9561314,55.1852444
1699568,Hovvej,4733,3,11.9576271,55.1860788
1699570,Hovvej,4733,4,11.9584441,55.1847984
1699572,Hovvej,4733,5,11.958096,55.1877312
1699574,Hovvej,4733,7,11.9577774,55.1896979
1699575,Hovvej,4733,8,11.9643661,55.1875161
1699576,Hovvej,4733,9,11.9576643,55.1913748
1699578,Hovvej,4733,10,11.9666515,55.1889307
1699580,Hovvej,4733,11,11.9617395,55.1868838
1699582,Hovvej,4733,13,11.9668887,55.1894699
1699806,Bellisvej,4733,1,11.9586416,55.2010589
1699892,Sandagervænge,4733,1,11.9780624,55.1679188
1699893,Sandagervænge,4733,2,11.9777283,55.1680053
1699894,Sandagervænge,4733,3,11.9782078,55.167908
1699895,Sandagervænge,4733,4,11.9777096,55.1679338
1699896,Sandagervænge,4733,5,11.9784607,55.1678861
1699900,Sandagervænge,4733,6,11.9776144,55.1678053
1699903,Sandagervænge,4733,7,11.9786047,55.1678743
1699907,Sandagervænge,4733,8,11.9775977,55.1677463
1699909,Sandagervænge,4733,9,11.9779615,55.167683
1699913,Sandagervænge,4733,10,11.9774892,55.1675862
1699915,Sandagervænge,4733,11,11.9780841,55.1676722
1699916,Sandagervænge,4733,12,11.9774748,55.1675272
1699917,Sandagervænge,4733,13,11.978332,55.167649
1699918,Sandagervænge,4733,14,11.9772785,55.16807
1699919,Sandagervænge,4733,15,11.9784816,55.1676367
1699920,Sandagervænge,4733,16,11.9772635,55.1680174
1699921,Sandagervænge,4733,17,11.977817,55.167397
1699922,Sandagervænge,4733,18,11.9771892,55.1678783
1699923,Sandagervænge,4733,19,11.9779412,55.1673865
1699924,Sandagervænge,4733,20,11.9771752,55.1678311
1699929,Sandagervænge,4733,21,11.9781812,55.1673643
1699931,Sandagervænge,4733,22,11.9761014,55.1682327
1699937,Sandagervænge,4733,23,11.9783024,55.167353
1699940,Sandagervænge,4733,24,11.9759924,55.1682457
1699942,Sandagervænge,4733,25,11.9765772,55.1681399
1699943,Sandagervænge,4733,26,11.9756477,55.168256
1699944,Sandagervænge,4733,27,11.9764388,55.1681531
1699945,Sandagervænge,4733,28,11.9757664,55.1682417
1699946,Sandagervænge,4733,29,11.9768361,55.1681134
1699947,Sandagervænge,4733,30,11.9761669,55.1680571
1699948,Sandagervænge,4733,31,11.9769761,55.1681012
1699949,Sandagervænge,4733,32,11.9762819,55.1680102
1699950,Sandagervænge,4733,34,11.9764866,55.1679318
1699951,Sandagervænge,4733,36,11.9765735,55.1678969
1699956,Sandagervænge,4733,38,11.976761,55.1678258
1699962,Sandagervænge,4733,40,11.9768539,55.1677896
1699963,Sandagervænge,4733,42,11.9770405,55.167714
1699969,Sandagervænge,4733,44,11.9771298,55.1676787
1700113,Bårsevej,4733,1,11.9316279,55.1647029
1700116,Bårsevej,4733,3,11.9317073,55.1645512
1700121,Bårsevej,4733,3D,11.931536,55.1637871
1700128,Bårsevej,4733,4,11.9315729,55.1641649
1700129,Bårsevej,4733,5,11.9311541,55.1635406
1700131,Bårsevej,4733,6A,11.9305368,55.1642432
1700133,Bårsevej,4733,6B,11.9304006,55.1626345
1700135,Bårsevej,4733,7,11.9310967,55.1634264
1700137,Bårsevej,4733,8,11.9302978,55.1623546
1700139,Bårsevej,4733,9,11.9311784,55.1631816
1700141,Bårsevej,4733,10,11.9303124,55.1621515
1700143,Bårsevej,4733,11,11.9309329,55.1630089
1700146,Bårsevej,4733,12,11.9339567,55.1529149
1700147,Bårsevej,4733,13,11.9313062,55.1628406
1700148,Bårsevej,4733,14,11.9374003,55.1507657
1700150,Bårsevej,4733,15,11.931844,55.1627071
1700152,Bårsevej,4733,16,11.9377801,55.1491329
1700153,Bårsevej,4733,17,11.9307899,55.1626721
1700155,Bårsevej,4733,19,11.9304691,55.1616019
1700156,Bårsevej,4733,21,11.9309218,55.1614575
1700159,Bårsevej,4733,23,11.931586,55.161054
1700492,Skovmosevej,4733,3,11.9980618,55.1572389
1700493,Skovmosevej,4733,4,12.000107,55.15691
1700494,Skovmosevej,4733,5,12.0013563,55.1575802
1700495,Skovmosevej,4733,6,12.0059282,55.1573801
1700496,Skovmosevej,4733,7,12.003195,55.1588938
1700497,Skovmosevej,4733,8,12.0080283,55.1585503
2122088,Broskovvej,4733,2,12.009022,55.149089
2122091,Broskovvej,4733,4,12.0087206,55.1489352
2122093,Broskovvej,4733,6,12.0065694,55.1484732
2122100,Broskovvej,4733,8,12.00595,55.148256
2122102,Broskovvej,4733,10,12.0052752,55.1478292
2122106,Broskovvej,4733,10A,12.0034996,55.146951
2133437,Stavnstrupvej,4733,1,11.991892,55.206829
2133438,Stavnstrupvej,4733,2,12.003415,55.206966
2133442,Stavnstrupvej,4733,3,11.993206,55.206746
2133444,Stavnstrupvej,4733,5,11.9977018,55.2072358
2133447,Stavnstrupvej,4733,7,12.002431,55.207863
2133451,Stavnstrupvej,4733,9,12.0037408,55.2076793
2133453,Stavnstrupvej,4733,11,12.0050491,55.2068822
2133458,Stavnstrupvej,4733,13,12.0236065,55.2050338
2133465,Stavnstrupvej,4733,14,12.0077102,55.2045802
2133468,Stavnstrupvej,4733,15,12.017364,55.205248
2133475,Stavnstrupvej,4733,16,12.010055,55.205196
2133482,Stavnstrupvej,4733,18,12.008932,55.20446
2133486,Stavnstrupvej,4733,20,12.0071979,55.2065451
2133493,Stavnstrupvej,4733,22,12.0118393,55.2069219
2133501,Stavnstrupvej,4733,26,12.0220103,55.2013074
2133508,Stavnstrupvej,4733,28,12.0225197,55.2022039
2134828,Sydmotorvejen,4733,380,11.9572232,55.169393
2134843,Sydmotorvejen,4733,382,11.9562641,55.1687288
2134850,Sydmotorvejen,4733,383,11.9582248,55.1657783
2139920,Bakkehusene,4733,1,11.980076,55.1766505
2139922,Bakkehusene,4733,2,11.9799871,55.176297
2139929,Bakkehusene,4733,3,11.9801254,55.1768426
2139934,Bakkehusene,4733,4,11.9799259,55.1761004
2139937,Bakkehusene,4733,5,11.9801842,55.1770627
2139943,Bakkehusene,4733,6,11.9798725,55.1758854
2139950,Bakkehusene,4733,7,11.9804407,55.1769989
2139951,Bakkehusene,4733,8,11.979801,55.1756821
2139956,Bakkehusene,4733,9,11.9803892,55.1768073
2139960,Bakkehusene,4733,10,11.9799551,55.1753135
2139966,Bakkehusene,4733,11,11.9803351,55.1766216
2139974,Bakkehusene,4733,12,11.980019,55.175538
2139982,Bakkehusene,4733,14,11.9800993,55.1757127
2139989,Bakkehusene,4733,16,11.9801543,55.1759114
2139995,Bakkehusene,4733,18,11.980211,55.176101
2139998,Bakkehusene,4733,20,11.9802544,55.1762898
2140782,Lindhøjgårdsvej,4733,2,11.9782897,55.1744925
2140787,Lindhøjgårdsvej,4733,4,11.9781996,55.1743782
2140793,Lindhøjgårdsvej,4733,6,11.9780838,55.1742801
2140798,Lindhøjgårdsvej,4733,8,11.9779662,55.1741587
2140805,Lindhøjgårdsvej,4733,10,11.9782806,55.1741899
2140811,Lindhøjgårdsvej,4733,12,11.9784933,55.1741303
2140816,Lindhøjgårdsvej,4733,14,11.9787471,55.1740775
2140820,Lindhøjgårdsvej,4733,16,11.9789728,55.1740099
2140825,Lindhøjgårdsvej,4733,56,11.9807897,55.1740897
2140830,Lindhøjgårdsvej,4733,58,11.9807208,55.1737972
2140832,Lindhøjgårdsvej,4733,60,11.9807678,55.1734788
2140837,Lindhøjgårdsvej,4733,62,11.9810377,55.1734026
2140839,Lindhøjgårdsvej,4733,64,11.981388,55.1733
2140845,Lindhøjgårdsvej,4733,66,11.9817058,55.17321
2140851,Lindhøjgårdsvej,4733,68,11.9817688,55.1732585
2140853,Lindhøjgårdsvej,4733,70,11.981805,55.173398
2140859,Lindhøjgårdsvej,4733,72,11.9818708,55.173626
2140864,Lindhøjgårdsvej,4733,74,11.981921,55.173855
2140868,Lindhøjgårdsvej,4733,76,11.981997,55.174105
2140873,Lindhøjgårdsvej,4733,78,11.9816901,55.1740698
2140876,Lindhøjgårdsvej,4733,80,11.9815027,55.1739357
2140883,Lindhøjgårdsvej,4733,82,11.9812772,55.1741052
2140888,Lindhøjgårdsvej,4733,84,11.9811972,55.1739641
2185620,Bævervænget,4733,1,11.9742044,55.1712317
2185624,Bævervænget,4733,2,11.9744533,55.1715192
2185625,Bævervænget,4733,9,11.9729754,55.1711375
2185629,Bævervænget,4733,17,11.97173,55.1711587
2200305,Østre Brøderupvej,4733,4,11.981196,55.176793
2222789,Hovedvejen,4733,1A,11.984451,55.173615
2222790,Hovedvejen,4733,1B,11.982366,55.171803
2222791,Hovedvejen,4733,2,11.9821813,55.1753662
2222792,Hovedvejen,4733,3,11.98232,55.171359
2222793,Hovedvejen,4733,4,11.981628,55.171328
2222794,Hovedvejen,4733,5,11.982228,55.171137
2222795,Hovedvejen,4733,7,11.9822091,55.1708775
2222796,Hovedvejen,4733,8,11.9816326,55.1708974
2222797,Hovedvejen,4733,8B,11.978329,55.171503
2222798,Hovedvejen,4733,9,11.982155,55.170681
2222799,Hovedvejen,4733,10,11.9813783,55.1706562
2222800,Hovedvejen,4733,11,11.9820924,55.1704085
2222801,Hovedvejen,4733,12,11.981403,55.170301
2222802,Hovedvejen,4733,14,11.981358,55.170138
2222803,Hovedvejen,4733,15,11.9819854,55.1700026
2222804,Hovedvejen,4733,16,11.981072,55.169869
2222805,Hovedvejen,4733,17,11.981954,55.169829
2222806,Hovedvejen,4733,18A,11.981107,55.169324
2222807,Hovedvejen,4733,18B,11.980752,55.169482
2222808,Hovedvejen,4733,18C,11.981138,55.169486
2222809,Hovedvejen,4733,19,11.9819171,55.1696763
2222810,Hovedvejen,4733,20,11.9808905,55.1691376
2222811,Hovedvejen,4733,21,11.981994,55.169436
2222812,Hovedvejen,4733,23,11.9817217,55.169146
2222813,Hovedvejen,4733,25,11.989112,55.168519
2222814,Hovedvejen,4733,26,11.980823,55.167702
2222815,Hovedvejen,4733,27,11.989217,55.168258
2222816,Hovedvejen,4733,28,11.9807,55.167535
2222817,Hovedvejen,4733,30A,11.980678,55.167126
2230561,Hemmestrupvej,4733,2,12.014337,55.207872
2230563,Hemmestrupvej,4733,4A,12.016542,55.209218
2232523,Teglværksvej,4733,2A,11.93579,55.161275
2232524,Teglværksvej,4733,11,11.941208,55.160353
2232525,Leestrup Byvej,4733,11,12.039038,55.201523
2232533,Skovholmvej,4733,8,12.039977,55.201232
2232564,Engelstrupvej,4733,13,11.979344,55.194258
2232576,Kongskildevej,4733,1A,11.928643,55.161696
2232603,Svingkærvej,4733,5,11.97728,55.171175
2232604,Svingkærvej,4733,48B,11.972155,55.17029
2232654,Engelholmvej,4733,7A,11.983115,55.14117
2232656,Rypevænget,4733,4,11.9744641,55.1703418
2232667,Sneserevej,4733,86,11.9174,55.167756
2237378,Lindhøjgårdsvej,4733,21,11.979979,55.174563
2237379,Lindhøjgårdsvej,4733,23,11.980045,55.174814
2237380,Lindhøjgårdsvej,4733,25,11.98011,55.17506
2242651,Brøderupvej,4733,24,11.961411,55.176364
2242719,Ny Prøvevej,4733,1,11.994415,55.204521
2244430,Korskildevej,4733,2,11.9752854,55.17905
2248426,Rødlersvej,4733,2M,11.981833,55.163556
2248444,Strandvejen,4733,28,12.024286,55.164216
2248461,Blålersvej,4733,6,11.981518,55.16523
2248462,Blålersvej,4733,7,11.982474,55.165196
