idx,street,postcode,housenumber,lon,lat
1119096,Hårbøllevej,4792,1,12.177158,54.923276
1119099,Hårbøllevej,4792,2,12.177807,54.922855
1119100,Hårbøllevej,4792,3,12.179966,54.922011
1119103,Hårbøllevej,4792,4,12.183245,54.920553
1119105,Hårbøllevej,4792,5A,12.18714,54.921522
1119106,Hårbøllevej,4792,5B,12.187076,54.919985
1119109,Hårbøllevej,4792,6,12.187559,54.919587
1119110,Hårbøllevej,4792,7,12.188599,54.919166
1119113,Hårbøllevej,4792,8,12.187351,54.915052
1119115,Hårbøllevej,4792,9,12.190994,54.916513
1119116,Hårbøllevej,4792,10,12.187192,54.914827
1119119,Hårbøllevej,4792,11,12.188326,54.916976
1119120,Hårbøllevej,4792,12,12.187771,54.91311
1119123,Hårbøllevej,4792,13,12.188041,54.913378
1119126,Hårbøllevej,4792,14,12.187875,54.90946
1119127,Hårbøllevej,4792,15,12.188676,54.91186
1119130,Hårbøllevej,4792,16,12.186572,54.907985
1119132,Hårbøllevej,4792,17,12.186619,54.906623
1119134,Hårbøllevej,4792,18,12.184755,54.905715
1119137,Hårbøllevej,4792,19,12.185165,54.905434
1119139,Hårbøllevej,4792,20,12.184105,54.905246
1119141,Hårbøllevej,4792,21,12.184714,54.904588
1119145,Hårbøllevej,4792,22,12.183044,54.901546
1119146,Hårbøllevej,4792,24,12.182762,54.901193
1119148,Hårbøllevej,4792,25,12.17858,54.897947
1119149,Hårbøllevej,4792,26,12.177957,54.897945
1119150,Hårbøllevej,4792,27,12.178335,54.89755
1119151,Hårbøllevej,4792,28,12.177646,54.8976
1119152,Hårbøllevej,4792,30,12.177314,54.897804
1119153,Hårbøllevej,4792,31,12.176231,54.896944
1119154,Hårbøllevej,4792,32,12.177108,54.897956
1119155,Hårbøllevej,4792,33,12.17563,54.896898
1119156,Hårbøllevej,4792,35,12.175346,54.896774
1119157,Hårbøllevej,4792,36,12.17647,54.897118
1119158,Hårbøllevej,4792,38,12.175817,54.899706
1119159,Hårbøllevej,4792,39,12.17422,54.896128
1119160,Hårbøllevej,4792,40,12.175254,54.897341
1119161,Hårbøllevej,4792,41,12.173707,54.896419
1119162,Hårbøllevej,4792,42,12.174812,54.896808
1119163,Hårbøllevej,4792,43,12.173343,54.896475
1119164,Hårbøllevej,4792,44,12.174462,54.896744
1119165,Hårbøllevej,4792,45,12.172817,54.896463
1119166,Hårbøllevej,4792,46,12.17377,54.896839
1119167,Hårbøllevej,4792,47,12.172328,54.896467
1119168,Hårbøllevej,4792,48,12.172989,54.897791
1119169,Hårbøllevej,4792,49,12.170822,54.895997
1119170,Hårbøllevej,4792,50,12.173219,54.896816
1119171,Hårbøllevej,4792,51,12.17013,54.895838
1119172,Hårbøllevej,4792,53,12.169573,54.895709
1119173,Hårbøllevej,4792,54,12.172274,54.896763
1119174,Hårbøllevej,4792,55,12.169414,54.895592
1119175,Hårbøllevej,4792,57A,12.1689869,54.8953886
1119176,Hårbøllevej,4792,57B,12.168987,54.895148
1119177,Hårbøllevej,4792,58,12.171422,54.896528
1119178,Hårbøllevej,4792,60,12.167006,54.900002
1119179,Hårbøllevej,4792,61,12.16695,54.895085
1119180,Hårbøllevej,4792,62,12.170611,54.896366
1119181,Hårbøllevej,4792,63,12.166672,54.89483
1119182,Hårbøllevej,4792,64,12.169123,54.895809
1119183,Hårbøllevej,4792,65,12.166331,54.894867
1119184,Hårbøllevej,4792,66,12.168717,54.895717
1119185,Hårbøllevej,4792,68,12.168384,54.895598
1119186,Hårbøllevej,4792,69,12.16518,54.894637
1119187,Hårbøllevej,4792,70,12.167843,54.895715
1119188,Hårbøllevej,4792,71,12.1646203,54.8945059
1119189,Hårbøllevej,4792,71A,12.1645437,54.8943347
1119190,Hårbøllevej,4792,71B,12.164494,54.8945
1119191,Hårbøllevej,4792,72,12.16747,54.895472
1119192,Hårbøllevej,4792,74,12.166988,54.895394
1119193,Hårbøllevej,4792,75,12.16335,54.892927
1119194,Hårbøllevej,4792,76,12.166472,54.895181
1119195,Hårbøllevej,4792,77,12.162879,54.893932
1119196,Hårbøllevej,4792,78,12.166086,54.895127
1119197,Hårbøllevej,4792,79,12.157137,54.888817
1119198,Hårbøllevej,4792,81,12.156364,54.887885
1119199,Hårbøllevej,4792,82,12.150477,54.887183
1119200,Hårbøllevej,4792,83,12.156761,54.886566
1119201,Hårbøllevej,4792,84,12.154977,54.886779
1119202,Hårbøllevej,4792,85,12.154024,54.883213
1119203,Hårbøllevej,4792,86,12.153619,54.884508
1119204,Hårbøllevej,4792,87,12.152702,54.882981
1119205,Hårbøllevej,4792,88,12.15334,54.8834
1119206,Hårbøllevej,4792,90,12.152875,54.883347
1119207,Hårbøllevej,4792,91,12.149326,54.882031
1119208,Hårbøllevej,4792,93,12.145711,54.883173
1119209,Hårbøllevej,4792,94,12.150803,54.883361
1119210,Hårbøllevej,4792,96,12.149858,54.883402
1119211,Hårbøllevej,4792,98,12.146252,54.883494
1119212,Hårbøllevej,4792,100,12.145764,54.883422
1119213,Hårbøllevej,4792,101,12.145079,54.885421
1119214,Hårbøllevej,4792,102,12.145193,54.883396
1119215,Hårbøllevej,4792,105,12.144552,54.885848
1119217,Hårbøllevej,4792,106,12.145609,54.884009
1119219,Hårbøllevej,4792,107,12.143976,54.886139
1119221,Hårbøllevej,4792,108,12.146031,54.884159
1119224,Hårbøllevej,4792,111,12.143176,54.886639
1119225,Hårbøllevej,4792,114,12.145487,54.886266
1119227,Hårbøllevej,4792,116,12.146041,54.88818
1119228,Hårbøllevej,4792,118,12.145215,54.886422
1119230,Hårbøllevej,4792,119,12.140936,54.887928
1119232,Hårbøllevej,4792,120,12.143725,54.887131
1119234,Hårbøllevej,4792,121,12.140399,54.888281
1119236,Hårbøllevej,4792,123,12.139945,54.888498
1119238,Hårbøllevej,4792,124,12.143005,54.887689
1119239,Hårbøllevej,4792,125,12.139293,54.888671
1119241,Hårbøllevej,4792,126,12.142663,54.887912
1119242,Hårbøllevej,4792,128,12.142452,54.888245
1119244,Hårbøllevej,4792,130,12.141586,54.88796
1119246,Hårbøllevej,4792,131,12.13821,54.889521
1119247,Hårbøllevej,4792,133,12.137882,54.889337
1119250,Hårbøllevej,4792,135,12.137216,54.88915
1119252,Hårbøllevej,4792,138,12.138544,54.890141
1119253,Hårbøllevej,4792,139,12.13769,54.889815
1119255,Hårbøllevej,4792,140,12.138485,54.890332
1119256,Hårbøllevej,4792,141,12.137572,54.889975
1119258,Hårbøllevej,4792,142A,12.138554,54.890637
1119260,Hårbøllevej,4792,142B,12.138118,54.890503
1119261,Hårbøllevej,4792,142C,12.137326,54.890384
1119263,Hårbøllevej,4792,143,12.136338,54.889984
1119265,Hårbøllevej,4792,144,12.137039,54.890522
1119267,Hårbøllevej,4792,145,12.136983,54.890194
1119269,Hårbøllevej,4792,146,12.136917,54.890634
1119270,Hårbøllevej,4792,147,12.13667,54.890326
1119272,Hårbøllevej,4792,148,12.136535,54.890825
1119274,Hårbøllevej,4792,150,12.13622,54.890946
1119275,Hårbøllevej,4792,151,12.135953,54.890814
1119277,Hårbøllevej,4792,152,12.136525,54.891112
1119279,Hårbøllevej,4792,153,12.136026,54.891088
1119281,Hårbøllevej,4792,155,12.136163,54.891465
1119372,Hårbølle Bro,4792,1,12.135357,54.890217
1119373,Hårbølle Bro,4792,2,12.135728,54.890979
1119374,Hårbølle Bro,4792,3,12.135475,54.890246
1119375,Hårbølle Bro,4792,4,12.13547,54.890995
1119376,Hårbølle Bro,4792,5,12.13559,54.890266
1119377,Hårbølle Bro,4792,6,12.13504,54.890865
1119378,Hårbølle Bro,4792,7,12.135706,54.890292
1119379,Hårbølle Bro,4792,8,12.134409,54.890735
1119380,Hårbølle Bro,4792,9,12.135813,54.89032
1119381,Hårbølle Bro,4792,10,12.133726,54.890554
1119382,Hårbølle Bro,4792,11,12.135938,54.890346
1119383,Hårbølle Bro,4792,13,12.136054,54.890373
1119384,Hårbølle Bro,4792,15,12.136165,54.890396
1119385,Hårbølle Bro,4792,17,12.136273,54.890421
1119386,Hårbølle Bro,4792,19,12.136384,54.890446
1119387,Hårbølle Bro,4792,21,12.136494,54.890479
1119389,Hårbølle Bro,4792,23,12.136223,54.890236
1119391,Hårbølle Bro,4792,25,12.136091,54.890216
1119393,Hårbølle Bro,4792,27,12.135988,54.89019
1119395,Hårbølle Bro,4792,29,12.135873,54.890167
1119396,Hårbølle Bro,4792,31,12.135762,54.890138
1119399,Hårbølle Bro,4792,33,12.13565,54.89011
1119400,Hårbølle Bro,4792,35,12.135543,54.890081
1119402,Hårbølle Bro,4792,37,12.135432,54.890062
1119404,Hårbølle Bro,4792,39,12.135332,54.890036
1119407,Hårbølle Bro,4792,41,12.135206,54.890017
1119410,Hårbølle Bro,4792,43,12.135077,54.889988
1119412,Hårbølle Bro,4792,45,12.134915,54.890388
1119414,Hårbølle Bro,4792,47,12.1345874,54.8904056
1119487,Mimersvej,4792,1,12.15345,54.884056
1119490,Mimersvej,4792,3,12.153477,54.88374
1119493,Mimersvej,4792,5,12.152563,54.884247
1119494,Mimersvej,4792,9,12.151573,54.884494
1119542,Færgensvænge,4792,1,12.136406,54.892501
1119543,Færgensvænge,4792,2,12.13469,54.892938
1119545,Færgensvænge,4792,4,12.134352,54.892931
1119546,Færgensvænge,4792,6,12.133835,54.89303
1119548,Færgensvænge,4792,8,12.133744,54.893765
1119549,Færgensvænge,4792,10,12.133242,54.893099
1119551,Færgensvænge,4792,11,12.132489,54.892697
1119553,Færgensvænge,4792,12,12.132815,54.892991
1119555,Færgensvænge,4792,13,12.132418,54.892419
1119556,Færgensvænge,4792,14,12.132424,54.89309
1119561,Færgensvænge,4792,15,12.131929,54.891891
1119563,Færgensvænge,4792,16,12.131978,54.893137
1119564,Færgensvænge,4792,17,12.131932,54.892646
1119569,Færgensvænge,4792,18,12.131596,54.893216
1119571,Færgensvænge,4792,19,12.131561,54.892728
1119574,Færgensvænge,4792,20,12.13119,54.893216
1119576,Færgensvænge,4792,21,12.131189,54.892736
1119578,Færgensvænge,4792,22,12.130866,54.893303
1119580,Færgensvænge,4792,23,12.130827,54.892778
1119581,Færgensvænge,4792,24,12.130308,54.893041
1119582,Færgensvænge,4792,25,12.130392,54.89283
1119585,Færgensvænge,4792,26,12.1299,54.893104
1119586,Færgensvænge,4792,28,12.129445,54.893303
1119620,Savværksvej,4792,1,12.177721,54.896869
1119621,Savværksvej,4792,4A,12.177199,54.896329
1119624,Savværksvej,4792,4B,12.17723,54.896292
1119627,Savværksvej,4792,4C,12.177261,54.896254
1119629,Savværksvej,4792,4D,12.177292,54.896217
1119632,Savværksvej,4792,6,12.177271,54.895959
1119645,Fanefjord Kirkevej,4792,3,12.158148,54.9153
1119646,Fanefjord Kirkevej,4792,4,12.157824,54.915212
1119647,Fanefjord Kirkevej,4792,5,12.158424,54.915109
1119648,Fanefjord Kirkevej,4792,6,12.157961,54.915103
1119649,Fanefjord Kirkevej,4792,7,12.158766,54.914853
1119650,Fanefjord Kirkevej,4792,8,12.158148,54.915032
1119651,Fanefjord Kirkevej,4792,9,12.159059,54.914737
1119652,Fanefjord Kirkevej,4792,10,12.158328,54.914892
1119653,Fanefjord Kirkevej,4792,11,12.159551,54.914485
1119654,Fanefjord Kirkevej,4792,12,12.158665,54.914658
1119655,Fanefjord Kirkevej,4792,14,12.15905,54.914209
1119656,Fanefjord Kirkevej,4792,15A,12.160049,54.914294
1119657,Fanefjord Kirkevej,4792,15B,12.160162,54.914257
1119658,Fanefjord Kirkevej,4792,18,12.1598962,54.9141111
1119659,Fanefjord Kirkevej,4792,19,12.160807,54.914012
1119660,Fanefjord Kirkevej,4792,20,12.160141,54.914037
1119661,Fanefjord Kirkevej,4792,23,12.161153,54.913646
1119662,Fanefjord Kirkevej,4792,24,12.16079,54.913726
1119663,Fanefjord Kirkevej,4792,25,12.161302,54.913242
1119664,Fanefjord Kirkevej,4792,26,12.160879,54.913575
1119665,Fanefjord Kirkevej,4792,27,12.162071,54.913161
1119666,Fanefjord Kirkevej,4792,28,12.160812,54.913476
1119667,Fanefjord Kirkevej,4792,29,12.162618,54.91289
1119668,Fanefjord Kirkevej,4792,30,12.160871,54.91333
1119669,Fanefjord Kirkevej,4792,31,12.161157,54.913094
1119670,Fanefjord Kirkevej,4792,32,12.160887,54.913167
1119671,Fanefjord Kirkevej,4792,34,12.160418,54.912922
1119672,Fanefjord Kirkevej,4792,35A,12.161233,54.912591
1119673,Fanefjord Kirkevej,4792,35B,12.162033,54.912225
1119674,Fanefjord Kirkevej,4792,35C,12.161197,54.912306
1119675,Fanefjord Kirkevej,4792,36,12.160444,54.912535
1119676,Fanefjord Kirkevej,4792,37,12.163395,54.911944
1119677,Fanefjord Kirkevej,4792,38,12.160834,54.912396
1119678,Fanefjord Kirkevej,4792,40,12.160563,54.912162
1119679,Fanefjord Kirkevej,4792,41,12.159538,54.908831
1119680,Fanefjord Kirkevej,4792,43,12.160233,54.907577
1119681,Fanefjord Kirkevej,4792,45,12.155705,54.903331
1119682,Fanefjord Kirkevej,4792,47,12.15302,54.902897
1119683,Fanefjord Kirkevej,4792,49,12.151196,54.901748
1119684,Fanefjord Kirkevej,4792,50,12.150839,54.901927
1119685,Fanefjord Kirkevej,4792,51,12.15086,54.901273
1119686,Fanefjord Kirkevej,4792,52,12.14921,54.897734
1119687,Fanefjord Kirkevej,4792,53,12.152836,54.901113
1119688,Fanefjord Kirkevej,4792,54A,12.148318,54.896843
1119689,Fanefjord Kirkevej,4792,54B,12.147795,54.896173
1119690,Fanefjord Kirkevej,4792,56,12.142196,54.892442
1119691,Fanefjord Kirkevej,4792,57,12.150425,54.893589
1119692,Fanefjord Kirkevej,4792,58,12.139281,54.892528
1119693,Fanefjord Kirkevej,4792,59,12.144988,54.891767
1119694,Fanefjord Kirkevej,4792,60,12.138873,54.893699
1119695,Fanefjord Kirkevej,4792,61,12.14235,54.891293
1119722,Rolfsvej,4792,1,12.144153,54.887004
1119724,Rolfsvej,4792,2,12.144455,54.886823
1119727,Rolfsvej,4792,4,12.144762,54.886627
1119728,Rolfsvej,4792,6,12.14532,54.886954
1119730,Rolfsvej,4792,10,12.145336,54.887254
1119732,Rolfsvej,4792,12,12.145584,54.887548
1119734,Rolfsvej,4792,14,12.14514,54.887833
1119736,Rolfsvej,4792,16,12.145402,54.888387
1119741,Rubins Mosevej,4792,4,12.14677,54.884115
1119755,Gefionsvej,4792,2,12.143379,54.885821
1119758,Gefionsvej,4792,4,12.143029,54.885711
1119762,Gefionsvej,4792,6,12.142585,54.885557
1119764,Gefionsvej,4792,8,12.142697,54.885237
1119766,Gefionsvej,4792,9,12.142908,54.884801
1119770,Gefionsvej,4792,10,12.142235,54.885086
1119772,Gefionsvej,4792,11,12.142741,54.884621
1119774,Gefionsvej,4792,12,12.14225,54.88485
1119794,Ægirsvej,4792,2,12.134625,54.892593
1119795,Ægirsvej,4792,4,12.134529,54.892345
1119796,Ægirsvej,4792,6,12.134546,54.892048
1119803,Bjarkesvej,4792,1,12.14149,54.88835
1119805,Bjarkesvej,4792,3,12.141269,54.888526
1119807,Bjarkesvej,4792,4,12.141956,54.888281
1119810,Bjarkesvej,4792,5,12.140926,54.888664
1119811,Bjarkesvej,4792,6,12.142006,54.888704
1119814,Bjarkesvej,4792,7,12.140662,54.888811
1119815,Bjarkesvej,4792,8,12.141698,54.888881
1119818,Bjarkesvej,4792,9,12.140399,54.889069
1119820,Bjarkesvej,4792,10,12.141391,54.889105
1119822,Bjarkesvej,4792,11,12.139724,54.88929
1119824,Bjarkesvej,4792,12,12.141102,54.88923
1119826,Bjarkesvej,4792,13,12.139496,54.889448
1119829,Bjarkesvej,4792,14,12.140565,54.889482
1119831,Bjarkesvej,4792,16,12.140279,54.889649
1119833,Bjarkesvej,4792,18,12.139957,54.889807
1119911,Askebjergvej,4792,1,12.167683,54.895189
1119916,Askebjergvej,4792,3,12.167493,54.894957
1119917,Askebjergvej,4792,5,12.167323,54.894663
1119920,Askebjergvej,4792,5A,12.168878,54.894893
1119921,Askebjergvej,4792,6,12.161089,54.8854832
1119923,Askebjergvej,4792,7,12.165469,54.88711
1119924,Askebjergvej,4792,8A,12.161522,54.883351
1119925,Askebjergvej,4792,8B,12.161872,54.883323
1119926,Askebjergvej,4792,9,12.164414,54.884454
1119927,Grønjægersvej,4792,1,12.148289,54.892747
1119928,Grønjægersvej,4792,2,12.150386,54.891208
1119929,Grønjægersvej,4792,3,12.156527,54.893172
1119930,Grønjægersvej,4792,4,12.154037,54.891023
1119931,Grønjægersvej,4792,5,12.156959,54.892168
1119932,Ydunsvej,4792,1A,12.14249,54.886925
1119933,Ydunsvej,4792,1B,12.142182,54.886416
1119934,Ydunsvej,4792,1C,12.1417814,54.8862607
1119935,Ydunsvej,4792,1D,12.140768,54.885912
1119936,Ydunsvej,4792,2,12.142101,54.887109
1119937,Ydunsvej,4792,3,12.141923,54.886633
1119938,Ydunsvej,4792,4,12.141653,54.886953
1119939,Ydunsvej,4792,5,12.141423,54.886497
1119940,Ydunsvej,4792,6,12.141414,54.886776
1119941,Ydunsvej,4792,7,12.140847,54.8864
1119942,Ydunsvej,4792,8,12.140954,54.886623
1119943,Ydunsvej,4792,9,12.140583,54.886185
1119944,Ydunsvej,4792,10,12.140451,54.886501
1119970,Lokesvej,4792,3,12.139484,54.888091
1119971,Lokesvej,4792,4,12.137954,54.88821
1119973,Lokesvej,4792,5,12.13902,54.887962
1119976,Lokesvej,4792,6,12.138529,54.888027
1119996,Brøndegårdsvej,4792,2,12.176434,54.895311
1119998,Brøndegårdsvej,4792,2A,12.176574,54.892521
1120000,Brøndegårdsvej,4792,4,12.174138,54.887062
1120003,Brøndegårdsvej,4792,5,12.175806,54.888695
1120004,Brøndegårdsvej,4792,6,12.172254,54.887161
1120007,Brøndegårdsvej,4792,7,12.175145,54.886935
1120008,Brøndegårdsvej,4792,8,12.172874,54.882253
1120009,Brøndegårdsvej,4792,9,12.176215,54.884009
1120010,Brøndegårdsvej,4792,10,12.173967,54.879941
1120037,Hejmdalsvej,4792,1,12.139021,54.888933
1120039,Hejmdalsvej,4792,2,12.139017,54.889103
1120042,Hejmdalsvej,4792,4,12.138509,54.88908
1120044,Hejmdalsvej,4792,5,12.13783,54.888559
1120046,Hejmdalsvej,4792,6,12.138124,54.888912
1120050,Hejmdalsvej,4792,8,12.137663,54.888706
1120096,Vindebækvej,4792,1,12.189901,54.901276
1120098,Vindebækvej,4792,2,12.185211,54.899292
1120101,Vindebækvej,4792,3A,12.191225,54.9021
1120103,Vindebækvej,4792,3B,12.19137,54.902202
1120107,Vindebækvej,4792,4,12.186989,54.898813
1120109,Vindebækvej,4792,5,12.19065,54.897797
1120112,Vindebækvej,4792,6,12.190048,54.897799
1120114,Vindebækvej,4792,7,12.190916,54.897456
1120116,Vindebækvej,4792,8,12.192488,54.895675
1120120,Vindebækvej,4792,9,12.19219,54.89635
1120121,Vindebækvej,4792,11,12.19493,54.895075
1120123,Vindebækvej,4792,14,12.19197,54.889272
1120125,Vindebækvej,4792,16,12.192432,54.888791
1120126,Vindebækvej,4792,17,12.195961,54.889093
1120127,Vindebækvej,4792,19,12.192914,54.88893
1120128,Vindebækvej,4792,20,12.190816,54.889345
1120129,Vindebækvej,4792,21,12.19288,54.888714
1120130,Vindebækvej,4792,22,12.190354,54.889367
1120131,Vindebækvej,4792,23,12.1923,54.88863
1120132,Vindebækvej,4792,25,12.190891,54.888272
1120133,Vindebækvej,4792,26,12.189394,54.889479
1120134,Vindebækvej,4792,27,12.191474,54.888766
1120135,Vindebækvej,4792,28,12.185078,54.891783
1120136,Vindebækvej,4792,33,12.183496,54.889133
1120137,Vindebækvej,4792,35,12.186585,54.890854
1120138,Vindebækvej,4792,36,12.178074,54.895698
1120139,Vindebækvej,4792,37,12.185738,54.891283
1120140,Vindebækvej,4792,39,12.179587,54.890062
1120141,Vindebækvej,4792,40,12.176621,54.89617
1120142,Vindebækvej,4792,41,12.181722,54.892618
1120143,Vindebækvej,4792,42,12.176238,54.896267
1120144,Vindebækvej,4792,45,12.178001,54.895479
1120145,Vindebækvej,4792,46,12.175445,54.896415
1120146,Vindebækvej,4792,47,12.177796,54.895524
1120147,Vindebækvej,4792,48,12.174738,54.896466
1120148,Vindebækvej,4792,51,12.176364,54.896035
1120149,Vindebækvej,4792,53,12.175858,54.895851
1120150,Vindebækvej,4792,55,12.175031,54.896169
1120156,Gormsvej,4792,2,12.144303,54.887443
1120157,Gormsvej,4792,5,12.143551,54.887341
1120158,Gormsvej,4792,9,12.143554,54.88779
1120160,Thorsvej,4792,1,12.138604,54.88972
1120163,Thorsvej,4792,2,12.139082,54.889679
1120167,Thorsvej,4792,3,12.139447,54.89022
1120169,Thorsvej,4792,4,12.139647,54.890009
1120171,Thorsvej,4792,5,12.139753,54.890341
1120173,Thorsvej,4792,6,12.14018,54.89025
1120176,Thorsvej,4792,7,12.1399191,54.8905786
1120178,Thorsvej,4792,8,12.140685,54.890126
1120180,Thorsvej,4792,10,12.14103,54.889835
1120183,Thorsvej,4792,12,12.141293,54.889691
1120185,Thorsvej,4792,14,12.14161,54.889488
1120187,Thorsvej,4792,17,12.141928,54.889632
1120190,Thorsvej,4792,18,12.1422499,54.8891494
1120193,Thorsvej,4792,19,12.142259,54.889436
1120194,Thorsvej,4792,20,12.142569,54.888964
1120197,Thorsvej,4792,21,12.14259,54.889242
1120200,Thorsvej,4792,22,12.143001,54.8888
1120202,Thorsvej,4792,23,12.143169,54.889062
1120236,Stenminevej,4792,5,12.143893,54.881853
1120239,Stenminevej,4792,6,12.144084,54.883012
1120242,Stenminevej,4792,7,12.142282,54.882079
1120243,Stenminevej,4792,8,12.143527,54.882795
1120245,Stenminevej,4792,10,12.143078,54.882587
1120248,Stenminevej,4792,12,12.1425,54.882347
1120259,Frejasvej,4792,1,12.144634,54.887939
1120260,Frejasvej,4792,2,12.144855,54.888494
1120261,Frejasvej,4792,3,12.144185,54.888066
1120262,Frejasvej,4792,3A,12.1441,54.887682
1120263,Frejasvej,4792,4,12.144272,54.888514
1120264,Frejasvej,4792,5,12.143626,54.887997
1120265,Frejasvej,4792,6,12.143885,54.888527
1120266,Frejasvej,4792,7,12.143122,54.888278
1120267,Frejasvej,4792,8,12.143385,54.888582
1120296,Hermodsvej,4792,1,12.133469,54.892618
1120299,Hermodsvej,4792,2,12.133133,54.892618
1120300,Hermodsvej,4792,3,12.133794,54.892415
1120302,Hermodsvej,4792,4,12.133132,54.892386
1120303,Hermodsvej,4792,5,12.133651,54.892119
1120306,Hermodsvej,4792,6,12.133008,54.892109
1120308,Hermodsvej,4792,7,12.133651,54.89195
1120309,Hermodsvej,4792,7A,12.13379,54.891599
1120310,Hermodsvej,4792,9,12.134666,54.89118
1120311,Hermodsvej,4792,11,12.135047,54.891241
1120312,Hermodsvej,4792,12,12.133693,54.891401
1120313,Hermodsvej,4792,13,12.135353,54.891358
1120314,Hermodsvej,4792,14,12.133852,54.891225
1120315,Hermodsvej,4792,15,12.134938,54.89108
1120320,Odinsvej,4792,3,12.141856,54.887327
1120321,Odinsvej,4792,5,12.141113,54.887629
1120322,Odinsvej,4792,6,12.140003,54.887682
1120323,Odinsvej,4792,7,12.141335,54.887236
1120324,Odinsvej,4792,9,12.140734,54.887151
1120325,Odinsvej,4792,11,12.139867,54.887155
1120330,Lammehavevej,4792,1,12.158117,54.898341
1120331,Lammehavevej,4792,2,12.158229,54.897644
1120333,Lammehavevej,4792,3,12.161328,54.89574
1120335,Lammehavevej,4792,4,12.157997,54.896521
1120337,Lammehavevej,4792,6,12.155226,54.896139
1120363,Sifsvej,4792,2,12.142639,54.886002
1120366,Sifsvej,4792,9,12.141933,54.885423
1120374,Hymersvej,4792,2,12.144635,54.885636
1120375,Hymersvej,4792,3,12.144794,54.885381
1120376,Hymersvej,4792,4,12.144135,54.88561
1120377,Hymersvej,4792,5A,12.144068,54.885197
1120380,Baldersvej,4792,1,12.145465,54.88584
1120381,Baldersvej,4792,2,12.146364,54.885508
1120382,Baldersvej,4792,3,12.145962,54.88607
1120383,Baldersvej,4792,4,12.146452,54.885798
1120384,Baldersvej,4792,5,12.146359,54.886258
1120385,Baldersvej,4792,6,12.146887,54.88604
1120386,Baldersvej,4792,7,12.146005,54.886452
1120387,Baldersvej,4792,8,12.147373,54.885824
1120388,Baldersvej,4792,9,12.14617,54.886823
1120389,Baldersvej,4792,10,12.14773,54.885661
1120390,Baldersvej,4792,11,12.146339,54.887092
1120391,Baldersvej,4792,12,12.148153,54.885486
1120392,Baldersvej,4792,13,12.146459,54.887391
1120393,Baldersvej,4792,14,12.148429,54.885359
1120394,Baldersvej,4792,15,12.146557,54.887617
1120395,Baldersvej,4792,16,12.148802,54.885287
1120396,Baldersvej,4792,17,12.146586,54.887955
1120397,Baldersvej,4792,18,12.14907,54.885091
1120398,Baldersvej,4792,19,12.146722,54.888203
1120399,Baldersvej,4792,20,12.14955,54.885112
1120400,Baldersvej,4792,21,12.146724,54.886912
1120403,Baldersvej,4792,22,12.149585,54.884802
1120405,Baldersvej,4792,23,12.147025,54.8867
1120409,Baldersvej,4792,24,12.150057,54.884563
1120412,Baldersvej,4792,25,12.147065,54.88647
1120414,Baldersvej,4792,26,12.150129,54.884873
1120417,Baldersvej,4792,27,12.147494,54.886102
1120420,Baldersvej,4792,28,12.150634,54.884698
1120424,Baldersvej,4792,29,12.147906,54.885885
1120426,Baldersvej,4792,30,12.150401,54.884368
1120428,Baldersvej,4792,31,12.149004,54.885895
1120430,Baldersvej,4792,32,12.15093,54.884123
1120434,Baldersvej,4792,33,12.148511,54.885704
1120437,Baldersvej,4792,34,12.151132,54.884337
1120440,Baldersvej,4792,35,12.149023,54.885601
1120443,Baldersvej,4792,36,12.151219,54.884598
1120445,Baldersvej,4792,37,12.149624,54.885475
1120449,Baldersvej,4792,39,12.150028,54.885419
1120453,Baldersvej,4792,41,12.14984,54.885808
1120454,Baldersvej,4792,43,12.150367,54.885724
1120458,Baldersvej,4792,45,12.150856,54.885525
1120460,Baldersvej,4792,47,12.151701,54.885531
1120464,Baldersvej,4792,49,12.151498,54.885319
1120466,Baldersvej,4792,51,12.150991,54.885363
1120467,Baldersvej,4792,53,12.150299,54.884994
1120470,Baldersvej,4792,55,12.150969,54.884918
1120472,Baldersvej,4792,57,12.151491,54.88503
1127127,Marie Grubbes Vej,4792,2,12.117855,54.903256
1127128,Marie Grubbes Vej,4792,6,12.11463,54.902416
1127129,Marie Grubbes Vej,4792,8,12.112916,54.902494
1127130,Marie Grubbes Vej,4792,10,12.112605,54.902129
1127131,Marie Grubbes Vej,4792,12A,12.111571,54.902281
1127132,Marie Grubbes Vej,4792,12B,12.1111477,54.9023101
1127133,Marie Grubbes Vej,4792,12C,12.11065,54.902314
1127134,Marie Grubbes Vej,4792,14,12.110289,54.90233
1127135,Marie Grubbes Vej,4792,18,12.10643,54.903743
1129391,Nyhavevej,4792,2,12.125425,54.930918
1129394,Nyhavevej,4792,3,12.119946,54.92689
1129395,Nyhavevej,4792,4,12.123544,54.92907
1129397,Nyhavevej,4792,5,12.119685,54.927856
1129399,Nyhavevej,4792,6,12.122971,54.93121
1129819,Dammehavevej,4792,1,12.128129,54.921648
1129820,Dammehavevej,4792,2,12.126865,54.922823
1129822,Dammehavevej,4792,3,12.123322,54.920029
1129825,Dammehavevej,4792,4,12.123194,54.92285
1129827,Dammehavevej,4792,5,12.120065,54.921973
1129829,Dammehavevej,4792,6,12.118831,54.922222
1129830,Dammehavevej,4792,7,12.117097,54.920734
1129832,Dammehavevej,4792,8,12.117847,54.9227
1130096,Lusmosevej,4792,1,12.1571,54.927678
1130101,Lusmosevej,4792,2,12.157668,54.927665
1130105,Lusmosevej,4792,3,12.156747,54.927957
1130108,Lusmosevej,4792,4,12.157378,54.927772
1130111,Lusmosevej,4792,5,12.156073,54.928487
1130114,Lusmosevej,4792,6,12.157238,54.928174
1130116,Lusmosevej,4792,7,12.155725,54.928978
1130119,Lusmosevej,4792,8,12.156922,54.928387
1130120,Lusmosevej,4792,9,12.152899,54.929274
1130123,Lusmosevej,4792,10,12.156703,54.928618
1130126,Lusmosevej,4792,11A,12.154117,54.92969
1130128,Lusmosevej,4792,11B,12.153857,54.929766
1130131,Lusmosevej,4792,12,12.156204,54.929008
1130135,Lusmosevej,4792,14,12.155903,54.929331
1130137,Lusmosevej,4792,15,12.149896,54.931643
1130141,Lusmosevej,4792,16,12.15497,54.929585
1130144,Lusmosevej,4792,17,12.147119,54.931746
1130146,Lusmosevej,4792,19,12.14617,54.9318
1130152,Lusmosevej,4792,20,12.149349,54.931974
1130155,Lusmosevej,4792,21,12.143478,54.931691
1130159,Lusmosevej,4792,22,12.148762,54.932255
1130165,Lusmosevej,4792,23,12.142703,54.930239
1130166,Lusmosevej,4792,24,12.140212,54.93145
1130171,Lusmosevej,4792,25,12.13921,54.93027
1130177,Lusmosevej,4792,26,12.137498,54.930602
1130179,Lusmosevej,4792,27,12.136091,54.92775
1130184,Lusmosevej,4792,28,12.13427,54.931922
1130188,Lusmosevej,4792,29,12.135161,54.927681
1130189,Lusmosevej,4792,30,12.130382,54.93204
1130195,Lusmosevej,4792,32,12.122445,54.927771
1130199,Lusmosevej,4792,33,12.127897,54.926283
1130201,Lusmosevej,4792,34,12.127653,54.925296
1130207,Lusmosevej,4792,35,12.128254,54.923943
1130209,Lusmosevej,4792,36,12.127921,54.924267
1130214,Lusmosevej,4792,37,12.129301,54.923335
1130217,Lusmosevej,4792,38,12.126956,54.923308
1131567,Grønsundvej,4792,275,12.160754,54.921836
1131574,Grønsundvej,4792,281,12.135312,54.910826
1131581,Grønsundvej,4792,285,12.120208,54.904266
1131598,Grønsundvej,4792,300,12.205379,54.932904
1131602,Grønsundvej,4792,302,12.20534,54.932561
1131604,Grønsundvej,4792,304,12.197286,54.929593
1131608,Grønsundvej,4792,306,12.167945,54.926014
1131611,Grønsundvej,4792,308,12.141726,54.916707
1132154,Lettenvej,4792,2,12.136613,54.914184
1132156,Lettenvej,4792,3,12.132459,54.917283
1132157,Lettenvej,4792,4,12.134989,54.917384
1132159,Lettenvej,4792,5,12.129713,54.916251
1132161,Lettenvej,4792,6,12.125615,54.917814
1132163,Lettenvej,4792,7,12.130053,54.915071
1132164,Lettenvej,4792,8,12.123135,54.917532
1132166,Lettenvej,4792,9,12.125299,54.915748
1132169,Lettenvej,4792,10,12.121701,54.917504
1132170,Lettenvej,4792,11,12.120619,54.913865
1132171,Lettenvej,4792,12,12.119681,54.918674
1132174,Lettenvej,4792,13,12.118046,54.917186
1132175,Lettenvej,4792,14,12.117791,54.917662
1132177,Lettenvej,4792,16,12.117103,54.917938
1132179,Lettenvej,4792,18,12.113776,54.918147
1513262,Fanefjordgade,4792,1,12.1879,54.927012
1513263,Fanefjordgade,4792,2,12.186397,54.927985
1513264,Fanefjordgade,4792,3,12.186538,54.927663
1513265,Fanefjordgade,4792,7,12.185604,54.927064
1513266,Fanefjordgade,4792,8,12.185044,54.927236
1513267,Fanefjordgade,4792,11,12.184803,54.926703
1513268,Fanefjordgade,4792,12,12.184094,54.926705
1513269,Fanefjordgade,4792,15,12.186271,54.92568
1513270,Fanefjordgade,4792,16,12.182824,54.925881
1513271,Fanefjordgade,4792,18,12.182492,54.925681
1513272,Fanefjordgade,4792,19,12.187698,54.923283
1513273,Fanefjordgade,4792,23,12.184509,54.926447
1513274,Fanefjordgade,4792,25,12.184142,54.926318
1513275,Fanefjordgade,4792,26,12.180486,54.92488
1513276,Fanefjordgade,4792,29,12.183659,54.926018
1513277,Fanefjordgade,4792,30,12.179552,54.924603
1513278,Fanefjordgade,4792,31,12.183213,54.925791
1513279,Fanefjordgade,4792,32,12.179372,54.924206
1513280,Fanefjordgade,4792,33,12.182917,54.925549
1513281,Fanefjordgade,4792,34,12.179141,54.924074
1513282,Fanefjordgade,4792,35,12.182465,54.92543
1513283,Fanefjordgade,4792,36,12.178884,54.924021
1513284,Fanefjordgade,4792,37,12.182218,54.925284
1513285,Fanefjordgade,4792,39,12.181799,54.925164
1513286,Fanefjordgade,4792,40,12.177165,54.923652
1513287,Fanefjordgade,4792,41,12.181162,54.924899
1513288,Fanefjordgade,4792,42,12.176374,54.92345
1513289,Fanefjordgade,4792,44,12.175891,54.923473
1513290,Fanefjordgade,4792,45,12.18072,54.92458
1513291,Fanefjordgade,4792,46,12.175486,54.923181
1513292,Fanefjordgade,4792,48,12.174897,54.922727
1513293,Fanefjordgade,4792,49,12.179824,54.924116
1513294,Fanefjordgade,4792,50,12.174461,54.922519
1513295,Fanefjordgade,4792,51,12.179556,54.924005
1513296,Fanefjordgade,4792,52,12.173933,54.922093
1513297,Fanefjordgade,4792,53,12.179195,54.923834
1513298,Fanefjordgade,4792,54,12.173765,54.921968
1513299,Fanefjordgade,4792,55,12.178778,54.923691
1513300,Fanefjordgade,4792,56,12.173465,54.921729
1513301,Fanefjordgade,4792,57,12.178539,54.923648
1513302,Fanefjordgade,4792,58,12.173204,54.921552
1513303,Fanefjordgade,4792,59,12.17812,54.923605
1513304,Fanefjordgade,4792,60,12.173005,54.921393
1513305,Fanefjordgade,4792,61,12.177809,54.923536
1513306,Fanefjordgade,4792,62,12.172879,54.921221
1513307,Fanefjordgade,4792,63,12.177504,54.923427
1513308,Fanefjordgade,4792,64,12.172785,54.920972
1513309,Fanefjordgade,4792,67,12.176239,54.922827
1513310,Fanefjordgade,4792,68,12.170263,54.920785
1513311,Fanefjordgade,4792,69,12.175677,54.92296
1513312,Fanefjordgade,4792,70,12.172,54.92009
1513313,Fanefjordgade,4792,71,12.175466,54.922857
1513314,Fanefjordgade,4792,73,12.175247,54.922585
1513315,Fanefjordgade,4792,74,12.171561,54.919536
1513316,Fanefjordgade,4792,75,12.174799,54.922258
1513317,Fanefjordgade,4792,76,12.171326,54.919205
1513318,Fanefjordgade,4792,77,12.174534,54.922053
1513319,Fanefjordgade,4792,78,12.170695,54.91909
1513320,Fanefjordgade,4792,79,12.174297,54.921899
1513321,Fanefjordgade,4792,80,12.170818,54.918808
1513322,Fanefjordgade,4792,81,12.174096,54.921728
1513323,Fanefjordgade,4792,82,12.170375,54.918728
1513324,Fanefjordgade,4792,83,12.174182,54.921386
1513325,Fanefjordgade,4792,84,12.170115,54.918553
1513326,Fanefjordgade,4792,85,12.173447,54.921234
1513327,Fanefjordgade,4792,86,12.169845,54.918261
1513328,Fanefjordgade,4792,87,12.173253,54.92085
1513329,Fanefjordgade,4792,88,12.169624,54.918116
1513330,Fanefjordgade,4792,89,12.17301,54.920539
1513331,Fanefjordgade,4792,90,12.169345,54.917974
1513332,Fanefjordgade,4792,91A,12.172409,54.919803
1513333,Fanefjordgade,4792,91B,12.172342,54.919721
1513334,Fanefjordgade,4792,91C,12.17228,54.919652
1513335,Fanefjordgade,4792,91D,12.172215,54.919579
1513336,Fanefjordgade,4792,91E,12.172169,54.91953
1513337,Fanefjordgade,4792,92,12.169159,54.917821
1513338,Fanefjordgade,4792,93A,12.171989,54.919421
1513339,Fanefjordgade,4792,93B,12.172135,54.91938
1513340,Fanefjordgade,4792,93C,12.17233,54.919349
1513341,Fanefjordgade,4792,93D,12.172469,54.919306
1513342,Fanefjordgade,4792,94,12.168873,54.917712
1513343,Fanefjordgade,4792,95A,12.172574,54.919552
1513344,Fanefjordgade,4792,95B,12.172503,54.919459
1513345,Fanefjordgade,4792,96,12.168559,54.917548
1513346,Fanefjordgade,4792,97,12.171738,54.918964
1513347,Fanefjordgade,4792,98,12.168069,54.917367
1513348,Fanefjordgade,4792,100,12.16771,54.917287
1513349,Fanefjordgade,4792,104,12.166728,54.917126
1513350,Fanefjordgade,4792,106,12.166288,54.916964
1513351,Fanefjordgade,4792,108,12.165951,54.917111
1513352,Fanefjordgade,4792,109,12.169945,54.917988
1513353,Fanefjordgade,4792,111,12.16945,54.917723
1513354,Fanefjordgade,4792,112,12.16585,54.919125
1513355,Fanefjordgade,4792,113,12.169266,54.917633
1513356,Fanefjordgade,4792,115,12.169124,54.917507
1513357,Fanefjordgade,4792,116,12.165088,54.917453
1513358,Fanefjordgade,4792,117,12.168943,54.917466
1513359,Fanefjordgade,4792,118,12.165482,54.91715
1513360,Fanefjordgade,4792,119,12.168736,54.917339
1513361,Fanefjordgade,4792,120,12.16593,54.916822
1513362,Fanefjordgade,4792,121,12.168402,54.91715
1513363,Fanefjordgade,4792,122,12.165558,54.91674
1513364,Fanefjordgade,4792,123,12.167708,54.917027
1513365,Fanefjordgade,4792,124,12.165182,54.916601
1513366,Fanefjordgade,4792,125,12.167468,54.91697
1513367,Fanefjordgade,4792,126,12.164917,54.916521
1513368,Fanefjordgade,4792,127,12.167032,54.916873
1513369,Fanefjordgade,4792,128,12.16476,54.916938
1513370,Fanefjordgade,4792,129,12.166574,54.916737
1513371,Fanefjordgade,4792,130,12.164623,54.916443
1513372,Fanefjordgade,4792,131,12.166151,54.916642
1513373,Fanefjordgade,4792,132,12.163948,54.916221
1513374,Fanefjordgade,4792,133,12.165783,54.916502
1513375,Fanefjordgade,4792,135,12.165564,54.916426
1513376,Fanefjordgade,4792,136,12.163027,54.915931
1513377,Fanefjordgade,4792,137,12.165338,54.916307
1513378,Fanefjordgade,4792,138,12.162201,54.91582
1513379,Fanefjordgade,4792,139,12.164927,54.916235
1513380,Fanefjordgade,4792,140,12.162058,54.915949
1513381,Fanefjordgade,4792,141,12.164416,54.916049
1513382,Fanefjordgade,4792,142,12.161756,54.916111
1513383,Fanefjordgade,4792,143A,12.165288,54.9158
1513384,Fanefjordgade,4792,143B,12.165136,54.915505
1513385,Fanefjordgade,4792,144,12.161401,54.915986
1513386,Fanefjordgade,4792,145,12.164641,54.915663
1513387,Fanefjordgade,4792,146,12.161717,54.915753
1513388,Fanefjordgade,4792,147,12.163527,54.915859
1513389,Fanefjordgade,4792,148,12.160325,54.915713
1513390,Fanefjordgade,4792,149,12.163428,54.91509
1513391,Fanefjordgade,4792,150,12.159082,54.915723
1513392,Fanefjordgade,4792,151,12.162922,54.915577
1513393,Fanefjordgade,4792,152,12.158869,54.915824
1513394,Fanefjordgade,4792,153,12.162578,54.915474
1513395,Fanefjordgade,4792,154,12.158601,54.915946
1513396,Fanefjordgade,4792,155,12.162261,54.915368
1513397,Fanefjordgade,4792,157,12.161939,54.915227
1513398,Fanefjordgade,4792,159,12.16038,54.915384
1513399,Fanefjordgade,4792,161,12.160013,54.915399
1513400,Fanefjordgade,4792,162,12.1564,54.91607
1513401,Fanefjordgade,4792,163,12.159563,54.915309
1513402,Fanefjordgade,4792,164,12.155856,54.916132
1513403,Fanefjordgade,4792,165,12.159021,54.91541
1513404,Fanefjordgade,4792,168,12.155236,54.916154
1513405,Fanefjordgade,4792,170,12.15479,54.916179
1513406,Fanefjordgade,4792,171,12.156714,54.91579
1513407,Fanefjordgade,4792,172,12.153897,54.91613
1513408,Fanefjordgade,4792,174,12.153017,54.916595
1513409,Fanefjordgade,4792,178,12.152639,54.91711
1513410,Fanefjordgade,4792,179,12.153256,54.914241
1513411,Fanefjordgade,4792,180,12.15223,54.917141
1513412,Fanefjordgade,4792,181,12.147528,54.912826
1513413,Fanefjordgade,4792,186,12.152578,54.916491
1513414,Fanefjordgade,4792,188,12.15282,54.916104
1513415,Fanefjordgade,4792,190,12.153138,54.916174
1513416,Fanefjordgade,4792,198,12.147159,54.915778
1513421,Vollerupgade,4792,2A,12.160702,54.91085
1513422,Vollerupgade,4792,2B,12.160989,54.910809
1513423,Vollerupgade,4792,4,12.161611,54.910644
1513425,Vollerupgade,4792,5,12.16385,54.910302
1513428,Vollerupgade,4792,6,12.162026,54.910563
1513429,Vollerupgade,4792,7,12.164812,54.910404
1513431,Vollerupgade,4792,8,12.162602,54.910313
1513434,Vollerupgade,4792,9,12.165448,54.910519
1513435,Vollerupgade,4792,11,12.165662,54.910744
1513438,Vollerupgade,4792,13,12.165453,54.910933
1513440,Vollerupgade,4792,14,12.164797,54.909966
1513441,Vollerupgade,4792,16,12.165002,54.909986
1513444,Vollerupgade,4792,17,12.166218,54.910728
1513447,Vollerupgade,4792,18,12.165327,54.909893
1513448,Vollerupgade,4792,19,12.166707,54.91079
1513450,Vollerupgade,4792,20,12.165766,54.91028
1513452,Vollerupgade,4792,21,12.167151,54.910879
1513453,Vollerupgade,4792,22,12.166951,54.910621
1513456,Vollerupgade,4792,23,12.167408,54.910868
1513458,Vollerupgade,4792,24,12.167412,54.910436
1513459,Vollerupgade,4792,25,12.167988,54.910871
1513461,Vollerupgade,4792,28,12.170226,54.90978
1513462,Vollerupgade,4792,31,12.17035,54.910138
1513465,Vollerupgade,4792,32A,12.172704,54.909282
1513467,Vollerupgade,4792,32B,12.172996,54.909269
1513468,Vollerupgade,4792,33,12.170534,54.910076
1513471,Vollerupgade,4792,35,12.171598,54.909763
1513474,Vollerupgade,4792,36,12.173963,54.907745
1513476,Vollerupgade,4792,37,12.172372,54.90977
1513478,Vollerupgade,4792,38,12.175181,54.907666
1513480,Vollerupgade,4792,40,12.177641,54.90642
1513482,Vollerupgade,4792,41,12.173394,54.909572
1513485,Vollerupgade,4792,42,12.179355,54.906344
1513487,Vollerupgade,4792,43,12.173683,54.909902
1513489,Vollerupgade,4792,44,12.179694,54.905452
1513491,Vollerupgade,4792,47,12.174271,54.909678
1513493,Vollerupgade,4792,49,12.174525,54.909674
1513495,Vollerupgade,4792,51,12.174338,54.909169
1513498,Vollerupgade,4792,55,12.177443,54.908059
1513499,Vollerupgade,4792,59,12.17867,54.907059
1513501,Vollerupgade,4792,61,12.179543,54.906675
1513502,Vollerupgade,4792,65,12.183352,54.905422
1513605,Dammegade,4792,1,12.15707,54.916172
1513606,Dammegade,4792,3,12.157132,54.916382
1513607,Dammegade,4792,4,12.157751,54.915849
1513608,Dammegade,4792,5,12.156964,54.916573
1513609,Dammegade,4792,6,12.157555,54.916084
1513610,Dammegade,4792,7,12.156743,54.916674
1513611,Dammegade,4792,10,12.157475,54.916396
1513612,Dammegade,4792,11,12.156426,54.917018
1513613,Dammegade,4792,12,12.157436,54.916516
1513615,Dammegade,4792,13,12.1563,54.917235
1513617,Dammegade,4792,14,12.157053,54.916839
1513618,Dammegade,4792,15,12.156023,54.917694
1513621,Dammegade,4792,16,12.156849,54.917049
1513623,Dammegade,4792,18,12.156711,54.917227
1513627,Dammegade,4792,19,12.155628,54.918569
1513631,Dammegade,4792,21,12.156236,54.919481
1513633,Dammegade,4792,22,12.156449,54.917528
1513637,Dammegade,4792,23,12.156278,54.920659
1513640,Dammegade,4792,25,12.15555,54.921746
1513643,Dammegade,4792,26,12.156732,54.918799
1513646,Dammegade,4792,27,12.156259,54.922446
1513651,Dammegade,4792,29,12.156281,54.922629
1513655,Dammegade,4792,30,12.156655,54.920072
1513658,Dammegade,4792,31,12.155747,54.92283
1513661,Dammegade,4792,32,12.156833,54.920773
1513664,Dammegade,4792,33,12.15644,54.923002
1513667,Dammegade,4792,34,12.156859,54.922437
1513672,Dammegade,4792,35,12.156072,54.922944
1513676,Dammegade,4792,36,12.156893,54.922897
1513677,Dammegade,4792,38,12.158258,54.922995
1513682,Dammegade,4792,40,12.159757,54.923419
1513685,Dammegade,4792,42,12.16014,54.923828
1513688,Dammegade,4792,43,12.158875,54.925953
1513690,Dammegade,4792,44,12.159222,54.923385
1513694,Dammegade,4792,45,12.159041,54.926181
1513696,Dammegade,4792,46,12.157349,54.92505
1513700,Dammegade,4792,47,12.159049,54.926411
1513704,Dammegade,4792,48,12.15764,54.925185
1513705,Dammegade,4792,50,12.158196,54.925435
1513709,Dammegade,4792,51,12.158108,54.927144
1513710,Dammegade,4792,53,12.157798,54.927401
1513714,Dammegade,4792,54,12.159205,54.926754
1513753,Røddingevej,4792,49,12.160311,54.936677
1513759,Røddingevej,4792,53,12.159796,54.93319
1513764,Røddingevej,4792,61,12.15832,54.927784
1513765,Røddingevej,4792,62,12.158244,54.937287
1513766,Røddingevej,4792,63,12.158161,54.927599
1513768,Røddingevej,4792,64,12.159723,54.935553
1513769,Røddingevej,4792,66,12.159654,54.933823
1513770,Røddingevej,4792,70,12.158153,54.928896
1513771,Røddingevej,4792,72,12.158098,54.928473
1516302,Hjørnet,4792,1,12.161289,54.915277
1516303,Hjørnet,4792,2,12.160791,54.915303
1516304,Hjørnet,4792,4,12.160836,54.915022
1516305,Hjørnet,4792,5,12.161414,54.915119
1516306,Hjørnet,4792,6A,12.160731,54.914889
1516307,Hjørnet,4792,6B,12.160647,54.914804
1516308,Hjørnet,4792,6C,12.160665,54.914823
1516309,Hjørnet,4792,6D,12.160625,54.914783
1516310,Hjørnet,4792,7,12.161125,54.914766
1516311,Hjørnet,4792,8A,12.160161,54.915004
1516312,Hjørnet,4792,8B,12.160031,54.914711
1516313,Hjørnet,4792,9,12.160842,54.914576
1516314,Hjørnet,4792,10A,12.160589,54.914694
1516315,Hjørnet,4792,10B,12.160553,54.914654
1516316,Hjørnet,4792,10C,12.160517,54.914614
1516317,Hjørnet,4792,11,12.160762,54.914279
1516318,Hjørnet,4792,12,12.1603426,54.9142999
1516319,Hjørnet,4792,13A,12.1605432,54.9141552
1516320,Hjørnet,4792,13B,12.160517,54.914119
1516360,Præstebjergvej,4792,1A,12.168309,54.916999
1516361,Præstebjergvej,4792,1B,12.168423,54.916945
1516362,Præstebjergvej,4792,1F,12.168849,54.917007
1516363,Præstebjergvej,4792,3,12.1690528,54.9166301
1516364,Præstebjergvej,4792,4,12.168551,54.916642
1516365,Præstebjergvej,4792,6,12.1685262,54.9163815
1516366,Præstebjergvej,4792,7,12.170911,54.915925
1516367,Præstebjergvej,4792,8A,12.16949,54.915902
1516368,Præstebjergvej,4792,8B,12.170053,54.915892
1516369,Præstebjergvej,4792,8C,12.170804,54.915701
1516370,Præstebjergvej,4792,10,12.172837,54.914808
1516371,Præstebjergvej,4792,11,12.181378,54.915058
1516372,Præstebjergvej,4792,12,12.181135,54.913819
1516373,Præstebjergvej,4792,13,12.18176,54.916212
1516374,Præstebjergvej,4792,14,12.181789,54.914254
1516375,Præstebjergvej,4792,15,12.183377,54.915336
1516376,Præstebjergvej,4792,17,12.18361,54.916835
1516377,Præstebjergvej,4792,21,12.18446,54.916637
1516553,Lisebyvej,4792,11,12.197063,54.906865
1516556,Lisebyvej,4792,13,12.198199,54.906736
1516557,Lisebyvej,4792,15,12.197169,54.903853
1516559,Lisebyvej,4792,17,12.192941,54.907446
1516560,Lisebyvej,4792,19,12.190489,54.907899
1516561,Lisebyvej,4792,20,12.202828,54.91048
1516562,Lisebyvej,4792,22,12.202009,54.910262
1516563,Lisebyvej,4792,28,12.197207,54.909572
1516564,Lisebyvej,4792,30,12.1959,54.909267
1516565,Lisebyvej,4792,32,12.195652,54.908881
1516635,Slotshavevej,4792,4,12.192139,54.887727
1516636,Slotshavevej,4792,5,12.193473,54.888254
1516637,Slotshavevej,4792,7,12.19407,54.88805
1516638,Slotshavevej,4792,9,12.195232,54.887633
1516639,Slotshavevej,4792,10,12.194598,54.887528
1516640,Slotshavevej,4792,11,12.195743,54.887478
1516641,Slotshavevej,4792,12,12.189758,54.88292
1516642,Slotshavevej,4792,13,12.195975,54.887453
1516643,Slotshavevej,4792,14A,12.194269,54.886754
1516644,Slotshavevej,4792,14B,12.194318,54.886789
1516645,Slotshavevej,4792,15,12.196792,54.887138
1516646,Slotshavevej,4792,16,12.195245,54.88737
1516647,Slotshavevej,4792,18,12.19629,54.886618
1516648,Slotshavevej,4792,19,12.209648,54.889957
1516649,Slotshavevej,4792,20,12.202344,54.881275
1516650,Slotshavevej,4792,26,12.208505,54.888056
1516785,Bakkehøjvej,4792,2,12.174402,54.92296
1516786,Bakkehøjvej,4792,4,12.174169,54.922956
1516787,Bakkehøjvej,4792,6,12.173898,54.922957
1516788,Bakkehøjvej,4792,7,12.172713,54.922744
1516789,Bakkehøjvej,4792,8,12.173556,54.92295
1516790,Bakkehøjvej,4792,10,12.173233,54.922972
1516791,Bakkehøjvej,4792,12,12.172914,54.922979
1516792,Bakkehøjvej,4792,14,12.172699,54.923157
1516793,Bakkehøjvej,4792,15,12.167481,54.922626
1516794,Bakkehøjvej,4792,16,12.172275,54.922952
1516795,Bakkehøjvej,4792,17,12.167018,54.922662
1516796,Bakkehøjvej,4792,18,12.171945,54.923102
1516797,Bakkehøjvej,4792,19,12.163828,54.921736
1516798,Bakkehøjvej,4792,20,12.171632,54.923076
1516799,Bakkehøjvej,4792,22,12.171139,54.923024
1516800,Bakkehøjvej,4792,28,12.168654,54.922941
1517612,Spånbjergvej,4792,1,12.193864,54.913525
1517613,Spånbjergvej,4792,2,12.190594,54.913975
1517614,Spånbjergvej,4792,3,12.195385,54.913214
1517615,Spånbjergvej,4792,4,12.192301,54.91196
1517616,Spånbjergvej,4792,5,12.199512,54.914148
1517617,Spånbjergvej,4792,8,12.197889,54.911179
1517618,Spånbjergvej,4792,9,12.198309,54.910887
1517619,Spånbjergvej,4792,10,12.19789,54.910352
1517620,Spånbjergvej,4792,11,12.198392,54.910683
1517621,Spånbjergvej,4792,13,12.198704,54.910362
1517622,Spånbjergvej,4792,15,12.198851,54.910088
1517643,Frederikshavevej,4792,2,12.139191,54.910812
1517644,Frederikshavevej,4792,3,12.145336,54.910019
1517645,Frederikshavevej,4792,4A,12.138409,54.90916
1517646,Frederikshavevej,4792,4B,12.138432,54.909085
1517647,Frederikshavevej,4792,5,12.139839,54.910337
1517648,Frederikshavevej,4792,6,12.140662,54.907476
1517649,Frederikshavevej,4792,7,12.141278,54.907984
1517650,Frederikshavevej,4792,8,12.141823,54.906482
1517651,Frederikshavevej,4792,9,12.147433,54.908312
1517652,Frederikshavevej,4792,10,12.150157,54.902621
1517653,Frederikshavevej,4792,13,12.149883,54.905167
1517687,Vindebæk Kobbelvej,4792,1,12.196654,54.899313
1517688,Vindebæk Kobbelvej,4792,2,12.193499,54.897262
1517689,Vindebæk Kobbelvej,4792,3,12.200802,54.901994
1517690,Vindebæk Kobbelvej,4792,4,12.196265,54.898807
1517691,Vindebæk Kobbelvej,4792,5,12.205828,54.902068
1517692,Vindebæk Kobbelvej,4792,6,12.202932,54.898938
1517693,Vindebæk Kobbelvej,4792,8,12.200117,54.900976
1517694,Vindebæk Kobbelvej,4792,10,12.202569,54.90008
1517695,Vindebæk Kobbelvej,4792,12,12.204888,54.900661
1517696,Vindebæk Kobbelvej,4792,14,12.205694,54.901659
1517758,Lerbækvej,4792,2,12.204065,54.932604
1517759,Lerbækvej,4792,4A,12.202727,54.93233
1517760,Lerbækvej,4792,4B,12.202603,54.932324
1517761,Lerbækvej,4792,5,12.194161,54.931331
1517762,Lerbækvej,4792,6,12.195894,54.933525
1517763,Lerbækvej,4792,7,12.192712,54.930882
1517764,Lerbækvej,4792,8,12.194991,54.931639
1517765,Lerbækvej,4792,10,12.194261,54.931973
1517766,Lerbækvej,4792,12,12.191613,54.93109
1517767,Lerbækvej,4792,16,12.18648,54.930574
1517849,Ympehavevej,4792,2,12.214446,54.888967
1517850,Ympehavevej,4792,4,12.216422,54.889414
1517851,Ympehavevej,4792,6,12.218491,54.8914
1517852,Ympehavevej,4792,8,12.220206,54.891978
1517853,Ympehavevej,4792,18A,12.221956,54.891761
1517854,Ympehavevej,4792,18B,12.22203,54.891658
1517946,Ullemosevej,4792,1,12.128754,54.921796
1517947,Ullemosevej,4792,2,12.130162,54.92063
1517948,Ullemosevej,4792,3,12.131731,54.922828
1517949,Ullemosevej,4792,4,12.131651,54.921503
1517950,Ullemosevej,4792,5,12.136376,54.92227
1517951,Ullemosevej,4792,6,12.142159,54.919215
1517952,Ullemosevej,4792,7,12.139326,54.922425
1517953,Ullemosevej,4792,11,12.147525,54.917807
1518037,Klekkendevej,4792,1,12.177847,54.923864
1518038,Klekkendevej,4792,2,12.178183,54.923999
1518039,Klekkendevej,4792,6,12.182511,54.931679
1518040,Klekkendevej,4792,9,12.172176,54.927765
1518041,Klekkendevej,4792,10,12.170959,54.936576
1518042,Klekkendevej,4792,11,12.174985,54.931905
1518043,Klekkendevej,4792,12,12.166865,54.937966
1518044,Klekkendevej,4792,13,12.167148,54.937167
1518053,Klemmen,4792,1A,12.161012,54.913942
1518054,Klemmen,4792,1B,12.161151,54.913905
1518055,Klemmen,4792,3,12.161326,54.913845
1518056,Klemmen,4792,5,12.161703,54.913891
1518057,Klemmen,4792,6,12.1626551,54.9133249
1518058,Klemmen,4792,7,12.16193,54.91368
1518059,Klemmen,4792,11,12.16261,54.913583
1518060,Klemmen,4792,13,12.163129,54.913427
1518061,Klemmen,4792,17,12.163389,54.913402
1518258,Stenagervej,4792,4,12.150147,54.92304
1518259,Stenagervej,4792,6,12.147335,54.92354
1518260,Stenagervej,4792,6A,12.147219,54.923532
1518261,Stenagervej,4792,6B,12.147102,54.923524
1518262,Stenagervej,4792,6C,12.146803,54.923736
1518263,Stenagervej,4792,6D,12.146691,54.923728
1518264,Stenagervej,4792,8,12.14609,54.92305
1518271,Tostenæsvej,4792,1,12.159579,54.925888
1518272,Tostenæsvej,4792,2,12.161811,54.924538
1518273,Tostenæsvej,4792,3,12.160726,54.927749
1518274,Tostenæsvej,4792,4,12.161989,54.924357
1518275,Tostenæsvej,4792,5,12.163327,54.923808
1518276,Tostenæsvej,4792,6,12.16264,54.923791
1518350,Skovhavevej,4792,1,12.177811,54.916063
1518351,Skovhavevej,4792,2,12.178564,54.917129
1518352,Skovhavevej,4792,3,12.176101,54.916659
1518353,Skovhavevej,4792,4,12.175795,54.918683
1518354,Skovhavevej,4792,5,12.17608,54.91712
1518355,Skovhavevej,4792,7,12.177559,54.917465
1518443,Fanefjord Skovvej,4792,1,12.206179,54.907283
1518444,Fanefjord Skovvej,4792,2,12.209071,54.903349
1518445,Fanefjord Skovvej,4792,3,12.20834,54.905624
1518446,Fanefjord Skovvej,4792,4,12.208908,54.90126
1518447,Fanefjord Skovvej,4792,5,12.217319,54.905325
1518448,Fanefjord Skovvej,4792,6,12.208848,54.899979
1518455,Ellemosevej,4792,3,12.173996,54.920648
1518456,Ellemosevej,4792,4,12.173028,54.920343
1518457,Ellemosevej,4792,5,12.174437,54.92045
1518458,Ellemosevej,4792,6,12.172852,54.9202
1518459,Ellemosevej,4792,7,12.173748,54.920409
1518460,Ellemosevej,4792,8,12.172762,54.92002
1518501,Vindebæk Strandvej,4792,3,12.186847,54.886905
1518502,Vindebæk Strandvej,4792,4,12.181486,54.886872
1518503,Vindebæk Strandvej,4792,5,12.187485,54.881278
1518504,Vindebæk Strandvej,4792,6,12.183847,54.883421
1518505,Vindebæk Strandvej,4792,8,12.183519,54.881221
1518534,Fanefjord Haven,4792,1,12.167506,54.9182
1518535,Fanefjord Haven,4792,2,12.168393,54.918245
1518536,Fanefjord Haven,4792,4,12.16851,54.918226
1518537,Fanefjord Haven,4792,6,12.168622,54.91821
1518538,Fanefjord Haven,4792,8,12.168732,54.918193
1518539,Fanefjord Haven,4792,10,12.168586,54.918413
1518540,Fanefjord Haven,4792,12,12.168684,54.918402
1518541,Fanefjord Haven,4792,14,12.168796,54.91839
1518542,Fanefjord Haven,4792,16,12.168907,54.91838
1518543,Fanefjord Haven,4792,18,12.168755,54.918594
1518544,Fanefjord Haven,4792,20,12.168866,54.918594
1518545,Fanefjord Haven,4792,22,12.168993,54.918588
1518546,Fanefjord Haven,4792,24,12.169082,54.918584
1518547,Fanefjord Haven,4792,26,12.168881,54.918774
1518548,Fanefjord Haven,4792,28,12.168997,54.918774
1518549,Fanefjord Haven,4792,30,12.169112,54.918773
1518550,Fanefjord Haven,4792,32,12.169227,54.918773
1518556,Stenøvej,4792,3,12.146295,54.938747
1518557,Stenøvej,4792,4A,12.150445,54.934372
1518558,Stenøvej,4792,4B,12.150054,54.934445
1518559,Stenøvej,4792,6,12.151184,54.938664
1518560,Stenøvej,4792,8,12.14848,54.940799
1518596,Kokseby Slotsvej,4792,1,12.160216,54.91167
1518597,Kokseby Slotsvej,4792,2,12.160327,54.911958
1518598,Kokseby Slotsvej,4792,3,12.159532,54.911788
1518599,Kokseby Slotsvej,4792,4,12.159849,54.911944
1518600,Kokseby Slotsvej,4792,5,12.159156,54.911883
1518687,Afrikavej,4792,2,12.140008,54.93355
1518688,Afrikavej,4792,4,12.138781,54.933538
1518689,Afrikavej,4792,6,12.135373,54.934646
1518690,Afrikavej,4792,8,12.133476,54.935085
1518691,Afrikavej,4792,10A,12.129373,54.934434
1518692,Afrikavej,4792,10B,12.129387,54.934228
1518698,Åvænget,4792,1,12.128391,54.929653
1518699,Åvænget,4792,2,12.128952,54.930133
1518700,Åvænget,4792,3,12.12857,54.930878
1518701,Åvænget,4792,5,12.128692,54.932183
1518702,Fanefjordvænget,4792,3,12.170626,54.915483
1518703,Fanefjordvænget,4792,4,12.1698039,54.9156103
1518704,Fanefjordvænget,4792,5,12.170154,54.915434
1518705,Fanefjordvænget,4792,6,12.169561,54.915425
1518706,Fanefjordvænget,4792,7,12.170027,54.915271
1518707,Fanefjordvænget,4792,9,12.1704885,54.9150693
1518708,Fanefjordvænget,4792,11,12.1699791,54.9147839
1518709,Fanefjordvænget,4792,13,12.169531,54.9149046
1518799,Præstelundsvej,4792,3,12.165758,54.902418
1518800,Præstelundsvej,4792,4,12.172789,54.907673
1518801,Præstelundsvej,4792,5,12.16447,54.902635
1518802,Præstelundsvej,4792,6,12.160285,54.905431
1518803,Præstelundsvej,4792,7,12.161338,54.904723
1518881,Julbjergvej,4792,2,12.178696,54.895523
1518882,Julbjergvej,4792,4,12.179018,54.895465
1518883,Julbjergvej,4792,5,12.183323,54.897314
1518884,Julbjergvej,4792,8,12.186192,54.894014
1518969,Kobbelkildevej,4792,2,12.150709,54.906454
1518970,Kobbelkildevej,4792,3,12.149119,54.905869
1518971,Fibigervej,4792,1,12.196871,54.89659
1518972,Fibigervej,4792,3,12.200993,54.897214
1518973,Fibigervej,4792,4,12.200835,54.895881
1518993,Abildvej,4792,1,12.1894666,54.919513
1518994,Abildvej,4792,3,12.191047,54.919329
1518995,Abildvej,4792,5,12.196399,54.917913
1519043,Tostenæs Kobbel,4792,3,12.19292,54.922712
1519044,Tostenæs Kobbel,4792,5,12.198453,54.919417
1519056,Peberhavevej,4792,2,12.202902,54.890129
1519057,Peberhavevej,4792,4,12.202627,54.892688
1519122,Lille Lindvej,4792,1,12.204881,54.919107
1519123,Mellemvej,4792,2,12.193989,54.929922
1633853,Tostenæs Møllevej,4792,1,12.156964,54.927273
1633859,Tostenæs Møllevej,4792,3,12.15682,54.927487
1633863,Tostenæs Møllevej,4792,5,12.156752,54.927327
1633869,Tostenæs Møllevej,4792,6,12.15346,54.927651
1633873,Tostenæs Møllevej,4792,7,12.157137,54.926912
1633876,Tostenæs Møllevej,4792,10,12.156324,54.927646
1633882,Tostenæs Møllevej,4792,12,12.1561,54.927421
1633887,Tostenæs Møllevej,4792,14,12.156407,54.926923
1633890,Tostenæs Møllevej,4792,16,12.156541,54.926708
2154564,Nylukkevej,4792,1,12.205072,54.930373
2154566,Nylukkevej,4792,2,12.204703,54.930425
2154571,Nylukkevej,4792,4,12.204289,54.930512
2228242,Mimersvej,4792,3A,12.152872,54.884201
2228304,Grønsundvej,4792,304A,12.197576,54.929628
2230900,Fanefjordgade,4792,132A,12.163487,54.916103
2230908,Dammegade,4792,28A,12.157021,54.919124
2230909,Dammegade,4792,28B,12.157119,54.919182
2230910,Dammegade,4792,28C,12.157407,54.919103
2230911,Dammegade,4792,28D,12.1570203,54.919068
2230912,Dammegade,4792,28E,12.157396,54.91906
2230946,Afrikavej,4792,10,12.129446,54.934382
2248615,Brøndegårdsvej,4792,7A,12.174504,54.886986
2248620,Grønsundvej,4792,304B,12.197537,54.929681
2248662,Grønsalen,4792,1,12.153127,54.896404
