idx,street,postcode,housenumber,lon,lat
1124143,Nykøbingvej,4871,130,12.00009,54.83888
1124152,Nykøbingvej,4871,132,11.999419,54.83884
1124155,Nykøbingvej,4871,134,11.997927,54.837115
1124160,Nykøbingvej,4871,135,12.005368,54.842516
1124166,Nykøbingvej,4871,136,11.99493,54.829871
1124167,Nykøbingvej,4871,137,12.005304,54.842466
1124173,Nykøbingvej,4871,138,11.990668,54.827129
1124176,Nykøbingvej,4871,139,12.006247,54.842209
1124182,Nykøbingvej,4871,141,12.003963,54.840971
1124188,Nykøbingvej,4871,143,12.002219,54.839971
1124195,Nykøbingvej,4871,145,12.002124,54.839579
1124201,Nykøbingvej,4871,147,12.001638,54.839158
1124205,Nykøbingvej,4871,149,12.000198,54.838078
1124211,Nykøbingvej,4871,151,11.996101,54.829207
1124216,Nykøbingvej,4871,153,11.997887,54.825905
1124221,Nykøbingvej,4871,155,11.994689,54.8221
1126277,Særslevvej,4871,12,12.0463061,54.8346296
1126279,Særslevvej,4871,14,12.0465439,54.834378
1126281,Særslevvej,4871,16,12.0465248,54.8341972
1126283,Særslevvej,4871,18,12.0465189,54.833896
1126285,Særslevvej,4871,20,12.0467026,54.8336356
1126286,Særslevvej,4871,21,12.0464291,54.8351121
1126287,Særslevvej,4871,22,12.0473193,54.8322866
1126288,Særslevvej,4871,23A,12.046853,54.8343987
1126289,Særslevvej,4871,23B,12.0469869,54.8341016
1126291,Særslevvej,4871,24,12.0456569,54.8306955
1126293,Særslevvej,4871,25,12.0473958,54.833785
1126295,Særslevvej,4871,26,12.0553482,54.8273478
1126296,Særslevvej,4871,27,12.0474268,54.833334
1126297,Særslevvej,4871,28,12.0556886,54.8272666
1126298,Særslevvej,4871,29,12.047524,54.8331383
1126299,Særslevvej,4871,31,12.0477282,54.8329895
1126300,Særslevvej,4871,33,12.048112,54.8328083
1126301,Særslevvej,4871,35,12.048525,54.8325687
1126302,Særslevvej,4871,37,12.048607,54.8324592
1126303,Særslevvej,4871,39,12.0486764,54.8323636
1126304,Særslevvej,4871,41,12.0487076,54.83225
1126305,Særslevvej,4871,43,12.0488899,54.8321791
1126306,Særslevvej,4871,45,12.0490818,54.8320986
1126309,Særslevvej,4871,47,12.0493676,54.8319295
1126310,Særslevvej,4871,49,12.0496702,54.8316979
1126311,Særslevvej,4871,49B,12.0548119,54.8292929
1126312,Særslevvej,4871,51,12.0551345,54.8278534
1126313,Særslevvej,4871,53,12.0558835,54.827459
1391804,Grønsundsvej,4871,287,12.048947,54.805779
1391809,Grønsundsvej,4871,289,12.048868,54.806216
1391813,Grønsundsvej,4871,291,12.048916,54.806393
1391814,Grønsundsvej,4871,292,12.047072,54.799631
1391815,Grønsundsvej,4871,293,12.049394,54.806764
1391816,Grønsundsvej,4871,294,12.04826,54.801458
1391817,Grønsundsvej,4871,295,12.049512,54.806858
1391818,Grønsundsvej,4871,296,12.049458,54.805905
1391819,Grønsundsvej,4871,297A,12.049531,54.807142
1391820,Grønsundsvej,4871,297B,12.050029,54.807305
1391821,Grønsundsvej,4871,298,12.049475,54.806221
1391822,Grønsundsvej,4871,300,12.049992,54.806753
1391823,Grønsundsvej,4871,301,12.05156,54.818769
1391824,Grønsundsvej,4871,302,12.050257,54.807019
1391825,Grønsundsvej,4871,303,12.051884,54.819587
1391826,Grønsundsvej,4871,304,12.05067,54.807284
1391827,Grønsundsvej,4871,306,12.051462,54.808033
1391828,Grønsundsvej,4871,307,12.052014,54.819963
1391829,Grønsundsvej,4871,308,12.052261,54.809224
1391830,Grønsundsvej,4871,309,12.052092,54.82018
1391831,Grønsundsvej,4871,310,12.052298,54.813488
1391832,Grønsundsvej,4871,311,12.052371,54.820459
1391833,Grønsundsvej,4871,312,12.052044,54.81772
1391834,Grønsundsvej,4871,313,12.052602,54.82058
1391835,Grønsundsvej,4871,314,12.052229,54.818151
1391836,Grønsundsvej,4871,315,12.052789,54.820673
1391837,Grønsundsvej,4871,316,12.052285,54.818749
1391838,Grønsundsvej,4871,317,12.053011,54.820768
1391839,Grønsundsvej,4871,318,12.052556,54.819199
1391840,Grønsundsvej,4871,319,12.053228,54.820847
1391841,Grønsundsvej,4871,320,12.052853,54.820257
1391842,Grønsundsvej,4871,321,12.053445,54.820942
1391846,Grønsundsvej,4871,322,12.053697,54.820716
1391848,Grønsundsvej,4871,323,12.053771,54.821044
1391853,Grønsundsvej,4871,324,12.053993,54.820818
1391855,Grønsundsvej,4871,325,12.05395,54.821139
1391858,Grønsundsvej,4871,327,12.054308,54.821249
1391860,Grønsundsvej,4871,328,12.054813,54.821211
1391861,Grønsundsvej,4871,329,12.054634,54.821384
1391864,Grønsundsvej,4871,330,12.055617,54.821855
1391865,Grønsundsvej,4871,331,12.054893,54.821507
1391868,Grønsundsvej,4871,332,12.055626,54.822033
1391870,Grønsundsvej,4871,333,12.05513,54.821619
1391872,Grønsundsvej,4871,334,12.055678,54.82219
1391873,Grønsundsvej,4871,335,12.055296,54.821907
1391874,Grønsundsvej,4871,336,12.055677,54.822321
1391875,Grønsundsvej,4871,337A,12.055316,54.822072
1391876,Grønsundsvej,4871,337B,12.055098,54.822033
1391877,Grønsundsvej,4871,338,12.0558,54.822598
1391878,Grønsundsvej,4871,339,12.055336,54.822221
1391882,Grønsundsvej,4871,340,12.056097,54.822968
1391885,Grønsundsvej,4871,341,12.055311,54.822342
1391886,Grønsundsvej,4871,342,12.056098,54.823129
1391890,Grønsundsvej,4871,343,12.055376,54.822623
1391891,Grønsundsvej,4871,344,12.056217,54.823322
1391893,Grønsundsvej,4871,345,12.055476,54.822891
1391894,Grønsundsvej,4871,346,12.056028,54.823486
1391895,Grønsundsvej,4871,347,12.055585,54.82313
1391896,Grønsundsvej,4871,348,12.056236,54.823761
1391897,Grønsundsvej,4871,349,12.05554,54.823258
1391898,Grønsundsvej,4871,350,12.056127,54.823905
1391899,Grønsundsvej,4871,351,12.055406,54.823424
1391900,Grønsundsvej,4871,352,12.056394,54.824078
1391901,Grønsundsvej,4871,353,12.055448,54.823541
1391902,Grønsundsvej,4871,355,12.055529,54.823767
1391903,Grønsundsvej,4871,356,12.05619,54.824285
1391904,Grønsundsvej,4871,357,12.055754,54.824025
1391905,Grønsundsvej,4871,358,12.056128,54.824578
1391906,Grønsundsvej,4871,359A,12.055685,54.824296
1391907,Grønsundsvej,4871,359B,12.055689,54.824339
1391908,Grønsundsvej,4871,359C,12.055686,54.824384
1391909,Grønsundsvej,4871,359D,12.055689,54.824427
1391910,Grønsundsvej,4871,360,12.056052,54.824812
1391912,Grønsundsvej,4871,361,12.055643,54.824583
1391914,Grønsundsvej,4871,362,12.05606,54.825177
1391918,Grønsundsvej,4871,363,12.055742,54.824779
1391921,Grønsundsvej,4871,364,12.05602,54.825396
1391923,Grønsundsvej,4871,365,12.055645,54.824998
1391927,Grønsundsvej,4871,366,12.056085,54.825695
1391930,Grønsundsvej,4871,367,12.055609,54.82517
1391933,Grønsundsvej,4871,368,12.056113,54.825804
1391936,Grønsundsvej,4871,369,12.055469,54.825338
1391940,Grønsundsvej,4871,370,12.056238,54.826084
1391943,Grønsundsvej,4871,371,12.055555,54.825455
1391947,Grønsundsvej,4871,372,12.05629,54.826208
1391948,Grønsundsvej,4871,373,12.055575,54.825598
1391950,Grønsundsvej,4871,374,12.056349,54.826324
1391954,Grønsundsvej,4871,375,12.055603,54.825775
1391956,Grønsundsvej,4871,376,12.056431,54.826494
1391961,Grønsundsvej,4871,377,12.055783,54.825905
1391967,Grønsundsvej,4871,378,12.056517,54.826644
1391970,Grønsundsvej,4871,379,12.055851,54.826093
1391975,Grønsundsvej,4871,380,12.056931,54.826764
1391980,Grønsundsvej,4871,381,12.05619,54.827152
1391981,Grønsundsvej,4871,382,12.056924,54.828138
1391984,Grønsundsvej,4871,383,12.056292,54.827391
1391987,Grønsundsvej,4871,384,12.056987,54.828309
1391988,Grønsundsvej,4871,385,12.056395,54.827771
1391991,Grønsundsvej,4871,386,12.057145,54.828533
1391992,Grønsundsvej,4871,387,12.056485,54.828028
1391994,Grønsundsvej,4871,388,12.057585,54.82889
1391998,Grønsundsvej,4871,389,12.057146,54.831103
1392000,Grønsundsvej,4871,390,12.059315,54.831437
1392005,Grønsundsvej,4871,392,12.057282,54.831847
1392008,Grønsundsvej,4871,394,12.055596,54.836653
1535929,Hesnæsvej,4871,1,12.094016,54.841143
1535930,Hesnæsvej,4871,2,12.093076,54.842339
1535931,Hesnæsvej,4871,3,12.094117,54.84093
1535932,Hesnæsvej,4871,4,12.094009,54.840222
1535933,Hesnæsvej,4871,5,12.094182,54.840715
1535934,Hesnæsvej,4871,6,12.093999,54.840054
1535935,Hesnæsvej,4871,7,12.094357,54.84043
1535936,Hesnæsvej,4871,9,12.094591,54.840165
1535937,Hesnæsvej,4871,11,12.096026,54.83999
1535938,Hesnæsvej,4871,12,12.095279,54.839601
1535939,Hesnæsvej,4871,13,12.097337,54.839604
1535940,Hesnæsvej,4871,14,12.096611,54.839393
1535941,Hesnæsvej,4871,15,12.097801,54.839828
1535942,Hesnæsvej,4871,16,12.097651,54.839093
1535943,Hesnæsvej,4871,17,12.098035,54.839625
1535944,Hesnæsvej,4871,18,12.097944,54.839441
1535945,Hesnæsvej,4871,19,12.098466,54.839696
1535946,Hesnæsvej,4871,20,12.097984,54.839442
1535947,Hesnæsvej,4871,21,12.098782,54.839602
1535948,Hesnæsvej,4871,22,12.098631,54.839313
1535949,Hesnæsvej,4871,23,12.099185,54.8396
1535950,Hesnæsvej,4871,24,12.098911,54.839446
1535951,Hesnæsvej,4871,25,12.09932,54.839734
1535952,Hesnæsvej,4871,26,12.099227,54.839423
1535953,Hesnæsvej,4871,27,12.099558,54.839641
1535954,Hesnæsvej,4871,28,12.099924,54.839193
1535955,Hesnæsvej,4871,29,12.099847,54.839645
1535956,Hesnæsvej,4871,30,12.100497,54.839437
1535957,Hesnæsvej,4871,31,12.100243,54.839682
1535958,Hesnæsvej,4871,32,12.101182,54.83945
1535959,Hesnæsvej,4871,33,12.100576,54.83966
1535960,Hesnæsvej,4871,34,12.101553,54.839193
1535961,Hesnæsvej,4871,35,12.101252,54.839733
1535962,Hesnæsvej,4871,36,12.101526,54.839497
1535963,Hesnæsvej,4871,37,12.102286,54.839838
1535964,Hesnæsvej,4871,38,12.101727,54.839488
1535965,Hesnæsvej,4871,39,12.102877,54.839845
1535966,Hesnæsvej,4871,40,12.101919,54.839566
1535967,Hesnæsvej,4871,41,12.103227,54.840109
1535968,Hesnæsvej,4871,41B,12.103192,54.840079
1535969,Hesnæsvej,4871,42,12.102102,54.839589
1535970,Hesnæsvej,4871,43,12.103712,54.840076
1535971,Hesnæsvej,4871,44,12.102805,54.839631
1535972,Hesnæsvej,4871,45,12.104473,54.840107
1535973,Hesnæsvej,4871,46,12.103073,54.839662
1535974,Hesnæsvej,4871,47,12.105819,54.840484
1535975,Hesnæsvej,4871,48,12.103406,54.839725
1535976,Hesnæsvej,4871,49,12.106157,54.840867
1535977,Hesnæsvej,4871,50,12.103642,54.839748
1535978,Hesnæsvej,4871,51,12.106496,54.840553
1535979,Hesnæsvej,4871,52,12.103974,54.839698
1535980,Hesnæsvej,4871,53,12.111367,54.840357
1535981,Hesnæsvej,4871,54,12.104284,54.839815
1535982,Hesnæsvej,4871,55,12.128629,54.840089
1535983,Hesnæsvej,4871,56,12.10508,54.839667
1535984,Hesnæsvej,4871,57,12.129058,54.840096
1535985,Hesnæsvej,4871,58,12.106217,54.840323
1535986,Hesnæsvej,4871,59,12.129365,54.840098
1535987,Hesnæsvej,4871,60,12.106524,54.840392
1535988,Hesnæsvej,4871,61,12.129094,54.840859
1535989,Hesnæsvej,4871,62,12.127647,54.839627
1535990,Hesnæsvej,4871,63,12.129961,54.840004
1535991,Hesnæsvej,4871,64,12.128406,54.839647
1535993,Hesnæsvej,4871,66,12.129175,54.839697
1535995,Hesnæsvej,4871,68,12.129816,54.839734
1535997,Hesnæsvej,4871,70,12.132089,54.839686
1536230,Bregningevej,4871,1,12.055677,54.821494
1536231,Bregningevej,4871,2,12.055395,54.821272
1536232,Bregningevej,4871,3,12.055667,54.821097
1536233,Bregningevej,4871,4,12.055347,54.820999
1536234,Bregningevej,4871,5,12.055792,54.820635
1536235,Bregningevej,4871,6,12.055398,54.820559
1536236,Bregningevej,4871,7,12.055988,54.820491
1536237,Bregningevej,4871,8,12.05564,54.820309
1536238,Bregningevej,4871,9,12.056142,54.820239
1536239,Bregningevej,4871,10,12.05571,54.820206
1536240,Bregningevej,4871,11,12.056768,54.819647
1536241,Bregningevej,4871,12,12.055846,54.820021
1536242,Bregningevej,4871,13,12.056924,54.81946
1536243,Bregningevej,4871,14,12.055938,54.81986
1536244,Bregningevej,4871,15,12.057276,54.819219
1536245,Bregningevej,4871,16,12.0574,54.818649
1536246,Bregningevej,4871,16B,12.057627,54.818305
1536247,Bregningevej,4871,17,12.057416,54.819081
1536248,Bregningevej,4871,18,12.057926,54.818191
1536249,Bregningevej,4871,19,12.057579,54.81894
1536250,Bregningevej,4871,20,12.058328,54.817979
1536251,Bregningevej,4871,21,12.057739,54.818828
1536252,Bregningevej,4871,22A,12.0586,54.81786
1536253,Bregningevej,4871,22B,12.058386,54.817416
1536254,Bregningevej,4871,23,12.058184,54.818656
1536255,Bregningevej,4871,25,12.058839,54.818448
1536256,Bregningevej,4871,26A,12.059917,54.813019
1536257,Bregningevej,4871,26B,12.059908,54.813043
1536258,Bregningevej,4871,27,12.058697,54.818175
1536259,Bregningevej,4871,28,12.062726,54.815532
1536260,Bregningevej,4871,29,12.059044,54.818022
1536261,Bregningevej,4871,30,12.066489,54.814769
1536262,Bregningevej,4871,32,12.073285,54.813978
1536263,Bregningevej,4871,32B,12.073983,54.813752
1536264,Bregningevej,4871,33,12.060739,54.816613
1536265,Bregningevej,4871,34,12.07495,54.813572
1536266,Bregningevej,4871,35,12.066158,54.81579
1536267,Bregningevej,4871,36,12.075344,54.813626
1536268,Bregningevej,4871,37,12.073126,54.814491
1536269,Bregningevej,4871,38,12.0759,54.813279
1536270,Bregningevej,4871,39,12.073747,54.814021
1536271,Bregningevej,4871,40,12.076331,54.813573
1536272,Bregningevej,4871,41,12.074381,54.813875
1536273,Bregningevej,4871,42,12.076696,54.813615
1536274,Bregningevej,4871,43,12.074276,54.814462
1536275,Bregningevej,4871,44,12.0770157,54.8135749
1536276,Bregningevej,4871,45,12.074785,54.813872
1536277,Bregningevej,4871,46,12.079237,54.81358
1536278,Bregningevej,4871,47,12.075089,54.813832
1536279,Bregningevej,4871,48,12.079597,54.81358
1536280,Bregningevej,4871,49,12.075418,54.813883
1536281,Bregningevej,4871,50,12.079938,54.813519
1536282,Bregningevej,4871,51,12.075684,54.81399
1536283,Bregningevej,4871,52,12.080896,54.813131
1536284,Bregningevej,4871,53,12.075954,54.813932
1536285,Bregningevej,4871,55,12.076175,54.813829
1536286,Bregningevej,4871,57,12.077143,54.813774
1536287,Bregningevej,4871,59,12.077676,54.814049
1536288,Bregningevej,4871,61,12.078607,54.814075
1536289,Bregningevej,4871,63,12.079506,54.813817
1536290,Bregningevej,4871,65,12.079858,54.813994
1536291,Bregningevej,4871,67,12.080326,54.813637
1536344,Bønnetvej,4871,1,12.057891,54.82785
1536345,Bønnetvej,4871,2A,12.056645,54.82714
1536346,Bønnetvej,4871,2B,12.057007,54.827125
1536347,Bønnetvej,4871,3,12.062141,54.828929
1536348,Bønnetvej,4871,4,12.057305,54.827082
1536349,Bønnetvej,4871,5,12.065297,54.826446
1536350,Bønnetvej,4871,6,12.058158,54.826215
1536351,Bønnetvej,4871,7,12.067127,54.827589
1536352,Bønnetvej,4871,8,12.06938,54.825655
1536353,Bønnetvej,4871,9,12.076077,54.825505
1536354,Bønnetvej,4871,10,12.070501,54.825553
1536355,Bønnetvej,4871,11,12.079216,54.8277
1536356,Bønnetvej,4871,12,12.071615,54.825492
1536357,Bønnetvej,4871,13,12.081981,54.826545
1536358,Bønnetvej,4871,14,12.075455,54.825185
1536359,Bønnetvej,4871,15,12.082631,54.824199
1536360,Bønnetvej,4871,16,12.088684,54.822246
1536361,Bønnetvej,4871,17,12.083578,54.823698
1536362,Bønnetvej,4871,18,12.097469,54.822589
1536363,Bønnetvej,4871,19,12.086416,54.825238
1536364,Bønnetvej,4871,21,12.090595,54.822705
1536365,Bønnetvej,4871,22,12.100152,54.822679
1536366,Bønnetvej,4871,23,12.096509,54.824251
1536367,Bønnetvej,4871,24,12.110466,54.821362
1536368,Bønnetvej,4871,25,12.096636,54.822817
1536369,Bønnetvej,4871,26,12.110915,54.821296
1536370,Bønnetvej,4871,27,12.098942,54.822873
1536371,Bønnetvej,4871,28,12.112002,54.818824
1536372,Bønnetvej,4871,29,12.09976,54.823656
1536373,Bønnetvej,4871,30,12.116642,54.820972
1536374,Bønnetvej,4871,31,12.099722,54.822988
1536375,Bønnetvej,4871,33,12.100272,54.822927
1536376,Bønnetvej,4871,35,12.100693,54.822868
1536377,Bønnetvej,4871,37,12.101383,54.822766
1536378,Bønnetvej,4871,39,12.110628,54.821601
1536379,Bønnetvej,4871,41,12.111288,54.822434
1536380,Bønnetvej,4871,43,12.113016,54.82127
1536381,Bønnetvej,4871,45,12.113395,54.821233
1536382,Bønnetvej,4871,47,12.11394,54.821752
1536383,Bønnetvej,4871,49,12.114045,54.821176
1624810,Stærly,4871,1,12.0367541,54.8202172
1624811,Stærly,4871,2,12.042251,54.8179718
1624812,Virketvej,4871,1,11.9967556,54.8366396
1624813,Virketvej,4871,2,11.9973043,54.8372022
1624814,Virketvej,4871,3,11.9966657,54.8369637
1624815,Virketvej,4871,4,11.993987,54.837898
1626119,Østerskovvej,4871,1,12.1283176,54.8429777
1626120,Østerskovvej,4871,2,12.1305198,54.8429712
1626576,Ahrendtsgade,4871,1,12.0525157,54.8200435
1626580,Ahrendtsgade,4871,2,12.052529,54.81979
1626582,Ahrendtsgade,4871,3,12.052985,54.820105
1626584,Ahrendtsgade,4871,4,12.053182,54.819874
1626587,Ahrendtsgade,4871,5,12.053217,54.820142
1626588,Ahrendtsgade,4871,6,12.053522,54.819934
1626590,Ahrendtsgade,4871,7,12.053577,54.8202
1626593,Ahrendtsgade,4871,8,12.05399,54.81997
1626594,Ahrendtsgade,4871,9,12.053771,54.820229
1626596,Ahrendtsgade,4871,10,12.054234,54.820047
1626599,Ahrendtsgade,4871,11,12.053962,54.820259
1626600,Ahrendtsgade,4871,12,12.054486,54.820093
1626602,Ahrendtsgade,4871,13,12.054207,54.820297
1626603,Ahrendtsgade,4871,14,12.054766,54.82012
1626604,Ahrendtsgade,4871,15,12.05456,54.820419
1626605,Ahrendtsgade,4871,16,12.055005,54.820225
1626606,Ahrendtsgade,4871,17,12.054816,54.820407
1626607,Ahrendtsgade,4871,19,12.05503,54.820433
1626619,Særslev Øster,4871,1,12.0563259,54.8349463
1626620,Særslev Øster,4871,2,12.0591793,54.834691
1626621,Særslev Øster,4871,3,12.0583005,54.8349644
1626622,Særslev Øster,4871,4,12.0624988,54.834722
1626623,Særslev Øster,4871,5,12.0631817,54.8349393
1626624,Særslev Øster,4871,6,12.0663657,54.8344837
1626626,Særslev Øster,4871,7,12.0650586,54.8350549
1626627,Særslev Øster,4871,8,12.0692939,54.8341741
1626629,Særslev Øster,4871,9,12.0679706,54.8346911
1626632,Særslev Øster,4871,10,12.0831617,54.832703
1626633,Særslev Øster,4871,11,12.0719961,54.8345047
1626635,Særslev Øster,4871,12,12.08872,54.8294154
1626637,Særslev Øster,4871,13,12.078846,54.8377284
1626639,Særslev Øster,4871,14,12.089954,54.834211
1626641,Særslev Øster,4871,15,12.0762818,54.8343164
1626643,Særslev Øster,4871,16,12.0898298,54.8348153
1626645,Særslev Øster,4871,17,12.0768418,54.8338886
1626647,Særslev Øster,4871,18,12.0916092,54.8363739
1626649,Særslev Øster,4871,19,12.0791068,54.8334978
1626651,Særslev Øster,4871,21,12.0878777,54.8365889
1626653,Særslev Øster,4871,23,12.0906009,54.8363413
1626901,Gårdvej,4871,2,12.079861,54.81316
1626904,Gårdvej,4871,4,12.079635,54.812525
1626915,Nielstrupvej,4871,1,12.101388,54.848
1626917,Nielstrupvej,4871,2,12.103724,54.851262
1626919,Nielstrupvej,4871,3,12.099732,54.84889
1627656,Syvhøjvej,4871,1,12.1214679,54.8354022
1627657,Syvhøjvej,4871,2,12.12241,54.838057
1627658,Syvhøjvej,4871,3,12.1210334,54.8346726
1627659,Syvhøjvej,4871,4,12.1197618,54.8355272
1627660,Syvhøjvej,4871,5,12.1202967,54.8338325
1627661,Syvhøjvej,4871,6,12.1182161,54.8362529
1628046,Kildegårdsvej,4871,1,12.072789,54.827459
1628048,Kildegårdsvej,4871,2,12.074803,54.829471
1628226,Drosselvej,4871,1,12.053837,54.825975
1628227,Drosselvej,4871,2,12.053886,54.825591
1628229,Drosselvej,4871,3,12.054203,54.825943
1628230,Drosselvej,4871,4,12.0542,54.825584
1628231,Drosselvej,4871,5,12.054564,54.825958
1628233,Drosselvej,4871,6,12.054581,54.825626
1628235,Drosselvej,4871,7,12.054891,54.825968
1628236,Drosselvej,4871,8,12.05496,54.825603
1628378,Lærkevej,4871,2,12.053454,54.826958
1628380,Lærkevej,4871,4,12.053829,54.826927
1628385,Lærkevej,4871,6,12.054258,54.826879
1628977,Slotsvej,4871,1,12.1002468,54.8225065
1628978,Slotsvej,4871,2,12.099765,54.8225542
1628979,Slotsvej,4871,3,12.1004674,54.8195011
1628980,Slotsvej,4871,4,12.0997602,54.8195151
1628981,Slotsvej,4871,4B,12.0990971,54.8191828
1628982,Slotsvej,4871,5,12.0981939,54.8153903
1628983,Slotsvej,4871,6,12.0945446,54.8160623
1629369,Stengårdsvej,4871,1,12.0563962,54.823738
1629370,Stengårdsvej,4871,2,12.0566968,54.8235389
1629371,Stengårdsvej,4871,3,12.057025,54.8237156
1629372,Stengårdsvej,4871,4,12.0579124,54.8232331
1629373,Stengårdsvej,4871,5,12.0574011,54.8235997
1629374,Stengårdsvej,4871,6,12.0585606,54.823104
1629375,Stengårdsvej,4871,7,12.0576924,54.8235216
1629376,Stengårdsvej,4871,8,12.0585424,54.8227048
1629377,Stengårdsvej,4871,9,12.0582226,54.8234651
1629378,Stengårdsvej,4871,10,12.060034,54.8225682
1629379,Stengårdsvej,4871,11,12.0585017,54.8234531
1629380,Stengårdsvej,4871,12,12.0801426,54.8189449
1629381,Stengårdsvej,4871,13,12.0603406,54.8233711
1629382,Stengårdsvej,4871,15,12.0610818,54.8230766
1629383,Stengårdsvej,4871,17,12.0723515,54.8208549
1629384,Stengårdsvej,4871,19,12.0745436,54.8202054
1629385,Stengårdsvej,4871,21,12.081265,54.8190099
1629454,Halskovvej,4871,1,12.068524,54.803063
1629455,Halskovvej,4871,2,12.061881,54.809623
1629459,Halskovvej,4871,3,12.072875,54.802558
1629462,Halskovvej,4871,4,12.061769,54.809247
1629464,Halskovvej,4871,5,12.073183,54.802083
1629465,Halskovvej,4871,6,12.060713,54.807164
1629466,Halskovvej,4871,7,12.074076,54.801227
1629467,Halskovvej,4871,9,12.075488,54.80019
1629468,Halskovvej,4871,10,12.07091,54.802324
1629469,Halskovvej,4871,11,12.081737,54.799883
1629470,Halskovvej,4871,12,12.07128,54.802329
1629471,Halskovvej,4871,13,12.083351,54.803315
1629472,Halskovvej,4871,14,12.073506,54.801125
1629473,Halskovvej,4871,16,12.073746,54.800878
1629474,Halskovvej,4871,18,12.074439,54.800544
1629475,Halskovvej,4871,20,12.07479,54.800225
1629476,Halskovvej,4871,22,12.075139,54.800079
1629477,Halskovvej,4871,24,12.085212,54.798947
1629513,Brydsbjergvej,4871,1,12.100954,54.840057
1629514,Brydsbjergvej,4871,2,12.101601,54.840099
1629515,Brydsbjergvej,4871,3,12.101013,54.845406
1629518,Brydsbjergvej,4871,4,12.105646,54.847812
1629519,Brydsbjergvej,4871,5,12.102654,54.848085
1629521,Brydsbjergvej,4871,6,12.10847,54.847941
1629523,Brydsbjergvej,4871,7,12.110541,54.848258
1629525,Brydsbjergvej,4871,8,12.113773,54.848088
1629891,Allegade,4871,1,11.999273,54.833936
1630170,Ryttermarken,4871,1,12.0595524,54.8178179
1630171,Ryttermarken,4871,2,12.0598483,54.8173774
1630173,Ryttermarken,4871,3,12.0596434,54.8179683
1630174,Ryttermarken,4871,4,12.0599467,54.8175963
1630178,Ryttermarken,4871,5,12.0596706,54.8181202
1630181,Ryttermarken,4871,6,12.0601206,54.8178162
1630186,Ryttermarken,4871,7,12.0597471,54.8182649
1630188,Ryttermarken,4871,8,12.0601569,54.817972
1630192,Ryttermarken,4871,9,12.0598298,54.8184044
1630195,Ryttermarken,4871,10,12.0602343,54.8181097
1630197,Ryttermarken,4871,11,12.0599082,54.8185581
1630199,Ryttermarken,4871,12,12.0603074,54.8182567
1630201,Ryttermarken,4871,13,12.0598648,54.8187764
1630203,Ryttermarken,4871,14,12.0602875,54.8183908
1630205,Ryttermarken,4871,15,12.0595881,54.8187327
1630208,Ryttermarken,4871,16,12.0603804,54.818528
1630210,Ryttermarken,4871,17,12.0594334,54.818945
1630212,Ryttermarken,4871,18,12.0603775,54.8186542
1630214,Ryttermarken,4871,19,12.0597459,54.819082
1630215,Ryttermarken,4871,20,12.0603669,54.818802
1630217,Ryttermarken,4871,21,12.0595605,54.8192839
1630219,Ryttermarken,4871,22,12.0602825,54.8189229
1630223,Ryttermarken,4871,23,12.0591267,54.819207
1630227,Ryttermarken,4871,24,12.0602156,54.8190517
1630230,Ryttermarken,4871,25,12.0586357,54.819278
1630235,Ryttermarken,4871,26,12.06014,54.8191764
1630240,Ryttermarken,4871,27,12.0589953,54.819431
1630243,Ryttermarken,4871,28,12.0600775,54.8193224
1630249,Ryttermarken,4871,29,12.058907,54.8194923
1630252,Ryttermarken,4871,30,12.059876,54.8195077
1630256,Ryttermarken,4871,31,12.058833,54.8195436
1630258,Ryttermarken,4871,32,12.0596579,54.819667
1630260,Ryttermarken,4871,33,12.0587307,54.8196148
1630263,Ryttermarken,4871,34,12.0599206,54.819747
1630265,Ryttermarken,4871,35,12.0585541,54.8196998
1630266,Ryttermarken,4871,37,12.0584386,54.8197419
1630269,Ryttermarken,4871,39,12.0583234,54.8197841
1630270,Ryttermarken,4871,41,12.058227,54.8198194
1630271,Ryttermarken,4871,43,12.0583922,54.8193773
1630274,Ryttermarken,4871,45,12.0582027,54.8194706
1630276,Ryttermarken,4871,47,12.0579689,54.8195369
1630277,Ryttermarken,4871,49,12.0578706,54.819393
1630279,Ryttermarken,4871,51,12.0575414,54.8195695
1630281,Ryttermarken,4871,53,12.0576053,54.8196999
1630283,Ryttermarken,4871,55,12.0576564,54.8198303
1630285,Ryttermarken,4871,57,12.057738,54.819956
1630323,Ovenbyvej,4871,1,12.042577,54.8141736
1630324,Ovenbyvej,4871,2,12.0428484,54.812838
1630791,Strandhuse,4871,1,12.0888497,54.8096883
1630792,Strandhuse,4871,2,12.0879846,54.8084953
1630793,Strandhuse,4871,3,12.0884269,54.8082166
1630794,Strandhuse,4871,4,12.0875818,54.8068207
1630795,Strandhuse,4871,5,12.0881822,54.8075396
1630796,Strandhuse,4871,6,12.0843258,54.8070906
1630797,Strandhuse,4871,7,12.0874591,54.8049383
1630798,Strandhuse,4871,8,12.0864412,54.8048471
1630799,Strandhuse,4871,9,12.0886157,54.8038998
1630800,Strandhuse,4871,10,12.0904082,54.7996273
1630801,Strandhuse,4871,11,12.0897358,54.801826
1630802,Strandhuse,4871,12,12.0914318,54.7973438
1630803,Strandhuse,4871,13,12.0902799,54.801057
1630804,Strandhuse,4871,15,12.0910976,54.8004699
1630820,Pomlevej,4871,1,12.0898956,54.8115486
1630822,Pomlevej,4871,2,12.0876918,54.8116993
1630827,Pomlevej,4871,3,12.0929807,54.8106151
1630828,Pomlevej,4871,4,12.106704,54.8069954
1630831,Pomlevej,4871,5,12.1010945,54.8087908
1630834,Pomlevej,4871,6,12.107751,54.8060586
1630839,Pomlevej,4871,6B,12.1084414,54.8063623
1630841,Pomlevej,4871,7,12.102755,54.808497
1630842,Pomlevej,4871,8,12.1092395,54.8061874
1630844,Pomlevej,4871,9,12.1038619,54.8083935
1630846,Pomlevej,4871,10,12.109481,54.806009
1630848,Pomlevej,4871,11,12.1051313,54.8078963
1630850,Pomlevej,4871,13,12.1094033,54.8063514
1630851,Pomlevej,4871,15,12.112042,54.805137
1631664,Sportsvej,4871,1A,12.0513002,54.8201415
1631665,Sportsvej,4871,1B,12.05055,54.820125
1631666,Sportsvej,4871,2,12.0521049,54.8203864
1631667,Sportsvej,4871,3,12.0464523,54.8193322
1631668,Sportsvej,4871,4B,12.0481374,54.8203529
1631669,Sportsvej,4871,6,12.0450547,54.8182725
1631700,Solsortevej,4871,1,12.0539179,54.8251604
1631701,Solsortevej,4871,2,12.0538815,54.8247891
1631702,Solsortevej,4871,3,12.0542728,54.8251719
1631703,Solsortevej,4871,4,12.0542813,54.8248228
1631704,Solsortevej,4871,6,12.0545723,54.8248322
1632103,Donnemosevej,4871,16,12.077861,54.790753
1632174,Poppelvej,4871,1,12.0581699,54.8239916
1632177,Poppelvej,4871,3,12.0582436,54.8242267
1632178,Poppelvej,4871,4,12.0587143,54.8241351
1632179,Poppelvej,4871,5,12.0583519,54.8244784
1632181,Poppelvej,4871,6,12.059102,54.8241327
1632182,Poppelvej,4871,7,12.0583666,54.8248369
1632183,Poppelvej,4871,8,12.059218,54.824431
1632185,Poppelvej,4871,9,12.0581262,54.8251159
1632186,Poppelvej,4871,10,12.0589216,54.8244606
1632188,Poppelvej,4871,11,12.0585947,54.825135
1632189,Poppelvej,4871,12,12.0590452,54.82476
1632190,Poppelvej,4871,13,12.0591066,54.8250772
1632191,Poppelvej,4871,14,12.0593876,54.8247531
1632192,Poppelvej,4871,15,12.0593987,54.8250513
1632245,Brøndstræde,4871,1,12.10247,54.840187
1632247,Brøndstræde,4871,2,12.10255,54.840513
1632251,Brøndstræde,4871,3,12.10242,54.840344
1632605,Lille Tunet,4871,2,12.042682,54.804342
1632606,Lille Tunet,4871,4,12.040751,54.805496
1632914,Mirabelvej,4871,1,12.059187,54.817351
1632915,Mirabelvej,4871,2,12.059015,54.817632
1632916,Mirabelvej,4871,3,12.058886,54.817218
1632917,Mirabelvej,4871,4,12.058793,54.817417
1632952,Vinkelvej,4871,1,12.0566509,54.8228561
1632953,Vinkelvej,4871,2,12.0568433,54.8225059
1632954,Vinkelvej,4871,3,12.0567947,54.8227562
1632956,Vinkelvej,4871,4,12.0568205,54.8223008
1632960,Vinkelvej,4871,5,12.0571464,54.8227143
1632961,Vinkelvej,4871,6,12.0567408,54.8221073
1632962,Vinkelvej,4871,7,12.0574341,54.8226803
1632963,Vinkelvej,4871,9,12.0580119,54.8226136
1632964,Vinkelvej,4871,11,12.0574518,54.8223798
1632965,Vinkelvej,4871,13,12.0571619,54.8221315
1632966,Vinkelvej,4871,15,12.0570942,54.8219469
1633717,Hovmandsvej,4871,1,11.994898,54.834089
1633720,Hovmandsvej,4871,3,11.994034,54.834151
1633916,Møllevej,4871,1,12.081009,54.813968
1633917,Møllevej,4871,2,12.081257,54.813585
1633918,Møllevej,4871,3,12.082543,54.818096
1633919,Møllevej,4871,4,12.081388,54.813957
1633920,Møllevej,4871,5,12.082648,54.818227
1633921,Møllevej,4871,6,12.086377,54.820333
1633923,Meelsevej,4871,1,12.048045,54.806696
1633924,Meelsevej,4871,2,12.048751,54.806677
1633925,Meelsevej,4871,3,12.046676,54.807336
1633927,Meelsevej,4871,4,12.044603,54.809254
1633929,Meelsevej,4871,5,12.046505,54.807625
1633930,Meelsevej,4871,6,12.04399,54.809244
1633931,Meelsevej,4871,7,12.045433,54.808205
1633932,Meelsevej,4871,8,12.043531,54.80931
1633933,Meelsevej,4871,9,12.04509,54.808343
1633934,Meelsevej,4871,10,12.042471,54.810003
1633935,Meelsevej,4871,11,12.044762,54.808678
1633936,Meelsevej,4871,12,12.032596,54.814768
1633937,Meelsevej,4871,13,12.044457,54.808747
1633938,Meelsevej,4871,14,12.030833,54.814088
1633939,Meelsevej,4871,15,12.041858,54.809212
1633940,Meelsevej,4871,16,12.027935,54.81589
1633941,Meelsevej,4871,17,12.036433,54.809355
1633942,Meelsevej,4871,19,12.0362059,54.8105007
1633943,Meelsevej,4871,21,12.031896,54.812543
1633944,Meelsevej,4871,23,12.026885,54.817501
1633945,Meelsevej,4871,25,12.025872,54.820875
1635116,Lillegade,4871,1,12.056776,54.825458
1635117,Lillegade,4871,2,12.056209,54.825185
1635119,Lillegade,4871,3,12.057141,54.825651
1635120,Lillegade,4871,4,12.057139,54.825199
1635123,Lillegade,4871,5A,12.057054,54.826109
1635126,Lillegade,4871,5B,12.057005,54.826354
1635128,Lillegade,4871,6,12.056539,54.824932
1635130,Lillegade,4871,7A,12.057477,54.825669
1635131,Lillegade,4871,7B,12.057592,54.825375
1635132,Lillegade,4871,8,12.057194,54.824868
1635133,Lillegade,4871,9,12.05757,54.825167
1635134,Lillegade,4871,10,12.056967,54.824744
1635135,Lillegade,4871,10B,12.056763,54.82444
1635136,Lillegade,4871,11,12.05755,54.824872
1635137,Lillegade,4871,12,12.057102,54.824302
1635138,Lillegade,4871,13,12.057611,54.824516
1635139,Lillegade,4871,15,12.057445,54.824314
1635140,Lillegade,4871,17,12.057414,54.824061
1635141,Lillegade,4871,19,12.057341,54.823862
1635182,Høje Tunet,4871,1,12.039207,54.801616
1635184,Høje Tunet,4871,2,12.041916,54.801594
1635185,Høje Tunet,4871,4,12.039438,54.802024
1635256,Højmarksvej,4871,1,12.053605,54.827896
1635260,Højmarksvej,4871,2,12.053189,54.828046
1635261,Højmarksvej,4871,3,12.053354,54.826666
1635266,Højmarksvej,4871,4,12.053083,54.827817
1635267,Højmarksvej,4871,6,12.053016,54.827584
1635271,Højmarksvej,4871,8,12.052938,54.827256
1635273,Højmarksvej,4871,10,12.05284,54.826935
1635277,Højmarksvej,4871,12,12.05278,54.826678
1635282,Højmarksvej,4871,14,12.052757,54.826489
1635611,Skjoltrupvej,4871,1,12.1001568,54.8069165
1635614,Skjoltrupvej,4871,2,12.101028,54.808455
1635621,Skjoltrupvej,4871,3,12.1013299,54.8053183
1635627,Skjoltrupvej,4871,4,12.0997111,54.8060743
1635633,Skjoltrupvej,4871,5,12.1032051,54.8049846
1635634,Skjoltrupvej,4871,6,12.095193,54.8057692
1635639,Skjoltrupvej,4871,8,12.0967182,54.8051437
1635645,Skjoltrupvej,4871,10,12.0998932,54.8042787
1636263,Eriksdalsvej,4871,1,12.001938,54.833748
1636265,Eriksdalsvej,4871,2,12.001442,54.833525
1636266,Eriksdalsvej,4871,3,12.001582,54.83331
1636269,Eriksdalsvej,4871,4,12.001146,54.833001
1636270,Eriksdalsvej,4871,5,12.00242,54.833
1636272,Eriksdalsvej,4871,6,12.005208,54.832086
1636273,Eriksdalsvej,4871,7,12.01102,54.831896
1636275,Eriksdalsvej,4871,8,12.011033,54.826661
1636277,Eriksdalsvej,4871,9,12.011456,54.830636
1636278,Eriksdalsvej,4871,10,12.015719,54.82434
1636280,Eriksdalsvej,4871,11,12.015273,54.829064
1636281,Eriksdalsvej,4871,12,12.01777,54.821814
1636282,Eriksdalsvej,4871,13,12.014888,54.824466
1636285,Eriksdalsvej,4871,14,12.024122,54.821871
1636286,Eriksdalsvej,4871,15,12.021551,54.824352
1636288,Eriksdalsvej,4871,16,12.023939,54.821363
1636290,Eriksdalsvej,4871,17,12.029111,54.825061
1636291,Eriksdalsvej,4871,18,12.024987,54.821324
1636292,Eriksdalsvej,4871,19,12.031112,54.821064
1636295,Eriksdalsvej,4871,20,12.034097,54.819543
1636296,Eriksdalsvej,4871,21,12.037428,54.821757
1636297,Eriksdalsvej,4871,22,12.038709,54.820459
1636298,Eriksdalsvej,4871,23,12.053319,54.826359
1636299,Eriksdalsvej,4871,24,12.037919,54.821814
1636300,Eriksdalsvej,4871,25,12.053806,54.826335
1636301,Eriksdalsvej,4871,26,12.040341,54.823003
1636302,Eriksdalsvej,4871,27,12.054269,54.826433
1636303,Eriksdalsvej,4871,28,12.040374,54.823286
1636304,Eriksdalsvej,4871,29,12.055035,54.82637
1636305,Eriksdalsvej,4871,30,12.041193,54.825135
1636511,Holtehusvej,4871,1,12.114374,54.82737
1636512,Holtehusvej,4871,2,12.115615,54.826514
1636850,Mosebyvej,4871,1,12.096556,54.839243
1636852,Mosebyvej,4871,2,12.09569,54.839301
1636855,Mosebyvej,4871,3,12.096646,54.839045
1636857,Mosebyvej,4871,4,12.096276,54.833743
1636859,Mosebyvej,4871,5,12.096455,54.838838
1636861,Mosebyvej,4871,6,12.090704,54.82522
1636864,Mosebyvej,4871,7,12.10022,54.833222
1636869,Mosebyvej,4871,11,12.096817,54.827457
1637265,Torvegade,4871,1,12.0560178,54.8217168
1637267,Torvegade,4871,2,12.0561242,54.8214622
1637269,Torvegade,4871,3A,12.0561682,54.8216666
1637271,Torvegade,4871,3B,12.056232,54.8216537
1637274,Torvegade,4871,3C,12.0563027,54.8216511
1637275,Torvegade,4871,3D,12.0563673,54.8216382
1637278,Torvegade,4871,3E,12.0564318,54.8216252
1637281,Torvegade,4871,3F,12.0565194,54.8216421
1637285,Torvegade,4871,4,12.0563153,54.8214219
1637288,Torvegade,4871,5,12.0570879,54.8214883
1637292,Torvegade,4871,6,12.0567301,54.8213267
1637293,Torvegade,4871,7,12.0574101,54.8214135
1637298,Torvegade,4871,8,12.0569504,54.8212823
1637299,Torvegade,4871,9,12.0575249,54.8210371
1637302,Torvegade,4871,10,12.0570342,54.8212103
1637303,Torvegade,4871,11,12.0574187,54.8207428
1637306,Torvegade,4871,13,12.0571948,54.8204929
1637308,Torvegade,4871,14,12.0567122,54.8207832
1637310,Torvegade,4871,17,12.0572009,54.8200998
1637311,Torvegade,4871,19,12.056859,54.819903
1637465,Kildevej,4871,1,12.105005,54.806234
1637466,Kildevej,4871,2,12.103633,54.806074
1637467,Kildevej,4871,4,12.103872,54.806444
1637468,Kildevej,4871,6,12.104334,54.806218
1637469,Kildevej,4871,8,12.104216,54.805935
1637470,Kildevej,4871,10,12.104371,54.805437
1637930,Falkerslevvej,4871,1A,11.998157,54.835341
1637932,Falkerslevvej,4871,1B,11.998721,54.835151
1637934,Falkerslevvej,4871,2,11.997152,54.835088
1637935,Falkerslevvej,4871,3,11.999485,54.834881
1637938,Falkerslevvej,4871,4,11.997832,54.835006
1637940,Falkerslevvej,4871,5,11.999727,54.83478
1637942,Falkerslevvej,4871,6,11.998378,54.83449
1637943,Falkerslevvej,4871,7,12.000081,54.83481
1637946,Falkerslevvej,4871,8,11.999545,54.834439
1637947,Falkerslevvej,4871,9,12.00063,54.834582
1637949,Falkerslevvej,4871,10,12.000625,54.834147
1637951,Falkerslevvej,4871,11,12.001261,54.834701
1637953,Falkerslevvej,4871,12,12.000863,54.834024
1637955,Falkerslevvej,4871,13,12.001128,54.834221
1637957,Falkerslevvej,4871,14,12.001084,54.833948
1637959,Falkerslevvej,4871,15,12.00156,54.834178
1637961,Falkerslevvej,4871,16,12.001532,54.833875
1637963,Falkerslevvej,4871,17,12.002004,54.834553
1637966,Falkerslevvej,4871,18,12.002379,54.833947
1637970,Falkerslevvej,4871,19,12.002912,54.834321
1637972,Falkerslevvej,4871,20,12.003151,54.833938
1637977,Falkerslevvej,4871,21,12.014542,54.835026
1637981,Falkerslevvej,4871,22,12.003253,54.834142
1637983,Falkerslevvej,4871,23,12.033226,54.833891
1637987,Falkerslevvej,4871,24,12.016269,54.834172
1637989,Falkerslevvej,4871,25,12.038536,54.833442
1637993,Falkerslevvej,4871,26,12.023706,54.831611
1637998,Falkerslevvej,4871,27,12.044912,54.833427
1638000,Falkerslevvej,4871,28,12.035222,54.832557
1638002,Falkerslevvej,4871,29,12.046024,54.833399
1638005,Falkerslevvej,4871,30,12.046617,54.833232
1638008,Falkerslevvej,4871,31,12.046387,54.833481
1644472,Grimmelstrupvej,4871,2,12.025397,54.814661
1644474,Grimmelstrupvej,4871,4,12.020889,54.817155
1644847,Søle,4871,1,12.0867991,54.8185817
1644848,Søle,4871,2,12.0904749,54.8182682
1644849,Søle,4871,3,12.0873979,54.8196394
1644850,Søle,4871,4,12.0918169,54.8182855
1644851,Søle,4871,5,12.0874357,54.8183876
1644852,Søle,4871,7,12.0883513,54.818309
1644854,Søle,4871,9,12.0892075,54.8185234
1645112,Sortenshavevej,4871,1,12.1136595,54.8485604
1645114,Sortenshavevej,4871,2,12.113941,54.8505163
1645117,Sortenshavevej,4871,3,12.1140218,54.8499775
1645270,Svalevej,4871,1,12.053814,54.8244938
1645271,Svalevej,4871,2,12.0533169,54.825984
1645272,Svalevej,4871,3,12.0538032,54.8244106
1645273,Svalevej,4871,4,12.0533551,54.8257664
1645274,Svalevej,4871,5,12.0537969,54.8243276
1645275,Svalevej,4871,6,12.0533678,54.8255027
1645276,Svalevej,4871,7,12.0541428,54.824474
1645277,Svalevej,4871,8,12.0534026,54.8252298
1645278,Svalevej,4871,9,12.0541328,54.8243933
1645279,Svalevej,4871,10,12.0534089,54.8249661
1645280,Svalevej,4871,11,12.0541156,54.8243196
1645282,Svalevej,4871,12,12.0534465,54.8247533
1645284,Svalevej,4871,13,12.054491,54.824449
1645287,Svalevej,4871,14,12.053432,54.8244279
1645289,Svalevej,4871,15,12.0544768,54.82436
1645292,Svalevej,4871,16,12.0533931,54.8242285
1645295,Svalevej,4871,17,12.0544668,54.8242793
1645296,Svalevej,4871,18,12.0533857,54.8239729
1645298,Svalevej,4871,20,12.0533674,54.8237315
1645299,Svalevej,4871,22,12.053363,54.823511
1645300,Svalevej,4871,24,12.0533467,54.8232966
1645301,Svalevej,4871,53,12.0540464,54.8232637
1645352,Søndre Vej,4871,1,12.0533176,54.8185885
1645361,Søndre Vej,4871,3,12.0536541,54.8191909
1645363,Søndre Vej,4871,7,12.054946,54.819189
1646094,Svejsminde,4871,1,12.1024434,54.8037443
1646095,Svejsminde,4871,3,12.0997626,54.8003001
1646096,Skippergårdsvej,4871,1,12.1192574,54.8487928
1646098,Skippergårdsvej,4871,1A,12.1249563,54.8524189
1646102,Skippergårdsvej,4871,1B,12.1160112,54.8518812
1646104,Skippergårdsvej,4871,1C,12.1209559,54.8517786
1646110,Skippergårdsvej,4871,3,12.1234436,54.844884
1646112,Skippergårdsvej,4871,3A,12.1232977,54.8450845
1646114,Skippergårdsvej,4871,3B,12.1234943,54.8451753
1646118,Skippergårdsvej,4871,4,12.1209293,54.8453985
1646120,Skippergårdsvej,4871,5,12.1220012,54.8434804
1646122,Skippergårdsvej,4871,6,12.1153949,54.8440547
1646126,Skippergårdsvej,4871,7,12.1232025,54.8403348
1646127,Skippergårdsvej,4871,8,12.1215804,54.8437469
1646339,Kirkevej,4871,1,12.000002,54.836295
1646343,Kirkevej,4871,2,11.998415,54.836769
1646344,Kirkevej,4871,3,11.999766,54.835761
1646345,Kirkevej,4871,4,11.999232,54.835644
1646348,Kirkevej,4871,5,12.000226,54.835526
1647429,Vibevej,4871,1,12.0535883,54.8276738
1647431,Vibevej,4871,2,12.0534857,54.8274008
1647433,Vibevej,4871,3,12.0539913,54.8275693
1647437,Vibevej,4871,4,12.0539206,54.8273128
1647439,Vibevej,4871,5,12.0544533,54.8276043
1647443,Vibevej,4871,6,12.0543019,54.8272941
1647447,Kirsebærvænget,4871,1,12.057087,54.818785
1647448,Kirsebærvænget,4871,2,12.05675,54.819058
1647449,Kirsebærvænget,4871,3,12.056636,54.818633
1647830,Skovlundevej,4871,1,12.0674824,54.7984844
1647832,Skovlundevej,4871,3,12.0692649,54.7967602
1648027,Tværmosevej,4871,1,12.0701974,54.8130251
1648028,Tværmosevej,4871,2,12.0771835,54.8125063
1648033,Præstemosevej,4871,1,12.0521661,54.8151989
1648036,Præstemosevej,4871,2,12.0526655,54.8150073
1648041,Præstemosevej,4871,3,12.0526569,54.8151542
1648294,Hvilehøj,4871,2,11.996773,54.823506
1648295,Hvilehøj,4871,4,11.999513,54.824336
1648777,Bøgevang,4871,1,12.078566,54.813328
1648778,Bøgevang,4871,2,12.077848,54.813616
1648779,Bøgevang,4871,3,12.077971,54.813367
1648780,Bøgevang,4871,4,12.077673,54.813342
1648782,Bøgevang,4871,5,12.07803,54.813051
1648783,Bøgevang,4871,5B,12.078436,54.812799
1648785,Bøgevang,4871,6,12.077669,54.813218
1648786,Bøgevang,4871,7,12.078233,54.812615
1648788,Bøgevang,4871,8,12.077667,54.813129
1648790,Bøgevang,4871,9,12.076892,54.806195
1648791,Bøgevang,4871,12,12.073353,54.810427
1648876,Lyremosen,4871,1,12.104712,54.839477
1648877,Lyremosen,4871,2,12.104488,54.83941
1648878,Lyremosen,4871,3,12.107619,54.831768
1648879,Lyremosen,4871,4,12.105664,54.831015
1649014,Dyssevej,4871,2,12.090603,54.801696
1649015,Dyssevej,4871,4,12.09113,54.801561
1649940,Malkevej,4871,1,12.047368,54.835233
1649941,Malkevej,4871,2,12.047247,54.834903
1649944,Malkevej,4871,3,12.048204,54.835364
1649945,Malkevej,4871,4,12.047451,54.834969
1649947,Malkevej,4871,5,12.051611,54.836098
1649948,Malkevej,4871,6,12.048218,54.835126
2142642,Fuglemarken,4871,3,12.049401,54.823036
2144769,Midtskovvejen,4871,1,12.127438,54.810609
2216859,Grønsundsvej,4871,326A,12.054452,54.821064
2216860,Grønsundsvej,4871,326B,12.054501,54.821081
2232055,Stengårdsvej,4871,2B,12.057289,54.823426
2248475,Allegade,4871,3,11.999332,54.833023
2248488,Bregningevej,4871,30B,12.072867,54.814064
2248518,Grønsundsvej,4871,299A,12.051012,54.807978
2248526,Hesnæsvej,4871,8,12.094393,54.840008
2248527,Hesnæsvej,4871,43A,12.104279,54.839982
2248549,Lyremosen,4871,1A,12.106676,54.837366
