idx,street,postcode,housenumber,lon,lat
1103923,Maribovej,4953,298,11.2834227,54.8423384
1103930,Maribovej,4953,300,11.290158,54.8428106
1103951,Maribovej,4953,323,11.2932841,54.8432081
1246104,Vesterborgvej,4953,1,11.282383,54.843257
1246107,Vesterborgvej,4953,2,11.2826325,54.8447334
1246108,Vesterborgvej,4953,3,11.2815042,54.8458113
1246111,Vesterborgvej,4953,3A,11.2811034,54.8460336
1246112,Vesterborgvej,4953,4,11.2824972,54.8450575
1246115,Vesterborgvej,4953,6,11.281968,54.8460731
1246117,Vesterborgvej,4953,7,11.2808217,54.8475042
1246118,Vesterborgvej,4953,8,11.2816821,54.8467906
1246123,Vesterborgvej,4953,9,11.279245,54.847282
1246126,Vesterborgvej,4953,10,11.281474,54.84735
1246127,Vesterborgvej,4953,11,11.2796796,54.8483033
1246130,Vesterborgvej,4953,12,11.28151,54.847939
1246131,Vesterborgvej,4953,13,11.2761671,54.8527655
1246134,Vesterborgvej,4953,13A,11.275599,54.853179
1246135,Vesterborgvej,4953,14,11.2788048,54.851487
1246137,Vesterborgvej,4953,15,11.27111,54.8495493
1246139,Vesterborgvej,4953,16,11.27743,54.85229
1246141,Vesterborgvej,4953,17,11.275346,54.8538717
1246143,Vesterborgvej,4953,18,11.2769711,54.8525083
1246144,Vesterborgvej,4953,18A,11.2766244,54.8527419
1246145,Vesterborgvej,4953,19,11.2749695,54.8542729
1246146,Vesterborgvej,4953,20,11.2764693,54.853133
1246150,Vesterborgvej,4953,21,11.2739084,54.8549433
1246151,Vesterborgvej,4953,22,11.2761562,54.8533664
1246153,Vesterborgvej,4953,23,11.273692,54.855409
1246157,Vesterborgvej,4953,24,11.2760424,54.8535099
1246159,Vesterborgvej,4953,24A,11.2760213,54.8539176
1246162,Vesterborgvej,4953,25,11.2725936,54.8560963
1246165,Vesterborgvej,4953,26,11.2745663,54.8560312
1246169,Vesterborgvej,4953,27,11.2709472,54.8571097
1246170,Vesterborgvej,4953,28,11.2731104,54.8562419
1246174,Vesterborgvej,4953,29,11.2708993,54.8572151
1246175,Vesterborgvej,4953,30,11.27161,54.85697
1246180,Vesterborgvej,4953,31,11.2706032,54.8573967
1246183,Vesterborgvej,4953,32,11.2711735,54.8573803
1246184,Vesterborgvej,4953,33,11.2704079,54.8577666
1246185,Vesterborgvej,4953,34,11.271045,54.8576097
1246186,Vesterborgvej,4953,35,11.2687178,54.8577548
1246187,Vesterborgvej,4953,35A,11.270236,54.85797
1246188,Vesterborgvej,4953,36,11.269643,54.8591193
1246189,Vesterborgvej,4953,37,11.2689333,54.8594539
1246190,Vesterborgvej,4953,38,11.26953,54.8592981
1246191,Vesterborgvej,4953,39,11.2687374,54.8595634
1246192,Vesterborgvej,4953,40,11.2693802,54.8594437
1246193,Vesterborgvej,4953,41,11.2686437,54.8597465
1246194,Vesterborgvej,4953,42,11.2692528,54.8596716
1246195,Vesterborgvej,4953,42A,11.2657885,54.8627274
1246196,Vesterborgvej,4953,43,11.2671947,54.8617468
1246197,Vesterborgvej,4953,44,11.264048,54.863654
1246198,Vesterborgvej,4953,45,11.2669228,54.861913
1246199,Vesterborgvej,4953,46,11.2623647,54.864792
1246200,Vesterborgvej,4953,47,11.266217,54.862204
1246201,Vesterborgvej,4953,48,11.2617262,54.8658237
1246202,Vesterborgvej,4953,49,11.265462,54.862099
1246203,Vesterborgvej,4953,51,11.2626018,54.8635357
1246204,Vesterborgvej,4953,53,11.2611052,54.8658521
1246205,Vesterborgvej,4953,55,11.260905,54.866061
1246206,Vesterborgvej,4953,57,11.2609318,54.8663199
1246779,Vestre Landevej,4953,335,11.3089949,54.8396298
1246780,Vestre Landevej,4953,337,11.308356,54.842856
1248498,Bandholmvej,4953,155,11.3570863,54.8828201
1248500,Bandholmvej,4953,157,11.3589772,54.8831382
1248504,Bandholmvej,4953,159,11.3576263,54.8825206
1248509,Bandholmvej,4953,160,11.3576747,54.8816911
1248510,Bandholmvej,4953,162,11.3581177,54.8815669
1248514,Bandholmvej,4953,165,11.359274,54.881571
1248518,Bandholmvej,4953,166,11.3599557,54.8802101
1248521,Bandholmvej,4953,167,11.3597897,54.8808899
1248902,Pederstrupvej,4953,123,11.272517,54.876705
1248907,Pederstrupvej,4953,134,11.2704111,54.8772762
1248908,Pederstrupvej,4953,136,11.2616362,54.8679701
1248909,Pederstrupvej,4953,138,11.2613205,54.8677629
1250821,Skovhusevej,4953,1,11.2921807,54.8571074
1250822,Skovhusevej,4953,1A,11.291942,54.857014
1250824,Skovhusevej,4953,2,11.2824805,54.8546957
1250826,Skovhusevej,4953,3,11.29239,54.8573353
1250828,Skovhusevej,4953,4,11.2827838,54.854789
1250831,Skovhusevej,4953,4S,11.2853182,54.8525546
1250832,Skovhusevej,4953,5,11.2946383,54.8576123
1250836,Skovhusevej,4953,6,11.2863912,54.8551424
1250838,Skovhusevej,4953,7,11.299028,54.858339
1250840,Skovhusevej,4953,8,11.2891425,54.8562222
1250842,Skovhusevej,4953,9,11.3146942,54.8588137
1250844,Skovhusevej,4953,10,11.290463,54.856483
1250846,Skovhusevej,4953,11,11.3147313,54.8589175
1250848,Skovhusevej,4953,12,11.2975583,54.8544864
1250850,Skovhusevej,4953,12S,11.3063774,54.8525794
1250852,Skovhusevej,4953,13,11.3150767,54.8595237
1250855,Skovhusevej,4953,15,11.3156105,54.860318
1250859,Skovhusevej,4953,16,11.3129712,54.8575743
1250865,Skovhusevej,4953,17,11.3157942,54.8605253
1250867,Skovhusevej,4953,18,11.3168162,54.8595199
1250871,Skovhusevej,4953,19,11.319143,54.865397
1250876,Skovhusevej,4953,20,11.316599,54.860491
1250880,Skovhusevej,4953,21,11.3267386,54.8654368
1250882,Skovhusevej,4953,22,11.3241051,54.8640179
1250884,Skovhusevej,4953,23,11.3275437,54.8653722
1250887,Skovhusevej,4953,24,11.3280343,54.8626542
1250888,Skovhusevej,4953,25,11.3276696,54.8657608
1250891,Skovhusevej,4953,26,11.3325409,54.8686399
1250892,Skovhusevej,4953,27,11.3276146,54.8669964
1250896,Skovhusevej,4953,28,11.3268903,54.8697704
1250899,Skovhusevej,4953,29,11.3272838,54.8692763
1250902,Skovhusevej,4953,31,11.3179092,54.8729708
1250905,Skovhusevej,4953,33,11.317313,54.873172
1250908,Skovhusevej,4953,35,11.3158846,54.8728283
1250912,Skovhusevej,4953,37,11.3138227,54.8721233
1250916,Skovhusevej,4953,39,11.3126616,54.8724831
1250918,Skovhusevej,4953,41,11.312484,54.8724245
1250921,Skovhusevej,4953,42,11.3105916,54.8752963
1251295,Rosningvej,4953,30,11.29827,54.869779
1251300,Rosningvej,4953,52,11.3106411,54.875835
1251301,Rosningvej,4953,54,11.3108751,54.8759687
1251307,Rosningvej,4953,61,11.3131172,54.8790154
1251310,Rosningvej,4953,65,11.3151792,54.8792629
1251313,Rosningvej,4953,70,11.3197351,54.8790124
1251314,Rosningvej,4953,76,11.323126,54.880247
1251317,Rosningvej,4953,77,11.322806,54.8804703
1251318,Rosningvej,4953,78,11.3234907,54.8801625
1251320,Rosningvej,4953,80,11.323825,54.8800978
1251322,Rosningvej,4953,86,11.32616,54.879268
1251324,Rosningvej,4953,91,11.3275846,54.8806208
1251326,Rosningvej,4953,93,11.3283833,54.8798161
1251327,Rosningvej,4953,100,11.3328536,54.8795017
1251330,Rosningvej,4953,102,11.3328502,54.8798895
1251331,Rosningvej,4953,104,11.3330936,54.8797828
1251334,Rosningvej,4953,115,11.3432063,54.880997
1251336,Rosningvej,4953,118,11.3426603,54.8802573
1251339,Rosningvej,4953,119,11.3456008,54.8813429
1251340,Rosningvej,4953,123,11.347228,54.8833273
1252517,Langesøvej,4953,1,11.2601636,54.8672883
1252518,Langesøvej,4953,2,11.2551976,54.8729027
1252521,Langesøvej,4953,3,11.2578321,54.8695232
1252522,Langesøvej,4953,3A,11.2522831,54.8702189
1252523,Langesøvej,4953,4,11.2523249,54.8747904
1252524,Langesøvej,4953,5,11.2503828,54.8749943
1252526,Langesøvej,4953,7,11.2484685,54.8772409
1252528,Langesøvej,4953,9,11.249657,54.878591
1252530,Langesøvej,4953,11,11.250875,54.8789791
1253329,Rosningevej,4953,1,11.268999,54.8615744
1253330,Rosningevej,4953,2,11.2702518,54.8612507
1253331,Rosningevej,4953,2A,11.2699439,54.8606166
1253332,Rosningevej,4953,3,11.2694199,54.8614549
1253333,Rosningevej,4953,4,11.269702,54.8613171
1253334,Rosningevej,4953,5,11.2758378,54.8643271
1253335,Rosningevej,4953,6,11.2701376,54.8617316
1253338,Rosningevej,4953,7,11.2761038,54.8644222
1253340,Rosningevej,4953,8,11.27062,54.8619183
1253345,Rosningevej,4953,9,11.2763875,54.86452
1253348,Rosningevej,4953,10,11.2708129,54.862031
1253349,Rosningevej,4953,11,11.2768134,54.8652672
1253353,Rosningevej,4953,12,11.2710078,54.8621111
1253354,Rosningevej,4953,13,11.2769893,54.8656132
1253357,Rosningevej,4953,14,11.2711838,54.862153
1253359,Rosningevej,4953,15,11.284685,54.865921
1253360,Rosningevej,4953,16,11.2752531,54.8637253
1253362,Rosningevej,4953,18,11.2810146,54.8649622
1254773,Kragemosevej,4953,2,11.256068,54.864208
1254850,Gadesvej,4953,1,11.2727074,54.8566636
1254852,Gadesvej,4953,2,11.2730275,54.8564578
1254854,Gadesvej,4953,3,11.2725287,54.8567858
1254855,Gadesvej,4953,4,11.2736566,54.8564432
1254858,Gadesvej,4953,5,11.272233,54.856937
1254862,Gadesvej,4953,6,11.2734691,54.8566011
1254863,Gadesvej,4953,7,11.2722238,54.8571777
1254867,Gadesvej,4953,8,11.2731012,54.8567415
1254870,Gadesvej,4953,9,11.2719406,54.8574287
1254873,Gadesvej,4953,10,11.2730585,54.8569043
1254876,Gadesvej,4953,12,11.2728778,54.8570644
1254878,Gadesvej,4953,14,11.27269,54.8572207
1254882,Gadesvej,4953,16,11.2724714,54.8573351
1254885,Gadesvej,4953,18,11.2724687,54.8575187
1255443,Vedby Sidevej,4953,1,11.2839744,54.8801893
1255446,Vedby Sidevej,4953,2,11.281053,54.87478
1255449,Vedby Sidevej,4953,4,11.2809605,54.8760464
1255453,Vedby Sidevej,4953,6,11.2820623,54.8785913
1255458,Vedby Sidevej,4953,8,11.282235,54.8791566
1255466,Vedby Sidevej,4953,10,11.2846653,54.8801227
1255551,Bøllesmindevej,4953,15,11.320845,54.8532366
1255552,Bøllesmindevej,4953,16,11.3251073,54.855447
1255553,Bøllesmindevej,4953,19,11.315923,54.856677
1255554,Bøllesmindevej,4953,20,11.3202353,54.8569593
1255555,Bøllesmindevej,4953,23,11.3146449,54.8573468
1255556,Bøllesmindevej,4953,25,11.3148331,54.8577243
1255812,Hulbækvej,4953,1,11.2777062,54.8543022
1255813,Hulbækvej,4953,2,11.2769355,54.8538506
1255814,Hulbækvej,4953,3,11.2782714,54.8546131
1255815,Hulbækvej,4953,4,11.2777365,54.8541114
1255816,Hulbækvej,4953,5,11.278581,54.8543455
1255817,Hulbækvej,4953,6,11.2781093,54.8542193
1255818,Hulbækvej,4953,7,11.2790633,54.8543654
1255819,Hulbækvej,4953,8,11.2794042,54.8542658
1255820,Hulbækvej,4953,9,11.2791036,54.8545436
1255821,Hulbækvej,4953,11,11.2795409,54.854458
1255822,Hulbækvej,4953,13,11.2796552,54.8546749
1255823,Hulbækvej,4953,15,11.2804706,54.854683
1255913,Søvængerne,4953,1,11.3369535,54.8786362
1255916,Søvængerne,4953,3,11.340085,54.8759979
1255917,Søvængerne,4953,10,11.331446,54.8756795
1255920,Søvængerne,4953,12,11.3308418,54.8753132
1255921,Søvængerne,4953,16,11.3286947,54.875128
1255923,Søvængerne,4953,26,11.3235157,54.8742315
1255926,Søvængerne,4953,28,11.3223299,54.8743069
1255928,Søvængerne,4953,32,11.319532,54.8743113
1255929,Søvængerne,4953,38,11.3188682,54.8741382
1255930,Søvængerne,4953,40,11.3183485,54.8736637
1255931,Søvængerne,4953,42,11.3179933,54.873511
1256759,Åvej,4953,1,11.358776,54.882069
1256761,Åvej,4953,3,11.3593704,54.8823379
1256763,Åvej,4953,10,11.36334,54.883781
1256769,Åvej,4953,14,11.3656193,54.8847654
1256771,Åvej,4953,18,11.369801,54.886345
1256773,Åvej,4953,22,11.3725376,54.8869485
1256776,Åvej,4953,23,11.3700813,54.8894748
1256779,Åvej,4953,25,11.3715322,54.8870811
1256783,Åvej,4953,26,11.3742714,54.8873561
1256923,Posthusvej,4953,1,11.271453,54.855957
1256930,Posthusvej,4953,2,11.2729066,54.8558148
1256932,Posthusvej,4953,3,11.2713585,54.8561639
1256937,Posthusvej,4953,4,11.272674,54.8559376
1256939,Posthusvej,4953,6,11.272164,54.855959
1256942,Posthusvej,4953,7,11.2711852,54.85641
1256951,Posthusvej,4953,8,11.2717367,54.8562507
1256952,Posthusvej,4953,9,11.2710469,54.8565601
1256958,Posthusvej,4953,10,11.2714933,54.8565811
1257991,Dalbyvej,4953,15,11.3204219,54.8834089
1257992,Dalbyvej,4953,18,11.3164039,54.8822083
1257993,Dalbyvej,4953,23,11.3173109,54.8801459
1258176,Bregneholtvej,4953,10,11.308217,54.886293
1258177,Bregneholtvej,4953,18A,11.3077783,54.8835154
1258181,Bregneholtvej,4953,18B,11.3072179,54.8833189
1258182,Bregneholtvej,4953,18C,11.3057709,54.8838084
1258594,Vedbyvej,4953,1,11.2737534,54.8730692
1258596,Vedbyvej,4953,2,11.2865171,54.8729254
1258600,Vedbyvej,4953,3,11.2798702,54.8735615
1258602,Vedbyvej,4953,4,11.287323,54.872813
1258604,Vedbyvej,4953,5,11.2807806,54.8736597
1258608,Vedbyvej,4953,6,11.2923869,54.8727088
1258609,Vedbyvej,4953,7,11.2854697,54.8732953
1258614,Vedbyvej,4953,9,11.2858511,54.8732379
1258617,Vedbyvej,4953,11,11.287792,54.873242
1258618,Vedbyvej,4953,15,11.2991074,54.8721039
1259381,Hejringe Huse,4953,1,11.3599095,54.8792287
1259383,Hejringe Huse,4953,2,11.3595329,54.8798571
1259385,Hejringe Huse,4953,9,11.356159,54.877439
1259386,Hejringe Huse,4953,10,11.3549053,54.8772916
1259388,Hejringe Huse,4953,17,11.3545,54.872548
1259390,Hejringe Huse,4953,23,11.350913,54.874786
1259392,Hejringe Huse,4953,25,11.3510255,54.8725643
1259395,Hejringe Huse,4953,30,11.3431544,54.8733917
1260502,Gallemosevej,4953,1,11.308142,54.843461
1260505,Gallemosevej,4953,4,11.310712,54.845871
1260506,Gallemosevej,4953,6,11.307277,54.844538
1260507,Gallemosevej,4953,8,11.30645,54.844926
1260508,Gallemosevej,4953,11,11.3025926,54.8466245
1260509,Gallemosevej,4953,12,11.3042073,54.8459386
1260510,Gallemosevej,4953,14,11.3022434,54.8476602
1260511,Gallemosevej,4953,16,11.2995079,54.8503353
1260512,Gallemosevej,4953,17,11.297455,54.848826
1260513,Gallemosevej,4953,18,11.3038837,54.8510927
1260514,Gallemosevej,4953,19,11.2908495,54.8562831
1260515,Gallemosevej,4953,20,11.304022,54.8516112
1260516,Gallemosevej,4953,22,11.2981783,54.8511805
1260959,Småhusevej,4953,1,11.2816537,54.8483063
1260964,Småhusevej,4953,2,11.2816035,54.8481487
1260970,Småhusevej,4953,3,11.2832274,54.8486321
1260971,Småhusevej,4953,4,11.2822546,54.8482113
1260977,Småhusevej,4953,5,11.2914946,54.8489431
1260980,Småhusevej,4953,6,11.285011,54.848478
1260985,Småhusevej,4953,7,11.2919391,54.8476627
1261119,Jystedgårdsvej,4953,2,11.3282454,54.8649128
1261120,Jystedgårdsvej,4953,3,11.330209,54.8644786
1261121,Jystedgårdsvej,4953,4,11.3292446,54.864544
1261122,Jystedgårdsvej,4953,5,11.3323632,54.8629595
1261123,Jystedgårdsvej,4953,6,11.3296904,54.8642322
1262066,Bøgehavevej,4953,2,11.2833783,54.8617218
1262070,Bøgehavevej,4953,5,11.2811803,54.8571334
1262073,Bøgehavevej,4953,9,11.2789,54.8600748
1262075,Bøgehavevej,4953,11,11.281293,54.862038
1262124,Askebyvej,4953,1,11.2462825,54.8649812
1262125,Askebyvej,4953,2,11.2466847,54.8667315
1262128,Askebyvej,4953,3,11.246271,54.865895
1262129,Askebyvej,4953,4,11.243556,54.868244
1262131,Askebyvej,4953,5,11.2461255,54.8665909
1262726,Bønnekevej,4953,5,11.3138008,54.8812468
1262727,Bønnekevej,4953,11,11.3098931,54.8802562
1262728,Bønnekevej,4953,14,11.311081,54.880941
1262768,Langesø Skolevej,4953,1,11.2521442,54.8790769
1262771,Langesø Skolevej,4953,2,11.2562841,54.8790979
1263159,Rosninge Skovvej,4953,1,11.3074673,54.8600761
1263161,Rosninge Skovvej,4953,2,11.3090407,54.8593105
1263163,Rosninge Skovvej,4953,3,11.306787,54.866313
1263278,Nygaardsvej,4953,5,11.3259756,54.8835302
1263281,Nygaardsvej,4953,6,11.323621,54.882877
1263283,Nygaardsvej,4953,9,11.3251731,54.8814666
1263288,Nygaardsvej,4953,11,11.3247317,54.8813534
1263373,Kringelborgvej,4953,11,11.3304758,54.8835934
1263374,Kringelborgvej,4953,14,11.3293278,54.880829
1263894,Søvej,4953,2,11.2785987,54.8667691
1263896,Søvej,4953,4,11.2820564,54.8674532
1263935,Sildebjergvej,4953,5,11.3326697,54.8847262
1263937,Sildebjergvej,4953,6,11.3324133,54.8839284
1263940,Sildebjergvej,4953,11,11.3347209,54.8820793
1264173,Bønned Holmevej,4953,2,11.2921284,54.8813972
1264175,Bønned Holmevej,4953,4,11.2934581,54.8814014
1264176,Bønned Holmevej,4953,6,11.2928635,54.8804261
2116246,Rudbjergvej,4953,1,11.2463735,54.858645
2116249,Rudbjergvej,4953,3,11.2494953,54.8607482
2116254,Rudbjergvej,4953,4,11.254006,54.8618571
2116256,Rudbjergvej,4953,5,11.2524512,54.8618702
2116259,Rudbjergvej,4953,6,11.256943,54.86384
2116263,Rudbjergvej,4953,7,11.2554703,54.863389
2116274,Rudbjergvej,4953,9,11.2573454,54.8643168
2116275,Rudbjergvej,4953,11,11.2578536,54.8644091
2116280,Rudbjergvej,4953,13,11.2580752,54.8644321
2116283,Rudbjergvej,4953,15,11.2585776,54.8646119
2116286,Rudbjergvej,4953,17,11.25942,54.864683
2216552,Rosningvej,4953,100J,11.3331973,54.8795975
2229019,Skovhusevej,4953,19A,11.319942,54.865
2229139,Bønnekevej,4953,14A,11.310437,54.880612
