idx,street,postcode,housenumber,lon,lat
1721217,Højholtvej,5856,1,10.5629895,55.2362669
1721218,Højholtvej,5856,2,10.5623926,55.2363272
1721219,Højholtvej,5856,3,10.5629639,55.2365301
1721220,Højholtvej,5856,4,10.5619224,55.2366805
1721221,Højholtvej,5856,5,10.562684,55.236605
1721222,Højholtvej,5856,6,10.5615015,55.2368063
1721224,Højholtvej,5856,7,10.5624618,55.2367063
1721225,Højholtvej,5856,8,10.5615256,55.2369952
1721227,Højholtvej,5856,9,10.5628913,55.2368938
1721228,Højholtvej,5856,10,10.5613918,55.2371207
1721229,Højholtvej,5856,11,10.562941,55.237305
1721230,Højholtvej,5856,12,10.5612706,55.237208
1721231,Højholtvej,5856,13,10.5620738,55.2369667
1721233,Højholtvej,5856,13A,10.5624786,55.2377037
1721234,Højholtvej,5856,14,10.5611443,55.2372909
1721236,Højholtvej,5856,15,10.5618992,55.2372312
1721238,Højholtvej,5856,16,10.5610197,55.2374034
1721239,Højholtvej,5856,17,10.5616732,55.2374281
1721241,Højholtvej,5856,18,10.5608801,55.2375235
1721242,Højholtvej,5856,19,10.5611483,55.2377099
1721243,Højholtvej,5856,20,10.5604681,55.2378557
1721244,Højholtvej,5856,21,10.5608632,55.2379049
1721245,Højholtvej,5856,22,10.5601009,55.2381076
1721246,Højholtvej,5856,23,10.560694,55.238131
1721247,Højholtvej,5856,24,10.5598812,55.2382946
1721248,Højholtvej,5856,25,10.5604754,55.2383646
1721249,Højholtvej,5856,26,10.5596876,55.2384354
1721250,Højholtvej,5856,27,10.5603091,55.2384944
1721251,Højholtvej,5856,28,10.5594417,55.2385751
1721252,Højholtvej,5856,29A,10.5601825,55.2387044
1721253,Højholtvej,5856,29B,10.5582614,55.2400803
1721254,Højholtvej,5856,30,10.553471,55.24122
1721255,Højholtvej,5856,31,10.556946,55.2409142
1721256,Højholtvej,5856,33,10.555526,55.243005
1721257,Højholtvej,5856,35,10.5529287,55.2439552
1721791,Kløvmosevej,5856,1,10.5629577,55.2359642
1721795,Kløvmosevej,5856,2,10.5634412,55.2358556
1721796,Kløvmosevej,5856,3A,10.562956,55.235412
1721797,Kløvmosevej,5856,3B,10.5633727,55.2355067
1721799,Kløvmosevej,5856,4,10.5637143,55.2355036
1721800,Kløvmosevej,5856,5,10.5635214,55.2352513
1721803,Kløvmosevej,5856,5A,10.5628212,55.2346589
1721804,Kløvmosevej,5856,6,10.5644464,55.2354723
1721806,Kløvmosevej,5856,7,10.5635269,55.2349587
1721807,Kløvmosevej,5856,8,10.5638601,55.235393
1721809,Kløvmosevej,5856,9,10.5639384,55.2349327
1721811,Kløvmosevej,5856,10,10.5640294,55.2352596
1721812,Kløvmosevej,5856,11,10.5640887,55.234794
1721816,Kløvmosevej,5856,12,10.564144,55.235083
1721818,Kløvmosevej,5856,13,10.5641457,55.2346405
1721821,Kløvmosevej,5856,14,10.5643303,55.2348797
1721823,Kløvmosevej,5856,15,10.5644247,55.2344178
1721824,Kløvmosevej,5856,16,10.5644674,55.2347588
1721826,Kløvmosevej,5856,17,10.56453,55.234318
1721828,Kløvmosevej,5856,18,10.5646446,55.2346109
1721829,Kløvmosevej,5856,19,10.5646497,55.2341875
1721832,Kløvmosevej,5856,20,10.5648012,55.2344477
1721833,Kløvmosevej,5856,22,10.5683287,55.2318924
1721835,Kløvmosevej,5856,23,10.564979,55.2338342
1721836,Kløvmosevej,5856,25,10.5651759,55.2336293
1721838,Kløvmosevej,5856,27,10.5652914,55.2335096
1721840,Kløvmosevej,5856,29,10.5653505,55.2333306
1721842,Kløvmosevej,5856,31,10.5666896,55.2318682
1721843,Kløvmosevej,5856,33,10.5668079,55.2317484
1722695,Rønnebærvænget,5856,1A,10.5275746,55.2349522
1722696,Rønnebærvænget,5856,1B,10.5274752,55.2349613
1722701,Rønnebærvænget,5856,1C,10.5273351,55.2349731
1722703,Rønnebærvænget,5856,1D,10.527235,55.2349838
1722706,Rønnebærvænget,5856,2,10.5280362,55.2348946
1722710,Rønnebærvænget,5856,3A,10.5274467,55.234768
1722712,Rønnebærvænget,5856,3B,10.5273143,55.2347786
1722715,Rønnebærvænget,5856,3C,10.527198,55.234788
1722717,Rønnebærvænget,5856,4,10.527961,55.234635
1722719,Rønnebærvænget,5856,5A,10.5273589,55.2346031
1722721,Rønnebærvænget,5856,5B,10.5272501,55.234611
1722723,Rønnebærvænget,5856,5C,10.5271481,55.2346208
1722724,Rønnebærvænget,5856,6,10.528022,55.234366
1722726,Rønnebærvænget,5856,7A,10.5273071,55.2344226
1722728,Rønnebærvænget,5856,7B,10.527209,55.23443
1722730,Rønnebærvænget,5856,7C,10.5271032,55.2344403
1722732,Rønnebærvænget,5856,8,10.5278367,55.2341072
1722734,Rønnebærvænget,5856,9A,10.5272521,55.2342401
1722736,Rønnebærvænget,5856,9B,10.5271569,55.23425
1722738,Rønnebærvænget,5856,9C,10.5270482,55.2342598
1722740,Rønnebærvænget,5856,10,10.5278612,55.2338399
1722742,Rønnebærvænget,5856,11A,10.5272175,55.2340596
1722745,Rønnebærvænget,5856,11B,10.527109,55.23407
1722747,Rønnebærvænget,5856,11C,10.5269864,55.2340794
1722749,Rønnebærvænget,5856,13A,10.5272645,55.2338616
1722750,Rønnebærvænget,5856,13B,10.5271556,55.2338694
1722753,Rønnebærvænget,5856,13C,10.5270468,55.2338793
1722760,Aavej,5856,3,10.528576,55.2298268
1722763,Aavej,5856,4,10.53078,55.2294923
1722766,Aavej,5856,5,10.5288542,55.2297426
1722768,Aavej,5856,6,10.5310876,55.2293793
1722770,Aavej,5856,7,10.5290981,55.2296879
1722772,Aavej,5856,9,10.5293958,55.2296115
1722773,Aavej,5856,10,10.5318088,55.2291252
1722775,Aavej,5856,11,10.5296678,55.229525
1722777,Aavej,5856,12,10.5321469,55.2290948
1722778,Aavej,5856,13,10.5299354,55.2294273
1722779,Aavej,5856,14,10.5323918,55.2290035
1722780,Aavej,5856,16,10.5327074,55.2289769
1722781,Aavej,5856,18,10.5329756,55.2289021
1722782,Aavej,5856,20,10.5333577,55.2289242
1722783,Aavej,5856,22,10.5336659,55.2287613
1722784,Aavej,5856,24,10.5340119,55.2287741
1722785,Aavej,5856,26,10.534363,55.228784
1722786,Aavej,5856,32,10.5357614,55.2286975
1722787,Aavej,5856,33,10.5331184,55.2283644
1722788,Aavej,5856,33A,10.5365895,55.228453
1722789,Aavej,5856,34,10.5360738,55.228683
1722793,Aavej,5856,36,10.536491,55.2288275
1722796,Aavej,5856,38,10.5368438,55.2287076
1722797,Aavej,5856,40,10.5371415,55.2287243
1722798,Aavej,5856,42,10.5375123,55.2289092
1722799,Aavej,5856,43,10.5344483,55.2260241
1722800,Aavej,5856,53,10.5369868,55.2285283
1722801,Aavej,5856,55,10.5377287,55.2285956
1723044,Aaskovvej,5856,2,10.5355616,55.2328277
1723045,Aaskovvej,5856,3,10.5352253,55.2321399
1723046,Aaskovvej,5856,4,10.5355806,55.2324213
1723047,Aaskovvej,5856,5,10.5359757,55.2317074
1723048,Aaskovvej,5856,6,10.5362052,55.2321819
1723049,Aaskovvej,5856,7,10.5363749,55.2313699
1723050,Aaskovvej,5856,8,10.5365463,55.2316681
1723051,Aaskovvej,5856,9,10.5365139,55.2310779
1723052,Aaskovvej,5856,10,10.5366658,55.2315159
1723053,Aaskovvej,5856,11,10.5368937,55.2304202
1723055,Aaskovvej,5856,12,10.5369266,55.2313745
1723058,Aaskovvej,5856,13A,10.536854,55.230012
1723062,Aaskovvej,5856,13B,10.5369891,55.229814
1723064,Aaskovvej,5856,13C,10.5364733,55.2298056
1723069,Aaskovvej,5856,14,10.5370803,55.2311873
1723075,Aaskovvej,5856,15,10.5370534,55.2295819
1723078,Aaskovvej,5856,16,10.5372933,55.2308983
1723079,Aaskovvej,5856,17,10.5374196,55.2291562
1723087,Aaskovvej,5856,20,10.5372689,55.230516
1723092,Aaskovvej,5856,22,10.537247,55.2302932
1723095,Aaskovvej,5856,24,10.5373839,55.2301627
1723098,Aaskovvej,5856,26,10.5373766,55.2299779
1723101,Aaskovvej,5856,28,10.5375182,55.2298057
1723103,Aaskovvej,5856,30,10.537466,55.229629
1723104,Aaskovvej,5856,32,10.5385596,55.2298632
1723105,Aaskovvej,5856,34A,10.537657,55.2294488
1723106,Aaskovvej,5856,34B,10.5378183,55.2294868
1723107,Aaskovvej,5856,34C,10.537979,55.2293498
1723108,Aaskovvej,5856,34D,10.5377992,55.2293054
1723109,Aaskovvej,5856,36,10.5378867,55.2291661
1723244,Enghavevej,5856,1,10.5346783,55.2432137
1723246,Enghavevej,5856,2,10.5350578,55.2430203
1723249,Enghavevej,5856,3,10.5345673,55.2428868
1723251,Enghavevej,5856,4,10.53536,55.2426324
1723252,Enghavevej,5856,5,10.5345462,55.2426892
1723255,Enghavevej,5856,6,10.534963,55.242595
1723256,Enghavevej,5856,8,10.5349111,55.2424108
1723259,Enghavevej,5856,10,10.534886,55.2422932
1723260,Enghavevej,5856,12,10.5354693,55.2421314
1723262,Enghavevej,5856,13,10.5344197,55.241803
1723265,Enghavevej,5856,16,10.534802,55.241924
1723267,Enghavevej,5856,17A,10.533916,55.2411968
1723269,Enghavevej,5856,17B,10.533964,55.2412731
1723271,Enghavevej,5856,18,10.535031,55.241848
1723273,Enghavevej,5856,19,10.5337913,55.2408617
1723276,Enghavevej,5856,20,10.5345986,55.2413713
1723278,Enghavevej,5856,20A,10.5346437,55.2415791
1723279,Enghavevej,5856,20B,10.5348493,55.2416181
1723281,Enghavevej,5856,20C,10.5346068,55.2413837
1723283,Enghavevej,5856,21,10.5336969,55.2406237
1723285,Enghavevej,5856,22,10.5343906,55.2411587
1723287,Enghavevej,5856,23,10.5336044,55.2399537
1723289,Enghavevej,5856,24,10.534448,55.2409046
1723290,Enghavevej,5856,28,10.5340656,55.2399722
1723966,Lørupvej,5856,3,10.5248256,55.2291013
1723970,Lørupvej,5856,5,10.5245798,55.2289095
1724388,Graabjergvej,5856,1,10.533655,55.232523
1724390,Graabjergvej,5856,2,10.534165,55.232282
1724391,Graabjergvej,5856,3,10.5322092,55.2325643
1724395,Graabjergvej,5856,3A,10.533095,55.232732
1724396,Graabjergvej,5856,4,10.533556,55.2316468
1724399,Graabjergvej,5856,4A,10.5343062,55.2319563
1724401,Graabjergvej,5856,5,10.5324825,55.2319296
1724403,Graabjergvej,5856,6,10.5323567,55.2314937
1724404,Graabjergvej,5856,7,10.528685,55.230418
1724408,Graabjergvej,5856,8,10.5316709,55.231337
1724410,Graabjergvej,5856,9,10.5280329,55.2301478
1724411,Graabjergvej,5856,10,10.5315009,55.2307858
1724414,Graabjergvej,5856,11,10.5269724,55.230498
1724415,Graabjergvej,5856,11A,10.5270251,55.2306563
1724418,Graabjergvej,5856,11B,10.5267792,55.2306653
1724420,Graabjergvej,5856,12,10.5312222,55.2310794
1724422,Graabjergvej,5856,12A,10.5312362,55.2310816
1724424,Graabjergvej,5856,13,10.527139,55.229837
1724425,Graabjergvej,5856,14,10.5302979,55.230797
1724427,Graabjergvej,5856,15,10.5267082,55.2296779
1724428,Graabjergvej,5856,16,10.5287919,55.2301712
1724429,Graabjergvej,5856,17,10.5255683,55.2293914
1724430,Graabjergvej,5856,18,10.5281429,55.2298938
1724431,Graabjergvej,5856,20,10.5274795,55.2296899
1724432,Graabjergvej,5856,22,10.527193,55.2292129
1725363,Kildegaardsvej,5856,1,10.5351872,55.2398754
1725364,Kildegaardsvej,5856,2,10.5354998,55.2395717
1725367,Kildegaardsvej,5856,3,10.5349066,55.2398487
1725368,Kildegaardsvej,5856,4,10.5350405,55.2395747
1725369,Kildegaardsvej,5856,5,10.5346108,55.2398638
1725371,Kildegaardsvej,5856,6,10.5347086,55.2395539
1725372,Kildegaardsvej,5856,6B,10.5343249,55.2395792
1725374,Kildegaardsvej,5856,7,10.5342901,55.2399104
1725375,Kildegaardsvej,5856,8,10.5323692,55.2395866
1725377,Kildegaardsvej,5856,9,10.5331763,55.2399084
1725378,Kildegaardsvej,5856,10,10.5320018,55.2396268
1725380,Kildegaardsvej,5856,11,10.5328575,55.2399312
1725381,Kildegaardsvej,5856,12,10.5316512,55.2396073
1725383,Kildegaardsvej,5856,13,10.532524,55.2399352
1725385,Kildegaardsvej,5856,14,10.5313182,55.2395901
1725386,Kildegaardsvej,5856,15,10.5321654,55.2399168
1725388,Kildegaardsvej,5856,16,10.5310156,55.2395928
1725389,Kildegaardsvej,5856,17,10.5318237,55.239902
1725392,Kildegaardsvej,5856,18,10.5306857,55.2395847
1725393,Kildegaardsvej,5856,19,10.531497,55.239884
1725395,Kildegaardsvej,5856,21,10.5311642,55.2398776
1725396,Kildegaardsvej,5856,23,10.5307965,55.2398791
1725564,Kastanieparken,5856,1,10.5270909,55.2395058
1725565,Kastanieparken,5856,2,10.5277818,55.2392736
1725566,Kastanieparken,5856,3,10.5270904,55.2394263
1725567,Kastanieparken,5856,4,10.5277726,55.2393653
1725568,Kastanieparken,5856,5,10.5270901,55.2393601
1725569,Kastanieparken,5856,6,10.5277748,55.2394553
1725570,Kastanieparken,5856,7,10.5270897,55.2392998
1725571,Kastanieparken,5856,8,10.5281622,55.2393627
1725572,Kastanieparken,5856,9,10.5271718,55.239139
1725573,Kastanieparken,5856,9A,10.5271091,55.239175
1725574,Kastanieparken,5856,10,10.5281559,55.2394553
1725575,Kastanieparken,5856,11,10.5273137,55.2390755
1725577,Kastanieparken,5856,12,10.5281546,55.239543
1725578,Kastanieparken,5856,13,10.5275592,55.2390277
1725579,Kastanieparken,5856,14,10.5281527,55.2396134
1725580,Kastanieparken,5856,15,10.5277221,55.2390263
1725583,Kastanieparken,5856,16,10.5285175,55.2393876
1725584,Kastanieparken,5856,17,10.5278796,55.2390244
1725587,Kastanieparken,5856,18,10.52851,55.2394775
1725588,Kastanieparken,5856,19,10.5280661,55.2389853
1725590,Kastanieparken,5856,20,10.5285079,55.2395672
1725591,Kastanieparken,5856,21,10.5281841,55.2389849
1725592,Kastanieparken,5856,22,10.5287822,55.2392407
1725595,Kastanieparken,5856,23,10.5284436,55.2389191
1725596,Kastanieparken,5856,24,10.5288652,55.2392867
1725597,Kastanieparken,5856,25,10.5285277,55.2389667
1725599,Kastanieparken,5856,26,10.5289493,55.2393333
1725603,Kastanieparken,5856,27,10.5286404,55.2389984
1725604,Kastanieparken,5856,28,10.5290232,55.2394058
1725607,Kastanieparken,5856,29,10.5287218,55.2390449
1725608,Kastanieparken,5856,30,10.5291378,55.2394685
1725612,Kastanieparken,5856,31,10.5288024,55.2390908
1725614,Kastanieparken,5856,100,10.5284913,55.2391329
1725746,Birkevænget,5856,1,10.5410726,55.2295581
1725750,Birkevænget,5856,2,10.5405525,55.2295537
1725752,Birkevænget,5856,3,10.5409683,55.2297428
1725758,Birkevænget,5856,4,10.5403373,55.2297524
1725762,Birkevænget,5856,5,10.5407152,55.2298607
1725763,Birkevænget,5856,6,10.540026,55.229945
1725767,Birkevænget,5856,7,10.5405612,55.2300288
1725769,Birkevænget,5856,8,10.5396216,55.2298292
1725772,Birkevænget,5856,9,10.5403795,55.2301817
1725774,Birkevænget,5856,10,10.5394436,55.2300213
1725776,Birkevænget,5856,11,10.5401454,55.2303614
1725778,Birkevænget,5856,12,10.5399031,55.2301622
1725780,Birkevænget,5856,13,10.5399849,55.2305365
1725782,Birkevænget,5856,14,10.539741,55.230337
1725784,Birkevænget,5856,15,10.5398007,55.2307223
1725786,Birkevænget,5856,16,10.539109,55.2302747
1725788,Birkevænget,5856,17,10.5396143,55.2308571
1725790,Birkevænget,5856,18,10.5389347,55.2304443
1725791,Birkevænget,5856,20,10.5394194,55.2305951
1725792,Birkevænget,5856,22,10.5391256,55.2308354
1725801,Tjørnevænget,5856,1,10.5271712,55.2374318
1725802,Tjørnevænget,5856,2,10.5275563,55.2373673
1725803,Tjørnevænget,5856,3,10.5268178,55.2374554
1725804,Tjørnevænget,5856,4,10.5275532,55.2371244
1725805,Tjørnevænget,5856,5,10.5267277,55.2373007
1725806,Tjørnevænget,5856,6,10.5276028,55.2368564
1725807,Tjørnevænget,5856,7,10.5270549,55.2372437
1725808,Tjørnevænget,5856,8,10.5274104,55.2366089
1725809,Tjørnevænget,5856,9,10.527005,55.23707
1725811,Tjørnevænget,5856,10,10.5273496,55.2363293
1725812,Tjørnevænget,5856,11,10.5266637,55.2370932
1725815,Tjørnevænget,5856,13,10.5265361,55.2369511
1725817,Tjørnevænget,5856,15,10.5268171,55.2368996
1725821,Tjørnevænget,5856,17,10.5269496,55.236768
1725823,Tjørnevænget,5856,19,10.5266199,55.2367885
1725824,Tjørnevænget,5856,21,10.5266298,55.2366337
1725826,Tjørnevænget,5856,23,10.5268989,55.2365805
1725828,Tjørnevænget,5856,25,10.5268573,55.2364287
1725830,Tjørnevænget,5856,27,10.5266733,55.2362959
1725832,Tjørnevænget,5856,29,10.5269081,55.2362532
1960114,Rødamsvej,5856,2,10.53692,55.2430814
1960115,Rødamsvej,5856,3,10.5373792,55.2429214
1960116,Rødamsvej,5856,4,10.5372466,55.2430599
1960117,Rødamsvej,5856,5,10.5378004,55.2427028
1960118,Rødamsvej,5856,5A,10.5375751,55.2428266
1960119,Rødamsvej,5856,5B,10.5375628,55.242741
1960120,Rødamsvej,5856,6,10.5371141,55.243791
1960121,Rødamsvej,5856,6A,10.5377375,55.2435117
1960122,Rødamsvej,5856,8,10.5376526,55.2430839
1960123,Rødamsvej,5856,9,10.5394887,55.2433652
1960124,Rødamsvej,5856,10,10.5380246,55.2431298
1960125,Rødamsvej,5856,11,10.5397203,55.2434232
1960126,Rødamsvej,5856,12,10.5382814,55.2432019
1960127,Rødamsvej,5856,13,10.5401718,55.2435452
1960128,Rødamsvej,5856,14,10.5384205,55.2432587
1960129,Rødamsvej,5856,15,10.5404329,55.2436099
1960130,Rødamsvej,5856,16,10.53882,55.2435068
1960131,Rødamsvej,5856,17,10.5409854,55.2437701
1960132,Rødamsvej,5856,18,10.5391402,55.2435906
1960133,Rødamsvej,5856,19,10.541471,55.2438418
1960134,Rødamsvej,5856,20,10.5394005,55.2437036
1960135,Rødamsvej,5856,21,10.54162,55.243863
1960136,Rødamsvej,5856,22,10.5397877,55.2437416
1960137,Rødamsvej,5856,24,10.5403561,55.2439211
1960138,Rødamsvej,5856,25,10.54246,55.2442019
1960139,Rødamsvej,5856,27,10.5426622,55.2442925
1960140,Rødamsvej,5856,29,10.543044,55.2444159
1960141,Rødamsvej,5856,30,10.5409959,55.2441706
1960142,Rødamsvej,5856,32,10.5417077,55.2442802
1960143,Rødamsvej,5856,33,10.5436189,55.2442871
1960144,Rødamsvej,5856,35,10.5439119,55.2445254
1960145,Rødamsvej,5856,36,10.5423541,55.2444642
1960146,Rødamsvej,5856,38,10.5425563,55.2445801
1960147,Rødamsvej,5856,40,10.5431756,55.2446747
1960148,Rødamsvej,5856,41,10.544874,55.244514
1960149,Rødamsvej,5856,42,10.5435351,55.2447428
1960150,Rødamsvej,5856,44,10.5441507,55.244795
1960151,Rødamsvej,5856,45,10.5454256,55.2447093
1960152,Rødamsvej,5856,46,10.5443178,55.2447977
1960153,Rødamsvej,5856,47,10.5459044,55.2450053
1960154,Rødamsvej,5856,49,10.54617,55.2450981
1960155,Rødamsvej,5856,51,10.5465241,55.2452661
1960156,Rødamsvej,5856,53,10.546906,55.245397
1960157,Rødamsvej,5856,55,10.5471744,55.2454746
1960158,Rødamsvej,5856,57,10.5477097,55.2455203
1960159,Rødamsvej,5856,59,10.5479579,55.2454757
1960160,Rødamsvej,5856,61,10.5483159,55.2453949
1961152,Ullemoseparken,5856,2,10.529981,55.2422606
1961153,Ullemoseparken,5856,4,10.5301142,55.2423556
1961154,Ullemoseparken,5856,6,10.5302969,55.2424506
1961155,Ullemoseparken,5856,8,10.5304878,55.2425918
1961156,Ullemoseparken,5856,10,10.5307848,55.2425989
1961157,Ullemoseparken,5856,12,10.530769,55.242461
1961158,Ullemoseparken,5856,14,10.5307671,55.242283
1961159,Ullemoseparken,5856,16,10.5305595,55.2422866
1961160,Ullemoseparken,5856,22A,10.5312071,55.2425538
1961161,Ullemoseparken,5856,22B,10.5312836,55.242507
1961162,Ullemoseparken,5856,22C,10.5313614,55.242459
1961163,Ullemoseparken,5856,22D,10.5311543,55.2425279
1961164,Ullemoseparken,5856,22E,10.5312331,55.2424788
1961165,Ullemoseparken,5856,30,10.5310807,55.241994
1961166,Ullemoseparken,5856,32,10.5307965,55.2418648
1961167,Ullemoseparken,5856,34,10.5306797,55.2418672
1961168,Ullemoseparken,5856,36,10.5305689,55.2418699
1961169,Ullemoseparken,5856,38,10.5303028,55.24179
1961170,Ullemoseparken,5856,40,10.5303123,55.2418609
1961171,Ullemoseparken,5856,42,10.530319,55.2419401
1961172,Ullemoseparken,5856,60,10.5293077,55.2418165
1961173,Ullemoseparken,5856,62A,10.5295702,55.2418044
1961174,Ullemoseparken,5856,62B,10.5296983,55.2418476
1961175,Ullemoseparken,5856,62C,10.5298298,55.2418949
1961176,Ullemoseparken,5856,64A,10.5288177,55.2419887
1961177,Ullemoseparken,5856,64B,10.52897,55.241991
1961178,Ullemoseparken,5856,64C,10.5291079,55.2419864
1961179,Ullemoseparken,5856,64D,10.5292497,55.2419823
1961180,Ullemoseparken,5856,66A,10.5285823,55.241839
1961181,Ullemoseparken,5856,66B,10.5287239,55.2418388
1961182,Ullemoseparken,5856,66C,10.5288655,55.2418348
1961183,Ullemoseparken,5856,68A,10.5282021,55.2418434
1961184,Ullemoseparken,5856,68B,10.5283507,55.2418432
1961185,Ullemoseparken,5856,70A,10.5285108,55.2421607
1961186,Ullemoseparken,5856,70B,10.5284623,55.2421036
1961187,Ullemoseparken,5856,70C,10.528393,55.242046
1961188,Ullemoseparken,5856,70D,10.5283307,55.2419972
1961189,Ullemoseparken,5856,72A,10.5287741,55.2423459
1961190,Ullemoseparken,5856,72B,10.528767,55.2422808
1961191,Ullemoseparken,5856,72C,10.5287633,55.2422216
1961192,Ullemoseparken,5856,72D,10.528766,55.242158
1961193,Ullemoseparken,5856,74,10.5298416,55.2425371
1961194,Ullemoseparken,5856,76,10.5296352,55.2424523
1961195,Ullemoseparken,5856,78,10.5295655,55.242381
1961196,Ullemoseparken,5856,80,10.5295154,55.2423139
1961197,Ullemoseparken,5856,82,10.5294153,55.2421894
1961198,Ullemoseparken,5856,84,10.5292839,55.2422327
1961199,Ullemoseparken,5856,86,10.5291663,55.2422356
1961200,Ullemoseparken,5856,88,10.5290252,55.2422108
1961201,Ullemoseparken,5856,90,10.5290878,55.2423507
1961202,Ullemoseparken,5856,92,10.5290435,55.2424217
1961203,Ullemoseparken,5856,94,10.5292481,55.2424919
1961204,Ullemoseparken,5856,96,10.5293168,55.242562
1961205,Ullemoseparken,5856,98,10.5295103,55.2426009
1961206,Ullemoseparken,5856,100,10.5295859,55.2425996
1961207,Ullemoseparken,5856,102,10.5295135,55.2426619
1961208,Ullemoseparken,5856,104,10.5295987,55.2426593
1963589,Stenager,5856,1,10.5272959,55.240181
1963590,Stenager,5856,2,10.5275591,55.2405309
1963591,Stenager,5856,3,10.527258,55.2400942
1963592,Stenager,5856,4,10.527722,55.2407587
1963593,Stenager,5856,5,10.5272281,55.2399636
1963594,Stenager,5856,6,10.5278963,55.2410183
1963595,Stenager,5856,7,10.5271892,55.2398842
1963596,Stenager,5856,8,10.5279716,55.2412341
1963597,Stenager,5856,9,10.5271616,55.2397583
1963598,Stenager,5856,10,10.5281314,55.2415232
1963599,Stenager,5856,11,10.5271265,55.2396782
1963600,Stenager,5856,12,10.5285659,55.2415295
1963601,Stenager,5856,13A,10.5277091,55.2396713
1963602,Stenager,5856,13B,10.527742,55.239746
1963603,Stenager,5856,14,10.5284112,55.2412863
1963604,Stenager,5856,15,10.5278441,55.2398944
1963605,Stenager,5856,16,10.528428,55.240957
1963606,Stenager,5856,17,10.5278757,55.2399676
1963607,Stenager,5856,18,10.5281321,55.2406864
1963608,Stenager,5856,19,10.5278885,55.240127
1963609,Stenager,5856,20,10.5280117,55.2404856
1963610,Stenager,5856,21,10.5283534,55.2400618
1963611,Stenager,5856,22,10.5287003,55.2403122
1963612,Stenager,5856,23,10.5283238,55.2399954
1963613,Stenager,5856,24,10.5287757,55.240574
1963614,Stenager,5856,25,10.5282939,55.2399071
1963615,Stenager,5856,26,10.5289048,55.2408753
1963616,Stenager,5856,27,10.528267,55.2398441
1963617,Stenager,5856,28,10.5290131,55.2411539
1963618,Stenager,5856,29,10.5282426,55.239779
1963619,Stenager,5856,30,10.5291139,55.2414175
1963620,Stenager,5856,31,10.5285163,55.239798
1963621,Stenager,5856,32,10.529619,55.241507
1963622,Stenager,5856,33,10.5286285,55.2397837
1963623,Stenager,5856,34,10.5298219,55.2414827
1963624,Stenager,5856,35,10.5287438,55.2397692
1963625,Stenager,5856,36,10.529523,55.241285
1963626,Stenager,5856,37,10.5288945,55.2397498
1963627,Stenager,5856,38,10.5297384,55.2412559
1963628,Stenager,5856,39,10.5290099,55.239736
1963629,Stenager,5856,40,10.529416,55.2410417
1963630,Stenager,5856,41,10.5291291,55.2397217
1963631,Stenager,5856,42,10.5296352,55.2410137
1963632,Stenager,5856,43,10.5290699,55.2398636
1963633,Stenager,5856,44,10.5293188,55.2408028
1963634,Stenager,5856,45,10.5290959,55.2399286
1963635,Stenager,5856,46,10.5295463,55.2407764
1963636,Stenager,5856,47,10.5291205,55.2399987
1963637,Stenager,5856,48,10.5292225,55.2405382
1963638,Stenager,5856,49,10.5290015,55.2401403
1963639,Stenager,5856,50,10.5294377,55.2405144
1963640,Stenager,5856,51,10.5291126,55.2401287
1963641,Stenager,5856,53,10.5292328,55.2401127
1963901,Hestehavevej,5856,1A,10.5360806,55.2427447
1963902,Hestehavevej,5856,1B,10.5362327,55.2427112
1963903,Hestehavevej,5856,2,10.5371187,55.2428731
1963905,Hestehavevej,5856,3,10.536602,55.242631
1963906,Hestehavevej,5856,4,10.5368824,55.2426172
1963908,Hestehavevej,5856,5,10.5365594,55.2425462
1963909,Hestehavevej,5856,6,10.5367907,55.2424788
1963910,Hestehavevej,5856,7,10.5364764,55.2424753
1963911,Hestehavevej,5856,8,10.5371854,55.2417912
1963912,Hestehavevej,5856,9,10.5364077,55.2423103
1963914,Hestehavevej,5856,11,10.5362533,55.2421744
1963915,Hestehavevej,5856,13,10.5363051,55.2419829
1963917,Hestehavevej,5856,14,10.5364435,55.2413089
1963918,Hestehavevej,5856,15,10.5362626,55.2418434
1963919,Hestehavevej,5856,16,10.5363655,55.2411324
1963921,Hestehavevej,5856,17,10.5362302,55.2416968
1963922,Hestehavevej,5856,18,10.5363733,55.2409931
1963924,Hestehavevej,5856,20,10.5363414,55.2408541
1963926,Hestehavevej,5856,21,10.535837,55.241079
1963928,Hestehavevej,5856,22,10.5363088,55.2405933
1963929,Hestehavevej,5856,24,10.5362009,55.2401664
1963931,Hestehavevej,5856,25,10.5358451,55.2406943
1963933,Hestehavevej,5856,27,10.5354889,55.2405014
1963936,Hestehavevej,5856,28,10.5361057,55.2398214
1963937,Hestehavevej,5856,30,10.5360333,55.2396354
1963939,Hestehavevej,5856,31,10.5357051,55.2402883
1963940,Hestehavevej,5856,32,10.5360107,55.2394293
1963942,Hestehavevej,5856,33,10.5357639,55.2400724
1963944,Hestehavevej,5856,34,10.5359481,55.2391631
1963945,Hestehavevej,5856,35,10.5357359,55.2399357
1963947,Hestehavevej,5856,36,10.5359124,55.2389999
1963948,Hestehavevej,5856,37,10.5357002,55.2397778
1963949,Hestehavevej,5856,38,10.5353581,55.235955
1963951,Hestehavevej,5856,39,10.535404,55.239311
1963952,Hestehavevej,5856,40,10.5344655,55.2331827
1963954,Hestehavevej,5856,41,10.5337525,55.2393489
1963955,Hestehavevej,5856,42,10.5344951,55.2329305
1963957,Hestehavevej,5856,44,10.5341764,55.2327353
1963958,Hestehavevej,5856,45,10.5342253,55.2355899
1963959,Hestehavevej,5856,46,10.5342086,55.232596
1963960,Hestehavevej,5856,47,10.534275,55.2349934
1963962,Hestehavevej,5856,49,10.5338029,55.2338772
1963964,Hestehavevej,5856,51,10.5340727,55.2335706
1963965,Hestehavevej,5856,53,10.5339352,55.2332597
1964219,Skæretvej,5856,1,10.5381923,55.228884
1964223,Skæretvej,5856,2,10.5384557,55.2292194
1964227,Skæretvej,5856,3,10.5392992,55.2289003
1964228,Skæretvej,5856,4,10.5384482,55.2294521
1964231,Skæretvej,5856,5A,10.5428613,55.2287278
1964233,Skæretvej,5856,6,10.5388632,55.2295597
1964236,Skæretvej,5856,7,10.5433208,55.2296081
1964237,Skæretvej,5856,8,10.5389097,55.2292176
1964238,Skæretvej,5856,9,10.5478251,55.2304726
1964239,Skæretvej,5856,10,10.5393074,55.2292991
1964240,Skæretvej,5856,11,10.549496,55.2308384
1964241,Skæretvej,5856,12,10.5392309,55.2294664
1964242,Skæretvej,5856,13,10.5510253,55.2313567
1964243,Skæretvej,5856,14,10.5395751,55.2295834
1964244,Skæretvej,5856,15,10.5556785,55.2302989
1964245,Skæretvej,5856,16,10.5398551,55.2293225
1964246,Skæretvej,5856,17,10.5562779,55.2321552
1964247,Skæretvej,5856,18,10.5402665,55.2293973
1964248,Skæretvej,5856,19,10.5582113,55.230424
1964249,Skæretvej,5856,20,10.5423106,55.2298304
1964250,Skæretvej,5856,21,10.5582092,55.2322932
1964251,Skæretvej,5856,22,10.5430516,55.22994
1964252,Skæretvej,5856,23,10.558559,55.232311
1964253,Skæretvej,5856,24,10.5455527,55.2302678
1964254,Skæretvej,5856,25,10.5588247,55.2323796
1964255,Skæretvej,5856,26,10.5464501,55.2305292
1964258,Skæretvej,5856,27,10.5590918,55.2323862
1964260,Skæretvej,5856,28,10.547689,55.2306348
1964263,Skæretvej,5856,29,10.559387,55.2323992
1964265,Skæretvej,5856,31,10.56046,55.232379
1964273,Skæretvej,5856,32A,10.550085,55.235389
1964278,Skæretvej,5856,32B,10.549678,55.235249
1964283,Skæretvej,5856,33,10.5633859,55.2332407
1964291,Skæretvej,5856,34,10.554953,55.234885
1964296,Skæretvej,5856,36,10.5547051,55.2353283
1964302,Skæretvej,5856,38,10.5532173,55.2373513
1964305,Skæretvej,5856,40,10.5607591,55.233047
1964311,Skæretvej,5856,42,10.5638324,55.2339778
1964319,Skæretvej,5856,44,10.5647416,55.2340132
1970191,Leragervej,5856,1,10.5306891,55.2414966
1970193,Leragervej,5856,2,10.5306308,55.2392236
1970195,Leragervej,5856,3,10.5306656,55.2412994
1970196,Leragervej,5856,4,10.5309719,55.2391211
1970202,Leragervej,5856,5,10.5305663,55.241097
1970204,Leragervej,5856,6,10.5313683,55.2390912
1970206,Leragervej,5856,7,10.5305481,55.2408117
1970211,Leragervej,5856,8,10.5317376,55.2390752
1970213,Leragervej,5856,9,10.5304246,55.2406411
1970216,Leragervej,5856,10,10.5323784,55.2388276
1970219,Leragervej,5856,11,10.5304085,55.2403006
1970222,Leragervej,5856,13,10.5302724,55.2397864
1970225,Leragervej,5856,15,10.5301244,55.2392511
1970229,Leragervej,5856,17,10.5298397,55.2388284
1970231,Leragervej,5856,19,10.5303951,55.2388019
1970233,Leragervej,5856,21,10.5307801,55.2388414
1970236,Leragervej,5856,23,10.53113,55.2387963
1970240,Leragervej,5856,25,10.531647,55.23877
1970475,Vesterled,5856,1,10.5341116,55.2406437
1970476,Vesterled,5856,2,10.534225,55.2406372
1970477,Vesterled,5856,3,10.534334,55.2406328
1970478,Vesterled,5856,4,10.534441,55.2406299
1970479,Vesterled,5856,5,10.5345568,55.2406235
1970482,Vesterled,5856,6,10.5346794,55.2406204
1970483,Vesterled,5856,7,10.5348248,55.2406105
1970486,Vesterled,5856,8,10.5350133,55.2406016
1970488,Vesterled,5856,9,10.5347321,55.2404038
1970490,Vesterled,5856,10,10.534851,55.2404037
1970492,Vesterled,5856,11,10.5349904,55.2404067
1970494,Vesterled,5856,12,10.5351036,55.2404061
1970495,Vesterled,5856,13,10.5347252,55.2402672
1970499,Vesterled,5856,14,10.5348629,55.2402666
1970500,Vesterled,5856,15,10.534988,55.240265
1970504,Vesterled,5856,16,10.535116,55.2402671
1970507,Vesterled,5856,17,10.534396,55.240314
1970847,Blaakærvej,5856,1,10.536697,55.2430998
1970848,Blaakærvej,5856,2,10.5362951,55.2429285
1970851,Blaakærvej,5856,3,10.536452,55.243086
1970852,Blaakærvej,5856,4,10.535908,55.2429907
1970855,Blaakærvej,5856,5A,10.536237,55.24313
1970856,Blaakærvej,5856,5B,10.536125,55.243157
1970858,Blaakærvej,5856,6,10.53572,55.243086
1970860,Blaakærvej,5856,7,10.535634,55.243334
1970862,Blaakærvej,5856,8,10.5354277,55.2431821
1970864,Blaakærvej,5856,10,10.5351223,55.2432722
1970865,Blaakærvej,5856,11,10.5344929,55.2436139
1970870,Blaakærvej,5856,12,10.5334399,55.2433569
1970874,Blaakærvej,5856,14,10.5331879,55.2434118
1970876,Blaakærvej,5856,14A,10.5259273,55.2442563
1970879,Blaakærvej,5856,16,10.5238561,55.2452473
1970880,Blaakærvej,5856,18,10.5230103,55.2452558
1971140,Violvænget,5856,1,10.5345058,55.2372083
1971141,Violvænget,5856,2,10.533976,55.2372273
1971143,Violvænget,5856,3,10.53458,55.2374613
1971144,Violvænget,5856,4,10.533977,55.237498
1971145,Violvænget,5856,5,10.5345682,55.2377545
1971146,Violvænget,5856,5A,10.5346077,55.2379301
1971148,Violvænget,5856,5B,10.534752,55.238303
1971149,Violvænget,5856,5C,10.5351082,55.2383749
1971150,Violvænget,5856,5D,10.53508,55.238142
1971151,Violvænget,5856,5E,10.5346431,55.2381706
1971154,Violvænget,5856,6,10.5340148,55.23773
1971156,Violvænget,5856,7,10.5347032,55.2385631
1971158,Violvænget,5856,8,10.5341275,55.2380273
1971159,Violvænget,5856,9A,10.5350232,55.2386612
1971161,Violvænget,5856,9B,10.5350086,55.2387612
1971162,Violvænget,5856,9C,10.5350696,55.2388559
1971165,Violvænget,5856,9D,10.5350943,55.2389359
1971166,Violvænget,5856,10,10.5341709,55.2382938
1971168,Violvænget,5856,12,10.534257,55.2385436
1971170,Violvænget,5856,14,10.5343472,55.2388028
1971171,Violvænget,5856,100,10.5343274,55.2379758
1971374,Nørremarksgyden,5856,1,10.5331047,55.2497696
1971378,Nørremarksgyden,5856,2,10.530098,55.247352
1971380,Nørremarksgyden,5856,3,10.5300095,55.2533141
1971382,Nørremarksgyden,5856,4,10.5276767,55.2476108
1971383,Nørremarksgyden,5856,5,10.5303372,55.2557591
1971388,Nørremarksgyden,5856,6,10.5301026,55.2478247
1971390,Nørremarksgyden,5856,7,10.5299787,55.2565029
1971393,Nørremarksgyden,5856,8,10.5297021,55.248382
1971395,Nørremarksgyden,5856,9,10.5318411,55.2576516
1971397,Nørremarksgyden,5856,10,10.5298583,55.2487947
1971405,Nørremarksgyden,5856,12,10.5299136,55.2489786
1971410,Nørremarksgyden,5856,14,10.5299104,55.2492897
1971416,Nørremarksgyden,5856,16,10.5298121,55.2497807
1971421,Nørremarksgyden,5856,18,10.5298922,55.2500274
1971428,Nørremarksgyden,5856,20,10.52992,55.250761
1971433,Nørremarksgyden,5856,22,10.529708,55.2514731
1971439,Nørremarksgyden,5856,24,10.5297691,55.252022
1971489,Hesselhavevej,5856,1,10.5366778,55.2306829
1971490,Hesselhavevej,5856,3,10.5362937,55.2305307
1971491,Hesselhavevej,5856,4,10.5365008,55.2302856
1971492,Hesselhavevej,5856,5,10.5359085,55.2304428
1971493,Hesselhavevej,5856,6,10.5360792,55.2301481
1971494,Hesselhavevej,5856,7,10.5355109,55.230371
1971495,Hesselhavevej,5856,8,10.5352904,55.2300158
1971496,Hesselhavevej,5856,9,10.535208,55.2302658
1971497,Hesselhavevej,5856,10,10.5348322,55.2299282
1971498,Hesselhavevej,5856,11,10.5313988,55.2294276
1971499,Hesselhavevej,5856,12,10.5344779,55.2298973
1971500,Hesselhavevej,5856,14,10.5341405,55.2299036
1971501,Hesselhavevej,5856,16,10.533668,55.229951
1971502,Hesselhavevej,5856,18,10.5332095,55.2299612
1971503,Hesselhavevej,5856,20,10.5328591,55.2299405
1971504,Hesselhavevej,5856,22,10.5322727,55.2297294
1971547,Enebærvænget,5856,1,10.5317075,55.234057
1971551,Enebærvænget,5856,2,10.5323103,55.23453
1971553,Enebærvænget,5856,3A,10.531606,55.2337933
1971556,Enebærvænget,5856,3B,10.5314867,55.2338046
1971559,Enebærvænget,5856,3C,10.5313693,55.2338148
1971560,Enebærvænget,5856,3D,10.5312696,55.2338228
1971563,Enebærvænget,5856,4,10.5323215,55.2342721
1971564,Enebærvænget,5856,5A,10.5315326,55.2335252
1971566,Enebærvænget,5856,5B,10.5314152,55.2335366
1971569,Enebærvænget,5856,5C,10.5313038,55.2335479
1971570,Enebærvænget,5856,5D,10.531202,55.2335558
1971573,Enebærvænget,5856,6,10.5322861,55.234011
1971574,Enebærvænget,5856,8,10.5322051,55.2337343
1971577,Enebærvænget,5856,10,10.5321357,55.2334803
1972573,Luneskovvej,5856,1,10.5350561,55.2292702
1972574,Luneskovvej,5856,2,10.5348713,55.2290481
1972575,Luneskovvej,5856,3,10.5348793,55.2295094
1972576,Luneskovvej,5856,4,10.5345558,55.2291238
1972577,Luneskovvej,5856,5,10.5343817,55.2293945
1972578,Luneskovvej,5856,6,10.5341682,55.2291755
1972579,Luneskovvej,5856,7,10.5339959,55.2294862
1972580,Luneskovvej,5856,8,10.5337624,55.2292176
1972581,Luneskovvej,5856,9,10.533656,55.2294949
1972582,Luneskovvej,5856,10,10.5333877,55.2292231
1972583,Luneskovvej,5856,11,10.5331991,55.2295968
1972586,Luneskovvej,5856,12,10.5329749,55.2293353
1972587,Luneskovvej,5856,13,10.5327853,55.2296143
1972589,Luneskovvej,5856,14,10.5325681,55.229385
1972590,Luneskovvej,5856,16,10.5320925,55.229465
1972819,Nygaardsvej,5856,2,10.5334542,55.2402768
1972820,Nygaardsvej,5856,3,10.533286,55.240537
1972821,Nygaardsvej,5856,4,10.5330447,55.240296
1972822,Nygaardsvej,5856,5,10.5329403,55.2405721
1972823,Nygaardsvej,5856,6,10.5326026,55.240306
1972824,Nygaardsvej,5856,7,10.5325904,55.2406301
1972825,Nygaardsvej,5856,8,10.532202,55.2402993
1972826,Nygaardsvej,5856,9,10.5322378,55.240588
1972827,Nygaardsvej,5856,10,10.5318337,55.2403221
1972828,Nygaardsvej,5856,11,10.5318998,55.2406352
1972829,Nygaardsvej,5856,12,10.531487,55.240348
1972830,Nygaardsvej,5856,13,10.5315914,55.2405971
1972831,Nygaardsvej,5856,14,10.531133,55.240335
1972832,Nygaardsvej,5856,15,10.5312998,55.2406076
1972833,Nygaardsvej,5856,16,10.5308713,55.2403534
1972834,Nygaardsvej,5856,17,10.5309828,55.2406795
1972942,Krokusvænget,5856,1,10.5278215,55.2377282
1972943,Krokusvænget,5856,2,10.5272042,55.2377214
1972944,Krokusvænget,5856,3,10.5278416,55.2379498
1972945,Krokusvænget,5856,4,10.5271921,55.2378163
1972946,Krokusvænget,5856,5,10.5279447,55.2382128
1972947,Krokusvænget,5856,6,10.5271769,55.2379269
1972948,Krokusvænget,5856,7,10.5279199,55.2384847
1972949,Krokusvænget,5856,8,10.5272105,55.2380517
1972950,Krokusvænget,5856,9,10.5279821,55.2386671
1972951,Krokusvænget,5856,10,10.5272404,55.2381682
1972952,Krokusvænget,5856,12,10.5272742,55.2383005
1972953,Krokusvænget,5856,14,10.527305,55.238418
1972954,Krokusvænget,5856,16,10.5273367,55.2385423
1972955,Krokusvænget,5856,18,10.5274062,55.2386436
1972956,Krokusvænget,5856,20,10.5274656,55.238724
1973021,Daugårdsvej,5856,1,10.564101,55.2360181
1973022,Daugårdsvej,5856,2,10.5634571,55.2361541
1973023,Daugårdsvej,5856,3,10.5647783,55.2360594
1973025,Daugårdsvej,5856,4,10.5636484,55.2361793
1973026,Daugårdsvej,5856,5,10.5655508,55.2362167
1973027,Daugårdsvej,5856,6,10.5638879,55.2362196
1973028,Daugårdsvej,5856,7,10.565855,55.2362174
1973031,Daugårdsvej,5856,8,10.5641074,55.236251
1973032,Daugårdsvej,5856,9,10.56618,55.2362413
1973034,Daugårdsvej,5856,10,10.5645106,55.2363672
1973035,Daugårdsvej,5856,11,10.5668349,55.2363934
1973037,Daugårdsvej,5856,12,10.5652008,55.236366
1973039,Daugårdsvej,5856,13,10.5780641,55.2343331
1973043,Daugårdsvej,5856,14,10.5712616,55.2388002
1973044,Daugårdsvej,5856,15,10.5811481,55.2356663
1973872,Bellisvænget,5856,1,10.5332287,55.237297
1973876,Bellisvænget,5856,2,10.5327099,55.2373009
1973881,Bellisvænget,5856,3,10.5332938,55.2375407
1973886,Bellisvænget,5856,4,10.5327543,55.2375353
1973888,Bellisvænget,5856,5,10.5333426,55.2378146
1973894,Bellisvænget,5856,6,10.5328517,55.237806
1973899,Bellisvænget,5856,7,10.5334992,55.2380394
1973903,Bellisvænget,5856,8,10.5328433,55.2380634
1973906,Bellisvænget,5856,9,10.5335458,55.2383034
1973910,Bellisvænget,5856,10,10.532987,55.238308
1973914,Bellisvænget,5856,11,10.5336108,55.2385649
1973921,Bellisvænget,5856,12,10.5330496,55.2385821
1973924,Bellisvænget,5856,13,10.5336191,55.2388116
1973927,Bellisvænget,5856,14,10.5331917,55.238804
1973971,Blåbærvænget,5856,1,10.533038,55.2344312
1973973,Blåbærvænget,5856,2,10.533536,55.2344112
1973974,Blåbærvænget,5856,3,10.5329809,55.2341621
1973976,Blåbærvænget,5856,4,10.5340681,55.2342983
1973977,Blåbærvænget,5856,5,10.5328595,55.2338497
1973982,Blåbærvænget,5856,6A,10.5334668,55.2337826
1973986,Blåbærvænget,5856,6B,10.5334889,55.2338962
1973988,Blåbærvænget,5856,7,10.5327765,55.233541
1973994,Blåbærvænget,5856,8A,10.5333246,55.2335917
1973995,Blåbærvænget,5856,8B,10.5334689,55.233578
1973998,Blåbærvænget,5856,9,10.5327201,55.2331908
1973999,Blåbærvænget,5856,10,10.5332465,55.2333716
1974061,Tvekildevej,5856,1,10.5340821,55.2423903
1974062,Tvekildevej,5856,3,10.5337178,55.2424346
1974063,Tvekildevej,5856,4,10.5337899,55.242108
1974064,Tvekildevej,5856,5,10.5338185,55.2427544
1974065,Tvekildevej,5856,5A,10.53386,55.242866
1974066,Tvekildevej,5856,5B,10.533997,55.242855
1974067,Tvekildevej,5856,5C,10.534127,55.242844
1974068,Tvekildevej,5856,5D,10.53392,55.24307
1974069,Tvekildevej,5856,5E,10.534053,55.24306
1974070,Tvekildevej,5856,5F,10.534185,55.243049
1974071,Tvekildevej,5856,5G,10.533835,55.243284
1974072,Tvekildevej,5856,5H,10.533968,55.243281
1974073,Tvekildevej,5856,5K,10.534102,55.243277
1974074,Tvekildevej,5856,5L,10.534236,55.243273
1974075,Tvekildevej,5856,9,10.5331646,55.2429139
1974076,Tvekildevej,5856,13A,10.5324904,55.2426571
1974077,Tvekildevej,5856,13B,10.5322462,55.2433542
1974078,Tvekildevej,5856,15,10.5316223,55.2434361
1974079,Tvekildevej,5856,17,10.5309563,55.243513
1974080,Tvekildevej,5856,19,10.5316154,55.2431637
1974081,Tvekildevej,5856,21,10.5316151,55.2428597
1974082,Tvekildevej,5856,23,10.5306204,55.242968
1974310,Kirkevænget,5856,1,10.5417885,55.2437472
1974313,Kirkevænget,5856,2,10.5419533,55.2439658
1974314,Kirkevænget,5856,3,10.5416187,55.2435459
1974315,Kirkevænget,5856,4,10.5421685,55.2437827
1974318,Kirkevænget,5856,5,10.5416537,55.2433932
1974319,Kirkevænget,5856,6,10.5422175,55.2436133
1974320,Kirkevænget,5856,7,10.5418314,55.2432812
1974322,Kirkevænget,5856,8,10.5422516,55.2434792
1974323,Kirkevænget,5856,10,10.5422749,55.2433409
1974325,Kirkevænget,5856,12,10.5422957,55.2431884
1974327,Kirkevænget,5856,14,10.5422263,55.2429926
1974328,Kirkevænget,5856,16,10.5425115,55.2429512
1974329,Kirkevænget,5856,18,10.5427288,55.2428864
1975387,Højskolevej,5856,1,10.5443211,55.2378561
1975388,Højskolevej,5856,1A,10.5404691,55.2425446
1975389,Højskolevej,5856,2,10.5404776,55.2430398
1975390,Højskolevej,5856,2A,10.541523,55.2428084
1975391,Højskolevej,5856,3,10.5414288,55.2366905
1975392,Højskolevej,5856,4,10.5423366,55.2422467
1975393,Højskolevej,5856,5,10.5429983,55.2353012
1975394,Højskolevej,5856,6,10.545491,55.236205
1975395,Højskolevej,5856,7,10.5449431,55.233384
1975396,Højskolevej,5856,8,10.5465837,55.2345942
1975397,Højskolevej,5856,9,10.5474229,55.2324966
1975398,Højskolevej,5856,10,10.550297,55.231429
1975407,Irisvænget,5856,1,10.5319898,55.2373893
1975410,Irisvænget,5856,2,10.5313925,55.2373973
1975411,Irisvænget,5856,3,10.5321071,55.2376066
1975412,Irisvænget,5856,4,10.5313963,55.2376234
1975414,Irisvænget,5856,5,10.5321131,55.2378622
1975415,Irisvænget,5856,6,10.5314761,55.2378304
1975417,Irisvænget,5856,7,10.5321852,55.2381151
1975420,Irisvænget,5856,8,10.5315182,55.2380677
1975421,Irisvænget,5856,9,10.5322402,55.2383474
1975424,Irisvænget,5856,10,10.5316252,55.2383126
1975426,Irisvænget,5856,11,10.5323308,55.2386039
1975429,Irisvænget,5856,12,10.5317104,55.2385136
1975529,Fjellerupvej,5856,5,10.5695822,55.2285509
1975531,Fjellerupvej,5856,7,10.5688018,55.2294603
1975534,Fjellerupvej,5856,9,10.568351,55.2300136
1975535,Fjellerupvej,5856,12,10.5719755,55.2280209
1975536,Fjellerupvej,5856,14,10.569147,55.2301763
1975682,Hybenvænget,5856,1,10.5325973,55.2369809
1975684,Hybenvænget,5856,2,10.5331329,55.2369393
1975686,Hybenvænget,5856,3,10.5325521,55.2367322
1975688,Hybenvænget,5856,4,10.5330559,55.2367228
1975689,Hybenvænget,5856,5,10.5325021,55.2365073
1975690,Hybenvænget,5856,6,10.5329983,55.2364986
1975691,Hybenvænget,5856,7,10.5324559,55.2363278
1975693,Hybenvænget,5856,8,10.5329338,55.2362773
1975696,Hybenvænget,5856,9,10.5324037,55.236126
1975698,Hybenvænget,5856,10,10.532894,55.236059
1975699,Hybenvænget,5856,11,10.5323933,55.2358833
1975702,Hybenvænget,5856,12,10.5328955,55.2358428
1976038,Snerlevænget,5856,1,10.5290842,55.2350841
1976039,Snerlevænget,5856,2,10.5284723,55.2351269
1976043,Snerlevænget,5856,3,10.5291195,55.2352096
1976047,Snerlevænget,5856,4,10.5285007,55.2352615
1976049,Snerlevænget,5856,5,10.5291612,55.2353527
1976052,Snerlevænget,5856,6,10.5285319,55.2354027
1976053,Snerlevænget,5856,7,10.5291917,55.2354798
1976056,Snerlevænget,5856,8,10.5285685,55.2355288
1976059,Snerlevænget,5856,9,10.529223,55.2356198
1976060,Snerlevænget,5856,10,10.5286008,55.2356629
1976063,Snerlevænget,5856,11,10.5292601,55.2357542
1976064,Snerlevænget,5856,12,10.5286376,55.2357952
1976224,Slåenvænget,5856,1,10.529922,55.2371376
1976226,Slåenvænget,5856,2,10.5305239,55.2371253
1976228,Slåenvænget,5856,3,10.5298689,55.2369272
1976229,Slåenvænget,5856,4,10.5304542,55.2369424
1976230,Slåenvænget,5856,5,10.5297862,55.2366147
1976231,Slåenvænget,5856,6,10.5303945,55.2367359
1976232,Slåenvænget,5856,7,10.5297237,55.2363386
1976233,Slåenvænget,5856,8,10.5303148,55.2365381
1976234,Slåenvænget,5856,9,10.5296867,55.2360755
1976235,Slåenvænget,5856,10,10.5302239,55.2362835
1976236,Slåenvænget,5856,12,10.5303153,55.23608
1976476,Hyldevænget,5856,1,10.5338265,55.2368846
1976480,Hyldevænget,5856,2,10.5344739,55.2368211
1976482,Hyldevænget,5856,3,10.5337726,55.2366218
1976485,Hyldevænget,5856,4,10.5343688,55.2366152
1976487,Hyldevænget,5856,5,10.5337028,55.236407
1976490,Hyldevænget,5856,6,10.5342526,55.236394
1976491,Hyldevænget,5856,7,10.5336587,55.2361923
1976493,Hyldevænget,5856,8,10.5342776,55.2361416
1976496,Hyldevænget,5856,9,10.5336021,55.2359833
1976498,Hyldevænget,5856,10,10.5341217,55.235924
1976501,Hyldevænget,5856,11,10.5335376,55.2357493
1976531,Gyvelvænget,5856,1,10.5313748,55.2370543
1976533,Gyvelvænget,5856,2,10.5318957,55.2370082
1976534,Gyvelvænget,5856,3,10.5312656,55.2368117
1976536,Gyvelvænget,5856,4,10.5317871,55.2368404
1976537,Gyvelvænget,5856,5,10.5311166,55.2365794
1976539,Gyvelvænget,5856,6,10.53171,55.2366222
1976541,Gyvelvænget,5856,7,10.5311156,55.2362991
1976542,Gyvelvænget,5856,8,10.5316506,55.2364138
1976543,Gyvelvænget,5856,9,10.5310711,55.2360066
1976544,Gyvelvænget,5856,10,10.5317537,55.2361825
1976546,Gyvelvænget,5856,12,10.531507,55.235986
1976839,Tyttebærvænget,5856,1,10.528903,55.234823
1976840,Tyttebærvænget,5856,2,10.5294282,55.234763
1976843,Tyttebærvænget,5856,3,10.5287727,55.2345602
1976849,Tyttebærvænget,5856,4,10.5293534,55.2345248
1976850,Tyttebærvænget,5856,5,10.5287027,55.2342868
1976855,Tyttebærvænget,5856,6,10.5292729,55.2342541
1976856,Tyttebærvænget,5856,7,10.52864,55.2340153
1976861,Tyttebærvænget,5856,8,10.5291671,55.2339988
1976863,Tyttebærvænget,5856,9,10.528575,55.2338061
1976866,Tyttebærvænget,5856,10,10.5290551,55.2337026
1977005,Syrenvænget,5856,1,10.528415,55.2372989
1977006,Syrenvænget,5856,2,10.5288916,55.2372701
1977007,Syrenvænget,5856,3,10.5283751,55.2370415
1977008,Syrenvænget,5856,4,10.5290011,55.2370639
1977009,Syrenvænget,5856,5,10.528292,55.2367861
1977010,Syrenvænget,5856,6,10.5289536,55.2368032
1977011,Syrenvænget,5856,7,10.5282557,55.236523
1977012,Syrenvænget,5856,8,10.528863,55.236555
1977013,Syrenvænget,5856,9,10.5281961,55.2362423
1977014,Syrenvænget,5856,10,10.5288077,55.2362879
1977021,Liljevænget,5856,1,10.5305136,55.237511
1977022,Liljevænget,5856,2,10.5299405,55.2375481
1977024,Liljevænget,5856,3,10.5305697,55.2377301
1977025,Liljevænget,5856,4,10.5300836,55.2377571
1977027,Liljevænget,5856,5,10.530627,55.237965
1977029,Liljevænget,5856,6,10.5301461,55.2379973
1977031,Liljevænget,5856,7,10.53084,55.2381914
1977033,Liljevænget,5856,8,10.5301986,55.2382798
1977034,Liljevænget,5856,9,10.5306846,55.2384881
1977036,Liljevænget,5856,10,10.5303559,55.238481
1977084,Kirkestien,5856,1,10.5377976,55.2422166
1977095,Kirkestien,5856,2,10.5371953,55.2424223
1977098,Kirkestien,5856,3,10.5381322,55.2422647
1977105,Kirkestien,5856,4,10.5373629,55.2424071
1977107,Kirkestien,5856,5,10.5385938,55.2423043
1977116,Kirkestien,5856,6,10.5376125,55.2425302
1977122,Kirkestien,5856,7,10.5390827,55.2423033
1977126,Kirkestien,5856,8,10.5379177,55.2424222
1977135,Kirkestien,5856,10,10.5381476,55.2424454
1977136,Kirkestien,5856,12,10.5384567,55.2424776
1977502,Erantisvænget,5856,1,10.5291307,55.2376191
1977504,Erantisvænget,5856,2,10.5286294,55.2376634
1977506,Erantisvænget,5856,3,10.529116,55.237867
1977507,Erantisvænget,5856,4,10.528581,55.2378884
1977510,Erantisvænget,5856,5,10.5292566,55.2381053
1977511,Erantisvænget,5856,6,10.5286207,55.238142
1977513,Erantisvænget,5856,7,10.5292553,55.2383668
1977515,Erantisvænget,5856,8,10.5287135,55.238385
1977516,Erantisvænget,5856,9,10.5293171,55.2385873
1977517,Erantisvænget,5856,10,10.5287877,55.2386052
1977782,Snebærvænget,5856,1,10.5302543,55.2346894
1977783,Snebærvænget,5856,3,10.5301397,55.2344268
1977784,Snebærvænget,5856,4,10.5306949,55.2338122
1977785,Snebærvænget,5856,5,10.5300676,55.2341608
1977786,Snebærvænget,5856,6,10.5304971,55.2335865
1977787,Snebærvænget,5856,7,10.5300153,55.2339141
1977788,Snebærvænget,5856,9A,10.5299049,55.233671
1977789,Snebærvænget,5856,9B,10.5297881,55.2336834
1977790,Snebærvænget,5856,9C,10.5296618,55.2336913
1977990,Sandbjergvej,5856,2,10.533382,55.240917
1977992,Sandbjergvej,5856,4,10.5329836,55.2409945
1977994,Sandbjergvej,5856,6,10.532611,55.2410301
1977995,Sandbjergvej,5856,8,10.5322285,55.241068
1977996,Sandbjergvej,5856,10,10.5318503,55.2410745
1977997,Sandbjergvej,5856,12,10.5315298,55.2410947
1977998,Sandbjergvej,5856,14,10.531149,55.2410711
1978414,Højskolen,5856,1,10.5396104,55.2423706
1978415,Højskolen,5856,2,10.5400381,55.2421126
1978416,Højskolen,5856,3,10.5404499,55.2413892
1978417,Højskolen,5856,5,10.5402125,55.241154
1978418,Højskolen,5856,6,10.5402766,55.24095
1978419,Højskolen,5856,7,10.540437,55.240683
1978420,Højskolen,5856,8,10.5404043,55.2404613
1978453,Dalshuse,5856,1,10.5540862,55.2442762
1978454,Dalshuse,5856,2,10.5549979,55.2445154
1978455,Dalshuse,5856,3,10.5557971,55.2441243
1978456,Dalshuse,5856,4,10.55491,55.244851
1978457,Dalshuse,5856,5,10.5584882,55.2440838
1978458,Dalshuse,5856,6,10.5562959,55.2446804
1978459,Dalshuse,5856,7,10.564008,55.2424
1978460,Dalshuse,5856,8,10.5567531,55.2443704
1978461,Dalshuse,5856,9,10.5661956,55.2410499
1979149,Kullerupvej,5856,3,10.581942,55.228713
1979151,Kullerupvej,5856,4,10.5870714,55.2303391
1979153,Kullerupvej,5856,5,10.588667,55.232532
1979155,Kullerupvej,5856,6,10.5892076,55.2320773
1979156,Kullerupvej,5856,8,10.592601,55.2333842
1979158,Kullerupvej,5856,10,10.5985104,55.232348
1979849,Primulavænget,5856,1,10.5277654,55.2353008
1979850,Primulavænget,5856,2,10.5271709,55.2353357
1979851,Primulavænget,5856,3,10.5277402,55.2355649
1979852,Primulavænget,5856,4,10.5272459,55.2356184
1979853,Primulavænget,5856,5,10.527879,55.235829
1979854,Primulavænget,5856,10,10.5271841,55.2358924
1979857,Primulavænget,5856,12,10.5272762,55.2358798
1980117,Brinken,5856,1,10.5354079,55.2298419
1980122,Brinken,5856,2,10.535955,55.229777
1980127,Brinken,5856,3,10.5353679,55.2296359
1980130,Brinken,5856,4,10.5358527,55.2295579
1980134,Brinken,5856,5,10.5347065,55.2288187
1980136,Brinken,5856,6,10.5354812,55.2289856
1980141,Brinken,5856,8,10.5353637,55.2287124
1980350,Skovkrogen,5856,1,10.5354958,55.2306991
1980352,Skovkrogen,5856,2,10.534602,55.230233
1980354,Skovkrogen,5856,3,10.5352478,55.2308745
1980356,Skovkrogen,5856,4,10.534499,55.23044
1980358,Skovkrogen,5856,6,10.534824,55.230513
1980361,Skovkrogen,5856,8,10.5350543,55.2306888
1980417,Nellikevænget,5856,1,10.5317132,55.2349455
1980419,Nellikevænget,5856,2,10.5312262,55.2350074
1980423,Nellikevænget,5856,3,10.531905,55.235193
1980427,Nellikevænget,5856,4,10.5312888,55.2352381
1980430,Nellikevænget,5856,5,10.5318648,55.235483
1980433,Nellikevænget,5856,6,10.5314534,55.2355046
1980497,Lupinvænget,5856,1,10.5303421,55.2350719
1980499,Lupinvænget,5856,2,10.529858,55.235108
1980502,Lupinvænget,5856,3,10.5304061,55.2353347
1980504,Lupinvænget,5856,4,10.5299229,55.235337
1980506,Lupinvænget,5856,5,10.5304915,55.2356313
1980511,Lupinvænget,5856,6,10.5300052,55.2355888
1981252,Valmuevænget,5856,1,10.533136,55.234821
1981253,Valmuevænget,5856,2,10.5326443,55.2348847
1981254,Valmuevænget,5856,3,10.533247,55.235009
1981255,Valmuevænget,5856,4,10.5326883,55.2351025
1981256,Valmuevænget,5856,6,10.5327221,55.2353268
1981328,Sønderlund,5856,1,10.564856,55.2357474
1981329,Sønderlund,5856,2,10.5666653,55.2361622
1981333,Sønderlund,5856,2A,10.5669749,55.2359861
1981336,Sønderlund,5856,3,10.5650358,55.235373
1981338,Sønderlund,5856,4,10.5677262,55.2357794
1981527,Skovlundsvej,5856,1,10.5366415,55.2294734
1981528,Skovlundsvej,5856,2,10.5366767,55.2291905
1981532,Skovlundsvej,5856,3,10.5362788,55.2294777
1981533,Skovlundsvej,5856,4,10.5362729,55.2291817
1981537,Skovlundsvej,5856,6,10.535695,55.2292397
1982158,Humlevænget,5856,1,10.5583935,55.2371283
1982160,Humlevænget,5856,2,10.5597367,55.2378469
1982161,Humlevænget,5856,4,10.5595991,55.2379437
1982162,Humlevænget,5856,6,10.559322,55.237698
1982163,Humlevænget,5856,8,10.5584756,55.2373502
1982710,Banevænget,5856,1,10.536008,55.2412649
1982712,Banevænget,5856,2,10.5351425,55.2410612
1982713,Banevænget,5856,4,10.5351825,55.240836
1982716,Banevænget,5856,5,10.535055,55.2413518
1982729,Ahornvænget,5856,1,10.5587981,55.2381204
1982730,Ahornvænget,5856,1A,10.558533,55.2380582
1982731,Ahornvænget,5856,3,10.5577427,55.2380003
1982732,Ahornvænget,5856,5,10.5567467,55.2379761
1982926,Sofienlundsvej,5856,1,10.5455151,55.2480875
1982930,Sofienlundsvej,5856,2A,10.5448616,55.2461768
1982934,Sofienlundsvej,5856,4,10.545087,55.2478096
1982939,Sofienlundsvej,5856,6,10.5450644,55.2481309
1982981,Rolighedsvænget,5856,1,10.53588,55.2424758
1982982,Rolighedsvænget,5856,3,10.5358264,55.2423216
1982984,Rolighedsvænget,5856,5,10.5358028,55.2421068
1983214,Ellehavevej,5856,1,10.52865,55.232347
1983217,Ellehavevej,5856,2,10.5287308,55.2308215
1983218,Ellehavevej,5856,4,10.5192185,55.238473
1983770,Christian Fabers Vej,5856,1,10.5367319,55.2396878
1983771,Christian Fabers Vej,5856,3,10.5371305,55.2396483
1984070,Glasbjergvej,5856,1,10.5432755,55.2440677
1984071,Glasbjergvej,5856,2,10.5436034,55.2434966
1984074,Glasbjergvej,5856,2A,10.5435983,55.2437247
1984075,Glasbjergvej,5856,3,10.543202,55.243357
1984076,Glasbjergvej,5856,4,10.5466688,55.2419511
2105424,Ærenlundsparken,5856,10,10.5307033,55.2343163
2177665,Maegaardsvej,5856,1,10.5348315,55.234309
2177669,Maegaardsvej,5856,2,10.535402,55.234826
2177670,Maegaardsvej,5856,3,10.5346436,55.2337455
2177672,Maegaardsvej,5856,4,10.5352603,55.2351314
2177674,Maegaardsvej,5856,5,10.5354309,55.2336931
2177676,Maegaardsvej,5856,6,10.5358109,55.2352194
2177678,Maegaardsvej,5856,7,10.5356989,55.2342488
2177680,Maegaardsvej,5856,8,10.5361542,55.234796
2177682,Maegaardsvej,5856,9,10.5361312,55.2342354
2177684,Maegaardsvej,5856,10,10.5368846,55.2349676
2177686,Maegaardsvej,5856,11,10.5362337,55.2337673
2177691,Maegaardsvej,5856,12,10.5367766,55.2352827
2177693,Maegaardsvej,5856,13,10.5369334,55.2339932
2177699,Maegaardsvej,5856,14,10.5375353,55.2355758
2177705,Maegaardsvej,5856,15,10.5368908,55.234419
2177706,Maegaardsvej,5856,16,10.5376531,55.2352241
2177709,Maegaardsvej,5856,17,10.5374932,55.2346161
2177710,Maegaardsvej,5856,19,10.5376478,55.2342286
2191933,Kløvmosevej,5856,9,10.5640195,55.234925
2232854,Aaskovvej,5856,18,10.537159,55.23067
2232869,Graabjergvej,5856,4B,10.5331278,55.2319625
2235366,Rødamsvej,5856,48,10.544303,55.245188
2235397,Hestehavevej,5856,26,10.5361603,55.2400229
2235501,Tvekildevej,5856,11A,10.532993,55.242506
2235545,Snebærvænget,5856,2,10.530671,55.234145
2235553,Højskolen,5856,4,10.540077,55.241333
2235570,Humlevænget,5856,6A,10.558647,55.237698
2235577,Sofienlundsvej,5856,2B,10.545108,55.246207
2235578,Sofienlundsvej,5856,2C,10.544828,55.245986
2235583,Ellehavevej,5856,2A,10.525969,55.236306
2237020,Ærenlundsparken,5856,2,10.531701,55.234318
2242777,Ellehavevej,5856,100,10.525797,55.232962
2244428,Graabjergvej,5856,2,10.5340801,55.2322581
2249151,Højholtvej,5856,11A,10.5634755,55.2371394
