idx,street,postcode,housenumber,lon,lat
948382,Ravningvej,6040,6,9.346411,55.658154
948383,Ravningvej,6040,11,9.3431867,55.6647718
948384,Ravningvej,6040,15,9.344475,55.667506
948385,Ravningvej,6040,17,9.344929,55.668053
1166409,Elkærholmvej,6040,2,9.4091957,55.5560376
1166412,Elkærholmvej,6040,3,9.4066822,55.5551139
1166414,Elkærholmvej,6040,4,9.4027011,55.5554658
1166416,Elkærholmvej,6040,4A,9.4026846,55.5555719
1166418,Elkærholmvej,6040,5,9.4023441,55.5551827
1166421,Elkærholmvej,6040,6,9.4024442,55.5556746
1166422,Elkærholmvej,6040,9,9.4019191,55.5542398
1166582,Koldingvej,6040,1,9.4017195,55.5677417
1166583,Koldingvej,6040,2,9.400937,55.567584
1166584,Koldingvej,6040,2A,9.3965667,55.5666889
1166585,Koldingvej,6040,2B,9.4006694,55.5670509
1166586,Koldingvej,6040,2C,9.400905,55.566757
1166587,Koldingvej,6040,2D,9.401107,55.566569
1166588,Koldingvej,6040,3,9.4016847,55.5675425
1166589,Koldingvej,6040,4,9.4013999,55.5670647
1166590,Koldingvej,6040,5,9.4017511,55.5673991
1166591,Koldingvej,6040,6,9.4016321,55.5668259
1166592,Koldingvej,6040,7,9.4018879,55.5672038
1166593,Koldingvej,6040,8,9.4018822,55.5666885
1166594,Koldingvej,6040,9,9.4020358,55.5669787
1166595,Koldingvej,6040,10,9.4021029,55.5664542
1166596,Koldingvej,6040,12,9.4023162,55.5663171
1166597,Koldingvej,6040,13,9.4026419,55.5664448
1166598,Koldingvej,6040,14,9.4025609,55.5661327
1166599,Koldingvej,6040,15,9.4028135,55.5663223
1166600,Koldingvej,6040,15A,9.403504,55.566509
1166601,Koldingvej,6040,16,9.4027424,55.5660405
1166602,Koldingvej,6040,17,9.4031098,55.5661997
1166603,Koldingvej,6040,18,9.403195,55.5656982
1166604,Koldingvej,6040,19,9.4034324,55.5661379
1166605,Koldingvej,6040,20,9.4034334,55.5655209
1166606,Koldingvej,6040,21,9.4034283,55.5659388
1166607,Koldingvej,6040,22,9.4037097,55.5653459
1166608,Koldingvej,6040,23,9.4036179,55.5658772
1166609,Koldingvej,6040,24,9.4039878,55.5652454
1166610,Koldingvej,6040,25,9.4040352,55.5657096
1166613,Koldingvej,6040,25A,9.4041376,55.565888
1166616,Koldingvej,6040,26,9.4044169,55.5650854
1166617,Koldingvej,6040,26A,9.4048138,55.5649458
1166620,Koldingvej,6040,27,9.4045732,55.5654788
1166622,Koldingvej,6040,28,9.4050083,55.5648007
1166623,Koldingvej,6040,29,9.4049752,55.5653138
1166626,Koldingvej,6040,30,9.4056084,55.5646404
1166627,Koldingvej,6040,30A,9.405125,55.564416
1166630,Koldingvej,6040,31,9.4052775,55.5649804
1166632,Koldingvej,6040,32,9.4058809,55.5645314
1166634,Koldingvej,6040,33,9.4055454,55.5648771
1166636,Koldingvej,6040,34,9.4062172,55.5644042
1166639,Koldingvej,6040,35,9.405839,55.564772
1166640,Koldingvej,6040,36,9.4065657,55.5641108
1166643,Koldingvej,6040,37,9.4062926,55.5646067
1166645,Koldingvej,6040,38,9.4062527,55.5638683
1166648,Koldingvej,6040,38A,9.4065106,55.5638201
1166650,Koldingvej,6040,38B,9.4063895,55.5638266
1166651,Koldingvej,6040,39,9.4066323,55.5645181
1166654,Koldingvej,6040,40,9.406399,55.563621
1166657,Koldingvej,6040,41,9.406924,55.564368
1166658,Koldingvej,6040,42,9.4066288,55.5634578
1166660,Koldingvej,6040,43,9.4069851,55.5640721
1166663,Koldingvej,6040,44,9.4065988,55.562576
1166664,Koldingvej,6040,45,9.4071083,55.56381
1166667,Koldingvej,6040,45C,9.407091,55.5630126
1166669,Koldingvej,6040,46,9.4067366,55.5622842
1166670,Koldingvej,6040,47,9.4073659,55.5621263
1166673,Koldingvej,6040,48,9.406795,55.562108
1166676,Koldingvej,6040,51,9.4076778,55.5614189
1166678,Koldingvej,6040,52,9.406687,55.5614172
1166680,Koldingvej,6040,53,9.4077403,55.5612838
1166682,Koldingvej,6040,54,9.4071843,55.5612093
1166685,Koldingvej,6040,55,9.407829,55.5610702
1166686,Koldingvej,6040,56,9.4072438,55.5610045
1166688,Koldingvej,6040,57,9.4079062,55.5608979
1166691,Koldingvej,6040,58,9.4073632,55.5607786
1166692,Koldingvej,6040,59,9.4079829,55.5607222
1166693,Koldingvej,6040,60,9.407743,55.559616
1166694,Koldingvej,6040,60A,9.4078889,55.5592366
1166695,Koldingvej,6040,61,9.4085545,55.5591759
1166696,Koldingvej,6040,61A,9.4091959,55.5579815
1166697,Koldingvej,6040,62,9.4080716,55.5589201
1166698,Koldingvej,6040,63,9.4130051,55.5562406
1166699,Koldingvej,6040,64,9.4084256,55.5576711
1166700,Koldingvej,6040,65,9.4180526,55.556757
1166701,Koldingvej,6040,67,9.4215754,55.5558527
1166702,Koldingvej,6040,69,9.4101527,55.5557457
1166703,Koldingvej,6040,71,9.4105599,55.5551046
1166704,Koldingvej,6040,72,9.4109718,55.5522517
1166705,Koldingvej,6040,73,9.41173,55.552598
1166706,Koldingvej,6040,74,9.4113782,55.5514299
1166707,Koldingvej,6040,75,9.4222676,55.5523026
1166708,Koldingvej,6040,77,9.4230953,55.5487039
1166709,Koldingvej,6040,79,9.4237128,55.5458059
1166710,Koldingvej,6040,79B,9.4252068,55.5459444
1166711,Koldingvej,6040,80,9.4120647,55.5500877
1166712,Koldingvej,6040,81,9.4203107,55.5471861
1166713,Koldingvej,6040,82,9.4126592,55.548711
1166714,Koldingvej,6040,83,9.414006,55.550484
1166715,Koldingvej,6040,84,9.4128645,55.5484343
1166716,Koldingvej,6040,85,9.414445,55.549173
1166717,Koldingvej,6040,86,9.4130072,55.5478966
1166718,Koldingvej,6040,87,9.413969,55.547589
1166719,Koldingvej,6040,88,9.4099103,55.5460753
1166720,Koldingvej,6040,89,9.4174224,55.5451022
1166721,Koldingvej,6040,90,9.4092295,55.5454152
1166722,Koldingvej,6040,91,9.4175117,55.5438661
1166723,Koldingvej,6040,92,9.4143493,55.544614
1166724,Koldingvej,6040,93,9.419125,55.544939
1166725,Koldingvej,6040,94,9.4144551,55.543843
1166726,Koldingvej,6040,95,9.4188289,55.546233
1166727,Koldingvej,6040,96,9.4096373,55.5418754
1166728,Koldingvej,6040,97,9.4191662,55.5429258
1166729,Koldingvej,6040,98,9.4067287,55.5418687
1166730,Koldingvej,6040,99,9.4189964,55.5420675
1166731,Koldingvej,6040,100,9.402875,55.540231
1166732,Koldingvej,6040,101,9.4196852,55.5403902
1166733,Koldingvej,6040,102,9.4145844,55.5428903
1166734,Koldingvej,6040,103,9.426723,55.5435964
1166735,Koldingvej,6040,104,9.4163622,55.5402036
1166736,Koldingvej,6040,105,9.4176405,55.5393294
1168301,Sparkærvej,6040,1,9.393758,55.5683086
1168304,Sparkærvej,6040,6,9.3849463,55.568821
1168306,Sparkærvej,6040,7,9.3857794,55.5651102
1168308,Sparkærvej,6040,8,9.382084,55.568381
1168310,Sparkærvej,6040,11,9.378052,55.564782
1168313,Sparkærvej,6040,12,9.3747682,55.5706287
1168314,Sparkærvej,6040,13,9.3748422,55.5664571
1168317,Sparkærvej,6040,14,9.3755557,55.5675133
1168318,Sparkærvej,6040,15,9.3757846,55.5646732
1168320,Sparkærvej,6040,17,9.370414,55.562342
1168323,Sparkærvej,6040,18,9.37021,55.569358
1168325,Sparkærvej,6040,21,9.3680997,55.5646629
1168327,Sparkærvej,6040,22,9.3669592,55.5686977
1168328,Sparkærvej,6040,23,9.3671321,55.5637551
1168329,Sparkærvej,6040,24,9.3626975,55.5665799
1168330,Sparkærvej,6040,25,9.365562,55.56523
1168331,Sparkærvej,6040,27,9.3617631,55.5619927
1168332,Sparkærvej,6040,32,9.356026,55.565607
1168333,Sparkærvej,6040,33,9.354627,55.564113
1580414,Rugbjergvej,6040,1,9.43115,55.5993931
1580415,Rugbjergvej,6040,1A,9.431621,55.598868
1580416,Rugbjergvej,6040,3,9.4311174,55.5997609
1580417,Rugbjergvej,6040,5,9.4307967,55.5998442
1580418,Rugbjergvej,6040,7,9.4308978,55.5999506
1580419,Rugbjergvej,6040,11A,9.43553,55.59771
1580420,Bramdrupvej,6040,1,9.4281736,55.6038561
1580421,Bramdrupvej,6040,2,9.4277579,55.6038604
1580422,Bramdrupvej,6040,3,9.428302,55.6037355
1580423,Bramdrupvej,6040,4,9.4282456,55.6033307
1580424,Bramdrupvej,6040,5,9.428483,55.603564
1580425,Bramdrupvej,6040,5B,9.428619,55.603526
1580426,Bramdrupvej,6040,6,9.4280823,55.6030608
1580427,Bramdrupvej,6040,6A,9.428013,55.602757
1580428,Bramdrupvej,6040,8A,9.4281821,55.6028347
1580429,Bramdrupvej,6040,8B,9.4282862,55.6028166
1580430,Bramdrupvej,6040,8C,9.4283077,55.6027854
1580431,Bramdrupvej,6040,8D,9.4283113,55.6027498
1580432,Bramdrupvej,6040,8E,9.4283197,55.6027281
1580433,Bramdrupvej,6040,9A,9.428646,55.6027049
1580434,Bramdrupvej,6040,9B,9.4287205,55.6026582
1580435,Bramdrupvej,6040,9C,9.4288553,55.6026621
1580436,Bramdrupvej,6040,10,9.4283356,55.6025836
1580437,Bramdrupvej,6040,10A,9.428333,55.60263
1580438,Bramdrupvej,6040,10B,9.428356,55.602585
1580439,Bramdrupvej,6040,10C,9.4283627,55.6025481
1580440,Bramdrupvej,6040,11,9.4286613,55.6024774
1580441,Bramdrupvej,6040,11A,9.4286865,55.6023987
1580442,Bramdrupvej,6040,12,9.4283577,55.6024192
1580443,Bramdrupvej,6040,13,9.4287192,55.6022592
1580444,Bramdrupvej,6040,14,9.4284064,55.6023152
1580445,Bramdrupvej,6040,15,9.4287265,55.6021437
1580446,Bramdrupvej,6040,16,9.4284226,55.6021773
1580447,Bramdrupvej,6040,17,9.4287819,55.6019012
1580448,Bramdrupvej,6040,18,9.428457,55.601933
1580449,Bramdrupvej,6040,19,9.4288108,55.6017116
1580450,Bramdrupvej,6040,20,9.4285104,55.6016991
1580451,Bramdrupvej,6040,21,9.4288905,55.6012532
1580452,Bramdrupvej,6040,22,9.428535,55.6015572
1580453,Bramdrupvej,6040,23,9.4292254,55.6009351
1580454,Bramdrupvej,6040,24,9.4285582,55.6013914
1580455,Bramdrupvej,6040,25,9.4290136,55.6005935
1580456,Bramdrupvej,6040,26,9.4286022,55.6011554
1580457,Bramdrupvej,6040,27,9.4294094,55.5995012
1580458,Bramdrupvej,6040,28,9.428643,55.600778
1580459,Bramdrupvej,6040,32,9.4285915,55.600172
1580460,Bramdrupvej,6040,33,9.43,55.5991523
1580461,Bramdrupvej,6040,36,9.427948,55.599888
1580462,Bramdrupvej,6040,38,9.4252243,55.599653
1580463,Bramdrupvej,6040,40,9.428947,55.5992972
1580464,Bramdrupvej,6040,42,9.4288311,55.5989047
1580465,Bramdrupvej,6040,44,9.4284692,55.5986202
1580466,Bramdrupvej,6040,46,9.4290159,55.5986392
1580467,Bramdrupvej,6040,50,9.4290976,55.5983301
1580468,Bramdrupvej,6040,54,9.4292101,55.5978651
1580469,Bramdrupvej,6040,58,9.4293713,55.5972642
1580470,Bramdrupvej,6040,60,9.4297977,55.5970231
1580471,Bramdrupvej,6040,61,9.4298301,55.595095
1580472,Bramdrupvej,6040,68,9.4296286,55.5959323
1580473,Bramdrupvej,6040,70,9.4296227,55.5957262
1580474,Bramdrupvej,6040,71,9.4279057,55.593326
1580475,Bramdrupvej,6040,72,9.429585,55.595562
1580476,Bramdrupvej,6040,72A,9.4296,55.5955307
1580477,Bramdrupvej,6040,73,9.4277031,55.5931524
1580478,Bramdrupvej,6040,74,9.4295636,55.5954428
1580479,Bramdrupvej,6040,75,9.4284198,55.5932105
1580480,Bramdrupvej,6040,77,9.4272606,55.5927292
1580481,Bramdrupvej,6040,78,9.4295464,55.5951828
1580482,Bramdrupvej,6040,79,9.4268101,55.5922222
1580483,Bramdrupvej,6040,81,9.4266717,55.5919385
1580484,Bramdrupvej,6040,83,9.4269392,55.5917727
1580485,Bramdrupvej,6040,85,9.4266354,55.5914382
1580486,Bramdrupvej,6040,88,9.4274041,55.5932364
1580487,Bramdrupvej,6040,90,9.4270041,55.5929577
1580488,Bramdrupvej,6040,91,9.4268813,55.5911896
1580489,Bramdrupvej,6040,94,9.4265529,55.5924481
1580490,Bramdrupvej,6040,95,9.4265096,55.5908519
1580491,Bramdrupvej,6040,96,9.4263887,55.5921351
1580492,Bramdrupvej,6040,97,9.4264214,55.5906296
1580493,Bramdrupvej,6040,98,9.4262876,55.5918515
1580494,Bramdrupvej,6040,99,9.4261927,55.5903291
1580495,Bramdrupvej,6040,100,9.4261934,55.5916234
1580496,Bramdrupvej,6040,102,9.4261539,55.5914384
1580497,Bramdrupvej,6040,104,9.425789,55.5911767
1580498,Bramdrupvej,6040,105,9.4260301,55.5896259
1580499,Bramdrupvej,6040,106,9.4259519,55.5908169
1580500,Bramdrupvej,6040,107,9.4260383,55.5891695
1580501,Bramdrupvej,6040,108,9.425924,55.5905106
1580502,Bramdrupvej,6040,109,9.4258778,55.5889449
1580503,Bramdrupvej,6040,110,9.42587,55.59026
1580504,Bramdrupvej,6040,111,9.4258491,55.5887821
1580505,Bramdrupvej,6040,112,9.4257659,55.5898661
1580506,Bramdrupvej,6040,112A,9.425656,55.589842
1580507,Bramdrupvej,6040,112B,9.425525,55.589838
1580508,Bramdrupvej,6040,112C,9.425543,55.589878
1580509,Bramdrupvej,6040,112D,9.42555,55.589912
1580510,Bramdrupvej,6040,113,9.4257527,55.58858
1580511,Bramdrupvej,6040,114,9.4255601,55.5896031
1580512,Bramdrupvej,6040,115,9.4257621,55.5883746
1580513,Bramdrupvej,6040,116,9.4255055,55.5894221
1580514,Bramdrupvej,6040,117,9.4257569,55.5882316
1580515,Bramdrupvej,6040,118,9.4254377,55.589183
1580516,Bramdrupvej,6040,119,9.4257771,55.5880751
1580517,Bramdrupvej,6040,120,9.4254926,55.5889637
1580518,Bramdrupvej,6040,121A,9.4259089,55.5877819
1580519,Bramdrupvej,6040,121B,9.4256614,55.5873605
1580520,Bramdrupvej,6040,122,9.424008,55.5889
1580521,Bramdrupvej,6040,123,9.4255401,55.5871459
1580522,Bramdrupvej,6040,123B,9.426018,55.586943
1580523,Bramdrupvej,6040,124,9.4254407,55.5886458
1580524,Bramdrupvej,6040,125,9.4254769,55.5866143
1580525,Bramdrupvej,6040,127,9.4251949,55.5863672
1580526,Bramdrupvej,6040,129,9.4251168,55.5862003
1580527,Bramdrupvej,6040,131,9.4249282,55.5861289
1580528,Bramdrupvej,6040,132,9.4251767,55.587185
1580529,Bramdrupvej,6040,133A,9.424865,55.585978
1580530,Bramdrupvej,6040,133B,9.4248643,55.5859026
1580531,Bramdrupvej,6040,134,9.4250826,55.5869386
1580532,Bramdrupvej,6040,134A,9.420488,55.5864885
1580533,Bramdrupvej,6040,135,9.4250783,55.5857637
1580534,Bramdrupvej,6040,136,9.4249728,55.5865781
1580535,Bramdrupvej,6040,138,9.4245743,55.5861119
1580536,Bramdrupvej,6040,139,9.4248124,55.5852491
1580537,Bramdrupvej,6040,140,9.4245095,55.5854614
1580538,Bramdrupvej,6040,141,9.4257684,55.5847049
1580539,Bramdrupvej,6040,142,9.4244869,55.5851207
1580540,Bramdrupvej,6040,143,9.4263389,55.5845009
1580541,Bramdrupvej,6040,145,9.4271186,55.584065
1580542,Bramdrupvej,6040,149,9.428029,55.583451
1580543,Bramdrupvej,6040,151,9.4293637,55.5823948
1580544,Bramdrupvej,6040,153,9.429885,55.582022
1580545,Bramdrupvej,6040,157,9.4303629,55.5810919
1580546,Bramdrupvej,6040,159,9.430768,55.5807941
1580547,Bramdrupvej,6040,161,9.431303,55.5802159
1666446,Bavnehøj,6040,1,9.4104185,55.5658108
1666447,Bavnehøj,6040,2,9.4097905,55.5657067
1666448,Bavnehøj,6040,3,9.4108701,55.5658503
1666449,Bavnehøj,6040,4,9.4093671,55.5657841
1666450,Bavnehøj,6040,5,9.4113077,55.5658096
1666451,Bavnehøj,6040,6,9.4092213,55.5656094
1666452,Bavnehøj,6040,7,9.4116975,55.5657391
1666453,Bavnehøj,6040,8,9.4094425,55.5655033
1666454,Bavnehøj,6040,9,9.4116072,55.5655911
1666455,Bavnehøj,6040,10,9.4097713,55.5654633
1666456,Bavnehøj,6040,11,9.4112222,55.5655696
1666457,Bavnehøj,6040,13,9.4108291,55.5655866
1666458,Bavnehøj,6040,14,9.408936,55.5642259
1666459,Bavnehøj,6040,15,9.4103509,55.5656082
1666460,Bavnehøj,6040,16,9.408272,55.5639994
1666461,Bavnehøj,6040,17,9.4102919,55.5652714
1666462,Bavnehøj,6040,18,9.408072,55.5639993
1666463,Bavnehøj,6040,19,9.4106982,55.565239
1666464,Bavnehøj,6040,20,9.4078642,55.5640473
1666465,Bavnehøj,6040,21,9.4111514,55.5651427
1666466,Bavnehøj,6040,22,9.4076497,55.5640488
1666467,Bavnehøj,6040,23,9.411488,55.565125
1666468,Bavnehøj,6040,24,9.4077288,55.5638888
1666469,Bavnehøj,6040,25,9.412192,55.5651817
1666470,Bavnehøj,6040,26,9.4078993,55.5638866
1666471,Bavnehøj,6040,27,9.412217,55.5654067
1666472,Bavnehøj,6040,28,9.4080834,55.5638417
1666473,Bavnehøj,6040,29,9.412173,55.5656394
1666474,Bavnehøj,6040,30,9.4082449,55.5638436
1666475,Bavnehøj,6040,31,9.4122646,55.5657657
1666476,Bavnehøj,6040,32,9.4083827,55.5637388
1666477,Bavnehøj,6040,33,9.4126132,55.5657883
1666478,Bavnehøj,6040,34,9.4084619,55.5637369
1666479,Bavnehøj,6040,35,9.4125861,55.5655886
1666480,Bavnehøj,6040,36,9.4085385,55.5637366
1666481,Bavnehøj,6040,37,9.4125498,55.5653776
1666482,Bavnehøj,6040,39,9.4125339,55.5651674
1666483,Bavnehøj,6040,41,9.4132692,55.5651476
1666484,Bavnehøj,6040,43,9.4132335,55.5653717
1666485,Bavnehøj,6040,45,9.4132501,55.5657161
1666486,Bavnehøj,6040,47,9.4135153,55.5647988
1666487,Bavnehøj,6040,49,9.4134667,55.5644423
1666488,Bavnehøj,6040,51,9.4134821,55.5641321
1666489,Bavnehøj,6040,53,9.4129776,55.5641433
1666490,Bavnehøj,6040,55,9.4131041,55.5643841
1666491,Bavnehøj,6040,57,9.4131313,55.5646071
1666492,Bavnehøj,6040,59,9.4131582,55.5647888
1666493,Bavnehøj,6040,61A,9.4127229,55.5648197
1666494,Bavnehøj,6040,61B,9.4124829,55.5648289
1666495,Bavnehøj,6040,63A,9.4127041,55.5645994
1666496,Bavnehøj,6040,63B,9.4124748,55.5646146
1666497,Bavnehøj,6040,65A,9.4126882,55.5643843
1666498,Bavnehøj,6040,65B,9.412496,55.5643809
1666499,Bavnehøj,6040,67A,9.412644,55.564117
1666500,Bavnehøj,6040,67B,9.4124136,55.5641287
1666501,Bavnehøj,6040,69,9.4120544,55.5641557
1666502,Bavnehøj,6040,71,9.4120884,55.5644063
1666503,Bavnehøj,6040,72,9.4099287,55.5605327
1666504,Bavnehøj,6040,73A,9.4120503,55.5645525
1666505,Bavnehøj,6040,73B,9.4120666,55.5646852
1666506,Bavnehøj,6040,74,9.4095978,55.5610928
1666507,Bavnehøj,6040,75,9.4120392,55.5648449
1666508,Bavnehøj,6040,77,9.411529,55.5649012
1666509,Bavnehøj,6040,79,9.4106863,55.5649373
1666510,Bavnehøj,6040,80,9.4095986,55.5616809
1666511,Bavnehøj,6040,81,9.410212,55.564938
1666512,Bavnehøj,6040,82,9.4099379,55.5617796
1666513,Bavnehøj,6040,83,9.410169,55.5646253
1666514,Bavnehøj,6040,84,9.4102471,55.5619244
1666515,Bavnehøj,6040,85,9.410621,55.5645298
1666516,Bavnehøj,6040,86,9.410106,55.5622112
1666517,Bavnehøj,6040,87,9.4115439,55.564535
1666518,Bavnehøj,6040,88,9.4098178,55.5622108
1666519,Bavnehøj,6040,89,9.4113868,55.5644012
1666520,Bavnehøj,6040,90,9.4095,55.5620971
1666521,Bavnehøj,6040,91,9.4114853,55.5641933
1666522,Bavnehøj,6040,92,9.4090572,55.5619924
1666523,Bavnehøj,6040,93,9.410946,55.564304
1666524,Bavnehøj,6040,95,9.4105837,55.5643198
1666525,Bavnehøj,6040,97,9.4102124,55.5643357
1666526,Bavnehøj,6040,99,9.4118458,55.5636653
1666527,Bavnehøj,6040,100,9.4087133,55.5615539
1666528,Bavnehøj,6040,101,9.411502,55.5637335
1666529,Bavnehøj,6040,102,9.4089488,55.5612896
1666530,Bavnehøj,6040,102A,9.4091091,55.5609707
1666531,Bavnehøj,6040,103,9.4115001,55.5639163
1666532,Bavnehøj,6040,105,9.4118911,55.5638987
1666533,Bavnehøj,6040,106,9.4089833,55.560499
1666534,Bavnehøj,6040,107,9.4122493,55.5638759
1666535,Bavnehøj,6040,108,9.4093704,55.560415
1666536,Bavnehøj,6040,109,9.4125865,55.5638539
1666537,Bavnehøj,6040,110,9.408377,55.560332
1666538,Bavnehøj,6040,110A,9.408161,55.560392
1666539,Bavnehøj,6040,111,9.4125369,55.5636179
1666540,Bavnehøj,6040,113,9.4122392,55.563637
1666541,Bavnehøj,6040,115A,9.4130583,55.5636422
1666542,Bavnehøj,6040,115B,9.4130719,55.5638104
1666543,Bavnehøj,6040,117A,9.413549,55.5637869
1666544,Bavnehøj,6040,117B,9.4136849,55.5635378
1666545,Bavnehøj,6040,119A,9.4137681,55.5633428
1666546,Bavnehøj,6040,119B,9.4132353,55.5633568
1666547,Bavnehøj,6040,121A,9.4128368,55.5633364
1666548,Bavnehøj,6040,121B,9.412363,55.5633666
1666549,Bavnehøj,6040,123A,9.4119683,55.5634009
1666550,Bavnehøj,6040,123B,9.4115776,55.5634433
1666551,Bavnehøj,6040,125,9.4111749,55.5634891
1666552,Bavnehøj,6040,127,9.4105123,55.563935
1666553,Bavnehøj,6040,129,9.410627,55.563927
1666554,Bavnehøj,6040,131,9.410925,55.563908
1666555,Bavnehøj,6040,133,9.4108964,55.5637267
1666556,Bavnehøj,6040,135,9.41059,55.563686
1666557,Bavnehøj,6040,137,9.410398,55.563689
1666558,Bavnehøj,6040,139,9.410227,55.563824
1666559,Bavnehøj,6040,141,9.410198,55.563933
1666560,Bavnehøj,6040,175,9.4111261,55.5622592
1666561,Bavnehøj,6040,177,9.4118268,55.5621141
1666562,Bavnehøj,6040,181,9.4119225,55.5616183
1666563,Bavnehøj,6040,201,9.4103595,55.560046
1666564,Bavnehøj,6040,201A,9.4108509,55.5596939
1666565,Bavnehøj,6040,203,9.4119275,55.5595624
1666566,Bavnehøj,6040,211,9.4113017,55.5591208
1666567,Bavnehøj,6040,213,9.410589,55.559198
1666568,Bavnehøj,6040,215,9.410039,55.559065
1666569,Bavnehøj,6040,223,9.4095072,55.5597087
1666570,Bavnehøj,6040,225,9.4090624,55.5598701
1666571,Donsvej,6040,1,9.401862,55.568304
1666572,Donsvej,6040,2,9.4019861,55.5678011
1666573,Donsvej,6040,3,9.4034981,55.5680678
1666574,Donsvej,6040,4,9.4023894,55.5678281
1666575,Donsvej,6040,4A,9.4026454,55.567551
1666576,Donsvej,6040,4C,9.40299,55.5674969
1666577,Donsvej,6040,4D,9.402852,55.567691
1666578,Donsvej,6040,5,9.40382,55.5680073
1666579,Donsvej,6040,6,9.4031771,55.567864
1666580,Donsvej,6040,7,9.4043713,55.567985
1666581,Donsvej,6040,8,9.4037157,55.5678488
1666582,Donsvej,6040,9,9.4048313,55.5679678
1666583,Donsvej,6040,10,9.4041928,55.5677614
1666584,Donsvej,6040,11,9.4050619,55.5679003
1666585,Donsvej,6040,12,9.4053715,55.5674796
1666586,Donsvej,6040,13,9.4052276,55.5678357
1666587,Donsvej,6040,14,9.4066157,55.5668557
1666588,Donsvej,6040,15,9.4054268,55.5677507
1666589,Donsvej,6040,16,9.4068477,55.5666663
1666590,Donsvej,6040,17,9.4058094,55.5676138
1666591,Donsvej,6040,17A,9.4064569,55.5672802
1666592,Donsvej,6040,18,9.4071254,55.5664843
1666593,Donsvej,6040,19,9.4077684,55.5675284
1666594,Donsvej,6040,20,9.4074634,55.5662643
1666595,Donsvej,6040,21,9.407355,55.5667888
1666596,Donsvej,6040,22,9.4077482,55.5661227
1666597,Donsvej,6040,23,9.4076614,55.5666812
1666598,Donsvej,6040,24,9.4086724,55.5661858
1666599,Donsvej,6040,25,9.407846,55.5665247
1666600,Donsvej,6040,26,9.4093748,55.5661104
1666601,Donsvej,6040,27,9.408182,55.5664888
1666602,Donsvej,6040,28,9.4097521,55.5660194
1666603,Donsvej,6040,29,9.4085799,55.5664581
1666604,Donsvej,6040,31,9.408883,55.5664456
1666605,Donsvej,6040,33,9.4091787,55.5664093
1666606,Donsvej,6040,35,9.4096474,55.5664656
1666607,Donsvej,6040,37,9.4100302,55.5663087
1666608,Donsvej,6040,39,9.4103703,55.5662666
1666609,Donsvej,6040,41,9.4107259,55.5662319
1666610,Donsvej,6040,43,9.4110733,55.5661998
1666611,Donsvej,6040,45,9.4114001,55.5661889
1666612,Donsvej,6040,47,9.411699,55.5661234
1666613,Donsvej,6040,51,9.4145742,55.5668435
1666614,Donsvej,6040,53,9.4166733,55.565638
1666615,Donsvej,6040,54,9.4208868,55.5620361
1666616,Donsvej,6040,55,9.4189255,55.5659827
1666617,Donsvej,6040,56,9.421548,55.56126
1666618,Donsvej,6040,57,9.4186251,55.5674944
1666619,Donsvej,6040,58,9.4185741,55.5651929
1666620,Donsvej,6040,59,9.4170108,55.5673821
1666621,Donsvej,6040,61,9.4187845,55.5695811
1666622,Donsvej,6040,63,9.4201628,55.5659171
1666623,Donsvej,6040,65,9.4208062,55.5658703
1666624,Donsvej,6040,69,9.4257825,55.5687557
1666625,Donsvej,6040,70,9.4226944,55.565922
1666626,Donsvej,6040,71,9.4229658,55.5661939
1666627,Donsvej,6040,73,9.4251479,55.5664935
1666628,Karensmindevej,6040,1,9.4062603,55.5666575
1666629,Karensmindevej,6040,2,9.405857,55.5664772
1666630,Karensmindevej,6040,3,9.4064677,55.5664749
1666631,Karensmindevej,6040,4,9.4060754,55.5663124
1666632,Karensmindevej,6040,5,9.4067497,55.5662533
1666633,Karensmindevej,6040,6,9.4062197,55.5661714
1666634,Karensmindevej,6040,7,9.4069962,55.5660867
1666635,Karensmindevej,6040,8,9.4064375,55.5660526
1666636,Karensmindevej,6040,9,9.4072089,55.5658921
1666637,Karensmindevej,6040,10,9.4069858,55.5656514
1666638,Karensmindevej,6040,11,9.4074542,55.5658071
1666639,Karensmindevej,6040,12,9.4072693,55.5654768
1666640,Karensmindevej,6040,13,9.407646,55.5656108
1666641,Karensmindevej,6040,14,9.4079047,55.5651681
1666642,Karensmindevej,6040,15,9.4084064,55.5657903
1666643,Karensmindevej,6040,16,9.4086151,55.5648237
1666644,Karensmindevej,6040,17,9.4081361,55.5654093
1666645,Karensmindevej,6040,18,9.408614,55.564752
1666646,Karensmindevej,6040,19,9.4085324,55.5652678
1666647,Karensmindevej,6040,20,9.4085994,55.5646792
1666648,Karensmindevej,6040,22,9.408638,55.564598
1666649,Karensmindevej,6040,24,9.4087572,55.5645906
1666650,Karensmindevej,6040,26,9.4088733,55.5645854
1666651,Karensmindevej,6040,28,9.4089764,55.5646747
1666652,Karensmindevej,6040,29,9.4092569,55.5649405
1666653,Karensmindevej,6040,30,9.4089828,55.5647422
1666654,Karensmindevej,6040,31,9.4092635,55.5650176
1666655,Karensmindevej,6040,32,9.4089216,55.5648549
1666656,Karensmindevej,6040,33,9.4092728,55.5650947
1666657,Karensmindevej,6040,34,9.4089251,55.564932
1666658,Karensmindevej,6040,35,9.4092736,55.5651669
1666659,Karensmindevej,6040,36,9.4089315,55.5649978
1666660,Ågårdvej,6040,1A,9.4041934,55.5661632
1666661,Ågårdvej,6040,1B,9.404461,55.566433
1666662,Ågårdvej,6040,1C,9.404157,55.56649
1666663,Ågårdvej,6040,1D,9.404032,55.566592
1666664,Ågårdvej,6040,1E,9.404294,55.566752
1666665,Ågårdvej,6040,1F,9.404538,55.566907
1666666,Ågårdvej,6040,1G,9.404702,55.56709
1666667,Ågårdvej,6040,1H,9.404926,55.567046
1666668,Ågårdvej,6040,1K,9.404547,55.566673
1666669,Ågårdvej,6040,1L,9.404783,55.566556
1666670,Ågårdvej,6040,2,9.4046407,55.5661824
1666671,Ågårdvej,6040,2A,9.4052788,55.5657402
1666672,Ågårdvej,6040,2B,9.4054605,55.5662003
1666673,Ågårdvej,6040,2C,9.404762,55.5660293
1666674,Ågårdvej,6040,3,9.4050465,55.5666866
1666675,Ågårdvej,6040,4,9.4052445,55.5664191
1666676,Ågårdvej,6040,5,9.4052937,55.5668417
1666677,Ågårdvej,6040,6,9.4055218,55.566621
1666678,Ågårdvej,6040,7,9.4054577,55.5669816
1666679,Ågårdvej,6040,8,9.4059619,55.5669146
1666680,Ågårdvej,6040,9,9.4057122,55.5673393
1666681,Ågårdvej,6040,10,9.406198,55.567106
1666682,Ågårdvej,6040,11,9.4062494,55.5680711
1666683,Ågårdvej,6040,11A,9.4059784,55.5679018
1666684,Ågårdvej,6040,12,9.4064304,55.5675347
1666685,Ågårdvej,6040,13,9.4064375,55.568272
1666686,Ågårdvej,6040,14,9.4066724,55.5678437
1666687,Ågårdvej,6040,15,9.4064609,55.5684561
1666688,Ågårdvej,6040,16,9.4068136,55.5679826
1666689,Ågårdvej,6040,18,9.4069166,55.5681232
1666690,Ågårdvej,6040,20,9.4074075,55.5682091
1666691,Ågårdvej,6040,22,9.407175,55.5686802
1666692,Ågårdvej,6040,22A,9.4075794,55.5685476
1666693,Ågårdvej,6040,23,9.4038486,55.5715186
1666694,Ågårdvej,6040,24,9.4077942,55.568765
1666695,Ågårdvej,6040,25,9.4032674,55.5718915
1666696,Ågårdvej,6040,26,9.4074015,55.5688157
1666697,Ågårdvej,6040,26A,9.4081296,55.5687333
1666698,Ågårdvej,6040,28,9.4092759,55.5698451
1666699,Ågårdvej,6040,31,9.4077551,55.5732413
1666700,Ågårdvej,6040,32,9.4103958,55.5732883
1666701,Ågårdvej,6040,35,9.4114017,55.5756364
1666702,Krohaven,6040,1,9.4024482,55.5667112
1666703,Krohaven,6040,1A,9.402729,55.56677
1666704,Krohaven,6040,2,9.4034714,55.5669648
1666705,Krohaven,6040,3,9.402364,55.5668029
1666706,Krohaven,6040,4,9.4037085,55.5668627
1666707,Krohaven,6040,5,9.402249,55.5669254
1666708,Krohaven,6040,6,9.4038411,55.5667997
1666709,Krohaven,6040,7,9.4027062,55.5668935
1666710,Krohaven,6040,9,9.4026155,55.5669612
1666711,Krohaven,6040,11,9.4025293,55.5670269
1666712,Krohaven,6040,13,9.4029584,55.5670342
1666713,Krohaven,6040,15,9.4028083,55.5671385
1666714,Krohaven,6040,17,9.4034928,55.5672119
1666715,Krohaven,6040,19,9.4032353,55.5672527
1666716,Krohaven,6040,21,9.4030773,55.5672638
1666717,Krohaven,6040,23,9.4038251,55.5671725
1666718,Rønne Alle,6040,1,9.4031758,55.5693304
1666719,Rønne Alle,6040,2,9.4032399,55.5690629
1666720,Rønne Alle,6040,3,9.4035237,55.5693842
1666721,Rønne Alle,6040,4,9.4035294,55.5690813
1666722,Rønne Alle,6040,5,9.4039559,55.5693956
1666723,Rønne Alle,6040,6,9.4039049,55.5691237
1666724,Rønne Alle,6040,7,9.404248,55.5694914
1666725,Rønne Alle,6040,8,9.4042323,55.5691844
1666726,Rønne Alle,6040,9,9.4044989,55.5696567
1666727,Rønne Alle,6040,10,9.404509,55.569292
1666728,Rønne Alle,6040,11,9.4048956,55.5697224
1666729,Rønne Alle,6040,12,9.4048168,55.5693954
1666730,Rønne Alle,6040,14,9.4050326,55.569553
1666731,Nytoft,6040,1,9.4026996,55.565565
1666732,Nytoft,6040,2,9.4023285,55.5656633
1666733,Nytoft,6040,3,9.40266,55.5652326
1666734,Nytoft,6040,4,9.4020584,55.5660122
1666735,Nytoft,6040,5,9.4022775,55.5653662
1666736,Nytoft,6040,7,9.4020279,55.5654883
1666737,Nytoft,6040,9,9.4017378,55.5656341
1666738,Nytoft,6040,11,9.401622,55.5659038
1666739,Nytoft,6040,13,9.4015266,55.5661033
1666740,Nytoft,6040,15,9.401393,55.5662941
1666741,Linde Alle,6040,1,9.4023315,55.5695609
1666742,Linde Alle,6040,2,9.402244,55.5698809
1666743,Linde Alle,6040,3,9.4024666,55.5693586
1666744,Linde Alle,6040,4,9.4020723,55.5701018
1666745,Linde Alle,6040,5,9.4025958,55.5690989
1666746,Linde Alle,6040,6,9.4020297,55.5703078
1666747,Linde Alle,6040,7,9.402215,55.569067
1666748,Linde Alle,6040,8,9.4017058,55.5701641
1666749,Linde Alle,6040,9,9.4020482,55.5692323
1666750,Linde Alle,6040,10,9.4016407,55.5699766
1666751,Linde Alle,6040,11,9.4019516,55.5694252
1666752,Linde Alle,6040,12,9.4018056,55.5697601
1666753,Linde Alle,6040,13,9.4013946,55.5693001
1666754,Linde Alle,6040,14,9.4010854,55.5696104
1666755,Linde Alle,6040,15,9.401479,55.5691493
1666756,Linde Alle,6040,16,9.4010141,55.5698299
1666757,Linde Alle,6040,17,9.4015319,55.5689422
1666758,Linde Alle,6040,18,9.4008947,55.5699578
1666759,Linde Alle,6040,20,9.4003592,55.5698051
1666760,Linde Alle,6040,22,9.3999745,55.569707
1666761,Linde Alle,6040,24,9.3995558,55.5696505
1666762,Linde Alle,6040,26,9.4000406,55.5695173
1666763,Linde Alle,6040,28,9.4005787,55.5695379
1666764,Linde Alle,6040,30,9.4003009,55.5693476
1666765,Linde Alle,6040,32,9.400821,55.5692486
1666766,Linde Alle,6040,34,9.4009909,55.5690419
1666767,Birke Alle,6040,1,9.4030553,55.5699169
1666768,Birke Alle,6040,2,9.4032916,55.5697201
1666769,Birke Alle,6040,3,9.4033618,55.5700144
1666770,Birke Alle,6040,4,9.4036386,55.5698322
1666771,Birke Alle,6040,5,9.4037118,55.5701464
1666772,Birke Alle,6040,6,9.4040039,55.5699391
1666773,Birke Alle,6040,7,9.4041026,55.5702388
1666774,Birke Alle,6040,8,9.4042492,55.5700642
1666775,Elme Alle,6040,1,9.4032482,55.5686387
1666776,Elme Alle,6040,2,9.4031409,55.5683516
1666777,Elme Alle,6040,3,9.4035592,55.5685999
1666778,Elme Alle,6040,4,9.4036596,55.5683549
1666779,Elme Alle,6040,5,9.4039852,55.5686473
1666780,Elme Alle,6040,6,9.4040698,55.5683562
1666781,Elme Alle,6040,7,9.4043457,55.5686746
1666782,Elme Alle,6040,8,9.4044714,55.5684191
1666783,Elme Alle,6040,9,9.4047213,55.5688083
1666784,Elme Alle,6040,10,9.40492,55.568449
1666785,Elme Alle,6040,11,9.4049666,55.568964
1666786,Elme Alle,6040,12,9.4053181,55.5686132
1666787,Elme Alle,6040,13,9.4052705,55.569093
1666788,Elme Alle,6040,14,9.4056657,55.5683251
1666789,Elme Alle,6040,15,9.4055814,55.5691749
1666790,Elme Alle,6040,16,9.405675,55.5687442
1666791,Elme Alle,6040,18,9.405806,55.569011
1666792,Ingridsvej,6040,1,9.4074844,55.5651386
1666793,Ingridsvej,6040,2,9.4070991,55.5653078
1666794,Ingridsvej,6040,3,9.4074604,55.5649299
1666795,Ingridsvej,6040,4,9.4068795,55.5651471
1666796,Ingridsvej,6040,5,9.407226,55.5647625
1666797,Ingridsvej,6040,6,9.4064773,55.5650879
1666798,Ingridsvej,6040,7,9.406821,55.5649093
1666799,Søvej,6040,1,9.4075105,55.5643387
1666800,Søvej,6040,3,9.4079157,55.5642588
1666801,Søvej,6040,5,9.4082861,55.5642387
1666802,Alleen,6040,1,9.4032279,55.5650833
1666803,Alleen,6040,2,9.4028383,55.5651944
1666804,Alleen,6040,3,9.4029947,55.5649372
1666805,Alleen,6040,5,9.4028943,55.5647186
1666806,Julianesvej,6040,1,9.406607,55.5655968
1666807,Julianesvej,6040,2,9.4063454,55.5657982
1666808,Julianesvej,6040,3,9.4063438,55.5654796
1666809,Julianesvej,6040,4,9.405965,55.5656334
1666810,Julianesvej,6040,5,9.4060588,55.5652702
1666811,Julianesvej,6040,6,9.4057057,55.5655183
1666812,Pile Alle,6040,1,9.4028937,55.5705349
1666813,Pile Alle,6040,2,9.4028739,55.5702653
1666814,Pile Alle,6040,3,9.4034702,55.5706394
1666815,Pile Alle,6040,4,9.4033091,55.5703658
1666816,Pile Alle,6040,6,9.4036996,55.5704992
1666817,Hestehaven,6040,1,9.4049168,55.5676417
1666818,Hestehaven,6040,2,9.4043515,55.5675242
1666819,Hestehaven,6040,3,9.404852,55.5674413
1666820,Hestehaven,6040,4,9.4043517,55.5673322
1666821,Hestehaven,6040,5,9.4046884,55.5672818
1666822,Hestehaven,6040,6,9.4041515,55.5671341
1666823,Hestehaven,6040,8,9.4042719,55.567074
1666824,Udsigten,6040,1,9.409391,55.566804
1666825,Udsigten,6040,2,9.4097682,55.5668791
1666826,Udsigten,6040,3,9.4085968,55.5668883
1666827,Udsigten,6040,4,9.4098522,55.5671255
1666828,Udsigten,6040,5,9.4085818,55.5668032
1666829,Udsigten,6040,6,9.410027,55.5672438
1666830,Udsigten,6040,7,9.4082008,55.5669781
1666831,Udsigten,6040,8,9.4095203,55.5671223
1666832,Udsigten,6040,9,9.4081546,55.566901
1666833,Udsigten,6040,10,9.4090867,55.567102
1666834,Udsigten,6040,11,9.4078361,55.5670885
1666835,Udsigten,6040,12,9.40877,55.567145
1666836,Udsigten,6040,13,9.4077814,55.5669955
1666837,Udsigten,6040,14,9.4084275,55.5672472
1666838,Udsigten,6040,16,9.4080699,55.5673452
1666839,Vester Nebelvej,6040,3,9.393252,55.572403
1666840,Vester Nebelvej,6040,4,9.3911031,55.5728446
1666841,Vester Nebelvej,6040,5,9.3953477,55.571486
1666842,Vester Nebelvej,6040,8,9.394239,55.571617
1666843,Vester Nebelvej,6040,9,9.396216,55.571376
1666844,Vester Nebelvej,6040,10,9.3968037,55.5702618
1666845,Krogen,6040,1,9.4037472,55.5675057
1666846,Krogen,6040,2,9.4034148,55.5677972
1666847,Krogen,6040,4,9.4034517,55.5675304
1666848,Idylen,6040,2,9.403233,55.564801
1666849,Idylen,6040,3,9.4037441,55.5647997
1666850,Idylen,6040,4,9.4035703,55.5646574
1666851,Stien,6040,2,9.4087581,55.565888
1666852,Stien,6040,4,9.4087799,55.5655646
1666853,Jordrupvej,6040,1,9.4043539,55.5645051
1666854,Jordrupvej,6040,2,9.4032487,55.5644025
1666855,Jordrupvej,6040,4,9.4026443,55.56362
1666856,Jordrupvej,6040,4A,9.4011931,55.5631764
1666857,Jordrupvej,6040,5,9.4036434,55.5641273
1666858,Jordrupvej,6040,6,9.3990217,55.5633556
1666859,Jordrupvej,6040,7,9.3949939,55.5620638
1666860,Jordrupvej,6040,9,9.3937681,55.5618221
1666861,Jordrupvej,6040,11,9.3899966,55.5605583
1666862,Jordrupvej,6040,12,9.3867589,55.5643409
1666863,Jordrupvej,6040,15,9.3855248,55.5595068
1666864,Jordrupvej,6040,17,9.3829327,55.5563372
1666865,Jordrupvej,6040,19,9.3797251,55.5578373
1666866,Jordrupvej,6040,20,9.3782328,55.5600156
1666867,Jordrupvej,6040,21,9.377647,55.5588724
1666868,Jordrupvej,6040,22,9.375193,55.559588
1666869,Jordrupvej,6040,24,9.373331,55.559933
1666870,Jordrupvej,6040,26,9.367915,55.562215
1666871,Jordrupvej,6040,27,9.368747,55.5574499
1666872,Jordrupvej,6040,28,9.3663196,55.5592354
1666904,Nørresø Alle,6040,2,9.412008,55.5587921
1666905,Nørresø Alle,6040,4,9.4122205,55.5587831
1666906,Nørresø Alle,6040,6,9.4124236,55.5587684
1666907,Nørresø Alle,6040,8,9.4126561,55.558754
1666908,Nørresø Alle,6040,10,9.412261,55.5589988
1666909,Nørresø Alle,6040,12,9.4124678,55.5589853
1666910,Nørresø Alle,6040,14,9.4126865,55.5589741
1666911,Nørresø Alle,6040,16,9.412947,55.5589564
1666912,Nørresø Alle,6040,18,9.4125106,55.5591841
1666913,Nørresø Alle,6040,20,9.4127173,55.5591706
1666914,Nørresø Alle,6040,22,9.4129132,55.5591575
1666915,Nørresø Alle,6040,24,9.4130609,55.559148
1666916,Nørresø Alle,6040,30,9.413782,55.559516
1666917,Nørresø Alle,6040,32,9.413502,55.559533
1666918,Nørresø Alle,6040,34,9.413117,55.559502
1666919,Nørresø Alle,6040,36,9.4129837,55.5593778
1666920,Nørresø Alle,6040,38,9.413263,55.559374
1666921,Nørresø Alle,6040,40,9.413599,55.559329
1666922,Nørresø Alle,6040,42,9.413902,55.559252
1666923,Nørresø Alle,6040,44,9.4134163,55.5591167
1666924,Nørresø Alle,6040,46,9.413774,55.55908
1666925,Nørresø Alle,6040,48,9.414109,55.559061
1666926,Nørresø Alle,6040,50,9.414243,55.559259
1666927,Nørresø Alle,6040,52,9.414166,55.559458
1666928,Nørresø Alle,6040,62,9.4151328,55.5590696
1666929,Nørresø Alle,6040,64,9.41505,55.559236
1666930,Nørresø Alle,6040,66,9.4149781,55.559402
1666931,Nørresø Alle,6040,68,9.414657,55.5594082
1666932,Nørresø Alle,6040,70,9.4146631,55.5592247
1666933,Nørresø Alle,6040,72,9.414718,55.5590504
1666934,Nørresø Alle,6040,74,9.4147568,55.5588848
1666935,Nørresø Alle,6040,76,9.414854,55.558724
1666936,Nørresø Alle,6040,78,9.414969,55.558538
1666937,Nørresø Alle,6040,80,9.4154745,55.5585168
1666938,Nørresø Alle,6040,82,9.4153379,55.5586958
1666939,Nørresø Alle,6040,84,9.4152448,55.5588722
1666940,Nørresø Alle,6040,101,9.4162199,55.5595732
1666941,Nørresø Alle,6040,102,9.4162606,55.559296
1666942,Nørresø Alle,6040,103,9.4161444,55.5597409
1666943,Nørresø Alle,6040,104,9.4164783,55.5590889
1666944,Nørresø Alle,6040,105,9.416174,55.559918
1666945,Nørresø Alle,6040,106,9.4164304,55.5588834
1666946,Nørresø Alle,6040,107,9.4160613,55.5602969
1666947,Nørresø Alle,6040,108,9.4165977,55.5586292
1666948,Nørresø Alle,6040,109,9.4161182,55.5604508
1666949,Nørresø Alle,6040,110,9.4169821,55.5585545
1666950,Nørresø Alle,6040,111,9.4160148,55.5605821
1666951,Nørresø Alle,6040,112,9.417151,55.558829
1666952,Nørresø Alle,6040,113,9.4159491,55.5608119
1666953,Nørresø Alle,6040,114,9.416985,55.559174
1666954,Nørresø Alle,6040,115,9.4159312,55.5609867
1666955,Nørresø Alle,6040,116,9.4168711,55.5593699
1666956,Nørresø Alle,6040,117,9.4160084,55.5611721
1666957,Nørresø Alle,6040,119,9.4159913,55.5613392
1666958,Nørresø Alle,6040,121,9.4159377,55.5615441
1666959,Nørresø Alle,6040,123,9.4159645,55.5617068
1666960,Nørresø Alle,6040,125,9.416607,55.561823
1666961,Nørresø Alle,6040,127,9.416557,55.561604
1666962,Nørresø Alle,6040,129,9.4167076,55.5613332
1666963,Nørresø Alle,6040,131,9.416764,55.561095
1666964,Nørresø Alle,6040,133,9.4167056,55.5608668
1666965,Nørresø Alle,6040,135,9.4168388,55.5606242
1666966,Nørresø Alle,6040,137,9.4167587,55.5603178
1666967,Nørresø Alle,6040,139,9.4169872,55.5598624
1666968,Nørresø Alle,6040,141,9.4168091,55.5596549
1666969,Spurvevej,6040,1,9.407511,55.560219
1666970,Spurvevej,6040,2,9.407265,55.5604815
1666971,Spurvevej,6040,3,9.4071319,55.5601183
1666972,Spurvevej,6040,4,9.4069102,55.5603571
1666973,Spurvevej,6040,6,9.405505,55.560135
1666974,Spurvevej,6040,7,9.4064877,55.5599619
1666975,Spurvevej,6040,8,9.405056,55.560047
1666976,Spurvevej,6040,9,9.4066677,55.5597647
1666977,Spurvevej,6040,10,9.404634,55.559861
1666978,Spurvevej,6040,11,9.4064102,55.5595698
1666979,Spurvevej,6040,12,9.404386,55.559627
1666980,Spurvevej,6040,13,9.4061335,55.5597941
1666981,Spurvevej,6040,14,9.404382,55.5594
1666982,Spurvevej,6040,15,9.406008,55.559997
1666983,Spurvevej,6040,16,9.4044346,55.559205
1666984,Spurvevej,6040,18,9.405218,55.559362
1666985,Spurvevej,6040,20,9.405637,55.559459
1666986,Spurvevej,6040,22,9.405358,55.559818
1666987,Dalvej,6040,1,9.4060373,55.5626019
1666988,Dalvej,6040,2,9.4062435,55.5628914
1666989,Dalvej,6040,3,9.4059288,55.5624253
1666990,Dalvej,6040,4,9.4059417,55.5629276
1666991,Dalvej,6040,5,9.4058945,55.5622139
1666992,Dalvej,6040,6,9.4054007,55.5630534
1666994,Dalvej,6040,8,9.4053831,55.5629275
1666995,Dalvej,6040,10,9.4053986,55.562693
1666998,Dalvej,6040,12,9.40549,55.562452
1667000,Dalvej,6040,14,9.4053672,55.5622543
1667006,Musvitvej,6040,1,9.4062529,55.560334
1667007,Musvitvej,6040,2,9.4065353,55.5606343
1667010,Musvitvej,6040,3,9.4061519,55.5605322
1667012,Musvitvej,6040,4,9.4064631,55.5608803
1667013,Musvitvej,6040,5,9.4058953,55.5607322
1667016,Musvitvej,6040,6,9.40653,55.56103
1667018,Musvitvej,6040,7,9.4055316,55.5606431
1667019,Musvitvej,6040,8,9.4059864,55.5610097
1667020,Musvitvej,6040,9,9.4051539,55.5605723
1667021,Musvitvej,6040,10,9.4055782,55.5609157
1667022,Musvitvej,6040,12,9.4050707,55.5607669
1667029,Sletmadevej,6040,2,9.3926286,55.5987598
1667030,Sletmadevej,6040,4,9.3906805,55.5976531
1667031,Sletmadevej,6040,5,9.3970965,55.5956053
1667032,Sletmadevej,6040,6,9.3917902,55.5961234
1667033,Sletmadevej,6040,7,9.3990396,55.5950414
1667036,Sletmadevej,6040,8,9.3804683,55.5936452
1667039,Sletmadevej,6040,9,9.392575,55.595479
1667042,Sletmadevej,6040,10,9.3868921,55.5926228
1667043,Sletmadevej,6040,12,9.386457,55.592001
1667044,Sletmadevej,6040,14,9.3825047,55.591674
1667045,Sletmadevej,6040,16,9.3912322,55.5907882
1667046,Sletmadevej,6040,18A,9.387669,55.587872
1667047,Sletmadevej,6040,18B,9.3880286,55.5880548
1667048,Sletmadevej,6040,20,9.394826,55.5871825
1667049,Sletmadevej,6040,21,9.3954196,55.588679
1667050,Sletmadevej,6040,22,9.397922,55.586011
1667051,Sletmadevej,6040,23,9.401513,55.5894693
1667052,Sletmadevej,6040,24,9.399758,55.5851077
1667053,Sletmadevej,6040,25,9.4028287,55.584119
1667055,Sletmadevej,6040,26,9.40173,55.583491
1667059,Sletmadevej,6040,29,9.4042867,55.5820498
1667061,Sletmadevej,6040,30,9.4059921,55.5815246
1667062,Sletmadevej,6040,31,9.4066157,55.5816836
1667063,Sletmadevej,6040,32,9.4074515,55.5811574
1667064,Sletmadevej,6040,34,9.4078948,55.5808307
1667065,Sletmadevej,6040,35,9.4092263,55.580326
1667066,Sletmadevej,6040,37,9.4100683,55.5799909
1667067,Sletmadevej,6040,38,9.4115959,55.579619
1667068,Sletmadevej,6040,40,9.4126726,55.5795336
1667073,Sletmadevej,6040,46,9.420812,55.579437
1667075,Sletmadevej,6040,48,9.4242864,55.5761241
1667080,Egtvedvej,6040,114,9.3651216,55.5752212
1667081,Egtvedvej,6040,118,9.3710826,55.5748201
1667082,Egtvedvej,6040,121,9.3788049,55.5776157
1667083,Egtvedvej,6040,122,9.377362,55.573425
1667084,Egtvedvej,6040,124,9.377503,55.5772529
1667085,Egtvedvej,6040,125,9.3841415,55.5764783
1667086,Egtvedvej,6040,126,9.3854995,55.5757801
1667087,Egtvedvej,6040,127,9.3882105,55.5799007
1667088,Egtvedvej,6040,129,9.3918429,55.576099
1667089,Egtvedvej,6040,135,9.3979438,55.5760211
1667090,Egtvedvej,6040,167,9.4228128,55.5710415
1667091,Brakker Stationsvej,6040,3,9.3899816,55.6016187
1667092,Brakker Stationsvej,6040,5,9.3883433,55.6009216
1667093,Brakker Stationsvej,6040,7,9.3927618,55.6016531
1667094,Brakker Stationsvej,6040,9,9.392395,55.603406
1667095,Brakker Stationsvej,6040,10,9.393859,55.603435
1667096,Brakker Stationsvej,6040,11,9.3880682,55.6041404
1667097,Brakker Stationsvej,6040,13,9.383346,55.602553
1667098,Brakker Stationsvej,6040,15,9.3813664,55.6007468
1667099,Brakker Stationsvej,6040,17,9.3918455,55.605263
1667100,Brakkervej,6040,7,9.4157433,55.6038258
1667101,Brakkervej,6040,8,9.415392,55.603317
1667102,Brakkervej,6040,9,9.4162815,55.6017944
1667103,Brakkervej,6040,11,9.4161204,55.6012484
1667104,Brakkervej,6040,13,9.405456,55.596713
1667105,Brakkervej,6040,14,9.4041353,55.5991592
1667106,Brakkervej,6040,16,9.4032442,55.5990586
1667107,Brakkervej,6040,18,9.402718,55.5993437
1667108,Brakkervej,6040,19,9.4004333,55.5986401
1667109,Brakkervej,6040,20,9.4009458,55.5991073
1667110,Brakkervej,6040,21,9.4026492,55.5972385
1667111,Brakkervej,6040,21A,9.3990444,55.5974008
1667112,Brakkervej,6040,22,9.399888,55.5997856
1667113,Brakkervej,6040,23,9.399019,55.596129
1667114,Brakkervej,6040,24,9.398668,55.5992799
1667115,Brakkervej,6040,25,9.40038,55.595596
1667116,Brakkervej,6040,28,9.395045,55.5997035
1667117,Brakkervej,6040,29,9.3957721,55.5997359
1667118,Brakkervej,6040,30,9.3939851,55.5992267
1667119,Brakkervej,6040,31,9.3953399,55.5996106
1667120,Brakkervej,6040,32,9.3929271,55.5989501
1667121,Brakkervej,6040,33,9.3949192,55.598705
1667122,Brakkervej,6040,34,9.3923123,55.5989706
1667123,Brakkervej,6040,35,9.3939286,55.5985949
1667124,Brakkervej,6040,36,9.3917617,55.5991088
1667125,Brakkervej,6040,39,9.3871963,55.5982248
1667126,Brakkervej,6040,40,9.3867725,55.5997945
1667127,Brakkervej,6040,41,9.384914,55.59842
1667128,Brakkervej,6040,43,9.3815544,55.5982338
1667129,Brakkervej,6040,46,9.376437,55.598563
1667130,Brakkervej,6040,49,9.373137,55.59807
1667131,Borlevvej,6040,1,9.4270925,55.6036789
1667132,Borlevvej,6040,3,9.4266491,55.6037814
1667133,Borlevvej,6040,5,9.4262785,55.6038628
1667134,Borlevvej,6040,7,9.42594,55.603931
1667135,Borlevvej,6040,11,9.4248983,55.604231
1667136,Borlevvej,6040,17,9.4238584,55.604429
1667137,Borlevvej,6040,27,9.4097375,55.6086409
1667138,Borlevvej,6040,29,9.406472,55.608876
1667139,Borlevvej,6040,32,9.395871,55.610593
1667140,Borlevvej,6040,34,9.3947015,55.6113728
1667141,Borlevvej,6040,35,9.3943414,55.610479
1667142,Borlevvej,6040,36,9.393203,55.612455
1667143,Borlevvej,6040,38,9.3915586,55.6117437
1667144,Borlevvej,6040,39,9.3862532,55.6086956
1667145,Borlevvej,6040,41,9.383675,55.608078
1667146,Borlevvej,6040,43,9.381675,55.607478
1667147,Borlevvej,6040,44,9.3775847,55.6075679
1667148,Borlevvej,6040,45,9.3776644,55.6060698
1667149,Borlevvej,6040,48,9.3741229,55.6036338
1667150,Borlevvej,6040,50,9.372515,55.603874
1667151,Borlevvej,6040,51,9.3721484,55.6013645
1667152,Borlevvej,6040,52,9.3718517,55.6042314
1667153,Borlevvej,6040,54,9.3695583,55.6029152
1667154,Borlevvej,6040,56,9.369792,55.605207
1667155,Borlevvej,6040,57,9.355139,55.602395
1667156,Borlevvej,6040,60,9.3598742,55.6048013
1667157,Borlevvej,6040,61,9.3555284,55.6055177
1667158,Borlevvej,6040,64,9.3559472,55.6071881
1667159,Egtvedvej,6040,2,9.314577,55.606587
1667160,Egtvedvej,6040,4,9.3160842,55.6069771
1667161,Egtvedvej,6040,6,9.317163,55.605896
1667162,Egtvedvej,6040,12,9.3188154,55.601109
1667163,Egtvedvej,6040,14,9.3199415,55.6014671
1667164,Egtvedvej,6040,16,9.321868,55.601183
1667165,Egtvedvej,6040,17,9.323233,55.600402
1667166,Egtvedvej,6040,18,9.3225059,55.6005237
1667167,Egtvedvej,6040,20,9.3231183,55.5991164
1667168,Egtvedvej,6040,20C,9.3208595,55.5973524
1667169,Egtvedvej,6040,20D,9.3186018,55.5968242
1667170,Egtvedvej,6040,20E,9.3178004,55.5963386
1667171,Egtvedvej,6040,20F,9.317394,55.595975
1667172,Egtvedvej,6040,22,9.317107,55.594996
1667173,Egtvedvej,6040,24,9.3241981,55.5982797
1667174,Egtvedvej,6040,26,9.3201573,55.594276
1667175,Egtvedvej,6040,27,9.327534,55.596149
1667176,Egtvedvej,6040,28,9.3258071,55.5962823
1667177,Egtvedvej,6040,29,9.3279388,55.5958579
1667178,Egtvedvej,6040,30,9.3279576,55.5953127
1667179,Egtvedvej,6040,31,9.3294685,55.5952259
1667180,Egtvedvej,6040,33,9.330774,55.594255
1667181,Egtvedvej,6040,34,9.3306245,55.5938332
1667182,Egtvedvej,6040,35,9.333119,55.595255
1667183,Egtvedvej,6040,37,9.334493,55.5973391
1667184,Egtvedvej,6040,37B,9.3363123,55.598651
1667185,Egtvedvej,6040,39,9.3383347,55.5995746
1667186,Egtvedvej,6040,45,9.333979,55.59228
1667187,Egtvedvej,6040,46,9.3343157,55.5913887
1667188,Egtvedvej,6040,47,9.3351387,55.5913872
1667189,Egtvedvej,6040,49,9.3359635,55.5910324
1667190,Egtvedvej,6040,50,9.3362454,55.5903391
1667191,Egtvedvej,6040,50B,9.336839,55.589811
1667192,Egtvedvej,6040,51,9.3380902,55.5898741
1667193,Egtvedvej,6040,52,9.3382052,55.5892958
1667194,Egtvedvej,6040,53,9.3395647,55.5894246
1667195,Egtvedvej,6040,56,9.3401884,55.5886123
1667196,Egtvedvej,6040,57,9.3404711,55.588861
1667197,Egtvedvej,6040,58,9.3408306,55.5885549
1667198,Egtvedvej,6040,59,9.3408523,55.5888638
1667199,Egtvedvej,6040,60,9.3412185,55.5885341
1667200,Egtvedvej,6040,61,9.341138,55.5888357
1667201,Egtvedvej,6040,62,9.3419511,55.5885083
1667202,Egtvedvej,6040,63,9.3415372,55.5888108
1667203,Egtvedvej,6040,64,9.3423203,55.5884926
1667204,Egtvedvej,6040,65,9.3419182,55.5888008
1667205,Egtvedvej,6040,66,9.3425976,55.5884888
1667206,Egtvedvej,6040,67,9.3424929,55.5888221
1667207,Egtvedvej,6040,68,9.3428967,55.5884084
1667208,Egtvedvej,6040,69,9.3435194,55.5889483
1667209,Egtvedvej,6040,70,9.343496,55.588352
1667210,Egtvedvej,6040,71,9.343781,55.5887652
1667211,Egtvedvej,6040,72,9.3452818,55.5883787
1667212,Egtvedvej,6040,73,9.3450031,55.5888873
1667213,Egtvedvej,6040,74,9.3455597,55.5884011
1667214,Egtvedvej,6040,75,9.3456186,55.5895824
1667215,Egtvedvej,6040,77,9.345995,55.588898
1667216,Egtvedvej,6040,79,9.348199,55.588863
1667217,Egtvedvej,6040,80,9.3498505,55.5880961
1667218,Egtvedvej,6040,80B,9.3515571,55.5877476
1667219,Egtvedvej,6040,81,9.351921,55.588433
1667220,Egtvedvej,6040,82,9.3531979,55.5875968
1667221,Egtvedvej,6040,84,9.3537643,55.587497
1667222,Egtvedvej,6040,85,9.354592,55.587752
1667223,Egtvedvej,6040,87,9.3552842,55.587508
1667224,Egtvedvej,6040,91,9.359447,55.58606
1667225,Egtvedvej,6040,93,9.3590737,55.5857377
1667226,Egtvedvej,6040,95,9.3605768,55.5851462
1667227,Egtvedvej,6040,97,9.361323,55.5843946
1667228,Egtvedvej,6040,99,9.3619269,55.5838768
1667229,Egtvedvej,6040,100,9.3587,55.583245
1667230,Egtvedvej,6040,101,9.362125,55.5836773
1667231,Egtvedvej,6040,102,9.361889,55.5834342
1667232,Egtvedvej,6040,104,9.3625788,55.5827818
1667233,Egtvedvej,6040,106,9.3630602,55.5819649
1667234,Egtvedvej,6040,108,9.361244,55.579737
1667235,Egtvedvej,6040,110,9.364021,55.579623
1667236,Egtvedvej,6040,111,9.368433,55.580374
1667237,Egtvedvej,6040,112,9.3687999,55.5792222
1667238,Egtvedvej,6040,112A,9.3638907,55.5753239
1667239,Egtvedvej,6040,113,9.374109,55.5786307
1667240,Egtvedvej,6040,115,9.3756846,55.5796455
1667241,Egtvedvej,6040,116,9.3741785,55.5778642
1667242,Egtvedvej,6040,120,9.376161,55.577667
1799594,Ribevej,6040,170,9.343776,55.62396
1799595,Ribevej,6040,178,9.333747,55.620693
1799596,Ribevej,6040,182,9.3263036,55.6216569
1799597,Ribevej,6040,186,9.319248,55.623486
1799598,Ribevej,6040,201,9.2767639,55.6145373
1799599,Ribevej,6040,204,9.2688559,55.6157984
1799600,Ribevej,6040,205,9.2703934,55.6130071
1799601,Ribevej,6040,214,9.2492243,55.6117284
1799602,Ribevej,6040,215,9.2513477,55.6107411
1799603,Ribevej,6040,216,9.247026,55.613304
1799604,Ribevej,6040,219,9.2468064,55.6097354
1799605,Ribevej,6040,223,9.2405643,55.6075542
1799606,Ribevej,6040,225,9.240697,55.606083
1799607,Ribevej,6040,235,9.225185,55.606211
1799608,Ribevej,6040,237,9.2248529,55.6073224
1799609,Ribevej,6040,238,9.2321477,55.6161671
1799610,Ribevej,6040,238A,9.2272278,55.612742
1799611,Ribevej,6040,239,9.2241175,55.6077824
1799612,Ribevej,6040,240,9.2237275,55.6083073
1838204,Søndergade,6040,1,9.3078824,55.6160443
1838207,Søndergade,6040,1A,9.307905,55.616099
1838210,Søndergade,6040,1B,9.307926,55.616082
1838213,Søndergade,6040,1C,9.307951,55.616067
1838217,Søndergade,6040,2,9.3073549,55.6161607
1838219,Søndergade,6040,2A,9.3072745,55.6161062
1838222,Søndergade,6040,2B,9.30737,55.616141
1838226,Søndergade,6040,3,9.3079589,55.6159851
1838228,Søndergade,6040,4,9.3075003,55.61604
1838232,Søndergade,6040,5,9.3080488,55.6159154
1838233,Søndergade,6040,6A,9.3077815,55.6158381
1838238,Søndergade,6040,6C,9.3077289,55.6158184
1838241,Søndergade,6040,7A,9.3081235,55.615841
1838243,Søndergade,6040,7B,9.308176,55.6158006
1838246,Søndergade,6040,7C,9.308277,55.615837
1838247,Søndergade,6040,8,9.3078827,55.6157438
1838249,Søndergade,6040,9,9.3082906,55.615722
1838251,Søndergade,6040,10A,9.3079885,55.6156689
1838253,Søndergade,6040,10B,9.3079339,55.6156467
1838256,Søndergade,6040,10C,9.3078674,55.6156247
1838257,Søndergade,6040,11,9.3083958,55.6156411
1838259,Søndergade,6040,12,9.3081659,55.615526
1838262,Søndergade,6040,13,9.3084808,55.6155737
1838263,Søndergade,6040,14,9.3083453,55.6153807
1838265,Søndergade,6040,15,9.3089458,55.6156397
1838266,Søndergade,6040,15A,9.3086133,55.6155104
1838267,Søndergade,6040,15B,9.3087101,55.6155514
1838269,Søndergade,6040,15C,9.3088248,55.6155973
1838270,Søndergade,6040,16,9.3085052,55.6152584
1838272,Søndergade,6040,17,9.3086926,55.6154102
1838274,Søndergade,6040,18,9.3086767,55.6151513
1838276,Søndergade,6040,18A,9.308621,55.6151279
1838278,Søndergade,6040,19,9.3087755,55.6153439
1838279,Søndergade,6040,20A,9.3085958,55.614928
1838280,Søndergade,6040,20B,9.3086996,55.6149277
1838282,Søndergade,6040,20C,9.3088142,55.6149704
1838283,Søndergade,6040,21,9.3089436,55.6152228
1838286,Søndergade,6040,22,9.3095047,55.6145111
1838288,Søndergade,6040,24,9.3096276,55.6144079
1838290,Søndergade,6040,25,9.3092569,55.6149907
1838291,Søndergade,6040,26,9.309697,55.6142849
1838293,Søndergade,6040,26B,9.3093481,55.6140376
1838296,Søndergade,6040,29,9.3096015,55.6147191
1838297,Søndergade,6040,31,9.3099083,55.6144865
1838300,Søndergade,6040,31A,9.3098491,55.6145213
1838302,Søndergade,6040,31B,9.3099235,55.6144487
1838303,Søndergade,6040,33,9.3100109,55.614371
1838306,Søndergade,6040,33A,9.310705,55.614463
1838307,Søndergade,6040,35,9.3101781,55.6141774
1838308,Søndergade,6040,35A,9.3107619,55.614312
1838310,Søndergade,6040,35B,9.313891,55.613254
1838312,Søndergade,6040,35C,9.311225,55.613944
1838313,Søndergade,6040,37A,9.310357,55.613524
1838315,Søndergade,6040,37B,9.310328,55.613606
1838318,Søndergade,6040,38,9.3110993,55.6116288
1838319,Søndergade,6040,39,9.3105464,55.6133724
1838320,Søndergade,6040,40,9.3113299,55.611487
1838322,Søndergade,6040,41,9.3105536,55.6129472
1838323,Søndergade,6040,42,9.3114627,55.6113316
1838326,Søndergade,6040,43,9.310692,55.6126783
1838327,Søndergade,6040,44,9.3110351,55.6110085
1838328,Søndergade,6040,45,9.3114796,55.6126069
1838331,Søndergade,6040,45C,9.312278,55.612338
1838333,Søndergade,6040,46,9.3115976,55.6111719
1838334,Søndergade,6040,48,9.3117173,55.6110196
1838335,Søndergade,6040,49,9.3116543,55.6115532
1838337,Søndergade,6040,50,9.3118211,55.6109018
1838339,Søndergade,6040,51,9.3119559,55.611248
1838340,Søndergade,6040,52,9.3111482,55.6108659
1838341,Søndergade,6040,53,9.3122989,55.611078
1838343,Søndergade,6040,55,9.3124894,55.610951
1838345,Søndergade,6040,56,9.3119379,55.6107846
1838346,Søndergade,6040,57,9.312639,55.610766
1838347,Søndergade,6040,58,9.3122294,55.6106073
1838348,Søndergade,6040,59,9.3127747,55.610615
1838349,Søndergade,6040,60,9.3121701,55.6104819
1838352,Søndergade,6040,61,9.3129471,55.6104488
1838353,Søndergade,6040,62,9.3124666,55.6102074
1838355,Søndergade,6040,63,9.313046,55.610266
1838356,Søndergade,6040,65,9.3133585,55.6101174
1838359,Søndergade,6040,67,9.3135267,55.6098987
1838362,Søndergade,6040,69,9.3138787,55.6097404
1838364,Søndergade,6040,70,9.3131319,55.6095343
1838367,Søndergade,6040,71,9.3140302,55.6095192
1838369,Søndergade,6040,72,9.3135023,55.609355
1838372,Søndergade,6040,73,9.314196,55.6093649
1838375,Søndergade,6040,74,9.3137476,55.6090883
1838377,Søndergade,6040,76,9.3139723,55.6089592
1838380,Søndergade,6040,78,9.3141026,55.6086823
1838381,Søndergade,6040,78A,9.3140269,55.6085569
1858485,Ammitsbølvej,6040,129,9.4330777,55.6111816
1858486,Ammitsbølvej,6040,131,9.4286087,55.611818
1858487,Ammitsbølvej,6040,150,9.4338859,55.5893723
1858488,Ammitsbølvej,6040,151,9.4353991,55.586352
1858489,Ammitsbølvej,6040,155,9.434572,55.582376
1858490,Ammitsbølvej,6040,165,9.4332535,55.5802816
1858491,Ammitsbølvej,6040,166,9.4324392,55.5740041
1858492,Ammitsbølvej,6040,167,9.433323,55.576142
1858493,Ammitsbølvej,6040,168,9.42574,55.5734193
1858494,Ammitsbølvej,6040,168A,9.425869,55.57324
1858496,Ammitsbølvej,6040,169,9.4336584,55.5756233
1888221,Vorkvej,6040,1,9.297334,55.624427
1888222,Vorkvej,6040,5,9.3012932,55.626562
1888223,Vorkvej,6040,9,9.301465,55.629643
1888224,Vorkvej,6040,10,9.303353,55.629354
1888225,Vorkvej,6040,19,9.307252,55.638721
1888228,Vorkvej,6040,20,9.3101122,55.6392774
1888229,Vorkvej,6040,21,9.3081688,55.6392345
1888230,Vorkvej,6040,23,9.3085259,55.6394626
1888232,Vorkvej,6040,23A,9.307645,55.639717
1888233,Vorkvej,6040,25,9.310296,55.642121
1888234,Vorkvej,6040,26,9.314637,55.6413464
1888236,Vorkvej,6040,28,9.317639,55.642208
1888237,Vorkvej,6040,34,9.3176617,55.6480161
1888239,Vorkvej,6040,38,9.3182709,55.6493743
1888240,Vorkvej,6040,41,9.3181892,55.6532699
1888241,Vorkvej,6040,47,9.321102,55.655873
1888242,Vorkvej,6040,53,9.322387,55.658343
1888244,Vorkvej,6040,55,9.3254786,55.6585056
1888245,Vorkvej,6040,57,9.3261714,55.6620341
1888246,Vorkvej,6040,59,9.3263165,55.6585894
1888248,Vorkvej,6040,61,9.3266334,55.6585978
1888249,Vorkvej,6040,62,9.3258275,55.6578182
1888251,Vorkvej,6040,63,9.326988,55.658619
1888252,Vorkvej,6040,65,9.3273295,55.6586178
1888253,Vorkvej,6040,67,9.3281762,55.658923
1888255,Vorkvej,6040,68,9.330115,55.658095
1888256,Vorkvej,6040,69,9.330636,55.658665
1888258,Vorkvej,6040,70,9.3313462,55.6583699
1888259,Vorkvej,6040,71,9.3313449,55.6587026
1888261,Vorkvej,6040,72,9.3318951,55.6583642
1888262,Vorkvej,6040,73,9.3332,55.660039
1888264,Vorkvej,6040,74,9.3328037,55.6582553
1888266,Vorkvej,6040,75,9.3377597,55.6619832
1888267,Vorkvej,6040,76,9.334162,55.657918
1888268,Vorkvej,6040,77,9.3329149,55.6584423
1888270,Vorkvej,6040,79,9.333205,55.6584074
1888272,Vorkvej,6040,80A,9.3362839,55.6577008
1888274,Vorkvej,6040,80B,9.3361786,55.6577676
1888275,Vorkvej,6040,80C,9.3360742,55.6578027
1888277,Vorkvej,6040,80D,9.3363719,55.6577668
1888278,Vorkvej,6040,80E,9.3363251,55.6576541
1888279,Vorkvej,6040,81,9.3335596,55.6584108
1888282,Vorkvej,6040,82,9.3369909,55.6574944
1888283,Vorkvej,6040,83,9.3338795,55.6584389
1888284,Vorkvej,6040,84,9.3372483,55.657378
1888286,Vorkvej,6040,85,9.3343908,55.6584183
1888289,Vorkvej,6040,86,9.3377364,55.6571141
1888290,Vorkvej,6040,87,9.335427,55.658444
1888291,Vorkvej,6040,88,9.3380416,55.6570393
1888293,Vorkvej,6040,89,9.3380619,55.6572778
1888295,Vorkvej,6040,90,9.338493,55.6567964
1888296,Vorkvej,6040,91,9.3386139,55.6570777
1888297,Vorkvej,6040,92,9.3387947,55.6567543
1888298,Vorkvej,6040,93,9.3390542,55.6593744
1888299,Vorkvej,6040,94,9.3391548,55.656529
1888300,Vorkvej,6040,98,9.345422,55.6540219
1898724,Bindeballevej,6040,124,9.2524844,55.6426701
1898725,Bindeballevej,6040,125,9.2530737,55.6415139
1898729,Bindeballevej,6040,127,9.2521804,55.6405222
1898732,Bindeballevej,6040,129,9.2566977,55.6406533
1898734,Bindeballevej,6040,133,9.2616764,55.6362241
1898906,Overgårdvej,6040,1,9.3133207,55.6205458
1898907,Overgårdvej,6040,1A,9.312298,55.620828
1898908,Overgårdvej,6040,2,9.3127848,55.6181499
1898909,Overgårdvej,6040,3,9.3131526,55.620554
1898910,Overgårdvej,6040,5,9.3128855,55.620584
1898911,Overgårdvej,6040,7,9.3127318,55.6205917
1898912,Overgårdvej,6040,9,9.3128148,55.6207431
1898913,Overgårdvej,6040,11,9.3128221,55.6207907
1898914,Overgårdvej,6040,13,9.3128286,55.6208319
1898915,Overgårdvej,6040,15,9.312835,55.6208722
1898916,Overgårdvej,6040,17,9.3134452,55.620716
1898917,Overgårdvej,6040,19,9.3134564,55.6207878
1898918,Overgårdvej,6040,20,9.3130144,55.6186664
1898919,Overgårdvej,6040,21,9.3134238,55.6209888
1898920,Overgårdvej,6040,22,9.3131706,55.6186644
1898921,Overgårdvej,6040,23,9.3132426,55.6209969
1898922,Overgårdvej,6040,24,9.3132977,55.6186425
1898923,Overgårdvej,6040,25,9.3129417,55.62101
1898924,Overgårdvej,6040,26,9.3134284,55.6186424
1898925,Overgårdvej,6040,27,9.3127856,55.6210181
1898926,Overgårdvej,6040,28,9.3135554,55.6186429
1898927,Overgårdvej,6040,29,9.3129854,55.6211811
1898928,Overgårdvej,6040,30,9.3137997,55.6186637
1898929,Overgårdvej,6040,31,9.3129995,55.6212722
1898930,Overgårdvej,6040,32,9.3138022,55.6187344
1898931,Overgårdvej,6040,33,9.313394,55.6211469
1898932,Overgårdvej,6040,34,9.3138327,55.6188052
1898933,Overgårdvej,6040,35,9.3134043,55.6212206
1898934,Overgårdvej,6040,36,9.3138357,55.6188868
1898935,Overgårdvej,6040,37,9.3140566,55.6210854
1898936,Overgårdvej,6040,38,9.313566,55.6188946
1898937,Overgårdvej,6040,39,9.3140697,55.6211859
1898938,Overgårdvej,6040,40,9.3134542,55.6188956
1898939,Overgårdvej,6040,41,9.3143886,55.6211708
1898940,Overgårdvej,6040,42,9.3133395,55.6188966
1898941,Overgårdvej,6040,43,9.3143758,55.6210587
1898942,Overgårdvej,6040,44,9.313217,55.618914
1898943,Overgårdvej,6040,45,9.3147494,55.6211476
1898944,Overgårdvej,6040,46,9.3131057,55.6189141
1898945,Overgårdvej,6040,47,9.3147317,55.6210411
1898947,Overgårdvej,6040,48,9.3128992,55.6188722
1898949,Overgårdvej,6040,49,9.3148136,55.6209028
1898952,Overgårdvej,6040,50,9.3129042,55.6187951
1898955,Overgårdvej,6040,51,9.3146354,55.62091
1898958,Overgårdvej,6040,52A,9.312947,55.619422
1898961,Overgårdvej,6040,52B,9.313062,55.619417
1898963,Overgårdvej,6040,52C,9.313288,55.619405
1898965,Overgårdvej,6040,52D,9.313404,55.619399
1898967,Overgårdvej,6040,53,9.3140836,55.6209378
1898969,Overgårdvej,6040,54A,9.31292,55.619203
1898971,Overgårdvej,6040,54B,9.3130895,55.6191942
1898973,Overgårdvej,6040,54C,9.3133382,55.6191591
1898975,Overgårdvej,6040,54D,9.3134652,55.619153
1898976,Overgårdvej,6040,54E,9.313788,55.619109
1898979,Overgårdvej,6040,54F,9.313989,55.619099
1898980,Overgårdvej,6040,55,9.3139967,55.6209425
1898983,Overgårdvej,6040,56,9.3141791,55.6191881
1898984,Overgårdvej,6040,57,9.3139092,55.6209486
1898986,Overgårdvej,6040,58,9.3141908,55.6192317
1898989,Overgårdvej,6040,59,9.3140011,55.6206567
1898990,Overgårdvej,6040,60,9.3142007,55.6193396
1898992,Overgårdvej,6040,61,9.314019,55.6207751
1898994,Overgårdvej,6040,62,9.3142134,55.6194207
1898996,Overgårdvej,6040,63,9.3147193,55.6207219
1898998,Overgårdvej,6040,64,9.313982,55.6196692
1899000,Overgårdvej,6040,65,9.314696,55.6206149
1899001,Overgårdvej,6040,66,9.3138558,55.6196765
1899002,Overgårdvej,6040,67,9.3145846,55.6204753
1899003,Overgårdvej,6040,68,9.3136761,55.6196811
1899005,Overgårdvej,6040,69,9.3143757,55.620491
1899006,Overgårdvej,6040,70,9.3135794,55.6196887
1899009,Overgårdvej,6040,71,9.3141254,55.6204773
1899011,Overgårdvej,6040,72,9.3132809,55.6196534
1899013,Overgårdvej,6040,73,9.3138745,55.6204866
1899014,Overgårdvej,6040,74,9.3131718,55.6196573
1899016,Overgårdvej,6040,76,9.3130262,55.6196633
1899018,Overgårdvej,6040,78,9.3129298,55.6196709
1899020,Overgårdvej,6040,80,9.3134866,55.6198995
1899022,Overgårdvej,6040,82,9.3133812,55.6199059
1899023,Overgårdvej,6040,84,9.3132535,55.6199309
1899025,Overgårdvej,6040,86,9.313265,55.619993
1899028,Overgårdvej,6040,88,9.3131487,55.6200785
1899029,Overgårdvej,6040,90,9.3130305,55.6200837
1899032,Overgårdvej,6040,92,9.3130215,55.6201692
1899033,Overgårdvej,6040,94,9.3130308,55.6202226
1899034,Overgårdvej,6040,96,9.3134984,55.620177
1899036,Overgårdvej,6040,98,9.3136519,55.6201685
1899038,Overgårdvej,6040,100,9.3138096,55.6201711
1899040,Overgårdvej,6040,102,9.3139544,55.6201637
1899042,Overgårdvej,6040,104,9.3140556,55.6200505
1899044,Overgårdvej,6040,106,9.3140324,55.619939
1899046,Overgårdvej,6040,108,9.313998,55.619828
1899047,Overgårdvej,6040,110,9.3138448,55.6198333
1899049,Overgårdvej,6040,112,9.3137192,55.6199597
1899051,Overgårdvej,6040,114,9.3132561,55.6200747
1899053,Overgårdvej,6040,130,9.3142959,55.6201388
1899054,Overgårdvej,6040,132,9.3144183,55.6201328
1899055,Overgårdvej,6040,132A,9.3145715,55.6201747
1899057,Overgårdvej,6040,134,9.3145913,55.620031
1899060,Overgårdvej,6040,136,9.3145756,55.6199577
1902488,Ørvigvej,6040,1,9.3153444,55.6170074
1902489,Ørvigvej,6040,2,9.3149682,55.6172317
1902490,Ørvigvej,6040,3,9.3157286,55.6169063
1902491,Ørvigvej,6040,4,9.31486,55.6170261
1902492,Ørvigvej,6040,5,9.3160493,55.6169163
1902493,Ørvigvej,6040,6,9.3147624,55.6168299
1902494,Ørvigvej,6040,7,9.3164635,55.6168456
1902495,Ørvigvej,6040,8,9.314679,55.6166122
1902496,Ørvigvej,6040,9,9.316782,55.616803
1902497,Ørvigvej,6040,10,9.3146141,55.6163972
1902501,Ørvigvej,6040,11,9.3170993,55.6167121
1902502,Ørvigvej,6040,12,9.3145087,55.6161923
1902506,Ørvigvej,6040,13,9.3170335,55.6164711
1902509,Ørvigvej,6040,14,9.3144585,55.6159493
1902511,Ørvigvej,6040,15,9.3166628,55.6164616
1902515,Ørvigvej,6040,16,9.3148208,55.615916
1902517,Ørvigvej,6040,17,9.3162438,55.616548
1902522,Ørvigvej,6040,18,9.3143822,55.6156155
1902525,Ørvigvej,6040,19,9.3158467,55.6166117
1902530,Ørvigvej,6040,20,9.3147085,55.6155304
1902532,Ørvigvej,6040,21,9.3155877,55.6166327
1902534,Ørvigvej,6040,22,9.3143533,55.6152592
1902537,Ørvigvej,6040,23,9.3153049,55.6167417
1902540,Ørvigvej,6040,24,9.3146598,55.6151281
1902545,Ørvigvej,6040,25,9.3150216,55.6163729
1902550,Ørvigvej,6040,26,9.3149371,55.6151308
1902552,Ørvigvej,6040,27,9.3154312,55.6161887
1902554,Ørvigvej,6040,28,9.3154725,55.6151669
1902556,Ørvigvej,6040,29,9.3157874,55.6162284
1902559,Ørvigvej,6040,30,9.315134,55.615506
1902561,Ørvigvej,6040,31,9.3160947,55.6162281
1902562,Ørvigvej,6040,32,9.3154638,55.6154638
1902563,Ørvigvej,6040,33,9.3165129,55.616206
1902564,Ørvigvej,6040,34,9.3152628,55.6159408
1902565,Ørvigvej,6040,35,9.3169659,55.616167
1902566,Ørvigvej,6040,36,9.3156812,55.6158976
1902567,Ørvigvej,6040,37,9.3173072,55.6169971
1902568,Ørvigvej,6040,38,9.3160331,55.6158745
1902569,Ørvigvej,6040,40,9.3164151,55.6158184
1902570,Ørvigvej,6040,42,9.3159352,55.6154934
1902571,Ørvigvej,6040,44,9.316299,55.6154278
1902572,Ørvigvej,6040,46,9.315871,55.6150636
1902573,Ørvigvej,6040,48,9.3162343,55.6150535
1902574,Ørvigvej,6040,50,9.3166939,55.6150091
1902575,Ørvigvej,6040,52,9.3171047,55.6150189
1902576,Ørvigvej,6040,54,9.3169078,55.6153671
1902577,Ørvigvej,6040,56,9.3173219,55.6153877
1902578,Ørvigvej,6040,58,9.317089,55.6157314
1902579,Ørvigvej,6040,60,9.3174051,55.6157591
1902580,Ørvigvej,6040,62,9.3177893,55.6157258
1902582,Ørvigvej,6040,64,9.318203,55.6157009
1902586,Ørvigvej,6040,66,9.3186581,55.6156198
1902588,Ørvigvej,6040,68,9.319156,55.615492
1902589,Ørvigvej,6040,70,9.3197792,55.6156491
1902590,Ørvigvej,6040,72,9.3194236,55.6157964
1902591,Ørvigvej,6040,74,9.3190421,55.6158328
1902592,Ørvigvej,6040,76,9.3187201,55.6159321
1902593,Ørvigvej,6040,78,9.3183383,55.6159779
1902594,Ørvigvej,6040,80,9.3179387,55.6160283
1902595,Ørvigvej,6040,82,9.3175576,55.6161926
1902596,Ørvigvej,6040,82A,9.317544,55.616109
1902599,Ørvigvej,6040,84,9.3177178,55.6166073
1902600,Ørvigvej,6040,86,9.3180589,55.6165264
1902601,Ørvigvej,6040,88,9.3184249,55.6164952
1902602,Ørvigvej,6040,90,9.3187364,55.6164234
1902603,Ørvigvej,6040,92,9.3191299,55.6163609
1902604,Ørvigvej,6040,94,9.3192517,55.6166228
1902605,Ørvigvej,6040,96,9.3189328,55.6167666
1902606,Ørvigvej,6040,98,9.3185943,55.616812
1902607,Ørvigvej,6040,100,9.3182483,55.6168088
1902608,Ørvigvej,6040,102,9.3179149,55.6169472
1906720,Tørskindvej,6040,96,9.3043612,55.6502661
1906721,Tørskindvej,6040,97,9.309849,55.650487
1906722,Tørskindvej,6040,98,9.3066427,55.6501736
1906723,Tørskindvej,6040,100,9.3127095,55.6457911
1909280,Egelandvej,6040,2,9.4473372,55.5990312
1909281,Egelandvej,6040,2A,9.4474199,55.5988488
1909282,Egelandvej,6040,4,9.4476172,55.6000954
1909283,Egelandvej,6040,10,9.4511317,55.60267
1909284,Egelandvej,6040,11,9.450488,55.60304
1909285,Egelandvej,6040,12,9.452509,55.6037227
1909286,Egelandvej,6040,14,9.4529791,55.6041827
1909287,Egelandvej,6040,15,9.4521542,55.6041444
1909288,Egelandvej,6040,16,9.4536592,55.6046244
1909289,Egelandvej,6040,17,9.4524182,55.6043361
1909290,Egelandvej,6040,18,9.453808,55.6048616
1909291,Egelandvej,6040,19,9.4526809,55.6045105
1909292,Egelandvej,6040,20,9.454054,55.6046256
1909293,Egelandvej,6040,21,9.4527623,55.6047606
1909294,Egelandvej,6040,22,9.455527,55.605408
1909295,Egelandvej,6040,23,9.4531625,55.6049059
1909296,Egelandvej,6040,24,9.461676,55.604342
1909297,Egelandvej,6040,25,9.453499,55.605007
1909298,Egelandvej,6040,26,9.457019,55.606172
1909299,Egelandvej,6040,28,9.4571014,55.6063419
1909300,Egelandvej,6040,30,9.457146,55.6064687
1909301,Egelandvej,6040,31,9.4566842,55.6063462
1909302,Egelandvej,6040,32,9.4572709,55.6066597
1909303,Egelandvej,6040,33,9.456889,55.606612
1909304,Egelandvej,6040,34,9.4574935,55.6068856
1909306,Egelandvej,6040,35,9.4569219,55.6067713
1909307,Egelandvej,6040,36,9.4576116,55.6070435
1909308,Egelandvej,6040,37,9.4570044,55.6069204
1909310,Egelandvej,6040,38,9.4577134,55.6072768
1909311,Egelandvej,6040,39,9.457175,55.6071082
1909313,Egelandvej,6040,40,9.4582607,55.607522
1909314,Egelandvej,6040,41,9.4573434,55.6072888
1909316,Egelandvej,6040,42,9.459159,55.60708
1909318,Egelandvej,6040,43,9.4574378,55.6074452
1909319,Egelandvej,6040,44,9.4580772,55.6078206
1909321,Egelandvej,6040,45,9.4576708,55.6077039
1909323,Egelandvej,6040,46,9.4581272,55.6079518
1909324,Egelandvej,6040,49,9.458469,55.609597
1909326,Egelandvej,6040,51,9.4588163,55.6102524
1909327,Egelandvej,6040,53,9.456586,55.619707
1909329,Egelandvej,6040,54,9.4720864,55.6185337
1909331,Egelandvej,6040,55,9.4644244,55.6203022
1909332,Egelandvej,6040,56,9.4652755,55.6208321
1909333,Egelandvej,6040,57,9.4642263,55.6205176
1909334,Egelandvej,6040,58,9.4661685,55.6230183
1909335,Egelandvej,6040,59,9.4647948,55.621375
1909336,Egelandvej,6040,61,9.4613885,55.6233652
1909337,Egelandvej,6040,63,9.4663592,55.6259462
1909338,Egelandvej,6040,63A,9.4649311,55.6267132
1909339,Egelandvej,6040,64,9.473039,55.6239414
1909340,Egelandvej,6040,65,9.4660501,55.6275148
1909341,Egelandvej,6040,66,9.475604,55.626419
1909342,Egelandvej,6040,67,9.476454,55.62697
1909343,Egelandvej,6040,68,9.4773712,55.6269397
1909344,Egelandvej,6040,69,9.4776038,55.6273439
1909345,Egelandvej,6040,71,9.4783537,55.6275126
1909346,Egelandvej,6040,72,9.4844038,55.6280297
1909347,Egelandvej,6040,73,9.4787555,55.6276891
1909348,Egelandvej,6040,75,9.4791908,55.6277613
1909349,Egelandvej,6040,76,9.4907244,55.6279574
1909350,Egelandvej,6040,77,9.479487,55.633048
1909351,Egelandvej,6040,79,9.483345,55.630588
1909352,Egelandvej,6040,80,9.4932627,55.6277318
1909353,Egelandvej,6040,81,9.4863485,55.6334161
1909354,Egelandvej,6040,83,9.484567,55.6282817
1909357,Egelandvej,6040,85,9.487031,55.628393
1909358,Egelandvej,6040,87,9.493525,55.628297
1928561,Bøgvadvej,6040,1,9.3006911,55.6162665
1928562,Bøgvadvej,6040,2,9.3012529,55.6162838
1928563,Bøgvadvej,6040,3,9.3002622,55.6164033
1928564,Bøgvadvej,6040,4,9.3009645,55.6163923
1928565,Bøgvadvej,6040,5,9.2991884,55.6168214
1928566,Bøgvadvej,6040,6,9.3007319,55.6164799
1928567,Bøgvadvej,6040,8,9.3005715,55.6166438
1928568,Bøgvadvej,6040,9,9.2984512,55.6169837
1928569,Bøgvadvej,6040,10,9.3000294,55.6168337
1928570,Bøgvadvej,6040,12,9.299993,55.6170697
1928571,Bøgvadvej,6040,14,9.299524,55.617065
1928572,Bøgvadvej,6040,16,9.299206,55.617177
1928573,Bøgvadvej,6040,18,9.298701,55.6173888
1928574,Bøgvadvej,6040,26,9.2974167,55.6179212
1928575,Bøgvadvej,6040,29,9.2922331,55.618417
1928576,Bøgvadvej,6040,31,9.278058,55.621849
1928577,Bøgvadvej,6040,33,9.2773307,55.621865
1928578,Bøgvadvej,6040,35,9.2764044,55.6221268
1928579,Bøgvadvej,6040,36,9.2947996,55.6186704
1928580,Bøgvadvej,6040,37A,9.2757906,55.622688
1928581,Bøgvadvej,6040,37B,9.2708555,55.6219938
1928582,Bøgvadvej,6040,38,9.2680493,55.6304027
1928583,Bøgvadvej,6040,39,9.268071,55.6269
1928584,Bøgvadvej,6040,40,9.2609842,55.6303103
1928585,Bøgvadvej,6040,41,9.25902,55.630202
1928586,Bøgvadvej,6040,41A,9.2592062,55.6301394
1928587,Bøgvadvej,6040,42,9.2606895,55.6305339
1928588,Bøgvadvej,6040,43,9.2587811,55.6299749
1928589,Bøgvadvej,6040,49,9.2572623,55.6302851
1928590,Bøgvadvej,6040,51,9.253468,55.63287
1928591,Bøgvadvej,6040,53,9.250137,55.6361614
1928592,Bøgvadvej,6040,55,9.2481532,55.6373591
1928593,Bøgvadvej,6040,57,9.2392091,55.6413866
1928594,Bøgvadvej,6040,60,9.246636,55.6506491
1928595,Bøgvadvej,6040,61,9.2406676,55.6428386
1928596,Bøgvadvej,6040,62,9.2489604,55.653398
1928597,Bøgvadvej,6040,63,9.2381,55.644778
1928598,Bøgvadvej,6040,67,9.2310451,55.6467331
1931944,Baldersvej,6040,1,9.3221298,55.6165863
1931945,Baldersvej,6040,2,9.3227585,55.6164837
1931946,Baldersvej,6040,3,9.3215863,55.6166626
1931947,Baldersvej,6040,4,9.322824,55.6167391
1931948,Baldersvej,6040,5,9.3216955,55.6168929
1931949,Baldersvej,6040,6,9.322903,55.616964
1931950,Baldersvej,6040,7,9.3222294,55.6168609
1931951,Baldersvej,6040,8,9.323367,55.6169681
1931952,Baldersvej,6040,9,9.3223129,55.6170374
1931953,Baldersvej,6040,10,9.3233733,55.6166886
1931954,Baldersvej,6040,11,9.321786,55.6171402
1931955,Baldersvej,6040,12,9.3232335,55.6164652
1931956,Baldersvej,6040,13,9.3218617,55.6173273
1931957,Baldersvej,6040,14,9.3238151,55.6162651
1931958,Baldersvej,6040,15,9.3223783,55.6173351
1931959,Baldersvej,6040,16,9.3238772,55.6164733
1931960,Baldersvej,6040,18,9.323923,55.616697
1931961,Baldersvej,6040,19,9.3230607,55.6177597
1931962,Baldersvej,6040,20,9.3240114,55.6169314
1931963,Baldersvej,6040,21,9.3230099,55.6175593
1931964,Baldersvej,6040,22,9.3243779,55.6169009
1931965,Baldersvej,6040,23,9.3229107,55.6173112
1931966,Baldersvej,6040,24,9.3244408,55.616657
1931967,Baldersvej,6040,25,9.3234839,55.6172557
1931968,Baldersvej,6040,26,9.324388,55.616439
1931969,Baldersvej,6040,27,9.3234849,55.6175111
1931970,Baldersvej,6040,28,9.3243563,55.6161778
1931971,Baldersvej,6040,29,9.323735,55.617715
1931972,Baldersvej,6040,30,9.3247996,55.6161212
1931973,Baldersvej,6040,31,9.3241207,55.6177416
1931974,Baldersvej,6040,32,9.3249835,55.6163634
1931975,Baldersvej,6040,33,9.324139,55.617487
1931976,Baldersvej,6040,34,9.3250609,55.6165914
1931977,Baldersvej,6040,35,9.3239961,55.6172609
1931978,Baldersvej,6040,36,9.3250265,55.6168252
1931979,Baldersvej,6040,37,9.324525,55.6172101
1931980,Baldersvej,6040,38,9.3256109,55.6167446
1931981,Baldersvej,6040,39,9.3245705,55.617459
1931982,Baldersvej,6040,40,9.325501,55.616564
1931983,Baldersvej,6040,41,9.324787,55.6176401
1931984,Baldersvej,6040,42,9.3254786,55.616317
1931985,Baldersvej,6040,43,9.3252697,55.6176535
1931986,Baldersvej,6040,44,9.3255036,55.6160765
1931987,Baldersvej,6040,45,9.3252501,55.6173743
1931988,Baldersvej,6040,46,9.3259915,55.6160107
1931989,Baldersvej,6040,47,9.3251109,55.6171743
1931990,Baldersvej,6040,48,9.3260823,55.6162736
1931991,Baldersvej,6040,49,9.3256546,55.6171412
1931992,Baldersvej,6040,50,9.3262236,55.6165135
1931993,Baldersvej,6040,51,9.3256946,55.6173847
1931994,Baldersvej,6040,52,9.3261612,55.6167916
1931995,Baldersvej,6040,53,9.3258908,55.6175907
1931996,Baldersvej,6040,55,9.3262762,55.617595
1931997,Baldersvej,6040,57,9.3263466,55.6173563
1931998,Baldersvej,6040,59,9.3262419,55.6170917
1933703,Korbenhøj,6040,1,9.3113891,55.6136787
1933704,Korbenhøj,6040,2,9.3107242,55.6137779
1933705,Korbenhøj,6040,3,9.3116821,55.6136534
1933706,Korbenhøj,6040,4,9.3109511,55.6135483
1933707,Korbenhøj,6040,5,9.3114188,55.6134975
1933708,Korbenhøj,6040,7,9.3115413,55.6132329
1933709,Korbenhøj,6040,9,9.3117394,55.6129998
1936068,Refsgårdvej,6040,2,9.2862455,55.6419469
1936069,Refsgårdvej,6040,3,9.288595,55.642897
1936071,Refsgårdvej,6040,5,9.289837,55.644864
1936073,Refsgårdvej,6040,7,9.2855754,55.6467039
1936074,Refsgårdvej,6040,9,9.2877509,55.6473547
1936075,Refsgårdvej,6040,10,9.293175,55.641587
1936077,Refsgårdvej,6040,11,9.295606,55.645064
1936079,Refsgårdvej,6040,13,9.296145,55.644169
1936080,Refsgårdvej,6040,14,9.2981367,55.6437066
1936384,Tværvej,6040,1,9.3020731,55.6183036
1936390,Tværvej,6040,3A,9.3020741,55.6180628
1936392,Tværvej,6040,3B,9.3019745,55.6181028
1936397,Tværvej,6040,5,9.3016908,55.617988
1937078,Stejlbjerg,6040,1,9.3064833,55.6159459
1937082,Stejlbjerg,6040,2,9.306269,55.61601
1937084,Stejlbjerg,6040,3,9.3064658,55.6155737
1937087,Stejlbjerg,6040,4,9.306256,55.615857
1937102,Møllebakken,6040,1A,9.3057589,55.6167141
1937105,Møllebakken,6040,1B,9.3055609,55.616757
1937108,Møllebakken,6040,3,9.3053286,55.6167876
1937110,Møllebakken,6040,5,9.3049927,55.6168188
1937113,Møllebakken,6040,7,9.3046123,55.6167921
1937115,Møllebakken,6040,7A,9.3043306,55.6167583
1937119,Møllebakken,6040,9,9.3049915,55.6170384
1943121,Vestergade,6040,1A,9.307095,55.616186
1943122,Vestergade,6040,1B,9.307034,55.616191
1943123,Vestergade,6040,1C,9.306972,55.616197
1943124,Vestergade,6040,1D,9.306947,55.61614
1943125,Vestergade,6040,2A,9.306444,55.616435
1943126,Vestergade,6040,2B,9.306346,55.616381
1943127,Vestergade,6040,4,9.3059821,55.6163497
1943129,Vestergade,6040,5,9.3065627,55.6161876
1943131,Vestergade,6040,7A,9.3063011,55.6161264
1943134,Vestergade,6040,7B,9.3062202,55.6161224
1943135,Vestergade,6040,8,9.3047957,55.6163213
1943137,Vestergade,6040,9,9.306134,55.6161274
1943138,Vestergade,6040,10,9.3044444,55.6161726
1943142,Vestergade,6040,11,9.3060367,55.6161339
1943145,Vestergade,6040,12A,9.3043477,55.6161746
1943146,Vestergade,6040,12B,9.3042615,55.6161498
1943149,Vestergade,6040,12C,9.3042546,55.6161881
1943150,Vestergade,6040,13A,9.3059579,55.6161358
1943152,Vestergade,6040,13B,9.3058738,55.6161417
1943154,Vestergade,6040,14,9.3041023,55.6161445
1943156,Vestergade,6040,15,9.3057246,55.6161348
1943158,Vestergade,6040,16,9.3038692,55.6161235
1943159,Vestergade,6040,17,9.3054768,55.6161094
1943162,Vestergade,6040,17A,9.3054887,55.6160087
1943163,Vestergade,6040,17B,9.3054797,55.616042
1943165,Vestergade,6040,18,9.303704,55.6161116
1943166,Vestergade,6040,19,9.3051402,55.6160664
1943168,Vestergade,6040,20,9.3034817,55.6161036
1943170,Vestergade,6040,21,9.3048988,55.616039
1943186,Vestergade,6040,23,9.3046895,55.6160202
1943191,Vestergade,6040,25,9.304518,55.6160004
1943197,Vestergade,6040,27,9.3041812,55.6159643
1943199,Vestergade,6040,28,9.3016253,55.6162698
1943204,Vestergade,6040,29,9.303708,55.6159262
1943207,Vestergade,6040,31,9.3026845,55.6159382
1943209,Vestergade,6040,32,9.2995175,55.6162917
1943215,Vestergade,6040,33,9.3024599,55.6159526
1943216,Vestergade,6040,35A,9.3022576,55.6159616
1943220,Vestergade,6040,35B,9.3022048,55.6158178
1943222,Vestergade,6040,37,9.3019561,55.6158907
1943226,Vestergade,6040,39,9.3016362,55.6159842
1943231,Vestergade,6040,41,9.3014716,55.6155516
1943234,Vestergade,6040,43,9.300698,55.615922
1943237,Vestergade,6040,43A,9.3002934,55.6156188
1943239,Vestergade,6040,47,9.299908,55.615917
1943244,Vestergade,6040,49,9.299191,55.616058
1943248,Vestergade,6040,51,9.2989963,55.6160732
1943250,Vestergade,6040,53,9.2988333,55.6160492
1943253,Vestergade,6040,55,9.2986856,55.6160563
1943255,Vestergade,6040,61,9.296005,55.615933
1943259,Vestergade,6040,62,9.2934715,55.6172651
1943262,Vestergade,6040,65,9.29039,55.613794
1943947,Parkvej,6040,1,9.303862,55.6174053
1943948,Parkvej,6040,2,9.3036279,55.6174916
1943949,Parkvej,6040,3,9.3037811,55.6172707
1943950,Parkvej,6040,4,9.3034131,55.6173421
1943951,Parkvej,6040,5,9.3036653,55.6171311
1943952,Parkvej,6040,6,9.3032025,55.6172428
1943953,Parkvej,6040,7A,9.3039188,55.6168298
1943954,Parkvej,6040,7B,9.3036865,55.6169246
1943956,Parkvej,6040,8A,9.3025628,55.617306
1943957,Parkvej,6040,8B,9.3026208,55.6173488
1943960,Parkvej,6040,8C,9.3026916,55.6173966
1943961,Parkvej,6040,8D,9.3027698,55.617446
1943964,Parkvej,6040,9,9.303393,55.6169992
1943965,Parkvej,6040,10A,9.302548,55.617552
1943967,Parkvej,6040,10B,9.3024782,55.6175071
1943970,Parkvej,6040,10C,9.3023984,55.617453
1943971,Parkvej,6040,10D,9.3023237,55.6174048
1943973,Parkvej,6040,11,9.3031415,55.6170246
1943975,Parkvej,6040,11D,9.3036592,55.6164807
1943976,Parkvej,6040,12,9.3021229,55.6175204
1943978,Parkvej,6040,13A,9.303149,55.6164524
1943979,Parkvej,6040,13B,9.302864,55.6164621
1943981,Parkvej,6040,13C,9.3023397,55.6163363
1943984,Parkvej,6040,13D,9.3020046,55.6163821
1943986,Parkvej,6040,15,9.3027646,55.6169694
1943987,Parkvej,6040,16,9.3014464,55.6178318
1943989,Parkvej,6040,17,9.3019741,55.6172299
1943991,Parkvej,6040,18,9.3011157,55.6181183
1943992,Parkvej,6040,20A,9.3006316,55.6182254
1943994,Parkvej,6040,20B,9.300773,55.6183165
1943995,Parkvej,6040,20C,9.30107,55.618361
1943998,Parkvej,6040,22,9.300309,55.618358
1943999,Parkvej,6040,25,9.3012943,55.6176403
1944001,Parkvej,6040,27,9.3009571,55.6177595
1944003,Parkvej,6040,29,9.3007211,55.6178832
1944004,Parkvej,6040,31,9.3003936,55.6180436
1944006,Parkvej,6040,33,9.3001397,55.6181632
1944007,Parkvej,6040,35,9.299832,55.6182458
1945475,Hovedvejen,6040,177,9.490632,55.616731
1945476,Hovedvejen,6040,179,9.4939809,55.621791
1945479,Hovedvejen,6040,181,9.4935965,55.6224457
1945482,Hovedvejen,6040,183,9.4936256,55.6230326
1945483,Hovedvejen,6040,183A,9.4932932,55.6252536
1945485,Hovedvejen,6040,185,9.489438,55.6251214
1945486,Hovedvejen,6040,187,9.4928784,55.6264983
1945488,Hovedvejen,6040,189,9.489919,55.626361
1945490,Hovedvejen,6040,191,9.4935718,55.6265598
1945491,Hovedvejen,6040,193,9.49345,55.626783
1945492,Hovedvejen,6040,195,9.4934532,55.6270203
1945494,Hovedvejen,6040,197,9.4934437,55.6272204
1945496,Hovedvejen,6040,199,9.4935989,55.6290091
1945498,Hovedvejen,6040,199A,9.493474,55.629234
1945499,Hovedvejen,6040,201,9.493431,55.629423
1948277,Mellemvej,6040,1,9.3314968,55.6564563
1948280,Mellemvej,6040,3,9.331495,55.654188
1948374,Vork Bakker,6040,1,9.3473272,55.659768
1948969,Buchsvej,6040,1,9.3058881,55.6156397
1948970,Buchsvej,6040,1A,9.3061497,55.6158763
1948971,Buchsvej,6040,1B,9.3061441,55.6158073
1948972,Buchsvej,6040,1C,9.3061378,55.6157326
1948973,Buchsvej,6040,5,9.3046467,55.6155692
1948985,Smalle Vorkvej,6040,9,9.3573359,55.6436843
1948990,Smalle Vorkvej,6040,10,9.3582315,55.6437009
1948995,Smalle Vorkvej,6040,12,9.3526345,55.6452724
1948996,Smalle Vorkvej,6040,15,9.3505071,55.6447971
1948997,Smalle Vorkvej,6040,16,9.3481257,55.646288
1948998,Smalle Vorkvej,6040,18,9.3489123,55.6470589
1948999,Smalle Vorkvej,6040,20,9.352328,55.646728
1949000,Smalle Vorkvej,6040,22,9.3454063,55.6450321
1950983,Toftevej,6040,1,9.305019,55.6189036
1950984,Toftevej,6040,2,9.3047217,55.6193139
1950985,Toftevej,6040,4,9.3046928,55.6191641
1950986,Toftevej,6040,6,9.3046563,55.6189785
1950987,Toftevej,6040,8,9.3046319,55.6187733
1950988,Toftevej,6040,10B,9.304512,55.618252
1950989,Toftevej,6040,10C,9.304711,55.618163
1950990,Toftevej,6040,12,9.3049674,55.6182633
1951653,Trannisvej,6040,1,9.3094326,55.6174469
1951657,Trannisvej,6040,2,9.3094676,55.6177198
1951660,Trannisvej,6040,3,9.3090709,55.6175115
1951661,Trannisvej,6040,4,9.309115,55.6177452
1951662,Trannisvej,6040,5,9.3087273,55.6175279
1951663,Trannisvej,6040,6,9.3087647,55.6177738
1951664,Trannisvej,6040,7,9.3083428,55.6175627
1951665,Trannisvej,6040,8,9.3083892,55.6178408
1951666,Trannisvej,6040,9,9.3080138,55.6175945
1951667,Trannisvej,6040,10,9.3080523,55.6178647
1951668,Trannisvej,6040,11,9.3076129,55.6173847
1951669,Trannisvej,6040,12,9.3081456,55.6183897
1951670,Trannisvej,6040,13,9.3075621,55.6175942
1951671,Trannisvej,6040,14,9.308436,55.618351
1951672,Trannisvej,6040,15,9.3075933,55.6177766
1951673,Trannisvej,6040,16,9.3087101,55.6183713
1951674,Trannisvej,6040,17,9.3076179,55.6179378
1951675,Trannisvej,6040,18,9.3091108,55.6183627
1951677,Trannisvej,6040,19,9.3076473,55.618111
1951679,Trannisvej,6040,20,9.309392,55.618354
1951681,Trannisvej,6040,21,9.3076755,55.6183102
1951682,Trannisvej,6040,23,9.307685,55.6185006
1951684,Trannisvej,6040,25,9.3077226,55.6186523
1951686,Trannisvej,6040,27,9.3078372,55.6188541
1951688,Trannisvej,6040,29,9.3081276,55.6187012
1951690,Trannisvej,6040,31,9.3085094,55.6187144
1951692,Trannisvej,6040,33,9.3088185,55.6187012
1951693,Trannisvej,6040,35,9.3091028,55.6185962
1951696,Trannisvej,6040,37,9.3094455,55.618575
1951733,Lergårdvej,6040,1,9.3185394,55.6206138
1951734,Lergårdvej,6040,2,9.3183298,55.620239
1951735,Lergårdvej,6040,3,9.3192118,55.6205166
1951736,Lergårdvej,6040,4,9.3185065,55.6202228
1951737,Lergårdvej,6040,5,9.3200456,55.6206481
1951739,Lergårdvej,6040,6,9.318729,55.6202003
1951741,Lergårdvej,6040,7,9.321086,55.620537
1951744,Lergårdvej,6040,8,9.3189364,55.6201848
1951747,Lergårdvej,6040,10,9.3191682,55.6201633
1951748,Lergårdvej,6040,12,9.3202235,55.6202184
1968191,Hjelmdrupvej,6040,2,9.3135175,55.6178611
1968192,Hjelmdrupvej,6040,3,9.3154902,55.6177596
1968193,Hjelmdrupvej,6040,4,9.3139236,55.6178587
1968194,Hjelmdrupvej,6040,5,9.31598,55.617892
1968195,Hjelmdrupvej,6040,6,9.314321,55.6177376
1968196,Hjelmdrupvej,6040,7,9.3163597,55.6176278
1968197,Hjelmdrupvej,6040,8,9.3147344,55.6176781
1968198,Hjelmdrupvej,6040,9,9.3167921,55.6175466
1968199,Hjelmdrupvej,6040,10A,9.315143,55.617554
1968200,Hjelmdrupvej,6040,10B,9.315039,55.617586
1968201,Hjelmdrupvej,6040,10C,9.315157,55.61758
1968202,Hjelmdrupvej,6040,11,9.3171771,55.6174727
1968203,Hjelmdrupvej,6040,12,9.3155935,55.6174722
1968204,Hjelmdrupvej,6040,13,9.3180943,55.6178917
1968205,Hjelmdrupvej,6040,13A,9.3203288,55.6183153
1968206,Hjelmdrupvej,6040,14,9.3159525,55.6173937
1968207,Hjelmdrupvej,6040,15,9.318585,55.6172826
1968208,Hjelmdrupvej,6040,16,9.31628,55.6173311
1968209,Hjelmdrupvej,6040,17,9.3192843,55.6171059
1968210,Hjelmdrupvej,6040,18,9.3166383,55.6172654
1968211,Hjelmdrupvej,6040,19,9.3193137,55.617158
1968213,Hjelmdrupvej,6040,20,9.317007,55.6171948
1968214,Hjelmdrupvej,6040,21,9.3193191,55.6172149
1968217,Hjelmdrupvej,6040,22,9.3198265,55.6162041
1968218,Hjelmdrupvej,6040,23,9.3193328,55.6172672
1968221,Hjelmdrupvej,6040,24,9.3205264,55.6164263
1968223,Hjelmdrupvej,6040,25,9.319338,55.6173254
1968225,Hjelmdrupvej,6040,26A,9.3211718,55.6163682
1968227,Hjelmdrupvej,6040,26B,9.321369,55.615997
1968231,Hjelmdrupvej,6040,26C,9.3216602,55.6162566
1968233,Hjelmdrupvej,6040,27,9.3199101,55.6169602
1968237,Hjelmdrupvej,6040,28,9.322137,55.616133
1968239,Hjelmdrupvej,6040,29,9.3199202,55.6170105
1968242,Hjelmdrupvej,6040,30,9.3227463,55.6160364
1968245,Hjelmdrupvej,6040,31,9.3199356,55.6170639
1968249,Hjelmdrupvej,6040,32,9.3229933,55.6159604
1968251,Hjelmdrupvej,6040,33,9.319942,55.6171192
1968254,Hjelmdrupvej,6040,34,9.3233797,55.6158773
1968260,Hjelmdrupvej,6040,35,9.3199534,55.6171674
1968262,Hjelmdrupvej,6040,36,9.3238067,55.6158763
1968266,Hjelmdrupvej,6040,37,9.3199671,55.617224
1968268,Hjelmdrupvej,6040,38,9.3241581,55.6158344
1968273,Hjelmdrupvej,6040,39,9.3199794,55.617281
1968274,Hjelmdrupvej,6040,39B,9.320772,55.617175
1968277,Hjelmdrupvej,6040,39C,9.3207697,55.6171167
1968279,Hjelmdrupvej,6040,39G,9.32071,55.6168777
1968283,Hjelmdrupvej,6040,39J,9.3206905,55.6167776
1968288,Hjelmdrupvej,6040,41,9.3209319,55.6167754
1968290,Hjelmdrupvej,6040,43,9.3209396,55.6168289
1968294,Hjelmdrupvej,6040,45,9.3209563,55.6168743
1968295,Hjelmdrupvej,6040,47,9.3209698,55.6169331
1968300,Hjelmdrupvej,6040,49,9.320984,55.6169896
1968302,Hjelmdrupvej,6040,51,9.3209912,55.6170449
1968307,Hjelmdrupvej,6040,53,9.3210012,55.6170983
1968309,Hjelmdrupvej,6040,55,9.321014,55.61715
1968314,Hjelmdrupvej,6040,57,9.3210279,55.6172078
1968320,Hjelmdrupvej,6040,64,9.329696,55.614762
1968321,Hjelmdrupvej,6040,66,9.33042,55.614063
1968323,Hjelmdrupvej,6040,70,9.3330589,55.6113501
1968324,Hjelmdrupvej,6040,70A,9.3333426,55.6114203
1968325,Hjelmdrupvej,6040,73,9.336226,55.612189
1968326,Hjelmdrupvej,6040,79,9.347893,55.609406
1968327,Hjelmdrupvej,6040,81,9.3494425,55.6086706
1968328,Hjelmdrupvej,6040,85,9.354911,55.61427
1968329,Hjelmdrupvej,6040,86,9.3522907,55.6062835
1968330,Hjelmdrupvej,6040,89,9.3550288,55.6089347
1972164,Doritshave,6040,1,9.3164,55.6097319
1972165,Doritshave,6040,2,9.3175469,55.6094274
1972167,Doritshave,6040,3,9.3166753,55.6095493
1972168,Doritshave,6040,4,9.3177758,55.6096066
1972170,Doritshave,6040,5,9.3167996,55.6093845
1972171,Doritshave,6040,6,9.3181658,55.6098111
1972174,Doritshave,6040,7,9.3160908,55.609339
1972175,Doritshave,6040,8,9.3184628,55.6099665
1972176,Doritshave,6040,9,9.315887,55.6094593
1972178,Doritshave,6040,10,9.317944,55.6101992
1972180,Doritshave,6040,11,9.31548,55.6093507
1972182,Doritshave,6040,12,9.3176732,55.6099902
1972183,Doritshave,6040,13,9.315135,55.6092638
1972184,Doritshave,6040,14,9.3173287,55.6098269
1972185,Doritshave,6040,15,9.3144012,55.609221
1972187,Doritshave,6040,16,9.3169081,55.6099906
1972188,Doritshave,6040,17,9.3149149,55.6095719
1972190,Doritshave,6040,18,9.3171948,55.6102088
1972194,Doritshave,6040,19,9.3152779,55.6096684
1972195,Doritshave,6040,20,9.3172941,55.61046
1972199,Doritshave,6040,21,9.3156514,55.6097706
1972203,Doritshave,6040,22,9.3168756,55.6106071
1972204,Doritshave,6040,23,9.3159534,55.6098762
1972209,Doritshave,6040,24,9.3165652,55.6103796
1972211,Doritshave,6040,25,9.3154634,55.6101408
1972215,Doritshave,6040,26,9.3162905,55.6102197
1972217,Doritshave,6040,27,9.3150824,55.6099576
1972219,Doritshave,6040,28,9.3158327,55.6104161
1972223,Doritshave,6040,29,9.3145355,55.6098306
1972225,Doritshave,6040,30,9.3160509,55.6106449
1972228,Doritshave,6040,31,9.3144035,55.6101436
1972230,Doritshave,6040,32,9.3163341,55.6108051
1972232,Doritshave,6040,33,9.3147077,55.610242
1972234,Doritshave,6040,34,9.3158682,55.610942
1972236,Doritshave,6040,35,9.3150714,55.6102826
1972237,Doritshave,6040,36,9.3156083,55.6108403
1972240,Doritshave,6040,37,9.3145628,55.6106092
1972242,Doritshave,6040,38,9.315367,55.6106039
1972244,Doritshave,6040,39,9.3140307,55.6105451
1972246,Doritshave,6040,40,9.3149968,55.6108993
1972247,Doritshave,6040,41,9.3141908,55.6108782
1972250,Doritshave,6040,42,9.3153814,55.6111078
1972251,Doritshave,6040,43,9.3137006,55.6108939
1972253,Doritshave,6040,44,9.3145895,55.6110521
1972256,Doritshave,6040,46,9.314853,55.611372
1972257,Doritshave,6040,48,9.3141485,55.611244
1972260,Doritshave,6040,50,9.3143696,55.6115172
1972261,Doritshave,6040,52,9.3137221,55.611574
1986682,Aftensang,6040,1,9.3117076,55.617847
1986692,Aftensang,6040,3,9.3098276,55.6191786
1986693,Aftensang,6040,4,9.3100314,55.6195192
1986694,Aftensang,6040,4A,9.3092999,55.6194936
1986695,Aftensang,6040,5A,9.3093693,55.6190758
1986696,Aftensang,6040,5B,9.3093977,55.6191946
1986697,Aftensang,6040,5C,9.309161,55.619209
1986698,Aftensang,6040,6,9.308738,55.6196975
1986699,Aftensang,6040,8,9.3077048,55.6196111
1986700,Aftensang,6040,8A,9.30792,55.61959
1986701,Aftensang,6040,8B,9.3078748,55.6197634
1986702,Aftensang,6040,8C,9.3078909,55.6199299
1986703,Aftensang,6040,8D,9.3078895,55.6200007
1986704,Aftensang,6040,8E,9.3078993,55.6200699
1986705,Aftensang,6040,8F,9.3079055,55.6201474
1986708,Aftensang,6040,8K,9.307344,55.619634
1986712,Aftensang,6040,9,9.3083502,55.6191588
1986715,Aftensang,6040,10A,9.3069219,55.6195923
1986721,Aftensang,6040,10B,9.3069263,55.6196717
1986724,Aftensang,6040,10C,9.3069334,55.6197607
1986725,Aftensang,6040,10D,9.3069404,55.6198501
1986726,Aftensang,6040,10E,9.3069463,55.6199349
1986727,Aftensang,6040,10F,9.3065212,55.6199325
1986728,Aftensang,6040,10G,9.3065135,55.6198333
1986729,Aftensang,6040,10H,9.30651,55.6197293
1986730,Aftensang,6040,10K,9.3066861,55.6199559
1986731,Aftensang,6040,11,9.3078058,55.619168
1986732,Aftensang,6040,12A,9.3059587,55.6201324
1986733,Aftensang,6040,12B,9.3060142,55.619596
1986734,Aftensang,6040,13,9.3074693,55.6191442
1986735,Aftensang,6040,14,9.3053631,55.6196503
1986737,Aftensang,6040,15,9.307205,55.619227
1986739,Aftensang,6040,16,9.3056161,55.6200007
1986743,Aftensang,6040,16A,9.3049747,55.6202892
1986744,Aftensang,6040,17A,9.3064569,55.6192737
1986749,Aftensang,6040,17B,9.3062997,55.6192769
1986751,Aftensang,6040,18,9.3046646,55.6196677
1986755,Aftensang,6040,19,9.3059785,55.6192494
1986757,Aftensang,6040,20A,9.3041747,55.6196447
1986758,Aftensang,6040,20B,9.3038558,55.6197162
1986759,Aftensang,6040,20C,9.3036978,55.6196706
1986760,Aftensang,6040,20D,9.3039329,55.620154
1986761,Aftensang,6040,20E,9.3040307,55.6197048
1986762,Aftensang,6040,21,9.3054195,55.6192691
1986763,Aftensang,6040,22,9.3030988,55.6201783
1986764,Aftensang,6040,23,9.3051565,55.6192823
1986765,Aftensang,6040,24,9.3031384,55.6197041
1986766,Aftensang,6040,26,9.3026553,55.6197531
1986767,Aftensang,6040,28,9.302712,55.619984
1986768,Aftensang,6040,29,9.3031238,55.6193793
1986769,Aftensang,6040,29B,9.302813,55.619135
1986770,Aftensang,6040,30,9.3026849,55.619883
1986771,Aftensang,6040,31,9.3027186,55.6194169
1986772,Aftensang,6040,32,9.3026913,55.6199063
1986775,Aftensang,6040,33,9.3023638,55.6194629
1986776,Aftensang,6040,34,9.3025804,55.6199456
1986778,Aftensang,6040,34A,9.3025625,55.619866
1986780,Aftensang,6040,35A,9.3020585,55.6194776
1986782,Aftensang,6040,35B,9.3020164,55.6193939
1986783,Aftensang,6040,35C,9.302002,55.6193062
1986785,Aftensang,6040,36,9.3025442,55.6197952
1986787,Aftensang,6040,37,9.3017609,55.6195052
1986788,Aftensang,6040,38,9.302472,55.6197802
1986790,Aftensang,6040,39,9.301597,55.6195057
1986792,Aftensang,6040,40,9.3024792,55.6198082
1986794,Aftensang,6040,42,9.3024871,55.6198386
1989101,Hørvænget,6040,1,9.4293349,55.5941352
1989102,Hørvænget,6040,2,9.4289651,55.5938391
1989103,Hørvænget,6040,3,9.429546,55.5943122
1989104,Hørvænget,6040,4,9.428762,55.5936914
1989105,Hørvænget,6040,5,9.429749,55.5944711
1989106,Hørvænget,6040,6,9.4290937,55.593556
1989107,Hørvænget,6040,7,9.429797,55.5940738
1989108,Hørvænget,6040,8,9.4293232,55.5937544
1989109,Hørvænget,6040,9,9.4306252,55.594161
1989110,Hørvænget,6040,10,9.4298728,55.5937039
1989111,Hørvænget,6040,11,9.4302539,55.5941583
1989112,Hørvænget,6040,12,9.4299605,55.5934786
1989113,Hørvænget,6040,13,9.4302475,55.5943758
1989114,Hørvænget,6040,14,9.4306336,55.5935812
1989117,Hørvænget,6040,15,9.4302399,55.5946117
1989118,Hørvænget,6040,16,9.4303205,55.5937543
1989119,Hørvænget,6040,17,9.4298482,55.5947552
1989120,Hørvænget,6040,18,9.431309,55.5939058
1989121,Hørvænget,6040,19,9.430276,55.594849
1989124,Hørvænget,6040,20,9.4314537,55.5937019
1989125,Hørvænget,6040,21,9.430715,55.5948436
1989127,Hørvænget,6040,22,9.4319124,55.593771
1989130,Hørvænget,6040,23,9.4311082,55.5948636
1989131,Hørvænget,6040,24,9.4318693,55.5939904
1989134,Hørvænget,6040,25,9.4310223,55.5946969
1989135,Hørvænget,6040,27,9.4309841,55.5944602
1989136,Hørvænget,6040,29,9.431063,55.594247
1989141,Hørvænget,6040,31,9.4318942,55.594331
1989144,Hørvænget,6040,33,9.4318137,55.5945229
1989145,Hørvænget,6040,35,9.431764,55.594775
1989146,Hørvænget,6040,37,9.4315827,55.5949083
1989147,Hørvænget,6040,39,9.4320455,55.5949943
1989148,Hørvænget,6040,41,9.4323839,55.5950737
1989149,Hørvænget,6040,43,9.4327598,55.5950539
1989150,Hørvænget,6040,45,9.4325137,55.5948424
1989151,Hørvænget,6040,47,9.4323471,55.594556
1989152,Hørvænget,6040,49,9.4327175,55.5945528
1989153,Hørvænget,6040,51,9.4331404,55.5944248
1989154,Hørvænget,6040,53,9.4329639,55.5942636
1991283,Østergade,6040,1A,9.307064,55.616653
1991284,Østergade,6040,1B,9.30727,55.616603
1991287,Østergade,6040,1C,9.307379,55.616594
1991288,Østergade,6040,2,9.3078197,55.6161413
1991289,Østergade,6040,2B,9.307912,55.61615
1991290,Østergade,6040,3,9.3085973,55.6167437
1991291,Østergade,6040,3A,9.308771,55.616772
1991292,Østergade,6040,4,9.3084214,55.6160457
1991293,Østergade,6040,4A,9.3084649,55.6160049
1991294,Østergade,6040,4B,9.308528,55.616017
1991295,Østergade,6040,4C,9.308609,55.616022
1991296,Østergade,6040,5,9.3092403,55.6163104
1991297,Østergade,6040,6,9.3087703,55.6160229
1991298,Østergade,6040,7,9.3100219,55.6164109
1991299,Østergade,6040,8,9.3092832,55.6159738
1991300,Østergade,6040,9,9.3108778,55.6165121
1991301,Østergade,6040,10A,9.3095301,55.6160727
1991302,Østergade,6040,10B,9.3096453,55.6161359
1991303,Østergade,6040,12,9.3104242,55.6162267
1991305,Østergade,6040,13,9.3115741,55.6166162
1991306,Østergade,6040,14,9.3105849,55.6162489
1991309,Østergade,6040,15,9.3119732,55.6168802
1991310,Østergade,6040,16,9.3109065,55.6162926
1991312,Østergade,6040,17,9.3120049,55.6170109
1991314,Østergade,6040,18,9.3113649,55.6163642
1991316,Østergade,6040,19,9.3118717,55.6171795
1991318,Østergade,6040,20,9.3117557,55.616474
1991319,Østergade,6040,21A,9.3117148,55.6174037
1991322,Østergade,6040,21B,9.3120244,55.6174239
1991323,Østergade,6040,21C,9.3120826,55.6175791
1991325,Østergade,6040,21D,9.311838,55.617605
1991328,Østergade,6040,21E,9.31191,55.617549
1991329,Østergade,6040,22,9.3123033,55.6167792
1991332,Østergade,6040,24,9.3125233,55.6171347
1991333,Østergade,6040,26,9.3124794,55.6173799
1991335,Østergade,6040,28,9.3129939,55.6177402
1991338,Østergade,6040,29,9.314276,55.618632
1991339,Østergade,6040,30,9.3137773,55.6180476
1991341,Østergade,6040,31,9.3145098,55.618715
1991344,Østergade,6040,33,9.3148609,55.6188053
1991346,Østergade,6040,35A,9.3149518,55.6192236
1991347,Østergade,6040,35B,9.314966,55.619338
1991348,Østergade,6040,35C,9.3154516,55.6192312
1991349,Østergade,6040,35D,9.3153464,55.6189653
1991350,Østergade,6040,37,9.3157188,55.6191702
1997317,Kirkevej,6040,1,9.3062251,55.6166496
1997318,Kirkevej,6040,2,9.3065366,55.616677
1997319,Kirkevej,6040,3,9.3057978,55.6169325
1997320,Kirkevej,6040,4,9.3062286,55.6168863
1997321,Kirkevej,6040,4B,9.3065464,55.6178051
1997322,Kirkevej,6040,4C,9.3060762,55.6178338
1997323,Kirkevej,6040,4D,9.305533,55.6178599
1997324,Kirkevej,6040,5,9.3054539,55.6170971
1997325,Kirkevej,6040,6,9.3049788,55.6176237
1997326,Kirkevej,6040,7,9.3053109,55.6172402
1997327,Kirkevej,6040,8,9.3047509,55.6177253
1997328,Kirkevej,6040,9,9.3048778,55.6174223
1997329,Kirkevej,6040,10,9.3045436,55.6178299
1997330,Kirkevej,6040,11,9.3046866,55.617517
1997331,Kirkevej,6040,12,9.3042524,55.617958
1997332,Kirkevej,6040,13,9.3045059,55.6175993
1997333,Kirkevej,6040,14,9.3040332,55.6180673
1997334,Kirkevej,6040,15A,9.3043348,55.6176852
1997335,Kirkevej,6040,15B,9.3041592,55.6176297
1997336,Kirkevej,6040,16,9.3037143,55.618228
1997337,Kirkevej,6040,17,9.3040803,55.6178022
1997338,Kirkevej,6040,18,9.3034824,55.6183953
1997339,Kirkevej,6040,19,9.3037881,55.617945
1997340,Kirkevej,6040,20,9.3031411,55.6187338
1997341,Kirkevej,6040,21,9.3028496,55.6176855
1997342,Kirkevej,6040,21A,9.303573,55.6180233
1997343,Kirkevej,6040,21B,9.303349,55.6178656
1997344,Kirkevej,6040,21C,9.3032244,55.6177505
1997345,Kirkevej,6040,21D,9.3029673,55.617581
1997346,Kirkevej,6040,21E,9.302426,55.617721
1997347,Kirkevej,6040,23,9.302929,55.617887
1997348,Kirkevej,6040,25,9.302864,55.618354
1997349,Kirkevej,6040,26,9.3023602,55.6188816
1997350,Kirkevej,6040,27,9.3026593,55.6184538
1997351,Kirkevej,6040,28,9.302196,55.6189597
1997352,Kirkevej,6040,29,9.3024293,55.6185161
1997353,Kirkevej,6040,30,9.3019681,55.6190704
1997354,Kirkevej,6040,30A,9.301713,55.6192025
1997355,Kirkevej,6040,31,9.3020807,55.6187314
1997356,Kirkevej,6040,32,9.3013947,55.6193904
1997357,Kirkevej,6040,32A,9.301362,55.619395
1997358,Kirkevej,6040,32B,9.301514,55.619395
1997359,Kirkevej,6040,33,9.3019524,55.6188101
1997360,Kirkevej,6040,35,9.3018052,55.6189275
1997361,Kirkevej,6040,37,9.3016224,55.6190191
1997362,Kirkevej,6040,39,9.3014061,55.6191407
1997363,Kirkevej,6040,41A,9.3011308,55.6192879
1997364,Kirkevej,6040,41B,9.3010068,55.6193387
1997365,Kirkevej,6040,51,9.3016391,55.6212443
2003939,Bygvænget,6040,1,9.431939,55.597371
2003940,Bygvænget,6040,2,9.4317854,55.5977377
2003941,Bygvænget,6040,3,9.4320294,55.5971897
2003942,Bygvænget,6040,4,9.4318489,55.5979643
2003943,Bygvænget,6040,5,9.4321941,55.5970073
2003944,Bygvænget,6040,6,9.4316692,55.5981388
2003945,Bygvænget,6040,7,9.432026,55.5967392
2003946,Bygvænget,6040,8,9.4316132,55.5983752
2003947,Bygvænget,6040,9,9.4321291,55.5965314
2003948,Bygvænget,6040,10,9.431526,55.598584
2003949,Bygvænget,6040,11,9.4322691,55.5963066
2003950,Bygvænget,6040,12,9.4310796,55.5985488
2003951,Bygvænget,6040,13,9.4325186,55.5960382
2003952,Bygvænget,6040,14,9.4311845,55.5981796
2003953,Bygvænget,6040,15,9.4319842,55.5960105
2003954,Bygvænget,6040,16,9.4312786,55.5979351
2003955,Bygvænget,6040,17,9.4318077,55.5962293
2003956,Bygvænget,6040,18,9.4313707,55.5976741
2003957,Bygvænget,6040,19,9.4316837,55.5965409
2003958,Bygvænget,6040,20,9.4307111,55.5976149
2003959,Bygvænget,6040,21,9.4315747,55.5967825
2003960,Bygvænget,6040,22,9.4305998,55.5978881
2003961,Bygvænget,6040,23,9.4314525,55.5971008
2003962,Bygvænget,6040,24,9.430513,55.598098
2003963,Bygvænget,6040,25,9.4313773,55.5972975
2003964,Bygvænget,6040,26,9.4305844,55.598452
2003965,Bygvænget,6040,27,9.4307986,55.5972531
2003966,Bygvænget,6040,28,9.4300589,55.598427
2003967,Bygvænget,6040,29,9.4307974,55.5970159
2003968,Bygvænget,6040,30,9.4300303,55.5982363
2003969,Bygvænget,6040,31,9.4309006,55.5967584
2003970,Bygvænget,6040,32,9.4301909,55.597896
2003971,Bygvænget,6040,33,9.431037,55.5964796
2003972,Bygvænget,6040,34,9.4303027,55.5976127
2003973,Bygvænget,6040,35,9.4305701,55.5964044
2003974,Bygvænget,6040,37,9.4302155,55.5963101
2003975,Bygvænget,6040,39,9.4305137,55.5966138
2003976,Bygvænget,6040,41,9.4304107,55.5968697
2003977,Bygvænget,6040,43,9.4302848,55.5972301
2005966,Dalgade,6040,1,9.3092183,55.6145348
2005967,Dalgade,6040,2,9.3084194,55.6149011
2005968,Dalgade,6040,2A,9.308555,55.614878
2005969,Dalgade,6040,3A,9.308898,55.614501
2005970,Dalgade,6040,3B,9.3089987,55.6145151
2005971,Dalgade,6040,3C,9.3090721,55.6145407
2005972,Dalgade,6040,3D,9.3089256,55.6145396
2005976,Dalgade,6040,4A,9.3082375,55.6149259
2005978,Dalgade,6040,4B,9.308136,55.6149406
2005982,Dalgade,6040,4C,9.3080481,55.6149959
2005986,Dalgade,6040,5,9.3086079,55.6146933
2005989,Dalgade,6040,6,9.3076439,55.6150555
2005993,Dalgade,6040,7,9.3083639,55.6147266
2005996,Dalgade,6040,8,9.307448,55.615059
2006001,Dalgade,6040,9,9.3081604,55.6147488
2006004,Dalgade,6040,10,9.3072297,55.6153031
2006007,Dalgade,6040,10A,9.3072442,55.6155131
2006012,Dalgade,6040,11,9.3078969,55.6147897
2006014,Dalgade,6040,12,9.307032,55.6155848
2006018,Dalgade,6040,13,9.3075955,55.6148292
2006020,Dalgade,6040,14,9.3064711,55.6153778
2006025,Dalgade,6040,15,9.3073379,55.614857
2006029,Dalgade,6040,16,9.3058744,55.6152528
2006030,Dalgade,6040,17,9.3068587,55.6142684
2006034,Dalgade,6040,18,9.3055868,55.6154912
2006037,Dalgade,6040,19,9.3069337,55.6149426
2006042,Dalgade,6040,20,9.3053136,55.6155131
2006046,Dalgade,6040,21,9.3067219,55.6149041
2006049,Dalgade,6040,21A,9.306635,55.61487
2006053,Dalgade,6040,21B,9.306643,55.614832
2006054,Dalgade,6040,22,9.3050623,55.615428
2006060,Dalgade,6040,23,9.3064522,55.614912
2006063,Dalgade,6040,24,9.3047903,55.6154431
2006064,Dalgade,6040,25,9.3061945,55.6148665
2006067,Dalgade,6040,26,9.3044793,55.615481
2006068,Dalgade,6040,27,9.3057896,55.6150183
2006073,Dalgade,6040,28,9.3041376,55.6156118
2006075,Dalgade,6040,30,9.3038814,55.6157044
2006077,Dalgade,6040,31,9.3029126,55.6158946
2006079,Dalgade,6040,32,9.3037004,55.6157787
2006080,Dalgade,6040,34,9.3034507,55.6159238
2006654,Tudvadvej,6040,1,9.3181797,55.6195402
2006655,Tudvadvej,6040,1A,9.319045,55.619638
2006656,Tudvadvej,6040,1B,9.3201184,55.619554
2006657,Tudvadvej,6040,1C,9.320635,55.6194295
2006658,Tudvadvej,6040,2,9.3176277,55.6191586
2006659,Tudvadvej,6040,3A,9.3242187,55.6191516
2006660,Tudvadvej,6040,4,9.329983,55.618802
2006661,Tudvadvej,6040,5,9.334017,55.619985
2006662,Tudvadvej,6040,6,9.334897,55.618783
2006663,Tudvadvej,6040,8,9.3351895,55.6198157
2006664,Tudvadvej,6040,10,9.3365658,55.6200139
2006665,Tudvadvej,6040,12,9.3373401,55.6202163
2006666,Tudvadvej,6040,12A,9.3379644,55.6202668
2006667,Tudvadvej,6040,14,9.3386346,55.6203984
2006668,Tudvadvej,6040,18,9.3400777,55.6191831
2006669,Tudvadvej,6040,20,9.34265,55.620626
2015181,Æblehaven,6040,1A,9.318093,55.609282
2015183,Æblehaven,6040,2,9.318459,55.608884
2015184,Æblehaven,6040,3,9.3189418,55.6097129
2015185,Æblehaven,6040,5,9.3185454,55.6108044
2015186,Æblehaven,6040,7,9.318892,55.6106498
2015188,Æblehaven,6040,9,9.3190841,55.6105127
2015189,Æblehaven,6040,11,9.3185844,55.6102152
2015190,Æblehaven,6040,13,9.3182898,55.6104178
2015191,Æblehaven,6040,15,9.3176743,55.6106416
2015193,Æblehaven,6040,17,9.3179712,55.610812
2015194,Æblehaven,6040,19,9.3181696,55.6109915
2015196,Æblehaven,6040,21,9.3175286,55.6112228
2015197,Æblehaven,6040,23,9.317315,55.6110307
2015198,Æblehaven,6040,25,9.3170989,55.6108173
2015199,Æblehaven,6040,27,9.3167577,55.6109506
2015200,Æblehaven,6040,29,9.3168456,55.6111433
2015201,Æblehaven,6040,31,9.3172177,55.6113477
2015203,Æblehaven,6040,84,9.3197077,55.610305
2015204,Æblehaven,6040,86,9.3200588,55.6102338
2015206,Æblehaven,6040,88,9.3203626,55.6101924
2015207,Æblehaven,6040,90,9.3253764,55.6087745
2015208,Æblehaven,6040,92,9.319715,55.610825
2015209,Æblehaven,6040,94,9.3190841,55.611131
2015210,Æblehaven,6040,96,9.3192887,55.6112848
2015212,Æblehaven,6040,98,9.319533,55.6114821
2015215,Æblehaven,6040,100,9.3198194,55.6116706
2015217,Æblehaven,6040,102,9.3190639,55.6116652
2015222,Æblehaven,6040,104,9.3188566,55.6114396
2015224,Æblehaven,6040,106,9.3186528,55.6112068
2015228,Æblehaven,6040,108,9.3181715,55.611464
2015231,Æblehaven,6040,110,9.3183603,55.6116541
2015233,Æblehaven,6040,112,9.3185971,55.61179
2015236,Æblehaven,6040,114,9.3178177,55.6116962
2015238,Æblehaven,6040,116,9.3173313,55.6117569
2015241,Æblehaven,6040,118,9.3168558,55.6118329
2019170,Rosenhaven,6040,1,9.3162081,55.6089452
2019172,Rosenhaven,6040,2,9.315647,55.6089714
2019174,Rosenhaven,6040,3,9.3165768,55.6089528
2019176,Rosenhaven,6040,4,9.3158197,55.6086892
2019178,Rosenhaven,6040,5,9.3169654,55.6089659
2019179,Rosenhaven,6040,7,9.3175387,55.6089073
2019180,Rosenhaven,6040,8,9.3164938,55.6084239
2019181,Rosenhaven,6040,9,9.3176833,55.6086959
2019183,Rosenhaven,6040,10,9.3167499,55.6085983
2019184,Rosenhaven,6040,11,9.3178005,55.6091847
2019185,Rosenhaven,6040,12,9.3173362,55.6085634
2019186,Rosenhaven,6040,13,9.318143,55.608188
2019188,Rosenhaven,6040,14,9.3179565,55.6084689
2019189,Rosenhaven,6040,15,9.3177782,55.6081218
2019191,Rosenhaven,6040,16,9.3175299,55.6083256
2019193,Rosenhaven,6040,17,9.3175639,55.6078915
2019197,Rosenhaven,6040,18,9.3170698,55.6083332
2019204,Rosenhaven,6040,19,9.3171611,55.6078559
2019206,Rosenhaven,6040,20,9.3167702,55.6082278
2019209,Rosenhaven,6040,21,9.3168332,55.607752
2019211,Rosenhaven,6040,22,9.316506,55.608053
2019214,Rosenhaven,6040,23,9.3184472,55.6075357
2019215,Rosenhaven,6040,24,9.3182803,55.6078859
2019218,Rosenhaven,6040,25,9.3181228,55.607414
2019219,Rosenhaven,6040,26,9.3180188,55.6077713
2019220,Rosenhaven,6040,27,9.3177783,55.6072763
2019222,Rosenhaven,6040,28,9.317532,55.6076563
2019225,Rosenhaven,6040,29,9.3174139,55.6071795
2019227,Rosenhaven,6040,30,9.3171111,55.6075058
2019228,Rosenhaven,6040,31,9.3190552,55.6077383
2019232,Rosenhaven,6040,33,9.3193244,55.6075982
2019234,Rosenhaven,6040,35,9.3191091,55.6073712
2019238,Rosenhaven,6040,37,9.3189087,55.6071954
2019239,Rosenhaven,6040,39,9.3186509,55.6070624
2028628,Fredsted Skovvej,6040,1,9.4825203,55.6092122
2028630,Fredsted Skovvej,6040,3,9.4826222,55.6094119
2028631,Fredsted Skovvej,6040,5,9.4855289,55.6158946
2028632,Fredsted Skovvej,6040,7,9.4860128,55.6175006
2028633,Fredsted Skovvej,6040,9,9.4836989,55.6208876
2028634,Fredsted Skovvej,6040,11,9.4799245,55.6215041
2028635,Fredsted Skovvej,6040,13,9.4779434,55.6211057
2028636,Fredsted Skovvej,6040,15,9.482662,55.621857
2028638,Fredsted Skovvej,6040,16,9.484594,55.6230922
2028640,Fredsted Skovvej,6040,18,9.487677,55.624802
2028644,Fredsted Skovvej,6040,19,9.482099,55.627936
2035674,Ådalsvej,6040,1,9.4288215,55.603651
2035675,Ådalsvej,6040,1B,9.4290452,55.6036221
2035676,Ådalsvej,6040,2,9.4293172,55.6034102
2035677,Ådalsvej,6040,2A,9.42876,55.603518
2035678,Ådalsvej,6040,3,9.4317179,55.603139
2035679,Ådalsvej,6040,5,9.4321148,55.6029936
2035680,Ådalsvej,6040,7,9.43297,55.6027128
2035681,Ådalsvej,6040,8,9.4310346,55.6030944
2035682,Ådalsvej,6040,9,9.43362,55.6024739
2035683,Ådalsvej,6040,10,9.4316594,55.6029214
2035684,Ådalsvej,6040,12,9.4319774,55.6028229
2035685,Ådalsvej,6040,14,9.4321371,55.6027532
2035687,Ådalsvej,6040,16,9.4326403,55.6024765
2035689,Ådalsvej,6040,18,9.4329233,55.6023816
2035691,Ådalsvej,6040,20,9.4326379,55.6020303
2035693,Ådalsvej,6040,22,9.4329587,55.6019748
2035695,Ådalsvej,6040,24,9.4333119,55.6022708
2035697,Ådalsvej,6040,32,9.4354518,55.6014469
2035698,Ådalsvej,6040,35,9.4408769,55.6007364
2035699,Ådalsvej,6040,38,9.4401198,55.6009526
2035700,Ådalsvej,6040,40,9.4392294,55.6000405
2035702,Ådalsvej,6040,46,9.442091,55.599943
2035703,Ådalsvej,6040,48,9.4426159,55.5997237
2035705,Ådalsvej,6040,50,9.4431414,55.5995687
2035707,Ådalsvej,6040,52,9.4428231,55.5993461
2035709,Ådalsvej,6040,54,9.4426057,55.5990911
2035710,Ådalsvej,6040,56,9.4434792,55.5994043
2035711,Ådalsvej,6040,58,9.4437822,55.5992931
2035712,Ådalsvej,6040,60,9.4442509,55.5991199
2035713,Ådalsvej,6040,62,9.4447681,55.5989287
2035714,Ådalsvej,6040,64,9.445288,55.5984714
2035715,Ådalsvej,6040,66,9.444236,55.598342
2039437,Skiftrupvej,6040,4,9.470479,55.628841
2039438,Skiftrupvej,6040,6,9.4697353,55.6302794
2039439,Skiftrupvej,6040,7,9.4652374,55.6309777
2039440,Skiftrupvej,6040,9,9.468807,55.63262
2039441,Skiftrupvej,6040,10,9.4692273,55.6330595
2043983,Hesselballevej,6040,39,9.4095401,55.6156721
2043985,Hesselballevej,6040,42,9.4145437,55.6122314
2043989,Hesselballevej,6040,44,9.4142659,55.6117092
2043993,Hesselballevej,6040,45,9.416915,55.61189
2043995,Hesselballevej,6040,46,9.4148003,55.6112233
2043999,Hesselballevej,6040,47,9.419325,55.611723
2044000,Hesselballevej,6040,48,9.4172445,55.6109092
2044005,Hesselballevej,6040,49,9.419539,55.611981
2046812,Starupvej,6040,1,9.430375,55.5955811
2046813,Starupvej,6040,2,9.4304812,55.5952126
2046814,Starupvej,6040,3,9.4304662,55.595659
2046815,Starupvej,6040,4,9.4309729,55.5952623
2046816,Starupvej,6040,6,9.4314257,55.5953089
2046817,Starupvej,6040,8,9.4318611,55.5953507
2046818,Starupvej,6040,10,9.4323392,55.5954303
2046819,Starupvej,6040,12,9.4326974,55.5954508
2046820,Starupvej,6040,14,9.4329936,55.5954809
2046821,Starupvej,6040,16,9.4332858,55.5955218
2046822,Starupvej,6040,18,9.4339213,55.5955239
2046823,Starupvej,6040,19,9.4318778,55.5956633
2046824,Starupvej,6040,20,9.4342426,55.5955888
2046825,Starupvej,6040,21,9.432302,55.5956803
2046826,Starupvej,6040,22,9.4346285,55.5956823
2046827,Starupvej,6040,23,9.4325894,55.59571
2046828,Starupvej,6040,24,9.4350409,55.5956931
2046829,Starupvej,6040,25,9.4334137,55.5958769
2046830,Starupvej,6040,26,9.4354171,55.595712
2046831,Starupvej,6040,27,9.4338411,55.5958606
2046832,Starupvej,6040,29,9.434214,55.595911
2046833,Starupvej,6040,31,9.4344923,55.5959733
2046834,Starupvej,6040,32,9.439007,55.593088
2046835,Starupvej,6040,33,9.434924,55.596013
2046836,Starupvej,6040,34,9.441862,55.597036
2046837,Starupvej,6040,35,9.4351815,55.5960673
2046838,Starupvej,6040,38,9.4457049,55.5979486
2046839,Starupvej,6040,40,9.4463664,55.5982116
2046840,Starupvej,6040,43,9.4394369,55.5975633
2046841,Starupvej,6040,45,9.4422973,55.59847
2048480,Havrevænget,6040,1,9.4324179,55.5981872
2048481,Havrevænget,6040,2,9.4325761,55.5978312
2048482,Havrevænget,6040,3,9.432365,55.598367
2048483,Havrevænget,6040,4,9.4327033,55.5976761
2048484,Havrevænget,6040,5,9.4322871,55.5986484
2048485,Havrevænget,6040,6,9.4328519,55.5974623
2048486,Havrevænget,6040,7,9.4322919,55.5987577
2048487,Havrevænget,6040,8,9.4332583,55.5974786
2048488,Havrevænget,6040,9,9.4327012,55.5988121
2048489,Havrevænget,6040,10,9.4331607,55.5977167
2048490,Havrevænget,6040,11,9.43283,55.5986728
2048491,Havrevænget,6040,12,9.4332971,55.5979341
2048492,Havrevænget,6040,13,9.43275,55.59846
2048493,Havrevænget,6040,14,9.4338626,55.5979639
2048494,Havrevænget,6040,15,9.4328185,55.5982176
2048495,Havrevænget,6040,16,9.433964,55.597774
2048496,Havrevænget,6040,17,9.4335617,55.5982939
2048497,Havrevænget,6040,18,9.4339278,55.5975267
2048498,Havrevænget,6040,19,9.4335115,55.5985138
2048499,Havrevænget,6040,20,9.4346092,55.5976217
2048500,Havrevænget,6040,21,9.4334214,55.5987239
2048501,Havrevænget,6040,22,9.434409,55.5978603
2048502,Havrevænget,6040,23,9.4334678,55.5988903
2048503,Havrevænget,6040,24,9.4342901,55.5980979
2048504,Havrevænget,6040,25,9.4339468,55.5989947
2048505,Havrevænget,6040,27,9.4339338,55.5987439
2048506,Havrevænget,6040,29,9.4338663,55.598573
2048507,Havrevænget,6040,31,9.4340836,55.5983129
2050628,Præstevænget,6040,1,9.3100892,55.6167304
2050629,Præstevænget,6040,1A,9.309749,55.616604
2050630,Præstevænget,6040,2,9.3103936,55.6166024
2050632,Præstevænget,6040,3,9.3100964,55.6168564
2050634,Præstevænget,6040,4,9.3105418,55.6167689
2050636,Præstevænget,6040,5,9.310102,55.61698
2050637,Præstevænget,6040,6,9.3105634,55.6169781
2050643,Præstevænget,6040,7,9.3100531,55.6172758
2050646,Præstevænget,6040,8,9.3105425,55.6171705
2050649,Præstevænget,6040,9,9.3100621,55.617454
2050652,Præstevænget,6040,10,9.3104993,55.6173926
2050658,Præstevænget,6040,11,9.3100251,55.617727
2050662,Præstevænget,6040,12,9.310502,55.6177658
2050665,Præstevænget,6040,13,9.3100778,55.6179276
2050669,Præstevænget,6040,14,9.3105143,55.6179591
2050671,Præstevænget,6040,15,9.3100884,55.6181231
2050677,Præstevænget,6040,16,9.310461,55.6181028
2050681,Præstevænget,6040,17,9.3100883,55.6183167
2050683,Præstevænget,6040,18,9.3106403,55.6184213
2050684,Præstevænget,6040,19,9.310105,55.618601
2050685,Præstevænget,6040,20,9.3107443,55.6185569
2050686,Præstevænget,6040,21,9.3101065,55.6187787
2050687,Præstevænget,6040,22,9.3107328,55.6186869
2050688,Præstevænget,6040,23,9.310074,55.619058
2050690,Præstevænget,6040,24,9.3106058,55.6187975
2050691,Præstevænget,6040,26,9.310656,55.618943
2050694,Præstevænget,6040,28,9.3106649,55.6190366
2053414,Frydsvej,6040,1,9.3007041,55.6189897
2053417,Frydsvej,6040,2,9.3002655,55.6191154
2053419,Frydsvej,6040,3,9.3006049,55.6188383
2053422,Frydsvej,6040,4,9.300093,55.618717
2053424,Frydsvej,6040,5,9.3004829,55.6186213
2053426,Frydsvej,6040,6,9.2994674,55.6185044
2053428,Frydsvej,6040,7,9.2992472,55.618204
2053431,Frydsvej,6040,8,9.2991529,55.6184345
2053434,Frydsvej,6040,9,9.2988007,55.6182201
2053436,Frydsvej,6040,10,9.29887,55.618533
2053438,Frydsvej,6040,11,9.2984487,55.6179811
2053440,Frydsvej,6040,12,9.2985506,55.6185563
2053442,Frydsvej,6040,13,9.2983414,55.6182277
2053444,Frydsvej,6040,14,9.2980919,55.6185311
2053446,Frydsvej,6040,15,9.2979963,55.6182913
2053448,Frydsvej,6040,16,9.2977013,55.6186168
2053450,Frydsvej,6040,17,9.2975641,55.6183709
2053452,Frydsvej,6040,18,9.2972823,55.6186867
2053454,Frydsvej,6040,19,9.297199,55.6184381
2053456,Frydsvej,6040,20,9.296902,55.6187428
2053458,Frydsvej,6040,21,9.296668,55.6184349
2053459,Frydsvej,6040,22,9.2964932,55.6188064
2053461,Frydsvej,6040,23,9.2962295,55.6185568
2053462,Frydsvej,6040,24,9.2961939,55.619052
2053468,Frydsvej,6040,25,9.2959724,55.6186126
2053470,Frydsvej,6040,26,9.295577,55.6189311
2053475,Frydsvej,6040,27,9.2956044,55.6186746
2053480,Frydsvej,6040,28,9.2953952,55.6190348
2068143,Åglimt,6040,1A,9.4291498,55.6000499
2068144,Åglimt,6040,1B,9.4297059,55.6001354
2068145,Åglimt,6040,2,9.4305248,55.6000029
2068146,Åglimt,6040,3,9.4300057,55.6001313
2068147,Åglimt,6040,4,9.4318081,55.6000617
2068148,Åglimt,6040,5,9.4302485,55.6001681
2068149,Åglimt,6040,6,9.4322315,55.6001442
2068150,Åglimt,6040,8,9.4327467,55.60018
2068151,Åglimt,6040,9,9.4308505,55.6001928
2068152,Åglimt,6040,9A,9.4312882,55.6003818
2068153,Åglimt,6040,10,9.4331905,55.6002178
2068154,Åglimt,6040,11,9.4311224,55.6005711
2068155,Åglimt,6040,13,9.4316161,55.600768
2068156,Åglimt,6040,15,9.431858,55.6006781
2068157,Åglimt,6040,17,9.4318151,55.6003146
2068158,Åglimt,6040,19,9.4322524,55.6003857
2068159,Åglimt,6040,21,9.4325835,55.6004156
2068160,Åglimt,6040,23,9.4328856,55.6004488
2068161,Åglimt,6040,25,9.4321436,55.6008508
2068162,Åglimt,6040,27,9.4327078,55.6009094
2068163,Åglimt,6040,29,9.4331844,55.6007801
2068164,Åglimt,6040,31,9.4333002,55.6005307
2068165,Åglimt,6040,33,9.4338257,55.600484
2069903,Toften,6040,1,9.4276713,55.6036096
2069906,Toften,6040,2,9.4271596,55.6034025
2069907,Toften,6040,3,9.4275804,55.6034151
2069909,Toften,6040,4,9.4266455,55.6034062
2069910,Toften,6040,5,9.4274488,55.6031632
2069911,Toften,6040,6,9.426198,55.603474
2069912,Toften,6040,7,9.4273004,55.6028607
2069913,Toften,6040,8,9.4257615,55.6035362
2069914,Toften,6040,9,9.427231,55.602687
2069915,Toften,6040,10,9.4256884,55.6033362
2069916,Toften,6040,11,9.4276284,55.6022633
2069918,Toften,6040,12,9.4259482,55.6032536
2069919,Toften,6040,14,9.426367,55.6032388
2069920,Toften,6040,15,9.4273681,55.6023801
2069921,Toften,6040,16,9.4267789,55.603173
2069922,Toften,6040,17,9.4270416,55.6024217
2069923,Toften,6040,18,9.4268139,55.6028071
2069924,Toften,6040,19,9.4266188,55.6024911
2069925,Toften,6040,20,9.4264344,55.6028318
2069926,Toften,6040,21,9.4262459,55.6025454
2069927,Toften,6040,22,9.4260359,55.6028589
2069928,Toften,6040,23,9.4258187,55.6025999
2069930,Toften,6040,24,9.4255461,55.6029025
2069931,Toften,6040,25,9.4254515,55.602711
2071711,Oustrupvej,6040,1,9.34039,55.621404
2071712,Oustrupvej,6040,6,9.339211,55.626708
2071713,Oustrupvej,6040,7,9.3297231,55.6242703
2071714,Oustrupvej,6040,8,9.337971,55.632199
2071715,Oustrupvej,6040,10,9.341456,55.63392
2071716,Oustrupvej,6040,12,9.341693,55.635284
2071717,Oustrupvej,6040,14,9.332612,55.627076
2071718,Oustrupvej,6040,15,9.326535,55.626087
2071719,Oustrupvej,6040,17,9.3218534,55.6287816
2071720,Oustrupvej,6040,18,9.3218188,55.632993
2071721,Oustrupvej,6040,19,9.3205512,55.6334505
2071722,Oustrupvej,6040,20,9.324958,55.634224
2071724,Oustrupvej,6040,23,9.3226656,55.6376611
2071725,Oustrupvej,6040,27,9.327965,55.6398593
2071726,Oustrupvej,6040,29,9.3301126,55.6411265
2071727,Oustrupvej,6040,31,9.3306657,55.6438888
2071728,Oustrupvej,6040,32,9.3363458,55.6398881
2071730,Oustrupvej,6040,36,9.342506,55.640728
2071731,Oustrupvej,6040,38,9.3460738,55.640775
2071734,Oustrupvej,6040,40,9.346766,55.64245
2071735,Oustrupvej,6040,44,9.340022,55.644488
2071736,Oustrupvej,6040,49,9.3383874,55.6491234
2071738,Oustrupvej,6040,52,9.3407888,55.6515608
2071740,Oustrupvej,6040,59,9.339128,55.656271
2073748,Kløvervænget,6040,1,9.4331863,55.5968343
2073749,Kløvervænget,6040,2,9.4332969,55.5964674
2073750,Kløvervænget,6040,3,9.4330918,55.5970485
2073751,Kløvervænget,6040,4,9.4333226,55.5963082
2073752,Kløvervænget,6040,5,9.4330631,55.5972309
2073753,Kløvervænget,6040,6,9.4333836,55.5961487
2073754,Kløvervænget,6040,7,9.4335272,55.5972482
2073755,Kløvervænget,6040,8,9.4338537,55.5962147
2073756,Kløvervænget,6040,9,9.433521,55.597066
2073757,Kløvervænget,6040,10,9.4337184,55.5964046
2073758,Kløvervænget,6040,11,9.4335749,55.5968855
2073759,Kløvervænget,6040,12,9.4336256,55.5965604
2073760,Kløvervænget,6040,13,9.4344432,55.5969687
2073761,Kløvervænget,6040,14,9.4343023,55.5966629
2073762,Kløvervænget,6040,15,9.4342708,55.5971576
2073763,Kløvervænget,6040,16,9.434579,55.5964729
2073764,Kløvervænget,6040,17,9.4343171,55.5973179
2073765,Kløvervænget,6040,18,9.4345258,55.5962426
2073766,Kløvervænget,6040,20,9.4349936,55.5963969
2073767,Kløvervænget,6040,22,9.4349068,55.596665
2073768,Kløvervænget,6040,24,9.4348446,55.5968967
2073769,Kløvervænget,6040,26,9.4347709,55.5971309
2073770,Kløvervænget,6040,28,9.434715,55.597376
2075899,Søndermarksvej,6040,2,9.4444107,55.5974552
2075900,Søndermarksvej,6040,3,9.4445885,55.5947118
2075901,Søndermarksvej,6040,6,9.4427027,55.5924163
2075902,Søndermarksvej,6040,7,9.4474194,55.5909386
2075903,Søndermarksvej,6040,11,9.444678,55.587432
2075904,Søndermarksvej,6040,11A,9.444695,55.586975
2075905,Søndermarksvej,6040,12,9.443938,55.585915
2075906,Søndermarksvej,6040,13,9.449414,55.587039
2075907,Søndermarksvej,6040,15,9.4520254,55.5794874
2075908,Søndermarksvej,6040,17,9.452307,55.5851721
2075909,Søndermarksvej,6040,19,9.4438009,55.5850531
2075910,Søndermarksvej,6040,21,9.4437524,55.5842964
2075911,Søndermarksvej,6040,22,9.4424023,55.5813031
2075912,Søndermarksvej,6040,23,9.443055,55.581557
2075913,Søndermarksvej,6040,25,9.4461665,55.5805444
2075914,Søndermarksvej,6040,26,9.440694,55.579429
2075915,Søndermarksvej,6040,27,9.442353,55.5801789
2075916,Søndermarksvej,6040,28,9.439036,55.579383
2075917,Søndermarksvej,6040,29,9.44347,55.578276
2075918,Søndermarksvej,6040,30,9.4369384,55.5791349
2075919,Søndermarksvej,6040,31,9.4385996,55.5790354
2075920,Søndermarksvej,6040,33,9.435939,55.57872
2076126,Silkevænget,6040,1,9.431773,55.593344
2076127,Silkevænget,6040,2,9.430825,55.59323
2076128,Silkevænget,6040,3,9.431897,55.593028
2076129,Silkevænget,6040,4,9.430364,55.593172
2076130,Silkevænget,6040,5,9.431264,55.593042
2076131,Silkevænget,6040,6,9.429843,55.59319
2076132,Silkevænget,6040,7,9.431112,55.592627
2076133,Silkevænget,6040,8,9.429471,55.59307
2076134,Silkevænget,6040,9,9.4318224,55.5925426
2076135,Silkevænget,6040,10,9.428985,55.592971
2076136,Silkevænget,6040,11,9.431068,55.592181
2076137,Silkevænget,6040,12,9.4287297,55.592665
2076138,Silkevænget,6040,13,9.430719,55.592355
2076139,Silkevænget,6040,14,9.4291535,55.5927388
2076140,Silkevænget,6040,15,9.4300619,55.592189
2076141,Silkevænget,6040,16,9.4297086,55.5928024
2076142,Silkevænget,6040,18,9.430734,55.592925
2076143,Silkevænget,6040,20,9.430236,55.592562
2076144,Silkevænget,6040,22,9.42986,55.592432
2076145,Silkevænget,6040,24,9.429275,55.592246
2076146,Silkevænget,6040,26,9.428387,55.592251
2076615,Baskærvej,6040,2,9.311649,55.608229
2076616,Baskærvej,6040,6,9.308072,55.604038
2076617,Baskærvej,6040,7,9.313298,55.601706
2076618,Baskærvej,6040,10,9.2995236,55.6007346
2076619,Baskærvej,6040,11,9.304637,55.598099
2076620,Baskærvej,6040,12,9.295333,55.599936
2076621,Baskærvej,6040,18,9.3036979,55.593004
2076622,Baskærvej,6040,19,9.3061693,55.5948606
2076623,Baskærvej,6040,21,9.308466,55.59422
2076624,Baskærvej,6040,22,9.303602,55.591032
2076625,Baskærvej,6040,25,9.304777,55.58929
2076626,Baskærvej,6040,27,9.3039282,55.5879804
2076627,Baskærvej,6040,28,9.3026928,55.58732
2076628,Baskærvej,6040,31,9.304735,55.585309
2076629,Baskærvej,6040,32,9.3014831,55.5852309
2076630,Baskærvej,6040,33,9.305933,55.584142
2076631,Baskærvej,6040,35,9.3052254,55.5827164
2076632,Baskærvej,6040,37,9.3058907,55.583517
2076633,Baskærvej,6040,38,9.300041,55.584201
2076634,Baskærvej,6040,39,9.3076557,55.5823497
2077225,Åhaven,6040,1,9.4312566,55.5956714
2077226,Åhaven,6040,2,9.43137,55.5958003
2077227,Åhaven,6040,3,9.4311147,55.5956613
2077228,Åhaven,6040,4,9.4313477,55.5958607
2077229,Åhaven,6040,5,9.4309714,55.5956504
2077230,Åhaven,6040,6,9.4313251,55.5959207
2077231,Åhaven,6040,7,9.4308165,55.5956349
2077232,Åhaven,6040,8,9.4313356,55.5959952
2077233,Åhaven,6040,10,9.4313101,55.5960629
2077234,Åhaven,6040,12,9.4312774,55.5961509
2077235,Åhaven,6040,14,9.4311048,55.5961086
2077236,Åhaven,6040,16,9.4309761,55.5960978
2077237,Åhaven,6040,18,9.4308751,55.5960893
2077238,Åhaven,6040,20,9.4307441,55.5960567
2077239,Åhaven,6040,22,9.4306399,55.596048
2077240,Åhaven,6040,24,9.4305167,55.5960377
2078703,Skærsøvej,6040,1,9.295559,55.582593
2078704,Skærsøvej,6040,2,9.296336,55.586219
2078705,Skærsøvej,6040,2A,9.2960354,55.5855126
2078706,Skærsøvej,6040,4,9.2938131,55.5862029
2078707,Skærsøvej,6040,6,9.2926841,55.5870541
2078708,Skærsøvej,6040,7,9.2863246,55.586086
2078709,Skærsøvej,6040,10,9.2900907,55.5896447
2078710,Skærsøvej,6040,12,9.2890149,55.5905728
2078711,Skærsøvej,6040,16,9.2826017,55.5906896
2078712,Skærsøvej,6040,17,9.2795913,55.5875617
2078713,Skærsøvej,6040,21,9.271936,55.588015
2078714,Skærsøvej,6040,22,9.2793768,55.5915165
2078715,Skærsøvej,6040,26,9.275294,55.59401
2078716,Skærsøvej,6040,28,9.280985,55.596047
2078717,Skærsøvej,6040,30,9.278655,55.597017
2078718,Skærsøvej,6040,35,9.2679127,55.5937436
2078719,Skærsøvej,6040,35E,9.2621788,55.5904102
2078720,Skærsøvej,6040,36,9.269209,55.598035
2078721,Skærsøvej,6040,40,9.2649725,55.5961028
2078722,Skærsøvej,6040,46,9.26045,55.599351
2079607,Skansevej,6040,2,9.3558396,55.5872819
2079608,Skansevej,6040,4,9.3564097,55.5874926
2079609,Skansevej,6040,11,9.3661122,55.5872245
2079610,Skansevej,6040,15,9.3688059,55.5871842
2079611,Skansevej,6040,16,9.3680463,55.5861096
2079612,Skansevej,6040,18,9.369693,55.586223
2079613,Skansevej,6040,19,9.3741567,55.5874868
2079614,Skansevej,6040,20,9.3743169,55.5848187
2079615,Skansevej,6040,22,9.373427,55.584316
2079616,Skansevej,6040,24,9.3792823,55.5847621
2079618,Skansevej,6040,26,9.3777595,55.5843831
2079620,Skansevej,6040,28,9.377907,55.587646
2080036,Ølgårdvej,6040,3,9.245469,55.627065
2080037,Ølgårdvej,6040,4,9.2418958,55.6296352
2080038,Ølgårdvej,6040,6,9.2412203,55.6296608
2080039,Ølgårdvej,6040,8,9.2396188,55.6298906
2080040,Ølgårdvej,6040,10,9.2389712,55.629974
2080041,Ølgårdvej,6040,14,9.2329582,55.6320648
2080043,Ølgårdvej,6040,18,9.228457,55.6344723
2080044,Ølgårdvej,6040,18A,9.2290592,55.6348685
2080046,Ølgårdvej,6040,20,9.2270046,55.6348202
2080047,Ølgårdvej,6040,24,9.2145629,55.6413402
2080048,Ølgårdvej,6040,25,9.2057873,55.6343928
2080110,Lindebo,6040,1,9.3101441,55.615147
2080111,Lindebo,6040,3,9.3100136,55.615145
2080112,Lindebo,6040,5,9.3098996,55.6151618
2080113,Lindebo,6040,7,9.3097672,55.6151614
2080114,Lindebo,6040,9,9.3099165,55.6154658
2080115,Lindebo,6040,11,9.3098055,55.6154607
2080116,Lindebo,6040,13,9.3096687,55.6154751
2080117,Lindebo,6040,15,9.3095489,55.6154694
2080118,Lindebo,6040,17,9.3099449,55.6157188
2080119,Lindebo,6040,19,9.3096105,55.6157414
2081319,Egtved Holt,6040,4,9.289346,55.629711
2081320,Egtved Holt,6040,6,9.289606,55.626393
2081321,Egtved Holt,6040,7,9.285921,55.62479
2081322,Egtved Holt,6040,8,9.28596,55.626872
2081323,Egtved Holt,6040,10,9.286274,55.629287
2081324,Egtved Holt,6040,11,9.28148,55.627175
2081325,Egtved Holt,6040,12,9.282812,55.6284574
2081326,Egtved Holt,6040,15,9.2801694,55.630349
2081329,Egtved Holt,6040,16,9.2849581,55.6314284
2081336,Egtved Holt,6040,18,9.282972,55.631766
2081337,Egtved Holt,6040,19,9.274399,55.633965
2081340,Egtved Holt,6040,21,9.2788508,55.6349503
2081344,Egtved Holt,6040,23,9.2760142,55.6367591
2081345,Egtved Holt,6040,25,9.2778261,55.6369587
2081348,Egtved Holt,6040,27,9.281339,55.6395914
2081350,Egtved Holt,6040,28,9.2836667,55.6405629
2081353,Egtved Holt,6040,29,9.2823311,55.6400304
2081355,Egtved Holt,6040,31,9.2779202,55.6379062
2082752,Roedsvej,6040,8,9.3689546,55.592403
2082753,Roedsvej,6040,10,9.375635,55.591693
2082754,Roedsvej,6040,15A,9.3625504,55.5954073
2082755,Roedsvej,6040,15C,9.362155,55.5958959
2082756,Roedsvej,6040,16,9.3635051,55.5982762
2082757,Roedsvej,6040,17,9.362314,55.5987352
2082758,Roedsvej,6040,18,9.3634027,55.5985977
2082759,Roedsvej,6040,18A,9.3642949,55.5987217
2082760,Roedsvej,6040,18B,9.3646387,55.5988192
2082761,Roedsvej,6040,20,9.3634307,55.5988876
2082762,Roedsvej,6040,21,9.362716,55.599594
2082763,Roedsvej,6040,25,9.3621446,55.6020706
2082767,Fredstedvej,6040,2,9.4516288,55.6017078
2082768,Fredstedvej,6040,3,9.4546695,55.6014952
2082769,Fredstedvej,6040,10,9.4707222,55.5989415
2082770,Fredstedvej,6040,12,9.470345,55.597778
2082771,Fredstedvej,6040,14,9.468389,55.592809
2082772,Fredstedvej,6040,16,9.477812,55.6006711
2082773,Fredstedvej,6040,17,9.477229,55.608295
2082774,Fredstedvej,6040,19,9.474455,55.607855
2082775,Fredstedvej,6040,20,9.4823784,55.6083602
2082776,Fredstedvej,6040,21,9.4845693,55.6094787
2082777,Fredstedvej,6040,22,9.4835253,55.6087469
2082778,Fredstedvej,6040,24,9.4841252,55.6087732
2082779,Fredstedvej,6040,26,9.4855879,55.6091293
2082780,Fredstedvej,6040,30,9.4943531,55.6106765
2082781,Fredstedvej,6040,32,9.495075,55.6114
2082784,Fredstedvej,6040,34,9.4959196,55.6114382
2083365,Sofiesmindevej,6040,2,9.425952,55.5923976
2083366,Sofiesmindevej,6040,3,9.4255951,55.592206
2083367,Sofiesmindevej,6040,4,9.4255623,55.5924002
2083368,Sofiesmindevej,6040,6,9.425117,55.5924322
2083369,Sofiesmindevej,6040,8,9.4246126,55.5925424
2083370,Sofiesmindevej,6040,9,9.4240413,55.5923627
2083439,Hvedevænget,6040,1,9.4317954,55.5997348
2083442,Hvedevænget,6040,2,9.4320044,55.5994555
2083443,Hvedevænget,6040,3,9.4324257,55.5997812
2083446,Hvedevænget,6040,4,9.4320427,55.5992572
2083448,Hvedevænget,6040,5,9.4328469,55.5998186
2083449,Hvedevænget,6040,6,9.4320619,55.5989824
2083450,Hvedevænget,6040,7,9.433302,55.5998931
2083451,Hvedevænget,6040,8,9.432552,55.5991278
2083452,Hvedevænget,6040,9,9.433279,55.5996846
2083453,Hvedevænget,6040,10,9.4323645,55.5995372
2083454,Hvedevænget,6040,11,9.4333534,55.5994561
2083455,Hvedevænget,6040,13,9.4333502,55.5991939
2083456,Hvedevænget,6040,14,9.4328819,55.5995759
2083457,Hvedevænget,6040,16,9.4329184,55.5993331
2083460,Hvedevænget,6040,18,9.4330075,55.5991653
2084175,Vork Skolevej,6040,2,9.32395,55.653076
2084177,Vork Skolevej,6040,3,9.3242456,55.6533074
2084178,Vork Skolevej,6040,4,9.322951,55.64781
2084182,Vork Skolevej,6040,6,9.325272,55.645284
2084183,Vork Skolevej,6040,10,9.3296798,55.6524068
2084184,Vork Skolevej,6040,11A,9.3319498,55.6526583
2084186,Vork Skolevej,6040,11B,9.332144,55.652625
2084188,Vork Skolevej,6040,15,9.3347375,55.6524276
2084190,Vork Skolevej,6040,16,9.3345891,55.651409
2084191,Vork Skolevej,6040,20,9.339553,55.651676
2084387,Højgårdvej,6040,1,9.424729,55.5846126
2084388,Højgårdvej,6040,2,9.421689,55.584108
2084389,Højgårdvej,6040,3,9.4246224,55.5842667
2084390,Højgårdvej,6040,5,9.4250234,55.5843167
2084391,Højgårdvej,6040,6,9.4201543,55.5828476
2084392,Højgårdvej,6040,7,9.425399,55.5843419
2084393,Højgårdvej,6040,8,9.4186518,55.5815242
2084394,Højgårdvej,6040,9,9.4257903,55.584198
2084395,Højgårdvej,6040,11,9.4261627,55.5839889
2084396,Højgårdvej,6040,13,9.4255431,55.5840335
2084397,Højgårdvej,6040,15,9.425094,55.5839826
2084398,Højgårdvej,6040,17,9.4246576,55.5840583
2085504,Majsvænget,6040,1,9.4278743,55.5906722
2085505,Majsvænget,6040,2,9.427092,55.589823
2085506,Majsvænget,6040,3,9.427619,55.590651
2085507,Majsvænget,6040,4,9.4271656,55.5897335
2085508,Majsvænget,6040,5,9.4273581,55.5906346
2085509,Majsvænget,6040,6,9.4272379,55.5896462
2085510,Majsvænget,6040,7,9.427103,55.590633
2085511,Majsvænget,6040,8,9.4273955,55.589529
2085512,Majsvænget,6040,9,9.4271551,55.5908669
2085513,Majsvænget,6040,10,9.427304,55.589357
2085514,Majsvænget,6040,11,9.4275164,55.5908518
2085515,Majsvænget,6040,13,9.4278084,55.5908539
2085516,Majsvænget,6040,15,9.4280904,55.5909009
2085517,Majsvænget,6040,16,9.4275583,55.5894178
2085520,Majsvænget,6040,17,9.428043,55.5910993
2085521,Majsvænget,6040,18,9.4277132,55.5893754
2085522,Majsvænget,6040,19,9.4276754,55.5911042
2085524,Majsvænget,6040,20,9.4279347,55.5893411
2085526,Majsvænget,6040,21,9.4272741,55.5911039
2085528,Majsvænget,6040,22,9.4281203,55.5893404
2085531,Majsvænget,6040,23,9.4274816,55.5913038
2085533,Majsvænget,6040,25,9.4277603,55.5913051
2085535,Majsvænget,6040,27,9.4280381,55.5913023
2085537,Majsvænget,6040,29,9.4283195,55.5913088
2085539,Majsvænget,6040,31,9.4285972,55.5913055
2085542,Majsvænget,6040,56,9.4275121,55.5898088
2085544,Majsvænget,6040,58,9.4276163,55.5896986
2085546,Majsvænget,6040,60,9.4278159,55.5895679
2085548,Majsvænget,6040,62,9.4280336,55.5895398
2085551,Majsvænget,6040,70,9.4282864,55.5901783
2085552,Majsvænget,6040,74,9.4289936,55.5902131
2085553,Majsvænget,6040,76,9.4297735,55.5906216
2085554,Majsvænget,6040,78,9.4290588,55.5907511
2085555,Majsvænget,6040,80,9.428918,55.59106
2085556,Majsvænget,6040,82,9.429295,55.591037
2085557,Majsvænget,6040,84,9.429671,55.591015
2085558,Majsvænget,6040,86,9.430049,55.590993
2085559,Majsvænget,6040,88,9.430401,55.591052
2085560,Majsvænget,6040,90,9.430516,55.59125
2085561,Majsvænget,6040,92,9.430129,55.591231
2085562,Majsvænget,6040,94,9.429734,55.591201
2085563,Majsvænget,6040,96,9.429353,55.591221
2085564,Majsvænget,6040,98,9.428978,55.591247
2086098,Smalfort,6040,1,9.3101491,55.6147246
2086101,Smalfort,6040,2A,9.3142646,55.6147972
2086105,Smalfort,6040,3,9.3105731,55.6147413
2086109,Smalfort,6040,4,9.310904,55.614848
2086111,Smalfort,6040,4A,9.311164,55.614904
2086114,Smalfort,6040,5,9.310691,55.6151203
2086116,Smalfort,6040,7,9.310655,55.615301
2086117,Smalfort,6040,8,9.3109424,55.6156848
2086118,Smalfort,6040,9,9.3106406,55.615477
2086119,Smalfort,6040,10,9.3111689,55.6160337
2086120,Smalfort,6040,11,9.3102151,55.6156961
2086121,Smalfort,6040,12,9.311612,55.6161588
2086122,Smalfort,6040,13,9.310636,55.615689
2086123,Smalfort,6040,14,9.3120011,55.6163636
2086124,Smalfort,6040,15,9.3106233,55.615853
2086125,Smalfort,6040,16,9.3124317,55.6158377
2086126,Smalfort,6040,18,9.3122324,55.6165628
2086127,Højmarken,6040,1,9.3169015,55.619977
2086128,Højmarken,6040,1Z,9.316405,55.62035
2086129,Højmarken,6040,3,9.3171825,55.619875
2086130,Højmarken,6040,5,9.3167612,55.6197197
2086131,Højmarken,6040,7,9.3165564,55.6198746
2086132,Højmarken,6040,9,9.3161356,55.6198894
2086133,Højmarken,6040,11,9.3160266,55.6196522
2086134,Højmarken,6040,13,9.3155995,55.6195871
2086135,Højmarken,6040,15,9.3151112,55.6195804
2086136,Højmarken,6040,17,9.3151963,55.6197664
2086137,Højmarken,6040,19,9.3152794,55.6200254
2086138,Højmarken,6040,21,9.3156114,55.6200317
2086139,Højmarken,6040,23,9.3154258,55.6203966
2086141,Højmarken,6040,25,9.3154526,55.6205643
2086142,Højmarken,6040,27,9.3154785,55.6207544
2086144,Højmarken,6040,29,9.3154898,55.6210584
2086147,Højmarken,6040,31,9.315984,55.6209914
2086148,Højmarken,6040,33,9.3164445,55.6209643
2086152,Højmarken,6040,35,9.3168937,55.6208857
2086154,Højmarken,6040,37,9.3172766,55.6208543
2086156,Højmarken,6040,39,9.3178201,55.6207638
2086158,Højmarken,6040,41,9.3177137,55.6205268
2086159,Højmarken,6040,43,9.3172769,55.6205475
2086161,Højmarken,6040,45,9.3172055,55.6202567
2086432,Tingvej,6040,1,9.3071145,55.6188306
2086433,Tingvej,6040,1A,9.3066021,55.618187
2086434,Tingvej,6040,1B,9.3060252,55.6182881
2086435,Tingvej,6040,1C,9.3054731,55.6183288
2086436,Tingvej,6040,2,9.3067855,55.6191979
2086438,Tingvej,6040,3,9.305007,55.6186003
2086441,Tingvej,6040,4,9.3066535,55.6188779
2086444,Tingvej,6040,6,9.306354,55.61877
2086447,Tingvej,6040,8,9.3060486,55.6188448
2086448,Tingvej,6040,10,9.3057169,55.6187966
2086450,Tingvej,6040,12,9.3053984,55.618841
2086562,Vollundvej,6040,2,9.2378585,55.6440721
2086563,Vollundvej,6040,3,9.2312258,55.6412858
2086564,Vollundvej,6040,4,9.226674,55.638213
2086880,Nydamsvej,6040,3,9.3077346,55.6210754
2086881,Nydamsvej,6040,4,9.3073618,55.6214604
2086882,Nydamsvej,6040,5,9.3071199,55.6210767
2086883,Nydamsvej,6040,7A,9.306926,55.620564
2086884,Nydamsvej,6040,7B,9.306922,55.620523
2086887,Nydamsvej,6040,8,9.3056536,55.6214521
2086890,Nydamsvej,6040,8A,9.3047632,55.622005
2086891,Nydamsvej,6040,9,9.3065695,55.6207247
2086892,Nydamsvej,6040,10,9.3037397,55.6215518
2086893,Nydamsvej,6040,11,9.3065965,55.6211228
2086894,Nydamsvej,6040,12,9.302485,55.6216561
2086895,Nydamsvej,6040,13,9.306192,55.621112
2086896,Nydamsvej,6040,17,9.3048711,55.6209466
2086897,Nydamsvej,6040,21,9.3039114,55.621102
2086900,Nydamsvej,6040,27,9.3030299,55.6206814
2086998,Syrenhaven,6040,1,9.319052,55.6083
2086999,Syrenhaven,6040,2,9.3193551,55.6081366
2087000,Syrenhaven,6040,3,9.3187539,55.6085893
2087001,Syrenhaven,6040,4,9.319862,55.6083423
2087002,Syrenhaven,6040,5,9.3194649,55.6084778
2087003,Syrenhaven,6040,6,9.3205669,55.6084445
2087004,Syrenhaven,6040,7,9.3201045,55.6087289
2087005,Syrenhaven,6040,8,9.3207639,55.6080851
2087006,Syrenhaven,6040,9,9.3204186,55.6090456
2087007,Syrenhaven,6040,10,9.3209613,55.6073924
2087008,Syrenhaven,6040,11,9.320232,55.609248
2087009,Syrenhaven,6040,12,9.3221654,55.6077245
2087010,Syrenhaven,6040,13,9.3198841,55.6093479
2087011,Syrenhaven,6040,14,9.3228702,55.607741
2087012,Syrenhaven,6040,15,9.3195299,55.6095117
2087013,Syrenhaven,6040,16,9.3239898,55.6078296
2087014,Syrenhaven,6040,17,9.3197421,55.6097139
2087015,Syrenhaven,6040,18,9.324721,55.6081573
2087016,Syrenhaven,6040,19,9.320282,55.609666
2087017,Syrenhaven,6040,20,9.3246249,55.6084644
2087020,Syrenhaven,6040,21,9.3206462,55.6095723
2087021,Syrenhaven,6040,22,9.323569,55.608934
2087023,Syrenhaven,6040,23,9.3211466,55.6095194
2087024,Syrenhaven,6040,24,9.3225549,55.6093078
2087025,Syrenhaven,6040,26,9.3219704,55.6094839
2087126,Knudsbølvej,6040,2A,9.344735,55.588359
2087127,Knudsbølvej,6040,2B,9.344732,55.588276
2087130,Knudsbølvej,6040,4,9.3448504,55.5877278
2087132,Knudsbølvej,6040,5,9.344546,55.5856815
2087134,Knudsbølvej,6040,10,9.337915,55.58408
2087135,Knudsbølvej,6040,11,9.339127,55.581738
2087136,Knudsbølvej,6040,12,9.335981,55.58368
2087137,Knudsbølvej,6040,13,9.337157,55.583373
2087138,Knudsbølvej,6040,14,9.334308,55.583122
2087139,Knudsbølvej,6040,15,9.33304,55.58239
2087140,Knudsbølvej,6040,16,9.3310374,55.5824771
2087141,Knudsbølvej,6040,17,9.3320693,55.5808524
2087142,Knudsbølvej,6040,18,9.326763,55.582473
2087143,Knudsbølvej,6040,19,9.327881,55.579695
2087144,Knudsbølvej,6040,19A,9.3287625,55.5815426
2087145,Knudsbølvej,6040,22,9.32381,55.584848
2087441,Amhedevej,6040,1,9.260305,55.607819
2087444,Amhedevej,6040,4,9.2559172,55.6113902
2087447,Amhedevej,6040,5,9.2537413,55.6114807
2087556,Jordrup Skovvej,6040,6,9.349009,55.578706
2087557,Jordrup Skovvej,6040,7,9.3498078,55.5778342
2087558,Jordrup Skovvej,6040,9,9.3486193,55.5719066
2088020,Søndergyden,6040,1,9.4295241,55.6018832
2088021,Søndergyden,6040,3,9.4301443,55.6019905
2088023,Søndergyden,6040,5,9.4306831,55.6019288
2088354,Gammel Landevej,6040,3,9.4242165,55.6122066
2088356,Gammel Landevej,6040,4,9.4239382,55.6118395
2088360,Gammel Landevej,6040,6,9.423954,55.611699
2088363,Gammel Landevej,6040,11,9.425198,55.6097764
2088440,Spjarupvej,6040,2,9.2540109,55.6421058
2088441,Spjarupvej,6040,4,9.2573412,55.6418259
2088442,Spjarupvej,6040,6,9.2580967,55.6419152
2088443,Spjarupvej,6040,7,9.2616656,55.6433953
2088444,Spjarupvej,6040,9,9.265713,55.645993
2088445,Spjarupvej,6040,10,9.2647595,55.6415166
2088446,Spjarupvej,6040,12,9.2670486,55.6422317
2088448,Spjarupvej,6040,15,9.2745159,55.6436254
2088451,Spjarupvej,6040,17,9.2784559,55.6452245
2088452,Spjarupvej,6040,20,9.2819658,55.6419232
2088768,Fredsted Byvej,6040,1,9.4864451,55.6093397
2088770,Fredsted Byvej,6040,3,9.4889612,55.6072072
2088773,Fredsted Byvej,6040,5,9.4892922,55.6071151
2089200,Jægervej,6040,1,9.4978109,55.6157889
2089201,Jægervej,6040,3,9.497712,55.6148518
2089515,Syvhøjevej,6040,1,9.2335086,55.6073131
2089517,Syvhøjevej,6040,6,9.242763,55.604584
2089555,Dulmosevej,6040,2,9.2908809,55.6106029
2089556,Dulmosevej,6040,2A,9.290973,55.610818
2089557,Dulmosevej,6040,2B,9.2907903,55.6109711
2089558,Dulmosevej,6040,2C,9.2904617,55.6108434
2089559,Dulmosevej,6040,2D,9.2902274,55.6103829
2089560,Dulmosevej,6040,4,9.2869733,55.6065364
2089561,Dulmosevej,6040,5,9.2869891,55.6024586
2089562,Dulmosevej,6040,6,9.284657,55.605815
2089563,Dulmosevej,6040,7,9.289202,55.601426
2089564,Dulmosevej,6040,8,9.2824809,55.602534
2089565,Dulmosevej,6040,9,9.281672,55.601548
2089566,Dulmosevej,6040,10,9.2777497,55.6033514
2089567,Dulmosevej,6040,11,9.2729928,55.59896
2089568,Nordbækvej,6040,5,9.2199181,55.6293965
2089569,Nordbækvej,6040,6,9.2203251,55.6318209
2089570,Nordbækvej,6040,8,9.2168764,55.6293931
2089571,Nordbækvej,6040,10,9.215809,55.630232
2089572,Nordbækvej,6040,15,9.209786,55.62841
2089573,Nordbækvej,6040,17,9.207846,55.626149
2089574,Nordbækvej,6040,19,9.207912,55.622291
2089575,Nordbækvej,6040,21,9.2043967,55.617819
2089576,Nordbækvej,6040,23,9.2031858,55.6164273
2089719,Kirkebakken,6040,1A,9.4206441,55.5844981
2089721,Kirkebakken,6040,2,9.4227124,55.5844089
2089722,Kirkebakken,6040,2A,9.423051,55.5843325
2089723,Kirkebakken,6040,2B,9.423046,55.5844987
2089724,Kirkebakken,6040,3,9.421919,55.5846474
2089725,Kirkebakken,6040,4,9.423416,55.584849
2089726,Kirkebakken,6040,5,9.4224708,55.5848114
2089728,Kirkebakken,6040,6,9.4235732,55.5850938
2089729,Kirkebakken,6040,7,9.4225771,55.584995
2089731,Kirkebakken,6040,9,9.422158,55.585166
2089732,Kirkebakken,6040,11,9.4226234,55.5853036
2089733,Kirkebakken,6040,13,9.423096,55.585667
2089734,Kirkebakken,6040,13A,9.421584,55.585552
2089735,Kirkebakken,6040,15,9.4234451,55.585961
2089736,Kirkebakken,6040,17,9.4230667,55.5862046
2090348,Jagtvej,6040,1,9.3401677,55.588913
2090349,Jagtvej,6040,1A,9.3398399,55.5890881
2090350,Jagtvej,6040,2,9.3409627,55.5901386
2090352,Jagtvej,6040,3,9.3409266,55.5927823
2090354,Jagtvej,6040,7,9.345402,55.595917
2090355,Jagtvej,6040,9,9.341913,55.601077
2090356,Jagtvej,6040,11,9.3475937,55.601708
2090357,Jagtvej,6040,13,9.3464592,55.6027494
2090358,Jagtvej,6040,14,9.34936,55.602763
2090360,Jagtvej,6040,17,9.343978,55.606492
2090810,Venborgvej,6040,1,9.37352,55.600962
2090811,Venborgvej,6040,3,9.3737432,55.5996921
2090882,Ved Møllen,6040,3,9.4251004,55.5907254
2090883,Ved Møllen,6040,5,9.4245438,55.5908049
2091012,Rydeng,6040,1,9.3044698,55.6151194
2091013,Rydeng,6040,2A,9.30393,55.6153692
2091014,Rydeng,6040,2B,9.3034194,55.6155498
2091015,Rydeng,6040,3,9.3038871,55.6151162
2091016,Rydeng,6040,4,9.3031075,55.6155396
2091017,Rydeng,6040,5,9.3034975,55.615221
2091018,Rydeng,6040,7,9.3032114,55.6152646
2091019,Rydeng,6040,8,9.302629,55.6156104
2091020,Rydeng,6040,9,9.3028527,55.6153114
2091021,Rydeng,6040,11,9.3024458,55.6154041
2091261,Bølling Tværvej,6040,1,9.3339581,55.5900267
2091262,Bølling Tværvej,6040,3,9.3300705,55.5890551
2091263,Bølling Tværvej,6040,5,9.330411,55.5902697
2091264,Bølling Tværvej,6040,7,9.325468,55.587644
2091265,Bølling Tværvej,6040,8,9.3245212,55.5921705
2091266,Bølling Tværvej,6040,9,9.322289,55.588629
2091267,Bølling Tværvej,6040,11,9.317037,55.587477
2091268,Bølling Tværvej,6040,13A,9.3206318,55.584322
2091269,Bølling Tværvej,6040,15,9.309333,55.585646
2091270,Bølling Tværvej,6040,17,9.3100181,55.5870619
2091271,Bølling Tværvej,6040,19,9.311736,55.590586
2091272,Bølling Tværvej,6040,21,9.3142304,55.5917162
2091274,Bølling Tværvej,6040,22,9.3134198,55.5943015
2091333,Østerlundvej,6040,2,9.3569536,55.6076224
2091335,Østerlundvej,6040,3,9.3582909,55.6107873
2091336,Østerlundvej,6040,5,9.3610903,55.6122144
2091337,Østerlundvej,6040,6,9.364127,55.607067
2091338,Østerlundvej,6040,7,9.365972,55.612777
2091339,Østerlundvej,6040,9,9.366804,55.608265
2091340,Østerlundvej,6040,11,9.3682074,55.6103134
2091341,Østerlundvej,6040,15,9.375053,55.611345
2091342,Østerlundvej,6040,17,9.3815752,55.6111375
2091343,Østerlundvej,6040,19,9.3861919,55.6114799
2092725,Varmkærvej,6040,6,9.4557162,55.5981316
2092726,Varmkærvej,6040,8,9.4553938,55.5978597
2092727,Varmkærvej,6040,8A,9.4547346,55.598024
2092728,Varmkærvej,6040,9,9.4570484,55.5973461
2092729,Varmkærvej,6040,10,9.4542446,55.5977894
2092730,Varmkærvej,6040,11,9.4568251,55.5952717
2092731,Varmkærvej,6040,12,9.4539917,55.5973998
2092732,Varmkærvej,6040,13,9.452585,55.594904
2092733,Varmkærvej,6040,14,9.4531711,55.5979365
2092886,Hovmosevej,6040,16,9.330401,55.576739
2092888,Hovmosevej,6040,36,9.3042104,55.5805123
2093276,Solsikkehaven,6040,1,9.3124775,55.6096216
2093277,Solsikkehaven,6040,2,9.3120112,55.609983
2093278,Solsikkehaven,6040,8,9.311851,55.610317
2093279,Solsikkehaven,6040,10,9.311746,55.610414
2093280,Solsikkehaven,6040,12,9.3116216,55.6105258
2093281,Solsikkehaven,6040,14,9.311452,55.610384
2093282,Solsikkehaven,6040,16,9.3112252,55.6103589
2093283,Solsikkehaven,6040,18,9.3113717,55.6102032
2093284,Solsikkehaven,6040,20,9.311553,55.610248
2093294,Grønnevej,6040,1,9.4295211,55.6026021
2093295,Grønnevej,6040,2A,9.4293741,55.6024302
2093296,Grønnevej,6040,3,9.4299826,55.6026244
2093297,Grønnevej,6040,4,9.4295357,55.6022999
2093298,Grønnevej,6040,5,9.4304443,55.6025207
2093299,Grønnevej,6040,6,9.4301364,55.6023347
2093300,Grønnevej,6040,7,9.4308725,55.602493
2093301,Grønnevej,6040,8,9.4307562,55.6023201
2093303,Grønnevej,6040,9,9.4311959,55.6025749
2093304,Grønnevej,6040,10,9.4312795,55.6022507
2093306,Grønnevej,6040,11,9.4315742,55.6025284
2093308,Grønnevej,6040,12,9.4314585,55.6019726
2093310,Grønnevej,6040,14,9.4318129,55.602032
2093312,Grønnevej,6040,16,9.4319894,55.6022994
2093372,Risgårdvej,6040,2,9.344918,55.651016
2093794,Peder Platz Vej,6040,1,9.283868,55.628179
2093853,Spjarup Markvej,6040,2,9.237743,55.6333327
2093854,Spjarup Markvej,6040,3,9.2391202,55.6363832
2093875,Runddelen,6040,1,9.45492,55.606064
2093876,Runddelen,6040,4,9.4555557,55.6064832
2093877,Runddelen,6040,6,9.4556145,55.6066472
2093878,Runddelen,6040,7,9.4549696,55.6070774
2093879,Runddelen,6040,10,9.4560628,55.6075632
2093880,Runddelen,6040,11,9.4550146,55.6078586
2093881,Runddelen,6040,12,9.4564894,55.6073944
2093882,Runddelen,6040,14,9.4555074,55.6073664
2093883,Runddelen,6040,15,9.455623,55.6084094
2093884,Runddelen,6040,16,9.4557013,55.6076273
2093885,Runddelen,6040,18,9.4563574,55.6081499
2093886,Runddelen,6040,20,9.4568645,55.6079776
2093887,Runddelen,6040,22,9.4573652,55.6079757
2094011,Håstrupmindevej,6040,1,9.4251547,55.5880362
2094014,Håstrupmindevej,6040,2,9.4246471,55.5881419
2094015,Håstrupmindevej,6040,3,9.4250801,55.5878793
2094017,Håstrupmindevej,6040,4,9.4246661,55.5879708
2094019,Håstrupmindevej,6040,5,9.4250529,55.5876569
2094020,Håstrupmindevej,6040,6,9.4246531,55.5877334
2094021,Håstrupmindevej,6040,7,9.4249897,55.5874651
2094023,Håstrupmindevej,6040,8,9.4246185,55.5875426
2094025,Håstrupmindevej,6040,10,9.4243918,55.587236
2094126,Tågelundvej,6040,4,9.25155,55.6284727
2094127,Tågelundvej,6040,5,9.2467646,55.6251017
2094128,Tågelundvej,6040,7,9.2475787,55.6249997
2094129,Tågelundvej,6040,7A,9.2472541,55.6245601
2094130,Tågelundvej,6040,8,9.2457026,55.6242524
2094131,Tågelundvej,6040,9,9.2468753,55.6231019
2094132,Tågelundvej,6040,10,9.2449121,55.6231527
2094133,Tågelundvej,6040,11,9.245729,55.622653
2094134,Tågelundvej,6040,12,9.2421291,55.6221353
2094136,Tågelundvej,6040,14,9.2367779,55.6217592
2094138,Tågelundvej,6040,17,9.2406882,55.6153538
2094140,Tågelundvej,6040,20,9.2388909,55.6123237
2094142,Tågelundvej,6040,24,9.238569,55.607817
2094480,Verstvej,6040,1,9.2811177,55.614123
2094482,Verstvej,6040,3,9.281447,55.612044
2094483,Verstvej,6040,9,9.280036,55.606384
2094484,Verstvej,6040,10,9.2749414,55.6080757
2094485,Verstvej,6040,11,9.2683996,55.6053115
2094486,Verstvej,6040,16,9.2669232,55.6052484
2094487,Verstvej,6040,18,9.26612,55.6052296
2094488,Verstvej,6040,22,9.260279,55.603372
2094489,Verstvej,6040,30,9.2572384,55.5993746
2094490,Verstvej,6040,34,9.251298,55.598801
2094492,Verstvej,6040,38,9.247027,55.593013
2094494,Verstvej,6040,42,9.2401213,55.5920991
2094496,Verstvej,6040,44,9.2367774,55.5927438
2095578,Fyrre Alle,6040,1,9.2977126,55.6191463
2095579,Fyrre Alle,6040,3,9.297303,55.6191103
2095580,Fyrre Alle,6040,5,9.2968729,55.6191462
2095581,Fyrre Alle,6040,5B,9.294791,55.61909
2095582,Fyrre Alle,6040,6,9.3003937,55.6199503
2095583,Fyrre Alle,6040,7A,9.2941848,55.6190877
2095584,Fyrre Alle,6040,7B,9.2936134,55.6190851
2095585,Fyrre Alle,6040,8,9.298864,55.6196888
2095693,Mosevej,6040,3,9.230921,55.59655
2095938,Bakkevej,6040,2,9.3006013,55.6169911
2095939,Bakkevej,6040,4,9.3009045,55.6173278
2095940,Bakkevej,6040,6,9.3002986,55.6174026
2095941,Bakkevej,6040,8,9.2999086,55.617668
2095942,Bakkevej,6040,12,9.29961,55.618087
2096182,Ruggårdvej,6040,5,9.3177028,55.6348668
2096183,Ruggårdvej,6040,7,9.3178754,55.6349659
2096184,Ruggårdvej,6040,9,9.3180976,55.6349524
2096242,Kirkevænget,6040,1,9.2998445,55.619116
2096243,Kirkevænget,6040,7A,9.2995049,55.6190777
2096244,Kirkevænget,6040,7B,9.2993115,55.6190722
2096245,Kirkevænget,6040,7C,9.2991178,55.619068
2096247,Kirkevænget,6040,7D,9.2989233,55.6190636
2096249,Kirkevænget,6040,7E,9.2987298,55.6190574
2096251,Kirkevænget,6040,9,9.2983018,55.6190707
2096253,Kirkevænget,6040,9A,9.2981185,55.6188432
2097133,Tybovej,6040,1,9.3101164,55.6204074
2097134,Tybovej,6040,1A,9.3101165,55.6198049
2097135,Tybovej,6040,2,9.3109967,55.6201606
2097136,Tybovej,6040,3,9.309777,55.6216054
2097137,Tybovej,6040,6,9.310601,55.620904
2097138,Tybovej,6040,10,9.3106066,55.6217087
2097151,Vestermarksvej,6040,1,9.4557522,55.6086151
2097152,Vestermarksvej,6040,3,9.4554732,55.6088132
2097153,Vestermarksvej,6040,9,9.4499518,55.6114191
2097154,Vestermarksvej,6040,11,9.4496208,55.6114584
2097155,Vestermarksvej,6040,13,9.4476371,55.6116713
2097156,Vestermarksvej,6040,13B,9.449768,55.616466
2097509,Phønixborgvej,6040,1,9.425167,55.5884586
2097510,Phønixborgvej,6040,3,9.424598,55.588449
2097511,Phønixborgvej,6040,8,9.4242477,55.5886281
2097512,Phønixborgvej,6040,9,9.4183211,55.5883896
2097513,Phønixborgvej,6040,11,9.41795,55.5884066
2097514,Phønixborgvej,6040,16,9.4157988,55.5891404
2097548,Fittingvej,6040,41,9.1984761,55.6160405
2097627,Bølling Markvej,6040,1,9.3277681,55.5934501
2098168,Hejlskovbjerg,6040,1,9.3092826,55.6130194
2098169,Hejlskovbjerg,6040,2,9.3096818,55.6132989
2098171,Hejlskovbjerg,6040,3,9.3073626,55.6131605
2098173,Hejlskovbjerg,6040,4,9.309234,55.613513
2098175,Hejlskovbjerg,6040,5,9.3059229,55.6124118
2098177,Hejlskovbjerg,6040,5A,9.304889,55.611881
2098180,Hejlskovbjerg,6040,7,9.3042295,55.612097
2098181,Hejlskovbjerg,6040,11,9.2997111,55.6115008
2098573,Ballesgårdvej,6040,5,9.341931,55.616562
2098574,Ballesgårdvej,6040,6,9.3482,55.619716
2098575,Ballesgårdvej,6040,8,9.352502,55.617966
2098576,Ballesgårdvej,6040,9,9.343874,55.621242
2098577,Ballesgårdvej,6040,10,9.356747,55.616533
2098578,Ballesgårdvej,6040,12,9.361705,55.615594
2098719,Bidalgårdvej,6040,2,9.2996825,55.6353932
2098720,Bidalgårdvej,6040,4,9.295567,55.636326
2098721,Bidalgårdvej,6040,6,9.2984632,55.6328757
2098722,Bidalgårdvej,6040,8,9.293186,55.632664
2098723,Bidalgårdvej,6040,10,9.288748,55.6353499
2098772,Smedebakken,6040,1,9.4250168,55.5853778
2098773,Smedebakken,6040,2,9.425857,55.584861
2098774,Smedebakken,6040,3,9.4253643,55.5851127
2098776,Smedebakken,6040,5,9.4256871,55.5849864
2098779,Smedebakken,6040,7,9.4260488,55.5850107
2099013,Råbjergvej,6040,1,9.304989,55.626619
2099014,Råbjergvej,6040,3,9.3051353,55.6252111
2099015,Råbjergvej,6040,4,9.310215,55.624817
2099017,Råbjergvej,6040,5,9.3118231,55.6259517
2099019,Råbjergvej,6040,6,9.310132,55.6230663
2099020,Råbjergvej,6040,7,9.309905,55.627941
2099023,Råbjergvej,6040,9,9.313413,55.625349
2099740,Grøndalvej,6040,5,9.254983,55.614778
2099741,Grøndalvej,6040,8,9.256951,55.621838
2099742,Grøndalvej,6040,9,9.2526445,55.6192567
2099743,Grøndalvej,6040,10,9.2564611,55.6224449
2099744,Grøndalvej,6040,14,9.247963,55.624357
2099745,Grøndalvej,6040,17,9.2444334,55.6244171
2099746,Grøndalvej,6040,21,9.225307,55.624206
2099747,Grøndalvej,6040,23,9.2217637,55.6194937
2099754,Brudesøvej,6040,1,9.321977,55.603343
2099755,Brudesøvej,6040,2,9.32237,55.601561
2099756,Brudesøvej,6040,3,9.3220853,55.602495
2099757,Brudesøvej,6040,5,9.3237039,55.6031676
2099758,Brudesøvej,6040,7,9.3236274,55.6034379
2099759,Brudesøvej,6040,9,9.322478,55.604069
2099760,Brudesøvej,6040,9B,9.322826,55.604139
2099761,Brudesøvej,6040,9C,9.32301,55.604138
2099762,Brudesøvej,6040,11,9.3219021,55.6041226
2099763,Brudesøvej,6040,13,9.325018,55.604573
2099764,Brudesøvej,6040,15,9.3274405,55.6057842
2099765,Brudesøvej,6040,17,9.3280061,55.606697
2099766,Brudesøvej,6040,20,9.332849,55.602327
2099767,Brudesøvej,6040,21,9.3367796,55.6046197
2099768,Brudesøvej,6040,22,9.3358751,55.6013099
2099828,Sønderskovvej,6040,2,9.4289525,55.602832
2099829,Sønderskovvej,6040,3,9.4296432,55.6030105
2099830,Sønderskovvej,6040,4,9.4294875,55.6027771
2099831,Sønderskovvej,6040,5,9.4298825,55.6029939
2099832,Sønderskovvej,6040,6A,9.4301199,55.6028161
2099833,Sønderskovvej,6040,6B,9.4304775,55.6028582
2099834,Sønderskovvej,6040,8,9.4304532,55.6030121
2100340,Egtved Skovvej,6040,4,9.2954096,55.5973943
2100341,Egtved Skovvej,6040,6,9.2958949,55.5976991
2100342,Egtved Skovvej,6040,8,9.291072,55.598059
2100343,Egtved Skovvej,6040,10,9.287913,55.592989
2100344,Egtved Skovvej,6040,11,9.292289,55.590158
2100433,Lupinvænget,6040,1,9.4343797,55.5953304
2100434,Lupinvænget,6040,2,9.4335202,55.5951444
2100435,Lupinvænget,6040,3,9.4340877,55.5951756
2100436,Lupinvænget,6040,4,9.4332254,55.5948196
2100437,Lupinvænget,6040,5,9.433928,55.5950099
2100438,Lupinvænget,6040,6,9.4335265,55.5945859
2100439,Lupinvænget,6040,7,9.4337032,55.5947681
2101172,Vinkelgårdsvej,6040,1,9.3105977,55.6113269
2101173,Vinkelgårdsvej,6040,2,9.3101619,55.6114934
2101174,Vinkelgårdsvej,6040,4,9.3093216,55.6114732
2101175,Vinkelgårdsvej,6040,6,9.3088193,55.6114572
2101176,Vinkelgårdsvej,6040,14,9.305726,55.610237
2101199,Kærvej,6040,1,9.4264259,55.5887348
2101200,Kærvej,6040,2,9.4263869,55.588466
2101201,Kærvej,6040,3,9.4267428,55.5886106
2101202,Kærvej,6040,4,9.427176,55.588483
2101203,Kærvej,6040,5,9.4275163,55.5886227
2108961,Bakkedraget,6040,1,9.408046,55.5569119
2108965,Bakkedraget,6040,2,9.4071019,55.5572882
2108975,Bakkedraget,6040,3,9.4078227,55.5568821
2108988,Bakkedraget,6040,4,9.407184,55.557593
2108994,Bakkedraget,6040,5,9.4081283,55.5566872
2109007,Bakkedraget,6040,6,9.4072608,55.5578926
2109012,Bakkedraget,6040,7,9.407904,55.5566576
2109024,Bakkedraget,6040,8,9.4073742,55.5581245
2109032,Bakkedraget,6040,9,9.4082172,55.5564666
2109037,Bakkedraget,6040,10,9.4069934,55.5587716
2109044,Bakkedraget,6040,11,9.4079821,55.5564341
2109048,Bakkedraget,6040,12,9.4067927,55.5589526
2109050,Bakkedraget,6040,13,9.4083125,55.556207
2109054,Bakkedraget,6040,14,9.4066098,55.5592102
2109059,Bakkedraget,6040,15,9.4080723,55.5561743
2109062,Bakkedraget,6040,16,9.4059222,55.5590944
2109066,Bakkedraget,6040,17,9.4084403,55.5559686
2109067,Bakkedraget,6040,18,9.4053256,55.5590857
2109069,Bakkedraget,6040,19,9.4081981,55.5559359
2109074,Bakkedraget,6040,20,9.4047083,55.5588999
2109076,Bakkedraget,6040,21,9.4084786,55.5557478
2109079,Bakkedraget,6040,22,9.404933,55.558677
2109081,Bakkedraget,6040,23,9.4082458,55.5557179
2109083,Bakkedraget,6040,24,9.4054738,55.558774
2109087,Bakkedraget,6040,25,9.4080546,55.5556892
2109089,Bakkedraget,6040,26,9.4061,55.5588309
2109090,Bakkedraget,6040,27,9.4077969,55.555654
2109095,Bakkedraget,6040,28,9.4063487,55.5586852
2109100,Bakkedraget,6040,29,9.4078529,55.5558861
2109101,Bakkedraget,6040,30,9.406766,55.5580318
2109104,Bakkedraget,6040,31,9.4076246,55.5558554
2109110,Bakkedraget,6040,32,9.4067304,55.55779
2109113,Bakkedraget,6040,33,9.4078335,55.5561031
2109118,Bakkedraget,6040,34,9.4066904,55.5574594
2109123,Bakkedraget,6040,35,9.4075901,55.5560691
2109125,Bakkedraget,6040,36,9.4066623,55.5572099
2109132,Bakkedraget,6040,37,9.4077295,55.5563991
2109138,Bakkedraget,6040,38,9.405891,55.5571617
2109147,Bakkedraget,6040,39,9.4074853,55.5563633
2109154,Bakkedraget,6040,40,9.4059263,55.5573885
2109159,Bakkedraget,6040,41,9.4076462,55.5566229
2109165,Bakkedraget,6040,42,9.4060032,55.5576622
2109176,Bakkedraget,6040,43,9.4074197,55.55659
2109181,Bakkedraget,6040,44,9.4061454,55.5579731
2109189,Bakkedraget,6040,45,9.4075715,55.5568469
2109194,Bakkedraget,6040,46,9.4055309,55.5578844
2109198,Bakkedraget,6040,47,9.4073363,55.5568118
2109209,Bakkedraget,6040,48,9.4055634,55.5576372
2109220,Bakkedraget,6040,49,9.406452,55.556723
2109226,Bakkedraget,6040,50,9.4054459,55.5573069
2109235,Bakkedraget,6040,51,9.406541,55.556511
2109239,Bakkedraget,6040,52,9.4054455,55.5570386
2109249,Bakkedraget,6040,53,9.406549,55.556267
2109260,Bakkedraget,6040,54,9.404836,55.5569796
2109264,Bakkedraget,6040,55,9.4065522,55.5559501
2109273,Bakkedraget,6040,56,9.4049073,55.557283
2109282,Bakkedraget,6040,57,9.406892,55.555755
2109287,Bakkedraget,6040,58,9.4049674,55.5575081
2109296,Bakkedraget,6040,59,9.4067611,55.5555297
2109304,Bakkedraget,6040,60,9.4050115,55.5577368
2109307,Bakkedraget,6040,61,9.4064696,55.5554041
2109316,Bakkedraget,6040,63,9.406272,55.555693
2109325,Bakkedraget,6040,65,9.406231,55.555926
2109330,Bakkedraget,6040,67,9.4061573,55.5561461
2109335,Bakkedraget,6040,69,9.4061915,55.5564068
2109338,Bakkedraget,6040,71,9.406085,55.55664
2109346,Bakkedraget,6040,73,9.405409,55.556578
2109352,Bakkedraget,6040,75,9.405663,55.556283
2109354,Bakkedraget,6040,77,9.40545,55.556121
2109359,Bakkedraget,6040,79,9.4055653,55.5557749
2109363,Bakkedraget,6040,81,9.405537,55.555589
2109366,Bakkedraget,6040,83,9.405663,55.55534
2109368,Bakkedraget,6040,85,9.405237,55.555312
2109375,Bakkedraget,6040,87,9.4051769,55.5555262
2109376,Bakkedraget,6040,89,9.405118,55.5557038
2109381,Bakkedraget,6040,91,9.405027,55.556012
2109388,Bakkedraget,6040,93,9.405105,55.556283
2109390,Bakkedraget,6040,95,9.4049808,55.5564214
2112465,Sandholmvej,6040,1,9.406692,55.5671807
2112468,Sandholmvej,6040,2,9.406913,55.567029
2112471,Sandholmvej,6040,3,9.4067712,55.5672325
2112474,Sandholmvej,6040,4,9.4070009,55.5670906
2112478,Sandholmvej,6040,5,9.4068241,55.5673646
2112482,Sandholmvej,6040,6,9.4071097,55.5671932
2112484,Sandholmvej,6040,7,9.4069169,55.5674292
2112487,Sandholmvej,6040,8,9.4071911,55.5672477
2113580,Sødalen,6040,1,9.415709,55.5651746
2113586,Sødalen,6040,2,9.4150724,55.5651338
2113590,Sødalen,6040,3,9.4161996,55.5652595
2113595,Sødalen,6040,4,9.414709,55.565316
2113603,Sødalen,6040,5,9.416462,55.565118
2113604,Sødalen,6040,6,9.4144731,55.5654531
2113609,Sødalen,6040,7,9.4159848,55.565002
2113614,Sødalen,6040,8,9.414096,55.5655002
2113615,Sødalen,6040,9,9.4157489,55.5649285
2113621,Sødalen,6040,10,9.414145,55.565152
2113626,Sødalen,6040,11,9.415818,55.564432
2113628,Sødalen,6040,12,9.414443,55.56506
2113634,Sødalen,6040,13,9.416223,55.5643884
2113639,Sødalen,6040,14,9.414717,55.56495
2113640,Sødalen,6040,15,9.4166464,55.5644389
2113643,Sødalen,6040,16,9.4151005,55.5648669
2113645,Sødalen,6040,17,9.416664,55.56423
2113648,Sødalen,6040,18,9.415183,55.5643251
2113653,Sødalen,6040,19,9.4162539,55.5641582
2113654,Sødalen,6040,20,9.414699,55.564412
2113659,Sødalen,6040,21,9.4157261,55.5641633
2113665,Sødalen,6040,22,9.4141312,55.564402
2113669,Sødalen,6040,24,9.41418,55.5641804
2113678,Sødalen,6040,26,9.415417,55.563983
2113784,Tjørnehøj,6040,10,9.402694,55.571046
2114229,Åvænget,6040,1,9.4057561,55.5632733
2114233,Åvænget,6040,1A,9.4056841,55.5633788
2114244,Åvænget,6040,1B,9.4055985,55.5633826
2114246,Åvænget,6040,2,9.4060404,55.5640379
2114254,Åvænget,6040,3,9.4049474,55.5635297
2114258,Åvænget,6040,3A,9.405401,55.563436
2114269,Åvænget,6040,3B,9.4052847,55.5634413
2114276,Åvænget,6040,3C,9.4051863,55.5634461
2114284,Åvænget,6040,4,9.4058846,55.5640644
2114291,Åvænget,6040,5,9.4057126,55.5636518
2114296,Åvænget,6040,6,9.405615,55.5641084
2114307,Åvænget,6040,7,9.4055442,55.5636782
2114310,Åvænget,6040,8,9.4054295,55.5641395
2114322,Åvænget,6040,9,9.4052951,55.5636973
2114330,Åvænget,6040,10,9.405168,55.564184
2114333,Åvænget,6040,11,9.4051159,55.5637236
2114339,Åvænget,6040,12,9.4049763,55.5642125
2114343,Åvænget,6040,13,9.4048318,55.5637292
2114349,Åvænget,6040,15,9.4046446,55.5637616
2114352,Åvænget,6040,17,9.4056249,55.5638953
2114355,Åvænget,6040,19,9.4054811,55.5639139
2114360,Åvænget,6040,21,9.4053314,55.5639371
2114363,Åvænget,6040,23,9.4050996,55.5639594
2114366,Åvænget,6040,25,9.40489,55.5639952
2114368,Åvænget,6040,27,9.404628,55.5639713
2114372,Åvænget,6040,29,9.4044299,55.5639992
2121400,Emmas Have,6040,2,9.3119537,55.6148438
2121404,Emmas Have,6040,4,9.3124505,55.614812
2121408,Emmas Have,6040,6,9.3129903,55.61483
2121411,Emmas Have,6040,8,9.3134943,55.6148649
2121417,Emmas Have,6040,10,9.3133918,55.6152887
2121419,Emmas Have,6040,12,9.3131528,55.6151443
2121422,Emmas Have,6040,14,9.3128058,55.6150833
2121423,Emmas Have,6040,16,9.3123746,55.6150722
2121425,Emmas Have,6040,18,9.3119099,55.6151112
2123478,Hejlskovparken,6040,2,9.3127269,55.6085781
2123481,Hejlskovparken,6040,4,9.3128528,55.6085029
2123485,Hejlskovparken,6040,6,9.3129531,55.608443
2123490,Hejlskovparken,6040,8,9.3130755,55.60837
2123494,Hejlskovparken,6040,10,9.3132022,55.6082943
2123499,Hejlskovparken,6040,12,9.3133384,55.608213
2123509,Hejlskovparken,6040,14,9.3131451,55.6087202
2123510,Hejlskovparken,6040,16,9.3132338,55.6086499
2123513,Hejlskovparken,6040,18,9.3133458,55.608561
2123515,Hejlskovparken,6040,20,9.3134565,55.6084733
2123520,Hejlskovparken,6040,22,9.3135546,55.6083954
2123526,Hejlskovparken,6040,24,9.3136479,55.6083214
2123530,Hejlskovparken,6040,26,9.3123859,55.6092576
2123542,Hejlskovparken,6040,28,9.3124799,55.6091844
2123543,Hejlskovparken,6040,30,9.3125938,55.6090956
2123545,Hejlskovparken,6040,32,9.3126946,55.6090171
2123548,Hejlskovparken,6040,34,9.3127931,55.6089404
2123552,Hejlskovparken,6040,36,9.3128879,55.6088666
2123556,Hejlskovparken,6040,38,9.3119559,55.6090894
2123560,Hejlskovparken,6040,40,9.3120616,55.6090055
2123570,Hejlskovparken,6040,42,9.312164,55.6089244
2123571,Hejlskovparken,6040,44,9.3122744,55.6088367
2123572,Hejlskovparken,6040,46,9.3123634,55.6087663
2123578,Hejlskovparken,6040,48,9.3124445,55.6087019
2123581,Hejlskovparken,6040,50,9.3113528,55.6105838
2123582,Hejlskovparken,6040,51,9.310386,55.609083
2123586,Hejlskovparken,6040,52,9.3095972,55.610283
2123589,Hejlskovparken,6040,53,9.31054,55.609134
2123593,Hejlskovparken,6040,54,9.3103816,55.610239
2123596,Hejlskovparken,6040,55,9.310751,55.609166
2123598,Hejlskovparken,6040,56,9.3106569,55.6097319
2123600,Hejlskovparken,6040,57,9.311012,55.609172
2123601,Hejlskovparken,6040,58,9.3101079,55.6094298
2123604,Hejlskovparken,6040,59,9.3112179,55.6091289
2123608,Hejlskovparken,6040,60,9.309617,55.609835
2123613,Hejlskovparken,6040,61,9.3113932,55.6090742
2123614,Hejlskovparken,6040,62,9.30892,55.6101598
2123616,Hejlskovparken,6040,63,9.3108523,55.60886
2123618,Hejlskovparken,6040,65,9.3106455,55.6087947
2123620,Hejlskovparken,6040,66,9.309255,55.610603
2123622,Hejlskovparken,6040,67,9.31005,55.60857
2123626,Hejlskovparken,6040,68,9.309651,55.61071
2123631,Hejlskovparken,6040,69,9.310029,55.608689
2123633,Hejlskovparken,6040,70,9.310116,55.61082
2123635,Hejlskovparken,6040,71,9.310051,55.608801
2123638,Hejlskovparken,6040,72,9.3098851,55.6111047
2123639,Hejlskovparken,6040,73,9.31013,55.608916
2123644,Hejlskovparken,6040,74,9.309513,55.611006
2123646,Hejlskovparken,6040,76,9.308942,55.610959
2123650,Hejlskovparken,6040,78,9.3084184,55.6108042
2123655,Hejlskovparken,6040,80,9.307732,55.61079
2123660,Hejlskovparken,6040,82,9.3080032,55.6103366
2123662,Hejlskovparken,6040,84,9.308519,55.609991
2123665,Hejlskovparken,6040,86,9.308041,55.60984
2123667,Hejlskovparken,6040,88,9.308083,55.609501
2123671,Hejlskovparken,6040,90,9.308511,55.609667
2123686,Hejlskovparken,6040,92,9.308961,55.609232
2123688,Hejlskovparken,6040,94,9.308415,55.609094
2123693,Hejlskovparken,6040,96,9.308048,55.609041
2123695,Hejlskovparken,6040,98,9.307711,55.608841
2123696,Hejlskovparken,6040,100,9.307533,55.608563
2123698,Hejlskovparken,6040,102,9.308048,55.60869
2123701,Hejlskovparken,6040,104,9.3084623,55.6088834
2123706,Hejlskovparken,6040,106,9.3088763,55.6083014
2123709,Hejlskovparken,6040,108,9.3084027,55.6081469
2123711,Hejlskovparken,6040,110,9.3079507,55.6078953
2123713,Hejlskovparken,6040,112,9.3095396,55.6084044
2123715,Hejlskovparken,6040,114,9.3095114,55.6087312
2123718,Hejlskovparken,6040,116,9.3093,55.609033
2124138,Hærvejen,6040,5,9.1917455,55.6199557
2124139,Hærvejen,6040,6,9.1915158,55.6169421
2124143,Hærvejen,6040,7,9.1928497,55.6236012
2125924,Kornmarken,6040,15,9.43084,55.605713
2125928,Kornmarken,6040,17,9.431721,55.604892
2125938,Kornmarken,6040,21,9.4310479,55.6042394
2129172,Skovgård Alle,6040,20,9.4389715,55.605711
2129174,Skovgård Alle,6040,24,9.4404075,55.606232
2129176,Skovgård Alle,6040,28,9.4416458,55.6064243
2129184,Skovgård Alle,6040,40,9.44893,55.610086
2130069,Sparkærvej,6040,28,9.3561385,55.5677557
2134063,Ågårdvej,6040,30,9.414618,55.571515
2134081,Ågårdvej,6040,37,9.4130096,55.5767275
2134096,Ågårdvej,6040,38,9.414707,55.575173
2134101,Ågårdvej,6040,41,9.4152991,55.5791336
2137124,Sognefogedvej,6040,1,9.4264791,55.5934654
2137134,Sognefogedvej,6040,2,9.4269614,55.5941342
2137137,Sognefogedvej,6040,3,9.4257535,55.5930043
2137150,Sognefogedvej,6040,4,9.427026,55.594568
2137163,Sognefogedvej,6040,5,9.4253622,55.5929573
2137164,Sognefogedvej,6040,6,9.427163,55.59479
2137176,Sognefogedvej,6040,7,9.424867,55.59303
2137186,Sognefogedvej,6040,8,9.426574,55.594888
2137189,Sognefogedvej,6040,9,9.4248203,55.5932896
2137201,Sognefogedvej,6040,10,9.4258125,55.5948622
2137204,Sognefogedvej,6040,11,9.4249635,55.5935447
2137217,Sognefogedvej,6040,12,9.425141,55.594654
2137232,Sognefogedvej,6040,13,9.4252454,55.593545
2137236,Sognefogedvej,6040,14,9.4250368,55.5943815
2137246,Sognefogedvej,6040,15,9.425439,55.5932174
2137252,Sognefogedvej,6040,16,9.4251014,55.5941559
2137274,Sognefogedvej,6040,17,9.4259498,55.5932698
2137281,Sognefogedvej,6040,18,9.425143,55.593938
2137287,Sognefogedvej,6040,19,9.4260414,55.5934925
2137310,Sognefogedvej,6040,20,9.4257702,55.5938953
2137327,Sognefogedvej,6040,22,9.426096,55.59413
2137339,Sognefogedvej,6040,24,9.4259908,55.5946055
2137354,Sognefogedvej,6040,26,9.4265059,55.5945741
2137358,Sognefogedvej,6040,28,9.4265732,55.5941514
2137377,Sognefogedvej,6040,30,9.4266681,55.5938879
2137477,Ridefogedvej,6040,1,9.427778,55.594486
2137487,Ridefogedvej,6040,3,9.4280079,55.59484
2137491,Ridefogedvej,6040,5,9.42791,55.595172
2137494,Ridefogedvej,6040,7,9.428044,55.5955074
2137502,Ridefogedvej,6040,9,9.4280447,55.5957789
2137509,Ridefogedvej,6040,18,9.4284325,55.5955536
2191120,Æblehaven,6040,1B,9.3183989,55.609433
2232506,Egtvedvej,6040,20K,9.311771,55.595282
2234731,Vorkvej,6040,8,9.3077754,55.6281041
2234913,Tørskindvej,6040,98A,9.311122,55.648359
2235182,Vestergade,6040,3A,9.306854,55.616194
2235183,Vestergade,6040,3B,9.306818,55.616178
2235260,Toftevej,6040,8A,9.30438,55.618631
2235261,Toftevej,6040,8B,9.304495,55.6185373
2235262,Toftevej,6040,8C,9.30453,55.618409
2235434,Hjelmdrupvej,6040,42,9.325104,55.615518
2235435,Hjelmdrupvej,6040,44,9.325506,55.61545
2235436,Hjelmdrupvej,6040,46,9.325937,55.615412
2235437,Hjelmdrupvej,6040,48,9.325789,55.615106
2235438,Hjelmdrupvej,6040,50,9.3262891,55.615025
2235439,Hjelmdrupvej,6040,52,9.326593,55.615361
2235440,Hjelmdrupvej,6040,54,9.327073,55.615251
2235441,Hjelmdrupvej,6040,56,9.327589,55.615204
2235442,Hjelmdrupvej,6040,60,9.32875,55.614976
2235646,Østergade,6040,10D,9.3101194,55.6161884
2235647,Østergade,6040,39,9.315858,55.619226
2235648,Østergade,6040,41,9.3160348,55.619296
2235649,Østergade,6040,43,9.316164,55.619352
2236223,Starupvej,6040,5,9.43027,55.595831
2236224,Starupvej,6040,7,9.4301887,55.5960664
2236756,Syrenhaven,6040,10A,9.321468,55.608297
2236783,Dulmosevej,6040,5A,9.287702,55.60263
2236927,Grøndalvej,6040,12,9.255671,55.622813
2236934,Egtved Skovvej,6040,3,9.297816,55.595829
2237055,Bakkedraget,6040,1A,9.408077,55.557104
2237056,Bakkedraget,6040,35A,9.407177,55.55598
2237152,Emmas Have,6040,5,9.311318,55.615167
2237153,Emmas Have,6040,7,9.311174,55.615368
2237154,Emmas Have,6040,8Q,9.313897,55.61484
2237155,Emmas Have,6040,9,9.3115725,55.6153048
2237189,Hejlskovparken,6040,60A,9.309487,55.609646
2237216,Kornmarken,6040,2,9.4280178,55.605212
2237217,Kornmarken,6040,6,9.429205,55.605077
2237218,Kornmarken,6040,16,9.428062,55.604411
2237340,Ridefogedvej,6040,2,9.427951,55.594172
2237341,Ridefogedvej,6040,16,9.42825,55.595281
2237342,Ridefogedvej,6040,20,9.428411,55.595805
2241109,Koldingvej,6040,49A,9.4075945,55.5618917
2242474,Åvænget,6040,2A,9.406028,55.563273
2243112,Mosevej,6040,3X,9.232967,55.596937
2251456,Koldingvej,6040,49F,9.407818,55.561873
2251645,Aftensang,6040,7A,9.308933,55.61915
2251646,Aftensang,6040,7B,9.308783,55.619179
2251647,Aftensang,6040,7C,9.3088306,55.6189865
2251648,Aftensang,6040,7D,9.308682,55.61899
2251654,Bakkevej,6040,3,9.298132,55.617597
2251655,Bakkevej,6040,5,9.2978502,55.617852
2251656,Bakkevej,6040,9,9.29946,55.6178193
2251657,Bakkevej,6040,11,9.299076,55.617944
2251725,Kirkevej,6040,30D,9.30175,55.619302
2251726,Kirkevej,6040,30E,9.301751,55.619323
2251727,Kirkevej,6040,30F,9.301753,55.619344
2251818,Ådalsvej,6040,6,9.430666,55.603183
