idx,street,postcode,housenumber,lon,lat
602933,Sjølundvej,6093,90,9.5045238,55.4220735
602954,Skamlingvejen,6093,132,9.5612455,55.4174069
602955,Skamlingvejen,6093,135,9.573927,55.414137
602956,Skamlingvejen,6093,137,9.5512737,55.4067433
602957,Skamlingvejen,6093,140,9.5525293,55.4076956
602958,Skamlingvejen,6093,142,9.5519445,55.4074274
602959,Skamlingvejen,6093,143,9.5490314,55.4055363
827750,Skamlingvejen,6093,121,9.5623421,55.4184178
827751,Skamlingvejen,6093,123,9.5662523,55.4187365
827753,Skamlingvejen,6093,127,9.5616019,55.4165969
827755,Skamlingvejen,6093,129,9.5616738,55.4160295
827756,Skamlingvejen,6093,130,9.5615521,55.4200691
827757,Skamlingvejen,6093,131,9.5610685,55.414529
827758,Skamlingvejen,6093,133,9.5534538,55.407286
827759,Skamlingvejen,6093,136,9.5605838,55.4149597
827760,Skamlingvejen,6093,139,9.5507664,55.4065713
827761,Skamlingvejen,6093,144,9.5493677,55.4064164
827763,Skamlingvejen,6093,146,9.5485746,55.406056
827764,Skamlingvejen,6093,148,9.5454309,55.4049931
827765,Skamlingvejen,6093,149,9.537189,55.404872
827766,Skamlingvejen,6093,150,9.5382048,55.4067683
827767,Skamlingvejen,6093,150A,9.5379212,55.4061234
827768,Skamlingvejen,6093,151,9.5369631,55.404914
827769,Skamlingvejen,6093,152,9.537839,55.405147
827770,Skamlingvejen,6093,153,9.532719,55.404991
827771,Skamlingvejen,6093,154,9.5363892,55.4052958
827772,Skamlingvejen,6093,155,9.5322108,55.4049912
827773,Skamlingvejen,6093,156,9.5354768,55.405279
827774,Skamlingvejen,6093,157,9.5315941,55.4048776
827775,Skamlingvejen,6093,158,9.5347307,55.4053137
827776,Skamlingvejen,6093,159,9.5313315,55.4048326
827777,Skamlingvejen,6093,160,9.5341351,55.4052619
827778,Skamlingvejen,6093,161,9.531335,55.404525
827779,Skamlingvejen,6093,162,9.5317685,55.4052571
827780,Skamlingvejen,6093,163,9.530526,55.404501
827781,Skamlingvejen,6093,164,9.5313546,55.4051773
827782,Skamlingvejen,6093,165,9.5300196,55.4046178
827783,Skamlingvejen,6093,166,9.5309086,55.4050497
827784,Skamlingvejen,6093,167,9.529883,55.404597
827785,Skamlingvejen,6093,168,9.5303965,55.405007
827786,Skamlingvejen,6093,169,9.5295484,55.4045553
827787,Skamlingvejen,6093,170,9.5301445,55.4049693
827788,Skamlingvejen,6093,171,9.5292608,55.404556
827790,Skamlingvejen,6093,172,9.5298686,55.4050524
827792,Skamlingvejen,6093,174,9.5295934,55.4048268
827794,Skamlingvejen,6093,176,9.5293755,55.4047392
827798,Skamlingvejen,6093,180A,9.5284347,55.4046996
827799,Skamlingvejen,6093,180B,9.5283957,55.4047897
827800,Skamlingvejen,6093,180C,9.5284682,55.4048089
827801,Skamlingvejen,6093,180D,9.5285462,55.4047728
971843,Rosenalle,6093,1,9.5904439,55.4165539
971844,Rosenalle,6093,2,9.590493,55.416673
971845,Rosenalle,6093,3,9.5904128,55.4167666
971846,Rosenalle,6093,4,9.5904035,55.4169307
971847,Rosenalle,6093,5,9.5903932,55.4170309
971848,Rosenalle,6093,7,9.590358,55.4172879
971849,Rosenalle,6093,8,9.5902827,55.4173733
971850,Rosenalle,6093,9,9.5903699,55.4175442
971851,Rugmarken,6093,1,9.5896408,55.4138979
971852,Rugmarken,6093,3,9.5893,55.413874
971853,Rugmarken,6093,4,9.5901442,55.4136344
971854,Rugmarken,6093,5,9.5888972,55.4138613
971855,Rugmarken,6093,6,9.5905247,55.4136386
971856,Rugmarken,6093,7,9.588819,55.414181
971857,Rugmarken,6093,8,9.59095,55.4136627
971858,Rugmarken,6093,9,9.589221,55.414169
971859,Rugmarken,6093,10,9.5913235,55.4136943
971860,Rugmarken,6093,11,9.589592,55.414248
971861,Rugmarken,6093,12,9.5911411,55.413953
971862,Rugmarken,6093,13,9.589494,55.414522
971863,Rugmarken,6093,14,9.5906641,55.4140023
971864,Rugmarken,6093,15,9.5890865,55.4145217
971865,Rugmarken,6093,16,9.59026,55.413952
971866,Rugmarken,6093,17,9.58871,55.414481
971867,Rugmarken,6093,18,9.590203,55.414273
971868,Rugmarken,6093,19,9.58869,55.414746
971869,Rugmarken,6093,20,9.5905732,55.4143075
971870,Rugmarken,6093,21,9.589069,55.414831
971871,Rugmarken,6093,22,9.5909133,55.4143497
971872,Rugmarken,6093,23,9.589471,55.414775
971873,Rugmarken,6093,24,9.590731,55.414611
971874,Rugmarken,6093,25,9.589403,55.415122
971875,Rugmarken,6093,26,9.590657,55.414829
971876,Rugmarken,6093,27,9.5890145,55.4150916
971877,Rugmarken,6093,28,9.590249,55.414854
971878,Rugmarken,6093,29,9.5886258,55.4150692
971879,Rugmarken,6093,30,9.590282,55.41458
971880,Rugmarken,6093,31,9.5885,55.415406
971881,Rugmarken,6093,32,9.5900959,55.4151626
971882,Rugmarken,6093,33,9.588871,55.415501
971883,Rugmarken,6093,34,9.590507,55.415179
971884,Rugmarken,6093,35,9.589266,55.41548
971885,Rugmarken,6093,36,9.590387,55.415477
971886,Rugmarken,6093,37,9.5896882,55.4154516
971887,Rugmarken,6093,38,9.589996,55.415443
971888,Nyvej Grønninghoved,6093,1,9.5918562,55.4179116
971889,Nyvej Grønninghoved,6093,1A,9.591632,55.417616
971890,Nyvej Grønninghoved,6093,2,9.5917589,55.4178997
971891,Nyvej Grønninghoved,6093,3,9.59158,55.417877
971892,Nyvej Grønninghoved,6093,4,9.5914106,55.4178622
971893,Nyvej Grønninghoved,6093,5,9.591182,55.417831
971894,Nyvej Grønninghoved,6093,7,9.5908137,55.4177798
971895,Nyvej Grønninghoved,6093,8,9.5905931,55.4177419
971896,Nyvej Grønninghoved,6093,10,9.5903244,55.417686
971897,Fuglsangvej,6093,4,9.5888649,55.4134715
971898,Fuglsangvej,6093,5,9.585117,55.415724
971899,Fuglsangvej,6093,6,9.5883803,55.4158588
971900,Mosvigvej,6093,3,9.5589589,55.4047011
971901,Mosvigvej,6093,10,9.5746773,55.4065954
971902,Mosvigvej,6093,15,9.5783133,55.4088983
971903,Mosvigvej,6093,16,9.5798573,55.4084436
971904,Mosvigvej,6093,18,9.5906683,55.4108017
971905,Mosvigvej,6093,20,9.5906328,55.4096837
971906,Mosvigvej,6093,21,9.5917832,55.4112808
971907,Mosvigvej,6093,21A,9.5926554,55.4114971
971908,Mosvigvej,6093,23,9.5930483,55.4112657
971909,Mosvigvej,6093,24,9.5940121,55.4112408
971910,Mosvigvej,6093,25,9.593436,55.411328
971911,Mosvigvej,6093,26,9.5942126,55.4113559
971912,Mosvigvej,6093,27,9.5936304,55.4113886
971913,Mosvigvej,6093,28,9.5946288,55.411436
971914,Mosvigvej,6093,29,9.5935264,55.4115176
971915,Mosvigvej,6093,31,9.5938782,55.4114694
971916,Mosvigvej,6093,32,9.5951328,55.4116274
971917,Mosvigvej,6093,34,9.5953465,55.4117543
971918,Mosvigvej,6093,36,9.5953321,55.4124942
971919,Gammel Skamlingvej,6093,1,9.55068,55.407111
971920,Gammel Skamlingvej,6093,2,9.551389,55.407295
971921,Gammel Skamlingvej,6093,3,9.5509189,55.4072944
971922,Gammel Skamlingvej,6093,4,9.5514282,55.4075683
971923,Gammel Skamlingvej,6093,5,9.552243,55.408361
971924,Gammel Skamlingvej,6093,7,9.553211,55.4090381
971925,Gammel Skamlingvej,6093,7A,9.554163,55.4089997
971926,Gammel Skamlingvej,6093,10,9.5557286,55.4101849
971927,Gammel Skamlingvej,6093,11,9.5564995,55.4110248
971928,Gammel Skamlingvej,6093,12,9.558029,55.411454
971929,Gammel Skamlingvej,6093,13,9.5570816,55.4115706
971930,Trinbrædtvej,6093,2,9.5615738,55.4177343
971931,Havremarken,6093,1,9.5896903,55.4179812
971932,Havremarken,6093,2,9.5890542,55.4177918
971933,Havremarken,6093,3,9.5898398,55.4177489
971934,Havremarken,6093,4,9.5892842,55.4174674
971935,Havremarken,6093,5,9.5898452,55.4174778
971936,Havremarken,6093,6,9.5888489,55.4174988
971937,Havremarken,6093,7,9.589848,55.417233
971938,Havremarken,6093,8,9.58846,55.4176198
971939,Havremarken,6093,9,9.5898252,55.4169734
971940,Havremarken,6093,10,9.5884626,55.4171978
971941,Havremarken,6093,11,9.5897878,55.4167364
971942,Havremarken,6093,12,9.5889091,55.4172075
971943,Havremarken,6093,13,9.5898668,55.4165136
971944,Havremarken,6093,14,9.5893215,55.4171108
971945,Havremarken,6093,16,9.589299,55.416864
971946,Havremarken,6093,18,9.588885,55.416942
971947,Havremarken,6093,20,9.58848,55.4169269
971948,Havremarken,6093,22,9.5884026,55.4165764
971949,Havremarken,6093,24,9.5888696,55.4164731
971950,Havremarken,6093,26,9.5892357,55.4165749
971951,Gammel Strandvej,6093,20,9.5920734,55.4187113
971952,Gammel Strandvej,6093,21,9.592092,55.4184352
971953,Gammel Strandvej,6093,22,9.5921049,55.4182856
971954,Gammel Strandvej,6093,23,9.5920991,55.4181533
971955,Gammel Strandvej,6093,24,9.5921067,55.4180268
971956,Gammel Strandvej,6093,25,9.5921388,55.4179288
971957,Gammel Strandvej,6093,26,9.592106,55.417764
971958,Gammel Strandvej,6093,27,9.5921547,55.417601
971959,Gammel Strandvej,6093,28,9.5921403,55.417486
971960,Gammel Strandvej,6093,29,9.5921893,55.4173765
971961,Gammel Strandvej,6093,30,9.5922487,55.4172497
971962,Gammel Strandvej,6093,31,9.5922092,55.4170601
971963,Gammel Strandvej,6093,32,9.5923257,55.41691
971964,Gammel Strandvej,6093,33,9.5923684,55.416766
971965,Gammel Strandvej,6093,35,9.592329,55.416508
971966,Bygmarken,6093,1,9.5862435,55.4174656
971967,Bygmarken,6093,2,9.5861017,55.4169659
971968,Bygmarken,6093,3,9.5865815,55.4173377
971969,Bygmarken,6093,4,9.5860782,55.4167869
971970,Bygmarken,6093,5,9.5866879,55.4176047
971971,Bygmarken,6093,6,9.586024,55.4165613
971972,Bygmarken,6093,7,9.5870386,55.4176464
971973,Bygmarken,6093,8,9.5866213,55.4164973
971974,Bygmarken,6093,9,9.587021,55.417334
971975,Bygmarken,6093,10,9.5866954,55.4167292
971976,Bygmarken,6093,11,9.58742,55.417308
971977,Bygmarken,6093,12,9.5867854,55.416972
971978,Bygmarken,6093,13,9.58744,55.417556
971979,Bygmarken,6093,14,9.5872553,55.4169503
971980,Bygmarken,6093,15,9.5879662,55.4175889
971981,Bygmarken,6093,16,9.5871413,55.4166858
971982,Bygmarken,6093,17,9.587934,55.4173374
971983,Bygmarken,6093,18,9.5871124,55.416499
971984,Bygmarken,6093,19,9.587795,55.417115
971985,Bygmarken,6093,20,9.5877353,55.4164244
971986,Bygmarken,6093,22,9.5877871,55.4166839
971987,Bygmarken,6093,24,9.587834,55.416895
971988,Bakkevej Grønninghoved,6093,1,9.5919599,55.4164297
971989,Bakkevej Grønninghoved,6093,1A,9.5923031,55.4163568
971990,Bakkevej Grønninghoved,6093,2,9.592118,55.4166406
971991,Bakkevej Grønninghoved,6093,3,9.5917291,55.4164077
971992,Bakkevej Grønninghoved,6093,4,9.5918514,55.4166094
971993,Bakkevej Grønninghoved,6093,5,9.5915276,55.4164071
971994,Bakkevej Grønninghoved,6093,7,9.5913595,55.4163516
971995,Bakkevej Grønninghoved,6093,8,9.591595,55.416593
971996,Bakkevej Grønninghoved,6093,9,9.5910769,55.4163614
971997,Bakkevej Grønninghoved,6093,10,9.5913016,55.4165576
971998,Bakkevej Grønninghoved,6093,12,9.591108,55.4165422
971999,Bakkevej Grønninghoved,6093,14,9.5909526,55.416513
972000,Fredskovvej,6093,1,9.594496,55.40993
972001,Fredskovvej,6093,2,9.59486,55.409716
972002,Fredskovvej,6093,3,9.5947722,55.4099969
972003,Fredskovvej,6093,4,9.595138,55.409847
972004,Fredskovvej,6093,5,9.595148,55.410121
972005,Fredskovvej,6093,6,9.5953785,55.4095684
972006,Fredskovvej,6093,7,9.5956246,55.4103086
972007,Fredskovvej,6093,8,9.595538,55.40946
972008,Fredskovvej,6093,9,9.5962219,55.410477
972009,Fredskovvej,6093,10,9.5958644,55.409332
972010,Fredskovvej,6093,11,9.5965578,55.4105299
972011,Fredskovvej,6093,12,9.596204,55.409304
972012,Fredskovvej,6093,14,9.596499,55.409365
972013,Fredskovvej,6093,16,9.596918,55.409516
972014,Fredskovvej,6093,18,9.597205,55.409622
972015,Fredskovvej,6093,20,9.597679,55.4097229
972016,Fredskovvej,6093,22,9.5972022,55.4100873
972017,Fredskovvej,6093,24,9.5969377,55.4099543
972018,Fredskovvej,6093,26,9.5967005,55.4097492
972019,Fredskovvej,6093,28,9.596332,55.409706
972020,Fredskovvej,6093,30,9.595925,55.409644
972021,Fredskovvej,6093,32,9.595764,55.409829
972022,Fredskovvej,6093,34,9.595581,55.409991
972023,Fredskovvej,6093,36,9.595884,55.410107
972024,Fredskovvej,6093,38,9.5961623,55.4102176
972025,Fredskovvej,6093,40,9.5963926,55.4103092
972026,Fredskovvej,6093,42,9.5967092,55.4104426
972027,Mejsevej,6093,2,9.5954693,55.4116484
972028,Mejsevej,6093,4,9.5955615,55.4115529
972029,Mejsevej,6093,6,9.595753,55.4113924
972030,Mejsevej,6093,8,9.5958097,55.4113042
972031,Mejsevej,6093,10,9.595978,55.4110831
972032,Mejsevej,6093,12,9.5960614,55.4109857
972033,Mejsevej,6093,14,9.5961327,55.4109098
972034,Mejsevej,6093,16,9.5962656,55.4108361
972035,Mejsevej,6093,18,9.596423,55.4107036
972036,Sneppevej,6093,1,9.5953465,55.4114106
972037,Sneppevej,6093,2,9.5949463,55.4115081
972038,Sneppevej,6093,3,9.5955908,55.4111492
972039,Sneppevej,6093,4,9.5950062,55.4113872
972040,Sneppevej,6093,5,9.5957589,55.4109361
972041,Sneppevej,6093,6,9.5953464,55.4110179
972042,Sneppevej,6093,7,9.595958,55.4107261
972043,Sneppevej,6093,8,9.5955163,55.4108787
972044,Sneppevej,6093,10,9.5957097,55.4106352
972045,Strandvejen Grønninghoved,6093,1,9.5952888,55.4120982
972046,Strandvejen Grønninghoved,6093,2,9.5956999,55.4118666
972047,Strandvejen Grønninghoved,6093,3,9.5951464,55.4125942
972048,Strandvejen Grønninghoved,6093,4,9.5958354,55.411723
972049,Strandvejen Grønninghoved,6093,5,9.5950551,55.412677
972050,Strandvejen Grønninghoved,6093,6,9.5959134,55.411647
972051,Strandvejen Grønninghoved,6093,7,9.5950059,55.4127374
972052,Strandvejen Grønninghoved,6093,8,9.5959781,55.4115852
972053,Strandvejen Grønninghoved,6093,9,9.5948198,55.4131644
972054,Strandvejen Grønninghoved,6093,10,9.5960583,55.4114573
972055,Strandvejen Grønninghoved,6093,11,9.5946717,55.4133378
972056,Strandvejen Grønninghoved,6093,12,9.5962139,55.411289
972057,Strandvejen Grønninghoved,6093,13,9.5945856,55.4134886
972058,Strandvejen Grønninghoved,6093,14,9.5963308,55.4111295
972059,Strandvejen Grønninghoved,6093,15,9.5943573,55.4136615
972060,Strandvejen Grønninghoved,6093,16,9.5965899,55.4107895
972061,Strandvejen Grønninghoved,6093,16A,9.5964924,55.4109828
972062,Strandvejen Grønninghoved,6093,17,9.5941878,55.4137848
972063,Strandvejen Grønninghoved,6093,18,9.5967332,55.4107103
972064,Strandvejen Grønninghoved,6093,19,9.5940374,55.4140254
972065,Strandvejen Grønninghoved,6093,20,9.5969673,55.4105174
972066,Strandvejen Grønninghoved,6093,21,9.5938256,55.4142684
972067,Strandvejen Grønninghoved,6093,22A,9.5971985,55.4103574
972068,Strandvejen Grønninghoved,6093,22B,9.5969649,55.4102292
972069,Strandvejen Grønninghoved,6093,23,9.5935357,55.4146472
972070,Strandvejen Grønninghoved,6093,23A,9.5936769,55.4144572
972071,Strandvejen Grønninghoved,6093,24,9.5973258,55.4102621
972072,Strandvejen Grønninghoved,6093,25,9.5933699,55.4148199
972073,Strandvejen Grønninghoved,6093,26,9.5975164,55.41019
972074,Strandvejen Grønninghoved,6093,27,9.593299,55.4149695
972075,Strandvejen Grønninghoved,6093,28,9.5978318,55.41001
972076,Strandvejen Grønninghoved,6093,29,9.5931897,55.4150974
972077,Strandvejen Grønninghoved,6093,30,9.5981506,55.4099066
972078,Strandvejen Grønninghoved,6093,31,9.5930185,55.4152393
972079,Strandvejen Grønninghoved,6093,33,9.5929764,55.4153842
972080,Strandvejen Grønninghoved,6093,35,9.5928352,55.4155286
972081,Strandvejen Grønninghoved,6093,37,9.5928724,55.4157971
972082,Drosselvej,6093,1,9.5953518,55.4105294
972083,Drosselvej,6093,2,9.5952109,55.4107703
972084,Drosselvej,6093,3,9.5951312,55.4104597
972085,Drosselvej,6093,4,9.594844,55.4107022
972086,Drosselvej,6093,5,9.5948685,55.410375
972087,Drosselvej,6093,6,9.5945594,55.4105954
972088,St. Strandhave,6093,1,9.5941645,55.4127402
972089,St. Strandhave,6093,2,9.5945546,55.4128141
972090,St. Strandhave,6093,3,9.5938798,55.4130914
972091,St. Strandhave,6093,4,9.594434,55.4130663
972092,St. Strandhave,6093,5,9.5937384,55.4133557
972093,St. Strandhave,6093,6,9.5942613,55.41325
972094,St. Strandhave,6093,7,9.5933731,55.4132412
972095,St. Strandhave,6093,8,9.594091,55.4134446
972096,St. Strandhave,6093,9,9.5935433,55.4129929
972097,St. Strandhave,6093,10,9.593915,55.413734
972098,St. Strandhave,6093,11,9.5935894,55.4127545
972099,St. Strandhave,6093,12,9.5935466,55.4136313
972100,St. Strandhave,6093,13,9.5938568,55.4127298
972101,St. Strandhave,6093,14,9.5932672,55.4135307
972102,St. Strandhave,6093,16,9.5928535,55.4134182
972103,St. Strandhave,6093,18,9.5923673,55.4132517
972104,St. Strandhave,6093,20,9.5925736,55.413123
972105,St. Strandhave,6093,22,9.5927051,55.4129302
972106,St. Strandhave,6093,24,9.5928761,55.4128142
972107,St. Strandhave,6093,26,9.5930622,55.4126652
972108,St. Strandhave,6093,28,9.5932075,55.4125042
972109,Lærkevej Grønninghoved,6093,1,9.5936355,55.4111478
972110,Lærkevej Grønninghoved,6093,2,9.5932092,55.4110373
972111,Lærkevej Grønninghoved,6093,3,9.5939086,55.4109387
972112,Lærkevej Grønninghoved,6093,4,9.5934235,55.4109016
972113,Lærkevej Grønninghoved,6093,6,9.5936588,55.4107738
972114,Lærkevej Grønninghoved,6093,8,9.5939404,55.4106266
972115,Lærkevej Grønninghoved,6093,10,9.5941727,55.4104771
972116,Lærkevej Grønninghoved,6093,12,9.594336,55.4103342
972117,Lærkevej Grønninghoved,6093,14,9.5943588,55.4102061
972118,Mågevej Grønninghoved,6093,1,9.5950246,55.4109696
972119,Mågevej Grønninghoved,6093,2,9.594873,55.411231
972120,Mågevej Grønninghoved,6093,3,9.5947292,55.4108527
972121,Mågevej Grønninghoved,6093,4,9.5945838,55.4111297
972122,Mågevej Grønninghoved,6093,5,9.5944309,55.4107813
972123,Mågevej Grønninghoved,6093,6,9.5942284,55.4110534
982937,Hvedemarken,6093,1,9.58575,55.41558
982938,Hvedemarken,6093,2,9.5859792,55.4152387
982939,Hvedemarken,6093,3,9.585828,55.41579
982940,Hvedemarken,6093,4,9.586219,55.4150847
982941,Hvedemarken,6093,5,9.585835,55.415993
982942,Hvedemarken,6093,6,9.586552,55.414815
982943,Hvedemarken,6093,7,9.5860545,55.4161988
982944,Hvedemarken,6093,8,9.587067,55.414784
982945,Hvedemarken,6093,9,9.5865271,55.4162319
982946,Hvedemarken,6093,10,9.586939,55.415151
982947,Hvedemarken,6093,11,9.5866009,55.4159662
982948,Hvedemarken,6093,12,9.586884,55.41534
982949,Hvedemarken,6093,13,9.5867111,55.4157408
982950,Hvedemarken,6093,14,9.587306,55.415423
982951,Hvedemarken,6093,15,9.587131,55.415757
982952,Hvedemarken,6093,16,9.587397,55.415206
982953,Hvedemarken,6093,17,9.587138,55.41597
982954,Hvedemarken,6093,18,9.587443,55.414943
982955,Hvedemarken,6093,19,9.586997,55.416226
982956,Hvedemarken,6093,20,9.587498,55.414723
982957,Hvedemarken,6093,21,9.5876491,55.4161585
982958,Hvedemarken,6093,22,9.587092,55.414527
982959,Hvedemarken,6093,23,9.5877635,55.4159589
982960,Hvedemarken,6093,24,9.587499,55.414513
982961,Hvedemarken,6093,25,9.5883923,55.4162324
982962,Hvedemarken,6093,26,9.587616,55.414286
982963,Hvedemarken,6093,28,9.5883875,55.4139557
982964,Hvedemarken,6093,30,9.58818,55.414238
982965,Hvedemarken,6093,32,9.5881198,55.4144612
982966,Hvedemarken,6093,34,9.588137,55.414701
982967,Hvedemarken,6093,36,9.588071,55.415023
982968,Hvedemarken,6093,38,9.587991,55.415233
982969,Hvedemarken,6093,40,9.587965,55.41546
982970,Hvedemarken,6093,42,9.587853,55.415683
982971,Skovvejen,6093,1,9.592657,55.413685
982972,Skovvejen,6093,1A,9.5920052,55.4135695
982973,Skovvejen,6093,2,9.59277,55.41427
982974,Skovvejen,6093,3,9.592214,55.413889
982975,Skovvejen,6093,3A,9.5922385,55.4137538
982976,Skovvejen,6093,3B,9.5918312,55.413834
982977,Skovvejen,6093,4,9.5924525,55.4148328
982978,Skovvejen,6093,5,9.592034,55.414047
982979,Skovvejen,6093,7,9.5919308,55.4142013
982980,Skovvejen,6093,9,9.591819,55.414317
982981,Skovvejen,6093,9A,9.5915095,55.4142548
982982,Skovvejen,6093,11,9.591826,55.4144638
982983,Skovvejen,6093,11A,9.592057,55.414664
982984,Skovvejen,6093,13,9.5917137,55.4140023
982985,Skovvejen,6093,15,9.5916246,55.4141214
982986,Skovvejen,6093,15A,9.591203,55.414918
982987,Skovvejen,6093,17,9.5913938,55.4150349
982988,Skovvejen,6093,19,9.59106,55.4150979
982989,Skovvejen,6093,21,9.5911944,55.4152481
982990,Skrænten Grønninghoved,6093,1,9.5907735,55.4162757
982991,Skrænten Grønninghoved,6093,2,9.5908412,55.4161321
982992,Skrænten Grønninghoved,6093,3,9.5909222,55.4160588
982993,Skrænten Grønninghoved,6093,4,9.5908977,55.4158994
982994,Skrænten Grønninghoved,6093,5,9.5909632,55.4157646
982996,Skrænten Grønninghoved,6093,6,9.590935,55.4156622
982997,Skrænten Grønninghoved,6093,7,9.5909406,55.4154904
982998,Stigårds Alle,6093,1,9.592481,55.415118
982999,Stigårds Alle,6093,2,9.5922994,55.4154738
983000,Stigårds Alle,6093,4,9.5921831,55.4152723
983001,Stigårds Alle,6093,6,9.5919197,55.415241
983004,Lynæs Alle,6093,1,9.5933116,55.4145123
983005,Lynæs Alle,6093,2,9.5927201,55.4147174
983006,Lynæs Alle,6093,3,9.5929736,55.4144082
983007,Lynæs Alle,6093,5,9.592728,55.414488
983010,Anemonevej,6093,1,9.591108,55.417574
983011,Anemonevej,6093,2,9.5902998,55.4181363
983012,Anemonevej,6093,3,9.591087,55.41734
983013,Anemonevej,6093,4,9.590424,55.417941
983014,Anemonevej,6093,5,9.5911256,55.4171113
983015,Anemonevej,6093,6,9.5906715,55.41758
983016,Anemonevej,6093,7,9.59169,55.41721
983017,Anemonevej,6093,8,9.59069,55.4174006
983018,Anemonevej,6093,9,9.5917,55.416888
983019,Anemonevej,6093,10,9.590711,55.4172976
983020,Anemonevej,6093,11,9.591225,55.416836
983021,Anemonevej,6093,12,9.5907157,55.4171081
983022,Anemonevej,6093,14,9.5907349,55.4169719
983023,Anemonevej,6093,18,9.5908453,55.4166799
1350847,Åstorpvej,6093,3,9.5278313,55.4032227
1350849,Åstorpvej,6093,4,9.5284161,55.4035032
1350852,Åstorpvej,6093,6,9.5280614,55.4034527
1350857,Åstorpvej,6093,8,9.5277405,55.4033998
1350859,Åstorpvej,6093,8A,9.5266772,55.4035223
1350864,Åstorpvej,6093,10,9.5273662,55.4033447
1350865,Åstorpvej,6093,10A,9.5276681,55.4036659
1350869,Åstorpvej,6093,12,9.5270668,55.4032923
1350872,Åstorpvej,6093,14,9.5267853,55.4032404
1350876,Åstorpvej,6093,16,9.5264269,55.4032287
1350877,Åstorpvej,6093,18,9.5261521,55.4031784
1350881,Åstorpvej,6093,19,9.5255307,55.4020901
1350883,Åstorpvej,6093,20,9.5257839,55.4031038
1350889,Åstorpvej,6093,21,9.5254255,55.4013738
1350891,Åstorpvej,6093,24,9.5250462,55.4028108
1350897,Åstorpvej,6093,31,9.5238024,55.4003755
1350899,Åstorpvej,6093,31A,9.5225903,55.4002943
1350904,Åstorpvej,6093,33,9.521111,55.398429
1350906,Åstorpvej,6093,35,9.5210211,55.3981408
1350910,Åstorpvej,6093,36,9.5225521,55.4011741
1350914,Åstorpvej,6093,38,9.522581,55.4007688
1350917,Åstorpvej,6093,39,9.5210698,55.4006703
1350919,Åstorpvej,6093,40,9.5222365,55.4007879
1350925,Åstorpvej,6093,41,9.5204896,55.4006509
1350927,Åstorpvej,6093,43,9.5199049,55.4006631
1350934,Åstorpvej,6093,44,9.5214891,55.4009806
1350938,Åstorpvej,6093,47,9.5189976,55.4007456
1350943,Åstorpvej,6093,49,9.5179784,55.4007504
1350945,Åstorpvej,6093,51,9.518291,55.397379
1350949,Åstorpvej,6093,53,9.5159731,55.39508
1350952,Åstorpvej,6093,55,9.5174155,55.3947165
1350957,Åstorpvej,6093,56,9.5183754,55.4010956
1350961,Åstorpvej,6093,57,9.5166581,55.4012209
1350963,Åstorpvej,6093,58,9.5176278,55.4020007
1350967,Åstorpvej,6093,60,9.5175543,55.4021126
1350968,Åstorpvej,6093,63,9.5117722,55.4044437
1350973,Åstorpvej,6093,65,9.509978,55.405009
1350976,Åstorpvej,6093,68,9.511373,55.406793
1445020,Grønninghovedvej,6093,3,9.5510183,55.4046428
1445021,Grønninghovedvej,6093,5,9.5476501,55.4024538
1445022,Grønninghovedvej,6093,6,9.5495847,55.4042084
1445023,Grønninghovedvej,6093,9,9.5463199,55.4004693
1445024,Grønninghovedvej,6093,10,9.5491653,55.4042127
1445025,Grønninghovedvej,6093,11,9.5461421,55.399949
1445026,Grønninghovedvej,6093,12,9.5487577,55.4037952
1445027,Grønninghovedvej,6093,16,9.5477943,55.4033611
1445028,Grønninghovedvej,6093,18,9.54743,55.402885
1445029,Grønninghovedvej,6093,20,9.547227,55.4026482
1445030,Grønninghovedvej,6093,21,9.54425,55.394237
1445031,Grønninghovedvej,6093,22,9.5471787,55.4022741
1445032,Grønninghovedvej,6093,24,9.5471268,55.4021142
1445033,Grønninghovedvej,6093,26,9.5470742,55.4018401
1445034,Grønninghovedvej,6093,28,9.546634,55.401255
1445035,Grønninghovedvej,6093,34,9.54543,55.399068
1445036,Grønninghovedvej,6093,40,9.5437687,55.3964563
1946708,J.A. Petersens Park,6093,1,9.5359056,55.4045613
1946713,J.A. Petersens Park,6093,2,9.5351824,55.4047976
1946716,J.A. Petersens Park,6093,3,9.5360118,55.4047726
1946717,J.A. Petersens Park,6093,4,9.5347123,55.4048128
1946721,J.A. Petersens Park,6093,5,9.5366015,55.4047527
1946723,J.A. Petersens Park,6093,6,9.5340775,55.404861
1946726,J.A. Petersens Park,6093,7,9.536493,55.404543
1946728,J.A. Petersens Park,6093,9,9.5369137,55.404476
1946731,J.A. Petersens Park,6093,10,9.5340954,55.4046182
1946735,J.A. Petersens Park,6093,11,9.536539,55.404273
1946737,J.A. Petersens Park,6093,12,9.5345815,55.4045957
1946740,J.A. Petersens Park,6093,13,9.5361117,55.4042904
1946741,J.A. Petersens Park,6093,14,9.5350698,55.4045726
1946743,J.A. Petersens Park,6093,15,9.535863,55.404302
1946745,J.A. Petersens Park,6093,16,9.5349971,55.4041944
1946746,J.A. Petersens Park,6093,17,9.5357474,55.4039411
1946747,J.A. Petersens Park,6093,18,9.5346794,55.4041976
1946748,J.A. Petersens Park,6093,19,9.536165,55.4039621
1946749,J.A. Petersens Park,6093,20,9.5340817,55.4042419
1946750,J.A. Petersens Park,6093,21,9.5365764,55.4039469
1946751,J.A. Petersens Park,6093,22,9.5339787,55.4039952
1946752,J.A. Petersens Park,6093,23,9.536789,55.403916
1946753,J.A. Petersens Park,6093,24,9.5343333,55.4039778
1946754,J.A. Petersens Park,6093,25,9.5367107,55.4036519
1946755,J.A. Petersens Park,6093,26,9.534729,55.4039496
1946756,J.A. Petersens Park,6093,27,9.5364666,55.4035771
1946757,J.A. Petersens Park,6093,28,9.535128,55.403936
1946758,J.A. Petersens Park,6093,29,9.5360941,55.403591
1946759,J.A. Petersens Park,6093,30,9.5350765,55.4036155
1946760,J.A. Petersens Park,6093,31,9.535775,55.4037174
1946761,J.A. Petersens Park,6093,32,9.5347214,55.4035694
1946762,J.A. Petersens Park,6093,33,9.5356451,55.4033268
1946763,J.A. Petersens Park,6093,34,9.5343247,55.4035756
1946764,J.A. Petersens Park,6093,35,9.5356195,55.4032222
1946765,J.A. Petersens Park,6093,36,9.5339155,55.4036326
1946766,J.A. Petersens Park,6093,37,9.5359022,55.403283
1946767,J.A. Petersens Park,6093,38,9.53372,55.403395
1946768,J.A. Petersens Park,6093,39,9.5360707,55.4032764
1946769,J.A. Petersens Park,6093,40,9.5340796,55.403373
1946770,J.A. Petersens Park,6093,41,9.5362332,55.4032574
1946771,J.A. Petersens Park,6093,42,9.5346002,55.4033463
1946772,J.A. Petersens Park,6093,43,9.5364428,55.4033761
1946773,J.A. Petersens Park,6093,44,9.534965,55.403323
1946774,J.A. Petersens Park,6093,45,9.536602,55.4033661
1946776,J.A. Petersens Park,6093,46,9.535059,55.402927
1946777,J.A. Petersens Park,6093,47,9.536752,55.403349
1946778,J.A. Petersens Park,6093,48,9.534577,55.402929
1946779,J.A. Petersens Park,6093,49,9.535682,55.402997
1946781,J.A. Petersens Park,6093,50,9.5341241,55.4029672
1946783,J.A. Petersens Park,6093,51,9.536037,55.402941
1946784,J.A. Petersens Park,6093,52,9.533669,55.402901
1946785,J.A. Petersens Park,6093,53,9.536638,55.402926
1946787,J.A. Petersens Park,6093,54,9.5335085,55.4026593
1946789,J.A. Petersens Park,6093,55,9.536934,55.402986
1946790,J.A. Petersens Park,6093,56,9.5341073,55.4026625
1946791,J.A. Petersens Park,6093,57,9.536843,55.402684
1946793,J.A. Petersens Park,6093,58,9.534561,55.402686
1946795,J.A. Petersens Park,6093,59,9.53651,55.402624
1946797,J.A. Petersens Park,6093,60,9.535033,55.402672
1946798,J.A. Petersens Park,6093,61,9.535968,55.402667
1946800,J.A. Petersens Park,6093,63,9.535432,55.402663
1988750,Vejstruprødvej,6093,1,9.5352208,55.3938198
1988753,Vejstruprødvej,6093,5,9.5342753,55.3934136
1988756,Vejstruprødvej,6093,6,9.533968,55.3936764
1988757,Vejstruprødvej,6093,7,9.5333863,55.3931262
1988760,Vejstruprødvej,6093,9,9.5331224,55.3931073
1988761,Vejstruprødvej,6093,10,9.5334544,55.3938954
1988763,Vejstruprødvej,6093,12,9.5322552,55.3925743
1988765,Vejstruprødvej,6093,14,9.5309553,55.3923106
1988766,Vejstruprødvej,6093,15,9.5302901,55.3916664
1988769,Vejstruprødvej,6093,17,9.5298241,55.3871
1988771,Vejstruprødvej,6093,18,9.5240098,55.3910707
1988772,Vejstruprødvej,6093,19,9.5273611,55.3856982
1988774,Vejstruprødvej,6093,23,9.523636,55.390347
1988778,Vejstruprødvej,6093,26,9.5161107,55.3879018
1988780,Vejstruprødvej,6093,27,9.521165,55.3883966
1988782,Vejstruprødvej,6093,28,9.5151691,55.3874632
1988783,Vejstruprødvej,6093,30,9.5130199,55.3860284
1988784,Vejstruprødvej,6093,31,9.5231878,55.3812259
1988786,Vejstruprødvej,6093,32,9.510669,55.385963
1988788,Vejstruprødvej,6093,33,9.5230632,55.3807823
1988789,Vejstruprødvej,6093,34,9.509739,55.386761
1988790,Vejstruprødvej,6093,35,9.5194836,55.3806029
1988792,Vejstruprødvej,6093,37,9.5141882,55.3854817
1988793,Vejstruprødvej,6093,38,9.5096855,55.3836189
1988795,Vejstruprødvej,6093,39,9.5139198,55.3808086
1988796,Vejstruprødvej,6093,40,9.507484,55.38399
1988797,Vejstruprødvej,6093,41,9.5122146,55.3803337
1988798,Vejstruprødvej,6093,45,9.5091412,55.3832323
1988799,Vejstruprødvej,6093,47,9.5084202,55.3830148
1988835,Sjølund Gade,6093,1,9.5287562,55.4042838
1988836,Sjølund Gade,6093,2,9.5282329,55.4044405
1988837,Sjølund Gade,6093,3,9.528924,55.404117
1988838,Sjølund Gade,6093,3A,9.5290652,55.4040767
1988840,Sjølund Gade,6093,4,9.5284558,55.4041901
1988841,Sjølund Gade,6093,6,9.5286171,55.4040183
1988843,Sjølund Gade,6093,7,9.5290927,55.4038797
1988844,Sjølund Gade,6093,8,9.5288206,55.4037653
1988845,Sjølund Gade,6093,9,9.5296933,55.4039652
1988846,Sjølund Gade,6093,10,9.5288836,55.4036549
1988849,Sjølund Gade,6093,12,9.5292943,55.4029528
1988850,Sjølund Gade,6093,13,9.5293742,55.4035474
1988851,Sjølund Gade,6093,14,9.529438,55.402871
1988852,Sjølund Gade,6093,14A,9.5295416,55.4028524
1988853,Sjølund Gade,6093,15,9.5298443,55.4033911
1988854,Sjølund Gade,6093,16,9.5297372,55.4025783
1988855,Sjølund Gade,6093,17,9.5296867,55.4031655
1988857,Sjølund Gade,6093,18,9.5298604,55.4023549
1988859,Sjølund Gade,6093,19,9.5298011,55.4030167
1988860,Sjølund Gade,6093,19A,9.5298649,55.4029484
1988861,Sjølund Gade,6093,20,9.5300008,55.4022303
1988862,Sjølund Gade,6093,21,9.5299362,55.4028582
1988863,Sjølund Gade,6093,22,9.529637,55.402007
1988864,Sjølund Gade,6093,23,9.530066,55.4026939
1988866,Sjølund Gade,6093,24,9.530127,55.402032
1988868,Sjølund Gade,6093,25,9.530769,55.402462
1988870,Sjølund Gade,6093,26,9.530201,55.401765
1988872,Sjølund Gade,6093,28,9.5303628,55.4015083
1988873,Sjølund Gade,6093,30,9.5307268,55.4010566
1988875,Sjølund Gade,6093,31,9.5310468,55.4014776
1988877,Sjølund Gade,6093,32,9.5310212,55.4008299
1988879,Sjølund Gade,6093,33,9.5313916,55.4011691
1988881,Sjølund Gade,6093,34,9.5309921,55.4006547
1988884,Sjølund Gade,6093,36,9.5309934,55.4004498
1988886,Sjølund Gade,6093,37,9.53149,55.4009722
1988888,Sjølund Gade,6093,38,9.5311976,55.4001627
1988890,Sjølund Gade,6093,39,9.5315917,55.4006044
1988892,Sjølund Gade,6093,40,9.530317,55.400075
1988893,Sjølund Gade,6093,41,9.5316581,55.4003336
1988896,Sjølund Gade,6093,43,9.5322985,55.4008498
2013707,Højvejen,6093,3,9.5518149,55.404541
2013711,Højvejen,6093,6,9.563719,55.402818
2013713,Højvejen,6093,11,9.5581875,55.4040846
2013715,Højvejen,6093,13,9.5585119,55.4040312
2013717,Højvejen,6093,24,9.5635743,55.4049657
2074992,Fjællebrovej,6093,1,9.5326949,55.3926163
2074993,Fjællebrovej,6093,2,9.5325051,55.3924401
2074994,Fjællebrovej,6093,3,9.5328114,55.3924687
2074995,Fjællebrovej,6093,5,9.5332049,55.392307
2074996,Fjællebrovej,6093,6,9.533372,55.3917435
2074997,Fjællebrovej,6093,7,9.5333536,55.3920118
2074998,Fjællebrovej,6093,8,9.5337646,55.3914832
2074999,Fjællebrovej,6093,9,9.53359,55.3918656
2075000,Fjællebrovej,6093,11,9.5341543,55.3915179
2075001,Fjællebrovej,6093,12,9.5349591,55.3896529
2075002,Fjællebrovej,6093,13,9.5344594,55.391365
2075003,Fjællebrovej,6093,14,9.5352952,55.3890324
2075004,Fjællebrovej,6093,16,9.5354879,55.3888183
2075005,Fjællebrovej,6093,17,9.5348552,55.3910636
2075006,Fjællebrovej,6093,19,9.5352702,55.3907751
2075007,Fjællebrovej,6093,21,9.5354928,55.3900231
2075008,Fjællebrovej,6093,22,9.5361111,55.3853362
2075009,Fjællebrovej,6093,25,9.5367894,55.3885881
2075010,Fjællebrovej,6093,31,9.540547,55.383759
2075011,Fjællebrovej,6093,39,9.5412224,55.3802428
2075858,Sjølund Landevej,6093,1,9.5280015,55.4047711
2075859,Sjølund Landevej,6093,3,9.5275708,55.4050629
2075860,Sjølund Landevej,6093,5,9.5270656,55.4050182
2075861,Sjølund Landevej,6093,6,9.5282827,55.4051512
2075862,Sjølund Landevej,6093,6A,9.528712,55.405403
2075863,Sjølund Landevej,6093,13,9.5242166,55.4084726
2075864,Sjølund Landevej,6093,14,9.524243,55.409011
2075865,Sjølund Landevej,6093,16,9.5237188,55.4093178
2075866,Sjølund Landevej,6093,17,9.522838,55.40946
2075867,Sjølund Landevej,6093,19,9.520239,55.410866
2075868,Sjølund Landevej,6093,20,9.5232211,55.4102453
2075869,Sjølund Landevej,6093,22,9.5229297,55.4112319
2075870,Sjølund Landevej,6093,23,9.5194967,55.4111026
2075871,Sjølund Landevej,6093,24,9.521796,55.411586
2075872,Sjølund Landevej,6093,26,9.519835,55.411503
2075873,Sjølund Landevej,6093,28,9.5193494,55.4117731
2075874,Sjølund Landevej,6093,32,9.51181,55.416247
2075875,Sjølund Landevej,6093,34,9.5102608,55.4178026
2075876,Sjølund Landevej,6093,36,9.506651,55.421251
2081429,Vejstruprød Landevej,6093,1,9.5337519,55.3957386
2081430,Vejstruprød Landevej,6093,3,9.534513,55.39504
2081431,Vejstruprød Landevej,6093,3A,9.5346924,55.39528
2081432,Vejstruprød Landevej,6093,5,9.5358854,55.394703
2081435,Vejstruprød Landevej,6093,6,9.5334323,55.3949666
2081436,Vejstruprød Landevej,6093,8,9.5344794,55.3940652
2081439,Vejstruprød Landevej,6093,12,9.5371449,55.3934005
2081440,Vejstruprød Landevej,6093,15,9.5407264,55.3931051
2081441,Vejstruprød Landevej,6093,18,9.5386876,55.3932066
2081442,Vejstruprød Landevej,6093,20,9.5389712,55.393201
2081444,Vejstruprød Landevej,6093,22,9.5398349,55.3925123
2081446,Vejstruprød Landevej,6093,25,9.548117,55.3916291
2081448,Vejstruprød Landevej,6093,26,9.5417264,55.3926945
2081449,Vejstruprød Landevej,6093,27,9.5497578,55.3912376
2081452,Vejstruprød Landevej,6093,29,9.5511524,55.3913222
2081453,Vejstruprød Landevej,6093,38A,9.5490843,55.391047
2081455,Vejstruprød Landevej,6093,40,9.5505918,55.3907259
2083955,Gammelmosevej,6093,1,9.5322875,55.4053733
2083956,Gammelmosevej,6093,2,9.533005,55.405557
2083958,Gammelmosevej,6093,3,9.5325903,55.405924
2083959,Gammelmosevej,6093,5,9.5328511,55.4061252
2083960,Gammelmosevej,6093,6,9.5335292,55.4062142
2083961,Gammelmosevej,6093,7,9.5330233,55.4063731
2083962,Gammelmosevej,6093,8,9.5335585,55.4064562
2083963,Gammelmosevej,6093,9,9.5330132,55.406577
2083965,Gammelmosevej,6093,10,9.5336112,55.4067313
2083966,Gammelmosevej,6093,11,9.5330307,55.4067754
2083967,Gammelmosevej,6093,12,9.533337,55.407209
2086611,Skomagergade,6093,1,9.524678,55.403314
2086612,Skomagergade,6093,2,9.5254431,55.4030749
2086613,Skomagergade,6093,3,9.5223087,55.4047084
2086614,Skomagergade,6093,4,9.5252747,55.4033787
2086615,Skomagergade,6093,6,9.525091,55.4035337
2086616,Skomagergade,6093,8,9.5249486,55.4037061
2086617,Skomagergade,6093,10,9.5247486,55.4038453
2086618,Skomagergade,6093,20,9.5223538,55.4050461
2086619,Skomagergade,6093,20A,9.5220459,55.40532
2086620,Skomagergade,6093,22,9.521731,55.405646
2086621,Skomagergade,6093,23,9.5214895,55.4079804
2086622,Skomagergade,6093,26,9.5215747,55.4059623
2086623,Skomagergade,6093,27,9.5230648,55.409043
2086624,Skomagergade,6093,28,9.521493,55.406151
2086625,Skomagergade,6093,28A,9.521515,55.406428
2086626,Skomagergade,6093,30,9.5214679,55.406687
2086627,Skomagergade,6093,32,9.5217305,55.4071542
2086629,Skomagergade,6093,38,9.5225986,55.4081809
2086646,Vesterslettevej,6093,2,9.515881,55.4029557
2086647,Vesterslettevej,6093,3,9.5146613,55.4015735
2086649,Vesterslettevej,6093,6,9.5148903,55.4025138
2086650,Vesterslettevej,6093,7,9.5125785,55.3992734
2086652,Vesterslettevej,6093,9,9.5114119,55.3986316
2086654,Vesterslettevej,6093,10,9.5121809,55.3992801
2086655,Vesterslettevej,6093,12,9.5069527,55.3988671
2086656,Vesterslettevej,6093,13,9.5108377,55.3932797
2086657,Vesterslettevej,6093,14,9.5100708,55.3976929
2086658,Vesterslettevej,6093,15,9.507242,55.390571
2086659,Vesterslettevej,6093,16,9.5092155,55.3965114
2086660,Vesterslettevej,6093,17,9.5048953,55.3891868
2086661,Vesterslettevej,6093,18,9.5073527,55.3937969
2086662,Vesterslettevej,6093,22,9.5061054,55.393048
2086836,Nyhavn,6093,3,9.5289991,55.4052084
2086839,Nyhavn,6093,3A,9.529029,55.40567
2086841,Nyhavn,6093,4,9.5309061,55.4053696
2086843,Nyhavn,6093,5,9.5294923,55.4052553
2086845,Nyhavn,6093,6,9.5312633,55.405426
2086846,Nyhavn,6093,7,9.5299743,55.4053782
2086848,Nyhavn,6093,8,9.5318485,55.405526
2086850,Nyhavn,6093,9,9.5303058,55.4054674
2086852,Nyhavn,6093,11,9.5305573,55.4055448
2086854,Nyhavn,6093,13,9.5309647,55.4056683
2086855,Nyhavn,6093,15,9.530694,55.406118
2086858,Nyhavn,6093,17,9.5315392,55.4058047
2086859,Nyhavn,6093,19,9.5318221,55.4058627
2087611,Tværgade,6093,2,9.5350268,55.3937302
2087612,Tværgade,6093,3,9.5365753,55.3930631
2087614,Tværgade,6093,5,9.5352403,55.3929571
2087615,Tværgade,6093,6,9.5348799,55.3930118
2089810,Holmsvej,6093,2,9.5413022,55.3930923
2089811,Holmsvej,6093,4,9.5411494,55.3932829
2090462,Kurkmarkvej,6093,1,9.5471595,55.4067972
2090463,Kurkmarkvej,6093,3,9.5462384,55.4078423
2090464,Kurkmarkvej,6093,5,9.5470139,55.4088512
2090465,Kurkmarkvej,6093,6,9.548633,55.406864
2090467,Kurkmarkvej,6093,12,9.5462341,55.4150192
2090468,Kurkmarkvej,6093,12A,9.551673,55.4141961
2090470,Kurkmarkvej,6093,14,9.546171,55.4165046
2090472,Kurkmarkvej,6093,16,9.5449508,55.4188412
2090474,Kurkmarkvej,6093,20,9.5472752,55.4207914
2090475,Kurkmarkvej,6093,20A,9.5449133,55.4193554
2090476,Kurkmarkvej,6093,21A,9.5443585,55.4120194
2090478,Kurkmarkvej,6093,26,9.540932,55.421725
2090480,Kurkmarkvej,6093,28,9.536208,55.42262
2090481,Kurkmarkvej,6093,31,9.537812,55.422002
2090751,Møgelballevej,6093,9,9.520405,55.418389
2090753,Møgelballevej,6093,10,9.5212228,55.41918
2090923,Sjølund Mark,6093,2,9.5343153,55.4171079
2090924,Sjølund Mark,6093,4,9.532113,55.418569
2091893,Binderupvej,6093,6,9.5204398,55.4191497
2091894,Binderupvej,6093,99,9.5204665,55.4259859
2092278,Silovej,6093,2,9.5285617,55.4029401
2092279,Silovej,6093,3,9.5289759,55.4027672
2092280,Silovej,6093,5,9.5289502,55.4026284
2092281,Silovej,6093,7,9.5289208,55.4023954
2092282,Silovej,6093,8,9.528504,55.402252
2092283,Silovej,6093,10,9.5285263,55.4020399
2092284,Silovej,6093,11,9.5291755,55.4020011
2092285,Silovej,6093,12,9.5284638,55.4017616
2092286,Silovej,6093,14,9.5285494,55.4014327
2092287,Silovej,6093,16,9.5286649,55.4011005
2092395,Nederbygade,6093,1,9.5499972,55.4079572
2092396,Nederbygade,6093,2,9.5489198,55.4080567
2093535,Bakkevej,6093,4,9.546746,55.385468
2093536,Bakkevej,6093,5,9.5430628,55.3916303
2093537,Bakkevej,6093,7,9.5434714,55.3914143
2093538,Bakkevej,6093,10,9.5513467,55.384747
2093539,Bakkevej,6093,11,9.5449868,55.3901236
2093540,Bakkevej,6093,14,9.5528092,55.3829033
2093541,Bakkevej,6093,15,9.5519419,55.3851963
2093542,Bakkevej,6093,16,9.552933,55.3827649
2093543,Bakkevej,6093,17,9.5526378,55.3838156
2093544,Bakkevej,6093,18,9.553112,55.3823531
2093545,Bakkevej,6093,19,9.5520311,55.3837931
2093546,Bakkevej,6093,21,9.5525998,55.3832713
2093547,Bakkevej,6093,23,9.5533593,55.3826149
2095196,Søndergyde,6093,1,9.5454306,55.3914907
2095541,Toftevej,6093,1,9.5355412,55.3941199
2095542,Toftevej,6093,2,9.5359801,55.3940928
2095543,Toftevej,6093,5,9.5373371,55.3946108
2095544,Toftevej,6093,6,9.538383,55.393953
2095545,Toftevej,6093,7,9.538673,55.3945211
2095546,Toftevej,6093,8,9.5409944,55.3941254
2095547,Toftevej,6093,10,9.541275,55.39414
2095849,Sønderbygade,6093,2,9.5459324,55.406173
2096591,Kirkevænget,6093,1,9.5309769,55.4024608
2096592,Kirkevænget,6093,2,9.5307269,55.4018891
2096593,Kirkevænget,6093,4,9.5310213,55.4017063
2096594,Kirkevænget,6093,7,9.5318433,55.4031747
2096596,Kirkevænget,6093,8,9.5317896,55.4018347
2096597,Kirkevænget,6093,10,9.5318101,55.4015289
2096599,Kirkevænget,6093,12,9.5318208,55.4013558
2096602,Kirkevænget,6093,14,9.5321003,55.4018328
2096603,Kirkevænget,6093,17,9.5321426,55.4046466
2098121,Løkkesvej,6093,1,9.5213432,55.4076662
2098870,Slåtoftvej,6093,1,9.5251059,55.4006868
2098871,Slåtoftvej,6093,2,9.5247876,55.4003277
2098872,Slåtoftvej,6093,4,9.5254785,55.4003394
2098873,Slåtoftvej,6093,6,9.5256502,55.4000625
2098874,Slåtoftvej,6093,8,9.525985,55.399548
2099656,Købmandsgade,6093,1,9.5476098,55.4052987
2099657,Købmandsgade,6093,2A,9.5472098,55.4048982
2099658,Købmandsgade,6093,2B,9.547032,55.405029
2099659,Købmandsgade,6093,2C,9.5467528,55.4049692
2099660,Købmandsgade,6093,2D,9.546525,55.404893
2099661,Købmandsgade,6093,2E,9.546302,55.404828
2099662,Købmandsgade,6093,3,9.5474488,55.4049325
2099663,Købmandsgade,6093,4A,9.547233,55.404765
2099665,Købmandsgade,6093,4B,9.546857,55.404692
2099667,Købmandsgade,6093,4C,9.547007,55.404537
2099671,Købmandsgade,6093,4D,9.547045,55.404399
2099672,Købmandsgade,6093,4E,9.547007,55.404255
2099673,Købmandsgade,6093,4F,9.547379,55.404325
2099674,Købmandsgade,6093,4G,9.54734,55.404463
2099675,Købmandsgade,6093,7,9.548604,55.404974
2099676,Købmandsgade,6093,8,9.547402,55.404142
2099677,Købmandsgade,6093,10,9.5479456,55.4036832
2099949,Mellemgade,6093,3,9.5332887,55.3926451
2099950,Mellemgade,6093,4,9.5343664,55.3924877
2099951,Mellemgade,6093,6,9.5349661,55.3926046
2099952,Mellemgade,6093,8,9.5354181,55.392533
2099953,Mellemgade,6093,13,9.5381055,55.3931327
2099954,Mellemgade,6093,14,9.5391368,55.3925641
2099955,Mellemgade,6093,15,9.5383873,55.3931091
2099956,Mellemgade,6093,19,9.5389409,55.3930448
2100835,Højmosevej,6093,2,9.5193939,55.4203471
2100836,Højmosevej,6093,2A,9.5190727,55.4203338
2100837,Højmosevej,6093,3,9.5136057,55.423872
2100838,Højmosevej,6093,4,9.5149031,55.4235416
2100839,Højmosevej,6093,5,9.5131718,55.4246925
2100840,Højmosevej,6093,5A,9.5132819,55.4242987
2100841,Højmosevej,6093,7,9.5181051,55.4299627
2100842,Højmosevej,6093,9,9.5168808,55.4310083
2100868,Søndermarkvej,6093,4,9.5514315,55.402039
2100869,Søndermarkvej,6093,10,9.550953,55.397527
2100870,Søndermarkvej,6093,12,9.548082,55.3967088
2100871,Søndermarkvej,6093,13,9.5539693,55.3959423
2100872,Søndermarkvej,6093,13A,9.5583924,55.3967349
2100873,Søndermarkvej,6093,15,9.5556356,55.3955963
2187567,Sydbanen,6093,3,9.534245,55.406488
2187569,Sydbanen,6093,4,9.534059,55.405828
2187571,Sydbanen,6093,5,9.534636,55.406587
2187572,Sydbanen,6093,6,9.534172,55.405638
2187573,Sydbanen,6093,7,9.535072,55.406583
2187574,Sydbanen,6093,8,9.5345289,55.4056339
2187575,Sydbanen,6093,9,9.535712,55.40658
2187577,Sydbanen,6093,10,9.535028,55.405625
2187578,Sydbanen,6093,11,9.535576,55.406404
2187579,Sydbanen,6093,12,9.5354695,55.4056298
2187580,Sydbanen,6093,13,9.535036,55.406378
2187581,Sydbanen,6093,14,9.53535,55.405913
2187582,Sydbanen,6093,15,9.5346503,55.4063868
2187583,Sydbanen,6093,16,9.535091,55.405855
2187584,Sydbanen,6093,18,9.53459,55.405848
2209817,Pilealle,6093,1,9.592659,55.416166
2224770,Fredskovvej,6093,1B,9.5938341,55.4103465
2224869,Skovvejen,6093,15B,9.591985,55.414764
2235843,Højvejen,6093,40,9.573753,55.395633
2236745,Vesterslettevej,6093,12A,9.5073752,55.3991359
2236753,Nyhavn,6093,1,9.5284559,55.4049874
2251447,Fredskovvej,6093,1A,9.592976,55.410946
2251603,Skamlingvejen,6093,123A,9.569225,55.420105
