idx,street,postcode,housenumber,lon,lat
1296197,Skeldekobbel,6310,5,9.732988,54.860593
1296200,Skeldekobbel,6310,7,9.734432,54.86026
1296206,Skeldekobbel,6310,9,9.735228,54.860065
1296208,Skeldekobbel,6310,11,9.735308,54.860196
1296209,Skeldekobbel,6310,13,9.736683,54.859659
1296214,Skeldekobbel,6310,13A,9.736955,54.859598
1296220,Skeldekobbel,6310,15,9.737239,54.859656
1296222,Skeldekobbel,6310,17,9.738258,54.861382
1296226,Skeldekobbel,6310,19,9.740834,54.860844
1296228,Skeldekobbel,6310,20,9.742703,54.857672
1296233,Skeldekobbel,6310,21,9.739372,54.859011
1296236,Skeldekobbel,6310,22,9.745911,54.858338
1296237,Skeldekobbel,6310,23,9.7407955,54.8587661
1296240,Skeldekobbel,6310,25,9.741868,54.85865
1296244,Skeldekobbel,6310,27,9.743146,54.86059
1296246,Skeldekobbel,6310,29,9.742689,54.860725
1296248,Skeldekobbel,6310,31,9.748999,54.858141
1296251,Skeldekobbel,6310,33,9.752844,54.858131
1296253,Skeldekobbel,6310,35,9.75516,54.858012
1296255,Skeldekobbel,6310,37,9.756173,54.857952
1296256,Skeldekobbel,6310,41,9.757054,54.857426
1296257,Skeldekobbel,6310,43,9.758372,54.856859
1296258,Skeldekobbel,6310,45,9.758766,54.856875
1296966,Kastanievej,6310,1,9.7014621,54.9020725
1296970,Kastanievej,6310,2,9.7016981,54.9019158
1296972,Kastanievej,6310,3,9.7017393,54.9021512
1296974,Kastanievej,6310,4,9.7019587,54.9019665
1296976,Kastanievej,6310,5,9.7020792,54.9022493
1296977,Kastanievej,6310,6,9.7021435,54.9020639
1296979,Kastanievej,6310,7,9.7023621,54.9023301
1296980,Kastanievej,6310,8,9.7024309,54.9021538
1296983,Kastanievej,6310,9,9.7026435,54.902435
1296984,Kastanievej,6310,10,9.702683,54.902255
1296985,Kastanievej,6310,11,9.7028789,54.9025996
1296988,Kastanievej,6310,12,9.7028994,54.9023454
1296989,Kastanievej,6310,13,9.7030396,54.9026843
1296991,Kastanievej,6310,14,9.7031103,54.9024431
1296992,Kastanievej,6310,16,9.7032786,54.9025698
1299289,Stensigmose,6310,4,9.737663,54.871315
1299292,Stensigmose,6310,6,9.738697,54.873769
1299295,Stensigmose,6310,8,9.737633,54.878564
1299297,Stensigmose,6310,9,9.736674,54.878527
1299298,Stensigmose,6310,11,9.737598,54.876657
1302409,Vandstedbækvej,6310,3,9.724117,54.867646
1302410,Vandstedbækvej,6310,5,9.72729,54.86618
1302411,Vandstedbækvej,6310,7,9.727717,54.866267
1302412,Vandstedbækvej,6310,9,9.72883,54.865445
1302964,Tjørnevænget,6310,1,9.7023512,54.9014016
1302968,Tjørnevænget,6310,3,9.7025129,54.9014547
1302975,Tjørnevænget,6310,5,9.7030817,54.9013582
1302983,Tjørnevænget,6310,7,9.7027987,54.9015384
1302987,Tjørnevænget,6310,9,9.7030972,54.9015695
1302996,Tjørnevænget,6310,11,9.7033245,54.9015287
1303003,Tjørnevænget,6310,15,9.7034875,54.9016457
1303009,Tjørnevænget,6310,17,9.7036255,54.9018327
1303016,Tjørnevænget,6310,23,9.7033257,54.901211
1303020,Tjørnevænget,6310,23A,9.7034664,54.9013465
1303025,Tjørnevænget,6310,25,9.7035983,54.9014637
1303034,Tjørnevænget,6310,27,9.7037975,54.9016175
1303035,Tjørnevænget,6310,29,9.7038682,54.901711
1303759,Frydendal,6310,1,9.746443,54.842429
1303760,Frydendal,6310,2,9.751012,54.842362
1304341,Skeldevigvej,6310,12,9.708548,54.853403
1304342,Skeldevigvej,6310,14,9.707856,54.852309
1304343,Skeldevigvej,6310,16,9.707844,54.852126
1304965,Skeldebro,6310,8,9.721971,54.872264
1304966,Skeldebro,6310,9,9.732004,54.871224
1304967,Skeldebro,6310,11,9.735127,54.870453
1304968,Skeldebro,6310,20,9.742127,54.869232
1304969,Skeldebro,6310,22,9.742392,54.869043
1304970,Skeldebro,6310,24,9.742565,54.868854
1304971,Skeldebro,6310,26,9.742625,54.868665
1304972,Skeldebro,6310,28,9.742828,54.868498
1304973,Skeldebro,6310,30,9.742924,54.868296
1304974,Skeldebro,6310,32,9.74405,54.867619
1304975,Skeldebro,6310,34,9.744598,54.867353
1304976,Skeldebro,6310,36,9.745148,54.867058
1304977,Skeldebro,6310,40,9.748615,54.86435
1304978,Skeldebro,6310,42,9.748916,54.864141
1304979,Skeldebro,6310,43,9.756851,54.861427
1304980,Skeldebro,6310,44,9.749262,54.86391
1304981,Skeldebro,6310,45,9.7497,54.862365
1304982,Skeldebro,6310,45A,9.757574,54.860671
1304983,Skeldebro,6310,46,9.748186,54.862377
1304984,Skeldebro,6310,48,9.745144,54.860829
1305001,Frydenlund,6310,1,9.741576,54.847902
1305002,Frydenlund,6310,3,9.747227,54.85071
1305005,Frydenlund,6310,5,9.752317,54.845713
1305007,Frydenlund,6310,7,9.752733,54.845175
1305009,Frydenlund,6310,8,9.754789,54.844762
1305010,Frydenlund,6310,9,9.756248,54.846225
1305013,Frydenlund,6310,11,9.756485,54.84638
1305016,Frydenlund,6310,13,9.757782,54.847639
1305536,Lillekobbel,6310,14,9.706597,54.871956
1305538,Lillekobbel,6310,14A,9.706455,54.872062
1305594,Nederballe,6310,2,9.723916,54.861901
1305595,Nederballe,6310,3,9.72349,54.862232
1305597,Nederballe,6310,4,9.723839,54.862132
1305599,Nederballe,6310,5,9.72348,54.862356
1305601,Nederballe,6310,7,9.723447,54.862536
1305603,Nederballe,6310,9,9.723375,54.862594
1305605,Nederballe,6310,10,9.723323,54.863373
1305607,Nederballe,6310,11,9.723309,54.862781
1305609,Nederballe,6310,13,9.723255,54.862964
1305611,Nederballe,6310,14,9.723307,54.864904
1305613,Nederballe,6310,15,9.722997,54.863099
1305615,Nederballe,6310,15A,9.723138,54.863279
1305617,Nederballe,6310,22,9.722866,54.863381
1305618,Nederballe,6310,24,9.722784,54.863665
1306274,Dyntvej,6310,35,9.6853458,54.8899154
1306276,Dyntvej,6310,37,9.687117,54.887799
1306278,Dyntvej,6310,41,9.687124,54.886879
1306280,Dyntvej,6310,47,9.692455,54.88484
1306283,Dyntvej,6310,49,9.693518,54.884197
1306285,Dyntvej,6310,52,9.697947,54.881259
1306286,Dyntvej,6310,53,9.698512,54.881376
1306287,Dyntvej,6310,54,9.698756,54.880954
1306288,Dyntvej,6310,60,9.7017878,54.877819
1306289,Dyntvej,6310,62,9.7025962,54.877715
1306290,Dyntvej,6310,63,9.703847,54.877831
1306291,Dyntvej,6310,64,9.703304,54.877551
1306292,Dyntvej,6310,65,9.704245,54.877797
1306293,Dyntvej,6310,68,9.704406,54.87757
1306294,Dyntvej,6310,69,9.704914,54.877694
1306295,Dyntvej,6310,70,9.704839,54.877442
1306296,Dyntvej,6310,71,9.705558,54.877588
1306297,Dyntvej,6310,73,9.705908,54.877215
1306298,Dyntvej,6310,76,9.705866,54.877042
1306299,Dyntvej,6310,77,9.707067,54.876845
1306300,Dyntvej,6310,78,9.706434,54.876879
1306301,Dyntvej,6310,78A,9.706696,54.876686
1306302,Dyntvej,6310,79,9.707523,54.87674
1306303,Dyntvej,6310,80,9.707152,54.876711
1306304,Dyntvej,6310,82,9.70769,54.87652
1306305,Dyntvej,6310,83,9.707897,54.876626
1306306,Dyntvej,6310,85,9.708947,54.876195
1306308,Dyntvej,6310,87,9.70955,54.875913
1306310,Dyntvej,6310,88,9.709875,54.875369
1306312,Dyntvej,6310,94,9.710757,54.875063
1306313,Dyntvej,6310,96,9.711975,54.874814
1306316,Dyntvej,6310,102,9.715776,54.873815
1306318,Dyntvej,6310,103,9.722622,54.864297
1306319,Dyntvej,6310,109,9.720799,54.863533
1306320,Dyntvej,6310,111,9.720773,54.86332
1306321,Dyntvej,6310,113,9.721035,54.86296
1306322,Dyntvej,6310,114,9.72037,54.863366
1306323,Dyntvej,6310,115,9.721434,54.862227
1306324,Dyntvej,6310,116,9.720439,54.863143
1306325,Dyntvej,6310,117,9.721657,54.862124
1306326,Dyntvej,6310,118,9.720484,54.862974
1306327,Dyntvej,6310,120,9.720602,54.862799
1306328,Dyntvej,6310,121,9.72205,54.862057
1306329,Dyntvej,6310,122,9.720657,54.862674
1306330,Dyntvej,6310,123,9.72235,54.862026
1306331,Dyntvej,6310,124,9.72077,54.862454
1306334,Dyntvej,6310,125,9.722629,54.862
1306336,Dyntvej,6310,126,9.721205,54.862132
1306338,Dyntvej,6310,127,9.722826,54.861979
1306341,Dyntvej,6310,128,9.722451,54.861861
1306342,Dyntvej,6310,129,9.723109,54.861911
1307413,Nyballe,6310,1,9.725983,54.859814
1307414,Nyballe,6310,2,9.7262164,54.8599544
1307415,Nyballe,6310,4,9.7257522,54.8599757
1307416,Nyballe,6310,6,9.7254417,54.8599899
1307417,Nyballe,6310,7,9.726328,54.859462
1307418,Nyballe,6310,8,9.7252977,54.8598477
1307419,Nyballe,6310,10,9.7253727,54.8595934
1307420,Nyballe,6310,14,9.7254946,54.8592419
1307421,Nyballe,6310,16,9.725854,54.859227
1307422,Nyballe,6310,18,9.726352,54.859202
1307423,Nyballe,6310,20,9.726553,54.859432
1307424,Nyballe,6310,22,9.7267025,54.8596352
1307425,Nyballe,6310,24,9.7270714,54.8598203
1307426,Nyballe,6310,26,9.726917,54.860016
1307580,Overballe,6310,1,9.722643,54.858848
1307581,Overballe,6310,3,9.722677,54.858443
1307582,Overballe,6310,5,9.723118,54.858454
1307583,Overballe,6310,6,9.722598,54.856848
1307584,Overballe,6310,7,9.723395,54.858479
1307585,Overballe,6310,8,9.722707,54.856463
1307586,Overballe,6310,9,9.723505,54.858287
1307587,Overballe,6310,11,9.723139,54.85822
1307588,Overballe,6310,13,9.72275,54.858208
1307589,Overballe,6310,15,9.7231,54.857833
1307590,Overballe,6310,19,9.722966,54.857283
1307591,Overballe,6310,21,9.723137,54.856847
1307592,Overballe,6310,23,9.7236157,54.856704
1307593,Overballe,6310,23A,9.723673,54.856087
1307595,Overballe,6310,25,9.722846,54.855216
1307597,Overballe,6310,25A,9.722869,54.854896
1307599,Overballe,6310,29,9.723559,54.854001
1307600,Overballe,6310,29A,9.724539,54.85436
1307601,Overballe,6310,29B,9.723337,54.854177
1309052,Gammelmark,6310,3,9.705317,54.878097
1309053,Gammelmark,6310,3A,9.705331,54.87837
1309054,Gammelmark,6310,3B,9.70553,54.878772
1309055,Gammelmark,6310,5,9.705836,54.879472
1309056,Gammelmark,6310,12,9.721998,54.882637
1309057,Gammelmark,6310,14,9.725347,54.881689
1309058,Gammelmark,6310,15,9.724985,54.882837
1309059,Gammelmark,6310,16,9.725337,54.88259
1309060,Gammelmark,6310,18,9.728843,54.882377
1309061,Gammelmark,6310,18A,9.725189,54.882413
1309062,Gammelmark,6310,20,9.728989,54.88532
1309063,Gammelmark,6310,22,9.729705,54.885489
1309064,Gammelmark,6310,24,9.730271,54.885382
1309065,Gammelmark,6310,26,9.730093,54.885233
1309775,Folekobbel,6310,5,9.743372,54.866793
1310300,Vandværksvej,6310,3,9.720322,54.861935
1310301,Vandværksvej,6310,6,9.71971,54.862395
1310302,Vandværksvej,6310,8,9.720025,54.862009
1310303,Vandværksvej,6310,10,9.720467,54.861632
1310799,Gåsbjergvej,6310,7,9.726539,54.875099
1310800,Gåsbjergvej,6310,9,9.727715,54.875217
1310801,Gåsbjergvej,6310,11,9.729358,54.874921
1310802,Gåsbjergvej,6310,12A,9.735994,54.88216
1310992,Skrækkehøj,6310,6,9.712709,54.847692
1310993,Skrækkehøj,6310,7,9.716011,54.848832
1310994,Skrækkehøj,6310,11,9.708604,54.849319
1311909,Skeldemark,6310,5A,9.71882,54.846755
1311910,Skeldemark,6310,7,9.732727,54.844811
1311912,Skeldemark,6310,9,9.72625,54.844656
1311914,Skeldemark,6310,10,9.725334,54.844333
1311916,Skeldemark,6310,10B,9.723375,54.840827
1311918,Skeldemark,6310,11,9.732371,54.840962
1311920,Skeldemark,6310,17,9.739596,54.841705
1311922,Skeldemark,6310,17A,9.7406402,54.8387438
1311924,Skeldemark,6310,22,9.740394,54.848061
1311926,Skeldemark,6310,24,9.738746,54.848784
1313352,Østerballe,6310,1,9.72397,54.860503
1313353,Østerballe,6310,2,9.724004,54.860313
1313354,Østerballe,6310,3,9.724262,54.860466
1313355,Østerballe,6310,4,9.724598,54.86003
1313356,Østerballe,6310,5,9.724535,54.860426
1313357,Østerballe,6310,7,9.724994,54.860441
1313358,Østerballe,6310,8,9.727407,54.862193
1313359,Østerballe,6310,8A,9.727128,54.862867
1313360,Østerballe,6310,9,9.725443,54.860428
1313361,Østerballe,6310,9A,9.725937,54.860397
1313362,Østerballe,6310,9B,9.726485,54.860417
1313363,Østerballe,6310,10,9.726624,54.862964
1313365,Østerballe,6310,11,9.726958,54.860446
1313366,Østerballe,6310,11A,9.7272827,54.8603728
1313369,Østerballe,6310,11B,9.727291,54.860454
1313370,Østerballe,6310,11C,9.727298,54.86051
1313372,Østerballe,6310,11D,9.727304,54.860567
1313374,Østerballe,6310,11E,9.727805,54.860592
1313375,Østerballe,6310,11F,9.7278,54.860535
1313377,Østerballe,6310,11G,9.727793,54.860477
1313379,Østerballe,6310,11H,9.727781,54.860386
1313381,Østerballe,6310,12,9.726527,54.863099
1313383,Østerballe,6310,13,9.726698,54.862708
1313385,Østerballe,6310,13A,9.727085,54.862222
1313386,Østerballe,6310,15,9.726553,54.862799
1313387,Østerballe,6310,17,9.725739,54.86299
1313388,Østerballe,6310,18,9.72369,54.863099
1313389,Østerballe,6310,19,9.725374,54.863017
1314599,Hasselvej,6310,1,9.7019261,54.9017153
1314600,Hasselvej,6310,2,9.7020857,54.9015749
1314601,Hasselvej,6310,3,9.7021041,54.9018025
1314602,Hasselvej,6310,4,9.702409,54.9017042
1314603,Hasselvej,6310,5,9.7023798,54.9019404
1314604,Hasselvej,6310,7,9.7026529,54.9019977
1314605,Hasselvej,6310,8,9.7029572,54.9017791
1314606,Hasselvej,6310,9,9.7029226,54.9020893
1314607,Hasselvej,6310,10,9.7030737,54.9019284
1314608,Hasselvej,6310,11,9.7031433,54.9021719
1314609,Hasselvej,6310,12,9.7033085,54.902006
1314610,Hasselvej,6310,13,9.7034063,54.9023051
1314611,Hasselvej,6310,14,9.7034679,54.9021315
1314612,Hasselvej,6310,15,9.7035811,54.9024177
1314613,Hasselvej,6310,16,9.7036924,54.902265
1315141,Vemmingbundstrandvej,6310,1,9.7023173,54.9011676
1315143,Vemmingbundstrandvej,6310,3,9.7023179,54.9009418
1315144,Vemmingbundstrandvej,6310,4,9.701763,54.9012715
1315147,Vemmingbundstrandvej,6310,5,9.7023028,54.9007442
1315148,Vemmingbundstrandvej,6310,7,9.70225,54.9005673
1315150,Vemmingbundstrandvej,6310,9,9.7020569,54.9004066
1315152,Vemmingbundstrandvej,6310,10,9.7014302,54.900631
1315154,Vemmingbundstrandvej,6310,11,9.7019279,54.9000651
1315156,Vemmingbundstrandvej,6310,20,9.701511,54.899722
1315157,Vemmingbundstrandvej,6310,30,9.701236,54.898408
1315159,Vemmingbundstrandvej,6310,32,9.7011165,54.8982459
1315160,Vemmingbundstrandvej,6310,33,9.700988,54.896116
1315161,Vemmingbundstrandvej,6310,35,9.70049,54.894783
1315162,Vemmingbundstrandvej,6310,38,9.7012036,54.8978021
1315163,Vemmingbundstrandvej,6310,42,9.7007827,54.8972713
1315164,Vemmingbundstrandvej,6310,44,9.7012054,54.8969926
1315165,Vemmingbundstrandvej,6310,52,9.700738,54.896276
1315166,Vemmingbundstrandvej,6310,54,9.700581,54.895945
1315168,Vemmingbundstrandvej,6310,56,9.700504,54.895789
1315169,Vemmingbundstrandvej,6310,62,9.699986,54.895218
1315172,Vemmingbundstrandvej,6310,66,9.698537,54.895154
1315173,Vemmingbundstrandvej,6310,66A,9.699566,54.894999
1315175,Vemmingbundstrandvej,6310,68,9.699966,54.894742
1315177,Vemmingbundstrandvej,6310,70,9.700264,54.894364
1315178,Vemmingbundstrandvej,6310,71,9.700825,54.894657
1315180,Vemmingbundstrandvej,6310,73,9.700847,54.894548
1315181,Vemmingbundstrandvej,6310,75,9.700875,54.894362
1315184,Vemmingbundstrandvej,6310,76,9.700431,54.893906
1315185,Vemmingbundstrandvej,6310,77,9.70091,54.894234
1315188,Vemmingbundstrandvej,6310,78,9.700499,54.893759
1315189,Vemmingbundstrandvej,6310,79,9.700851,54.894053
1315190,Vemmingbundstrandvej,6310,80,9.700427,54.893587
1315192,Vemmingbundstrandvej,6310,81,9.701014,54.892822
1315193,Vemmingbundstrandvej,6310,82,9.700399,54.893405
1315195,Vemmingbundstrandvej,6310,84,9.700513,54.89318
1315197,Vemmingbundstrandvej,6310,90,9.700856,54.892621
1315198,Vemmingbundstrandvej,6310,92,9.700938,54.892502
1315201,Vemmingbundstrandvej,6310,98,9.701164,54.892144
1315202,Vemmingbundstrandvej,6310,100,9.701279,54.891967
1315203,Vemmingbundstrandvej,6310,102,9.701424,54.891779
1315204,Vemmingbundstrandvej,6310,111,9.7072083,54.8874632
1315205,Vemmingbundstrandvej,6310,115,9.706462,54.88655
1315206,Vemmingbundstrandvej,6310,116,9.70573,54.886702
1315207,Vemmingbundstrandvej,6310,118,9.7059,54.886491
1316754,Stationsvej,6310,3,9.718776,54.863947
1316755,Stationsvej,6310,5,9.718498,54.86402
1316756,Stationsvej,6310,6,9.716306,54.864604
1316757,Stationsvej,6310,6A,9.715878,54.864935
1316758,Stationsvej,6310,7A,9.717493,54.864205
1316760,Stationsvej,6310,8,9.716102,54.864424
1317667,Midtballe,6310,1,9.723858,54.861562
1317668,Midtballe,6310,1A,9.724409,54.861775
1317675,Midtballe,6310,2,9.723589,54.861391
1317677,Midtballe,6310,4,9.723539,54.861173
1317682,Midtballe,6310,5,9.723792,54.860997
1317684,Midtballe,6310,6,9.723479,54.861013
1317687,Midtballe,6310,7,9.723734,54.860816
1317690,Midtballe,6310,8,9.72293,54.861129
1317693,Midtballe,6310,10,9.723505,54.860829
1317696,Midtballe,6310,12,9.723479,54.860433
1317698,Midtballe,6310,14,9.72292,54.860174
1317701,Midtballe,6310,15,9.723765,54.859932
1317703,Midtballe,6310,16,9.72297,54.859954
1317707,Midtballe,6310,19A,9.723869,54.859433
1317710,Midtballe,6310,20,9.722279,54.859241
1317713,Midtballe,6310,21,9.723764,54.859684
1318668,Gratelund,6310,2,9.708416,54.876691
1318670,Gratelund,6310,3,9.70795,54.876819
1318672,Gratelund,6310,4,9.708444,54.8769
1319679,Skeldevej,6310,8,9.67878,54.869818
1319682,Skeldevej,6310,12,9.682793,54.868965
1319684,Skeldevej,6310,17,9.684694,54.868348
1319686,Skeldevej,6310,23,9.691411,54.864916
1319688,Skeldevej,6310,24,9.692591,54.864483
1319689,Skeldevej,6310,25,9.691378,54.865836
1319690,Skeldevej,6310,28,9.694325,54.864554
1319691,Skeldevej,6310,29,9.692876,54.86477
1319692,Skeldevej,6310,31,9.694443,54.864755
1319693,Skeldevej,6310,33,9.694822,54.864813
1319694,Skeldevej,6310,34,9.702219,54.862633
1319696,Skeldevej,6310,36,9.702898,54.862454
1319699,Skeldevej,6310,59,9.722702,54.859123
1319701,Skeldevej,6310,60,9.719224,54.857291
1319703,Skeldevej,6310,61,9.723203,54.85914
1319704,Skeldevej,6310,63,9.723505,54.859144
1319705,Skeldevej,6310,65,9.723863,54.859148
1319706,Skeldevej,6310,65A,9.724208,54.859121
1319707,Skeldevej,6310,66,9.72307,54.858917
1319708,Skeldevej,6310,67,9.724607,54.859258
1319709,Skeldevej,6310,68,9.723421,54.858981
1449319,Farverløkke,6310,1,9.679702,54.887067
1449320,Farverløkke,6310,2,9.680366,54.887075
1449321,Farverløkke,6310,3,9.679336,54.88707
1449322,Farverløkke,6310,4,9.680897,54.887048
1449323,Farverløkke,6310,5,9.678959,54.887078
1449324,Farverløkke,6310,6,9.681287,54.887083
1449325,Farverløkke,6310,7,9.678533,54.887036
1449326,Farverløkke,6310,8,9.681808,54.887181
1449327,Farverløkke,6310,9,9.678205,54.88706
1449328,Farverløkke,6310,10,9.681762,54.887404
1449329,Farverløkke,6310,11,9.677772,54.887043
1449330,Farverløkke,6310,12,9.681146,54.887322
1449331,Farverløkke,6310,13,9.677427,54.887012
1449332,Farverløkke,6310,14,9.680767,54.887325
1449333,Farverløkke,6310,15,9.677156,54.887365
1449334,Farverløkke,6310,16,9.680343,54.887283
1449335,Farverløkke,6310,17,9.677612,54.887275
1449336,Farverløkke,6310,18,9.680427,54.887676
1449337,Farverløkke,6310,19,9.67807,54.887282
1449338,Farverløkke,6310,20,9.680812,54.887706
1449339,Farverløkke,6310,21,9.678455,54.887296
1449340,Farverløkke,6310,22,9.68125,54.887721
1449341,Farverløkke,6310,23,9.678902,54.887294
1449342,Farverløkke,6310,24,9.681715,54.887767
1449344,Farverløkke,6310,25,9.679325,54.887336
1449346,Farverløkke,6310,26,9.681665,54.887994
1449347,Farverløkke,6310,27,9.679645,54.8874
1449349,Farverløkke,6310,28,9.681155,54.88796
1449350,Farverløkke,6310,29,9.679671,54.88771
1449353,Farverløkke,6310,30,9.680768,54.887965
1449354,Farverløkke,6310,31,9.679196,54.887691
1449357,Farverløkke,6310,32,9.68033,54.887977
1449358,Farverløkke,6310,33,9.678844,54.887681
1449361,Farverløkke,6310,34,9.680338,54.888327
1449365,Farverløkke,6310,35,9.678354,54.887672
1449366,Farverløkke,6310,36,9.680829,54.888319
1449370,Farverløkke,6310,37,9.677922,54.887666
1449372,Farverløkke,6310,38,9.681321,54.888333
1449375,Farverløkke,6310,39,9.677485,54.887668
1449378,Farverløkke,6310,40,9.681629,54.888388
1449379,Farverløkke,6310,41,9.676878,54.887659
1449380,Farverløkke,6310,42,9.681741,54.888666
1449381,Farverløkke,6310,43,9.676884,54.887812
1449382,Farverløkke,6310,44,9.681113,54.88858
1449383,Farverløkke,6310,45,9.677331,54.88792
1449384,Farverløkke,6310,46,9.680686,54.88856
1449385,Farverløkke,6310,47,9.677782,54.887903
1449386,Farverløkke,6310,48,9.680251,54.888571
1449387,Farverløkke,6310,49,9.67829,54.887913
1449388,Farverløkke,6310,51,9.678771,54.887915
1449389,Farverløkke,6310,53,9.679255,54.887954
1449390,Farverløkke,6310,55,9.679682,54.887941
1449391,Farverløkke,6310,57,9.679627,54.888325
1449392,Farverløkke,6310,59,9.679211,54.88832
1449393,Farverløkke,6310,61,9.678749,54.888311
1449394,Farverløkke,6310,63,9.678277,54.888282
1449395,Farverløkke,6310,65,9.678134,54.888446
1449396,Farverløkke,6310,67,9.678565,54.888526
1449397,Farverløkke,6310,69,9.678958,54.88855
1449399,Farverløkke,6310,71,9.679424,54.888557
1449400,Farverløkke,6310,73,9.679882,54.888547
1449909,Møllegade,6310,1,9.674113,54.889584
1449910,Møllegade,6310,4,9.674004,54.889744
1449911,Møllegade,6310,5,9.673424,54.889608
1449912,Møllegade,6310,6,9.673828,54.889738
1449913,Møllegade,6310,7,9.673138,54.889608
1449914,Møllegade,6310,8,9.673513,54.889738
1449915,Møllegade,6310,10,9.673239,54.889739
1449916,Møllegade,6310,11,9.671102,54.889503
1449917,Møllegade,6310,12,9.672969,54.889747
1449918,Møllegade,6310,13,9.670696,54.889504
1449919,Møllegade,6310,15,9.670389,54.889428
1449920,Møllegade,6310,17,9.670009,54.889447
1449921,Møllegade,6310,19,9.669709,54.889448
1449922,Møllegade,6310,20,9.670474,54.889729
1449923,Møllegade,6310,22,9.67024,54.889694
1449924,Møllegade,6310,23,9.667141,54.889071
1449925,Møllegade,6310,24,9.67002,54.889678
1449926,Møllegade,6310,26,9.669844,54.88966
1449927,Møllegade,6310,29,9.665683,54.889146
1449928,Møllegade,6310,30,9.6695,54.889764
1449929,Møllegade,6310,30A,9.669106,54.889647
1449930,Møllegade,6310,31A,9.665409,54.888989
1449931,Møllegade,6310,31C,9.665422,54.888939
1449932,Møllegade,6310,31E,9.665435,54.888889
1449933,Møllegade,6310,31F,9.665144,54.88898
1449934,Møllegade,6310,31G,9.665154,54.888936
1449936,Møllegade,6310,31H,9.665164,54.888893
1449939,Møllegade,6310,31J,9.665174,54.88885
1449940,Møllegade,6310,32,9.66879,54.8898
1449942,Møllegade,6310,33A,9.664389,54.888653
1449944,Møllegade,6310,33B,9.664497,54.888474
1449946,Møllegade,6310,34,9.668578,54.889596
1449948,Møllegade,6310,35,9.664383,54.888905
1449949,Møllegade,6310,36,9.668333,54.889553
1449951,Møllegade,6310,37,9.663565,54.8889
1449953,Møllegade,6310,38,9.668065,54.889462
1449955,Møllegade,6310,39,9.663083,54.888968
1449957,Møllegade,6310,40,9.667773,54.889671
1449958,Møllegade,6310,41,9.662814,54.889104
1449960,Møllegade,6310,42,9.667464,54.889659
1449962,Møllegade,6310,42A,9.667147,54.889673
1449964,Møllegade,6310,43,9.662553,54.889192
1449966,Møllegade,6310,44,9.666671,54.889495
1449967,Møllegade,6310,44A,9.666866,54.889684
1449970,Møllegade,6310,45,9.662194,54.889292
1449971,Møllegade,6310,46,9.666419,54.889455
1449973,Møllegade,6310,48,9.665716,54.889369
1449975,Møllegade,6310,49,9.661578,54.889543
1449977,Møllegade,6310,50,9.665439,54.889337
1449979,Møllegade,6310,51,9.661205,54.889674
1449980,Møllegade,6310,52,9.665092,54.889251
1449982,Møllegade,6310,53,9.660942,54.889767
1449984,Møllegade,6310,54,9.664829,54.889167
1449985,Møllegade,6310,55,9.660205,54.890051
1449992,Møllegade,6310,56,9.664464,54.889164
1449994,Møllegade,6310,57,9.659436,54.890302
1449996,Møllegade,6310,58,9.664003,54.889207
1449998,Møllegade,6310,59,9.65913,54.890417
1450000,Møllegade,6310,60,9.663743,54.889215
1450002,Møllegade,6310,61,9.658781,54.890534
1450004,Møllegade,6310,63,9.658482,54.890638
1450005,Møllegade,6310,64,9.662812,54.889423
1450008,Møllegade,6310,65,9.658142,54.890747
1450010,Møllegade,6310,66,9.662451,54.889557
1450011,Møllegade,6310,67,9.657703,54.890877
1450014,Møllegade,6310,69,9.657287,54.891023
1450015,Møllegade,6310,70,9.661679,54.889812
1450018,Møllegade,6310,71,9.65701,54.890828
1450020,Møllegade,6310,73,9.656775,54.890927
1450021,Møllegade,6310,74,9.660771,54.890135
1450024,Møllegade,6310,75,9.656852,54.891149
1450026,Møllegade,6310,77,9.656614,54.891296
1450029,Møllegade,6310,78,9.65985,54.890492
1450031,Møllegade,6310,79,9.65631,54.891001
1450032,Møllegade,6310,81,9.65595,54.891128
1450035,Møllegade,6310,82,9.658955,54.890843
1450037,Møllegade,6310,83,9.656134,54.891472
1450039,Møllegade,6310,85,9.65586,54.891581
1450042,Møllegade,6310,87,9.655607,54.891208
1450044,Møllegade,6310,88,9.657467,54.891262
1450048,Møllegade,6310,89,9.655289,54.891307
1450050,Møllegade,6310,90,9.657073,54.891424
1450051,Møllegade,6310,91,9.655314,54.891792
1450054,Møllegade,6310,92,9.656699,54.891576
1450055,Møllegade,6310,98,9.655119,54.892199
1450058,Møllegade,6310,120,9.650019,54.89217
1450448,Skodsbølvej,6310,4,9.669187,54.894486
1450451,Skodsbølvej,6310,6,9.66914,54.894692
1450452,Skodsbølvej,6310,7,9.665444,54.897885
1450455,Skodsbølvej,6310,8,9.669137,54.894969
1450457,Skodsbølvej,6310,9,9.665149,54.897938
1450459,Skodsbølvej,6310,10,9.668964,54.895183
1450461,Skodsbølvej,6310,11,9.66455,54.898016
1450464,Skodsbølvej,6310,12,9.669427,54.895274
1450465,Skodsbølvej,6310,13,9.664241,54.898035
1450467,Skodsbølvej,6310,14,9.668373,54.89635
1450469,Skodsbølvej,6310,15,9.662712,54.898129
1450472,Skodsbølvej,6310,16,9.668133,54.896521
1450474,Skodsbølvej,6310,17,9.662391,54.898125
1450475,Skodsbølvej,6310,19,9.66216,54.898146
1450478,Skodsbølvej,6310,20,9.666267,54.898012
1450480,Skodsbølvej,6310,21,9.661459,54.898047
1450481,Skodsbølvej,6310,22,9.665717,54.897988
1450485,Skodsbølvej,6310,24,9.665322,54.89808
1450490,Skodsbølvej,6310,25,9.660684,54.897947
1450492,Skodsbølvej,6310,27,9.660345,54.897979
1450495,Skodsbølvej,6310,30,9.661104,54.898084
1450498,Skodsbølvej,6310,32,9.660599,54.89817
1450501,Skodsbølvej,6310,34,9.660386,54.898217
1450506,Skodsbølvej,6310,40,9.659909,54.898468
1450507,Skodsbølvej,6310,42,9.659453,54.898538
1450510,Skodsbølvej,6310,44,9.659168,54.898615
1450512,Skodsbølvej,6310,46,9.658829,54.898702
1450514,Skodsbølvej,6310,46A,9.659176,54.898841
1450516,Skodsbølvej,6310,48,9.658398,54.898779
1450519,Skodsbølvej,6310,50,9.658186,54.89882
1450520,Skodsbølvej,6310,51,9.657316,54.898876
1450523,Skodsbølvej,6310,52,9.657846,54.898938
1450525,Skodsbølvej,6310,53,9.656785,54.898925
1450527,Skodsbølvej,6310,54,9.657561,54.899008
1450529,Skodsbølvej,6310,56,9.657092,54.899083
1450531,Skodsbølvej,6310,57,9.654419,54.89942
1450533,Skodsbølvej,6310,60,9.656914,54.900455
1450535,Skodsbølvej,6310,61,9.654049,54.899511
1450537,Skodsbølvej,6310,62,9.65641,54.90005
1450539,Skodsbølvej,6310,63,9.653767,54.899593
1450540,Skodsbølvej,6310,64,9.656384,54.899526
1450541,Skodsbølvej,6310,64A,9.655532,54.899552
1450542,Skodsbølvej,6310,65,9.653436,54.899687
1450543,Skodsbølvej,6310,66,9.654394,54.89975
1450544,Skodsbølvej,6310,70,9.650857,54.900773
1450545,Skodsbølvej,6310,71,9.650002,54.900868
1450546,Skodsbølvej,6310,73,9.646423,54.902045
1450547,Skodsbølvej,6310,74,9.647999,54.901813
1450548,Skodsbølvej,6310,75,9.645741,54.90218
1450549,Skodsbølvej,6310,76,9.64777,54.901868
1450550,Skodsbølvej,6310,77,9.645106,54.902271
1450551,Skodsbølvej,6310,78,9.647544,54.90196
1450552,Skodsbølvej,6310,78A,9.647127,54.902127
1450553,Skodsbølvej,6310,78B,9.646823,54.902229
1450554,Skodsbølvej,6310,79,9.643105,54.902316
1450555,Skodsbølvej,6310,81,9.642006,54.902445
1450556,Skodsbølvej,6310,82,9.646486,54.90235
1450557,Skodsbølvej,6310,84,9.646219,54.902449
1450558,Skodsbølvej,6310,85,9.641058,54.902645
1450559,Skodsbølvej,6310,86,9.646616,54.902953
1450560,Skodsbølvej,6310,89,9.637137,54.90284
1450562,Skodsbølvej,6310,90,9.645825,54.902558
1450563,Skodsbølvej,6310,91,9.636929,54.902857
1450566,Skodsbølvej,6310,92,9.645552,54.902615
1450568,Skodsbølvej,6310,93,9.636412,54.902884
1450569,Skodsbølvej,6310,94,9.645292,54.902641
1450571,Skodsbølvej,6310,95,9.635921,54.902473
1450573,Skodsbølvej,6310,98,9.644884,54.902625
1450574,Skodsbølvej,6310,100,9.644451,54.902613
1450575,Skodsbølvej,6310,102,9.644062,54.902583
1450576,Skodsbølvej,6310,104,9.643797,54.902562
1450577,Skodsbølvej,6310,106,9.64416,54.90519
1450578,Skodsbølvej,6310,108,9.642054,54.902666
1450579,Skodsbølvej,6310,118,9.630318,54.902905
1450689,Sletmarken,6310,1,9.653979,54.891829
1450693,Sletmarken,6310,2,9.653515,54.891808
1450694,Sletmarken,6310,3,9.653072,54.891857
1450697,Sletmarken,6310,4,9.652634,54.891864
1450699,Sletmarken,6310,5,9.652849,54.891692
1450703,Sletmarken,6310,6,9.653367,54.891627
1450706,Sletmarken,6310,7,9.653105,54.891333
1450709,Sletmarken,6310,8,9.652656,54.891298
1450712,Sletmarken,6310,9,9.65211,54.891336
1450713,Sletmarken,6310,10,9.651998,54.891739
1450717,Sletmarken,6310,11,9.651571,54.891589
1450720,Sletmarken,6310,12,9.651636,54.89135
1450723,Sletmarken,6310,13,9.651874,54.891222
1450726,Sletmarken,6310,14,9.652165,54.891144
1450728,Sletmarken,6310,15,9.652487,54.891125
1450732,Sletmarken,6310,16,9.652857,54.891147
1450735,Sletmarken,6310,17,9.653226,54.891167
1450738,Sletmarken,6310,18,9.653654,54.891117
1450741,Sletmarken,6310,19,9.65402,54.891055
1450742,Sletmarken,6310,20,9.6543649,54.8910126
1450744,Sletmarken,6310,21,9.65463,54.891186
1450747,Sletmarken,6310,22,9.6542017,54.8912722
1450749,Sletmarken,6310,23,9.653795,54.891264
1450753,Sletmarken,6310,24,9.653929,54.891669
1450755,Sletmarken,6310,25,9.654418,54.891603
1450758,Sletmarken,6310,26,9.654702,54.891596
1450762,Sletmarken,6310,27,9.654885,54.891709
1450764,Sletmarken,6310,28,9.654541,54.891798
1450768,Sletmarken,6310,29,9.654527,54.892327
1450770,Sletmarken,6310,30,9.6547944,54.8925287
1450772,Sletmarken,6310,31,9.6549363,54.8927538
1450775,Sletmarken,6310,32,9.6544234,54.8928002
1450776,Sletmarken,6310,33,9.6542885,54.89256
1450778,Sletmarken,6310,34,9.6537602,54.8924824
1450779,Sletmarken,6310,35,9.6533972,54.8924881
1450783,Sletmarken,6310,36,9.6529751,54.8927561
1450786,Sletmarken,6310,37,9.6528303,54.8930251
1450787,Sletmarken,6310,38,9.6527712,54.8931981
1450790,Sletmarken,6310,39,9.6528289,54.8934711
1450792,Sletmarken,6310,40,9.652568,54.893492
1450795,Sletmarken,6310,41,9.652466,54.893259
1450798,Sletmarken,6310,42,9.652297,54.893049
1450801,Sletmarken,6310,43,9.652027,54.892911
1450804,Sletmarken,6310,44,9.651843,54.892716
1450806,Sletmarken,6310,45,9.651679,54.892502
1450810,Sletmarken,6310,46,9.651464,54.892344
1450813,Sletmarken,6310,47,9.651253,54.892155
1450815,Sletmarken,6310,48,9.651107,54.891964
1450818,Sletmarken,6310,49,9.651537,54.892018
1450821,Sletmarken,6310,50,9.651748,54.892223
1450825,Sletmarken,6310,51,9.651923,54.892369
1450828,Sletmarken,6310,52,9.652223,54.892673
1450830,Sletmarken,6310,53,9.652555,54.892824
1450833,Sletmarken,6310,54,9.652728,54.892578
1450835,Sletmarken,6310,55,9.652999,54.892356
1450837,Sletmarken,6310,56,9.653372,54.892295
1450839,Sletmarken,6310,57,9.653719,54.892273
1450841,Sletmarken,6310,58,9.654078,54.892309
1450907,Vestergade,6310,1,9.672819,54.886894
1450908,Vestergade,6310,2,9.673702,54.886898
1450912,Vestergade,6310,3,9.672641,54.887066
1450914,Vestergade,6310,4,9.673384,54.886912
1450917,Vestergade,6310,5,9.672566,54.887185
1450922,Vestergade,6310,6,9.672955,54.887056
1450925,Vestergade,6310,7,9.672541,54.887267
1450928,Vestergade,6310,8,9.672848,54.887186
1450931,Vestergade,6310,9,9.672475,54.887454
1450935,Vestergade,6310,10,9.672807,54.887324
1450937,Vestergade,6310,11,9.67216,54.887561
1450938,Vestergade,6310,12,9.672908,54.887564
1450941,Vestergade,6310,13,9.672423,54.887766
1450942,Vestergade,6310,14,9.672813,54.887843
1450945,Vestergade,6310,14A,9.672645,54.888021
1450948,Vestergade,6310,15,9.672403,54.88786
1450953,Vestergade,6310,20,9.6726,54.888499
1450954,Vestergade,6310,20A,9.672809,54.888485
1450957,Vestergade,6310,20B,9.672872,54.888563
1450959,Vestergade,6310,21,9.671797,54.888741
1450960,Vestergade,6310,22,9.672672,54.888682
1450963,Vestergade,6310,23,9.672388,54.888683
1450964,Vestergade,6310,24,9.672659,54.888846
1450967,Vestergade,6310,25,9.672394,54.888893
1450968,Vestergade,6310,26,9.67273,54.888983
1450970,Vestergade,6310,27,9.672439,54.889078
1450971,Vestergade,6310,28,9.672785,54.889221
1450974,Vestergade,6310,30,9.672908,54.889502
1450979,Vestergade,6310,31,9.672387,54.889443
1450983,Vestergade,6310,32,9.672981,54.889946
1450985,Vestergade,6310,33,9.67249,54.889606
1450989,Vestergade,6310,34,9.673032,54.890075
1450992,Vestergade,6310,35,9.6727,54.889793
1450996,Vestergade,6310,36,9.673192,54.891552
1450999,Vestergade,6310,37,9.672794,54.890033
1451001,Vestergade,6310,39,9.672848,54.890224
1451006,Vestergade,6310,41,9.672932,54.890409
1451007,Vestergade,6310,41A,9.672495,54.89064
1451012,Vestergade,6310,43,9.673017,54.890573
1451015,Vestergade,6310,45,9.673041,54.890879
1451017,Vestergade,6310,47,9.673036,54.890986
1451019,Vestergade,6310,49,9.672918,54.891194
1451021,Vestergade,6310,51,9.672492,54.891394
1451022,Vestergade,6310,51A,9.672051,54.891238
1451025,Vestergade,6310,53,9.672125,54.891489
1451027,Vestergade,6310,55,9.671823,54.891596
1451029,Vestergade,6310,55A,9.671483,54.891356
1451489,Brombjerg,6310,1,9.665169,54.886774
1451492,Brombjerg,6310,2,9.665887,54.887223
1451495,Brombjerg,6310,3,9.66537,54.886768
1451497,Brombjerg,6310,4,9.665343,54.887272
1451498,Brombjerg,6310,5,9.665314,54.886995
1451500,Brombjerg,6310,6,9.664783,54.88727
1451503,Brombjerg,6310,7,9.665512,54.886988
1451507,Brombjerg,6310,8,9.66411,54.887429
1451509,Brombjerg,6310,9,9.66565,54.886952
1451511,Brombjerg,6310,10,9.663765,54.887362
1451515,Brombjerg,6310,11,9.665869,54.886946
1451520,Brombjerg,6310,12,9.663374,54.887355
1451522,Brombjerg,6310,13,9.66584,54.886722
1451526,Brombjerg,6310,14,9.662822,54.887288
1451529,Brombjerg,6310,15,9.665834,54.886656
1451539,Brombjerg,6310,16,9.662388,54.887304
1451545,Brombjerg,6310,17,9.665829,54.886593
1451548,Brombjerg,6310,17A,9.665823,54.886521
1451558,Brombjerg,6310,18,9.66194,54.887203
1451560,Brombjerg,6310,19,9.665757,54.886487
1451568,Brombjerg,6310,20,9.661806,54.886967
1451576,Brombjerg,6310,21,9.665676,54.886444
1451579,Brombjerg,6310,22,9.661779,54.886698
1451585,Brombjerg,6310,23,9.665346,54.886421
1451587,Brombjerg,6310,24,9.66177,54.88645
1451590,Brombjerg,6310,25,9.665482,54.886334
1451591,Brombjerg,6310,26,9.661877,54.886147
1451592,Brombjerg,6310,27,9.664651,54.886526
1451593,Brombjerg,6310,29,9.664839,54.886437
1451594,Brombjerg,6310,31,9.665067,54.886276
1451595,Brombjerg,6310,33,9.665202,54.88619
1451596,Brombjerg,6310,35,9.664789,54.886134
1451597,Brombjerg,6310,37,9.664923,54.886047
1451598,Brombjerg,6310,39,9.664473,54.886112
1451599,Brombjerg,6310,41,9.664341,54.88616
1451600,Brombjerg,6310,43,9.664191,54.886217
1451601,Brombjerg,6310,45,9.664047,54.886355
1451602,Brombjerg,6310,47,9.664282,54.886537
1451606,Brombjerg,6310,49,9.6646,54.886796
1451607,Brombjerg,6310,51,9.664836,54.887061
1451612,Brombjerg,6310,53,9.664383,54.887106
1451614,Brombjerg,6310,55,9.664043,54.886999
1451619,Brombjerg,6310,57,9.663863,54.886845
1451622,Brombjerg,6310,59,9.663653,54.886719
1451624,Brombjerg,6310,61,9.663393,54.886588
1451626,Brombjerg,6310,63,9.663607,54.886222
1451627,Brombjerg,6310,65,9.663138,54.886294
1451628,Brombjerg,6310,67,9.662634,54.886426
1451629,Brombjerg,6310,69,9.66258,54.886712
1451630,Brombjerg,6310,71,9.663092,54.886648
1451632,Brombjerg,6310,73,9.663429,54.886844
1451633,Brombjerg,6310,75,9.663446,54.887115
1451637,Brombjerg,6310,77,9.663055,54.887084
1451638,Brombjerg,6310,79,9.662599,54.887058
1451639,Brombjerg,6310,81,9.662313,54.88706
1451640,Brombjerg,6310,83,9.662118,54.886778
1451641,Brombjerg,6310,85,9.662075,54.886514
1451642,Brombjerg,6310,87,9.662301,54.886225
1451981,Højløkke,6310,1,9.685296,54.886569
1451982,Højløkke,6310,2,9.68461,54.886516
1451984,Højløkke,6310,3,9.685635,54.886602
1451987,Højløkke,6310,4,9.684308,54.886538
1451988,Højløkke,6310,5,9.685883,54.886261
1451991,Højløkke,6310,6,9.683762,54.886598
1451992,Højløkke,6310,7,9.68548,54.886261
1451995,Højløkke,6310,8,9.68327,54.886473
1451997,Højløkke,6310,9,9.685564,54.885893
1451998,Højløkke,6310,10,9.682993,54.886482
1451999,Højløkke,6310,11,9.685907,54.885868
1452000,Højløkke,6310,12,9.682612,54.886545
1452001,Højløkke,6310,13,9.686066,54.885653
1452002,Højløkke,6310,14,9.682753,54.886196
1452003,Højløkke,6310,15,9.68577,54.885631
1452004,Højløkke,6310,16,9.68329,54.886225
1452005,Højløkke,6310,17,9.685785,54.885243
1452006,Højløkke,6310,18,9.683722,54.886229
1452007,Højløkke,6310,19,9.686232,54.885235
1452008,Højløkke,6310,20,9.684221,54.886245
1452009,Højløkke,6310,21,9.686346,54.885027
1452010,Højløkke,6310,22,9.684775,54.886247
1452011,Højløkke,6310,23,9.685963,54.884984
1452012,Højløkke,6310,24,9.684877,54.885852
1452013,Højløkke,6310,25,9.686602,54.884555
1452014,Højløkke,6310,26,9.68452,54.885844
1452015,Højløkke,6310,27,9.686484,54.884553
1452016,Højløkke,6310,28,9.68405,54.885846
1452017,Højløkke,6310,29,9.686339,54.884551
1452018,Højløkke,6310,30,9.683535,54.885828
1452019,Højløkke,6310,31,9.686194,54.884549
1452020,Højløkke,6310,32,9.682993,54.885829
1452021,Højløkke,6310,33,9.686065,54.884598
1452022,Højløkke,6310,34,9.682553,54.885832
1452023,Højløkke,6310,35,9.68593,54.884596
1452024,Højløkke,6310,36,9.682789,54.885552
1452025,Højløkke,6310,37,9.685797,54.884596
1452026,Højløkke,6310,38,9.683256,54.885594
1452027,Højløkke,6310,39,9.68567,54.884593
1452028,Højløkke,6310,40,9.683719,54.885597
1452029,Højløkke,6310,42,9.684235,54.885615
1452030,Højløkke,6310,44,9.684655,54.885612
1452031,Højløkke,6310,46,9.685038,54.885617
1452032,Højløkke,6310,48,9.685154,54.885237
1452033,Højløkke,6310,50,9.68459,54.885212
1452034,Højløkke,6310,52,9.684084,54.885239
1452035,Højløkke,6310,54,9.683566,54.885211
1452036,Højløkke,6310,56,9.68313,54.885207
1452037,Højløkke,6310,58,9.682636,54.88521
1452038,Højløkke,6310,60,9.682706,54.884897
1452039,Højløkke,6310,60A,9.682859,54.884667
1452040,Højløkke,6310,62,9.683336,54.884964
1452041,Højløkke,6310,64,9.68376,54.884977
1452042,Højløkke,6310,66,9.684248,54.884983
1452043,Højløkke,6310,68,9.684757,54.884988
1452044,Højløkke,6310,70,9.685297,54.884991
1452045,Højløkke,6310,72,9.685086,54.884639
1452047,Højløkke,6310,74,9.684728,54.884711
1452048,Højløkke,6310,76,9.684245,54.884703
1452049,Højløkke,6310,78,9.683749,54.884697
1452052,Højløkke,6310,80,9.68328,54.884694
1452053,Højløkke,6310,82,9.683256,54.884482
1452054,Højløkke,6310,84,9.683739,54.884389
1452056,Højløkke,6310,86,9.68407,54.884392
1452057,Højløkke,6310,88,9.684352,54.884368
1452059,Højløkke,6310,90,9.684654,54.8844
1452061,Højløkke,6310,92,9.684954,54.884405
1452062,Højløkke,6310,94,9.685348,54.88436
1452146,Mejerivej,6310,1,9.671911,54.884077
1452148,Mejerivej,6310,2,9.672196,54.884536
1452150,Mejerivej,6310,3,9.672112,54.884154
1452153,Mejerivej,6310,4,9.672042,54.884683
1452154,Mejerivej,6310,5,9.671641,54.8846
1452156,Mejerivej,6310,6,9.671959,54.884813
1452158,Mejerivej,6310,7A,9.671817,54.884425
1452160,Mejerivej,6310,7B,9.671879,54.884314
1452162,Mejerivej,6310,7C,9.671919,54.884205
1452165,Mejerivej,6310,7D,9.671452,54.88431
1452166,Mejerivej,6310,7E,9.671491,54.884213
1452168,Mejerivej,6310,7F,9.67102,54.884337
1452169,Mejerivej,6310,7G,9.671065,54.884226
1452172,Mejerivej,6310,9,9.671291,54.88485
1452173,Mejerivej,6310,10,9.671639,54.885098
1452174,Mejerivej,6310,11,9.671185,54.885298
1452176,Mejerivej,6310,12,9.671626,54.885272
1452178,Mejerivej,6310,13,9.670877,54.885667
1452180,Mejerivej,6310,13A,9.670074,54.886145
1452181,Mejerivej,6310,13E,9.671316,54.885996
1452183,Mejerivej,6310,14,9.671665,54.885462
1452184,Mejerivej,6310,15,9.670048,54.886383
1452185,Mejerivej,6310,18,9.671798,54.885676
1452186,Mejerivej,6310,19,9.671297,54.886337
1452187,Mejerivej,6310,20,9.671819,54.885842
1452188,Mejerivej,6310,21,9.6712311,54.8865816
1452189,Mejerivej,6310,22,9.671839,54.886012
1452190,Mejerivej,6310,24,9.671792,54.886167
1452191,Mejerivej,6310,25,9.671748,54.886732
1452192,Mejerivej,6310,26,9.671826,54.886368
1452193,Mejerivej,6310,27,9.671958,54.886582
1452194,Mejerivej,6310,28,9.672199,54.886421
1452195,Mejerivej,6310,30,9.672585,54.886477
1452196,Mejerivej,6310,32,9.673002,54.88632
1452197,Mejerivej,6310,34,9.673276,54.886435
1452249,Pileløkke,6310,1,9.682966,54.887115
1452250,Pileløkke,6310,2,9.683584,54.887121
1452253,Pileløkke,6310,3,9.6825914,54.8870836
1452254,Pileløkke,6310,4,9.68411,54.887129
1452256,Pileløkke,6310,5,9.682441,54.887323
1452258,Pileløkke,6310,6,9.684546,54.887103
1452260,Pileløkke,6310,7,9.6828431,54.8874388
1452263,Pileløkke,6310,8,9.685109,54.887057
1452266,Pileløkke,6310,9,9.682943,54.887733
1452271,Pileløkke,6310,10,9.685399,54.88717
1452272,Pileløkke,6310,11,9.68254,54.887684
1452276,Pileløkke,6310,12,9.685397,54.887451
1452278,Pileløkke,6310,13,9.682372,54.888003
1452280,Pileløkke,6310,14,9.684985,54.887374
1452281,Pileløkke,6310,15,9.682972,54.888041
1452283,Pileløkke,6310,16,9.68444,54.887408
1452285,Pileløkke,6310,17,9.682927,54.888355
1452287,Pileløkke,6310,18,9.684093,54.887389
1452288,Pileløkke,6310,19,9.682497,54.888339
1452291,Pileløkke,6310,20,9.68362,54.887375
1452292,Pileløkke,6310,21,9.682293,54.888568
1452294,Pileløkke,6310,22,9.683605,54.887752
1452297,Pileløkke,6310,23,9.682794,54.88859
1452300,Pileløkke,6310,24,9.684031,54.887758
1452302,Pileløkke,6310,25,9.683215,54.888586
1452303,Pileløkke,6310,26,9.684484,54.887761
1452306,Pileløkke,6310,28,9.6849021,54.8877665
1452307,Pileløkke,6310,30,9.685286,54.887773
1452308,Pileløkke,6310,32,9.685021,54.888124
1452309,Pileløkke,6310,34,9.68472,54.888042
1452310,Pileløkke,6310,36,9.68422,54.888015
1452311,Pileløkke,6310,38,9.683654,54.887989
1452312,Pileløkke,6310,40,9.683671,54.888348
1452313,Pileløkke,6310,42,9.684165,54.888389
1452314,Pileløkke,6310,44,9.684622,54.888393
1452315,Pileløkke,6310,46,9.685053,54.888419
1452316,Pileløkke,6310,48,9.684899,54.888722
1452317,Pileløkke,6310,50,9.684489,54.888648
1452318,Pileløkke,6310,52,9.684069,54.888643
1452319,Pileløkke,6310,54,9.683676,54.888666
1452474,Storegade,6310,1,9.675399,54.890529
1452475,Storegade,6310,2,9.674545,54.889968
1452477,Storegade,6310,2A,9.674425,54.890085
1452478,Storegade,6310,2B,9.673958,54.890119
1452480,Storegade,6310,3,9.674776,54.889983
1452482,Storegade,6310,4,9.674555,54.889861
1452483,Storegade,6310,5,9.674798,54.889791
1452484,Storegade,6310,6,9.674496,54.889453
1452486,Storegade,6310,6A,9.674109,54.889532
1452487,Storegade,6310,7,9.674809,54.889604
1452489,Storegade,6310,8,9.673741,54.889518
1452490,Storegade,6310,9,9.674833,54.889478
1452492,Storegade,6310,10,9.673956,54.889101
1452494,Storegade,6310,11,9.674826,54.889374
1452495,Storegade,6310,12,9.674212,54.888932
1452497,Storegade,6310,14,9.674115,54.888767
1452499,Storegade,6310,15,9.674479,54.888957
1452500,Storegade,6310,17,9.674419,54.888864
1452501,Storegade,6310,18,9.673918,54.888522
1452503,Storegade,6310,19,9.674257,54.888673
1452504,Storegade,6310,21,9.674107,54.888466
1452506,Storegade,6310,22,9.673442,54.888208
1452507,Storegade,6310,23,9.674047,54.888318
1452508,Storegade,6310,24,9.673817,54.888059
1452509,Storegade,6310,25,9.674062,54.888172
1452510,Storegade,6310,26,9.673852,54.887872
1452511,Storegade,6310,27,9.67427,54.887948
1452512,Storegade,6310,28,9.673965,54.887634
1452513,Storegade,6310,30,9.67406,54.887418
1452514,Storegade,6310,31,9.674237,54.887687
1452515,Storegade,6310,32,9.673401,54.88739
1452516,Storegade,6310,33,9.674429,54.886981
1452517,Storegade,6310,34,9.674142,54.887225
1452518,Storegade,6310,36,9.674137,54.887089
1452519,Storegade,6310,38,9.67412,54.886911
1452550,Nejs Bjerg,6310,1,9.6568158,54.8882088
1452555,Nejs Bjerg,6310,2,9.6567549,54.8884853
1452560,Nejs Bjerg,6310,3,9.6571754,54.8887959
1452561,Nejs Bjerg,6310,4,9.657368,54.8885341
1452565,Nejs Bjerg,6310,5,9.6573255,54.8882474
1452566,Nejs Bjerg,6310,6,9.6576123,54.8880542
1452574,Nejs Bjerg,6310,7,9.6578152,54.8882282
1452577,Nejs Bjerg,6310,8,9.658099,54.888289
1452579,Nejs Bjerg,6310,9,9.658399,54.888348
1452584,Nejs Bjerg,6310,10,9.6586737,54.8884283
1452585,Nejs Bjerg,6310,11,9.6589157,54.8886127
1452588,Nejs Bjerg,6310,12,9.6591951,54.8890047
1452589,Nejs Bjerg,6310,13,9.659355,54.889297
1452591,Nejs Bjerg,6310,14,9.6590011,54.8893258
1452594,Nejs Bjerg,6310,15,9.658895,54.8891043
1452596,Nejs Bjerg,6310,16,9.658679,54.888817
1452598,Nejs Bjerg,6310,17,9.6584821,54.8886137
1452600,Nejs Bjerg,6310,18,9.657916,54.888443
1452601,Nejs Bjerg,6310,19,9.6580401,54.8887139
1452602,Nejs Bjerg,6310,20,9.6576088,54.8888357
1452603,Nejs Bjerg,6310,21,9.6581198,54.8891008
1452604,Nejs Bjerg,6310,21A,9.658509,54.889262
1452605,Nejs Bjerg,6310,21B,9.6586511,54.8894626
1452606,Nejs Bjerg,6310,22,9.656069,54.889641
1452607,Nejs Bjerg,6310,23,9.6565341,54.8890012
1452608,Nejs Bjerg,6310,24,9.6563134,54.889169
1452609,Nejs Bjerg,6310,25,9.6559348,54.889186
1452610,Nejs Bjerg,6310,26,9.6555367,54.8893326
1452611,Nejs Bjerg,6310,27,9.65522,54.88931
1452612,Nejs Bjerg,6310,28,9.654724,54.889526
1452613,Nejs Bjerg,6310,29,9.6547218,54.8897624
1452614,Nejs Bjerg,6310,30,9.6549399,54.8900976
1452615,Nejs Bjerg,6310,31,9.654564,54.890115
1452616,Nejs Bjerg,6310,32,9.654517,54.8898167
1452617,Nejs Bjerg,6310,33,9.6543885,54.8895627
1452618,Nejs Bjerg,6310,34,9.6542135,54.8892884
1452619,Nejs Bjerg,6310,35,9.6546157,54.8891047
1452620,Nejs Bjerg,6310,36,9.655042,54.889076
1452621,Nejs Bjerg,6310,37A,9.655337,54.889029
1452622,Nejs Bjerg,6310,37B,9.655575,54.889006
1452623,Nejs Bjerg,6310,37C,9.655812,54.888983
1452624,Nejs Bjerg,6310,37D,9.6561582,54.888926
1452625,Nejs Bjerg,6310,37E,9.656378,54.888842
1452626,Nejs Bjerg,6310,37F,9.656451,54.888408
1452627,Nejs Bjerg,6310,37G,9.6562361,54.8883271
1452628,Nejs Bjerg,6310,38,9.6557964,54.8882086
1452629,Nejs Bjerg,6310,39,9.655462,54.888552
1452631,Nejs Bjerg,6310,40,9.6548285,54.8887082
1452636,Nejs Bjerg,6310,41,9.6536647,54.8893061
1452638,Nejs Bjerg,6310,42,9.6532302,54.8895651
1452642,Nejs Bjerg,6310,43,9.6529385,54.889787
1452645,Nejs Bjerg,6310,44,9.652611,54.8899673
1452649,Nejs Bjerg,6310,45,9.652994,54.890302
1452652,Nejs Bjerg,6310,46,9.653505,54.890253
1452654,Nejs Bjerg,6310,47,9.6536249,54.8899372
1452659,Nejs Bjerg,6310,48,9.653905,54.89005
1452661,Nejs Bjerg,6310,49,9.6538622,54.8903056
1452668,Nejs Bjerg,6310,50,9.6540791,54.8904716
1452673,Nejs Bjerg,6310,51,9.653598,54.890525
1452675,Nejs Bjerg,6310,52,9.653038,54.890633
1452678,Nejs Bjerg,6310,53,9.6527103,54.8904775
1452680,Nejs Bjerg,6310,54,9.6523566,54.890362
1452686,Nejs Bjerg,6310,55C,9.651534,54.890227
1452687,Nejs Bjerg,6310,55D,9.651728,54.889981
1452688,Nejs Bjerg,6310,55E,9.6522002,54.8901801
1452689,Nejs Bjerg,6310,55F,9.6522213,54.8902466
1452692,Nejs Bjerg,6310,56,9.6522533,54.8899305
1452695,Nejs Bjerg,6310,57,9.652549,54.8897103
1452696,Nejs Bjerg,6310,58,9.652839,54.889575
1452699,Nejs Bjerg,6310,59,9.653163,54.889428
1452700,Nejs Bjerg,6310,60,9.653469,54.889122
1452702,Nejs Bjerg,6310,61,9.6538914,54.8889297
1452704,Nejs Bjerg,6310,62,9.654287,54.888774
1452706,Nejs Bjerg,6310,63,9.6546632,54.8885659
1452707,Nejs Bjerg,6310,64,9.6549572,54.8884634
1452708,Nejs Bjerg,6310,65,9.6551758,54.8882686
1452709,Nejs Bjerg,6310,66,9.6554496,54.8881329
1452710,Nejs Bjerg,6310,67,9.6557566,54.8879998
1452711,Nejs Bjerg,6310,68,9.6559406,54.8877637
1452767,Østergade,6310,1,9.675774,54.890801
1452769,Østergade,6310,2,9.675766,54.890114
1452770,Østergade,6310,3,9.676097,54.890608
1452772,Østergade,6310,4,9.675929,54.889899
1452773,Østergade,6310,5,9.676209,54.8903
1452776,Østergade,6310,6,9.676,54.889676
1452779,Østergade,6310,8,9.676004,54.889521
1452780,Østergade,6310,9,9.676142,54.889918
1452781,Østergade,6310,10,9.676021,54.889388
1452783,Østergade,6310,12,9.676073,54.889241
1452784,Østergade,6310,13,9.676648,54.889627
1452787,Østergade,6310,14,9.676058,54.889118
1452788,Østergade,6310,15,9.676204,54.889454
1452790,Østergade,6310,16,9.675972,54.888911
1452791,Østergade,6310,18,9.675821,54.888699
1452794,Østergade,6310,21,9.676469,54.888916
1452795,Østergade,6310,23,9.676131,54.888435
1452798,Østergade,6310,25,9.675877,54.888207
1452800,Østergade,6310,27,9.675817,54.888128
1452801,Østergade,6310,29,9.675704,54.888029
1452803,Østergade,6310,33,9.675639,54.887716
1452804,Østergade,6310,35,9.675002,54.887532
1452805,Østergade,6310,37,9.674834,54.887334
1452807,Østergade,6310,37A,9.674959,54.887305
1452808,Østergade,6310,37B,9.675134,54.887286
1452810,Østergade,6310,37C,9.675264,54.887261
1452811,Østergade,6310,37D,9.675439,54.887238
1452814,Østergade,6310,37E,9.67557,54.887208
1452816,Østergade,6310,37F,9.675685,54.88715
1452817,Østergade,6310,37G,9.675827,54.887122
1452819,Østergade,6310,37H,9.675973,54.887057
1452820,Østergade,6310,37J,9.676102,54.887034
1452822,Østergade,6310,39,9.674612,54.887126
1453117,Bakkevænget,6310,1,9.681209,54.886469
1453118,Bakkevænget,6310,2,9.680594,54.886553
1453121,Bakkevænget,6310,3,9.681689,54.886489
1453123,Bakkevænget,6310,4,9.680089,54.886466
1453124,Bakkevænget,6310,5,9.681939,54.886238
1453127,Bakkevænget,6310,6,9.679703,54.886431
1453128,Bakkevænget,6310,7,9.681512,54.886192
1453131,Bakkevænget,6310,8,9.679157,54.886538
1453133,Bakkevænget,6310,9,9.681352,54.885813
1453134,Bakkevænget,6310,10,9.678724,54.886462
1453137,Bakkevænget,6310,11,9.681803,54.885851
1453139,Bakkevænget,6310,12,9.678282,54.886424
1453141,Bakkevænget,6310,13,9.681973,54.885634
1453144,Bakkevænget,6310,14,9.677806,54.88651
1453145,Bakkevænget,6310,15,9.68142,54.885557
1453147,Bakkevænget,6310,16,9.678464,54.886164
1453148,Bakkevænget,6310,17,9.681852,54.885387
1453151,Bakkevænget,6310,18,9.678944,54.886148
1453154,Bakkevænget,6310,19,9.681963,54.885087
1453155,Bakkevænget,6310,20,9.679371,54.886158
1453157,Bakkevænget,6310,21,9.681403,54.885147
1453158,Bakkevænget,6310,22,9.679806,54.886162
1453159,Bakkevænget,6310,24,9.680228,54.886174
1453160,Bakkevænget,6310,26,9.680597,54.886176
1453161,Bakkevænget,6310,28,9.68072,54.885849
1453162,Bakkevænget,6310,30,9.680226,54.885768
1453163,Bakkevænget,6310,32,9.679898,54.88578
1453164,Bakkevænget,6310,34,9.679433,54.885734
1453165,Bakkevænget,6310,36,9.680266,54.885513
1453166,Bakkevænget,6310,38,9.6806,54.885535
1453185,Nejsvej,6310,1,9.663446,54.888718
1453186,Nejsvej,6310,2,9.662723,54.888644
1453189,Nejsvej,6310,3,9.663312,54.888326
1453190,Nejsvej,6310,4,9.662771,54.88839
1453192,Nejsvej,6310,5,9.663649,54.888263
1453195,Nejsvej,6310,6,9.66266,54.888255
1453196,Nejsvej,6310,7,9.664002,54.888245
1453198,Nejsvej,6310,8,9.662598,54.888119
1453200,Nejsvej,6310,8A,9.661959,54.888167
1453202,Nejsvej,6310,8B,9.662272,54.887997
1453204,Nejsvej,6310,9,9.663098,54.888078
1453206,Nejsvej,6310,9A,9.6635423,54.8881304
1453207,Nejsvej,6310,10,9.662007,54.887737
1453209,Nejsvej,6310,11,9.662764,54.887859
1453211,Nejsvej,6310,11A,9.663312,54.887885
1453212,Nejsvej,6310,12,9.658151,54.887333
1453215,Nejsvej,6310,12C,9.654544,54.890308
1453216,Nejsvej,6310,13,9.663807,54.887886
1453218,Nejsvej,6310,13A,9.664701,54.887871
1453220,Nejsvej,6310,14,9.65547,54.886743
1453221,Nejsvej,6310,15,9.665762,54.887722
1453222,Nejsvej,6310,15A,9.665851,54.887947
1453224,Nejsvej,6310,15B,9.666298,54.887873
1453227,Nejsvej,6310,15C,9.666255,54.887687
1453229,Nejsvej,6310,16,9.652552,54.88586
1453232,Nejsvej,6310,16A,9.651833,54.883538
1453235,Nejsvej,6310,17,9.66666,54.887572
1453237,Nejsvej,6310,18,9.656005,54.885802
1453239,Nejsvej,6310,19,9.67043,54.887754
1453241,Nejsvej,6310,19A,9.6682949,54.8878418
1453242,Nejsvej,6310,20,9.661385,54.887129
1453244,Nejsvej,6310,21,9.671458,54.887277
1453245,Nejsvej,6310,30A,9.6675587,54.8870879
1453247,Nejsvej,6310,30B,9.6677759,54.8870774
1453248,Nejsvej,6310,30C,9.668522,54.887044
1453250,Nejsvej,6310,32,9.6690471,54.8870257
1453251,Nejsvej,6310,34,9.670179,54.886721
1453252,Nejsvej,6310,34A,9.669589,54.886647
1453253,Nejsvej,6310,34B,9.669587,54.886921
1453254,Nejsvej,6310,36,9.670911,54.886636
1453384,Smøl,6310,1,9.675123,54.89967
1453387,Smøl,6310,2,9.674596,54.899334
1453388,Smøl,6310,2A,9.674455,54.899004
1453391,Smøl,6310,4,9.674489,54.898216
1453392,Smøl,6310,5,9.676675,54.899432
1453394,Smøl,6310,6,9.674666,54.898446
1453397,Smøl,6310,7,9.677009,54.899386
1453398,Smøl,6310,8,9.675005,54.898857
1453401,Smøl,6310,9,9.677588,54.899439
1453402,Smøl,6310,10,9.675293,54.899107
1453403,Smøl,6310,11,9.673078,54.897716
1453404,Smøl,6310,13,9.67834,54.899496
1453405,Smøl,6310,14,9.675615,54.899243
1453406,Smøl,6310,15,9.678649,54.899511
1453407,Smøl,6310,16,9.675898,54.899178
1453408,Smøl,6310,17,9.678964,54.89964
1453409,Smøl,6310,18,9.676509,54.899212
1453410,Smøl,6310,19,9.679484,54.899509
1453411,Smøl,6310,20,9.676893,54.899189
1453412,Smøl,6310,21,9.680395,54.8996
1453413,Smøl,6310,22,9.67713,54.899264
1453414,Smøl,6310,23,9.680749,54.899726
1453415,Smøl,6310,24,9.678113,54.899207
1453416,Smøl,6310,25,9.681198,54.899865
1453417,Smøl,6310,28,9.679394,54.899311
1453418,Smøl,6310,30,9.680132,54.899364
1453419,Smøl,6310,34,9.680671,54.899566
1453420,Smøl,6310,36,9.680871,54.89963
1453421,Smøl,6310,38,9.680653,54.898746
1453464,Brunsnæs-Fjordvejen,6310,1,9.642138,54.864455
1453467,Brunsnæs-Fjordvejen,6310,3,9.64198,54.864558
1453470,Brunsnæs-Fjordvejen,6310,4,9.642076,54.864942
1453474,Brunsnæs-Fjordvejen,6310,5,9.641765,54.864661
1453475,Brunsnæs-Fjordvejen,6310,6,9.6422922,54.8652382
1453478,Brunsnæs-Fjordvejen,6310,7,9.641545,54.864761
1453479,Brunsnæs-Fjordvejen,6310,8,9.6420051,54.8653467
1453480,Brunsnæs-Fjordvejen,6310,9,9.641301,54.864841
1453481,Brunsnæs-Fjordvejen,6310,10,9.6415653,54.8650644
1453482,Brunsnæs-Fjordvejen,6310,12,9.6412885,54.8653786
1453483,Brunsnæs-Fjordvejen,6310,13,9.640831,54.865053
1453484,Brunsnæs-Fjordvejen,6310,14,9.6405736,54.8654219
1453485,Brunsnæs-Fjordvejen,6310,15,9.640581,54.865233
1453486,Brunsnæs-Fjordvejen,6310,16,9.6402671,54.8655557
1453487,Brunsnæs-Fjordvejen,6310,17,9.640035,54.865383
1453488,Brunsnæs-Fjordvejen,6310,18,9.639775,54.865743
1453489,Brunsnæs-Fjordvejen,6310,19,9.639824,54.865447
1453490,Brunsnæs-Fjordvejen,6310,21,9.639534,54.865531
1453491,Brunsnæs-Fjordvejen,6310,23,9.639296,54.865603
1453492,Brunsnæs-Fjordvejen,6310,24,9.638549,54.866315
1453493,Brunsnæs-Fjordvejen,6310,25,9.639027,54.86572
1453494,Brunsnæs-Fjordvejen,6310,26,9.638216,54.866688
1453495,Brunsnæs-Fjordvejen,6310,27,9.638827,54.86584
1453496,Brunsnæs-Fjordvejen,6310,28,9.6382564,54.8667845
1453497,Brunsnæs-Fjordvejen,6310,29,9.638324,54.866099
1453498,Brunsnæs-Fjordvejen,6310,31,9.637828,54.865787
1453499,Brunsnæs-Fjordvejen,6310,33,9.637846,54.865944
1453500,Brunsnæs-Fjordvejen,6310,34,9.639059,54.86717
1453501,Brunsnæs-Fjordvejen,6310,34A,9.6394296,54.8674201
1453502,Brunsnæs-Fjordvejen,6310,34B,9.6387684,54.8671347
1453503,Brunsnæs-Fjordvejen,6310,35,9.6381,54.866142
1453504,Brunsnæs-Fjordvejen,6310,35A,9.637868,54.866305
1453557,Vesterbakke,6310,1,9.66897,54.892222
1453558,Vesterbakke,6310,2,9.66862,54.892329
1453559,Vesterbakke,6310,2A,9.6684708,54.892212
1453560,Vesterbakke,6310,2B,9.668232,54.892283
1453561,Vesterbakke,6310,2C,9.668083,54.892284
1453562,Vesterbakke,6310,3,9.668886,54.891972
1453563,Vesterbakke,6310,4,9.668404,54.892035
1453564,Vesterbakke,6310,5,9.668821,54.891777
1453565,Vesterbakke,6310,6,9.668315,54.891789
1453566,Vesterbakke,6310,7,9.6686668,54.8914619
1453567,Vesterbakke,6310,8,9.668222,54.891556
1453568,Vesterbakke,6310,9,9.668925,54.891134
1453569,Vesterbakke,6310,10,9.668143,54.891348
1453570,Vesterbakke,6310,11,9.66854,54.890523
1453571,Vesterbakke,6310,12,9.66807,54.891105
1453572,Vesterbakke,6310,13,9.668934,54.890553
1453573,Vesterbakke,6310,14,9.668063,54.890854
1453574,Vesterbakke,6310,15,9.669624,54.890658
1453575,Vesterbakke,6310,16,9.668054,54.890571
1453576,Vesterbakke,6310,17,9.669628,54.890871
1453577,Vesterbakke,6310,18,9.668342,54.890275
1453578,Vesterbakke,6310,18A,9.669075,54.890278
1453579,Vesterbakke,6310,19,9.669669,54.891168
1453580,Vesterbakke,6310,20,9.669497,54.890231
1453581,Vesterbakke,6310,21,9.669522,54.891399
1453582,Vesterbakke,6310,23,9.669683,54.891677
1453583,Vesterbakke,6310,23A,9.669274,54.891574
1453584,Vesterbakke,6310,23B,9.669082,54.891586
1453585,Vesterbakke,6310,23C,9.669301,54.891723
1453586,Vesterbakke,6310,23D,9.669115,54.891735
1453587,Vesterbakke,6310,25,9.669707,54.891908
1453588,Vesterbakke,6310,26,9.670048,54.891082
1453589,Vesterbakke,6310,27,9.669742,54.892135
1453811,Kirkegade,6310,1,9.675155,54.891036
1453813,Kirkegade,6310,2,9.67515,54.89123
1453815,Kirkegade,6310,2A,9.675548,54.891197
1453816,Kirkegade,6310,2B,9.676039,54.891465
1453818,Kirkegade,6310,3,9.675155,54.891446
1453819,Kirkegade,6310,3A,9.675234,54.891578
1453821,Kirkegade,6310,3B,9.675473,54.891598
1453822,Kirkegade,6310,3C,9.675595,54.891595
1453823,Kirkegade,6310,3D,9.675721,54.891592
1453824,Kirkegade,6310,3E,9.675842,54.891587
1453825,Kirkegade,6310,4,9.675287,54.891757
1453826,Kirkegade,6310,5,9.675286,54.891887
1453827,Kirkegade,6310,6,9.6753,54.89199
1453828,Kirkegade,6310,7,9.675299,54.892093
1453829,Kirkegade,6310,8,9.675301,54.892197
1453830,Kirkegade,6310,9,9.67529,54.892288
1453831,Kirkegade,6310,10,9.675273,54.892414
1453832,Kirkegade,6310,11,9.675257,54.892531
1453833,Kirkegade,6310,12,9.675246,54.892637
1453834,Kirkegade,6310,13,9.675219,54.892831
1453835,Kirkegade,6310,14,9.675189,54.892968
1453836,Kirkegade,6310,15,9.675177,54.893206
1453837,Kirkegade,6310,16,9.674812,54.892846
1453838,Kirkegade,6310,17,9.674656,54.893016
1453839,Kirkegade,6310,18,9.674484,54.89318
1453840,Kirkegade,6310,19,9.674287,54.893358
1453982,Drosselvænget,6310,1,9.662132,54.888913
1453983,Drosselvænget,6310,2,9.661204,54.889138
1453984,Drosselvænget,6310,3,9.661587,54.888899
1453985,Drosselvænget,6310,4,9.660917,54.889207
1453986,Drosselvænget,6310,5,9.661526,54.888678
1453987,Drosselvænget,6310,6,9.660622,54.889332
1453989,Drosselvænget,6310,7,9.661513,54.888489
1453991,Drosselvænget,6310,8,9.660196,54.889389
1453994,Drosselvænget,6310,9,9.661408,54.888281
1453996,Drosselvænget,6310,10,9.65975,54.889229
1453998,Drosselvænget,6310,11,9.661381,54.888069
1454000,Drosselvænget,6310,12,9.660102,54.889137
1454002,Drosselvænget,6310,13,9.660921,54.888157
1454003,Drosselvænget,6310,14,9.66039,54.889003
1454004,Drosselvænget,6310,15,9.660533,54.888246
1454005,Drosselvænget,6310,16,9.660734,54.889005
1454006,Drosselvænget,6310,17,9.660122,54.888296
1454007,Drosselvænget,6310,18,9.660998,54.888875
1454008,Drosselvænget,6310,19,9.659799,54.888423
1454009,Drosselvænget,6310,20,9.660948,54.888513
1454010,Drosselvænget,6310,21,9.659474,54.888516
1454011,Drosselvænget,6310,22,9.660491,54.888526
1454012,Drosselvænget,6310,24,9.660271,54.888682
1454013,Drosselvænget,6310,26,9.659909,54.888696
1454014,Drosselvænget,6310,28,9.659563,54.888771
1454061,Nørreløkke,6310,1,9.698302,54.893888
1454062,Nørreløkke,6310,2,9.698787,54.893963
1454063,Nørreløkke,6310,3,9.698051,54.894037
1454065,Nørreløkke,6310,4,9.698548,54.894049
1454067,Nørreløkke,6310,5,9.697732,54.894132
1454069,Nørreløkke,6310,6,9.698378,54.894184
1454071,Nørreløkke,6310,7,9.697427,54.894188
1454073,Nørreløkke,6310,8,9.698125,54.894304
1454075,Nørreløkke,6310,9,9.697094,54.894231
1454077,Nørreløkke,6310,10,9.697909,54.894456
1454079,Nørreløkke,6310,11,9.697151,54.894461
1454080,Nørreløkke,6310,12,9.697586,54.894521
1454083,Nørreløkke,6310,13,9.697083,54.894627
1454084,Nørreløkke,6310,14,9.699405,54.894184
1454085,Nørreløkke,6310,15,9.697005,54.894877
1454086,Nørreløkke,6310,16,9.69955,54.894352
1454087,Nørreløkke,6310,17,9.697332,54.894901
1454088,Nørreløkke,6310,18,9.699796,54.894561
1454089,Nørreløkke,6310,19,9.697714,54.894813
1454090,Nørreløkke,6310,21,9.69815,54.894728
1454091,Nørreløkke,6310,23,9.698484,54.894699
1454092,Nørreløkke,6310,25,9.698737,54.894588
1454093,Nørreløkke,6310,27,9.69909,54.89454
1454094,Nørreløkke,6310,29,9.699207,54.894798
1454126,Højmarken,6310,1,9.68709,54.886321
1454127,Højmarken,6310,2,9.686897,54.886562
1454128,Højmarken,6310,3,9.687232,54.886323
1454129,Højmarken,6310,4,9.686737,54.886559
1454130,Højmarken,6310,5,9.687334,54.886323
1454131,Højmarken,6310,6,9.686648,54.886558
1454132,Højmarken,6310,7,9.687451,54.886324
1454133,Højmarken,6310,8,9.686535,54.886557
1454134,Højmarken,6310,9,9.687614,54.886378
1454136,Højmarken,6310,10,9.686391,54.886611
1454139,Højmarken,6310,11,9.687759,54.886379
1454141,Højmarken,6310,12,9.6861564,54.8866092
1454143,Højmarken,6310,13,9.687923,54.88638
1454145,Højmarken,6310,14,9.6869028,54.8863519
1454148,Højmarken,6310,15,9.6870964,54.8861092
1454149,Højmarken,6310,16,9.686783,54.88635
1454151,Højmarken,6310,17,9.6872142,54.8861085
1454153,Højmarken,6310,18,9.686661,54.886349
1454155,Højmarken,6310,19,9.687318,54.88611
1454157,Højmarken,6310,20,9.6865399,54.8863482
1454159,Højmarken,6310,21,9.687457,54.886111
1454160,Højmarken,6310,22,9.6863993,54.8863317
1454161,Højmarken,6310,23,9.687625,54.886054
1454162,Højmarken,6310,24,9.686402,54.886265
1454164,Højmarken,6310,25,9.687771,54.886055
1454165,Højmarken,6310,26,9.686405,54.886214
1454167,Højmarken,6310,27,9.6879841,54.8860582
1454169,Højmarken,6310,28,9.686406,54.886143
1454171,Højmarken,6310,29,9.687129,54.885902
1454174,Højmarken,6310,30,9.6869103,54.8859837
1454175,Højmarken,6310,31,9.687292,54.885903
1454177,Højmarken,6310,32,9.686707,54.885981
1454180,Højmarken,6310,33,9.6874858,54.8859057
1454181,Højmarken,6310,34,9.686548,54.886028
1454183,Højmarken,6310,35,9.687611,54.885817
1454185,Højmarken,6310,36,9.686344,54.886026
1454187,Højmarken,6310,37,9.687774,54.885819
1454189,Højmarken,6310,38,9.686916,54.88577
1454191,Højmarken,6310,39,9.687937,54.885822
1454193,Højmarken,6310,40,9.686727,54.885768
1454195,Højmarken,6310,41,9.687139,54.885578
1454197,Højmarken,6310,42,9.686568,54.885728
1454199,Højmarken,6310,43,9.687302,54.88558
1454201,Højmarken,6310,44,9.686571,54.885603
1454202,Højmarken,6310,45,9.687496,54.885582
1454203,Højmarken,6310,46,9.6869767,54.8855232
1454204,Højmarken,6310,47,9.68762,54.885494
1454205,Højmarken,6310,48,9.686815,54.885521
1454206,Højmarken,6310,49,9.687784,54.885497
1454207,Højmarken,6310,50,9.686653,54.88552
1454208,Højmarken,6310,51,9.687978,54.885499
1454806,Brovej,6310,60,9.63744,54.899943
1454807,Brovej,6310,69,9.656481,54.895813
1454810,Brovej,6310,71,9.660051,54.89581
1454812,Brovej,6310,71A,9.66056,54.896111
1454815,Brovej,6310,71B,9.660626,54.896278
1454818,Brovej,6310,73,9.661577,54.895125
1454820,Brovej,6310,81,9.669354,54.894245
1454823,Brovej,6310,83,9.669921,54.894186
1454824,Brovej,6310,84,9.67292,54.893547
1454827,Brovej,6310,86,9.67338,54.893449
1454829,Brovej,6310,87,9.672292,54.893895
1454831,Brovej,6310,89,9.672706,54.893906
1454834,Brovej,6310,90,9.673784,54.893533
1454835,Brovej,6310,91,9.672995,54.893913
1454837,Brovej,6310,93,9.673418,54.894018
1454840,Brovej,6310,99,9.675631,54.894416
1454842,Brovej,6310,106,9.688121,54.90181
1454847,Brovej,6310,117,9.692055,54.905284
1454848,Brovej,6310,119,9.691604,54.906473
1454852,Brovej,6310,121,9.696637,54.906365
1454853,Brovej,6310,123,9.696602,54.906518
1454873,Møllebakken,6310,1,9.667153,54.892307
1454874,Møllebakken,6310,2,9.667064,54.891902
1454875,Møllebakken,6310,3,9.667586,54.892154
1454876,Møllebakken,6310,4,9.667026,54.891659
1454877,Møllebakken,6310,5,9.66751,54.891989
1454878,Møllebakken,6310,6,9.666995,54.891401
1454880,Møllebakken,6310,7,9.667482,54.891772
1454881,Møllebakken,6310,8,9.66697,54.891216
1454883,Møllebakken,6310,9,9.667505,54.891564
1454885,Møllebakken,6310,10,9.666961,54.891029
1454887,Møllebakken,6310,11,9.66736,54.891325
1454889,Møllebakken,6310,12,9.66694,54.890855
1454891,Møllebakken,6310,13,9.667356,54.89112
1454892,Møllebakken,6310,14,9.666916,54.89067
1454895,Møllebakken,6310,15,9.667346,54.890882
1454896,Møllebakken,6310,16,9.666938,54.890381
1454900,Møllebakken,6310,17,9.667339,54.890668
1454901,Møllebakken,6310,18,9.666421,54.890226
1454905,Møllebakken,6310,19,9.667327,54.890438
1454909,Møllebakken,6310,19A,9.667841,54.890241
1454910,Møllebakken,6310,21,9.667499,54.890096
1454914,Møllebakken,6310,23,9.667176,54.890038
1454915,Møllebakken,6310,25,9.666846,54.890059
1454918,Møllebakken,6310,27,9.666534,54.889945
1454947,Mølmark,6310,1,9.672682,54.883494
1454950,Mølmark,6310,2,9.672015,54.883725
1454952,Mølmark,6310,3,9.672371,54.883011
1454953,Mølmark,6310,4,9.672041,54.883423
1454955,Mølmark,6310,5,9.672222,54.882864
1454957,Mølmark,6310,6,9.671936,54.883253
1454959,Mølmark,6310,7,9.671946,54.882696
1454961,Mølmark,6310,8,9.67173,54.88295
1454962,Mølmark,6310,9,9.671886,54.882485
1454963,Mølmark,6310,10,9.671565,54.882651
1454964,Mølmark,6310,10A,9.662993,54.879551
1454965,Mølmark,6310,11,9.671822,54.882237
1454966,Mølmark,6310,12,9.671489,54.882487
1454967,Mølmark,6310,13,9.672537,54.881903
1454968,Mølmark,6310,15,9.672046,54.881736
1454969,Mølmark,6310,17,9.672058,54.881491
1454970,Mølmark,6310,19,9.672009,54.881343
1454972,Mølmark,6310,20,9.670641,54.880819
1454974,Mølmark,6310,21,9.67185,54.881054
1454976,Mølmark,6310,23,9.672462,54.880462
1454977,Mølmark,6310,25,9.673324,54.880685
1454979,Mølmark,6310,27,9.672199,54.87974
1455035,Vemmingbundvej,6310,1,9.675782,54.890784
1455036,Vemmingbundvej,6310,1A,9.676158,54.891204
1455037,Vemmingbundvej,6310,2,9.67705,54.891125
1455038,Vemmingbundvej,6310,3,9.677618,54.891489
1455039,Vemmingbundvej,6310,4,9.677496,54.891265
1455040,Vemmingbundvej,6310,5,9.678018,54.891533
1455041,Vemmingbundvej,6310,7,9.678429,54.891582
1455042,Vemmingbundvej,6310,8,9.679471,54.891458
1455043,Vemmingbundvej,6310,9,9.678745,54.891625
1455044,Vemmingbundvej,6310,10,9.680263,54.891601
1455045,Vemmingbundvej,6310,12,9.680679,54.891676
1455047,Vemmingbundvej,6310,13,9.680058,54.891826
1455048,Vemmingbundvej,6310,14,9.68109,54.891732
1455050,Vemmingbundvej,6310,16,9.681441,54.891731
1455052,Vemmingbundvej,6310,18,9.68204,54.891756
1455054,Vemmingbundvej,6310,19,9.688906,54.893112
1455057,Vemmingbundvej,6310,21,9.693231,54.893717
1455058,Vemmingbundvej,6310,26,9.697856,54.893083
1455060,Vemmingbundvej,6310,26A,9.697957,54.893539
1455062,Vemmingbundvej,6310,27,9.696562,54.894099
1455064,Vemmingbundvej,6310,28,9.6994154,54.8938391
1455084,Solskrænten,6310,2,9.666249,54.892245
1455086,Solskrænten,6310,3,9.668554,54.892695
1455088,Solskrænten,6310,4,9.666134,54.89203
1455091,Solskrænten,6310,5,9.668102,54.892595
1455093,Solskrænten,6310,6,9.665988,54.891772
1455095,Solskrænten,6310,7,9.667688,54.892501
1455097,Solskrænten,6310,8,9.665798,54.89152
1455098,Solskrænten,6310,9,9.667334,54.892563
1455099,Solskrænten,6310,10,9.665792,54.891203
1455100,Solskrænten,6310,11,9.666665,54.892011
1455101,Solskrænten,6310,12,9.665723,54.890966
1455102,Solskrænten,6310,13,9.666565,54.891755
1455103,Solskrænten,6310,14,9.665745,54.890612
1455104,Solskrænten,6310,15,9.666372,54.891476
1455105,Solskrænten,6310,16,9.66582,54.890436
1455106,Solskrænten,6310,17,9.666261,54.891241
1455107,Solskrænten,6310,18,9.665785,54.889898
1455108,Solskrænten,6310,19,9.666373,54.891005
1455109,Solskrænten,6310,20,9.665791,54.889707
1455110,Solskrænten,6310,21,9.666411,54.890749
1455111,Solskrænten,6310,23,9.666431,54.890506
1455112,Solskrænten,6310,25,9.666263,54.889828
1455277,Østermarken,6310,1,9.680372,54.891349
1455278,Østermarken,6310,2,9.679755,54.891436
1455279,Østermarken,6310,3,9.680847,54.89136
1455280,Østermarken,6310,4,9.680078,54.890934
1455281,Østermarken,6310,5,9.680943,54.891166
1455282,Østermarken,6310,6,9.680171,54.890781
1455283,Østermarken,6310,7,9.68065,54.891108
1455284,Østermarken,6310,8,9.680332,54.8905
1455285,Østermarken,6310,9,9.680848,54.890877
1455286,Østermarken,6310,10,9.680681,54.89062
1455287,Østermarken,6310,11,9.681232,54.890991
1455288,Østermarken,6310,12,9.681019,54.89069
1455289,Østermarken,6310,13,9.68161,54.891052
1455290,Østermarken,6310,14,9.681349,54.89076
1455291,Østermarken,6310,15,9.681707,54.891316
1455292,Østermarken,6310,16,9.681637,54.890821
1455293,Østermarken,6310,17,9.681637,54.891468
1455294,Østermarken,6310,18,9.681973,54.890905
1455295,Østermarken,6310,20,9.682401,54.890981
1455296,Østermarken,6310,22,9.682213,54.891164
1455298,Østermarken,6310,24,9.682102,54.891349
1455300,Østermarken,6310,26,9.682033,54.891524
1455604,Skrænten,6310,1,9.699927,54.893931
1455605,Skrænten,6310,2,9.699657,54.893669
1455606,Skrænten,6310,3,9.700001,54.893765
1455607,Skrænten,6310,4,9.699677,54.893515
1455608,Skrænten,6310,5,9.700092,54.893568
1455609,Skrænten,6310,6,9.699702,54.893325
1455610,Skrænten,6310,7,9.700058,54.893345
1455611,Skrænten,6310,8,9.699739,54.893157
1455612,Skrænten,6310,9,9.700145,54.893182
1455613,Skrænten,6310,10,9.699798,54.892983
1455614,Skrænten,6310,11,9.700525,54.892969
1455615,Skrænten,6310,12,9.6998368,54.8927571
1455616,Skrænten,6310,13,9.7002791,54.8927546
1455617,Skrænten,6310,13A,9.700584,54.89277
1455618,Skrænten,6310,14,9.6998818,54.8924931
1455619,Skrænten,6310,15,9.700326,54.892493
1455620,Skrænten,6310,16,9.69988,54.892232
1455621,Skrænten,6310,17,9.700391,54.892203
1455622,Skrænten,6310,18,9.699998,54.8919667
1455623,Skrænten,6310,20,9.7004072,54.8919165
1455624,Skrænten,6310,22,9.700948,54.891835
1455730,Illerstrandvej,6310,4,9.66279,54.877367
1455731,Illerstrandvej,6310,5,9.6626,54.875808
1455732,Illerstrandvej,6310,6,9.662366,54.877517
1455735,Illerstrandvej,6310,7,9.656872,54.876297
1455736,Illerstrandvej,6310,8,9.661929,54.87776
1455737,Illerstrandvej,6310,10,9.659506,54.876408
1455738,Illerstrandvej,6310,10A,9.662828,54.876539
1455739,Illerstrandvej,6310,13,9.653103,54.874769
1455740,Illerstrandvej,6310,17,9.651351,54.872992
1455741,Illerstrandvej,6310,19,9.651557,54.872758
1455742,Illerstrandvej,6310,20,9.649021,54.871967
1455743,Illerstrandvej,6310,22,9.648932,54.8719
1455744,Illerstrandvej,6310,24,9.648631,54.871576
1455745,Illerstrandvej,6310,26,9.648691,54.871261
1455746,Illerstrandvej,6310,27,9.648307,54.871074
1455747,Illerstrandvej,6310,28,9.648332,54.871228
1455748,Illerstrandvej,6310,29,9.648105,54.870793
1455749,Illerstrandvej,6310,30,9.64807,54.871069
1455750,Illerstrandvej,6310,32,9.647695,54.870868
1455751,Illerstrandvej,6310,33,9.648845,54.869345
1455752,Illerstrandvej,6310,34,9.647317,54.870951
1455753,Illerstrandvej,6310,35,9.648743,54.869205
1455754,Illerstrandvej,6310,37,9.648548,54.869048
1455755,Illerstrandvej,6310,41,9.645537,54.869393
1455872,Ramsherred,6310,1,9.6745,54.886371
1455874,Ramsherred,6310,2,9.674087,54.886414
1455875,Ramsherred,6310,2A,9.67409,54.886477
1455877,Ramsherred,6310,2B,9.673956,54.886469
1455879,Ramsherred,6310,2C,9.673809,54.886485
1455881,Ramsherred,6310,2D,9.673701,54.886497
1455882,Ramsherred,6310,3,9.674543,54.885997
1455885,Ramsherred,6310,3A,9.6750279,54.8859871
1455886,Ramsherred,6310,3B,9.675311,54.885972
1455889,Ramsherred,6310,4,9.67422,54.886282
1455890,Ramsherred,6310,5,9.674225,54.885687
1455892,Ramsherred,6310,6,9.674217,54.886188
1455893,Ramsherred,6310,7,9.674549,54.885534
1455896,Ramsherred,6310,8A,9.673966,54.886096
1455897,Ramsherred,6310,8B,9.673834,54.886097
1455899,Ramsherred,6310,8C,9.673738,54.886102
1455900,Ramsherred,6310,8D,9.673606,54.886104
1455903,Ramsherred,6310,8E,9.673528,54.886109
1455905,Ramsherred,6310,9,9.674388,54.885339
1455907,Ramsherred,6310,10,9.674143,54.885967
1455908,Ramsherred,6310,11,9.674987,54.885227
1455910,Ramsherred,6310,12,9.674051,54.88588
1455911,Ramsherred,6310,14,9.673968,54.88575
1455971,Illervej,6310,8,9.666838,54.87439
1455972,Illervej,6310,10,9.666818,54.873868
1455973,Illervej,6310,11,9.663211,54.870453
1455974,Illervej,6310,13,9.66288,54.870236
1455975,Illervej,6310,15,9.662602,54.870069
1455976,Illervej,6310,17,9.663543,54.86983
1455977,Illervej,6310,18,9.663326,54.87098
1455978,Illervej,6310,20,9.662941,54.870577
1455979,Illervej,6310,21,9.663096,54.869726
1455980,Illervej,6310,22,9.662493,54.870268
1455981,Illervej,6310,23,9.66229,54.869861
1455982,Illervej,6310,24,9.662309,54.87017
1455983,Illervej,6310,25,9.66171,54.869726
1455984,Illervej,6310,27,9.661414,54.869645
1455985,Illervej,6310,28,9.661162,54.869782
1455986,Illervej,6310,28A,9.660527,54.869566
1455987,Illervej,6310,29,9.660008,54.869227
1455988,Illervej,6310,30,9.660061,54.869479
1455989,Illervej,6310,39,9.644646,54.863995
1455990,Illervej,6310,43,9.641533,54.862974
1455991,Illervej,6310,44,9.642708,54.865048
1455992,Illervej,6310,46,9.642447,54.864843
1456028,Nybølnorvej,6310,1,9.674057,54.908415
1456029,Nybølnorvej,6310,3,9.674233,54.908957
1456030,Nybølnorvej,6310,4,9.6758889,54.9093613
1456032,Nybølnorvej,6310,7,9.664969,54.90763
1456033,Nybølnorvej,6310,10,9.666955,54.908738
1456035,Nybølnorvej,6310,11,9.659673,54.908564
1456038,Nybølnorvej,6310,12,9.664741,54.909196
1456040,Nybølnorvej,6310,13,9.659636,54.908358
1456041,Nybølnorvej,6310,14,9.661841,54.908197
1456043,Nybølnorvej,6310,15,9.659102,54.908391
1456045,Nybølnorvej,6310,16,9.653994,54.908653
1456047,Nybølnorvej,6310,16A,9.655401,54.908805
1456049,Nybølnorvej,6310,17,9.656641,54.908183
1456051,Nybølnorvej,6310,19,9.656108,54.908149
1456053,Nybølnorvej,6310,20,9.652307,54.907818
1456055,Nybølnorvej,6310,22,9.650673,54.908452
1456056,Nybølnorvej,6310,24,9.651163,54.910394
1456058,Nybølnorvej,6310,24A,9.647686,54.908594
1456059,Nybølnorvej,6310,24B,9.648147,54.908307
1456060,Nybølnorvej,6310,25,9.651547,54.900631
1456061,Nybølnorvej,6310,30,9.652959,54.903517
1456281,Sanct Pauli,6310,13,9.6738243,54.8853093
1456282,Sanct Pauli,6310,15,9.6735216,54.8849889
1456283,Sanct Pauli,6310,16,9.6736378,54.8855634
1456284,Sanct Pauli,6310,17,9.6734339,54.8848168
1456285,Sanct Pauli,6310,17A,9.673842,54.8847226
1456286,Sanct Pauli,6310,18,9.6734707,54.8853803
1456287,Sanct Pauli,6310,19,9.6731878,54.8844559
1456288,Sanct Pauli,6310,20,9.6731557,54.885221
1456289,Sanct Pauli,6310,21,9.6731395,54.8842893
1456290,Sanct Pauli,6310,22,9.6731896,54.8849735
1456291,Sanct Pauli,6310,22A,9.6725516,54.884931
1456292,Sanct Pauli,6310,23,9.6727621,54.8839808
1456293,Sanct Pauli,6310,23A,9.67278,54.884027
1456294,Sanct Pauli,6310,23B,9.672847,54.884012
1456295,Sanct Pauli,6310,23C,9.673021,54.884025
1456296,Sanct Pauli,6310,23D,9.673079,54.883922
1456297,Sanct Pauli,6310,24,9.6730986,54.8848302
1456299,Sanct Pauli,6310,25,9.6738757,54.8841645
1456302,Sanct Pauli,6310,26,9.6730532,54.8847614
1456306,Sanct Pauli,6310,28,9.673002,54.884643
1456307,Sanct Pauli,6310,30,9.6728156,54.8843832
1456310,Sanct Pauli,6310,32,9.6725454,54.8840683
1456341,Østerled,6310,1,9.679811,54.890434
1456342,Østerled,6310,2,9.679548,54.890633
1456343,Østerled,6310,2A,9.679683,54.890662
1456344,Østerled,6310,3,9.679372,54.890336
1456345,Østerled,6310,4,9.679516,54.890837
1456346,Østerled,6310,4A,9.679366,54.891025
1456347,Østerled,6310,5,9.679004,54.89028
1456348,Østerled,6310,7,9.678554,54.890233
1456349,Østerled,6310,8,9.678842,54.890595
1456350,Østerled,6310,9,9.678167,54.890196
1456351,Østerled,6310,10,9.678744,54.890578
1456352,Østerled,6310,11,9.677778,54.890153
1456353,Østerled,6310,12,9.67864,54.890551
1456354,Østerled,6310,13,9.677278,54.8901
1456355,Østerled,6310,14,9.678536,54.890534
1456356,Østerled,6310,15,9.676975,54.890086
1456357,Østerled,6310,16,9.678415,54.890514
1456358,Østerled,6310,18,9.678873,54.890817
1456359,Østerled,6310,20,9.67875,54.890796
1456360,Østerled,6310,22,9.678646,54.890778
1456361,Østerled,6310,24,9.678543,54.89076
1456362,Østerled,6310,26,9.678439,54.890743
1456363,Østerled,6310,28,9.678316,54.890723
1456366,Østerled,6310,32,9.677951,54.890408
1456367,Østerled,6310,32A,9.677745,54.890388
1456368,Østerled,6310,32B,9.677524,54.890388
1456370,Østerled,6310,32C,9.677314,54.890396
1456371,Østerled,6310,32D,9.677086,54.890399
1456372,Østerled,6310,34,9.676765,54.890236
1456410,I.P. Nielsensvej,6310,1,9.6632371,54.8893304
1456411,I.P. Nielsensvej,6310,1A,9.663356,54.8895828
1456412,I.P. Nielsensvej,6310,2,9.66373,54.8893
1456413,I.P. Nielsensvej,6310,3,9.6634639,54.8898123
1456414,I.P. Nielsensvej,6310,4,9.6638669,54.8895167
1456415,I.P. Nielsensvej,6310,5,9.6635586,54.8899958
1456416,I.P. Nielsensvej,6310,6,9.6638875,54.8897467
1456417,I.P. Nielsensvej,6310,7,9.6636834,54.8902655
1456418,I.P. Nielsensvej,6310,9,9.6637454,54.8904722
1456419,I.P. Nielsensvej,6310,11,9.6637926,54.8906847
1456420,I.P. Nielsensvej,6310,12,9.6641892,54.8904927
1456421,I.P. Nielsensvej,6310,13,9.6637976,54.8909148
1456422,I.P. Nielsensvej,6310,14,9.6641837,54.8906941
1456423,I.P. Nielsensvej,6310,15,9.6638309,54.8910814
1456424,I.P. Nielsensvej,6310,16,9.6642415,54.8908663
1456425,I.P. Nielsensvej,6310,17,9.6639328,54.8912879
1456426,I.P. Nielsensvej,6310,18,9.664205,54.8910736
1456427,I.P. Nielsensvej,6310,20,9.6644148,54.8912795
1456568,Søndermarken,6310,1,9.701091,54.901837
1456569,Søndermarken,6310,2,9.700689,54.902189
1456571,Søndermarken,6310,3,9.701188,54.901648
1456573,Søndermarken,6310,4,9.700655,54.901993
1456575,Søndermarken,6310,5,9.701158,54.90138
1456577,Søndermarken,6310,6,9.700573,54.901799
1456578,Søndermarken,6310,7,9.700884,54.901258
1456579,Søndermarken,6310,8,9.700386,54.901582
1456580,Søndermarken,6310,9,9.700562,54.901246
1456581,Søndermarken,6310,10,9.70009,54.901585
1456582,Søndermarken,6310,11,9.700326,54.901255
1456583,Søndermarken,6310,12,9.699795,54.901489
1456584,Søndermarken,6310,13,9.700083,54.901291
1456585,Søndermarken,6310,14,9.699525,54.901647
1456586,Søndermarken,6310,15,9.699849,54.901198
1456587,Søndermarken,6310,16,9.699379,54.901499
1456588,Søndermarken,6310,17,9.699572,54.901153
1456589,Søndermarken,6310,18,9.699473,54.90131
1456661,Kløvervænget,6310,1,9.700588,54.896632
1456662,Kløvervænget,6310,2,9.7007248,54.8968133
1456663,Kløvervænget,6310,4,9.7004192,54.8968387
1456664,Kløvervænget,6310,5,9.70017,54.89664
1456665,Kløvervænget,6310,6,9.7001075,54.8968672
1456666,Kløvervænget,6310,7,9.699928,54.896663
1456667,Kløvervænget,6310,8,9.6997744,54.8968851
1456668,Kløvervænget,6310,9,9.699617,54.896699
1456669,Kløvervænget,6310,10,9.69949,54.896916
1456670,Kløvervænget,6310,11,9.699244,54.896738
1456671,Kløvervænget,6310,12,9.6991327,54.8969188
1456672,Kløvervænget,6310,13A,9.699582,54.896372
1456673,Kløvervænget,6310,13B,9.699269,54.896482
1456674,Kløvervænget,6310,13C,9.698873,54.896494
1456677,Kløvervænget,6310,13E,9.698587,54.897006
1456678,Kløvervænget,6310,14,9.6987704,54.8969596
1456681,Kløvervænget,6310,15,9.698837,54.896769
1456752,Egeskovvej,6310,1,9.6377233,54.8967366
1456753,Egeskovvej,6310,3,9.637283,54.894274
1456754,Egeskovvej,6310,4,9.636308,54.895198
1456755,Egeskovvej,6310,5,9.633414,54.893467
1456756,Egeskovvej,6310,6,9.635977,54.895256
1456757,Egeskovvej,6310,7,9.632532,54.893498
1456758,Egeskovvej,6310,8,9.635718,54.895166
1456759,Egeskovvej,6310,9,9.632166,54.893523
1456760,Egeskovvej,6310,10,9.6360936,54.8956899
1456765,Egeskovvej,6310,12,9.635917,54.895864
1456769,Egeskovvej,6310,14,9.635215,54.895883
1456771,Egeskovvej,6310,16,9.633627,54.894403
1456772,Egeskovvej,6310,20,9.631804,54.893841
1456775,Egeskovvej,6310,22,9.6316817,54.8942017
1456776,Egeskovvej,6310,22A,9.6321081,54.8943748
1456779,Egeskovvej,6310,24,9.6315921,54.8944793
1456780,Egeskovvej,6310,26,9.6311429,54.8944016
1456792,Østerhøj,6310,1,9.680677,54.891997
1456793,Østerhøj,6310,2,9.68108,54.892222
1456794,Østerhøj,6310,3,9.680629,54.892218
1456797,Østerhøj,6310,4,9.681427,54.89225
1456799,Østerhøj,6310,5,9.680591,54.892474
1456801,Østerhøj,6310,6,9.681761,54.892234
1456803,Østerhøj,6310,7,9.680569,54.892731
1456805,Østerhøj,6310,8,9.681739,54.892632
1456807,Østerhøj,6310,9,9.680532,54.892986
1456808,Østerhøj,6310,10,9.68142,54.892535
1456810,Østerhøj,6310,11,9.680616,54.893164
1456812,Østerhøj,6310,12,9.681054,54.892508
1456813,Østerhøj,6310,13,9.681101,54.893204
1456814,Østerhøj,6310,14,9.681065,54.892942
1456815,Østerhøj,6310,15,9.681572,54.893279
1456816,Østerhøj,6310,16,9.681619,54.892908
1456939,Ringridervej,6310,1,9.677038,54.893005
1456941,Ringridervej,6310,2,9.677282,54.892798
1456942,Ringridervej,6310,3,9.677378,54.893013
1456943,Ringridervej,6310,4,9.677867,54.892771
1456944,Ringridervej,6310,5,9.677723,54.893042
1456945,Ringridervej,6310,6,9.678202,54.892797
1456946,Ringridervej,6310,8,9.678406,54.89281
1456947,Ringridervej,6310,9,9.678179,54.893036
1456948,Ringridervej,6310,10,9.67867,54.892831
1456949,Ringridervej,6310,11,9.678438,54.893123
1456950,Ringridervej,6310,12,9.678989,54.892853
1456951,Ringridervej,6310,13,9.678727,54.893077
1456952,Ringridervej,6310,14,9.679309,54.89287
1456953,Ringridervej,6310,15,9.678987,54.893163
1456954,Ringridervej,6310,17,9.679278,54.893117
1457088,Klør-Fire,6310,3,9.642129,54.866715
1457089,Klør-Fire,6310,4,9.641687,54.867241
1457090,Klør-Fire,6310,4A,9.642893,54.867928
1457091,Klør-Fire,6310,5,9.641761,54.866892
1457092,Klør-Fire,6310,6,9.642539,54.867918
1457093,Klør-Fire,6310,7,9.641536,54.867083
1457094,Klør-Fire,6310,8,9.642777,54.868055
1457095,Klør-Fire,6310,8A,9.64309,54.868229
1457096,Klør-Fire,6310,10,9.641327,54.867331
1457097,Klør-Fire,6310,12,9.640835,54.867691
1457098,Klør-Fire,6310,12A,9.6407136,54.8674141
1457100,Klør-Fire,6310,14,9.6417,54.867807
1457101,Klør-Fire,6310,16,9.641799,54.867931
1457104,Klør-Fire,6310,18,9.64195,54.868036
1457106,Klør-Fire,6310,20,9.642086,54.868185
1457108,Klør-Fire,6310,22,9.642279,54.868225
1457161,Nejs Møllevej,6310,2,9.656114,54.899014
1457162,Smedevej,6310,1,9.657978,54.892812
1457164,Smedevej,6310,2,9.657578,54.893267
1457168,Nejs Møllevej,6310,4,9.655366,54.89844
1457170,Smedevej,6310,3,9.657313,54.89295
1457172,Nejs Møllevej,6310,5,9.655507,54.898294
1457173,Smedevej,6310,4,9.656903,54.893383
1457176,Smedevej,6310,5,9.656987,54.893046
1457178,Nejs Møllevej,6310,5A,9.656272,54.898557
1457179,Nejs Møllevej,6310,6,9.654912,54.898192
1457181,Smedevej,6310,6,9.656406,54.893397
1457182,Smedevej,6310,7,9.6558226,54.8928818
1457184,Nejs Møllevej,6310,7,9.655185,54.898109
1457185,Smedevej,6310,7A,9.6560924,54.8931849
1457190,Nejs Møllevej,6310,8,9.654605,54.898014
1457191,Nejs Møllevej,6310,9,9.654801,54.897786
1457192,Smedevej,6310,8,9.655746,54.893642
1457193,Smedevej,6310,9,9.655225,54.893286
1457196,Nejs Møllevej,6310,11,9.654346,54.897589
1457199,Smedevej,6310,10,9.655168,54.893574
1457201,Smedevej,6310,11,9.654748,54.893372
1457202,Nejs Møllevej,6310,13,9.654099,54.89738
1457203,Nejs Møllevej,6310,14,9.651678,54.896292
1457204,Smedevej,6310,12,9.654715,54.893613
1457209,Nejs Møllevej,6310,15,9.65051,54.893754
1457210,Smedevej,6310,13,9.654252,54.893431
1457211,Smedevej,6310,14,9.654383,54.893804
1457212,Nejs Møllevej,6310,17,9.646387,54.892173
1457214,Smedevej,6310,16,9.653394,54.893679
1457215,Nejs Møllevej,6310,19,9.645027,54.891297
1457218,Nejs Møllevej,6310,22,9.645666,54.893066
1457247,Smedeløkke,6310,1,9.672345,54.886086
1457248,Smedeløkke,6310,2,9.672334,54.885976
1457249,Smedeløkke,6310,3,9.672313,54.885777
1457250,Smedeløkke,6310,4,9.672301,54.885667
1457251,Smedeløkke,6310,5,9.672729,54.885935
1457252,Smedeløkke,6310,6,9.672722,54.885825
1457253,Smedeløkke,6310,7,9.672542,54.885676
1457254,Vesterled,6310,1,9.670453,54.891015
1457255,Vesterled,6310,2,9.67007,54.890704
1457256,Smedeløkke,6310,8,9.672732,54.88567
1457257,Smedeløkke,6310,9,9.673009,54.88571
1457258,Vesterled,6310,3,9.670803,54.890965
1457259,Smedeløkke,6310,10,9.673197,54.885712
1457260,Vesterled,6310,4,9.670409,54.890711
1457261,Smedeløkke,6310,11,9.67317,54.885904
1457262,Vesterled,6310,5,9.67113,54.890972
1457263,Smedeløkke,6310,12,9.673358,54.885907
1457264,Smedeløkke,6310,13,9.673046,54.88611
1457265,Vesterled,6310,6,9.670784,54.890713
1457266,Smedeløkke,6310,14,9.673154,54.886114
1457267,Smedeløkke,6310,15,9.673258,54.886116
1457268,Vesterled,6310,7A,9.671607,54.890972
1457269,Vesterled,6310,7B,9.671606,54.891059
1457270,Vesterled,6310,7C,9.671604,54.891136
1457271,Vesterled,6310,7D,9.671595,54.891212
1457272,Vesterled,6310,8,9.671161,54.890725
1457273,Vesterled,6310,9,9.671967,54.890973
1457274,Vesterled,6310,10,9.671548,54.890758
1457275,Vesterled,6310,10A,9.671587,54.890593
1457276,Vesterled,6310,10B,9.671972,54.890602
1457277,Vesterled,6310,11,9.672359,54.891024
1457278,Vesterled,6310,12,9.671957,54.890765
1457279,Vesterled,6310,13,9.672435,54.890876
1457280,Slotsvej,6310,1,9.662004,54.869978
1457282,Slotsvej,6310,3,9.660894,54.870036
1457285,Slotsvej,6310,5,9.659962,54.870048
1457287,Slotsvej,6310,6,9.660272,54.870178
1457290,Slotsvej,6310,8,9.659813,54.870279
1457291,Slotsvej,6310,10,9.653786,54.870818
1457295,Slotsvej,6310,11,9.648758,54.870967
1457298,Slotsvej,6310,12,9.654324,54.872026
1457301,Slotsvej,6310,14,9.653919,54.871863
1457304,Slotsvej,6310,16,9.653475,54.871024
1457306,Slotsvej,6310,18,9.652999,54.870508
1457309,Slotsvej,6310,20,9.6532305,54.8700069
1457310,Slotsvej,6310,20A,9.653167,54.870258
1457428,Krammarksvej,6310,2,9.699395,54.878446
1457430,Krammarksvej,6310,4,9.700048,54.877989
1457431,Krammarksvej,6310,6,9.699248,54.878097
1457434,Krammarksvej,6310,7,9.697579,54.878377
1457435,Krammarksvej,6310,8,9.697986,54.879706
1457436,Krammarksvej,6310,10,9.697955,54.878385
1457437,Krammarksvej,6310,14,9.696639,54.878711
1457438,Krammarksvej,6310,16,9.696362,54.878771
1457439,Krammarksvej,6310,20,9.69544,54.878651
1457440,Krammarksvej,6310,22,9.696204,54.87562
1457441,Krammarksvej,6310,24,9.695673,54.871588
1457442,Krammarksvej,6310,29,9.694972,54.865175
1457443,Krammarksvej,6310,31,9.695234,54.864985
1457444,Krammarksvej,6310,32,9.694721,54.86627
1457445,Krammarksvej,6310,34,9.694688,54.865392
1457537,Guldgruben,6310,1,9.639879,54.864745
1457538,Guldgruben,6310,2,9.639611,54.864837
1457539,Guldgruben,6310,3,9.639253,54.864973
1457540,Guldgruben,6310,4,9.638944,54.865084
1457541,Guldgruben,6310,5,9.638677,54.865212
1457542,Guldgruben,6310,6,9.638377,54.865332
1457543,Guldgruben,6310,7,9.638154,54.865435
1457544,Guldgruben,6310,8,9.638276,54.865729
1457545,Guldgruben,6310,9,9.638559,54.865699
1457546,Guldgruben,6310,10,9.638556,54.865525
1457547,Guldgruben,6310,11,9.6391,54.86532
1457548,Guldgruben,6310,12,9.639424,54.865231
1457549,Guldgruben,6310,13,9.639704,54.865096
1457550,Guldgruben,6310,14,9.640065,54.864926
1457711,Bakken,6310,1,9.701885,54.890811
1457712,Bakken,6310,2,9.701776,54.891146
1457713,Bakken,6310,3,9.701553,54.890815
1457714,Bakken,6310,3A,9.700262,54.890862
1457715,Bakken,6310,4,9.701593,54.89149
1457716,Bakken,6310,5,9.70057,54.891055
1457717,Bakken,6310,6,9.701251,54.89145
1457718,Bakken,6310,7,9.700993,54.891192
1457719,Bakken,6310,8,9.70089,54.891494
1457720,Bakken,6310,9,9.700518,54.89124
1457721,Bakken,6310,10,9.700518,54.891555
1457722,Bakken,6310,11,9.700203,54.891276
1457723,Bakken,6310,12,9.700131,54.891638
1457733,Busholmvej,6310,1,9.662055,54.869583
1457734,Busholmvej,6310,5,9.664929,54.863956
1457735,Busholmvej,6310,7,9.669541,54.860889
1457736,Busholmvej,6310,9,9.663629,54.862108
1457737,Busholmvej,6310,10,9.656345,54.863056
1457738,Busholmvej,6310,11,9.663659,54.86194
1457740,Busholmvej,6310,12,9.655343,54.862144
1457741,Busholmvej,6310,12A,9.654081,54.862433
1457743,Busholmvej,6310,13,9.664195,54.861778
1457744,Busholmvej,6310,15,9.665689,54.858799
1457745,Busholmvej,6310,17,9.664127,54.858533
1457746,Busholmvej,6310,19,9.66442,54.857975
1457747,Busholmvej,6310,20,9.662602,54.857433
1457748,Busholmvej,6310,22,9.66575,54.856951
1457764,Fasanvænget,6310,1,9.659066,54.892438
1457765,Fasanvænget,6310,2,9.658994,54.89219
1457766,Fasanvænget,6310,3,9.659289,54.892368
1457767,Fasanvænget,6310,4,9.659257,54.89213
1457768,Fasanvænget,6310,5,9.65971,54.892335
1457769,Fasanvænget,6310,6,9.659531,54.892063
1457770,Fasanvænget,6310,7,9.660016,54.892329
1457771,Fasanvænget,6310,8,9.65987,54.892045
1457772,Fasanvænget,6310,9,9.660318,54.892252
1457773,Fasanvænget,6310,10,9.660161,54.891997
1457774,Fasanvænget,6310,11,9.660632,54.89221
1457775,Fasanvænget,6310,12,9.660471,54.891921
1457776,Fasanvænget,6310,13,9.661059,54.892148
1457777,Fasanvænget,6310,14,9.6608,54.891899
1457824,Nørregade,6310,4,9.657378,54.899201
1457825,Nørregade,6310,4A,9.657437,54.899327
1457826,Nørregade,6310,6,9.657642,54.899432
1457827,Nørregade,6310,8,9.65749,54.899581
1457828,Nørregade,6310,10,9.657774,54.899879
1457829,Nørregade,6310,12,9.65801,54.899959
1457830,Nørregade,6310,14,9.658316,54.900083
1457831,Nørregade,6310,16,9.65886,54.900348
1457832,Nørregade,6310,18,9.658837,54.900667
1457833,Nørregade,6310,22,9.658618,54.90099
1457834,Nørregade,6310,23,9.66766,54.90464
1457835,Nørregade,6310,24,9.664329,54.90305
1457845,Nybøl Landevej,6310,2,9.674032,54.894293
1457846,Nybøl Landevej,6310,3,9.673463,54.894312
1457847,Nybøl Landevej,6310,5,9.673306,54.894523
1457848,Nybøl Landevej,6310,7,9.673202,54.89472
1457849,Nybøl Landevej,6310,7A,9.672506,54.894557
1457850,Nybøl Landevej,6310,9,9.673115,54.894919
1457851,Nybøl Landevej,6310,15,9.672127,54.897896
1457852,Nybøl Landevej,6310,16,9.678949,54.907388
1457853,Nybøl Landevej,6310,18,9.677924,54.90945
1457854,Nybøl Landevej,6310,21,9.675533,54.906653
1457875,Lunden,6310,1,9.701013,54.8974813
1457877,Lunden,6310,3,9.7007037,54.8975077
1457879,Lunden,6310,4,9.7005673,54.8977103
1457880,Lunden,6310,5,9.7004064,54.8975762
1457881,Lunden,6310,6,9.7001507,54.8977756
1457882,Lunden,6310,7,9.6999648,54.8976116
1457883,Lunden,6310,8,9.6997746,54.8978142
1457884,Lunden,6310,9,9.699692,54.89764
1457885,Lunden,6310,10,9.6994504,54.897858
1457886,Lunden,6310,11,9.699352,54.897681
1457887,Lunden,6310,12,9.6991028,54.8978562
1457888,Lunden,6310,13,9.699025,54.8977279
1457889,Wolffsgårdsvej,6310,1,9.692604,54.864184
1457890,Wolffsgårdsvej,6310,2,9.692058,54.864431
1457891,Wolffsgårdsvej,6310,3,9.692438,54.863886
1457892,Wolffsgårdsvej,6310,4,9.691935,54.864337
1457894,Wolffsgårdsvej,6310,5,9.692732,54.863981
1457895,Wolffsgårdsvej,6310,6,9.692034,54.863875
1457896,Wolffsgårdsvej,6310,8,9.691852,54.863489
1457897,Wolffsgårdsvej,6310,9,9.69217,54.861669
1457898,Wolffsgårdsvej,6310,12,9.691843,54.863165
1457899,Wolffsgårdsvej,6310,14,9.691472,54.862727
1457900,Wolffsgårdsvej,6310,15,9.693083,54.856356
1457901,Wolffsgårdsvej,6310,16,9.691298,54.862086
1457915,Toften,6310,1,9.677881,54.892223
1457916,Toften,6310,2,9.677188,54.891883
1457917,Toften,6310,2A,9.677587,54.891946
1457918,Toften,6310,3,9.678242,54.892252
1457919,Toften,6310,4,9.677978,54.891964
1457920,Toften,6310,5,9.678664,54.892285
1457921,Toften,6310,6,9.678363,54.891984
1457922,Toften,6310,7,9.679022,54.892311
1457923,Toften,6310,8,9.678682,54.892005
1457924,Toften,6310,9,9.679433,54.892339
1457925,Toften,6310,10,9.679064,54.892052
1457926,Toften,6310,12,9.679357,54.892076
1457962,Damløkke,6310,1,9.6988242,54.8936262
1457965,Damløkke,6310,2,9.6983698,54.8934634
1457966,Damløkke,6310,3,9.699127,54.8933724
1457968,Damløkke,6310,4,9.6985982,54.893334
1457971,Damløkke,6310,5,9.6992432,54.8932221
1457973,Damløkke,6310,6,9.6986923,54.8931286
1457975,Damløkke,6310,7,9.6991764,54.8930052
1457976,Damløkke,6310,8,9.6987974,54.8929169
1457977,Damløkke,6310,9,9.6992962,54.8927659
1457978,Damløkke,6310,10,9.6988754,54.8927208
1457979,Damløkke,6310,11,9.6993149,54.8924924
1457980,Damløkke,6310,12,9.6989157,54.8924746
1457982,Solvang,6310,4,9.6399725,54.8660014
1457985,Solvang,6310,6,9.640386,54.866291
1457987,Solvang,6310,9,9.640296,54.866733
1457988,Solvang,6310,11,9.639998,54.866855
1457991,Solvang,6310,12,9.6409868,54.866878
1457993,Solvang,6310,13,9.639722,54.866961
1457995,Solvang,6310,14,9.640604,54.867029
1457997,Solvang,6310,15,9.639478,54.867086
1457998,Solvang,6310,16,9.640299,54.867111
1457999,Solvang,6310,18,9.639996,54.867208
1458000,Solvang,6310,20,9.639722,54.867299
1458035,Birkevej,6310,1,9.700447,54.8979544
1458036,Birkevej,6310,1A,9.7008691,54.897927
1458037,Birkevej,6310,2,9.7009269,54.8980604
1458038,Birkevej,6310,3,9.7000803,54.8979784
1458039,Birkevej,6310,4,9.7007438,54.8982228
1458040,Birkevej,6310,4A,9.7006827,54.8984383
1458041,Birkevej,6310,5,9.6997671,54.8980437
1458042,Birkevej,6310,6,9.7001409,54.8981567
1458043,Birkevej,6310,7,9.6993647,54.8980577
1458044,Birkevej,6310,10,9.6996056,54.898625
1458135,Mågevænget,6310,1,9.659365,54.893171
1458136,Mågevænget,6310,2,9.659208,54.892864
1458137,Mågevænget,6310,3,9.659714,54.893151
1458138,Mågevænget,6310,4,9.659553,54.892845
1458139,Mågevænget,6310,5,9.659983,54.89304
1458140,Mågevænget,6310,6,9.659889,54.892805
1458141,Mågevænget,6310,7,9.660321,54.893042
1458142,Mågevænget,6310,8,9.660161,54.892769
1458143,Mågevænget,6310,9,9.660592,54.89296
1458144,Mågevænget,6310,10,9.660469,54.892706
1458145,Mågevænget,6310,11,9.660932,54.892945
1458146,Mågevænget,6310,12,9.660781,54.892676
1458147,Mågevænget,6310,13,9.661222,54.892956
1458148,Mågevænget,6310,14,9.661158,54.892596
1458149,Ved Kysten,6310,1,9.7017526,54.8984743
1458150,Ved Kysten,6310,3,9.7017584,54.8986311
1458151,Ved Kysten,6310,5,9.701752,54.8987368
1458152,Ved Kysten,6310,7,9.701809,54.898877
1458153,Ved Kysten,6310,9,9.701892,54.8990396
1458154,Ved Kysten,6310,11,9.702018,54.899215
1458155,Ved Kysten,6310,13,9.7021475,54.8993559
1458156,Ved Kysten,6310,15,9.7021846,54.8994357
1458157,Ved Kysten,6310,17,9.7023412,54.8996701
1458158,Ved Kysten,6310,19,9.702384,54.8998032
1458188,Vinkelvej,6310,1,9.66544,54.88998
1458189,Vinkelvej,6310,2,9.665438,54.890271
1458190,Vinkelvej,6310,3,9.66505,54.889953
1458191,Vinkelvej,6310,4,9.665081,54.890303
1458192,Vinkelvej,6310,5,9.665228,54.889647
1458193,Vinkelvej,6310,6,9.664781,54.890245
1458194,Vinkelvej,6310,7,9.664852,54.889611
1458195,Vinkelvej,6310,8,9.664441,54.890239
1458196,Vinkelvej,6310,9,9.664495,54.889618
1458197,Vinkelvej,6310,11,9.664565,54.889977
1458198,Vinkelvej,6310,13,9.664111,54.88998
1458205,Møllevænget,6310,1,9.661457,54.897811
1458206,Møllevænget,6310,2,9.661157,54.897724
1458207,Møllevænget,6310,3,9.662882,54.897516
1458209,Møllevænget,6310,4,9.661196,54.897559
1458211,Møllevænget,6310,5,9.66244,54.897225
1458212,Møllevænget,6310,7,9.662039,54.897341
1458214,Møllevænget,6310,8,9.660464,54.89725
1458215,Møllevænget,6310,9,9.661659,54.897487
1458216,Møllevænget,6310,10,9.66038,54.897082
1458218,Møllevænget,6310,11,9.660809,54.897071
1458248,Poppelvej,6310,1A,9.7012532,54.8988169
1458249,Poppelvej,6310,1B,9.700711,54.898641
1458250,Poppelvej,6310,2,9.701313,54.898979
1458251,Poppelvej,6310,3A,9.700269,54.898914
1458252,Poppelvej,6310,3B,9.7000333,54.8987939
1458253,Poppelvej,6310,4,9.701046,54.8990739
1458254,Poppelvej,6310,5,9.6997927,54.8989461
1458255,Poppelvej,6310,6,9.700661,54.8990384
1458256,Poppelvej,6310,8,9.7002344,54.8990769
1458258,Poppelvej,6310,10,9.6998969,54.8991384
1458267,Brinken,6310,1,9.640745,54.86658
1458268,Brinken,6310,2,9.640585,54.8664834
1458269,Brinken,6310,3,9.6412707,54.8667578
1458270,Brinken,6310,4,9.6408332,54.8663747
1458271,Brinken,6310,5,9.6412349,54.8664352
1458272,Brinken,6310,6,9.641316,54.866205
1458273,Brinken,6310,7,9.6415672,54.8666091
1458275,Brinken,6310,8,9.6416632,54.8661042
1458276,Brinken,6310,9,9.641843,54.866465
1458278,Brinken,6310,11,9.6416444,54.8662902
1458302,Skræddergade,6310,3,9.657528,54.898411
1458303,Skræddergade,6310,4,9.657192,54.898476
1458304,Skræddergade,6310,5,9.655834,54.897122
1458305,Skræddergade,6310,8,9.656811,54.898249
1458306,Skræddergade,6310,10,9.656442,54.897972
1458307,Skræddergade,6310,12,9.655727,54.897501
1458308,Skræddergade,6310,12A,9.6554489,54.8971638
1458309,Skræddergade,6310,14,9.655128,54.896964
1458310,Skræddergade,6310,16,9.654885,54.896737
1458311,Skræddergade,6310,18,9.654552,54.896285
1458350,Egevej,6310,1,9.7011203,54.9023533
1458351,Egevej,6310,2,9.7013099,54.9022331
1458352,Egevej,6310,3,9.7014433,54.9024809
1458353,Egevej,6310,4,9.7016177,54.9023311
1458354,Egevej,6310,5,9.7017938,54.9026184
1458355,Egevej,6310,6,9.7019381,54.9024421
1458357,Egevej,6310,7,9.7021978,54.9027554
1458358,Egevej,6310,8,9.7023203,54.9025574
1458359,Egevej,6310,9,9.7024815,54.9028934
1458360,Egevej,6310,10,9.7025163,54.9026827
1458361,Egevej,6310,12,9.7028039,54.9028526
1458395,Hoelvej,6310,1,9.660063,54.897976
1458396,Hoelvej,6310,2,9.659804,54.89823
1458397,Hoelvej,6310,3,9.659727,54.898102
1458398,Hoelvej,6310,4,9.659429,54.898299
1458399,Hoelvej,6310,5,9.659231,54.89824
1458400,Hoelvej,6310,6,9.659005,54.898403
1458401,Hoelvej,6310,7,9.658832,54.898312
1458402,Hoelvej,6310,8,9.65879,54.898491
1458403,Hoelvej,6310,9,9.658285,54.898417
1458425,Engen,6310,1,9.6386268,54.8670241
1458426,Engen,6310,2,9.6387279,54.8667641
1458427,Engen,6310,3,9.6391174,54.8668619
1458428,Engen,6310,4,9.638982,54.866663
1458429,Engen,6310,5,9.6394525,54.8667386
1458430,Engen,6310,6,9.6393812,54.866596
1458431,Engen,6310,7,9.639903,54.866685
1458432,Engen,6310,8,9.6395533,54.866449
1458433,Engen,6310,9,9.640121,54.8665774
1458434,Engen,6310,10,9.6398586,54.86639
1458445,Tværvej,6310,1,9.679498,54.891763
1458446,Tværvej,6310,2,9.679879,54.892076
1458447,Tværvej,6310,4,9.679932,54.89226
1458448,Tværvej,6310,6,9.679893,54.892448
1458449,Tværvej,6310,8,9.679866,54.89264
1458450,Tværvej,6310,10,9.679884,54.892842
1458451,Tværvej,6310,12,9.679727,54.89299
1458452,Tværvej,6310,14,9.679702,54.893185
1458453,Tværvej,6310,16,9.679576,54.893359
1458488,Solsortevej,6310,1,9.660327,54.890335
1458489,Solsortevej,6310,2,9.660908,54.890409
1458490,Solsortevej,6310,3,9.660533,54.890531
1458491,Solsortevej,6310,4,9.661095,54.890594
1458492,Solsortevej,6310,5,9.660737,54.890714
1458493,Solsortevej,6310,6,9.661399,54.890691
1458494,Solsortevej,6310,7,9.660825,54.890891
1458495,Solsortevej,6310,9,9.661155,54.890815
1458504,Stærevænget,6310,1,9.658802,54.891708
1458506,Stærevænget,6310,2,9.658819,54.891413
1458508,Stærevænget,6310,3,9.659096,54.891651
1458509,Stærevænget,6310,4,9.659296,54.891195
1458510,Stærevænget,6310,5,9.659422,54.891655
1458511,Stærevænget,6310,7,9.659704,54.891565
1458512,Stærevænget,6310,9,9.660028,54.891575
1458513,Stærevænget,6310,11,9.660328,54.891539
1458519,Ringgade,6310,2,9.676487,54.890691
1458521,Ringgade,6310,3,9.676966,54.890908
1458523,Ringgade,6310,4,9.676674,54.890725
1458525,Ringgade,6310,5,9.677618,54.891139
1458526,Ringgade,6310,6,9.677396,54.890821
1458529,Ringgade,6310,8,9.677731,54.890713
1458530,Ringgade,6310,10,9.67782,54.890953
1458531,Ringgade,6310,12,9.678171,54.891034
1458538,Arnkær,6310,1,9.674655,54.88519
1458541,Arnkær,6310,2,9.674147,54.885102
1458543,Arnkær,6310,3,9.674613,54.885027
1458544,Arnkær,6310,4,9.674312,54.884953
1458545,Arnkær,6310,5,9.674568,54.884858
1458546,Arnkær,6310,6,9.674304,54.884806
1458547,Arnkær,6310,7,9.674625,54.884704
1458548,Arnkær,6310,8,9.674247,54.884595
1458549,Arnkær,6310,9,9.674459,54.884611
1458574,Nattergalevej,6310,1,9.66128,54.890004
1458575,Nattergalevej,6310,2,9.661855,54.890087
1458576,Nattergalevej,6310,3,9.661495,54.890209
1458577,Nattergalevej,6310,4,9.66205,54.890271
1458578,Nattergalevej,6310,5,9.661674,54.890377
1458579,Nattergalevej,6310,6,9.662387,54.890434
1458580,Nattergalevej,6310,7,9.661702,54.890532
1458581,Nattergalevej,6310,9,9.662098,54.890542
1458589,Højtoften,6310,1,9.6429239,54.8652531
1458590,Højtoften,6310,2,9.6431781,54.8653932
1458591,Højtoften,6310,3,9.6426109,54.8653876
1458592,Højtoften,6310,4,9.6428225,54.8655833
1458593,Højtoften,6310,5,9.6421999,54.8655577
1458594,Højtoften,6310,6,9.6424209,54.8657694
1458597,Højtoften,6310,7,9.6418813,54.8657824
1458599,Højtoften,6310,8,9.642037,54.8659249
1458608,Industrivej,6310,2,9.658458,54.891032
1458610,Industrivej,6310,4,9.658744,54.891157
1458611,Industrivej,6310,5,9.658122,54.891581
1458612,Industrivej,6310,9,9.658406,54.892497
1458613,Industrivej,6310,11,9.658619,54.892789
1458614,Industrivej,6310,13,9.658721,54.893173
1458615,Industrivej,6310,15,9.658853,54.893723
1458616,Industrivej,6310,18,9.659432,54.893597
1458621,Bækvej,6310,1,9.700077,54.895516
1458622,Bækvej,6310,3,9.699748,54.895552
1458623,Bækvej,6310,4,9.699825,54.895785
1458624,Bækvej,6310,5,9.699482,54.895578
1458625,Bækvej,6310,6,9.699525,54.895826
1458626,Bækvej,6310,7,9.699214,54.895602
1458627,Bækvej,6310,8,9.699247,54.895855
1458628,Bækvej,6310,9,9.698975,54.895634
1458629,Bækvej,6310,10,9.698972,54.895889
1458638,Agertoften,6310,1,9.641039,54.864908
1458639,Agertoften,6310,3,9.640482,54.86447
1458640,Agertoften,6310,4,9.6403568,54.8648193
1458641,Agertoften,6310,5,9.640788,54.864335
1458642,Agertoften,6310,6,9.640132,54.864586
1458643,Agertoften,6310,7,9.641036,54.864259
1458644,Agertoften,6310,9,9.641327,54.864132
1458645,Agertoften,6310,11,9.641548,54.864044
1458659,Bøgevej,6310,2,9.7009574,54.9025268
1458660,Bøgevej,6310,4,9.701283,54.9026637
1458661,Bøgevej,6310,6,9.7015669,54.902781
1458662,Bøgevej,6310,8,9.7019628,54.9028858
1458663,Bøgevej,6310,10,9.702249,54.903027
1458664,Bøgevej,6310,12,9.702,54.903203
1458665,Bøgevej,6310,14,9.7018131,54.9033425
1458666,Bøgevej,6310,16,9.701594,54.903434
1458667,Bøgevej,6310,18,9.701599,54.902985
1458682,Håndværkervej,6310,1,9.657843,54.892094
1458684,Håndværkervej,6310,1A,9.657,54.892226
1458686,Håndværkervej,6310,3,9.656384,54.892022
1458688,Håndværkervej,6310,4,9.657847,54.892371
1458690,Håndværkervej,6310,5,9.656,54.892291
1458693,Håndværkervej,6310,6,9.657454,54.892668
1458695,Håndværkervej,6310,8,9.656908,54.892594
1458697,Håndværkervej,6310,10,9.656427,54.89257
1458705,Dalen,6310,3,9.640667,54.866138
1458706,Dalen,6310,4,9.6403372,54.8659092
1458707,Dalen,6310,5,9.64112,54.865985
1458708,Dalen,6310,6,9.640546,54.865719
1458709,Dalen,6310,7,9.6413082,54.8658021
1458710,Dalen,6310,8,9.6411523,54.8656627
1458711,Dalen,6310,10,9.6415732,54.8655181
1458744,Østerbakke,6310,4,9.675745,54.8926606
1458745,Østerbakke,6310,5,9.676517,54.893027
1458747,Østerbakke,6310,6,9.675921,54.892673
1458749,Østerbakke,6310,8,9.676084,54.892691
1458751,Østerbakke,6310,9,9.677139,54.89252
1458753,Østerbakke,6310,10,9.676253,54.892701
1458754,Østerbakke,6310,11,9.677236,54.892326
1458755,Østerbakke,6310,12,9.67642,54.892721
1458756,Østerbakke,6310,13,9.677205,54.892151
1458757,Østerbakke,6310,14,9.6765882,54.8927307
1458758,Østerbakke,6310,16,9.676622,54.892349
1458759,Østerbakke,6310,17,9.677153,54.89157
1458760,Østerbakke,6310,18,9.67644,54.892338
1458761,Østerbakke,6310,20,9.676275,54.892322
1458762,Østerbakke,6310,22,9.676081,54.89231
1458763,Østerbakke,6310,24,9.67595,54.892296
1458764,Østerbakke,6310,26,9.675767,54.892286
1458765,Østerbakke,6310,28,9.676693,54.891975
1458766,Østerbakke,6310,30,9.676528,54.891961
1458767,Østerbakke,6310,32,9.676361,54.891948
1458768,Østerbakke,6310,34,9.67618,54.891932
1458769,Østerbakke,6310,36,9.676017,54.891919
1458770,Østerbakke,6310,38,9.675848,54.891906
1458771,Østerbakke,6310,40,9.676719,54.891524
1458835,Pilevej,6310,1,9.701511,54.899882
1458836,Pilevej,6310,2,9.7014826,54.9000304
1458837,Pilevej,6310,3,9.701156,54.899913
1458838,Pilevej,6310,4,9.7012372,54.9000547
1458839,Pilevej,6310,5,9.7010523,54.8996229
1458840,Pilevej,6310,6,9.7010399,54.9000956
1458841,Pilevej,6310,8,9.7006499,54.9000686
1458842,Pilevej,6310,10,9.700381,54.8997524
1458843,Pilevej,6310,12,9.7006956,54.8998792
1458844,Pilevej,6310,14,9.7006901,54.8996378
1458845,Vibevej,6310,1,9.66218,54.889777
1458846,Vibevej,6310,2,9.662668,54.889812
1458847,Vibevej,6310,3,9.662527,54.890094
1458849,Vibevej,6310,4,9.662868,54.889997
1458850,Vibevej,6310,5,9.662664,54.890333
1458852,Vibevej,6310,6,9.663073,54.890247
1458858,Vesterdalen,6310,2,9.669845,54.890215
1458859,Vesterdalen,6310,4,9.669945,54.890218
1458860,Vesterdalen,6310,6,9.670043,54.890221
1458861,Vesterdalen,6310,8,9.670295,54.89023
1458862,Vesterdalen,6310,10,9.670403,54.890232
1458863,Vesterdalen,6310,12,9.670501,54.890234
1458864,Vesterdalen,6310,14,9.6711108,54.8901867
1458865,Vesterdalen,6310,16,9.671272,54.8902753
1458866,Vesterdalen,6310,18,9.671665,54.890031
1458867,Vesterdalen,6310,20,9.6707658,54.8898403
1458903,Spurvevej,6310,1,9.659414,54.890697
1458906,Spurvevej,6310,2,9.659954,54.890759
1458907,Spurvevej,6310,3,9.659575,54.890867
1458908,Spurvevej,6310,4,9.660138,54.890907
1458909,Spurvevej,6310,5,9.659797,54.891066
1458910,Spurvevej,6310,6,9.660513,54.89106
1458916,Rødegade,6310,23,9.634889,54.897181
1458917,Rødegade,6310,54A,9.636742,54.896489
1458918,Rødegade,6310,54B,9.636765,54.896311
1458919,Rødegade,6310,54C,9.636829,54.896099
1458920,Rødegade,6310,54D,9.636799,54.895874
1458921,Rødegade,6310,58,9.642437,54.89758
1458928,Elmevej,6310,1,9.6998943,54.8982153
1458930,Elmevej,6310,2,9.7003202,54.8983234
1458932,Elmevej,6310,3,9.6999207,54.8983327
1458933,Elmevej,6310,4,9.7003533,54.8984512
1458935,Elmevej,6310,5,9.699806,54.898464
1458936,Elmevej,6310,7,9.7000819,54.8985396
1458970,Stien,6310,1,9.675358,54.889339
1458971,Stien,6310,2,9.675006,54.889237
1458972,Stien,6310,4,9.675336,54.889256
1458973,Stien,6310,6,9.675496,54.88926
1458974,Stien,6310,8,9.675688,54.889273
1458975,Stien,6310,10,9.675837,54.889281
1458976,Jørgensby,6310,3,9.676686,54.88861
1458977,Jørgensby,6310,4,9.676603,54.88839
1458978,Jørgensby,6310,5,9.677089,54.888486
1458979,Jørgensby,6310,6,9.676995,54.888329
1458980,Jørgensby,6310,8,9.678262,54.888921
1458981,Jørgensby,6310,9,9.677841,54.889006
1458982,Jørgensby,6310,10,9.6785862,54.888935
1458983,Jørgensby,6310,11,9.6779022,54.8892034
1458984,Jørgensby,6310,12,9.678887,54.888931
1458985,Jørgensby,6310,13,9.677964,54.889408
1458986,Jørgensby,6310,14,9.67918,54.888935
1458987,Jørgensby,6310,15,9.67797,54.889545
1458988,Jørgensby,6310,17,9.6782641,54.8896615
1458989,Jørgensby,6310,19,9.678605,54.889668
1458990,Jørgensby,6310,21,9.678952,54.889745
1458991,Jørgensby,6310,22,9.679532,54.889208
1458992,Jørgensby,6310,23,9.678926,54.889569
1459091,Borgergade,6310,1,9.673113,54.888454
1459092,Borgergade,6310,2,9.672622,54.888323
1459093,Borgergade,6310,3,9.673338,54.888458
1459094,Borgergade,6310,4,9.672773,54.888327
1459095,Borgergade,6310,5,9.673634,54.888453
1459096,Borgergade,6310,6,9.672993,54.888338
1459103,Ringmaj,6310,1,9.6396066,54.8660688
1459104,Ringmaj,6310,2,9.6397535,54.8661947
1459105,Ringmaj,6310,3,9.6394976,54.8659454
1459107,Ringmaj,6310,4,9.6395563,54.8662648
1459108,Ringmaj,6310,5,9.6393724,54.8658193
1459109,Ringmaj,6310,6,9.63935,54.866339
1459110,Ringmaj,6310,7,9.6391652,54.8659387
1459112,Ringmaj,6310,8,9.6391756,54.8662062
1459113,Ringmaj,6310,9,9.6390036,54.8660271
1459114,Ringmaj,6310,10,9.6393615,54.8661397
1459143,Skolevej,6310,1,9.669015,54.889212
1459145,Skolevej,6310,2,9.668602,54.889226
1459147,Skolevej,6310,3,9.669128,54.889006
1459150,Skolevej,6310,4,9.668562,54.889012
1459152,Skolevej,6310,5,9.670317,54.888608
1459157,Nejsled,6310,2,9.6664053,54.8868411
1459158,Nejsled,6310,4,9.666691,54.886794
1459159,Nejsled,6310,6,9.6669577,54.8868351
1459160,Nejsled,6310,8,9.6671357,54.8871499
1459161,Nejsled,6310,10,9.666692,54.887187
1459162,Nejsled,6310,12,9.666431,54.887238
1459202,Bøsbækvej,6310,6,9.642335,54.90898
1459203,Bøsbækvej,6310,10,9.646016,54.912674
1459204,Bøsbækvej,6310,12,9.643943,54.914708
1459205,Bøsbækvej,6310,15,9.64115,54.913692
1459206,Bøsbækvej,6310,16,9.645493,54.914394
1459207,Gendarmvej,6310,1,9.69334,54.863812
1459208,Gendarmvej,6310,1A,9.693131,54.86407
1459209,Gendarmvej,6310,3,9.693689,54.863792
1459210,Gendarmvej,6310,5,9.693933,54.863786
1459211,Gendarmvej,6310,7,9.694521,54.863839
1459232,Ahornvej,6310,1,9.701509,54.900189
1459233,Ahornvej,6310,3,9.701262,54.900257
1459234,Ahornvej,6310,5,9.701027,54.900267
1459235,Ahornvej,6310,6,9.701278,54.900402
1459236,Ahornvej,6310,8,9.700855,54.90042
1459258,Smedevænget,6310,1,9.655855,54.89412
1459260,Smedevænget,6310,2,9.657094,54.893935
1459265,Smedevænget,6310,3,9.655468,54.894135
1459267,Smedevænget,6310,4,9.655728,54.894497
1459287,Rønnevej,6310,1,9.7012482,54.899412
1459288,Rønnevej,6310,3,9.7009257,54.8994177
1459289,Rønnevej,6310,5,9.7006088,54.8994612
1459290,Rønnevej,6310,7,9.700214,54.899534
1459311,Lærkevej,6310,1,9.7016625,54.9008068
1459312,Lærkevej,6310,2,9.7016827,54.9010375
1459313,Lærkevej,6310,3,9.701418,54.900763
1459314,Lærkevej,6310,4,9.7013879,54.9010432
1459315,Lærkevej,6310,5,9.7013157,54.9008798
1459316,Lærkevej,6310,6,9.7011296,54.9010026
1459359,Bønnelandsvej,6310,2,9.672697,54.878681
1459363,Bønnelandsvej,6310,4,9.672999,54.879235
1459365,Bønnelandsvej,6310,6,9.673888,54.879733
1459367,Bønnelandsvej,6310,8,9.674147,54.879853
1459376,Mosevænget,6310,1,9.665274,54.891265
1459379,Mosevænget,6310,2,9.665279,54.89152
1459380,Mosevænget,6310,3,9.664868,54.891278
1459383,Mosevænget,6310,4,9.664947,54.891422
1459436,Smølled,6310,2,9.678922,54.911258
1459438,Smølled,6310,4,9.679523,54.911625
1459440,Smølled,6310,6,9.679633,54.912114
1459454,Askevej,6310,3,9.69991,54.896078
1459457,Askevej,6310,5,9.699609,54.896095
1459459,Askevej,6310,7,9.69931,54.896095
1459461,Askevej,6310,9,9.698982,54.89614
1459700,Allegade,6310,4,9.675196,54.888231
1459702,Allegade,6310,5,9.674811,54.88848
1459704,Allegade,6310,7,9.675123,54.888477
1459707,Allegade,6310,9,9.675305,54.888732
1459741,Kejserdom,6310,3,9.644382,54.858766
1459742,Kejserdom,6310,5,9.644269,54.858689
1459744,Kejserdom,6310,7,9.644227,54.858532
1459766,Fuglevænget,6310,1,9.665256,54.890696
1459768,Fuglevænget,6310,2,9.6653,54.890948
1459771,Fuglevænget,6310,3,9.664824,54.890696
1459772,Fuglevænget,6310,4,9.664953,54.890981
1459781,Lerbækvej,6310,1,9.6392838,54.9032086
1459782,Lerbækvej,6310,2,9.6401477,54.9029674
1459783,Lerbækvej,6310,3,9.639467,54.903383
1459784,Lerbækvej,6310,4,9.6407475,54.9030267
1459785,Lerbækvej,6310,6,9.641421,54.903525
1459867,Broagermark,6310,6,9.700808,54.886084
1459868,Broagermark,6310,6A,9.7018617,54.8851717
1459869,Broagermark,6310,7,9.699878,54.885982
1459871,Broagermark,6310,8,9.700812,54.886564
1459908,Ødbjerg,6310,3,9.665743,54.898333
1459944,Stenbæk,6310,1,9.6999066,54.9028729
1459946,Stenbæk,6310,6,9.701603,54.901549
1459963,Krammarkskobbel,6310,8,9.700739,54.87418
1459965,Krammarkskobbel,6310,14,9.702813,54.873066
1460031,Peter Nissens Gang,6310,1,9.6757,54.889652
1460032,Peter Nissens Gang,6310,2,9.675535,54.889808
1460047,Rødevej,6310,3,9.654565,54.873666
1460049,Rødevej,6310,5,9.653973,54.873961
1460077,Gammel Færgevej,6310,12,9.6500093,54.8571069
1460079,Gammel Færgevej,6310,18,9.6601254,54.8566037
1460090,Gartnervænget,6310,2A,9.67243,54.889229
1460093,Gartnervænget,6310,4,9.671829,54.889259
1460096,Gartnervænget,6310,6,9.6714966,54.8893653
1460201,Broagervigvej,6310,13,9.660514,54.881064
1460204,Broagervigvej,6310,14,9.660299,54.882299
1460205,Broagervigvej,6310,15,9.661252,54.881004
1460223,Parkvej,6310,2,9.674134,54.891557
1460236,Hertugvej,6310,11,9.679113,54.858207
1460237,Hertugvej,6310,14,9.677191,54.85915
1460458,Hørmarken,6310,1,9.665182,54.888709
1460459,Hørmarken,6310,2,9.6649077,54.8887173
1460461,Hørmarken,6310,3,9.665379,54.888711
1460463,Hørmarken,6310,4,9.664913,54.888622
1460464,Hørmarken,6310,5,9.665556,54.888719
1460465,Hørmarken,6310,6,9.66492,54.888477
1460467,Hørmarken,6310,7,9.66556,54.888635
1460468,Hørmarken,6310,8,9.664926,54.888399
1460469,Hørmarken,6310,9,9.665413,54.888527
1460470,Hørmarken,6310,10,9.665135,54.888361
1460473,Hørmarken,6310,11,9.665419,54.888449
1460474,Hørmarken,6310,12,9.6653321,54.8883642
1995118,Kragesand,6310,3,9.729578,54.83861
1995120,Kragesand,6310,4,9.728954,54.838706
1995122,Kragesand,6310,4A,9.729051,54.838502
1995123,Kragesand,6310,7,9.729728,54.838097
1995126,Kragesand,6310,8,9.726669,54.836449
1995127,Kragesand,6310,10,9.726702,54.836334
1995129,Kragesand,6310,11,9.728636,54.836902
2173714,Degnegården,6310,1,9.6712771,54.8914527
2173720,Degnegården,6310,2,9.671074,54.891889
2173721,Degnegården,6310,3,9.6711585,54.8914747
2173726,Degnegården,6310,4,9.67092,54.891875
2173727,Degnegården,6310,5,9.6710124,54.8914818
2173730,Degnegården,6310,6,9.6708591,54.8918999
2173733,Degnegården,6310,7,9.6708505,54.891491
2173735,Degnegården,6310,8,9.6707466,54.891905
2173737,Degnegården,6310,9,9.6706946,54.8914992
2173741,Degnegården,6310,10,9.67063,54.8919134
2173744,Degnegården,6310,11,9.6705446,54.8915142
2173747,Degnegården,6310,12,9.6704678,54.8919465
2173750,Degnegården,6310,13,9.6705135,54.8914671
2173755,Degnegården,6310,14,9.6704801,54.892011
2173758,Degnegården,6310,15,9.6703723,54.8914462
2173761,Degnegården,6310,16,9.6704909,54.8920687
2173766,Degnegården,6310,17,9.670383,54.8915019
2173770,Degnegården,6310,19,9.6703842,54.8915507
2173775,Degnegården,6310,21,9.670401,54.89161
2173778,Degnegården,6310,23,9.6704097,54.8916656
2173782,Degnegården,6310,25,9.6704165,54.8917292
2173785,Degnegården,6310,27,9.6704252,54.8917918
2173789,Degnegården,6310,29,9.6704289,54.8918287
2176034,Lindevej,6310,1,9.7007898,54.8970914
2176040,Lindevej,6310,3,9.700402,54.897136
2176044,Lindevej,6310,5,9.7000541,54.8971777
2176047,Lindevej,6310,7,9.699705,54.8972233
2176053,Lindevej,6310,9,9.6993084,54.8972456
2176057,Lindevej,6310,11,9.6990159,54.8972754
2176063,Lindevej,6310,13,9.6986795,54.8973555
2177595,Nørretoften,6310,1,9.675885,54.892963
2177605,Nørretoften,6310,2,9.6761762,54.8929263
2177608,Nørretoften,6310,2A,9.6761403,54.8930783
2177618,Nørretoften,6310,3,9.6758226,54.8932354
2177619,Nørretoften,6310,4,9.6761487,54.8932623
2177629,Nørretoften,6310,5,9.675537,54.893265
2177632,Nørretoften,6310,6,9.6764,54.893323
2177639,Nørretoften,6310,7,9.6755472,54.8933732
2177646,Nørretoften,6310,8,9.67642,54.8934717
2177648,Nørretoften,6310,9,9.6758282,54.8934036
2177654,Nørretoften,6310,10,9.676103,54.893442
2211319,Møllestien,6310,1,9.659522,54.890017
2211320,Møllestien,6310,2,9.658818,54.88993
2211321,Møllestien,6310,4,9.658447,54.889763
2211322,Møllegade,6310,53A,9.660728,54.889901
2213058,Sanct Pauli,6310,23E,9.67324,54.883963
2230283,Storegade,6310,13A,9.674612,54.889131
2230284,Storegade,6310,13B,9.674824,54.889045
2230287,Nejsvej,6310,30D,9.668738,54.8870341
2230310,Illerstrandvej,6310,36,9.647126,54.870924
2230317,Ramsherred,6310,7B,9.675811,54.886101
2230321,Nybølnorvej,6310,26A,9.652019,54.904646
2230322,Nybølnorvej,6310,26B,9.650489,54.904653
2230323,Nybølnorvej,6310,26D,9.6505147,54.9049513
2230324,Nybølnorvej,6310,26E,9.650756,54.905108
2230325,Nybølnorvej,6310,26F,9.65095,54.904905
2230326,Nybølnorvej,6310,26G,9.651858,54.904859
2230329,Østerled,6310,6A,9.678968,54.890614
2230338,Slotsvej,6310,20C,9.6534138,54.870277
2230367,Broagervigvej,6310,17,9.660686,54.88145
2237611,Degnegården,6310,31,9.671022,54.891753
2237612,Degnegården,6310,33,9.67101,54.891699
2237613,Degnegården,6310,35,9.671019,54.891585
2244601,Broagermark,6310,8A,9.700791,54.886649
2250213,Dyntvej,6310,82A,9.708533,54.876046
2250214,Dyntvej,6310,84,9.708996,54.875866
2250215,Dyntvej,6310,86,9.709437,54.875598
2250217,Frydendal,6310,2A,9.750696,54.842434
2250218,Frydenlund,6310,2,9.7429888,54.8473193
2250253,Overballe,6310,4,9.72243,54.856941
2250254,Overballe,6310,27,9.723712,54.855216
