idx,street,postcode,housenumber,lon,lat
1740932,Bovlund Bjergvej,6535,1A,9.0772751,55.1151945
1740934,Bovlund Bjergvej,6535,1B,9.0766338,55.1159857
1740936,Bovlund Bjergvej,6535,2,9.0736235,55.1159067
1740937,Bovlund Bjergvej,6535,3,9.0783094,55.1150051
1740938,Bovlund Bjergvej,6535,4,9.0743284,55.1155738
1740939,Bovlund Bjergvej,6535,5,9.0825866,55.1136544
1740940,Bovlund Bjergvej,6535,7,9.0862042,55.1118996
1740941,Bovlund Bjergvej,6535,7A,9.0853901,55.1124034
1740943,Bovlund Bjergvej,6535,8,9.0866762,55.1054381
1740944,Bovlund Bjergvej,6535,10,9.0975869,55.0996876
1740947,Bovlund Bjergvej,6535,12,9.0992361,55.101196
1740948,Bovlund Bjergvej,6535,13,9.1009767,55.101572
1740949,Bovlund Bjergvej,6535,14,9.1018999,55.1010141
1740950,Bovlund Bjergvej,6535,15,9.102136,55.1014272
1740951,Bovlund Bjergvej,6535,16,9.1024801,55.1011394
1740952,Bovlund Bjergvej,6535,17,9.1025126,55.1015976
1740953,Bovlund Bjergvej,6535,18,9.1029191,55.1012289
1740954,Bovlund Bjergvej,6535,20,9.103248,55.1011208
1740955,Bovlund Bjergvej,6535,21,9.1029053,55.1019478
1740956,Bovlund Bjergvej,6535,22,9.1039068,55.1013359
1740957,Bovlund Bjergvej,6535,22B,9.1037018,55.1008688
1740958,Bovlund Bjergvej,6535,23,9.1034536,55.1018664
1740959,Bovlund Bjergvej,6535,24,9.103575,55.100447
1740960,Bovlund Bjergvej,6535,25,9.104129,55.101823
1740961,Bovlund Bjergvej,6535,26,9.1078417,55.1017907
1740962,Bovlund Bjergvej,6535,27,9.1056954,55.1020802
1740963,Bovlund Bjergvej,6535,28,9.1161898,55.0999678
1740964,Bovlund Bjergvej,6535,29,9.1214312,55.1022902
1740965,Bovlund Bjergvej,6535,30,9.11955,55.10196
1740966,Bovlund Bjergvej,6535,30A,9.12157,55.1015442
1740967,Bovlund Bjergvej,6535,31,9.1224807,55.1021094
1740968,Bovlund Bjergvej,6535,32,9.1258003,55.1011714
1740969,Bovlund Bjergvej,6535,32A,9.126002,55.100623
1740970,Bovlund Bjergvej,6535,33,9.1243762,55.1018199
1740971,Bovlund Bjergvej,6535,34,9.1288717,55.1010514
1740972,Bovlund Bjergvej,6535,35,9.1263816,55.1016112
1740973,Bovlund Bjergvej,6535,36,9.1293566,55.1007633
1740975,Bovlund Bjergvej,6535,37,9.1337446,55.1007047
1740976,Bovlund Bjergvej,6535,37A,9.1326321,55.1007868
1740978,Bovlund Bjergvej,6535,38,9.1356849,55.0998219
1747859,Bålstedvej,6535,1,9.0730344,55.1023917
1747860,Bålstedvej,6535,2,9.0840885,55.104703
1747861,Bålstedvej,6535,3,9.0685991,55.1024212
1747862,Bålstedvej,6535,6,9.0678635,55.1030147
1747863,Bålstedvej,6535,8,9.0670172,55.1030422
1747865,Bålstedvej,6535,9,9.0453711,55.1013448
1747866,Bålstedvej,6535,10,9.064588,55.103061
1747867,Bålstedvej,6535,11,9.04045,55.101178
1747871,Bålstedvej,6535,15,9.0344791,55.1016359
1747872,Bålstedvej,6535,16,9.0305146,55.1024367
1748961,Bedstedvej,6535,7,9.1111411,55.1047533
1748978,Bedstedvej,6535,18,9.1043612,55.0953057
1752727,Bålsted Mosevej,6535,1,9.0585543,55.1033521
1752729,Bålsted Mosevej,6535,2,9.0573489,55.1043232
1752730,Bålsted Mosevej,6535,2B,9.0498584,55.1054048
1752731,Bålsted Mosevej,6535,3,9.0518793,55.1046671
1752732,Bålsted Mosevej,6535,4,9.0452046,55.1066018
1752733,Bålsted Mosevej,6535,5,9.0486826,55.1051896
1752734,Bålsted Mosevej,6535,6,9.0399864,55.1078976
1752735,Bålsted Mosevej,6535,7,9.0424461,55.1067286
1752736,Bålsted Mosevej,6535,9,9.0362398,55.1076023
1752753,Bovlund Bygade,6535,1,9.0884864,55.1018153
1752754,Bovlund Bygade,6535,2,9.0836442,55.1020883
1752755,Bovlund Bygade,6535,2A,9.0854928,55.1017725
1752757,Bovlund Bygade,6535,4,9.0868246,55.1015829
1752758,Bovlund Bygade,6535,6,9.0877963,55.1015912
1752760,Bovlund Bygade,6535,8,9.0887045,55.1012311
1752762,Bovlund Bygade,6535,10,9.0904437,55.101059
1752763,Bovlund Bygade,6535,12,9.09165,55.100798
1752765,Bovlund Bygade,6535,14,9.0913845,55.101265
1753906,Rundbjergvej,6535,1,9.0578671,55.137572
1753908,Rundbjergvej,6535,2,9.047625,55.138853
1753909,Rundbjergvej,6535,3,9.0550239,55.1346259
1753911,Rundbjergvej,6535,4,9.0449413,55.1373798
1753915,Rundbjergvej,6535,5,9.0544475,55.1375376
1753917,Rundbjergvej,6535,6,9.0406743,55.1370218
1753919,Rundbjergvej,6535,7,9.0458193,55.137011
1753923,Rundbjergvej,6535,9,9.0411434,55.1355839
1753969,Løkkeager,6535,1,9.072484,55.1186662
1753970,Løkkeager,6535,2,9.0721861,55.1186573
1753974,Løkkeager,6535,3,9.0723903,55.1188819
1753975,Løkkeager,6535,4,9.0721865,55.118864
1753978,Løkkeager,6535,5,9.0719983,55.1188641
1753980,Løkkeager,6535,6,9.0718417,55.1189631
1753982,Løkkeager,6535,7,9.0716222,55.1189542
1753984,Løkkeager,6535,8,9.0718891,55.1191877
1754777,Branderup Kådner,6535,2,9.0778065,55.1385853
1754779,Branderup Kådner,6535,3,9.0866367,55.1306446
1754781,Branderup Kådner,6535,4,9.0781651,55.1374349
1754783,Branderup Kådner,6535,5,9.086459,55.128147
1754785,Branderup Kådner,6535,6,9.078885,55.1366077
1754787,Branderup Kådner,6535,8,9.0794323,55.1357087
1754789,Branderup Kådner,6535,10,9.0799169,55.1348906
1754791,Branderup Kådner,6535,12,9.0847295,55.1335754
1756239,Branderup Mark,6535,1,9.0596729,55.1388112
1756240,Branderup Mark,6535,3,9.0612105,55.1390082
1756243,Branderup Mark,6535,4,9.0651771,55.1376133
1756244,Branderup Mark,6535,5,9.0612584,55.1395114
1756250,Branderup Mark,6535,7,9.0639732,55.1400941
1756252,Branderup Mark,6535,11,9.0660094,55.1381969
1756256,Branderup Mark,6535,13,9.0708369,55.1359566
1756318,Fyrvænget,6535,1,9.0645883,55.1226964
1756323,Fyrvænget,6535,2,9.0649644,55.1225345
1756326,Fyrvænget,6535,3,9.0648394,55.1228491
1756330,Fyrvænget,6535,4,9.0652155,55.1226781
1756331,Fyrvænget,6535,5,9.0650906,55.1230017
1756336,Fyrvænget,6535,6,9.0654195,55.1228128
1756339,Fyrvænget,6535,8,9.0657021,55.1229924
1757177,Sletvej,6535,1,9.0709568,55.123933
1757178,Sletvej,6535,2,9.0706427,55.1236636
1757180,Sletvej,6535,3,9.0713488,55.1239058
1757182,Sletvej,6535,4,9.071552,55.1235642
1757185,Sletvej,6535,5,9.0723366,55.1238603
1757186,Sletvej,6535,6,9.0738561,55.1230237
1758588,Revslundvej,6535,1,9.0343082,55.1216483
1758590,Revslundvej,6535,2,9.0331787,55.1210016
1758593,Revslundvej,6535,3,9.0343233,55.1210283
1758596,Revslundvej,6535,6,9.0351498,55.1157981
1759302,Branderup Kirkevej,6535,1,9.078242,55.1286463
1759305,Branderup Kirkevej,6535,2,9.0752825,55.1310744
1759308,Branderup Kirkevej,6535,2A,9.07627,55.130669
1759310,Branderup Kirkevej,6535,3,9.078853,55.1283314
1759313,Branderup Kirkevej,6535,4,9.0776764,55.1280895
1759314,Branderup Kirkevej,6535,5,9.0786639,55.1278552
1759652,Tohedevej,6535,1,9.0030426,55.1300822
1759653,Tohedevej,6535,2,8.991204,55.1192445
1759654,Tohedevej,6535,8,9.0046579,55.1295879
1759655,Tohedevej,6535,10,9.007576,55.13427
1759656,Tohedevej,6535,10A,9.0080935,55.1344313
1759657,Tohedevej,6535,10B,9.007623,55.1347099
1760443,Kvindlundvej,6535,6,9.0785977,55.0941388
1761995,Hykjærvej,6535,1,9.0660075,55.0990079
1761998,Hykjærvej,6535,2,9.0658066,55.1007244
1762000,Hykjærvej,6535,5,9.0665105,55.0904437
1763274,Hofmansvej,6535,1,9.0157935,55.1306833
1763276,Hofmansvej,6535,3,9.0068542,55.1332722
1763397,Engdraget,6535,1,9.0767041,55.1199486
1763399,Engdraget,6535,2,9.0745912,55.1219898
1764175,Gråstenvej,6535,1,9.0003921,55.1316099
1790942,Branderup Bygade,6535,1,9.0671104,55.1212483
1790946,Branderup Bygade,6535,2,9.0662477,55.1210511
1790947,Branderup Bygade,6535,3,9.0676277,55.1211222
1790950,Branderup Bygade,6535,4,9.0667494,55.1210328
1790954,Branderup Bygade,6535,5,9.0677841,55.1209154
1790957,Branderup Bygade,6535,6,9.0665449,55.1206375
1790959,Branderup Bygade,6535,7,9.0680191,55.1207985
1790961,Branderup Bygade,6535,8,9.0669531,55.1209249
1790962,Branderup Bygade,6535,9,9.068223,55.120726
1790963,Branderup Bygade,6535,10,9.0673448,55.1207269
1790964,Branderup Bygade,6535,12,9.0672659,55.1204394
1790965,Branderup Bygade,6535,14A,9.0674854,55.1204753
1790966,Branderup Bygade,6535,14B,9.0676578,55.1203853
1790967,Branderup Bygade,6535,14C,9.0678616,55.1203942
1790968,Branderup Bygade,6535,15,9.0700087,55.1197729
1790969,Branderup Bygade,6535,16,9.0678298,55.1200976
1790970,Branderup Bygade,6535,17,9.0702907,55.1196649
1790971,Branderup Bygade,6535,18,9.0683632,55.120304
1790972,Branderup Bygade,6535,19,9.0705884,55.1195479
1790973,Branderup Bygade,6535,20,9.0686137,55.1200792
1790974,Branderup Bygade,6535,22,9.068805,55.119613
1790975,Branderup Bygade,6535,24,9.0691934,55.1198093
1790976,Branderup Bygade,6535,26,9.0691144,55.1194589
1790977,Branderup Bygade,6535,30,9.0695381,55.1196564
1790978,Branderup Bygade,6535,32,9.0698827,55.1195034
1790979,Branderup Bygade,6535,34,9.0701804,55.1193594
1790980,Branderup Bygade,6535,36A,9.0706033,55.1191256
1790981,Branderup Bygade,6535,36B,9.0706345,55.1190357
1790982,Branderup Bygade,6535,36C,9.0707129,55.1190087
1790983,Branderup Bygade,6535,38,9.0711357,55.1187478
1790986,Branderup Bygade,6535,40,9.071872,55.1183879
1790988,Branderup Bygade,6535,42,9.072325,55.118125
1790990,Branderup Bygade,6535,42A,9.072276,55.11659
1790992,Branderup Bygade,6535,44,9.0733591,55.117084
1790995,Branderup Bygade,6535,46,9.0736086,55.1163111
1801619,Branderupvej,6535,32,9.0895855,55.123759
1801621,Branderupvej,6535,38,9.0703893,55.1222529
1801626,Branderupvej,6535,43,9.0859077,55.1197987
1801629,Branderupvej,6535,45,9.0825098,55.1220206
1801630,Branderupvej,6535,47,9.0865131,55.1170035
1801636,Branderupvej,6535,55,9.0739797,55.1220441
1801638,Branderupvej,6535,57,9.0679106,55.1215084
1803163,Smedegade,6535,1,9.0651984,55.1218065
1803165,Smedegade,6535,2,9.0661236,55.1218419
1803166,Smedegade,6535,4,9.0658416,55.1219858
1803168,Smedegade,6535,5,9.0643837,55.1222472
1803170,Smedegade,6535,6,9.0656379,55.1220848
1803172,Smedegade,6535,7,9.064086,55.1224001
1803173,Smedegade,6535,9,9.063663,55.122616
1803175,Smedegade,6535,12,9.0640868,55.1229034
1803176,Smedegade,6535,13,9.0630833,55.1229129
1803178,Smedegade,6535,14,9.0638518,55.1230113
1803179,Smedegade,6535,15,9.0627856,55.1230568
1803180,Smedegade,6535,15A,9.0623781,55.1232188
1803181,Smedegade,6535,16,9.0636168,55.1231373
1803182,Smedegade,6535,17,9.0525802,55.1251644
1803183,Smedegade,6535,18,9.0633038,55.1235598
1803184,Smedegade,6535,19,9.0439259,55.1268573
1803185,Smedegade,6535,20,9.0528682,55.1294687
1803186,Smedegade,6535,21,9.0426715,55.1270464
1803187,Smedegade,6535,22,9.0402259,55.127856
1803188,Smedegade,6535,23,9.0414486,55.1273434
1803189,Smedegade,6535,24,9.0298157,55.1319747
1803190,Smedegade,6535,25,9.0387672,55.1276858
1803191,Smedegade,6535,26,9.0200927,55.134358
1803192,Smedegade,6535,26A,9.0080156,55.1367588
1803193,Smedegade,6535,27,9.0361494,55.1289446
1803194,Smedegade,6535,28,9.0068862,55.1367229
1803195,Smedegade,6535,29,9.0328256,55.1302306
1803196,Smedegade,6535,31,9.0306462,55.1310399
1803197,Smedegade,6535,33,9.0276198,55.1318674
1803198,Smedegade,6535,35,9.0227896,55.132776
1803421,Sandbjergvej,6535,1A,9.0688808,55.1204206
1803422,Sandbjergvej,6535,1B,9.0689594,55.1205373
1803423,Sandbjergvej,6535,1C,9.068944,55.1206721
1803424,Sandbjergvej,6535,2,9.0699816,55.1222531
1803425,Sandbjergvej,6535,3,9.0689757,55.1208518
1803426,Sandbjergvej,6535,4,9.0700448,55.1225047
1803427,Sandbjergvej,6535,5,9.0689134,55.1211305
1803428,Sandbjergvej,6535,6,9.070281,55.123017
1803429,Sandbjergvej,6535,7,9.0690706,55.121337
1803430,Sandbjergvej,6535,8,9.0703754,55.1232414
1803431,Sandbjergvej,6535,9,9.0688515,55.1216157
1803432,Sandbjergvej,6535,10,9.0705639,55.1234569
1803433,Sandbjergvej,6535,11,9.069339,55.122254
1803434,Sandbjergvej,6535,13,9.0694489,55.1224691
1803435,Sandbjergvej,6535,15,9.0694181,55.1228196
1803436,Sandbjergvej,6535,17,9.069732,55.1229722
1803437,Sandbjergvej,6535,19,9.0699848,55.1240414
1803438,Sandbjergvej,6535,21,9.0678317,55.1305127
1803439,Sandbjergvej,6535,22,9.0708632,55.1242116
1803440,Sandbjergvej,6535,23,9.0715681,55.1325594
1803441,Sandbjergvej,6535,24,9.0710838,55.1247956
1803442,Sandbjergvej,6535,26,9.0711469,55.1250022
1803444,Sandbjergvej,6535,28,9.0712099,55.1251999
1803445,Sandbjergvej,6535,30,9.0712259,55.1253796
1803446,Sandbjergvej,6535,32,9.0713364,55.125766
1803447,Sandbjergvej,6535,36,9.0714468,55.1261433
1803448,Sandbjergvej,6535,38,9.0724042,55.1265651
1803449,Sandbjergvej,6535,40,9.071573,55.126602
1803450,Sandbjergvej,6535,50,9.0880371,55.1398454
1807224,Tingvej,6535,1,9.0629476,55.1263727
1807225,Tingvej,6535,2,9.0679951,55.1251568
1807226,Tingvej,6535,3,9.0635592,55.1263993
1807227,Tingvej,6535,4,9.0695624,55.1246527
1807228,Tingvej,6535,5,9.064014,55.1263901
1807229,Tingvej,6535,6,9.0716788,55.124328
1807230,Tingvej,6535,7,9.0657081,55.1266228
1807231,Tingvej,6535,8,9.0720082,55.1243457
1807233,Tingvej,6535,9,9.0711618,55.1246068
1807234,Tingvej,6535,10,9.073532,55.125837
1807236,Tingvej,6535,11,9.0716323,55.1246066
1807239,Tingvej,6535,12,9.0770608,55.1260321
1807240,Tingvej,6535,13,9.0727931,55.1248215
1807242,Tingvej,6535,14,9.086687,55.124777
1807244,Tingvej,6535,15,9.0729042,55.1255494
1807245,Tingvej,6535,16,9.0911164,55.1280622
1807248,Tingvej,6535,17,9.072665,55.126027
1807249,Tingvej,6535,18,9.1011583,55.1300313
1807252,Tingvej,6535,29,9.0928086,55.1341806
1807253,Tingvej,6535,31,9.0979878,55.1354526
1807255,Tingvej,6535,33,9.099417,55.136045
1815789,Friskjærvej,6535,1,9.0617835,55.1240368
1815791,Friskjærvej,6535,2,9.0626142,55.1237938
1815792,Friskjærvej,6535,3,9.0619879,55.1243512
1815794,Friskjærvej,6535,4,9.064215,55.124763
1815795,Friskjærvej,6535,5,9.0619882,55.1245579
1815798,Friskjærvej,6535,5A,9.0621296,55.1247106
1815800,Friskjærvej,6535,6,9.062846,55.1315668
1815802,Friskjærvej,6535,7,9.0621365,55.1291678
1815803,Friskjærvej,6535,7A,9.0620773,55.1314863
1815805,Friskjærvej,6535,8,9.0626942,55.1348198
1815807,Friskjærvej,6535,9,9.0580875,55.1380572
1815809,Friskjærvej,6535,10,9.0626812,55.1365272
1815814,Friskjærvej,6535,12,9.059538,55.137673
1822628,Roostvej,6535,1,9.0039681,55.1323198
1822633,Roostvej,6535,1A,9.0047837,55.1321939
1822641,Roostvej,6535,2,9.0071049,55.1316367
1822647,Roostvej,6535,3,9.0054111,55.1320232
1822649,Roostvej,6535,3A,9.0069481,55.132077
1822656,Roostvej,6535,4,9.0095985,55.1307918
1822659,Roostvej,6535,6,9.0090809,55.1308368
1822668,Roostvej,6535,7,9.0079362,55.1318792
1822678,Roostvej,6535,9,9.0084067,55.1316186
1822683,Roostvej,6535,9A,9.0087674,55.1314478
1822693,Roostvej,6535,11,9.0102571,55.1306659
1822703,Roostvej,6535,13,9.0151493,55.127655
1822709,Roostvej,6535,15,9.0144277,55.1269991
1822721,Roostvej,6535,17,9.0137216,55.1258939
1822735,Roostvej,6535,19,9.0126392,55.1246449
1822740,Roostvej,6535,21,9.0120268,55.1221199
1824602,Granvænget,6535,1,9.0633019,55.1223377
1824603,Granvænget,6535,2,9.0629575,55.1226973
1824604,Granvænget,6535,3,9.0633329,55.122104
1824605,Granvænget,6535,4,9.0627064,55.1225357
1824606,Granvænget,6535,6,9.0627688,55.1223379
1824607,Granvænget,6535,8,9.0628468,55.1221222
1824608,Granvænget,6535,10,9.0628622,55.1219155
1824609,Granvænget,6535,12,9.0629559,55.1216818
1824610,Granvænget,6535,14,9.0629712,55.1214572
1824611,Granvænget,6535,15,9.0639911,55.121897
1824612,Granvænget,6535,16,9.062877,55.121287
1824613,Granvænget,6535,17,9.0641636,55.1218879
1824614,Granvænget,6535,18,9.0629392,55.1210348
1824615,Granvænget,6535,19,9.0643361,55.1218878
1824616,Granvænget,6535,21,9.064314,55.12167
1826816,Løgumklostervej,6535,1,9.0657774,55.1210962
1826819,Løgumklostervej,6535,3,9.0660121,55.1207996
1826820,Løgumklostervej,6535,4,9.0635516,55.1216096
1826824,Løgumklostervej,6535,5,9.0653852,55.1209976
1826825,Løgumklostervej,6535,7,9.0650716,55.1209618
1826828,Løgumklostervej,6535,8,9.0575907,55.1198603
1826831,Løgumklostervej,6535,8A,9.0587199,55.1200754
1826833,Løgumklostervej,6535,9,9.0648049,55.1209081
1826836,Løgumklostervej,6535,10,9.0520071,55.1186047
1826837,Løgumklostervej,6535,11,9.0644442,55.1208364
1826841,Løgumklostervej,6535,12,9.0510038,55.118668
1826845,Løgumklostervej,6535,15,9.0624502,55.119157
1826846,Løgumklostervej,6535,17,9.0553941,55.1187919
2108673,Degnebakken,6535,1,9.071916,55.125164
2108679,Degnebakken,6535,3,9.0726997,55.125208
2232999,Bovlund Bjergvej,6535,4A,9.082585,55.113115
2233052,Bålstedvej,6535,3A,9.0598461,55.0972587
2233053,Bålstedvej,6535,7,9.0491115,55.0971025
2233062,Bedstedvej,6535,9,9.110593,55.0992
2233088,Bålsted Mosevej,6535,2A,9.0550531,55.1102818
2233089,Bålsted Mosevej,6535,2C,9.051473,55.105359
2233090,Bålsted Mosevej,6535,3A,9.049873,55.104965
2233141,Branderup Mark,6535,9,9.068948,55.141188
2233142,Fyrvænget,6535,7,9.065326,55.123091
2233186,Kvindlundvej,6535,2,9.079243,55.095522
2233187,Kvindlundvej,6535,4,9.071157,55.09324
2233210,Hykjærvej,6535,3,9.065699,55.092277
2233211,Hykjærvej,6535,4,9.062762,55.097761
2233212,Hykjærvej,6535,6,9.056346,55.093639
2233238,Gråstenvej,6535,2,8.9981,55.132401
2233702,Branderup Bygade,6535,28,9.069446,55.118195
2233703,Branderup Bygade,6535,36D,9.070995,55.11891
2233777,Branderupvej,6535,36,9.071017,55.122271
2233778,Branderupvej,6535,41,9.098663,55.123015
2233779,Branderupvej,6535,43B,9.089424,55.12154
2233780,Branderupvej,6535,49,9.0845553,55.1179657
2233790,Smedegade,6535,3,9.064729,55.122157
2233791,Smedegade,6535,8,9.065277,55.122202
2233792,Smedegade,6535,10,9.066297,55.122156
2233872,Friskjærvej,6535,4A,9.062827,55.127241
2233873,Friskjærvej,6535,7C,9.061924,55.130483
2233979,Løgumklostervej,6535,13,9.064197,55.120797
