idx,street,postcode,housenumber,lon,lat
1396210,Hjartbro Byvej,6541,1,9.190672,55.206056
1396211,Hjartbro Byvej,6541,3,9.181891,55.207559
1396212,Hjartbro Byvej,6541,4,9.186488,55.206994
1396213,Hjartbro Byvej,6541,5,9.180344,55.207866
1396214,Hjartbro Byvej,6541,7,9.178937,55.208115
1396215,Hjartbro Byvej,6541,8,9.183374,55.207413
1396217,Hjartbro Byvej,6541,9,9.177454,55.208143
1396219,Hjartbro Byvej,6541,9A,9.176757,55.208246
1396221,Hjartbro Byvej,6541,10,9.182476,55.207683
1396224,Hjartbro Byvej,6541,11,9.175527,55.208215
1396225,Hjartbro Byvej,6541,12,9.182286,55.207721
1396227,Hjartbro Byvej,6541,13,9.174153,55.208464
1396228,Hjartbro Byvej,6541,14,9.181081,55.20812
1396229,Hjartbro Byvej,6541,15,9.173853,55.208777
1396230,Hjartbro Byvej,6541,16,9.180643,55.208263
1396231,Hjartbro Byvej,6541,17,9.173796,55.21009
1396232,Hjartbro Byvej,6541,18,9.180067,55.208287
1396233,Hjartbro Byvej,6541,18A,9.179316,55.208405
1396234,Hjartbro Byvej,6541,19,9.165773,55.212972
1396235,Hjartbro Byvej,6541,20,9.178106,55.208421
1396236,Hjartbro Byvej,6541,21,9.157279,55.21551
1396237,Hjartbro Byvej,6541,24,9.175894,55.208619
1396238,Hjartbro Byvej,6541,26,9.175443,55.208715
1396239,Hjartbro Byvej,6541,30,9.15982,55.215181
1396240,Hjartbro Byvej,6541,32,9.15576,55.217069
1396300,Farvergården,6541,1,9.214812,55.198148
1396302,Farvergården,6541,2,9.214845,55.197388
1396303,Farvergården,6541,3,9.215064,55.198432
1396306,Farvergården,6541,4,9.215602,55.197684
1396307,Farvergården,6541,5,9.215172,55.198878
1396311,Farvergården,6541,6,9.21537,55.198071
1396315,Farvergården,6541,7,9.215732,55.199346
1396317,Farvergården,6541,8,9.21548,55.198383
1396319,Farvergården,6541,10,9.216072,55.198624
1396321,Farvergården,6541,20,9.2167,55.19799
1397001,Birkevænget,6541,2,9.211144,55.196356
1397002,Birkevænget,6541,4,9.211066,55.196498
1397004,Birkevænget,6541,6,9.210696,55.196911
1397006,Birkevænget,6541,8,9.210291,55.196732
1397007,Birkevænget,6541,10,9.21037,55.19659
1397009,Birkevænget,6541,12,9.210567,55.196372
1397010,Birkevænget,6541,14,9.210795,55.196189
1397012,Birkevænget,6541,16,9.20913,55.196427
1397014,Birkevænget,6541,18,9.209194,55.196547
1397015,Birkevænget,6541,20,9.20874,55.1966
1397016,Birkevænget,6541,22,9.208599,55.196425
1397018,Birkevænget,6541,23A,9.21078,55.195018
1397019,Birkevænget,6541,23B,9.210934,55.195
1397022,Birkevænget,6541,25A,9.21044,55.194857
1397024,Birkevænget,6541,25B,9.210582,55.194839
1397025,Birkevænget,6541,27A,9.210212,55.19495
1397027,Birkevænget,6541,27B,9.210176,55.194866
1397028,Birkevænget,6541,29A,9.21024,55.195205
1397030,Birkevænget,6541,29B,9.21021,55.195127
1397033,Birkevænget,6541,31A,9.210564,55.195341
1397034,Birkevænget,6541,31B,9.21038,55.195363
1397036,Birkevænget,6541,41,9.209816,55.195276
1397038,Birkevænget,6541,43,9.209537,55.195246
1397039,Birkevænget,6541,45,9.209332,55.195272
1397041,Birkevænget,6541,47,9.209135,55.195389
1397043,Birkevænget,6541,49,9.209346,55.195538
1397045,Birkevænget,6541,51,9.209238,55.195692
1397046,Birkevænget,6541,53,9.209277,55.195795
1397049,Birkevænget,6541,55,9.209475,55.195863
1397050,Birkevænget,6541,57,9.208955,55.196007
1397051,Birkevænget,6541,59,9.208926,55.195935
1397052,Birkevænget,6541,61,9.208911,55.195848
1397054,Birkevænget,6541,61A,9.208795,55.195676
1397056,Birkevænget,6541,63,9.208723,55.195156
1397057,Birkevænget,6541,65,9.208459,55.195094
1397059,Birkevænget,6541,67,9.208267,55.195118
1397060,Birkevænget,6541,69,9.208063,55.195234
1397062,Birkevænget,6541,71,9.208303,55.195396
1397064,Birkevænget,6541,73,9.20815,55.195415
1397066,Birkevænget,6541,75,9.207991,55.195435
1397067,Birkevænget,6541,77,9.208362,55.195621
1397068,Birkevænget,6541,79,9.20826,55.195774
1397070,Birkevænget,6541,81,9.20831,55.195901
1397072,Birkevænget,6541,83,9.20851,55.195999
1397074,Birkevænget,6541,85,9.208774,55.195352
1398163,Savværksvej,6541,1,9.214449,55.201337
1398166,Savværksvej,6541,1A,9.213723,55.202453
1398170,Savværksvej,6541,3,9.231613,55.209847
1398174,Savværksvej,6541,4,9.214703,55.20157
1398177,Savværksvej,6541,5,9.233263,55.211526
1398180,Savværksvej,6541,6,9.225244,55.205984
1398183,Savværksvej,6541,7,9.235336,55.214214
1398185,Savværksvej,6541,8,9.233095,55.20936
1398188,Savværksvej,6541,10,9.238571,55.216029
1398832,Bøgevænget,6541,1,9.210477,55.197196
1398836,Bøgevænget,6541,2,9.210048,55.197099
1398839,Bøgevænget,6541,3,9.209632,55.197032
1398844,Bøgevænget,6541,4,9.209265,55.197017
1398846,Bøgevænget,6541,5,9.208932,55.197018
1398849,Bøgevænget,6541,6,9.208982,55.197284
1398853,Bøgevænget,6541,7,9.209042,55.197519
1398855,Bøgevænget,6541,8,9.209109,55.197814
1398856,Bøgevænget,6541,9,9.209085,55.198043
1398859,Bøgevænget,6541,10,9.209163,55.19821
1398860,Bøgevænget,6541,11,9.209579,55.19824
1398863,Bøgevænget,6541,12,9.209817,55.198111
1398864,Bøgevænget,6541,13,9.20962,55.197807
1398866,Bøgevænget,6541,14,9.20943,55.197276
1398867,Bøgevænget,6541,15,9.209801,55.197302
1398927,Birkelundvej,6541,2,9.1900677,55.1696082
1398930,Birkelundvej,6541,3,9.1856839,55.1654364
1398931,Birkelundvej,6541,5,9.1788032,55.1677561
1398933,Birkelundvej,6541,7,9.186051,55.1701086
1398935,Birkelundvej,6541,9,9.1827578,55.1709044
1398936,Birkelundvej,6541,11,9.1810703,55.1726682
1398938,Birkelundvej,6541,13,9.2038722,55.1706103
1401110,Åvænget,6541,1,9.207935,55.199942
1401111,Åvænget,6541,2,9.208408,55.199694
1401113,Åvænget,6541,3,9.207905,55.200046
1401117,Åvænget,6541,4,9.208401,55.199797
1401119,Åvænget,6541,5,9.20788,55.20016
1401121,Åvænget,6541,6,9.20839,55.199907
1401125,Åvænget,6541,7,9.20786,55.200363
1401127,Åvænget,6541,8,9.208382,55.200024
1401130,Åvænget,6541,9,9.207866,55.20047
1401132,Åvænget,6541,10,9.208388,55.200157
1401134,Åvænget,6541,11,9.2078143,55.2005734
1401136,Åvænget,6541,12,9.208524,55.200158
1401139,Åvænget,6541,14,9.208647,55.200162
1401142,Åvænget,6541,15,9.208329,55.200392
1401144,Åvænget,6541,16,9.208777,55.200166
1401146,Åvænget,6541,17,9.208441,55.200397
1401148,Åvænget,6541,18,9.209672,55.200299
1401149,Åvænget,6541,19,9.208635,55.200424
1401151,Åvænget,6541,20,9.209682,55.20022
1401153,Åvænget,6541,21,9.208821,55.200426
1401154,Åvænget,6541,22,9.209725,55.200131
1401155,Åvænget,6541,23,9.209082,55.200439
1401156,Åvænget,6541,24,9.209726,55.200056
1401157,Åvænget,6541,25,9.209245,55.200444
1401158,Åvænget,6541,27,9.209398,55.200465
1401159,Åvænget,6541,29,9.209554,55.200469
1401160,Åvænget,6541,31,9.210198,55.200441
1401161,Åvænget,6541,33,9.210227,55.200343
1401162,Åvænget,6541,35,9.21018,55.200279
1401163,Åvænget,6541,37,9.210197,55.20018
1401164,Åvænget,6541,39,9.210673,55.200144
1401165,Åvænget,6541,41,9.210666,55.200236
1401166,Åvænget,6541,43,9.2107,55.200331
1401167,Åvænget,6541,45,9.210675,55.200427
1401168,Åvænget,6541,47,9.210653,55.200552
1401169,Åvænget,6541,49,9.210835,55.200565
1401170,Åvænget,6541,51,9.210719,55.200003
1401171,Åvænget,6541,53,9.210721,55.199896
1401172,Åvænget,6541,55,9.21071,55.199819
1401173,Åvænget,6541,57,9.210713,55.199734
1401625,Tirslundvej,6541,1,9.150214,55.208825
1401626,Tirslundvej,6541,2,9.1528004,55.2071059
1401628,Tirslundvej,6541,3,9.1491143,55.2088987
1401629,Tirslundvej,6541,6,9.1475298,55.2096195
1401630,Tirslundvej,6541,7,9.1424421,55.2106949
1401633,Tirslundvej,6541,9,9.1421606,55.2110637
1401634,Tirslundvej,6541,10,9.145587,55.2112034
1401636,Tirslundvej,6541,11,9.1404941,55.2108949
1401639,Tirslundvej,6541,12,9.1452389,55.2105478
1401641,Tirslundvej,6541,13,9.1386558,55.2110048
1401642,Tirslundvej,6541,14,9.1446111,55.2107642
1401643,Tirslundvej,6541,15,9.1371628,55.2109705
1401645,Tirslundvej,6541,16,9.1437634,55.2110348
1401646,Tirslundvej,6541,17,9.1369113,55.2109618
1401648,Tirslundvej,6541,18,9.143233,55.2121138
1401650,Tirslundvej,6541,20,9.1420052,55.211576
1401652,Tirslundvej,6541,22,9.1416119,55.2114507
1401654,Tirslundvej,6541,24,9.13762,55.211321
1402856,Hjartbro Skovvej,6541,7,9.149008,55.226001
1402858,Hjartbro Skovvej,6541,9,9.157674,55.225655
1402988,Tjørnevænget,6541,1,9.203578,55.197107
1402990,Tjørnevænget,6541,2,9.203313,55.196663
1402991,Tjørnevænget,6541,3,9.203917,55.197336
1402993,Tjørnevænget,6541,4,9.2031,55.1968
1402995,Tjørnevænget,6541,5,9.204355,55.19733
1402996,Tjørnevænget,6541,6,9.202879,55.196589
1402999,Tjørnevænget,6541,7,9.204892,55.197173
1403000,Tjørnevænget,6541,8,9.202677,55.196354
1403003,Tjørnevænget,6541,9,9.204514,55.197004
1403005,Tjørnevænget,6541,10,9.20303,55.19624
1403008,Tjørnevænget,6541,11,9.204463,55.196768
1403010,Tjørnevænget,6541,12,9.203345,55.196124
1403012,Tjørnevænget,6541,13,9.20399,55.196921
1403015,Tjørnevænget,6541,14,9.203549,55.196327
1403016,Tjørnevænget,6541,15,9.204804,55.196484
1403019,Tjørnevænget,6541,16,9.203865,55.19649
1403020,Tjørnevænget,6541,17,9.205106,55.19674
1403022,Tjørnevænget,6541,18,9.20465,55.196055
1403025,Tjørnevænget,6541,19,9.205368,55.196912
1403026,Tjørnevænget,6541,20,9.204298,55.196223
1403029,Tjørnevænget,6541,21,9.205595,55.197101
1403032,Tjørnevænget,6541,22,9.204046,55.196036
1403033,Tjørnevænget,6541,23,9.206073,55.197006
1403036,Tjørnevænget,6541,24,9.203844,55.195829
1403037,Tjørnevænget,6541,25,9.20599,55.196735
1403040,Tjørnevænget,6541,26,9.204233,55.195673
1403042,Tjørnevænget,6541,27,9.205518,55.196447
1403043,Tjørnevænget,6541,28,9.204675,55.195553
1403046,Tjørnevænget,6541,29,9.205302,55.196292
1403047,Tjørnevænget,6541,30,9.20478,55.195781
1403050,Tjørnevænget,6541,31,9.205805,55.196009
1403051,Tjørnevænget,6541,32,9.205026,55.195931
1403054,Tjørnevænget,6541,33,9.205999,55.19628
1403055,Tjørnevænget,6541,34,9.205581,55.19572
1403057,Tjørnevænget,6541,36,9.205352,55.19553
1403059,Tjørnevænget,6541,38,9.205064,55.195367
1403061,Tjørnevænget,6541,40,9.205302,55.195172
1403063,Tjørnevænget,6541,42,9.205709,55.19499
1403066,Tjørnevænget,6541,44,9.205963,55.19555
1404917,Hyldevej,6541,1,9.208345,55.199065
1404918,Hyldevej,6541,2,9.20544,55.19916
1404921,Hyldevej,6541,4,9.20576,55.199091
1404924,Hyldevej,6541,6,9.206313,55.198822
1404926,Hyldevej,6541,8,9.206764,55.19884
1404928,Hyldevej,6541,10,9.206781,55.199162
1404930,Hyldevej,6541,12,9.2071,55.199102
1404933,Hyldevej,6541,14,9.207472,55.199047
1404937,Hyldevej,6541,16,9.207802,55.199005
1404938,Hyldevej,6541,18,9.208241,55.198957
1404942,Hyldevej,6541,20,9.208717,55.198916
1406954,Pile Alle,6541,1,9.188594,55.214762
1406957,Pile Alle,6541,2,9.192369,55.215714
1406962,Pile Alle,6541,4,9.187548,55.218337
1408784,Hyrupvej,6541,1,9.205245,55.198463
1408786,Hyrupvej,6541,1B,9.205578,55.197731
1408788,Hyrupvej,6541,1C,9.206606,55.198221
1408791,Hyrupvej,6541,2,9.203772,55.198671
1408792,Hyrupvej,6541,3,9.204489,55.198626
1408794,Hyrupvej,6541,4,9.203669,55.198439
1408796,Hyrupvej,6541,4B,9.193326,55.191673
1408798,Hyrupvej,6541,5,9.204152,55.198363
1408799,Hyrupvej,6541,6,9.192665,55.191199
1408802,Hyrupvej,6541,7,9.20388,55.198193
1408805,Hyrupvej,6541,8,9.188789,55.189592
1408806,Hyrupvej,6541,9,9.203676,55.198053
1408810,Hyrupvej,6541,10,9.186263,55.188885
1408811,Hyrupvej,6541,11,9.203485,55.197913
1408814,Hyrupvej,6541,12,9.18257,55.187826
1408815,Hyrupvej,6541,13,9.203294,55.197778
1408818,Hyrupvej,6541,15,9.203114,55.197651
1408820,Hyrupvej,6541,16,9.161811,55.180782
1408823,Hyrupvej,6541,17,9.202945,55.197528
1408827,Hyrupvej,6541,18,9.161384,55.180616
1408829,Hyrupvej,6541,19,9.202762,55.197401
1408834,Hyrupvej,6541,20,9.154132,55.177883
1408838,Hyrupvej,6541,21,9.202442,55.197171
1408841,Hyrupvej,6541,22,9.152846,55.175259
1408846,Hyrupvej,6541,23,9.202233,55.197023
1408851,Hyrupvej,6541,24,9.153605,55.174653
1408856,Hyrupvej,6541,25,9.202174,55.196828
1408859,Hyrupvej,6541,26,9.15305,55.174334
1408863,Hyrupvej,6541,27,9.201882,55.196769
1408871,Hyrupvej,6541,29,9.201745,55.19653
1408874,Hyrupvej,6541,29A,9.200924,55.191038
1408881,Hyrupvej,6541,31,9.190611,55.189625
1408887,Hyrupvej,6541,33,9.18809,55.188843
1408895,Hyrupvej,6541,35,9.184453,55.187934
1408903,Hyrupvej,6541,37,9.174364,55.179811
1408906,Hyrupvej,6541,37B,9.17785,55.17955
1408911,Hyrupvej,6541,39,9.171958,55.180354
1408913,Hyrupvej,6541,41,9.169023,55.181036
1408919,Hyrupvej,6541,43,9.155039,55.17835
1408921,Hyrupvej,6541,45,9.154464,55.177242
1408926,Hyrupvej,6541,47,9.155993,55.177187
1408929,Hyrupvej,6541,49,9.154077,55.176242
1408936,Hyrupvej,6541,51,9.154477,55.174839
1408939,Hyrupvej,6541,53,9.154383,55.174572
1408941,Hyrupvej,6541,55,9.154503,55.174368
1410402,Mellemvej,6541,1,9.21043,55.198284
1410405,Mellemvej,6541,2,9.210603,55.198039
1410407,Mellemvej,6541,3,9.210797,55.198479
1410409,Mellemvej,6541,4,9.210839,55.198127
1410413,Mellemvej,6541,5,9.211064,55.198592
1410416,Mellemvej,6541,6,9.211474,55.198053
1410418,Mellemvej,6541,8,9.211146,55.198375
1410709,Glaservej,6541,1,9.20431,55.207042
1410710,Glaservej,6541,2B,9.211464,55.204758
1410711,Glaservej,6541,3,9.203624,55.207274
1411170,Diagonalvej,6541,2,9.254143,55.174292
1411171,Diagonalvej,6541,2A,9.198264,55.198073
1411172,Diagonalvej,6541,2B,9.207126,55.194279
1411173,Diagonalvej,6541,4,9.185585,55.218249
1411174,Diagonalvej,6541,6,9.17906,55.222116
1411175,Diagonalvej,6541,7,9.220628,55.18698
1411176,Diagonalvej,6541,9,9.192447,55.202486
1411177,Diagonalvej,6541,11,9.172934,55.226287
1411360,Kirkebjergvej,6541,1,9.131319,55.202225
1411361,Kirkebjergvej,6541,2,9.1317462,55.2030418
1411363,Kirkebjergvej,6541,3,9.1313211,55.2027726
1411365,Kirkebjergvej,6541,4,9.1317977,55.2043537
1411367,Kirkebjergvej,6541,4A,9.131861,55.2044884
1411369,Kirkebjergvej,6541,5,9.1313034,55.2069242
1411370,Kirkebjergvej,6541,6,9.1320531,55.2055486
1411372,Kirkebjergvej,6541,7,9.1353095,55.2113141
1411373,Kirkebjergvej,6541,8,9.1355251,55.2099929
1411375,Kirkebjergvej,6541,9,9.1349679,55.2125186
1411378,Kirkebjergvej,6541,10,9.1344919,55.215853
1411379,Kirkebjergvej,6541,11,9.1341673,55.212807
1411382,Kirkebjergvej,6541,11A,9.1344986,55.2131841
1411383,Kirkebjergvej,6541,11B,9.1335887,55.2136524
1411385,Kirkebjergvej,6541,12,9.1336044,55.2183611
1411388,Kirkebjergvej,6541,14,9.1349252,55.2185034
1411389,Kirkebjergvej,6541,14A,9.1346423,55.2185037
1411391,Kirkebjergvej,6541,16,9.1330613,55.2204554
1411394,Kirkebjergvej,6541,17,9.131526,55.2220297
1411395,Kirkebjergvej,6541,18,9.1316694,55.2226046
1411399,Kirkebjergvej,6541,20,9.1353927,55.2219176
1412675,Hjartbrovej,6541,1,9.213778,55.202057
1412677,Hjartbrovej,6541,2,9.210754,55.202647
1412678,Hjartbrovej,6541,2A,9.202243,55.204246
1412680,Hjartbrovej,6541,3,9.212215,55.202204
1412682,Hjartbrovej,6541,4,9.198693,55.208645
1412684,Hjartbrovej,6541,5,9.211778,55.201918
1412685,Hjartbrovej,6541,6,9.192786,55.209144
1412687,Hjartbrovej,6541,7,9.211466,55.202107
1412688,Hjartbrovej,6541,9,9.210593,55.202084
1412691,Hjartbrovej,6541,11,9.210168,55.202392
1412693,Hjartbrovej,6541,11A,9.210081,55.201933
1412694,Hjartbrovej,6541,15,9.208752,55.202729
1412697,Hjartbrovej,6541,17,9.204189,55.203604
1412698,Hjartbrovej,6541,50,9.222133,55.200543
1412708,Buen,6541,1,9.199024,55.198345
1412709,Buen,6541,2,9.198501,55.198607
1412710,Buen,6541,3,9.19931,55.198184
1412711,Buen,6541,4,9.19852,55.198337
1412712,Buen,6541,5,9.199685,55.198036
1412713,Buen,6541,6,9.198822,55.197845
1412714,Buen,6541,7A,9.199719,55.198422
1412715,Buen,6541,7B,9.199827,55.198362
1412716,Buen,6541,7C,9.199939,55.198306
1412717,Buen,6541,8,9.199524,55.197739
1412718,Buen,6541,10,9.199809,55.197611
1412719,Buen,6541,11A,9.200335,55.198135
1412720,Buen,6541,11B,9.200438,55.198053
1412721,Buen,6541,11C,9.200561,55.197996
1412722,Buen,6541,11D,9.200679,55.197937
1412723,Buen,6541,12,9.200083,55.197482
1412724,Buen,6541,13,9.200051,55.197869
1412725,Buen,6541,14,9.200409,55.197335
1412726,Buen,6541,15,9.200327,55.197743
1412727,Buen,6541,16,9.200669,55.197214
1412728,Buen,6541,17,9.200608,55.197612
1412729,Buen,6541,18,9.200995,55.197066
1412730,Buen,6541,19,9.200852,55.197461
1412731,Buen,6541,20,9.201343,55.196906
1412732,Buen,6541,21,9.201325,55.197282
1412733,Buen,6541,23,9.201644,55.197135
1412948,Gammelskovvej,6541,12,9.175431,55.164832
1414123,Over Jerstalvej,6541,218,9.2155479,55.1551969
1414124,Over Jerstalvej,6541,221,9.2221559,55.1582224
1414472,Gelsåvej,6541,92,9.247805,55.178708
1414473,Gelsåvej,6541,103,9.237826,55.170262
1414476,Gelsåvej,6541,111,9.235237,55.1685641
1414510,Møllevænget,6541,2,9.213979,55.198419
1414512,Møllevænget,6541,3,9.213975,55.198606
1414514,Møllevænget,6541,4,9.214162,55.198789
1414516,Møllevænget,6541,5,9.214263,55.198968
1414518,Møllevænget,6541,6,9.214496,55.199121
1414520,Møllevænget,6541,7,9.21422,55.199167
1414613,Parkvej,6541,1,9.213922,55.197282
1414615,Parkvej,6541,2,9.213185,55.197218
1414617,Parkvej,6541,3,9.213553,55.1971
1414618,Parkvej,6541,4,9.212911,55.19743
1414619,Parkvej,6541,5,9.213063,55.196784
1414620,Parkvej,6541,6,9.212512,55.197569
1414621,Parkvej,6541,7,9.21279,55.196952
1414622,Parkvej,6541,8,9.212194,55.1977
1414623,Parkvej,6541,9,9.21254,55.197118
1414624,Parkvej,6541,10,9.211955,55.197782
1414625,Parkvej,6541,11,9.212203,55.197308
1414626,Parkvej,6541,12,9.212089,55.197869
1414627,Parkvej,6541,13,9.211944,55.197448
1414628,Parkvej,6541,14,9.211739,55.197902
1414629,Parkvej,6541,15,9.211763,55.197607
1414630,Parkvej,6541,16,9.211878,55.19799
1414631,Parkvej,6541,17,9.211593,55.197691
1414632,Parkvej,6541,18,9.211946,55.198083
1414633,Parkvej,6541,19,9.211427,55.197771
1414907,Møllebakken,6541,1,9.21413,55.199857
1414909,Møllebakken,6541,3,9.21402,55.199658
1414910,Møllebakken,6541,4,9.213373,55.199324
1414913,Møllebakken,6541,5,9.214494,55.19951
1414914,Møllebakken,6541,6,9.213244,55.199166
1414916,Møllebakken,6541,7,9.214971,55.199374
1414917,Møllebakken,6541,8,9.213074,55.198933
1414919,Møllebakken,6541,9,9.215261,55.199326
1414920,Møllebakken,6541,11,9.213847,55.199337
1414922,Møllebakken,6541,13,9.213688,55.199074
1414923,Møllebakken,6541,15,9.213549,55.198804
1414924,Møllebakken,6541,17,9.213444,55.198513
1414937,Rosenvænget,6541,1,9.201585,55.199521
1414938,Rosenvænget,6541,2,9.201634,55.199787
1414939,Rosenvænget,6541,3,9.20107,55.199556
1414940,Rosenvænget,6541,4,9.201242,55.199905
1414941,Rosenvænget,6541,5,9.200638,55.199582
1414942,Rosenvænget,6541,6,9.201291,55.20011
1414943,Rosenvænget,6541,7,9.200059,55.19961
1414944,Rosenvænget,6541,8,9.200614,55.2
1414945,Rosenvænget,6541,9,9.199418,55.199648
1414946,Rosenvænget,6541,10,9.200685,55.20026
1414947,Rosenvænget,6541,11,9.199339,55.199458
1414948,Rosenvænget,6541,12,9.200352,55.200463
1414949,Rosenvænget,6541,13,9.198805,55.199466
1414950,Rosenvænget,6541,14,9.200196,55.200233
1414951,Rosenvænget,6541,15,9.198887,55.19965
1414952,Rosenvænget,6541,16,9.200153,55.199988
1414953,Rosenvænget,6541,17,9.198198,55.199759
1414954,Rosenvænget,6541,18,9.199467,55.200035
1414955,Rosenvænget,6541,19,9.198005,55.199534
1414956,Rosenvænget,6541,20,9.199556,55.200356
1414957,Rosenvænget,6541,21,9.197372,55.199471
1414958,Rosenvænget,6541,22,9.199598,55.200581
1414959,Rosenvænget,6541,23,9.197442,55.199674
1414960,Rosenvænget,6541,24,9.199282,55.200788
1414961,Rosenvænget,6541,25,9.197631,55.199846
1414962,Rosenvænget,6541,26,9.199132,55.200617
1414963,Rosenvænget,6541,27,9.196887,55.20003
1414964,Rosenvænget,6541,28,9.199064,55.200367
1414965,Rosenvænget,6541,30,9.198969,55.200028
1414966,Rosenvænget,6541,32,9.19827,55.200183
1414967,Rosenvænget,6541,34,9.198344,55.200451
1414968,Rosenvænget,6541,36,9.198446,55.200713
1414969,Rosenvænget,6541,38,9.198529,55.200935
1414970,Rosenvænget,6541,40,9.198071,55.200963
1414971,Rosenvænget,6541,42,9.198012,55.200823
1414972,Rosenvænget,6541,44,9.19791,55.200563
1414973,Rosenvænget,6541,46,9.197828,55.200297
1414974,Rosenvænget,6541,48,9.197002,55.200404
1414975,Rosenvænget,6541,50,9.197189,55.200709
1414976,Rosenvænget,6541,52,9.197405,55.200964
1414977,Rosenvænget,6541,54,9.197435,55.201216
1414978,Rosenvænget,6541,56,9.196873,55.200996
1414979,Rosenvænget,6541,58,9.196712,55.200796
1414980,Rosenvænget,6541,60,9.196634,55.200523
1416245,Pionervej,6541,1,9.18364,55.206635
1416246,Pionervej,6541,2,9.181864,55.205208
1416247,Pionervej,6541,6,9.179749,55.205927
1416248,Pionervej,6541,8,9.179864,55.204813
1416377,Bevtoftgårdvej,6541,2,9.2058806,55.1913306
1417352,Jægerlundvej,6541,1,9.233551,55.17144
1417353,Jægerlundvej,6541,2,9.227447,55.175087
1417354,Jægerlundvej,6541,3,9.23027,55.171998
1417355,Jægerlundvej,6541,5,9.228081,55.172451
1417356,Jægerlundvej,6541,7,9.222727,55.172775
1417357,Jægerlundvej,6541,9,9.222137,55.171482
1418766,Vestagervej,6541,8,9.1737554,55.1585526
1418769,Vestagervej,6541,12,9.1924378,55.1564936
1418770,Vestagervej,6541,12A,9.1927224,55.1569245
1418771,Vestagervej,6541,13,9.172565,55.159066
1418772,Vestagervej,6541,13A,9.172712,55.159788
1418774,Vestagervej,6541,14,9.1961014,55.1546905
1418775,Vestagervej,6541,15,9.1736965,55.1630457
1418777,Vestagervej,6541,15A,9.1805054,55.1588483
1418779,Vestagervej,6541,16,9.2130476,55.1571962
1418780,Vestagervej,6541,17,9.1816812,55.158559
1418782,Vestagervej,6541,18,9.2152312,55.1575788
1418784,Vestagervej,6541,20,9.2163935,55.1577565
1418786,Vestagervej,6541,21,9.1814835,55.1599431
1418788,Vestagervej,6541,22,9.2170674,55.1575755
1418789,Vestagervej,6541,23,9.1820503,55.1603377
1418792,Vestagervej,6541,25,9.1870644,55.1585419
1418793,Vestagervej,6541,27,9.1938448,55.1585942
1418795,Vestagervej,6541,29,9.193745,55.1606701
1418796,Vestagervej,6541,31,9.1990892,55.159071
1418798,Vestagervej,6541,33,9.2042932,55.1577594
1418800,Vestagervej,6541,35,9.2155305,55.1577939
1418801,Vestagervej,6541,37,9.2164576,55.157999
1418803,Vestagervej,6541,39,9.2168043,55.1582679
1419083,Galstedvej,6541,1,9.209457,55.199181
1419085,Galstedvej,6541,2,9.209254,55.198879
1419087,Galstedvej,6541,3,9.209644,55.19906
1419089,Galstedvej,6541,4,9.208263,55.198586
1419091,Galstedvej,6541,5,9.209889,55.198842
1419093,Galstedvej,6541,7,9.210198,55.198763
1419095,Galstedvej,6541,9,9.21007,55.198641
1419097,Galstedvej,6541,10,9.210155,55.197827
1419099,Galstedvej,6541,12,9.210372,55.197535
1419102,Galstedvej,6541,13,9.210849,55.197661
1419103,Galstedvej,6541,14,9.214878,55.187644
1419105,Galstedvej,6541,15,9.210984,55.197456
1419107,Galstedvej,6541,16,9.214949,55.186808
1419109,Galstedvej,6541,17,9.211161,55.197257
1419110,Galstedvej,6541,18,9.214733,55.184997
1419111,Galstedvej,6541,19,9.211488,55.197048
1419112,Galstedvej,6541,20,9.216285,55.180987
1419113,Galstedvej,6541,21,9.211638,55.196678
1419114,Galstedvej,6541,22,9.216044,55.178213
1419115,Galstedvej,6541,23,9.211846,55.196301
1419116,Galstedvej,6541,23A,9.212551,55.196395
1419117,Galstedvej,6541,25,9.218203,55.190335
1419118,Galstedvej,6541,27,9.216737,55.178972
1419119,Galstedvej,6541,29,9.216609,55.177767
1419159,Mergellandvej,6541,1,9.147567,55.184633
1419160,Mergellandvej,6541,2,9.164031,55.190221
1419161,Mergellandvej,6541,3,9.150377,55.187709
1419162,Mergellandvej,6541,8,9.159179,55.19124
1421220,Neder Jerstalvej,6541,1,9.21126,55.199287
1421222,Neder Jerstalvej,6541,2,9.210875,55.199131
1421223,Neder Jerstalvej,6541,3,9.211798,55.198951
1421225,Neder Jerstalvej,6541,4,9.211369,55.198851
1421226,Neder Jerstalvej,6541,5,9.212282,55.198771
1421227,Neder Jerstalvej,6541,6,9.211674,55.198678
1421228,Neder Jerstalvej,6541,7,9.212791,55.198515
1421229,Neder Jerstalvej,6541,8,9.21203,55.198491
1421230,Neder Jerstalvej,6541,9,9.213248,55.198217
1421231,Neder Jerstalvej,6541,10,9.212269,55.198323
1421232,Neder Jerstalvej,6541,11,9.213548,55.198076
1421233,Neder Jerstalvej,6541,12,9.212497,55.198153
1421234,Neder Jerstalvej,6541,13,9.213785,55.19792
1421235,Neder Jerstalvej,6541,14,9.212807,55.198057
1421236,Neder Jerstalvej,6541,15,9.214091,55.197762
1421237,Neder Jerstalvej,6541,16,9.213,55.197812
1421238,Neder Jerstalvej,6541,17,9.214396,55.197597
1421239,Neder Jerstalvej,6541,18,9.213404,55.19773
1421240,Neder Jerstalvej,6541,19B,9.216923,55.196059
1421241,Neder Jerstalvej,6541,20,9.213644,55.197583
1421242,Neder Jerstalvej,6541,21,9.224483,55.194866
1421243,Neder Jerstalvej,6541,23,9.229318,55.191626
1421244,Neder Jerstalvej,6541,24,9.224782,55.191441
1421245,Neder Jerstalvej,6541,25,9.237403,55.190196
1421246,Neder Jerstalvej,6541,26,9.227546,55.190721
1421248,Neder Jerstalvej,6541,27,9.237208,55.187593
1421249,Neder Jerstalvej,6541,29,9.239094,55.187057
1421253,Neder Jerstalvej,6541,30,9.239637,55.186351
1421257,Neder Jerstalvej,6541,30A,9.241853,55.18142
1421260,Neder Jerstalvej,6541,31,9.244865,55.192199
1421267,Neder Jerstalvej,6541,32,9.243956,55.185004
1421269,Neder Jerstalvej,6541,33,9.242618,55.185775
1421274,Neder Jerstalvej,6541,34,9.246353,55.184489
1421278,Neder Jerstalvej,6541,35,9.245311,55.185191
1422975,Åbøl Østermarksvej,6541,1,9.1479919,55.2113173
1422977,Åbøl Østermarksvej,6541,2,9.1517145,55.2190857
1422978,Åbøl Østermarksvej,6541,3,9.1435752,55.2198774
1422979,Åbøl Østermarksvej,6541,4,9.1474364,55.2226045
1422981,Åbøl Østermarksvej,6541,5,9.144285,55.2248998
1422983,Åbøl Østermarksvej,6541,6,9.1406347,55.2284805
1422984,Åbøl Østermarksvej,6541,7,9.1427949,55.2258271
1422985,Åbøl Østermarksvej,6541,8,9.1345588,55.2310124
1422986,Åbøl Østermarksvej,6541,9A,9.1422302,55.2261872
1422987,Åbøl Østermarksvej,6541,9B,9.1389529,55.2286082
1422989,Åbøl Østermarksvej,6541,11,9.137698,55.229356
1422991,Åbøl Østermarksvej,6541,13,9.1341018,55.2307074
1429952,Tirslund Sognevej,6541,1,9.1646367,55.2042329
1429956,Tirslund Sognevej,6541,2,9.1596928,55.2095503
1429958,Tirslund Sognevej,6541,3,9.1573061,55.2100566
1429959,Tirslund Sognevej,6541,4,9.1569161,55.210776
1429964,Tirslund Sognevej,6541,6,9.1555359,55.2114787
1429971,Tirslund Sognevej,6541,8,9.1549244,55.2118479
1429978,Tirslund Sognevej,6541,12,9.1390477,55.2152278
1430663,Egegårdsvej,6541,1,9.179041,55.2164
1430667,Egegårdsvej,6541,2,9.179712,55.217535
1430791,Bevtoftvej,6541,19,9.134041,55.2032639
1430793,Bevtoftvej,6541,21,9.134342,55.2040004
1430795,Bevtoftvej,6541,23,9.13857,55.204319
1430796,Bevtoftvej,6541,25,9.1405032,55.2045417
1430797,Bevtoftvej,6541,26,9.1369642,55.2034943
1430798,Bevtoftvej,6541,27,9.1429303,55.2065877
1430799,Bevtoftvej,6541,28,9.136888,55.199558
1430800,Bevtoftvej,6541,28B,9.137829,55.194552
1430801,Bevtoftvej,6541,29,9.162763,55.2032919
1430802,Bevtoftvej,6541,30,9.1531958,55.2036817
1430803,Bevtoftvej,6541,32,9.1527614,55.2010313
1430804,Bevtoftvej,6541,34,9.169716,55.201726
1430805,Bevtoftvej,6541,38,9.17813,55.195467
1430806,Bevtoftvej,6541,40,9.177931,55.193998
1430807,Bevtoftvej,6541,42,9.182945,55.194745
1431610,Krügersvej,6541,1,9.21347,55.199658
1431611,Krügersvej,6541,2,9.214335,55.201164
1431612,Krügersvej,6541,3,9.212909,55.199524
1431613,Krügersvej,6541,4,9.213326,55.200116
1431614,Krügersvej,6541,4A,9.213154,55.200304
1431615,Krügersvej,6541,5,9.212632,55.199475
1431616,Krügersvej,6541,6,9.213059,55.200013
1431618,Krügersvej,6541,7,9.211797,55.199437
1431619,Krügersvej,6541,8,9.212724,55.199935
1431621,Krügersvej,6541,9,9.210917,55.199475
1431625,Krügersvej,6541,10,9.212447,55.199879
1431627,Krügersvej,6541,11,9.210249,55.199475
1431629,Krügersvej,6541,12,9.21214,55.199853
1431631,Krügersvej,6541,13,9.210001,55.199459
1431635,Krügersvej,6541,14,9.211856,55.199809
1431637,Krügersvej,6541,15,9.209724,55.199445
1431640,Krügersvej,6541,16,9.211592,55.199744
1431641,Krügersvej,6541,17,9.20924,55.199451
1431644,Krügersvej,6541,18,9.211324,55.19989
1431645,Krügersvej,6541,18A,9.211421,55.200098
1431646,Krügersvej,6541,19,9.208822,55.199454
1431647,Krügersvej,6541,20,9.211112,55.199734
1431649,Krügersvej,6541,21,9.208556,55.19946
1431651,Krügersvej,6541,23,9.20828,55.199463
1431652,Krügersvej,6541,24,9.210351,55.199692
1431653,Krügersvej,6541,25,9.208069,55.199313
1431654,Krügersvej,6541,26,9.209709,55.19978
1431655,Krügersvej,6541,27,9.207755,55.199471
1431656,Krügersvej,6541,28,9.209103,55.199824
1431657,Krügersvej,6541,29,9.207477,55.199457
1431658,Krügersvej,6541,30A,9.2077921,55.1996028
1431659,Krügersvej,6541,30B,9.208095,55.1997
1431660,Krügersvej,6541,30C,9.207883,55.199695
1431661,Krügersvej,6541,31,9.206979,55.199405
1431662,Krügersvej,6541,31A,9.207215,55.19935
1431663,Krügersvej,6541,32,9.207491,55.199616
1431664,Krügersvej,6541,33,9.206629,55.199417
1431665,Krügersvej,6541,34,9.206818,55.199589
1431666,Krügersvej,6541,35,9.206432,55.199377
1431667,Krügersvej,6541,36,9.207019,55.200037
1431668,Krügersvej,6541,37,9.20593,55.199368
1431669,Krügersvej,6541,38,9.206359,55.199668
1431670,Krügersvej,6541,38A,9.206133,55.199637
1431671,Krügersvej,6541,39,9.20555,55.199304
1431672,Krügersvej,6541,40,9.205819,55.199551
1431673,Krügersvej,6541,42,9.205149,55.200006
1431674,Krügersvej,6541,44,9.205226,55.199457
1431675,Krügersvej,6541,45,9.202685,55.198614
1431677,Krügersvej,6541,46,9.20419,55.199453
1431678,Krügersvej,6541,46A,9.203595,55.199596
1431680,Krügersvej,6541,47,9.202189,55.198849
1431682,Krügersvej,6541,48,9.203512,55.199864
1431683,Krügersvej,6541,49,9.201775,55.19883
1431686,Krügersvej,6541,50,9.201663,55.199219
1431687,Krügersvej,6541,51,9.201385,55.198817
1431689,Krügersvej,6541,52,9.201327,55.199183
1431690,Krügersvej,6541,53,9.201004,55.198794
1431693,Krügersvej,6541,54,9.20095,55.199163
1431695,Krügersvej,6541,55,9.200483,55.198772
1431697,Krügersvej,6541,55A,9.200397,55.198426
1431699,Krügersvej,6541,56,9.200594,55.199149
1431700,Krügersvej,6541,57,9.200067,55.198753
1431701,Krügersvej,6541,58,9.20024,55.19913
1431702,Krügersvej,6541,59,9.199785,55.198739
1431703,Krügersvej,6541,60,9.199882,55.199108
1431705,Krügersvej,6541,61,9.199498,55.198724
1431706,Krügersvej,6541,62,9.199481,55.199138
1431707,Krügersvej,6541,63,9.19919,55.198708
1431709,Krügersvej,6541,64,9.198957,55.199069
1431711,Krügersvej,6541,65,9.198913,55.198694
1431712,Krügersvej,6541,66,9.198512,55.19901
1431713,Krügersvej,6541,67,9.198061,55.198647
1431715,Krügersvej,6541,68,9.198235,55.19903
1431716,Krügersvej,6541,69,9.197781,55.198629
1431718,Krügersvej,6541,70,9.197783,55.198961
1431720,Krügersvej,6541,71,9.197871,55.198239
2109561,Galstedvej,6541,26,9.2126791,55.1675759
2109567,Galstedvej,6541,28,9.2116211,55.1663916
2109572,Galstedvej,6541,30,9.213807,55.164231
2109584,Galstedvej,6541,30B,9.2152035,55.1611913
2109589,Galstedvej,6541,32,9.215202,55.1609127
2109592,Galstedvej,6541,34,9.214869,55.1602663
2109599,Galstedvej,6541,35,9.2151643,55.1713997
2109601,Galstedvej,6541,36,9.2152887,55.1595197
2109603,Galstedvej,6541,37,9.2161694,55.1598506
2109619,Galstedvej,6541,38,9.2154745,55.1590521
2109625,Galstedvej,6541,39,9.216147,55.158691
2109630,Galstedvej,6541,40,9.2155835,55.1588812
2109634,Galstedvej,6541,41,9.2162552,55.1582959
2109637,Galstedvej,6541,42,9.2158019,55.1586382
2109660,Galstedvej,6541,44,9.2156589,55.1583239
2113372,Lille Åbølvej,6541,2,9.130985,55.219123
2113377,Lille Åbølvej,6541,6,9.12798,55.219221
2113824,Mergellandvej,6541,9,9.1503693,55.1957954
2113841,Mergellandvej,6541,10,9.1477444,55.2081455
2113846,Mergellandvej,6541,11,9.1462585,55.2014616
2113861,Mergellandvej,6541,13,9.145634,55.2068541
2161525,Kreiselvej,6541,2,9.144614,55.230403
2191480,Birkevænget,6541,75A,9.208364,55.195503
2229899,Hjartbro Byvej,6541,18B,9.179009,55.208461
2229900,Hjartbro Byvej,6541,28,9.163545,55.21998
2229930,Tirslundvej,6541,10A,9.145521,55.210314
2229975,Hyrupvej,6541,37A,9.191211,55.179345
2229976,Hyrupvej,6541,37C,9.173356,55.175537
2229977,Hyrupvej,6541,37D,9.185357,55.177213
2229978,Hyrupvej,6541,41B,9.168639,55.177991
2230018,Over Jerstalvej,6541,219,9.225605,55.160292
2230019,Over Jerstalvej,6541,219A,9.236407,55.160936
2230038,Vestagervej,6541,19,9.181291,55.158955
2230106,Krügersvej,6541,42B,9.205521,55.199475
2239273,Diagonalvej,6541,2C,9.206469,55.195114
2239274,Diagonalvej,6541,2D,9.2064155,55.1952885
