idx,street,postcode,housenumber,lon,lat
543927,Asbo Byvej,6622,2,9.113774,55.552915
543928,Asbo Byvej,6622,3,9.113529,55.553072
543929,Asbo Byvej,6622,4,9.114147,55.553043
543930,Asbo Byvej,6622,5,9.113783,55.553432
543931,Asbo Byvej,6622,7,9.1134,55.553514
543932,Asbo Byvej,6622,8,9.1146319,55.553625
543933,Asbo Byvej,6622,9,9.1124645,55.553581
543934,Asbo Byvej,6622,10,9.1148756,55.5539411
543935,Asbo Byvej,6622,11,9.113061,55.554088
543936,Asbo Byvej,6622,15,9.113666,55.553767
543937,Asbo Byvej,6622,16,9.11542,55.55446
543938,Asbo Byvej,6622,17,9.1143102,55.5542004
543939,Asbo Byvej,6622,18,9.117208,55.555311
543940,Asbo Byvej,6622,20,9.119106,55.554212
543941,Asbo Byvej,6622,22,9.118154,55.555852
543942,Asbo Byvej,6622,24,9.120965,55.554656
543943,Asbo Byvej,6622,28,9.124418,55.556769
543944,Asbo Byvej,6622,30,9.127094,55.556447
543945,Asbo Byvej,6622,32,9.123314,55.557745
543946,Asbogårdvej,6622,1,9.106491,55.554674
543947,Asbogårdvej,6622,2,9.1112046,55.556262
543948,Asbogårdvej,6622,3,9.098215,55.559708
543989,Asbovej,6622,51,9.112383,55.54473
543992,Asbovej,6622,56,9.113754,55.546572
543993,Asbovej,6622,58,9.116614,55.549928
543994,Asbovej,6622,60,9.113854,55.551174
544090,Asserholtvej,6622,1,9.132207,55.543088
544091,Asserholtvej,6622,2,9.113571,55.552386
544092,Asserholtvej,6622,3,9.13661,55.544175
544093,Asserholtvej,6622,4,9.126348,55.543778
544094,Asserholtvej,6622,5,9.139728,55.54678
544095,Asserholtvej,6622,6,9.128079,55.543481
544096,Asserholtvej,6622,7,9.142196,55.540046
544097,Asserholtvej,6622,8,9.12909,55.543345
544098,Asserholtvej,6622,9,9.147465,55.541968
544099,Asserholtvej,6622,10,9.141907,55.53841
544100,Asserholtvej,6622,11,9.1488453,55.5375836
544295,Baunevej,6622,1,9.1404899,55.5708761
544296,Baunevej,6622,2,9.1411615,55.5708807
544297,Baunevej,6622,3,9.1406911,55.5710475
544298,Baunevej,6622,4,9.1412876,55.5712095
544299,Baunevej,6622,5,9.1408336,55.5711786
544300,Baunevej,6622,7,9.140993,55.5713141
544301,Baunevej,6622,8,9.1424582,55.5716502
544302,Baunevej,6622,9,9.141209,55.571471
544303,Baunevej,6622,10,9.1425678,55.5716267
544304,Baunevej,6622,11,9.1409184,55.5715406
544305,Baunevej,6622,12,9.1427022,55.5715996
544306,Baunevej,6622,14,9.1428274,55.5715743
544307,Baunevej,6622,15,9.1414497,55.5716568
544308,Baunevej,6622,16,9.1429529,55.5715472
544309,Baunevej,6622,17,9.1421923,55.5721969
544310,Baunevej,6622,18,9.143071,55.571526
544311,Baunevej,6622,20,9.1424164,55.5713986
544312,Baunevej,6622,22,9.1425175,55.5713769
544313,Baunevej,6622,24,9.1426224,55.5713552
544314,Baunevej,6622,26,9.142738,55.5713326
544315,Baunevej,6622,28,9.1428353,55.5713128
544316,Baunevej,6622,30,9.1429361,55.5712956
544317,Baunevej,6622,32,9.1423112,55.5712182
544318,Baunevej,6622,34,9.1424156,55.5711983
544319,Baunevej,6622,36,9.142519,55.571178
544320,Baunevej,6622,38,9.1426215,55.5711594
544321,Baunevej,6622,40,9.1427266,55.5711395
544322,Baunevej,6622,42,9.1428183,55.5711188
544323,Baunevej,6622,44,9.14204,55.5709551
544324,Baunevej,6622,46,9.1421669,55.5709316
544325,Baunevej,6622,48,9.1422815,55.5709117
544326,Baunevej,6622,50,9.1424166,55.5708864
544327,Baunevej,6622,52,9.1425418,55.5708612
544328,Baunevej,6622,54,9.1426581,55.5708386
544329,Baunevej,6622,56,9.1425961,55.5720859
544690,Bækkegård,6622,2,9.1320635,55.5667962
544691,Bækkegård,6622,4,9.1324579,55.566714
544692,Bækkegård,6622,6,9.1318877,55.5664855
544693,Bækkegård,6622,8,9.132308,55.5663817
544694,Bækkegård,6622,10,9.1327637,55.5662823
544695,Bækkegård,6622,12,9.133143,55.5662218
544696,Bækkegård,6622,14,9.133084,55.5664626
544697,Bækkegård,6622,16,9.1332227,55.5666737
544698,Bækkegård,6622,18,9.1333957,55.5668801
544699,Bækkegård,6622,20,9.1338262,55.5671026
544700,Bækkegård,6622,22,9.1333979,55.5671766
544701,Bækkegård,6622,24,9.1329548,55.5671807
544702,Bækkegård,6622,26,9.1324165,55.5672873
544703,Bækkegård,6622,28,9.1327616,55.5670066
544704,Bækkegård,6622,30,9.1322904,55.5670439
544705,Bækkegård,6622,37,9.1313968,55.5675481
544706,Bækkegård,6622,39,9.130927,55.567659
544707,Bækkegård,6622,41,9.130606,55.567745
544708,Bækkegård,6622,43,9.1306161,55.5678715
544709,Bækkegård,6622,45,9.130918,55.568108
544710,Bækkegård,6622,47,9.1309055,55.5682567
544711,Bækkegård,6622,49,9.13124,55.568628
544712,Bækkegård,6622,69,9.1321519,55.5679687
544713,Bækkegård,6622,71,9.1317514,55.5680257
544714,Bækkegård,6622,73,9.131995,55.567811
545108,Dansebjergvej,6622,1,9.169907,55.580402
545109,Dansebjergvej,6622,2,9.192605,55.584669
545110,Dansebjergvej,6622,3,9.181075,55.583643
545111,Dansebjergvej,6622,4,9.195194,55.58683
545112,Dansebjergvej,6622,5,9.180436,55.582846
545113,Dansebjergvej,6622,7,9.196311,55.588987
545327,Elmeallé,6622,1,9.1388772,55.5699219
545328,Elmeallé,6622,2,9.1380903,55.5699911
545329,Elmeallé,6622,3,9.1391197,55.5698489
545330,Elmeallé,6622,5,9.1393529,55.5697776
545331,Elmeallé,6622,6,9.1383458,55.5699019
545332,Elmeallé,6622,7,9.1399613,55.569635
545333,Elmeallé,6622,8,9.1385834,55.5698234
545334,Elmeallé,6622,9,9.1401727,55.5695395
545335,Elmeallé,6622,10,9.1387833,55.5697613
545336,Elmeallé,6622,10A,9.1385182,55.5694389
545337,Elmeallé,6622,11,9.1403628,55.569479
545338,Elmeallé,6622,12,9.13885,55.569426
545339,Elmeallé,6622,13,9.1406959,55.5693771
545340,Elmeallé,6622,14,9.1390244,55.5696432
545341,Elmeallé,6622,15,9.1408686,55.5693266
545342,Elmeallé,6622,16,9.1393341,55.5694892
545343,Elmeallé,6622,18,9.1396104,55.5693174
545344,Elmeallé,6622,20,9.1398586,55.5694248
545345,Elmeallé,6622,22,9.1400382,55.5693644
545346,Elmeallé,6622,24,9.1404715,55.5692309
545347,Elmeallé,6622,26,9.1407734,55.5691398
545348,Elmeallé,6622,28,9.1409704,55.5690569
545515,Fitting Stationsvej,6622,11,9.1343006,55.6082954
545516,Fitting Stationsvej,6622,11A,9.1331891,55.6078814
545517,Fitting Stationsvej,6622,13,9.132763,55.607627
545518,Fittingvej,6622,45,9.201255,55.613845
545519,Fittingvej,6622,49,9.205313,55.615232
545520,Fittingvej,6622,54,9.196536,55.611963
545521,Fittingvej,6622,57,9.206969,55.610983
545522,Fittingvej,6622,58,9.2069618,55.6103769
545523,Fittingvej,6622,59,9.2073738,55.6105442
545524,Fittingvej,6622,60,9.208451,55.609629
545525,Fittingvej,6622,61,9.2078012,55.6103386
545526,Fittingvej,6622,63,9.208187,55.610156
545527,Fittingvej,6622,69,9.208628,55.6100416
545528,Fittingvej,6622,71,9.2088928,55.6097167
545529,Fittingvej,6622,73,9.209338,55.6095309
545530,Fittingvej,6622,77,9.2099078,55.6092253
545531,Fittingvej,6622,79,9.2102284,55.6090549
545624,Fredsholmvej,6622,1B,9.14423,55.573266
545625,Fredsholmvej,6622,5,9.1451662,55.57341
545843,Gispel Mosevej,6622,1,9.110308,55.582868
545844,Gispel Mosevej,6622,3,9.105599,55.583194
545845,Gispel Mosevej,6622,5,9.093815,55.587384
546152,Hamborggårdvej,6622,1,9.147623,55.587687
546153,Hamborggårdvej,6622,2,9.1433025,55.5725649
546154,Hamborggårdvej,6622,3,9.152767,55.58901
546155,Hamborggårdvej,6622,4,9.1434194,55.5727777
546156,Hamborggårdvej,6622,4A,9.149293,55.581833
546157,Hamborggårdvej,6622,5,9.15198,55.592484
546158,Hamborggårdvej,6622,6,9.153614,55.586021
546159,Hamborggårdvej,6622,7,9.153705,55.593156
546170,Hejnsvigvej,6622,1,9.160112,55.587328
546171,Hejnsvigvej,6622,2,9.161942,55.586081
546172,Hejnsvigvej,6622,3,9.149805,55.598681
546173,Hejnsvigvej,6622,4,9.158616,55.589831
546174,Hejnsvigvej,6622,5,9.1443439,55.6007792
546175,Hejnsvigvej,6622,6,9.156623,55.593054
546176,Hejnsvigvej,6622,6A,9.159122,55.606973
546177,Hejnsvigvej,6622,7,9.141916,55.602014
546178,Hejnsvigvej,6622,8,9.134745,55.606154
546179,Hejnsvigvej,6622,9,9.138239,55.603825
546180,Hejnsvigvej,6622,10,9.1326941,55.6071371
546181,Hejnsvigvej,6622,11,9.1318079,55.6070203
546182,Hejnsvigvej,6622,12,9.1323291,55.6073082
546309,Hærvejen,6622,2,9.188688,55.609961
546310,Hærvejen,6622,4,9.190658,55.615294
546344,Høghøjvej,6622,1,9.171771,55.6035546
546345,Høghøjvej,6622,4,9.1697957,55.6044604
546346,Høghøjvej,6622,6,9.167716,55.604939
546347,Høghøjvej,6622,8,9.166053,55.605298
546348,Høghøjvej,6622,10,9.163048,55.605482
546381,Industrivej,6622,1,9.1463573,55.5710671
546382,Industrivej,6622,2,9.1466514,55.5712895
546383,Industrivej,6622,3,9.1459612,55.5712858
546384,Industrivej,6622,4,9.145839,55.571706
546385,Industrivej,6622,5,9.1453036,55.5715579
546386,Industrivej,6622,11,9.1435426,55.5721629
546387,Industrivej,6622,12,9.1437134,55.5724188
546388,Industrivej,6622,13,9.1429182,55.5722859
546389,Industrivej,6622,16,9.1440333,55.5727006
546696,Klebækvej,6622,3,9.139912,55.57818
546697,Klebækvej,6622,5,9.1410291,55.5815003
546698,Klebækvej,6622,7,9.142825,55.581295
546699,Klebækvej,6622,9,9.14434,55.583155
546700,Klostergade,6622,1,9.147668,55.570828
546701,Klostergade,6622,3,9.147987,55.570759
546702,Klostergade,6622,4,9.1478587,55.570535
546703,Klostergade,6622,5,9.148268,55.570697
546704,Klostergade,6622,6,9.149809,55.567845
546705,Klostergade,6622,7,9.148549,55.570631
546706,Klostergade,6622,8,9.15022,55.567221
546707,Klostergade,6622,8A,9.147405,55.566161
546708,Klostergade,6622,11,9.149419,55.570316
546709,Klostergade,6622,13,9.1495053,55.5700775
546710,Klostergade,6622,14,9.153643,55.561654
546711,Klostergade,6622,14A,9.153353,55.560555
546712,Klostergade,6622,15,9.150503,55.567364
546713,Klostergade,6622,16,9.151021,55.560016
546714,Klostergade,6622,17,9.152957,55.56605
546715,Klostergade,6622,18,9.154382,55.559004
546716,Klostergade,6622,19,9.154373,55.565449
546814,Kragelundvej,6622,1,9.1528491,55.5738464
546815,Kragelundvej,6622,2,9.1529896,55.5736009
546816,Kragelundvej,6622,4,9.156968,55.572813
546817,Kragelundvej,6622,5,9.1552344,55.5740474
546818,Kragelundvej,6622,6,9.171285,55.578355
546819,Kragelundvej,6622,7,9.156274,55.574162
546820,Kragelundvej,6622,8,9.173301,55.5774104
546821,Kragelundvej,6622,8A,9.172421,55.577887
546822,Kragelundvej,6622,9,9.161804,55.576017
546823,Kragelundvej,6622,9A,9.168451,55.578543
546824,Kragelundvej,6622,10,9.176388,55.575443
546825,Kragelundvej,6622,11,9.169018,55.578675
546826,Kragelundvej,6622,13,9.169566,55.578978
546827,Kragelundvej,6622,14,9.174388,55.577675
546828,Kragelundvej,6622,15,9.1685745,55.5792112
546829,Kragelundvej,6622,16,9.172214,55.578492
546830,Kragelundvej,6622,17,9.16749,55.579626
546831,Kragelundvej,6622,19,9.169698,55.579179
546832,Kragelundvej,6622,21,9.170236,55.579224
547070,Lindeparken,6622,1,9.1340675,55.5676854
547071,Lindeparken,6622,2,9.1351487,55.5681101
547072,Lindeparken,6622,3,9.134324,55.5675889
547073,Lindeparken,6622,4,9.1350097,55.5681381
547074,Lindeparken,6622,5,9.1341817,55.5673779
547075,Lindeparken,6622,6,9.134834,55.568181
547076,Lindeparken,6622,7,9.1340371,55.5671858
547077,Lindeparken,6622,8,9.1346898,55.5682077
547078,Lindeparken,6622,9,9.1337504,55.5672499
547079,Lindeparken,6622,10,9.1345541,55.5682626
547080,Lindeparken,6622,11,9.1334312,55.5673186
547081,Lindeparken,6622,12,9.1344899,55.5681782
547082,Lindeparken,6622,13,9.133099,55.567498
547083,Lindeparken,6622,14,9.1344229,55.5680759
547084,Lindeparken,6622,15,9.132677,55.567582
547085,Lindeparken,6622,16,9.1343635,55.5679996
547086,Lindeparken,6622,18,9.134504,55.567966
547087,Lindeparken,6622,19,9.132702,55.567816
547088,Lindeparken,6622,20,9.134648,55.567937
547089,Lindeparken,6622,21,9.132903,55.568092
547090,Lindeparken,6622,22,9.134813,55.567882
547091,Lindeparken,6622,23,9.1330516,55.5682876
547092,Lindeparken,6622,24,9.134955,55.567852
547093,Lindeparken,6622,25A,9.13321,55.56849
547094,Lindeparken,6622,25B,9.1332715,55.5685812
547095,Lindeparken,6622,26,9.135377,55.567946
547096,Lindeparken,6622,27,9.1336469,55.5684559
547097,Lindeparken,6622,28A,9.133897,55.568022
547098,Lindeparken,6622,28B,9.133851,55.567955
547099,Lindeparken,6622,28C,9.133812,55.567897
547100,Lindeparken,6622,29,9.1340365,55.568371
547101,Lindeparken,6622,30,9.1336356,55.5676616
547102,Lindeparken,6622,36A,9.133252,55.568011
547103,Lindeparken,6622,36B,9.133297,55.568078
547104,Lindeparken,6622,36C,9.133342,55.568145
547105,Lindeparken,6622,38A,9.133647,55.568198
547106,Lindeparken,6622,38B,9.133732,55.568179
547175,Lunderskovvej,6622,10,9.206581,55.569706
547177,Lunderskovvej,6622,12,9.207782,55.5718475
547179,Lunderskovvej,6622,14,9.209778,55.577467
547181,Lunderskovvej,6622,16,9.203338,55.577947
547182,Lunderskovvej,6622,16A,9.203664,55.570533
547183,Lunderskovvej,6622,17,9.2081803,55.5677523
547184,Lunderskovvej,6622,18,9.201303,55.570947
547185,Lunderskovvej,6622,19,9.2069586,55.5669918
547186,Lunderskovvej,6622,20,9.191076,55.573131
547187,Lunderskovvej,6622,21,9.205226,55.569502
547188,Lunderskovvej,6622,22,9.1891221,55.5736547
547189,Lunderskovvej,6622,23,9.200469,55.56869
547190,Lunderskovvej,6622,25,9.192698,55.571322
547191,Lunderskovvej,6622,27,9.189557,55.573098
547192,Lunderskovvej,6622,27A,9.187459,55.573396
547193,Lunderskovvej,6622,32,9.164329,55.583745
547194,Lunderskovvej,6622,34,9.163175,55.584743
547195,Lunderskovvej,6622,36,9.162704,55.585171
547196,Lunderskovvej,6622,39,9.163897,55.58156
547197,Lunderskovvej,6622,41,9.162869,55.584488
547369,Læborgvej,6622,19,9.086599,55.541771
547384,Læborgvej,6622,46,9.090803,55.539864
547385,Læborgvej,6622,48,9.086031,55.542859
547386,Læborgvej,6622,50,9.085146,55.545994
547387,Læborgvej,6622,52,9.080912,55.54647
547543,Margretenborgvej,6622,1,9.193929,55.599634
547544,Margretenborgvej,6622,2,9.190015,55.6031889
547545,Margretenborgvej,6622,3,9.198739,55.597338
547546,Margretenborgvej,6622,4,9.1932842,55.5995824
547547,Margretenborgvej,6622,5,9.2042401,55.5929
547549,Margretenborgvej,6622,8,9.195604,55.597184
547551,Margretenborgvej,6622,10,9.199018,55.59439
547723,Moesgårdvej,6622,1,9.1874431,55.5773148
547724,Moesgårdvej,6622,2,9.189775,55.575507
547725,Moesgårdvej,6622,3,9.185286,55.580906
547726,Moesgårdvej,6622,4,9.194757,55.578533
547727,Moesgårdvej,6622,6,9.194499,55.580743
547728,Moesgårdvej,6622,8,9.193935,55.581317
547874,Mosevej,6622,1,9.218731,55.6081757
547882,Møllegårdsvej,6622,1,9.140399,55.572251
547883,Møllegårdsvej,6622,2,9.1402602,55.5720706
547884,Møllegårdsvej,6622,3,9.140774,55.572176
547885,Møllegårdsvej,6622,4,9.140727,55.571985
547886,Møllegårdsvej,6622,5,9.141518,55.57203
547887,Møllegårdsvej,6622,6,9.141052,55.571921
547888,Møllegårdsvej,6622,7,9.141882,55.571958
547889,Møllegårdsvej,6622,8,9.141391,55.571856
547910,Møllevej,6622,1,9.139183,55.572903
547911,Møllevej,6622,2,9.139412,55.573053
547912,Møllevej,6622,3,9.138859,55.572967
547913,Møllevej,6622,4,9.139112,55.573113
547914,Møllevej,6622,5,9.138534,55.573032
547915,Møllevej,6622,6,9.13869,55.573198
547916,Møllevej,6622,7,9.137585,55.5726856
547917,Møllevej,6622,8,9.1383462,55.5732661
547918,Møllevej,6622,9,9.138081,55.573158
547919,Møllevej,6622,10,9.138008,55.573365
547920,Møllevej,6622,12,9.137729,55.573421
547921,Møllevej,6622,13,9.137484,55.573184
547922,Møllevej,6622,14,9.137356,55.573464
547923,Møllevej,6622,15,9.1371372,55.5730572
547924,Møllevej,6622,16,9.13708,55.573531
547925,Møllevej,6622,17,9.1369728,55.573326
547926,Møllevej,6622,18,9.136712,55.573621
547927,Møllevej,6622,19,9.136687,55.573357
547928,Møllevej,6622,20,9.136344,55.57369
547929,Møllevej,6622,21,9.136439,55.57346
547930,Møllevej,6622,23,9.136083,55.573335
547931,Møllevej,6622,25,9.135635,55.573357
547932,Møllevej,6622,26,9.135879,55.574308
547933,Møllevej,6622,27,9.135475,55.573646
547934,Møllevej,6622,27A,9.135213,55.573445
547935,Møllevej,6622,28,9.135177,55.573927
547936,Møllevej,6622,29,9.135035,55.573721
547937,Møllevej,6622,31,9.13472,55.573779
547938,Møllevej,6622,32,9.1345917,55.5740879
547939,Møllevej,6622,33,9.134364,55.573838
547940,Møllevej,6622,34,9.134389,55.574251
547941,Møllevej,6622,35,9.134082,55.57385
547942,Møllevænget,6622,2,9.135231,55.571177
547943,Møllevænget,6622,3,9.134734,55.571674
547944,Møllevænget,6622,5,9.1348555,55.5720919
548008,Nedre Kragelundvej,6622,1,9.186349,55.567315
548009,Nedre Kragelundvej,6622,2,9.18548,55.572997
548010,Nedre Kragelundvej,6622,3,9.186368,55.572467
548011,Nedre Kragelundvej,6622,5,9.182354,55.567617
548012,Nedre Kragelundvej,6622,7,9.17587,55.572998
548013,Nedre Kragelundvej,6622,9,9.16591,55.573767
548178,Nørregade,6622,1,9.139481,55.57057
548179,Nørregade,6622,2,9.1395324,55.5703588
548180,Nørregade,6622,3,9.1398509,55.5705606
548181,Nørregade,6622,4,9.139687,55.57037
548182,Nørregade,6622,5,9.1406463,55.5705067
548183,Nørregade,6622,6,9.139995,55.570386
548184,Nørregade,6622,7A,9.141024,55.570541
548185,Nørregade,6622,8,9.140208,55.570372
548186,Nørregade,6622,9A,9.141353,55.570504
548187,Nørregade,6622,9B,9.141457,55.570577
548188,Nørregade,6622,9C,9.1415135,55.5706414
548189,Nørregade,6622,10,9.140437,55.570359
548190,Nørregade,6622,11,9.141685,55.570485
548191,Nørregade,6622,12,9.1405874,55.5703477
548192,Nørregade,6622,13,9.14206,55.570457
548193,Nørregade,6622,14,9.140747,55.570335
548194,Nørregade,6622,16,9.14104,55.57033
548195,Nørregade,6622,17,9.1428436,55.5704313
548196,Nørregade,6622,18,9.141382,55.570307
548197,Nørregade,6622,19,9.1433488,55.5703759
548198,Nørregade,6622,20,9.141755,55.570283
548199,Nørregade,6622,21,9.1437529,55.570353
548200,Nørregade,6622,24A,9.1428967,55.5701843
548201,Nørregade,6622,24B,9.1428982,55.5701392
548202,Nørregade,6622,24C,9.142895,55.570079
548203,Nørregade,6622,24D,9.1428699,55.5700315
548204,Nørregade,6622,24E,9.1428719,55.5699686
548205,Nørregade,6622,24F,9.1428577,55.5699147
548206,Nørregade,6622,25,9.144278,55.570316
548207,Nørregade,6622,26A,9.1433901,55.5701342
548208,Nørregade,6622,26B,9.1433807,55.5700839
548209,Nørregade,6622,26C,9.1433645,55.5700246
548210,Nørregade,6622,26D,9.143358,55.569973
548211,Nørregade,6622,26E,9.1433531,55.5699195
548212,Nørregade,6622,26F,9.1433419,55.5698683
548213,Nørregade,6622,27,9.14458,55.570327
548214,Nørregade,6622,28,9.1438301,55.5700402
548215,Nørregade,6622,30,9.1442235,55.5699778
548216,Nørregade,6622,31,9.1458298,55.5705716
548217,Nørregade,6622,32,9.1447242,55.5700706
548218,Nørregade,6622,33,9.146062,55.5707169
548219,Nørregade,6622,34,9.146771,55.570348
548220,Nørregade,6622,35,9.146274,55.570828
548221,Nørregade,6622,36,9.147271,55.571028
548222,Nørregade,6622,37,9.147153,55.571346
548223,Nørregade,6622,38,9.1480664,55.5710514
548224,Nørregade,6622,39,9.147311,55.57147
548225,Nørregade,6622,40,9.1476606,55.5712101
548226,Nørregade,6622,41,9.147383,55.5717
548227,Nørregade,6622,42,9.149439,55.57214
548228,Nørregade,6622,43,9.148244,55.572073
548229,Nørregade,6622,46,9.149891,55.57253
548230,Nørregade,6622,48,9.1502104,55.5726231
548231,Nørregade,6622,50,9.150341,55.5727
548232,Nørregade,6622,52,9.150497,55.572828
548233,Nørregade,6622,54,9.150679,55.5729343
548234,Nørregade,6622,56,9.150855,55.573035
548235,Nørregade,6622,58,9.151064,55.573217
548236,Nørregade,6622,60,9.151718,55.573462
548281,Petreavej,6622,1,9.140142,55.573086
548282,Petreavej,6622,2,9.140237,55.57278
548283,Petreavej,6622,3,9.140432,55.572927
548284,Petreavej,6622,4,9.140716,55.572651
548285,Petreavej,6622,5,9.1409074,55.5728346
548286,Petreavej,6622,6,9.1409936,55.5725406
548287,Petreavej,6622,8,9.141311,55.572567
548288,Petreavej,6622,9,9.1415777,55.5728059
548289,Petreavej,6622,10,9.141558,55.572524
548290,Petreavej,6622,11,9.141869,55.572866
548291,Petreavej,6622,14,9.142239,55.572439
548292,Petreavej,6622,15,9.142606,55.572696
548293,Pilealle,6622,1,9.143483,55.570759
548387,Ribe-Vejle Landevej,6622,6,9.097144,55.545483
548389,Ribe-Vejle Landevej,6622,8,9.101258,55.548078
548391,Ribe-Vejle Landevej,6622,10,9.105811,55.550391
548393,Ribe-Vejle Landevej,6622,12,9.127565,55.561205
548396,Ribe-Vejle Landevej,6622,16,9.128137,55.561611
548398,Ribe-Vejle Landevej,6622,18,9.12846,55.561675
548401,Ribe-Vejle Landevej,6622,22,9.128519,55.561881
548402,Ribe-Vejle Landevej,6622,24,9.129692,55.562689
548403,Ribe-Vejle Landevej,6622,25,9.118181,55.557614
548404,Ribe-Vejle Landevej,6622,26,9.129966,55.562942
548405,Ribe-Vejle Landevej,6622,27,9.127998,55.562139
548406,Ribe-Vejle Landevej,6622,28,9.130565,55.563348
548407,Ribe-Vejle Landevej,6622,29,9.128112,55.5624
548408,Ribe-Vejle Landevej,6622,30,9.131006,55.563614
548409,Ribe-Vejle Landevej,6622,31,9.128547,55.562522
548410,Ribe-Vejle Landevej,6622,32,9.134386,55.565964
548411,Ribe-Vejle Landevej,6622,33,9.128772,55.562702
548412,Ribe-Vejle Landevej,6622,35,9.129619,55.563153
548413,Ribe-Vejle Landevej,6622,37,9.130112,55.563678
548414,Ribe-Vejle Landevej,6622,39,9.124423,55.564767
548415,Ribe-Vejle Landevej,6622,47,9.15196,55.575954
548416,Ribe-Vejle Landevej,6622,49,9.1522776,55.5741858
548417,Ribe-Vejle Landevej,6622,51,9.1525687,55.5743499
548418,Ribe-Vejle Landevej,6622,54,9.1631245,55.5856882
548419,Ribe-Vejle Landevej,6622,55,9.159813,55.583086
548420,Ribe-Vejle Landevej,6622,56,9.173321,55.590322
548421,Ribe-Vejle Landevej,6622,57,9.167332,55.593314
548422,Ribe-Vejle Landevej,6622,58,9.177554,55.590537
548423,Ribe-Vejle Landevej,6622,59,9.168951,55.595205
548424,Ribe-Vejle Landevej,6622,60,9.167065,55.59138
548425,Ribe-Vejle Landevej,6622,61,9.170597,55.597169
548426,Ribe-Vejle Landevej,6622,62,9.183426,55.596622
548427,Ribe-Vejle Landevej,6622,62A,9.189411,55.593249
548428,Ribe-Vejle Landevej,6622,63,9.16973,55.598313
548429,Ribe-Vejle Landevej,6622,64,9.179396,55.604201
548430,Ribe-Vejle Landevej,6622,65,9.163477,55.599737
548431,Ribe-Vejle Landevej,6622,66,9.179725,55.604398
548432,Ribe-Vejle Landevej,6622,67,9.176233,55.602068
548433,Ribe-Vejle Landevej,6622,67A,9.178293,55.60423
548434,Ribe-Vejle Landevej,6622,68,9.201464,55.607224
548435,Ribe-Vejle Landevej,6622,69,9.186586,55.605866
548436,Ribe-Vejle Landevej,6622,70,9.2062912,55.6081622
548437,Ribe-Vejle Landevej,6622,71,9.1925046,55.6062895
548438,Ribe-Vejle Landevej,6622,72,9.2066931,55.6083008
548439,Ribe-Vejle Landevej,6622,72A,9.2069401,55.6079553
548440,Ribe-Vejle Landevej,6622,73,9.194339,55.606982
548441,Ribe-Vejle Landevej,6622,74,9.2075636,55.6083999
548442,Ribe-Vejle Landevej,6622,74A,9.2081351,55.6085571
548443,Ribe-Vejle Landevej,6622,75,9.195853,55.608199
548444,Ribe-Vejle Landevej,6622,76,9.2080703,55.6081547
548445,Ribe-Vejle Landevej,6622,76A,9.2077049,55.6077114
548446,Ribe-Vejle Landevej,6622,77,9.200926,55.607914
548447,Ribe-Vejle Landevej,6622,77A,9.204187,55.608602
548448,Ribe-Vejle Landevej,6622,79,9.206739,55.608742
548449,Ribe-Vejle Landevej,6622,80,9.2077888,55.6072117
548450,Ribe-Vejle Landevej,6622,81,9.2085311,55.6090156
548451,Ribe-Vejle Landevej,6622,83,9.2089354,55.6090122
548452,Ribe-Vejle Landevej,6622,85,9.2093393,55.6090088
548453,Ribe-Vejle Landevej,6622,86,9.206346,55.603378
548454,Ribe-Vejle Landevej,6622,86A,9.2081287,55.6070474
548455,Ribe-Vejle Landevej,6622,86B,9.208384,55.607935
548456,Ribe-Vejle Landevej,6622,87,9.209874,55.608927
548457,Ribe-Vejle Landevej,6622,89,9.210765,55.608995
548458,Ribe-Vejle Landevej,6622,90,9.206909,55.599746
548459,Ribe-Vejle Landevej,6622,91,9.2111371,55.6091603
548460,Ribe-Vejle Landevej,6622,93,9.211319,55.609023
548461,Ribe-Vejle Landevej,6622,95,9.21174,55.608993
548462,Ribe-Vejle Landevej,6622,97,9.2120429,55.6089853
548463,Ribe-Vejle Landevej,6622,100,9.208692,55.608349
548464,Ribe-Vejle Landevej,6622,102,9.20858,55.608608
548465,Ribe-Vejle Landevej,6622,103,9.2136373,55.6089646
548466,Ribe-Vejle Landevej,6622,104,9.209186,55.6086254
548467,Ribe-Vejle Landevej,6622,106,9.2095264,55.6086392
548468,Ribe-Vejle Landevej,6622,107,9.214544,55.609796
548469,Ribe-Vejle Landevej,6622,108,9.2098721,55.6086233
548470,Ribe-Vejle Landevej,6622,109,9.2163813,55.6171456
548471,Ribe-Vejle Landevej,6622,110,9.2103045,55.6086037
548472,Ribe-Vejle Landevej,6622,111,9.218429,55.609326
548473,Ribe-Vejle Landevej,6622,112,9.210774,55.6086173
548474,Ribe-Vejle Landevej,6622,114,9.2116026,55.6086114
548475,Ribe-Vejle Landevej,6622,116,9.2122212,55.6086067
548476,Ribe-Vejle Landevej,6622,116A,9.2128281,55.6085904
548477,Ribe-Vejle Landevej,6622,118,9.2134334,55.6086001
548478,Ribe-Vejle Landevej,6622,118A,9.213248,55.608389
548479,Ribe-Vejle Landevej,6622,120,9.213601,55.608603
548480,Ribe-Vejle Landevej,6622,138,9.217511,55.6086451
548481,Ribe-Vejle Landevej,6622,140,9.21837,55.6086166
548857,Skolegade,6622,1,9.139054,55.571027
548858,Skolegade,6622,2B,9.1394984,55.570977
548859,Skolegade,6622,4,9.1399109,55.5710296
548860,Skolegade,6622,5,9.139328,55.571647
548861,Skolegade,6622,6,9.139437,55.571151
548862,Skolegade,6622,7,9.139503,55.571892
548863,Skolegade,6622,8,9.1395695,55.5713427
548864,Skolegade,6622,9,9.139139,55.572399
548865,Skolegade,6622,10,9.139841,55.571648
548866,Skolegade,6622,11,9.13951,55.572606
548867,Skolegade,6622,12,9.139924,55.571858
548868,Skolegade,6622,13,9.139528,55.572636
548869,Skolegade,6622,14,9.139976,55.572068
548870,Skolegade,6622,15,9.139565,55.572702
548871,Skolegade,6622,16,9.1400328,55.5724887
548872,Skolegade,6622,17,9.139606,55.572767
548873,Skolegade,6622,18,9.139981,55.572718
549022,Skødevej,6622,20,9.144792,55.610542
549023,Skødevej,6622,21,9.1490812,55.6060499
549024,Skødevej,6622,22,9.145371,55.607365
549025,Skødevej,6622,22A,9.1450297,55.6078023
549114,Solitudevej,6622,1,9.207382,55.608982
549115,Solitudevej,6622,2,9.2078737,55.6090679
549116,Solitudevej,6622,3,9.207542,55.6091691
549117,Solitudevej,6622,4,9.2079112,55.6093168
549118,Solitudevej,6622,5,9.2075622,55.6094198
549119,Solitudevej,6622,7,9.2075894,55.6096444
549120,Solitudevej,6622,8,9.2079807,55.6098199
549121,Solitudevej,6622,9,9.2075287,55.6098369
549122,Solitudevej,6622,11,9.207557,55.610052
549159,Store Dalvej,6622,1,9.1298308,55.5794999
549160,Store Dalvej,6622,4,9.1348997,55.5826401
549161,Store Dalvej,6622,6,9.138985,55.589656
549162,Store Dalvej,6622,7,9.1328267,55.5914697
549163,Store Dalvej,6622,8,9.141308,55.5909829
549164,Store Dalvej,6622,9,9.136572,55.594794
549165,Store Dalvej,6622,10,9.1402918,55.5941413
549166,Stadionvej,6622,1,9.1402005,55.5689751
549167,Stadionvej,6622,2,9.1396768,55.5690602
549168,Stadionvej,6622,2A,9.1393855,55.5686418
549169,Stadionvej,6622,3,9.1401242,55.568853
549170,Stadionvej,6622,4,9.1395751,55.5684044
549171,Stadionvej,6622,5,9.1400386,55.5686698
549172,Stadionvej,6622,7,9.1400177,55.5685458
549173,Stadionvej,6622,8,9.1393108,55.5681117
549174,Stadionvej,6622,9,9.1400208,55.5683805
549175,Stadionvej,6622,10,9.1392171,55.5679267
549176,Stadionvej,6622,11,9.139857,55.5682153
549177,Stadionvej,6622,12,9.1391421,55.5677696
549178,Stadionvej,6622,13,9.1398245,55.5680357
549179,Stadionvej,6622,15,9.1397385,55.5678812
549180,Stadionvej,6622,17,9.1396512,55.5677313
549204,Stationsvej,6622,1,9.1420407,55.5699246
549205,Stationsvej,6622,2,9.141687,55.569976
549206,Stationsvej,6622,3,9.141828,55.569587
549207,Stationsvej,6622,4,9.141591,55.569843
549208,Stationsvej,6622,5,9.1416752,55.5693544
549209,Stationsvej,6622,6,9.14148,55.569661
549210,Stationsvej,6622,7,9.141466,55.569076
549211,Stationsvej,6622,9,9.1413123,55.5685039
549212,Stationsvej,6622,11,9.141288,55.568216
549213,Stationsvej,6622,13,9.141228,55.568042
549214,Stationsvej,6622,14,9.14087,55.568655
549215,Stationsvej,6622,15,9.141069,55.567794
549216,Stationsvej,6622,17,9.141059,55.56757
549217,Stationsvej,6622,18,9.140722,55.568124
549218,Stationsvej,6622,20,9.14064,55.567851
549219,Stationsvej,6622,22,9.140559,55.567617
549220,Staushedevejen,6622,32,9.161745,55.55909
549221,Staushedevejen,6622,34,9.164676,55.560429
549222,Staushedevejen,6622,36,9.1635934,55.5621784
549223,Staushedevejen,6622,38,9.16958,55.564441
549224,Staushedevejen,6622,40,9.167605,55.570023
549225,Staushedevejen,6622,42,9.16928,55.5725
549226,Staushedevejen,6622,43,9.159881,55.558282
549227,Staushedevejen,6622,44,9.170297,55.573001
549228,Staushedevejen,6622,45,9.1643406,55.5673628
549229,Staushedevejen,6622,47,9.166085,55.569462
549230,Staushedevejen,6622,48,9.169996,55.576569
549231,Staushedevejen,6622,49,9.169843,55.57415
549232,Staushedevejen,6622,50,9.170836,55.577492
549233,Staushedevejen,6622,51,9.170074,55.578363
549234,Staushedevejen,6622,52,9.1704862,55.5782072
549235,Staushedevejen,6622,53,9.170349,55.578641
549236,Staushedevejen,6622,56,9.17075,55.578523
549253,Studevejen,6622,1,9.178778,55.604803
549254,Studevejen,6622,3,9.17596,55.609019
549255,Studevejen,6622,5,9.182554,55.609622
549404,Søndergade,6622,1,9.1392087,55.5703259
549405,Søndergade,6622,2,9.138982,55.570499
549406,Søndergade,6622,3A,9.138785,55.570141
549407,Søndergade,6622,3B,9.1389275,55.5702624
549408,Søndergade,6622,3C,9.1388483,55.5702409
549409,Søndergade,6622,3D,9.1387455,55.5702204
549410,Søndergade,6622,3E,9.1386664,55.5701981
549411,Søndergade,6622,3F,9.138527,55.570151
549412,Søndergade,6622,3G,9.138552,55.570121
549413,Søndergade,6622,4,9.138467,55.570338
549414,Søndergade,6622,5A,9.137813,55.569925
549415,Søndergade,6622,5B,9.137781,55.569909
549416,Søndergade,6622,5C,9.137749,55.569893
549417,Søndergade,6622,5D,9.137716,55.569877
549418,Søndergade,6622,5E,9.137684,55.569861
549419,Søndergade,6622,5F,9.137651,55.569846
549420,Søndergade,6622,6,9.1381645,55.570257
549421,Søndergade,6622,6A,9.138185,55.570297
549422,Søndergade,6622,6B,9.1379964,55.570277
549423,Søndergade,6622,6C,9.1379804,55.5703354
549424,Søndergade,6622,7,9.137491,55.569768
549425,Søndergade,6622,8,9.1373163,55.5699452
549426,Søndergade,6622,9,9.13735,55.569564
549427,Søndergade,6622,10,9.1371874,55.5698124
549428,Søndergade,6622,11,9.137258,55.569442
549429,Søndergade,6622,11A,9.137634,55.569002
549430,Søndergade,6622,12,9.1370907,55.5696912
549431,Søndergade,6622,13,9.137024,55.568618
549432,Søndergade,6622,14,9.136991,55.5695628
549433,Søndergade,6622,15,9.136659,55.568433
549434,Søndergade,6622,17,9.136395,55.568189
549435,Søndergade,6622,18,9.1367464,55.5692154
549436,Søndergade,6622,19,9.136337,55.568053
549437,Søndergade,6622,19A,9.137434,55.566903
549438,Søndergade,6622,20,9.13603,55.568957
549439,Søndergade,6622,21,9.135604,55.5672892
549440,Søndergade,6622,22,9.136308,55.56871
549441,Søndergade,6622,23,9.138032,55.563374
549442,Søndergade,6622,24,9.1360895,55.5685718
549443,Søndergade,6622,26,9.1360942,55.5684281
549444,Søndergade,6622,28,9.1359877,55.5682826
549445,Søndergade,6622,28A,9.132518,55.5688318
549446,Søndergade,6622,32,9.1347467,55.5676595
549447,Søndergade,6622,34,9.1351258,55.5673464
549448,Søndergade,6622,36,9.134992,55.567179
549449,Søndergade,6622,42,9.1345431,55.5667791
549450,Søndergade,6622,44,9.1343915,55.566667
549451,Søndergade,6622,46,9.1342063,55.5665324
549475,Teglgårdsvej,6622,1,9.136697,55.569431
549476,Teglgårdsvej,6622,2,9.13623,55.569622
549477,Teglgårdsvej,6622,3,9.136032,55.569482
549478,Teglgårdsvej,6622,4,9.135898,55.569643
549479,Teglgårdsvej,6622,5,9.135648,55.569478
549480,Teglgårdsvej,6622,6,9.135672,55.569673
549481,Teglgårdsvej,6622,7,9.1354029,55.5695062
549482,Teglgårdsvej,6622,8,9.135392,55.569713
549483,Teglgårdsvej,6622,9,9.135163,55.569509
549484,Teglgårdsvej,6622,10,9.1351902,55.5696879
549485,Teglgårdsvej,6622,11,9.134849,55.569536
549486,Teglgårdsvej,6622,12,9.134927,55.569737
549487,Teglgårdsvej,6622,13,9.134602,55.569556
549488,Teglgårdsvej,6622,14,9.134732,55.569753
549489,Teglgårdsvej,6622,15,9.134258,55.569584
549490,Teglgårdsvej,6622,16,9.134449,55.569776
549491,Teglgårdsvej,6622,17,9.133746,55.569617
549492,Teglgårdsvej,6622,18,9.134291,55.569789
549493,Teglgårdsvej,6622,19,9.133069,55.569601
549494,Teglgårdsvej,6622,19A,9.133025,55.569458
549495,Teglgårdsvej,6622,19B,9.133313,55.569031
549496,Teglgårdsvej,6622,20A,9.133976,55.569862
549497,Teglgårdsvej,6622,20B,9.133911,55.569961
549498,Teglgårdsvej,6622,20C,9.133889,55.569992
549499,Teglgårdsvej,6622,20D,9.133831,55.570078
549500,Teglgårdsvej,6622,20E,9.13409,55.570181
549501,Teglgårdsvej,6622,20F,9.134021,55.570283
549502,Teglgårdsvej,6622,20G,9.133998,55.570318
549503,Teglgårdsvej,6622,21,9.13253,55.569628
549504,Teglgårdsvej,6622,22,9.132963,55.569925
549505,Teglgårdsvej,6622,23,9.132202,55.56972
549506,Teglgårdsvej,6622,24,9.132674,55.570013
549507,Teglgårdsvej,6622,25,9.131823,55.569723
549508,Teglgårdsvej,6622,26,9.132355,55.570067
549509,Teglgårdsvej,6622,27,9.131533,55.569744
549510,Teglgårdsvej,6622,28,9.132056,55.570058
549511,Teglgårdsvej,6622,29,9.131059,55.569797
549512,Teglgårdsvej,6622,30,9.130121,55.570211
549513,Teglgårdsvej,6622,32,9.1272068,55.5717103
549514,Teglgårdsvej,6622,34,9.123964,55.570422
549515,Teglgårdsvej,6622,36,9.119889,55.569085
549516,Teglvænget,6622,1,9.133303,55.57003
549517,Teglvænget,6622,3,9.13347,55.570409
549518,Teglvænget,6622,5,9.133055,55.570399
549519,Teglvænget,6622,7,9.132627,55.570477
549520,Teglvænget,6622,9,9.132251,55.570576
549521,Teglvænget,6622,11,9.132517,55.570779
549522,Teglvænget,6622,13,9.132549,55.570974
549523,Teglvænget,6622,15,9.132635,55.571164
549524,Teglvænget,6622,16,9.134171,55.57055
549525,Teglvænget,6622,17,9.132442,55.57135
549526,Teglvænget,6622,18,9.134204,55.570499
549527,Teglvænget,6622,19,9.132889,55.571454
549528,Teglvænget,6622,20,9.134236,55.570449
549529,Teglvænget,6622,21,9.133182,55.571219
549530,Teglvænget,6622,22,9.134268,55.570398
549531,Teglvænget,6622,23,9.133095,55.570989
549532,Teglvænget,6622,24,9.134301,55.570348
549533,Teglvænget,6622,25,9.133066,55.570782
549534,Teglvænget,6622,27,9.133666,55.570711
549535,Teglvænget,6622,29,9.133842,55.57086
549647,Troensevej,6622,1,9.214059,55.597607
549648,Troensevej,6622,2,9.214127,55.60845
549650,Troensevej,6622,4,9.213492,55.60585
549652,Tværvej,6622,1,9.156324,55.581207
549653,Tværvej,6622,3,9.15076,55.581264
549654,Tværvej,6622,4,9.15269,55.583979
549655,Tværvej,6622,5,9.130507,55.586376
549656,Tværvej,6622,5A,9.125845,55.584658
549657,Tværvej,6622,6,9.143058,55.58754
549658,Tværvej,6622,7,9.123548,55.587177
549659,Tværvej,6622,8,9.135464,55.585678
549660,Tværvej,6622,10,9.133942,55.587129
549661,Tværvej,6622,12,9.130685,55.589038
549662,Tværvej,6622,16,9.128263,55.593472
549663,Tværvej,6622,18,9.124972,55.590287
549664,Tværvej,6622,20,9.119162,55.588983
549665,Tværvej,6622,22,9.115346,55.590984
549711,Vandværksvej,6622,1,9.138698,55.570886
549712,Vandværksvej,6622,2,9.1385657,55.5710878
549713,Vandværksvej,6622,3,9.1383311,55.570866
549714,Vandværksvej,6622,5,9.1383789,55.5709648
549715,Vandværksvej,6622,7,9.138108,55.571073
549716,Vandværksvej,6622,9,9.137696,55.570925
549717,Vandværksvej,6622,11,9.137863,55.571057
549718,Vandværksvej,6622,13,9.137336,55.571163
549956,Vestergade,6622,3,9.136291,55.569967
549957,Vestergade,6622,4,9.1364184,55.5705429
549958,Vestergade,6622,5,9.135707,55.570058
549959,Vestergade,6622,6,9.136458,55.570787
549960,Vestergade,6622,7,9.136168,55.5703
549961,Vestergade,6622,9,9.135847,55.570369
549962,Vestergade,6622,11,9.135534,55.570449
549963,Vestergade,6622,12,9.13554,55.570752
549964,Vestergade,6622,13,9.135236,55.570526
549965,Vestergade,6622,14,9.135284,55.570853
549966,Vestergade,6622,15,9.1349703,55.5705598
549967,Vestergade,6622,16,9.13504,55.570936
549968,Vestergade,6622,17,9.134394,55.570734
549969,Vestergade,6622,18,9.134587,55.571094
549970,Vestergade,6622,19,9.1337329,55.5710896
549971,Vestergade,6622,20,9.134339,55.57119
549972,Vestergade,6622,21,9.133283,55.571449
549973,Vestergade,6622,22,9.134037,55.571358
549974,Vestergade,6622,23,9.1330698,55.5716868
549975,Vestergade,6622,24,9.13381,55.571459
549976,Vestergade,6622,25,9.1330013,55.5718738
549977,Vestergade,6622,26,9.1337394,55.5716124
549978,Vestergade,6622,27,9.132912,55.572065
549979,Vestergade,6622,28,9.133538,55.571822
549980,Vestergade,6622,29,9.132913,55.572318
549981,Vestergade,6622,31,9.133026,55.572467
549982,Vestergade,6622,32,9.1334642,55.5721959
549983,Vestergade,6622,33,9.133086,55.572665
549984,Vestergade,6622,34,9.1334833,55.5724089
549985,Vestergade,6622,35,9.1331466,55.5728791
549986,Vestergade,6622,36,9.1335302,55.5725822
549987,Vestergade,6622,37,9.133171,55.573043
549988,Vestergade,6622,38,9.1336309,55.5728013
549989,Vestergade,6622,39,9.133222,55.573206
549990,Vestergade,6622,40,9.133714,55.572959
549991,Vestergade,6622,41,9.133267,55.573383
549992,Vestergade,6622,42,9.1338722,55.5731605
549993,Vestergade,6622,43,9.133327,55.573532
549994,Vestergade,6622,44,9.1340092,55.5733419
549995,Vestergade,6622,45,9.133356,55.573706
549996,Vestergade,6622,46,9.1339021,55.5735729
549997,Vestergade,6622,47,9.133405,55.573882
549998,Vestergade,6622,49,9.1334,55.573927
549999,Vestergade,6622,51,9.133387,55.57406
550000,Vestergade,6622,53,9.133382,55.574105
550129,Vittrupvej,6622,1,9.120696,55.56244
550130,Vittrupvej,6622,2,9.127555,55.561805
550131,Vittrupvej,6622,3,9.094759,55.56454
550132,Vittrupvej,6622,4,9.121445,55.56352
550133,Vittrupvej,6622,6,9.107658,55.562414
550134,Vittrupvej,6622,8,9.1010242,55.5630395
550135,Vittrupvej,6622,10,9.099556,55.563592
550136,Vittrupvej,6622,12,9.095334,55.564954
550137,Vittrupvej,6622,14,9.093407,55.565442
550138,Vittrupvej,6622,16,9.092083,55.565622
550139,Vittrupvej,6622,18,9.090233,55.567673
550140,Vognmandsvej,6622,1,9.139581,55.570098
550141,Vognmandsvej,6622,2,9.139163,55.570097
550142,Vognmandsvej,6622,3,9.140019,55.569983
550143,Vognmandsvej,6622,4,9.139923,55.569801
550144,Vognmandsvej,6622,5,9.1401799,55.5699258
550145,Vognmandsvej,6622,7,9.140593,55.570002
550146,Vognmandsvej,6622,11,9.140896,55.56977
550147,Vognmandsvej,6622,13,9.141119,55.569717
550148,Vorbassevej,6622,1,9.13298,55.574372
550149,Vorbassevej,6622,2,9.133175,55.575414
550150,Vorbassevej,6622,3,9.131531,55.576024
550151,Vorbassevej,6622,4,9.131952,55.576158
550152,Vorbassevej,6622,5,9.131023,55.57632
550153,Vorbassevej,6622,7,9.130253,55.577058
550154,Vorbassevej,6622,8,9.126636,55.580017
550155,Vorbassevej,6622,9,9.128481,55.578373
550156,Vorbassevej,6622,11,9.114573,55.58225
550157,Vorbassevej,6622,12,9.122679,55.582284
550158,Vorbassevej,6622,13,9.117119,55.584603
550159,Vorbassevej,6622,16,9.112444,55.591625
550160,Vorbassevej,6622,17,9.112051,55.585302
550161,Vorbassevej,6622,19,9.108267,55.590859
550162,Vorbassevej,6622,20,9.1080331,55.5959222
550163,Vorbassevej,6622,21,9.101876,55.586175
550164,Vorbassevej,6622,23,9.102961,55.592374
550165,Vorbassevej,6622,25,9.104957,55.595704
550448,Østerholmvej,6622,6,9.08186,55.545839
550453,Østerholmvej,6622,15,9.090494,55.550624
550454,Østerholmvej,6622,19,9.096533,55.549815
550455,Østerholmvej,6622,21,9.0981699,55.5489237
550456,Østerholmvej,6622,23,9.102813,55.550001
1169738,Lunderskovvej,6622,10A,9.206197,55.570686
1169739,Lunderskovvej,6622,14A,9.209014,55.577587
1169740,Lunderskovvej,6622,26,9.178197,55.579754
1841961,Ribe-Vejle Landevej,6622,50,9.160267,55.58256
1841963,Ribe-Vejle Landevej,6622,54A,9.168184,55.587908
1841964,Ribe-Vejle Landevej,6622,54B,9.169742,55.586337
1912529,Nørregade,6622,23A,9.143964,55.570347
1912530,Nørregade,6622,23B,9.144013,55.570457
1942719,Søndergade,6622,19B,9.137341,55.567552
2003509,Vestergade,6622,2,9.137551,55.5704554
2011185,Østerholmvej,6622,8A,9.096149,55.548083
2011186,Østerholmvej,6622,8B,9.096009,55.547935
2011187,Østerholmvej,6622,17,9.0918609,55.5529369
2024265,Vorbassevej,6622,14,9.116665,55.586285
2024960,Vittrupvej,6622,5,9.091756,55.561325
2030883,Høghøjvej,6622,12,9.158262,55.604122
2030884,Høghøjvej,6622,14,9.157718,55.601454
2032555,Asserholtvej,6622,9A,9.146353,55.542197
2037839,Bækkegård,6622,35,9.131806,55.567469
2038171,Industrivej,6622,7A,9.1450415,55.5717589
2038174,Industrivej,6622,7B,9.1448603,55.5718243
2038176,Industrivej,6622,7C,9.1446264,55.5719077
2038204,Store Dalvej,6622,3,9.130677,55.583771
2076895,Kragelundvej,6622,3A,9.153174,55.573875
2076896,Kragelundvej,6622,3B,9.1537588,55.574004
2076897,Kragelundvej,6622,3C,9.154513,55.574313
2076898,Kragelundvej,6622,6A,9.165422,55.576682
2078324,Margretenborgvej,6622,10B,9.194019,55.593658
2078325,Margretenborgvej,6622,10C,9.191903,55.595689
2079187,Klostergade,6622,2,9.147568,55.570619
2079188,Klostergade,6622,10,9.149155,55.564381
2091578,Fittingvej,6622,66,9.209442,55.609188
2101253,Troensevej,6622,1A,9.215321,55.608412
2186702,Podersvej,6622,1,9.1443114,55.5720279
2186703,Podersvej,6622,2,9.1439741,55.5720714
2186706,Podersvej,6622,3,9.1441729,55.5718905
2186707,Podersvej,6622,4,9.1438857,55.5719358
2186709,Podersvej,6622,5,9.1440638,55.5717453
2186710,Podersvej,6622,6,9.1438183,55.5718302
2186712,Podersvej,6622,7,9.1443094,55.5716818
2186715,Podersvej,6622,8,9.1437468,55.5717179
2186717,Podersvej,6622,9,9.1444651,55.5716438
2186719,Podersvej,6622,10,9.1434911,55.5714285
2186720,Podersvej,6622,11,9.1446866,55.5715856
2186723,Podersvej,6622,12,9.143394,55.571288
2186724,Podersvej,6622,13,9.1448283,55.5711628
2186727,Podersvej,6622,14,9.1433367,55.5712072
2186729,Podersvej,6622,15,9.1449796,55.5711331
2186730,Podersvej,6622,16,9.143297,55.5710203
2186733,Podersvej,6622,17,9.1452631,55.5710711
2186734,Podersvej,6622,18,9.1435723,55.5709941
2186736,Podersvej,6622,19,9.1454339,55.5710339
2186737,Podersvej,6622,20,9.1438667,55.5708021
2186738,Podersvej,6622,21,9.145648,55.5709854
2186739,Podersvej,6622,22,9.1441551,55.5707877
2186740,Podersvej,6622,24,9.1444104,55.5707478
2186744,Podersvej,6622,26,9.144683,55.5707372
2186745,Podersvej,6622,28,9.1438486,55.5713694
2186750,Podersvej,6622,30,9.143885,55.571313
2186752,Podersvej,6622,32,9.1439032,55.5712541
2186756,Podersvej,6622,34,9.1439484,55.5711914
2186760,Podersvej,6622,36,9.1440611,55.5710984
2186761,Podersvej,6622,38,9.1441584,55.5710713
2186766,Podersvej,6622,40,9.1442534,55.5710442
2186767,Podersvej,6622,42,9.144571,55.571025
2186771,Podersvej,6622,44,9.144736,55.570988
2186773,Podersvej,6622,46,9.144901,55.570951
2186775,Podersvej,6622,48,9.1450703,55.570669
2186779,Podersvej,6622,50,9.1451237,55.5706152
2186780,Podersvej,6622,52,9.1451718,55.570561
2186782,Podersvej,6622,54,9.1452153,55.5705122
2186783,Podersvej,6622,56,9.145292,55.570455
2186784,Podersvej,6622,58,9.1453439,55.5704094
2186785,Podersvej,6622,60,9.1453569,55.5708044
2199364,Søndergade,6622,38,9.134815,55.56699
2199366,Søndergade,6622,40,9.134679,55.566888
2199369,Petreavej,6622,12,9.141754,55.572446
2236916,Nedre Kragelundvej,6622,5A,9.176688,55.572685
2251064,Fredsholmvej,6622,7,9.146084,55.573487
2251151,Ribe-Vejle Landevej,6622,85B,9.2095512,55.6090059
2251181,Vestergade,6622,10,9.1371,55.571448
