idx,street,postcode,housenumber,lon,lat
736161,Bjerrevej,6933,66,8.8291676,56.0733601
739980,Gottenborgvej,6933,5,8.945605,56.02922
741558,Hjortsballehøjevej,6933,2,8.9319719,56.0500568
742940,Jens Provsts Vej,6933,83,8.9439159,56.0301541
742941,Jens Provsts Vej,6933,84,8.9456643,56.0327617
742942,Jens Provsts Vej,6933,84B,8.9400084,56.0359928
742943,Jens Provsts Vej,6933,85,8.9416511,56.0319514
742944,Jens Provsts Vej,6933,86,8.9389758,56.0374361
807631,Jens Provsts Vej,6933,74,8.9609791,56.0316722
1740487,Blåhøjvej,6933,1,8.9363846,55.9374029
1740489,Blåhøjvej,6933,3,8.9366314,55.9374349
1740491,Blåhøjvej,6933,5,8.9366278,55.9372324
1740495,Blåhøjvej,6933,6,8.9364434,55.9369844
1740498,Blåhøjvej,6933,7,8.9377305,55.9373192
1740501,Blåhøjvej,6933,8,8.9361239,55.9367527
1740504,Blåhøjvej,6933,9,8.9369798,55.9370637
1740507,Blåhøjvej,6933,10A,8.935598,55.9366042
1740510,Blåhøjvej,6933,10B,8.9357223,55.9365759
1740512,Blåhøjvej,6933,11,8.9371616,55.9368667
1740516,Blåhøjvej,6933,12A,8.9354225,55.9363751
1740517,Blåhøjvej,6933,12B,8.93555,55.9363456
1740521,Blåhøjvej,6933,13,8.9374582,55.9365932
1740523,Blåhøjvej,6933,14,8.9351312,55.93629
1740526,Blåhøjvej,6933,15,8.9383629,55.9368427
1740528,Blåhøjvej,6933,16,8.9353994,55.9360802
1740531,Blåhøjvej,6933,17,8.9382424,55.9370264
1740532,Blåhøjvej,6933,17A,8.9399608,55.9367136
1740536,Blåhøjvej,6933,18,8.9354665,55.9360823
1740537,Blåhøjvej,6933,20,8.9361061,55.9363701
1740541,Blåhøjvej,6933,22,8.9364979,55.9366381
1740542,Blåhøjvej,6933,23,8.9379854,55.9362321
1740544,Blåhøjvej,6933,24,8.9369652,55.9366373
1740546,Blåhøjvej,6933,26,8.9371016,55.9365421
1740548,Blåhøjvej,6933,27,8.9385598,55.9358502
1740549,Blåhøjvej,6933,28,8.937261,55.9364317
1740551,Blåhøjvej,6933,29,8.9389735,55.9355287
1740552,Blåhøjvej,6933,30,8.9372579,55.9362148
1740553,Blåhøjvej,6933,31,8.9392973,55.9352986
1740554,Blåhøjvej,6933,32,8.9376418,55.9361561
1740555,Blåhøjvej,6933,33,8.939536,55.9351652
1740556,Blåhøjvej,6933,34,8.9374585,55.9358549
1740557,Blåhøjvej,6933,35,8.9399784,55.9353612
1740558,Blåhøjvej,6933,36,8.9377299,55.9357001
1740559,Blåhøjvej,6933,37,8.940209,55.935574
1740560,Blåhøjvej,6933,38,8.9379345,55.9359659
1740561,Blåhøjvej,6933,39,8.939642,55.9350691
1740562,Blåhøjvej,6933,40,8.9381465,55.9358177
1740563,Blåhøjvej,6933,41,8.9403252,55.9353333
1740564,Blåhøjvej,6933,42,8.9379463,55.9353475
1740565,Blåhøjvej,6933,43,8.939941,55.9348607
1740566,Blåhøjvej,6933,44,8.9383436,55.9356827
1740567,Blåhøjvej,6933,45,8.9401053,55.9347448
1740568,Blåhøjvej,6933,46,8.9387728,55.9353749
1740569,Blåhøjvej,6933,47,8.9404224,55.9347406
1740570,Blåhøjvej,6933,49,8.9405574,55.9345095
1740571,Blåhøjvej,6933,50,8.9390532,55.9351915
1740572,Blåhøjvej,6933,51,8.9407892,55.9343864
1740573,Blåhøjvej,6933,52A,8.9391417,55.9349206
1740574,Blåhøjvej,6933,52B,8.939085,55.934854
1740575,Blåhøjvej,6933,52C,8.9389773,55.9347362
1740576,Blåhøjvej,6933,52D,8.9389159,55.9346676
1740577,Blåhøjvej,6933,53,8.9409952,55.9342697
1740578,Blåhøjvej,6933,56,8.9393633,55.9348155
1740579,Blåhøjvej,6933,58,8.938843,55.9343468
1740580,Blåhøjvej,6933,60,8.9409598,55.933844
1740581,Blåhøjvej,6933,61,8.9442708,55.9341534
1740582,Blåhøjvej,6933,61B,8.946943,55.9347305
1740583,Blåhøjvej,6933,62,8.9517687,55.9192497
1740584,Blåhøjvej,6933,63,8.9459245,55.9309823
1740585,Blåhøjvej,6933,63B,8.9467195,55.9305261
1740586,Blåhøjvej,6933,64,8.9580302,55.9174641
1740587,Blåhøjvej,6933,65,8.9513605,55.9258597
1740588,Blåhøjvej,6933,66B,8.9634789,55.917024
1740589,Blåhøjvej,6933,67,8.9538919,55.9245947
1740590,Blåhøjvej,6933,67A,8.9555621,55.9261712
1740591,Blåhøjvej,6933,68,8.9650008,55.9165711
1740592,Blåhøjvej,6933,69,8.9549759,55.9258813
1740593,Blåhøjvej,6933,70,8.9731162,55.9077867
1740594,Blåhøjvej,6933,71,8.957613,55.924696
1740595,Blåhøjvej,6933,73,8.9654534,55.9251741
1740596,Blåhøjvej,6933,73A,8.9630714,55.9216839
1740597,Blåhøjvej,6933,73B,8.9638036,55.9183494
1740598,Blåhøjvej,6933,75,8.9692003,55.9173546
1740599,Blåhøjvej,6933,77,8.9759972,55.9124112
1748507,Troldhedevej,6933,19,8.786429,56.068696
1748509,Troldhedevej,6933,21,8.78409,56.070088
1748510,Troldhedevej,6933,22,8.782049,56.064717
1748511,Troldhedevej,6933,23,8.780637,56.070173
1748512,Troldhedevej,6933,24,8.785792,56.065874
1748513,Troldhedevej,6933,25,8.801096,56.071422
1748514,Troldhedevej,6933,26,8.790877,56.068232
1748515,Troldhedevej,6933,26A,8.790623,56.068179
1748516,Troldhedevej,6933,26B,8.790576,56.068138
1751031,Døvlingvej,6933,2A,8.9068801,55.9224425
1751034,Døvlingvej,6933,3,8.9368724,55.9169382
1751037,Døvlingvej,6933,4A,8.9117879,55.9212738
1751040,Døvlingvej,6933,4B,8.9118175,55.9213369
1751043,Døvlingvej,6933,5,8.9448551,55.914385
1751046,Døvlingvej,6933,6,8.914852,55.9208414
1751049,Døvlingvej,6933,7,8.9532589,55.9154009
1751052,Døvlingvej,6933,7A,8.956286,55.9129487
1751055,Døvlingvej,6933,8,8.9153978,55.9202007
1751057,Døvlingvej,6933,8B,8.91814,55.925233
1751061,Døvlingvej,6933,9,8.9539151,55.9108639
1751065,Døvlingvej,6933,10,8.9257082,55.9174863
1751069,Døvlingvej,6933,10B,8.9318804,55.9127404
1751072,Døvlingvej,6933,12,8.934081,55.9169785
1751080,Døvlingvej,6933,14,8.9395843,55.9155931
1751084,Døvlingvej,6933,16,8.9526392,55.9101564
1751088,Døvlingvej,6933,18,8.9567759,55.9084819
1751397,Vestergaardsvej,6933,1,8.9368179,55.9384879
1751401,Vestergaardsvej,6933,2,8.934675,55.939094
1751402,Vestergaardsvej,6933,3,8.9367127,55.9382613
1751404,Vestergaardsvej,6933,4,8.9352954,55.9393575
1751405,Vestergaardsvej,6933,5,8.9365986,55.9381031
1751408,Vestergaardsvej,6933,6,8.9362806,55.9384745
1751410,Vestergaardsvej,6933,7,8.9364915,55.937927
1751413,Vestergaardsvej,6933,8A,8.9355619,55.9374013
1751417,Vestergaardsvej,6933,8B,8.9358965,55.9375284
1751420,Vestergaardsvej,6933,9,8.9378068,55.9377653
1751422,Vestergaardsvej,6933,9A,8.938352,55.937518
1751427,Vestergaardsvej,6933,9B,8.9342677,55.9362745
1751428,Vestergaardsvej,6933,10,8.9190124,55.9361618
1751431,Vestergaardsvej,6933,13,8.9318288,55.9358519
1751435,Vestergaardsvej,6933,15,8.9299254,55.9352447
1751440,Vestergaardsvej,6933,16,8.9292223,55.9351716
1751444,Vestergaardsvej,6933,17,8.9207253,55.9294741
1751446,Vestergaardsvej,6933,18,8.9177953,55.9312989
1751451,Vestergaardsvej,6933,20,8.914553,55.9274873
1751453,Vestergaardsvej,6933,22,8.9040718,55.9259358
1755646,Søndergaardparken,6933,1,8.8987866,55.9765102
1755647,Søndergaardparken,6933,2,8.8989378,55.9762834
1755648,Søndergaardparken,6933,3,8.8995505,55.9766435
1755650,Søndergaardparken,6933,4,8.9004243,55.9764178
1755651,Søndergaardparken,6933,5,8.8994033,55.9768484
1755652,Søndergaardparken,6933,6,8.9009012,55.9764743
1755653,Søndergaardparken,6933,7,8.8993824,55.9770593
1755654,Søndergaardparken,6933,8,8.902108,55.976634
1755656,Søndergaardparken,6933,9,8.8998032,55.9770341
1755657,Søndergaardparken,6933,11,8.8998747,55.976839
1755659,Søndergaardparken,6933,13,8.8999374,55.9766661
1755660,Søndergaardparken,6933,15,8.9006452,55.9766759
1755662,Søndergaardparken,6933,17,8.9010068,55.9767313
1755663,Søndergaardparken,6933,19,8.901383,55.976789
1755665,Søndergaardparken,6933,21,8.9018238,55.9767758
1758039,Bjørnkærvej,6933,1,8.9390211,55.940105
1758040,Bjørnkærvej,6933,4,8.9395768,55.9399265
1758041,Bjørnkærvej,6933,5,8.9364255,55.942708
1758042,Bjørnkærvej,6933,6,8.9401899,55.9401408
1758043,Bjørnkærvej,6933,6B,8.9440135,55.9405412
1758044,Bjørnkærvej,6933,7,8.9392697,55.9401793
1758045,Bjørnkærvej,6933,8,8.972792,55.946772
1758046,Bjørnkærvej,6933,9,8.9538388,55.9428396
1758047,Bjørnkærvej,6933,10,8.982673,55.944049
1758048,Bjørnkærvej,6933,11,8.9695073,55.9486457
1758049,Bjørnkærvej,6933,12,8.9844952,55.9421715
1758050,Bjørnkærvej,6933,13,8.9772923,55.9456993
1758051,Bjørnkærvej,6933,15,8.993913,55.9426926
1758758,Ronnumvej,6933,1,8.9465786,55.9516471
1758759,Ronnumvej,6933,2,8.9638148,55.9516045
1758762,Ronnumvej,6933,3,8.9524894,55.9526637
1758763,Ronnumvej,6933,4,8.9876102,55.9492593
1758765,Ronnumvej,6933,5,8.9554,55.953197
1758766,Ronnumvej,6933,5A,8.9553275,55.9556477
1758767,Ronnumvej,6933,6,8.9896527,55.9477536
1758768,Ronnumvej,6933,7,8.9651063,55.9560959
1758769,Ronnumvej,6933,7B,8.9554754,55.9527677
1758770,Ronnumvej,6933,9,8.971547,55.956571
1758771,Ronnumvej,6933,11,8.9783646,55.9526603
1758772,Ronnumvej,6933,13,8.984884,55.9507621
1761383,Gejlbjergvej,6933,29,8.997134,55.95446
1761386,Gejlbjergvej,6933,29A,8.9962738,55.9596166
1761387,Gejlbjergvej,6933,31,8.985393,55.9637218
1761390,Gejlbjergvej,6933,31A,8.9710592,55.965906
1761396,Gejlbjergvej,6933,31B,8.9669587,55.9662556
1761397,Gejlbjergvej,6933,33,8.9481047,55.9683803
1761401,Gejlbjergvej,6933,33A,8.9462502,55.9648747
1761406,Gejlbjergvej,6933,33B,8.9410201,55.9636665
1761408,Gejlbjergvej,6933,34,8.9936006,55.962861
1761412,Gejlbjergvej,6933,36,8.9827906,55.9650211
1761414,Gejlbjergvej,6933,37,8.9150422,55.9690881
1761418,Gejlbjergvej,6933,38,8.9576888,55.9685378
1761420,Gejlbjergvej,6933,39,8.9095131,55.9717691
1761422,Gejlbjergvej,6933,44,8.9061156,55.972778
1761424,Gejlbjergvej,6933,44A,8.906172,55.9726186
1761425,Gejlbjergvej,6933,48,8.9059053,55.9725606
1761427,Gejlbjergvej,6933,50,8.9051258,55.9726216
1761429,Gejlbjergvej,6933,54,8.904052,55.9725253
1763398,Hovedgaden,6933,1,8.8928842,55.9823912
1763400,Hovedgaden,6933,2,8.8922867,55.9824686
1763401,Hovedgaden,6933,3,8.8932954,55.9821149
1763402,Hovedgaden,6933,4,8.8924742,55.9823449
1763403,Hovedgaden,6933,5,8.8937748,55.981774
1763404,Hovedgaden,6933,6,8.8927984,55.9821226
1763405,Hovedgaden,6933,7,8.8939434,55.9816412
1763406,Hovedgaden,6933,8,8.893259,55.9817692
1763407,Hovedgaden,6933,9,8.8940882,55.9815424
1763408,Hovedgaden,6933,10,8.8934876,55.9816582
1763409,Hovedgaden,6933,11,8.8942578,55.9814222
1763410,Hovedgaden,6933,13,8.8944241,55.9813065
1763411,Hovedgaden,6933,14,8.8938936,55.981351
1763412,Hovedgaden,6933,15,8.8946079,55.9811941
1763414,Hovedgaden,6933,16,8.8940945,55.9812106
1763415,Hovedgaden,6933,17,8.8947593,55.9810903
1763417,Hovedgaden,6933,18,8.8942328,55.9811141
1763418,Hovedgaden,6933,19,8.895021,55.980909
1763419,Hovedgaden,6933,20,8.8948182,55.9807667
1763420,Hovedgaden,6933,21,8.8952672,55.9807406
1763421,Hovedgaden,6933,22,8.8961013,55.9798146
1763422,Hovedgaden,6933,23,8.8955168,55.9805568
1763423,Hovedgaden,6933,24,8.8962875,55.979679
1763424,Hovedgaden,6933,25,8.8957644,55.9803679
1763425,Hovedgaden,6933,26,8.8966124,55.9794393
1763426,Hovedgaden,6933,27,8.895998,55.980208
1763427,Hovedgaden,6933,28,8.896777,55.9791986
1763428,Hovedgaden,6933,29,8.8961895,55.980105
1763429,Hovedgaden,6933,29A,8.896163,55.9800859
1763432,Hovedgaden,6933,29B,8.8962616,55.9800208
1763433,Hovedgaden,6933,30A,8.8968538,55.9790771
1763434,Hovedgaden,6933,30B,8.8965794,55.9790859
1763435,Hovedgaden,6933,32,8.8970194,55.9787681
1763436,Hovedgaden,6933,33,8.8965283,55.9798363
1763437,Hovedgaden,6933,34,8.8970722,55.9786044
1763439,Hovedgaden,6933,35,8.8969143,55.979589
1763441,Hovedgaden,6933,36,8.896889,55.977743
1763442,Hovedgaden,6933,36B,8.8973464,55.9777597
1763443,Hovedgaden,6933,38,8.8978105,55.977399
1763444,Hovedgaden,6933,40,8.8982979,55.9764263
1763445,Hovedgaden,6933,41,8.897328,55.9789526
1763446,Hovedgaden,6933,42,8.8983397,55.9761545
1763447,Hovedgaden,6933,42A,8.8983266,55.9761784
1763448,Hovedgaden,6933,42B,8.8983521,55.9760576
1763449,Hovedgaden,6933,43,8.8974486,55.9787744
1763450,Hovedgaden,6933,44A,8.8988117,55.9748468
1763451,Hovedgaden,6933,45,8.8975247,55.9785861
1763452,Hovedgaden,6933,46,8.898533,55.974555
1763453,Hovedgaden,6933,47,8.898037,55.977875
1763454,Hovedgaden,6933,47A,8.8981433,55.9773696
1763455,Hovedgaden,6933,48,8.8985703,55.9734513
1763457,Hovedgaden,6933,48B,8.896309,55.974081
1763459,Hovedgaden,6933,49,8.8983342,55.9770684
1763460,Hovedgaden,6933,51,8.8984719,55.9768199
1763461,Hovedgaden,6933,53,8.8986151,55.9766776
1763462,Hovedgaden,6933,55,8.899029,55.976064
1763463,Hovedgaden,6933,57,8.8994274,55.9760921
1763727,Barslundvej,6933,1,8.964883,55.9141436
1763729,Barslundvej,6933,1B,8.9629072,55.9136373
1763733,Barslundvej,6933,3,8.9629119,55.9105603
1763736,Barslundvej,6933,5,8.96364,55.905154
1763739,Barslundvej,6933,7,8.9658817,55.9007394
1764107,Vistelhøjvej,6933,1,8.9661389,55.9755025
1764111,Vistelhøjvej,6933,2,8.9608279,55.9740768
1764115,Vistelhøjvej,6933,4,8.9612549,55.9739782
1764118,Vistelhøjvej,6933,5,8.9946081,55.9677218
1764120,Vistelhøjvej,6933,6,8.972739,55.9741097
1764122,Vistelhøjvej,6933,7,8.9972873,55.9658971
1764124,Vistelhøjvej,6933,8,8.9838946,55.9697403
1764127,Vistelhøjvej,6933,10,8.9890539,55.9706442
1764128,Vistelhøjvej,6933,12,8.991947,55.968997
1764498,Silstrupvej,6933,1,8.8642472,55.9737463
1764501,Silstrupvej,6933,2,8.8619745,55.973279
1764503,Silstrupvej,6933,3,8.8603121,55.9714287
1764504,Silstrupvej,6933,4,8.8508251,55.9668821
1764506,Silstrupvej,6933,5,8.8592188,55.9700584
1764509,Silstrupvej,6933,7,8.8572508,55.9688558
1764510,Silstrupvej,6933,10,8.8517038,55.9666139
1764511,Silstrupvej,6933,12,8.8550415,55.9651599
1764936,Hedebyvej,6933,1,8.7626289,55.9752672
1764938,Hedebyvej,6933,3,8.758191,55.9732338
1764940,Hedebyvej,6933,4,8.7522335,55.9755414
1764944,Hedebyvej,6933,6,8.7504376,55.9734044
1764946,Hedebyvej,6933,8,8.756912,55.9701108
1766570,Blåkærvej,6933,1,8.9969271,55.9227246
1766572,Blåkærvej,6933,2,8.9890464,55.9221742
1766573,Blåkærvej,6933,2A,8.9885747,55.9228253
1766576,Blåkærvej,6933,3,8.9967467,55.9219958
1766578,Blåkærvej,6933,4,8.9832071,55.9218511
1766580,Blåkærvej,6933,5,8.996865,55.921133
1766582,Blåkærvej,6933,6,8.9737688,55.9217763
1766583,Blåkærvej,6933,6A,8.9741538,55.923884
1766585,Blåkærvej,6933,6B,8.974505,55.920313
1766586,Blåkærvej,6933,6C,8.973703,55.920559
1766588,Blåkærvej,6933,7,8.9779773,55.9105109
1766590,Blåkærvej,6933,9,8.9809706,55.9092458
1766592,Blåkærvej,6933,9A,8.9944436,55.9130917
1766594,Blåkærvej,6933,9B,8.9912107,55.9143095
1766634,Birkemosevej,6933,1,8.9463768,55.9112093
1766641,Birkemosevej,6933,2,8.9426084,55.9245547
1766648,Birkemosevej,6933,2A,8.943098,55.9224288
1766651,Birkemosevej,6933,4,8.9447269,55.9190189
1766652,Birkemosevej,6933,6,8.9381092,55.9051386
1766655,Birkemosevej,6933,8,8.9358723,55.9019889
1766657,Birkemosevej,6933,8A,8.928869,55.900954
1766658,Birkemosevej,6933,10,8.9366557,55.8983366
1766661,Birkemosevej,6933,12,8.9360213,55.8939739
1767612,Hesselvigvej,6933,1,8.9052465,55.9740733
1767613,Hesselvigvej,6933,2,8.9034616,55.9729008
1767614,Hesselvigvej,6933,3,8.9132461,55.9764752
1767615,Hesselvigvej,6933,4,8.904148,55.9729649
1767616,Hesselvigvej,6933,5,8.9291572,55.9786162
1767617,Hesselvigvej,6933,6,8.90469,55.9728672
1767620,Hesselvigvej,6933,7,8.9480076,55.9878357
1767622,Hesselvigvej,6933,7A,8.9479172,55.987936
1767624,Hesselvigvej,6933,7B,8.9454761,55.9873595
1767625,Hesselvigvej,6933,8,8.9053673,55.9730451
1767628,Hesselvigvej,6933,9,8.9557411,55.9923196
1767630,Hesselvigvej,6933,10,8.9059143,55.9731104
1768482,Skovvejen,6933,5,8.8002835,55.9765251
1768484,Skovvejen,6933,7,8.7952361,55.9780615
1768485,Skovvejen,6933,8,8.8023357,55.9798758
1768486,Skovvejen,6933,9,8.7873322,55.9787967
1768487,Skovvejen,6933,10,8.7821847,55.9796313
1768488,Skovvejen,6933,11,8.7777782,55.9799019
1768489,Skovvejen,6933,13,8.773335,55.9803997
1768646,Nørre Grenevej,6933,2,8.8829997,55.9533355
1768647,Nørre Grenevej,6933,3,8.86648,55.9554694
1768648,Nørre Grenevej,6933,4,8.8823198,55.9536224
1768649,Nørre Grenevej,6933,5,8.8679362,55.9548787
1768650,Nørre Grenevej,6933,6,8.8675296,55.9561491
1768651,Nørre Grenevej,6933,6A,8.8664547,55.9561134
1769587,Nyvej,6933,1,8.9338848,55.9358497
1769588,Nyvej,6933,3,8.934206,55.935907
1769591,Nyvej,6933,5,8.934173,55.9361027
1769594,Nyvej,6933,7,8.9346662,55.9361827
1769595,Nyvej,6933,9,8.9346685,55.9359932
1769701,Lavlundvej,6933,1,8.9699367,55.9585394
1769702,Lavlundvej,6933,2,8.9705325,55.9594178
1769703,Lavlundvej,6933,3,8.9821535,55.9593494
1769704,Lavlundvej,6933,5,8.9955985,55.9630011
1769705,Lavlundvej,6933,5A,8.9977623,55.9645904
1769706,Lavlundvej,6933,7,9.0036465,55.9654367
1770011,Bæktoftvej,6933,1,8.9193503,55.9482652
1770012,Bæktoftvej,6933,2,8.9024755,55.956752
1770013,Bæktoftvej,6933,4,8.905728,55.9505189
1770014,Bæktoftvej,6933,6,8.9127142,55.9494049
1770015,Bæktoftvej,6933,8,8.9190791,55.9450531
1770409,Over Silstrupvej,6933,1,8.8478612,55.9739419
1770411,Over Silstrupvej,6933,2,8.857902,55.9774804
1770413,Over Silstrupvej,6933,3,8.8461363,55.9724712
1770414,Over Silstrupvej,6933,4,8.8399064,55.976288
1770417,Over Silstrupvej,6933,5,8.838983,55.9741261
1770622,Kirkepladsen,6933,1B,8.8971578,55.9770563
1770623,Kirkepladsen,6933,2,8.8974883,55.9773187
1770626,Kirkepladsen,6933,3,8.8967283,55.9771664
1770627,Kirkepladsen,6933,4,8.8972995,55.9773118
1770629,Kirkepladsen,6933,5,8.8966352,55.976903
1770632,Kirkepladsen,6933,6,8.8969883,55.9773222
1770633,Kirkepladsen,6933,7,8.896088,55.977239
1770636,Kirkepladsen,6933,8,8.8963894,55.9773129
1770638,Kirkepladsen,6933,9,8.895532,55.97731
1771029,Clasonsborgvej,6933,1,8.9117764,55.9417834
1771030,Clasonsborgvej,6933,2,8.9154652,55.9425724
1771031,Clasonsborgvej,6933,3,8.9089262,55.9374607
1771032,Clasonsborgvej,6933,5,8.9126296,55.9361583
1771254,Sdr Grenevej,6933,1,8.877091,55.9390613
1771255,Sdr Grenevej,6933,2,8.872182,55.93996
1771256,Sdr Grenevej,6933,4,8.8630585,55.9429782
1771634,Skarrild Overbyvej,6933,1,8.850214,56.004665
1771635,Skarrild Overbyvej,6933,2,8.8621716,55.987587
1771636,Skarrild Overbyvej,6933,3,8.8563728,55.9979412
1771637,Skarrild Overbyvej,6933,4,8.853713,55.980177
1771638,Skarrild Overbyvej,6933,5,8.8608995,55.9961143
1771639,Skarrild Overbyvej,6933,6,8.8570309,55.9792168
1771640,Skarrild Overbyvej,6933,7,8.8666524,55.9886181
1771641,Skarrild Overbyvej,6933,8,8.8649097,55.978312
1771642,Skarrild Overbyvej,6933,9,8.865779,55.9847642
1771643,Skarrild Overbyvej,6933,9B,8.866018,55.9849241
1771644,Skarrild Overbyvej,6933,10,8.8661167,55.9750196
1771645,Skarrild Overbyvej,6933,11,8.8647171,55.9835619
1771646,Skarrild Overbyvej,6933,13,8.8681191,55.9829076
1771647,Skarrild Overbyvej,6933,15,8.865138,55.9802997
1771650,Skarrild Overbyvej,6933,17,8.8729674,55.975598
1772095,Engvej,6933,2,8.897123,55.976137
1772096,Engvej,6933,6,8.8954287,55.9754575
1796200,Timlundvej,6933,45,8.8743914,55.9322843
1796201,Timlundvej,6933,46,8.8708774,55.9256095
1796203,Timlundvej,6933,47,8.8770225,55.9334371
1796207,Timlundvej,6933,48,8.8740794,55.9266746
1796209,Timlundvej,6933,49,8.8808599,55.93527
1796213,Timlundvej,6933,49A,8.8751116,55.9352226
1796215,Timlundvej,6933,49B,8.8746389,55.9360952
1796221,Timlundvej,6933,49C,8.8735151,55.9358832
1796224,Timlundvej,6933,51,8.8819805,55.9363397
1796227,Timlundvej,6933,51B,8.8849224,55.9372666
1796486,Skjernvej,6933,101,8.9196165,55.983169
1796487,Skjernvej,6933,101B,8.919703,55.9795601
1796489,Skjernvej,6933,102,8.9031588,55.980254
1796491,Skjernvej,6933,102A,8.931727,55.991298
1796492,Skjernvej,6933,102B,8.8990796,55.9902438
1796494,Skjernvej,6933,103,8.9179203,55.9829156
1796495,Skjernvej,6933,103B,8.9156549,55.9803439
1796496,Skjernvej,6933,104,8.8916587,55.977013
1796499,Skjernvej,6933,105,8.9104651,55.9817249
1796500,Skjernvej,6933,106,8.889178,55.9763707
1796501,Skjernvej,6933,107,8.9023864,55.9794071
1796502,Skjernvej,6933,108,8.8870763,55.9753738
1796504,Skjernvej,6933,110,8.8870737,55.9757109
1796506,Skjernvej,6933,111,8.9006964,55.9785243
1796508,Skjernvej,6933,112,8.8862193,55.9755107
1796509,Skjernvej,6933,113,8.8858976,55.9736857
1796511,Skjernvej,6933,114,8.8855257,55.9753622
1796513,Skjernvej,6933,115,8.8804336,55.973214
1796514,Skjernvej,6933,115A,8.8841136,55.974379
1796516,Skjernvej,6933,115B,8.8816136,55.9719335
1796518,Skjernvej,6933,116,8.8847433,55.975145
1796519,Skjernvej,6933,117,8.874472,55.9706834
1796521,Skjernvej,6933,117A,8.8802442,55.9718079
1796522,Skjernvej,6933,117B,8.8844909,55.9693407
1796524,Skjernvej,6933,117C,8.8823353,55.9690568
1796525,Skjernvej,6933,118,8.8807861,55.9740884
1796527,Skjernvej,6933,118A,8.8814086,55.9763977
1796530,Skjernvej,6933,118B,8.8484467,55.9665757
1796531,Skjernvej,6933,118C,8.8476323,55.9662722
1796532,Skjernvej,6933,118D,8.846943,55.965935
1796534,Skjernvej,6933,119,8.8712601,55.9683767
1796536,Skjernvej,6933,119A,8.8771832,55.9666379
1796538,Skjernvej,6933,119B,8.876964,55.9660993
1796540,Skjernvej,6933,120,8.8506886,55.9615323
1796541,Skjernvej,6933,121,8.86984,55.9678389
1796544,Skjernvej,6933,123,8.8689839,55.9678825
1796548,Skjernvej,6933,127,8.8680124,55.967566
1796550,Skjernvej,6933,127A,8.8751817,55.9651197
1796551,Skjernvej,6933,127B,8.8697685,55.9663312
1796556,Skjernvej,6933,129,8.8672324,55.9674652
1796559,Skjernvej,6933,131,8.8671719,55.9629133
1796560,Skjernvej,6933,131A,8.8668648,55.9623029
1796564,Skjernvej,6933,133,8.8617458,55.9648749
1796566,Skjernvej,6933,133A,8.852248,55.961568
1796569,Skjernvej,6933,135,8.860925,55.9620046
1796572,Skjernvej,6933,137,8.8562026,55.9614488
1796575,Skjernvej,6933,139,8.8574339,55.9588498
1807961,Sønder Ommevej,6933,1,8.8988507,55.9728549
1807962,Sønder Ommevej,6933,2,8.8835613,55.9512832
1807963,Sønder Ommevej,6933,2A,8.8970008,55.9717551
1807965,Sønder Ommevej,6933,2B,8.8935117,55.970602
1807967,Sønder Ommevej,6933,3,8.8990409,55.9726596
1807968,Sønder Ommevej,6933,4,8.8807511,55.9504639
1807970,Sønder Ommevej,6933,5,8.8987271,55.9725731
1807971,Sønder Ommevej,6933,7,8.8986103,55.9724005
1807973,Sønder Ommevej,6933,8,8.8831622,55.9481028
1807974,Sønder Ommevej,6933,9,8.898542,55.9722739
1807975,Sønder Ommevej,6933,10,8.883788,55.9480689
1807977,Sønder Ommevej,6933,11,8.8987658,55.9719866
1807978,Sønder Ommevej,6933,12,8.8927627,55.933471
1807980,Sønder Ommevej,6933,13,8.8986836,55.9718255
1807982,Sønder Ommevej,6933,14,8.8889407,55.9304486
1807983,Sønder Ommevej,6933,15,8.898222,55.9716238
1807984,Sønder Ommevej,6933,16,8.8950594,55.930339
1807985,Sønder Ommevej,6933,18,8.896182,55.928047
1807986,Sønder Ommevej,6933,19A,8.8986952,55.9676162
1807987,Sønder Ommevej,6933,20A,8.9004509,55.927727
1807988,Sønder Ommevej,6933,20B,8.9005087,55.9276465
1807989,Sønder Ommevej,6933,21,8.8874819,55.9524599
1807990,Sønder Ommevej,6933,22,8.9002968,55.9256452
1807991,Sønder Ommevej,6933,23,8.8914573,55.9467303
1807992,Sønder Ommevej,6933,25,8.8988761,55.9333956
1807993,Sønder Ommevej,6933,27,8.9004769,55.9285551
1807994,Sønder Ommevej,6933,28A,8.893673,55.9078018
1813946,Vardevej,6933,101,8.8883913,56.0517059
1813947,Vardevej,6933,102,8.8872023,56.0539442
1813948,Vardevej,6933,103,8.8892033,56.0494466
1813949,Vardevej,6933,103A,8.8888644,56.0494967
1813950,Vardevej,6933,104,8.8821615,56.049048
1813951,Vardevej,6933,104B,8.8519097,56.0250876
1813952,Vardevej,6933,105,8.88547,56.0489697
1813953,Vardevej,6933,106,8.85146,56.023339
1813954,Vardevej,6933,107,8.8866045,56.0452192
1813955,Vardevej,6933,108,8.84922,56.016016
1813956,Vardevej,6933,109,8.8813277,56.0424698
1813957,Vardevej,6933,110,8.8496489,56.0148425
1813958,Vardevej,6933,111,8.854283,56.017217
1813959,Vardevej,6933,112,8.849941,56.0141492
1813960,Vardevej,6933,113,8.8504277,56.0144089
1813961,Vardevej,6933,114,8.8490559,56.0130675
1813963,Vardevej,6933,114B,8.8496206,56.0132903
1813965,Vardevej,6933,115,8.8502758,56.0124809
1813967,Vardevej,6933,116,8.8493831,56.0125502
1813969,Vardevej,6933,117,8.8497046,56.0118247
1813970,Vardevej,6933,118,8.8493646,56.0123522
1813971,Vardevej,6933,119,8.850536,56.0120341
1813972,Vardevej,6933,120,8.849248,56.011771
1813973,Vardevej,6933,120A,8.8450867,56.0063677
1813974,Vardevej,6933,121,8.8508213,56.0116748
1813975,Vardevej,6933,122,8.844383,56.002274
1813976,Vardevej,6933,122A,8.8425799,55.9982302
1813977,Vardevej,6933,122B,8.837775,56.002081
1813978,Vardevej,6933,123,8.851517,56.012192
1813979,Vardevej,6933,124,8.8392864,55.9936763
1813980,Vardevej,6933,125,8.8441744,56.0000797
1813982,Vardevej,6933,126,8.826891,55.9776631
1813984,Vardevej,6933,127,8.8430305,55.9976698
1813990,Vardevej,6933,128,8.8245812,55.9780473
1813993,Vardevej,6933,129,8.8482452,55.9960721
1814000,Vardevej,6933,130,8.8201952,55.9780509
1814007,Vardevej,6933,131,8.8515177,55.9956961
1814017,Vardevej,6933,133,8.8428314,55.9938932
1814025,Vardevej,6933,135,8.8477256,55.9924923
1814033,Vardevej,6933,137,8.840953,55.989098
1814042,Vardevej,6933,139,8.8374566,55.9851096
1814048,Vardevej,6933,139B,8.8367723,55.9829463
1814057,Vardevej,6933,141,8.8358063,55.98289
1814064,Vardevej,6933,143,8.8360886,55.9800459
1814075,Vardevej,6933,145,8.8303405,55.9764865
1815965,Nørre Karstoftvej,6933,2,8.8990203,55.9732058
1815966,Nørre Karstoftvej,6933,4,8.899421,55.973123
1815967,Nørre Karstoftvej,6933,6,8.8996448,55.9730856
1815968,Nørre Karstoftvej,6933,8,8.8999385,55.9730283
1815969,Nørre Karstoftvej,6933,9,8.937914,55.9616905
1815970,Nørre Karstoftvej,6933,10,8.900256,55.97297
1815971,Nørre Karstoftvej,6933,11,8.9415295,55.957874
1815972,Nørre Karstoftvej,6933,11A,8.9354732,55.957618
1815973,Nørre Karstoftvej,6933,12,8.9006003,55.9729081
1815974,Nørre Karstoftvej,6933,13,8.9753187,55.9325606
1815975,Nørre Karstoftvej,6933,13A,8.9717318,55.9355788
1815976,Nørre Karstoftvej,6933,15,8.975057,55.9391793
1815977,Nørre Karstoftvej,6933,17,8.9808152,55.9325443
1815979,Nørre Karstoftvej,6933,19,8.9962446,55.9298316
1815981,Nørre Karstoftvej,6933,20,8.9261261,55.9561981
1815982,Nørre Karstoftvej,6933,20A,8.9254505,55.9527302
1815985,Nørre Karstoftvej,6933,21,8.9945383,55.9358579
1815987,Nørre Karstoftvej,6933,22,8.9247147,55.9516545
1815989,Nørre Karstoftvej,6933,24,8.9327019,55.9500892
1815991,Nørre Karstoftvej,6933,24B,8.9319548,55.9502383
1815993,Nørre Karstoftvej,6933,26,8.9343452,55.9502914
1815995,Nørre Karstoftvej,6933,30,8.9440831,55.9374785
1815997,Nørre Karstoftvej,6933,30A,8.9668171,55.9278835
1816002,Nørre Karstoftvej,6933,34,8.9829692,55.9290369
1816004,Nørre Karstoftvej,6933,36,8.9967512,55.9270311
1865183,Tinghøjvej,6933,6,8.792307,56.087497
1865184,Tinghøjvej,6933,7,8.802584,56.086802
1865185,Tinghøjvej,6933,8,8.798976,56.084451
1865187,Tinghøjvej,6933,9,8.804228,56.080437
1865190,Tinghøjvej,6933,10,8.799613,56.080638
1865191,Tinghøjvej,6933,12,8.80222,56.075575
1866117,Kirkebakken,6933,1,8.813012,56.07376
1866121,Kirkebakken,6933,2,8.813365,56.073718
1866122,Kirkebakken,6933,3,8.81314,56.074067
1866127,Kirkebakken,6933,4,8.813475,56.074039
1866131,Kirkebakken,6933,5,8.813349,56.074633
1867115,Lærkedalvej,6933,1,8.818427,56.061284
1867116,Lærkedalvej,6933,2,8.816497,56.064212
1867118,Lærkedalvej,6933,3,8.820152,56.059668
1867120,Lærkedalvej,6933,4,8.816932,56.059718
1867121,Lærkedalvej,6933,5,8.814653,56.058605
1867122,Lærkedalvej,6933,7,8.80973,56.05739
1867123,Lærkedalvej,6933,9,8.803045,56.056644
1870021,Store Fjelstervangvej,6933,18,8.7724161,56.0750945
1870024,Store Fjelstervangvej,6933,21,8.7873622,56.0793534
1870026,Store Fjelstervangvej,6933,22,8.7809131,56.0762542
1870027,Store Fjelstervangvej,6933,23,8.7832146,56.0826181
1870028,Store Fjelstervangvej,6933,24,8.7816746,56.0730756
1870031,Store Fjelstervangvej,6933,24A,8.776555,56.073503
1870034,Store Fjelstervangvej,6933,25,8.7854747,56.0758597
1870035,Store Fjelstervangvej,6933,26,8.79168,56.073718
1870037,Store Fjelstervangvej,6933,27,8.793238,56.0741076
1870038,Store Fjelstervangvej,6933,29,8.793746,56.078149
1876230,Haunstrupvej,6933,1,8.812041,56.073396
1876237,Haunstrupvej,6933,2,8.811005,56.073979
1876240,Haunstrupvej,6933,4,8.810134,56.074303
1876241,Haunstrupvej,6933,5,8.807186,56.075955
1876243,Haunstrupvej,6933,6,8.812471,56.089493
1876244,Haunstrupvej,6933,7,8.809507,56.082491
1876248,Haunstrupvej,6933,9,8.808174,56.090206
1879880,Vorgodvej,6933,2,8.8135787,56.0458456
1879882,Vorgodvej,6933,2A,8.8544256,56.0375391
1879883,Vorgodvej,6933,2C,8.82931,56.0456938
1879884,Vorgodvej,6933,2D,8.8270562,56.0480572
1879885,Vorgodvej,6933,2E,8.8542181,56.0369364
1879886,Vorgodvej,6933,3,8.8190856,56.0404463
1879887,Vorgodvej,6933,4,8.8134436,56.0515941
1879888,Vorgodvej,6933,4A,8.8097339,56.050911
1879889,Vorgodvej,6933,4B,8.8278529,56.0489733
1879890,Vorgodvej,6933,5,8.8162189,56.0431541
1879892,Vorgodvej,6933,6,8.7997961,56.0492916
1879894,Vorgodvej,6933,7,8.802897,56.047206
1879896,Vorgodvej,6933,8,8.7971282,56.0502318
1879897,Vorgodvej,6933,9,8.7955558,56.0457493
1879898,Vorgodvej,6933,10,8.8016636,56.05121
1879899,Vorgodvej,6933,11,8.7944892,56.0431851
1879900,Vorgodvej,6933,13,8.7936089,56.0495384
1880830,Aavænget,6933,1,8.8551932,56.0352456
1880832,Aavænget,6933,2,8.8553862,56.0349933
1880833,Aavænget,6933,3,8.855563,56.035335
1880836,Aavænget,6933,5,8.8558786,56.0354442
1880837,Aavænget,6933,7,8.8561346,56.0355448
1880839,Aavænget,6933,9,8.8563759,56.0356511
1880842,Aavænget,6933,10,8.8566949,56.0354554
1880843,Aavænget,6933,11,8.8566312,56.035809
1880845,Aavænget,6933,11A,8.8556911,56.0358029
1880847,Aavænget,6933,11B,8.8560551,56.0359732
1880849,Aavænget,6933,13,8.85691,56.0360252
1880850,Aavænget,6933,14,8.8573537,56.0359618
1880853,Aavænget,6933,15,8.857057,56.036151
1880854,Aavænget,6933,16,8.857579,56.036179
1880856,Aavænget,6933,17,8.8571754,56.0362926
1880857,Aavænget,6933,18,8.85775,56.03634
1880860,Aavænget,6933,19,8.8573902,56.036502
1880862,Aavænget,6933,21,8.8575196,56.03664
1881042,Bjørslevvej,6933,1,8.8125064,56.0281583
1881043,Bjørslevvej,6933,2,8.806747,56.0319372
1881044,Bjørslevvej,6933,2A,8.8110587,56.0300526
1881045,Bjørslevvej,6933,3,8.8108966,56.0270264
1881046,Bjørslevvej,6933,4,8.8033134,56.0333503
1881047,Bjørslevvej,6933,5,8.8081783,56.0251449
1881048,Bjørslevvej,6933,7,8.8027841,56.026028
1882259,Tjørnevænget,6933,1,8.813049,56.072668
1882260,Tjørnevænget,6933,2,8.812621,56.072776
1882261,Tjørnevænget,6933,3,8.812925,56.072509
1882262,Tjørnevænget,6933,4,8.812533,56.072561
1882263,Tjørnevænget,6933,5,8.812877,56.072288
1882264,Tjørnevænget,6933,6,8.812439,56.072338
1882483,Fjelstrupvej,6933,1,8.788174,56.0447722
1882484,Fjelstrupvej,6933,2,8.7816263,56.0468829
1882485,Fjelstrupvej,6933,3,8.7859799,56.0432542
1882486,Fjelstrupvej,6933,7,8.781791,56.036474
1882487,Fjelstrupvej,6933,8,8.784011,56.040668
1882997,Sønderlundvej,6933,1,8.795893,56.058228
1882998,Sønderlundvej,6933,2,8.793003,56.052954
1882999,Sønderlundvej,6933,3,8.798008,56.061002
1883000,Sønderlundvej,6933,4,8.802815,56.066506
1883001,Sønderlundvej,6933,5,8.798751,56.065526
1883002,Sønderlundvej,6933,7,8.795255,56.065275
1883209,Skærbækvej,6933,18,8.768116,56.0466
1883210,Skærbækvej,6933,19,8.769216,56.04942
1883211,Skærbækvej,6933,21,8.773043,56.046078
1883212,Skærbækvej,6933,23,8.77871,56.046682
1884256,Overvej,6933,1,8.818694,56.070771
1884257,Overvej,6933,2,8.810648,56.07259
1884258,Overvej,6933,3,8.817228,56.070929
1884259,Overvej,6933,4,8.803211,56.072776
1884260,Overvej,6933,5,8.815492,56.070112
1884261,Overvej,6933,7,8.815664,56.071161
1884262,Overvej,6933,9,8.814281,56.070906
1884263,Overvej,6933,11,8.808742,56.072091
1884264,Overvej,6933,13,8.806437,56.071072
1916807,Bjerregårds Alle,6933,2,8.819844,56.072584
1916808,Bjerregårds Alle,6933,3A,8.819845,56.07281
1916809,Bjerregårds Alle,6933,3B,8.82,56.072795
1916810,Bjerregårds Alle,6933,3C,8.820234,56.072787
1916811,Bjerregårds Alle,6933,3D,8.820443,56.072773
1916812,Bjerregårds Alle,6933,4A,8.820074,56.072419
1916813,Bjerregårds Alle,6933,4B,8.819917,56.07216
1916814,Bjerregårds Alle,6933,5,8.820911,56.072736
1916815,Bjerregårds Alle,6933,11A,8.822211,56.072639
1916816,Bjerregårds Alle,6933,11B,8.822399,56.072798
1916817,Bjerregårds Alle,6933,13,8.822764,56.072721
1916818,Bjerregårds Alle,6933,14A,8.822719,56.072359
1916819,Bjerregårds Alle,6933,19A,8.824126,56.072628
1916820,Bjerregårds Alle,6933,19B,8.824308,56.072607
1916821,Bjerregårds Alle,6933,19C,8.824486,56.072587
1916822,Bjerregårds Alle,6933,19D,8.824667,56.072567
1916823,Bjerregårds Alle,6933,23,8.825424,56.072592
1916824,Bjerregårds Alle,6933,25,8.825683,56.072597
1916999,Nørrevænget,6933,1,8.822973,56.073142
1917000,Nørrevænget,6933,1A,8.822431,56.072962
1917001,Nørrevænget,6933,2,8.823869,56.073311
1917002,Nørrevænget,6933,2A,8.823368,56.072753
1917003,Nørrevænget,6933,3,8.822785,56.073178
1917004,Nørrevænget,6933,4,8.824383,56.073145
1917005,Nørrevænget,6933,5,8.822601,56.073212
1917006,Nørrevænget,6933,6,8.824868,56.073118
1917007,Nørrevænget,6933,7,8.822412,56.073247
1917008,Nørrevænget,6933,8,8.824913,56.073306
1917009,Nørrevænget,6933,9,8.822221,56.073283
1917010,Nørrevænget,6933,10,8.82453,56.073404
1917011,Nørrevænget,6933,11,8.822037,56.073318
1917012,Nørrevænget,6933,12,8.82405,56.073608
1917013,Nørrevænget,6933,13,8.821842,56.073354
1917014,Nørrevænget,6933,14,8.824196,56.073933
1917015,Nørrevænget,6933,15,8.821654,56.073389
1917016,Nørrevænget,6933,16,8.824579,56.073907
1917017,Nørrevænget,6933,17,8.821787,56.073621
1917018,Nørrevænget,6933,18,8.824915,56.073806
1917019,Nørrevænget,6933,19,8.821971,56.073589
1917020,Nørrevænget,6933,20,8.825341,56.073824
1917021,Nørrevænget,6933,21,8.822163,56.073553
1917022,Nørrevænget,6933,22,8.825435,56.074106
1917025,Nørrevænget,6933,23,8.822349,56.073516
1917026,Nørrevænget,6933,24,8.825581,56.074338
1917029,Nørrevænget,6933,25,8.822531,56.073482
1917030,Nørrevænget,6933,26,8.825061,56.074349
1917033,Nørrevænget,6933,27,8.82272,56.073448
1917038,Nørrevænget,6933,28,8.824978,56.074169
1917040,Nørrevænget,6933,29,8.82292,56.073411
1917045,Nørrevænget,6933,30,8.824524,56.074206
1917048,Nørrevænget,6933,31,8.823109,56.073377
1917050,Nørrevænget,6933,32,8.824187,56.074293
1917054,Nørrevænget,6933,33,8.82157,56.0741
1917058,Nørrevænget,6933,35,8.82218,56.073869
1917060,Nørrevænget,6933,37,8.822388,56.07407
1917065,Nørrevænget,6933,39,8.822436,56.074377
1917066,Nørrevænget,6933,41,8.822553,56.074639
1917069,Nørrevænget,6933,43,8.823066,56.074547
1917074,Nørrevænget,6933,45,8.822986,56.074333
1917076,Nørrevænget,6933,47,8.822862,56.074067
1917080,Nørrevænget,6933,49,8.82268,56.073757
1917084,Nørrevænget,6933,51,8.823344,56.073654
1917086,Nørrevænget,6933,53,8.823517,56.073896
1917091,Nørrevænget,6933,55,8.823621,56.074103
1917094,Nørrevænget,6933,57,8.823639,56.074346
1917852,Langgade,6933,1,8.819409,56.07256
1917854,Langgade,6933,2,8.818616,56.072932
1917855,Langgade,6933,3,8.819129,56.072685
1917858,Langgade,6933,3A,8.819204,56.072644
1917859,Langgade,6933,3B,8.818925,56.072451
1917860,Langgade,6933,3C,8.819058,56.07255
1917862,Langgade,6933,5,8.818735,56.072719
1917864,Langgade,6933,6,8.81797,56.073089
1917866,Langgade,6933,7,8.818441,56.072789
1917867,Langgade,6933,8,8.817633,56.073103
1917870,Langgade,6933,9,8.81788,56.072863
1917872,Langgade,6933,10,8.817361,56.073173
1917873,Langgade,6933,11,8.817603,56.072906
1917875,Langgade,6933,12,8.816993,56.07323
1917877,Langgade,6933,13,8.817113,56.072951
1917879,Langgade,6933,14A,8.816535,56.073758
1917881,Langgade,6933,15,8.816741,56.072963
1917884,Langgade,6933,16,8.815966,56.073346
1917886,Langgade,6933,17,8.816299,56.07303
1917888,Langgade,6933,18,8.815543,56.073353
1917890,Langgade,6933,19,8.815809,56.073077
1917892,Langgade,6933,20,8.815228,56.073431
1917894,Langgade,6933,21,8.815601,56.073061
1917896,Langgade,6933,22,8.814833,56.073478
1917898,Langgade,6933,23,8.815068,56.073181
1917899,Langgade,6933,24,8.814208,56.073628
1917901,Langgade,6933,24A,8.814439,56.074134
1917903,Langgade,6933,25,8.814658,56.073239
1917904,Langgade,6933,26,8.813933,56.074031
1919204,Paarupvej,6933,1,8.8488175,56.0113508
1919207,Paarupvej,6933,2,8.8476143,56.0113227
1919209,Paarupvej,6933,4,8.8472272,56.0112159
1919212,Paarupvej,6933,7,8.8483697,56.0113203
1919214,Paarupvej,6933,14,8.8342359,56.0079274
1919218,Paarupvej,6933,15,8.8353089,56.0071172
1919220,Paarupvej,6933,16,8.8303875,56.0064437
1919223,Paarupvej,6933,17,8.8291881,56.0033645
1919224,Paarupvej,6933,18,8.8257551,56.0043699
1919228,Paarupvej,6933,19,8.7963594,55.9992977
1919230,Paarupvej,6933,19A,8.7951022,55.9961124
1919233,Paarupvej,6933,20,8.8251538,56.0071275
1919235,Paarupvej,6933,21,8.777855,56.000747
1919239,Paarupvej,6933,22,8.820537,56.005105
1919240,Paarupvej,6933,23,8.7691073,55.9990179
1919242,Paarupvej,6933,24,8.8098561,56.0005341
1919244,Paarupvej,6933,25,8.7628141,55.9981518
1919247,Paarupvej,6933,26,8.8084228,56.0002175
1919248,Paarupvej,6933,28,8.8078361,56.0000982
1919250,Paarupvej,6933,30,8.8056829,55.9999022
1919253,Paarupvej,6933,32,8.797738,56.00166
1919254,Paarupvej,6933,32B,8.7787012,56.0111888
1919255,Paarupvej,6933,34,8.7887568,56.0009828
1919258,Paarupvej,6933,36,8.7881283,56.0013327
1919260,Paarupvej,6933,38,8.785046,56.0014711
1919261,Paarupvej,6933,38B,8.7850342,56.0064528
1919262,Paarupvej,6933,40,8.7675562,56.0059249
1919265,Paarupvej,6933,42,8.7753119,56.0013305
1919267,Paarupvej,6933,44,8.7602645,56.003108
1919269,Paarupvej,6933,46,8.7575703,55.9981496
1919270,Paarupvej,6933,48,8.7563657,55.9984701
1919272,Paarupvej,6933,48A,8.7540552,56.0030552
1919478,Hveddevej,6933,1,8.8968445,55.9802814
1919480,Hveddevej,6933,2,8.8973005,55.9797551
1919482,Hveddevej,6933,4,8.8972882,55.9799513
1919484,Hveddevej,6933,5,8.8964254,55.9805824
1919485,Hveddevej,6933,6,8.8972505,55.9800996
1919489,Hveddevej,6933,7,8.8967899,55.9806609
1919491,Hveddevej,6933,8,8.8972151,55.9802682
1919492,Hveddevej,6933,9,8.8966259,55.9809692
1919493,Hveddevej,6933,10,8.8971768,55.9804338
1919494,Hveddevej,6933,12,8.8971976,55.9806432
1919495,Hveddevej,6933,14,8.897753,55.98081
1919496,Hveddevej,6933,16,8.8970668,55.9808786
1919497,Hveddevej,6933,18,8.8969989,55.9810627
1919498,Hveddevej,6933,19,8.895605,55.9816844
1919499,Hveddevej,6933,20,8.8967853,55.981282
1919500,Hveddevej,6933,29,8.8916685,55.9852961
1919501,Hveddevej,6933,30,8.8955377,55.9824374
1919502,Hveddevej,6933,31,8.8910904,55.9857441
1919503,Hveddevej,6933,32,8.8903156,55.9870127
1919504,Hveddevej,6933,33,8.8883702,55.9882971
1919505,Hveddevej,6933,34,8.8927196,55.9990692
1919506,Hveddevej,6933,35,8.8871333,55.99049
1919507,Hveddevej,6933,36,8.8918841,56.0016597
1919508,Hveddevej,6933,38,8.891284,56.006166
1919509,Hveddevej,6933,38B,8.891178,56.006371
1919510,Hveddevej,6933,39,8.888295,56.002231
1919511,Hveddevej,6933,39A,8.8869121,55.9992082
1919512,Hveddevej,6933,43,8.8917794,56.0128012
1920068,Vorgod Østerbyvej,6933,14,8.769783,56.056907
1920070,Vorgod Østerbyvej,6933,16,8.770746,56.052747
1920072,Vorgod Østerbyvej,6933,18,8.77524,56.056692
1920073,Vorgod Østerbyvej,6933,20,8.789949,56.052327
1920077,Vorgod Østerbyvej,6933,27,8.780479,56.05745
1920078,Vorgod Østerbyvej,6933,29,8.785546,56.056117
1920379,Velhustedvej,6933,1,8.8579669,56.0375886
1920380,Velhustedvej,6933,2,8.8587581,56.0375459
1920382,Velhustedvej,6933,3,8.8583024,56.0378287
1920384,Velhustedvej,6933,4,8.8591025,56.0375211
1920385,Velhustedvej,6933,5,8.858423,56.038098
1920386,Velhustedvej,6933,6,8.8601701,56.0380556
1920387,Velhustedvej,6933,8,8.8591183,56.0378526
1920388,Velhustedvej,6933,9,8.8585439,56.0382988
1920389,Velhustedvej,6933,11,8.858644,56.0384873
1920390,Velhustedvej,6933,12,8.8595115,56.0389134
1920391,Velhustedvej,6933,13,8.858722,56.0386666
1920392,Velhustedvej,6933,14,8.8822297,56.0504058
1920393,Velhustedvej,6933,15,8.858831,56.0388342
1920394,Velhustedvej,6933,15A,8.8548575,56.0380896
1920395,Velhustedvej,6933,16,8.881625,56.0535414
1920396,Velhustedvej,6933,17,8.8588971,56.0390283
1920397,Velhustedvej,6933,17A,8.859067,56.0391557
1920398,Velhustedvej,6933,17B,8.8593745,56.0394103
1920399,Velhustedvej,6933,17C,8.859498,56.0396628
1920400,Velhustedvej,6933,17D,8.8582777,56.0402092
1920401,Velhustedvej,6933,17E,8.857559,56.039393
1920402,Velhustedvej,6933,17F,8.8628155,56.0418705
1920404,Velhustedvej,6933,19,8.865037,56.046387
1920406,Velhustedvej,6933,21,8.8622586,56.0511814
1920407,Velhustedvej,6933,23,8.8671472,56.0517049
1920409,Velhustedvej,6933,23B,8.8663218,56.0530016
1920410,Velhustedvej,6933,25,8.8635694,56.0515696
1920411,Velhustedvej,6933,27,8.8710843,56.0509211
1920412,Velhustedvej,6933,27A,8.870099,56.056429
1920415,Velhustedvej,6933,27B,8.867391,56.057477
1920417,Velhustedvej,6933,29,8.875795,56.051418
1920418,Velhustedvej,6933,31,8.8749567,56.0537736
1920420,Velhustedvej,6933,33,8.876752,56.0519048
1920424,Velhustedvej,6933,39,8.8825444,56.0643648
1920426,Velhustedvej,6933,41,8.8790436,56.0651921
1920427,Velhustedvej,6933,43,8.87466,56.05997
1920448,Arnborgvej,6933,1,8.8607226,56.0315758
1920450,Arnborgvej,6933,4,8.877135,56.017095
1920451,Arnborgvej,6933,5,8.8615076,56.0312463
1920452,Arnborgvej,6933,6,8.8866544,56.0157016
1920453,Arnborgvej,6933,7,8.8669178,56.0286171
1920454,Arnborgvej,6933,8,8.8862832,56.0136841
1920455,Arnborgvej,6933,9,8.8758903,56.0216235
1920456,Arnborgvej,6933,10,8.8899362,56.0169402
1920457,Arnborgvej,6933,11,8.8808029,56.0247022
1920458,Arnborgvej,6933,12,8.905541,56.009725
1920459,Arnborgvej,6933,13,8.887593,56.027382
1920460,Arnborgvej,6933,14,8.912411,56.007438
1920462,Arnborgvej,6933,15,8.8791793,56.0174712
1920463,Arnborgvej,6933,17,8.8833403,56.0177909
1920464,Arnborgvej,6933,19,8.8841074,56.0178198
1920465,Arnborgvej,6933,21,8.8876309,56.0222427
1920468,Arnborgvej,6933,21B,8.88878,56.022
1920470,Arnborgvej,6933,23,8.9149072,56.0102398
1920500,Skovvænget,6933,1,8.8981629,55.9798719
1920501,Skovvænget,6933,2,8.8976932,55.9794586
1920502,Skovvænget,6933,3,8.8980889,55.9801303
1920503,Skovvænget,6933,4,8.897968,55.9795218
1920504,Skovvænget,6933,5,8.8979674,55.98029
1920505,Skovvænget,6933,6,8.8983442,55.9795293
1920506,Skovvænget,6933,7,8.8979963,55.9804983
1920507,Skovvænget,6933,8,8.8987385,55.9794861
1920508,Skovvænget,6933,9,8.8987788,55.9798136
1920509,Skovvænget,6933,10,8.8988757,55.9795016
1920510,Skovvænget,6933,19,8.9001278,55.9801119
1920511,Skovvænget,6933,20,8.8992835,55.9795209
1920512,Skovvænget,6933,22,8.8994144,55.9795352
1920513,Skovvænget,6933,24,8.899645,55.979589
1920514,Skovvænget,6933,26,8.8998137,55.9796088
1920515,Skovvænget,6933,28,8.899628,55.9792348
1920534,Kibækvej,6933,1,8.820347,56.070689
1920535,Kibækvej,6933,2,8.819046,56.07066
1920536,Kibækvej,6933,3,8.830191,56.068913
1920537,Kibækvej,6933,4,8.819419,56.07059
1920538,Kibækvej,6933,5,8.833833,56.0671
1920539,Kibækvej,6933,6,8.819891,56.070503
1920540,Kibækvej,6933,7,8.842198,56.068357
1920541,Kibækvej,6933,8,8.82742,56.068405
1920542,Kibækvej,6933,8A,8.823925,56.063662
1920543,Kibækvej,6933,9,8.841176,56.063953
1920544,Kibækvej,6933,10,8.834566,56.066179
1920545,Kibækvej,6933,11,8.846704,56.062905
1920546,Kibækvej,6933,12,8.840227,56.061056
1920547,Kibækvej,6933,13,8.848805,56.067342
1920548,Kibækvej,6933,15,8.844949,56.057585
1920549,Kibækvej,6933,17,8.849514,56.056567
1920550,Kibækvej,6933,19,8.851831,56.060538
1920575,Ollinghedevej,6933,2,8.8245041,56.0333368
1920576,Ollinghedevej,6933,4,8.8229766,56.0336534
1920577,Ollinghedevej,6933,5,8.8246931,56.0249677
1920578,Ollinghedevej,6933,6,8.8237161,56.0354133
1920579,Ollinghedevej,6933,7,8.8240806,56.0267536
1920580,Ollinghedevej,6933,8,8.8210934,56.0345133
1920581,Ollinghedevej,6933,9,8.8143525,56.03459
1920582,Ollinghedevej,6933,10,8.821105,56.0371709
1920583,Ollinghedevej,6933,11,8.8127712,56.0379325
1920584,Ollinghedevej,6933,12,8.8165904,56.0366663
1920585,Ollinghedevej,6933,13,8.8096611,56.0368279
1920586,Ollinghedevej,6933,13B,8.805826,56.039252
1920587,Ollinghedevej,6933,14,8.8087095,56.0410524
1920588,Ollinghedevej,6933,15,8.8016985,56.040009
1920589,Ollinghedevej,6933,17,8.7965007,56.0373771
1920590,Ollinghedevej,6933,19,8.805776,56.043044
1920822,Assingvej,6933,2,8.8500253,56.0110207
1920823,Assingvej,6933,5,8.8647226,56.0022167
1920824,Assingvej,6933,6,8.8600548,56.0041419
1920825,Assingvej,6933,7,8.8710046,56.0013449
1920826,Assingvej,6933,8,8.8645539,55.9988598
1920828,Assingvej,6933,9,8.880224,55.999216
1920830,Assingvej,6933,10,8.8694384,55.992344
1920831,Assingvej,6933,11,8.8748218,55.9954105
1920832,Assingvej,6933,12,8.8674618,55.994155
1920835,Assingvej,6933,13,8.8791147,55.9954072
1920837,Assingvej,6933,15,8.880169,55.9922746
1920840,Assingvej,6933,17,8.8834154,55.9909313
1920841,Assingvej,6933,19,8.8841243,55.9926612
1920843,Assingvej,6933,21,8.8860321,55.990659
1920924,Markvænget,6933,1,8.818844,56.071558
1920926,Markvænget,6933,2,8.818969,56.071856
1920928,Markvænget,6933,3,8.818536,56.071616
1920932,Markvænget,6933,4,8.818614,56.071877
1920933,Markvænget,6933,6,8.818211,56.072003
1920934,Markvænget,6933,8,8.817848,56.072054
1920937,Markvænget,6933,10,8.817445,56.072115
1920939,Markvænget,6933,12,8.817095,56.072186
1920941,Markvænget,6933,14,8.816847,56.072436
1920942,Markvænget,6933,16,8.816452,56.072343
1920945,Markvænget,6933,18,8.816065,56.0724
1920947,Markvænget,6933,20,8.815702,56.072471
1920948,Markvænget,6933,22,8.815334,56.072553
1920950,Markvænget,6933,24,8.815011,56.07264
1921100,Ollingvej,6933,1,8.853322,56.032341
1921101,Ollingvej,6933,3,8.8530642,56.0322712
1921104,Ollingvej,6933,4,8.837175,56.0318626
1921106,Ollingvej,6933,5,8.8528603,56.0322325
1921108,Ollingvej,6933,5A,8.8119522,56.0230818
1921110,Ollingvej,6933,6,8.8321232,56.0355089
1921113,Ollingvej,6933,7,8.8526281,56.032182
1921114,Ollingvej,6933,8,8.8346016,56.0312904
1921117,Ollingvej,6933,9,8.8525891,56.0320307
1921118,Ollingvej,6933,10,8.8172306,56.0223373
1921120,Ollingvej,6933,11,8.852262,56.03211
1921121,Ollingvej,6933,12,8.8067987,56.01142
1921122,Ollingvej,6933,13,8.852058,56.0320723
1921123,Ollingvej,6933,14,8.806279,56.0128418
1921124,Ollingvej,6933,16,8.8101912,56.0095062
1921125,Ollingvej,6933,16B,8.8099973,56.0096243
1921126,Ollingvej,6933,17,8.8516342,56.0319588
1921127,Ollingvej,6933,18,8.8030687,56.0086621
1921128,Ollingvej,6933,19,8.851424,56.0319148
1921129,Ollingvej,6933,20,8.8032446,56.0067074
1921130,Ollingvej,6933,21,8.8512201,56.0318781
1921131,Ollingvej,6933,23,8.8510181,56.0318336
1921132,Ollingvej,6933,25,8.8507985,56.0317863
1921133,Ollingvej,6933,27,8.8504855,56.0317082
1921134,Ollingvej,6933,29,8.8501027,56.0316512
1921135,Ollingvej,6933,31,8.8497847,56.0315774
1921136,Ollingvej,6933,33,8.8494962,56.0314904
1921137,Ollingvej,6933,37,8.8481395,56.0312287
1921138,Ollingvej,6933,37B,8.8480367,56.0306643
1921139,Ollingvej,6933,39,8.8478491,56.0311463
1921140,Ollingvej,6933,41,8.8475369,56.0310491
1921141,Ollingvej,6933,43,8.8472941,56.0309415
1921142,Ollingvej,6933,45,8.8470208,56.030995
1921143,Ollingvej,6933,47,8.846792,56.03093
1921144,Ollingvej,6933,49,8.8465221,56.0308256
1921145,Ollingvej,6933,51,8.8462671,56.030864
1921146,Ollingvej,6933,53,8.8459005,56.0307619
1921147,Ollingvej,6933,55,8.8425479,56.0298959
1921148,Ollingvej,6933,57,8.8324382,56.0271757
1921150,Ollingvej,6933,61,8.8292713,56.0265738
1921152,Ollingvej,6933,63,8.8249956,56.0263816
1921154,Ollingvej,6933,65,8.8199972,56.0231064
1921155,Ollingvej,6933,67,8.827483,56.017843
1921158,Ollingvej,6933,69,8.8119095,56.0059553
1921159,Ollingvej,6933,69B,8.8101642,56.0059043
1921214,Plantagevej,6933,1,8.8426941,56.0057569
1921216,Plantagevej,6933,2,8.84292,56.005989
1921217,Plantagevej,6933,3,8.842272,56.005836
1921219,Plantagevej,6933,4,8.8426567,56.0061729
1921220,Plantagevej,6933,5,8.8419379,56.0063072
1921221,Plantagevej,6933,5A,8.8421755,56.0062979
1921224,Plantagevej,6933,6,8.842302,56.0065442
1921225,Plantagevej,6933,7,8.8411948,56.0063633
1921226,Plantagevej,6933,9,8.8407789,56.006461
1921228,Plantagevej,6933,10,8.8411281,56.0065888
1921231,Plantagevej,6933,11,8.8403365,56.0064966
1921232,Plantagevej,6933,12,8.8408331,56.006629
1921234,Plantagevej,6933,14,8.8400262,56.0068007
1921235,Plantagevej,6933,16,8.8392549,56.006881
1921487,Farvergade,6933,1A,8.819765,56.072461
1921488,Farvergade,6933,1B,8.81973,56.072385
1921489,Farvergade,6933,2,8.819381,56.072396
1921490,Farvergade,6933,3,8.819665,56.072199
1921491,Farvergade,6933,4,8.818616,56.071074
1921492,Farvergade,6933,5,8.819577,56.071921
1921493,Farvergade,6933,7,8.819506,56.071725
1921494,Farvergade,6933,9,8.819444,56.071595
1921495,Farvergade,6933,11,8.819384,56.071467
1921496,Farvergade,6933,13,8.819317,56.071324
1921497,Farvergade,6933,15,8.819476,56.071093
1921537,Kildevangen,6933,1,8.8925644,55.9801208
1921540,Kildevangen,6933,2,8.8920679,55.9802807
1921543,Kildevangen,6933,3,8.8928088,55.9800996
1921545,Kildevangen,6933,4,8.891722,55.9801927
1921547,Kildevangen,6933,5,8.8931304,55.9800676
1921549,Kildevangen,6933,6,8.8913581,55.9802794
1921551,Kildevangen,6933,7,8.8930809,55.9798564
1921552,Kildevangen,6933,8,8.891297,55.980162
1921556,Kildevangen,6933,9,8.8927236,55.9798147
1921558,Kildevangen,6933,10,8.8913999,55.9799441
1921560,Kildevangen,6933,11,8.8922752,55.9798484
1921562,Kildevangen,6933,12,8.8914127,55.9797343
1921564,Kildevangen,6933,13,8.8918054,55.9795227
1921565,Kildevangen,6933,14,8.891845,55.9798696
1921606,Kaldalsvej,6933,1,8.8944594,55.9801765
1921608,Kaldalsvej,6933,2,8.8940588,55.9801371
1921610,Kaldalsvej,6933,3,8.8945319,55.9799579
1921613,Kaldalsvej,6933,4,8.8941134,55.9799152
1921614,Kaldalsvej,6933,5,8.8947295,55.9796951
1921617,Kaldalsvej,6933,6,8.8942438,55.9797396
1921618,Kaldalsvej,6933,7,8.8949022,55.9794938
1921622,Kaldalsvej,6933,8,8.894384,55.9794689
1921623,Kaldalsvej,6933,9,8.8950841,55.9793048
1921626,Kaldalsvej,6933,10,8.8945717,55.9792954
1921627,Kaldalsvej,6933,12,8.8948304,55.9790691
1921824,Rolighedsstræde,6933,1,8.819417,56.073103
1921826,Rolighedsstræde,6933,2,8.819619,56.07304
1921827,Rolighedsstræde,6933,3,8.81943,56.073294
1921830,Rolighedsstræde,6933,4,8.819829,56.073177
1921831,Rolighedsstræde,6933,5,8.819538,56.073498
1921832,Rolighedsstræde,6933,6,8.81981,56.073327
1921833,Rolighedsstræde,6933,8,8.819937,56.073469
1921834,Rolighedsstræde,6933,8A,8.821045,56.073323
1921835,Rolighedsstræde,6933,10,8.821405,56.075223
1921836,Rolighedsstræde,6933,12,8.82426,56.076586
1921987,Vejlgaardvej,6933,1,8.8144053,56.0161676
1921988,Vejlgaardvej,6933,2,8.8179096,56.0164559
1921989,Vejlgaardvej,6933,2A,8.815138,56.017596
1921990,Vejlgaardvej,6933,2B,8.8206784,56.0177523
1921991,Vejlgaardvej,6933,3,8.8028164,56.0151672
1921992,Vejlgaardvej,6933,3B,8.7978432,56.0146487
1921993,Vejlgaardvej,6933,4,8.8095835,56.0161024
1921994,Vejlgaardvej,6933,5,8.7921093,56.0143034
1921995,Vejlgaardvej,6933,6,8.8086631,56.015938
1921996,Vejlgaardvej,6933,8,8.8031275,56.0157577
1921997,Vejlgaardvej,6933,10,8.7967683,56.0177939
1922014,Albækhedevej,6933,1,8.8152613,56.0015845
1922017,Albækhedevej,6933,2,8.8091854,55.9977425
1922021,Albækhedevej,6933,4,8.7976048,55.9933819
1922022,Albækhedevej,6933,4A,8.7964906,55.9948957
1922024,Albækhedevej,6933,5,8.8118413,55.9989797
1922026,Albækhedevej,6933,5A,8.8054257,55.9949354
1922027,Albækhedevej,6933,6,8.796115,55.9907361
1922029,Albækhedevej,6933,7,8.796286,55.9856924
1922031,Albækhedevej,6933,8,8.7924714,55.9861722
1922035,Albækhedevej,6933,9,8.7987022,55.9817428
1922036,Albækhedevej,6933,10,8.7931301,55.981283
1922094,Peter Bangs Vej,6933,2,8.821892,56.071863
1922096,Peter Bangs Vej,6933,3,8.822501,56.071953
1922099,Peter Bangs Vej,6933,5,8.822983,56.071875
1922101,Peter Bangs Vej,6933,7,8.823352,56.071835
1922104,Peter Bangs Vej,6933,9,8.823725,56.071729
1922105,Peter Bangs Vej,6933,11,8.823609,56.071574
1922108,Peter Bangs Vej,6933,13,8.823198,56.071596
1922112,Peter Bangs Vej,6933,15,8.822786,56.071661
1922114,Peter Bangs Vej,6933,17,8.822375,56.071732
1922233,Nedre Bukkjærvej,6933,1,8.8339,55.9900068
1922234,Nedre Bukkjærvej,6933,2,8.833017,55.992375
1922235,Nedre Bukkjærvej,6933,3,8.8289875,55.9899676
1922236,Nedre Bukkjærvej,6933,4,8.8246307,55.9912151
1922237,Nedre Bukkjærvej,6933,5,8.8230377,55.9913283
1922238,Nedre Bukkjærvej,6933,6,8.8213373,55.9917209
1922239,Nedre Bukkjærvej,6933,7,8.8093088,55.9919372
1922240,Nedre Bukkjærvej,6933,8,8.8181456,55.9923283
1922343,Guldbjergvej,6933,1,8.8933655,56.0333366
1922345,Guldbjergvej,6933,2,8.9198592,56.0227693
1922346,Guldbjergvej,6933,5,8.9150911,56.0307089
1922347,Guldbjergvej,6933,7,8.9176836,56.0281283
1922350,Guldbjergvej,6933,7B,8.9179237,56.0282275
1922352,Guldbjergvej,6933,9,8.92538,56.0254706
1922354,Guldbjergvej,6933,9A,8.9309474,56.0250733
1922355,Guldbjergvej,6933,11,8.9287597,56.0285997
1922381,Søndergaardsvej,6933,1,8.8980159,55.9781448
1922382,Søndergaardsvej,6933,3,8.8985356,55.9783373
1922383,Søndergaardsvej,6933,4,8.8985595,55.9780906
1922384,Søndergaardsvej,6933,5,8.8988346,55.9784376
1922385,Søndergaardsvej,6933,6,8.8989261,55.9781816
1922388,Søndergaardsvej,6933,7,8.8991903,55.9785234
1922390,Søndergaardsvej,6933,8,8.8993075,55.9782239
1922406,Grankærvej,6933,1,8.8949494,56.0190839
1922408,Grankærvej,6933,2,8.8999376,56.0234057
1922410,Grankærvej,6933,3,8.903222,56.031313
1922411,Grankærvej,6933,4,8.9108144,56.0242273
1922412,Grankærvej,6933,4A,8.902472,56.0281938
1922413,Grankærvej,6933,5,8.9041545,56.0352269
1922414,Grankærvej,6933,6,8.909032,56.033982
1922415,Grankærvej,6933,8,8.9138687,56.0340367
1922416,Grankærvej,6933,10,8.909125,56.035698
1922417,Grankærvej,6933,12,8.9064725,56.0371461
1922447,Rævehøjvej,6933,1,8.7884425,55.9903014
1922448,Rævehøjvej,6933,2,8.7889498,55.9919187
1922449,Rævehøjvej,6933,3,8.7827669,55.9929067
1922450,Rævehøjvej,6933,4,8.7868209,55.9927444
1922451,Rævehøjvej,6933,5,8.778739,55.991738
1922452,Rævehøjvej,6933,6,8.7834514,55.9942257
1922453,Rævehøjvej,6933,7,8.7692639,55.9962961
1922454,Rævehøjvej,6933,8,8.7745658,55.9963969
1922456,Rævehøjvej,6933,10,8.7709453,55.9973673
1922501,Rugtoften,6933,1,8.815501,56.072211
1922504,Rugtoften,6933,2,8.814976,56.072332
1922507,Rugtoften,6933,3,8.815375,56.072052
1922509,Rugtoften,6933,4,8.814923,56.072145
1922511,Rugtoften,6933,5,8.815471,56.071802
1922512,Rugtoften,6933,6,8.814608,56.071976
1922516,Rugtoften,6933,7,8.815086,56.071833
1922554,Holm Parken,6933,1,8.8953846,55.9802034
1922555,Holm Parken,6933,3,8.8954653,55.9801448
1922556,Holm Parken,6933,5,8.8956763,55.9800748
1922557,Holm Parken,6933,7,8.8957734,55.980007
1922558,Holm Parken,6933,9,8.89529,55.979995
1922559,Holm Parken,6933,11,8.895162,55.979981
1922575,Havretoften,6933,1,8.817916,56.071741
1922576,Havretoften,6933,2,8.817415,56.071846
1922577,Havretoften,6933,3,8.817844,56.071531
1922578,Havretoften,6933,4,8.817376,56.071629
1922579,Havretoften,6933,5,8.817951,56.071308
1922580,Havretoften,6933,6,8.817089,56.071495
1922581,Havretoften,6933,7,8.817569,56.071314
1922607,Bygtoften,6933,1,8.816704,56.071989
1922610,Bygtoften,6933,2,8.816296,56.07202
1922611,Bygtoften,6933,3,8.816575,56.071799
1922613,Bygtoften,6933,4,8.816168,56.07185
1922615,Bygtoften,6933,5,8.816688,56.071578
1922616,Bygtoften,6933,6,8.815891,56.071753
1922617,Bygtoften,6933,7,8.816296,56.071582
1922662,Vejelsigvej,6933,1,8.7843935,55.9814407
1922663,Vejelsigvej,6933,1B,8.788033,55.982288
1922664,Vejelsigvej,6933,2,8.7726959,55.9862991
1922665,Vejelsigvej,6933,3,8.7807123,55.9838564
1922666,Vejelsigvej,6933,3A,8.7812562,55.985186
1922667,Vejelsigvej,6933,3B,8.7647598,55.9827872
1922669,Vejelsigvej,6933,4,8.7685049,55.9871497
1922671,Vejelsigvej,6933,6,8.7644898,55.9880413
1922672,Vejelsigvej,6933,8,8.7621737,55.989578
1922681,Fjelstervangvej,6933,1,8.8519991,56.0378672
1922683,Fjelstervangvej,6933,2,8.8524332,56.03748
1922685,Fjelstervangvej,6933,2A,8.852664,56.0375452
1922686,Fjelstervangvej,6933,3,8.8456753,56.0448074
1922687,Fjelstervangvej,6933,3B,8.8375712,56.0463711
1922688,Fjelstervangvej,6933,4,8.852766,56.0372206
1922689,Fjelstervangvej,6933,5,8.8382907,56.0493894
1922690,Fjelstervangvej,6933,6,8.8529593,56.0374467
1922691,Fjelstervangvej,6933,7,8.8331677,56.0516522
1922692,Fjelstervangvej,6933,8,8.853053,56.0376328
1922693,Fjelstervangvej,6933,9,8.8512024,56.0468107
1922694,Fjelstervangvej,6933,9A,8.8445431,56.0494791
1922695,Fjelstervangvej,6933,10,8.8525945,56.0377034
1922696,Fjelstervangvej,6933,11,8.8460903,56.05263
1922697,Fjelstervangvej,6933,11A,8.8340155,56.053394
1922698,Fjelstervangvej,6933,12,8.8528057,56.0380033
1922699,Fjelstervangvej,6933,14,8.8532442,56.0381151
1922700,Fjelstervangvej,6933,16,8.852779,56.0382324
1922701,Fjelstervangvej,6933,18,8.8526821,56.0386544
1922702,Fjelstervangvej,6933,20,8.853087,56.0385995
1922703,Fjelstervangvej,6933,22,8.8534809,56.0385408
1922704,Fjelstervangvej,6933,24,8.8537182,56.0387511
1922705,Fjelstervangvej,6933,26A,8.8532261,56.039102
1922706,Fjelstervangvej,6933,26B,8.8532079,56.0390753
1922707,Fjelstervangvej,6933,26C,8.853194,56.039049
1922708,Fjelstervangvej,6933,26D,8.8531697,56.0390261
1922709,Fjelstervangvej,6933,26E,8.8531499,56.0389985
1922710,Fjelstervangvej,6933,26F,8.8531334,56.0389691
1922711,Fjelstervangvej,6933,26G,8.8531169,56.0389416
1922712,Fjelstervangvej,6933,26H,8.8532608,56.0389952
1922713,Fjelstervangvej,6933,26K,8.8534354,56.0389217
1922714,Fjelstervangvej,6933,26L,8.8535341,56.0389011
1922715,Fjelstervangvej,6933,26M,8.8532268,56.038922
1922716,Fjelstervangvej,6933,26N,8.8533255,56.0389016
1922717,Fjelstervangvej,6933,26P,8.8535213,56.0388598
1922718,Fjelstervangvej,6933,30,8.8534749,56.0394262
1922719,Fjelstervangvej,6933,34,8.853024,56.0398304
1922720,Fjelstervangvej,6933,36,8.8533395,56.0400889
1922721,Fjelstervangvej,6933,38,8.8532684,56.0403858
1922722,Fjelstervangvej,6933,40,8.8563825,56.0423996
1922723,Fjelstervangvej,6933,50,8.855893,56.047152
1922724,Fjelstervangvej,6933,52,8.8520315,56.0512557
1922752,Skovsborgvej,6933,1,8.895386,55.9927048
1922755,Skovsborgvej,6933,1A,8.89509,55.986698
1922756,Skovsborgvej,6933,2,8.8964984,55.9839017
1922758,Skovsborgvej,6933,3,8.8998236,55.9992638
1922760,Skovsborgvej,6933,4,8.8991606,55.9902791
1922761,Skovsborgvej,6933,5,8.9050683,56.000544
1922763,Skovsborgvej,6933,6,8.905484,55.993897
1922765,Skovsborgvej,6933,7,8.9084462,56.0083876
1922846,Poppelvænget,6933,1,8.814299,56.07256
1922847,Poppelvænget,6933,2,8.813692,56.072652
1922848,Poppelvænget,6933,3,8.814098,56.072401
1922849,Poppelvænget,6933,4,8.813693,56.072413
1922850,Poppelvænget,6933,5,8.814045,56.072214
1922851,Poppelvænget,6933,6,8.813475,56.072188
1922852,Poppelvænget,6933,7,8.813903,56.072042
1922871,Alkhøjvej,6933,1,8.8523083,56.0114807
1922872,Alkhøjvej,6933,2,8.858687,56.011444
1922873,Alkhøjvej,6933,3,8.8597206,56.0147819
1922874,Alkhøjvej,6933,4,8.8679321,56.0147802
1922875,Alkhøjvej,6933,5,8.862847,56.014359
1922876,Alkhøjvej,6933,7,8.8724374,56.0161731
1922899,Bukkærvej,6933,5,8.841622,56.0070962
1922902,Bukkærvej,6933,6,8.8389986,56.0062716
1922906,Bukkærvej,6933,7,8.8296354,55.9991624
1922908,Bukkærvej,6933,7B,8.8365837,56.0007131
1922909,Bukkærvej,6933,8,8.8339134,56.0045613
1922911,Bukkærvej,6933,9,8.8260805,55.9961058
1922913,Bukkærvej,6933,10,8.8229252,55.9962371
1922986,Kirkegaardevej,6933,1,8.8318427,56.0112316
1922987,Kirkegaardevej,6933,2,8.8410875,56.0123269
1922989,Kirkegaardevej,6933,2B,8.8397384,56.0125136
1922991,Kirkegaardevej,6933,3,8.81596,56.0095291
1922992,Kirkegaardevej,6933,4,8.838374,56.0133764
1922993,Kirkegaardevej,6933,6,8.8230654,56.0114037
1923029,Harreskovvej,6933,1,8.8674674,56.0358112
1923032,Harreskovvej,6933,3,8.870323,56.035196
1923033,Harreskovvej,6933,4A,8.868314,56.03515
1923035,Harreskovvej,6933,4B,8.868264,56.034785
1923036,Harreskovvej,6933,4C,8.868075,56.034363
1923037,Harreskovvej,6933,6,8.8736642,56.0317049
1923038,Harreskovvej,6933,8,8.8824498,56.0301865
1923039,Harreskovvej,6933,10,8.9021585,56.0372374
1923040,Harreskovvej,6933,12,8.9290425,56.0343613
1923130,Albækvej,6933,1,8.817481,56.090172
1923131,Albækvej,6933,2,8.815812,56.086426
1923133,Albækvej,6933,4,8.822966,56.087637
1923147,Sønderkærvej,6933,1,8.8322413,55.9851117
1923148,Sønderkærvej,6933,1A,8.8314352,55.9853135
1923149,Sønderkærvej,6933,2,8.8345704,55.9856188
1923150,Sønderkærvej,6933,3,8.8268099,55.985758
1923151,Skolestræde,6933,1,8.812322,56.07382
1923152,Skolestræde,6933,2,8.812567,56.073807
1923153,Skolestræde,6933,3,8.811844,56.075199
1923154,Skolestræde,6933,4,8.812724,56.074157
1923160,Sdr Hveddevej,6933,1,8.8640873,56.0062403
1923161,Sdr Hveddevej,6933,2,8.87329,56.0065114
1923162,Sdr Hveddevej,6933,4,8.8828848,56.0073042
1923188,Hvedde Mosevej,6933,1,8.9096966,56.0186085
1923191,Hvedde Mosevej,6933,2,8.902962,56.016382
1923192,Hvedde Mosevej,6933,4,8.907226,56.015635
1923193,Hvedde Mosevej,6933,6,8.9129709,56.0158836
1923266,Agersigvej,6933,1,8.8465421,56.0179416
1923268,Agersigvej,6933,3,8.8417384,56.0198363
1923270,Agersigvej,6933,5,8.8374773,56.0205356
1923271,Agersigvej,6933,7,8.83243,56.022125
1923330,Solbakken,6933,1,8.8537528,56.0304759
1923332,Solbakken,6933,2,8.8534619,56.0305156
1923334,Solbakken,6933,3,8.854397,56.0302927
1923336,Solbakken,6933,4,8.8534146,56.0303049
1923339,Solbakken,6933,4A,8.853388,56.0302868
1923341,Solbakken,6933,5,8.853731,56.0302961
1923342,Solbakken,6933,6,8.8534006,56.0301314
1923345,Solbakken,6933,7,8.8537012,56.0301172
1923346,Solbakken,6933,8,8.853371,56.029996
1923349,Solbakken,6933,9,8.8536398,56.029964
1923350,Solbakken,6933,10,8.8533292,56.029785
1923351,Solbakken,6933,11,8.8536287,56.0297594
1923352,Solbakken,6933,12,8.8533021,56.0296602
1923353,Solbakken,6933,12A,8.8523076,56.0297944
1923354,Solbakken,6933,13,8.8536093,56.0296808
1923355,Solbakken,6933,14,8.8532941,56.029537
1923356,Solbakken,6933,15,8.8535836,56.0295596
1923357,Solbakken,6933,16,8.8532463,56.0293258
1923358,Solbakken,6933,17,8.8535329,56.0293815
1923360,Solbakken,6933,18,8.8532097,56.0291963
1923362,Solbakken,6933,19,8.8535359,56.0289796
1923364,Solbakken,6933,20,8.8531788,56.0290427
1923366,Solbakken,6933,20A,8.8522781,56.0288961
1923367,Solbakken,6933,21,8.8534376,56.0288684
1923370,Solbakken,6933,22,8.8531449,56.0288869
1923371,Solbakken,6933,23,8.853409,56.0286979
1923373,Solbakken,6933,24,8.8531054,56.0287083
1923376,Solbakken,6933,25,8.8533752,56.0285377
1923377,Solbakken,6933,26,8.8526114,56.0286632
1923379,Solbakken,6933,27,8.8533476,56.0283841
1923381,Solbakken,6933,28,8.851866,56.028573
1923382,Solbakken,6933,29,8.8533243,56.0282034
1923383,Solbakken,6933,30,8.8526834,56.0276935
1923384,Solbakken,6933,30A,8.8525151,56.0278924
1923385,Solbakken,6933,30B,8.8526009,56.0278766
1923386,Solbakken,6933,30C,8.8527624,56.0276333
1923387,Solbakken,6933,31,8.853282,56.027982
1923538,Skolevejen,6933,2,8.8960684,55.9789575
1923540,Skolevejen,6933,4,8.8954859,55.979107
1923544,Skolevejen,6933,6,8.8956034,55.9786316
1923556,Bøgevej,6933,2,8.8983197,55.9787478
1923557,Bøgevej,6933,4,8.8985754,55.9788484
1923558,Bøgevej,6933,6,8.8988108,55.9789347
1923559,Klintebakken,6933,1,8.8386159,56.0361244
1923560,Klintebakken,6933,2,8.8392819,56.0360432
1923561,Klintebakken,6933,3,8.8382872,56.0362781
1923562,Klintebakken,6933,4,8.8397701,56.0359528
1923563,Klintebakken,6933,5,8.8378918,56.0364551
1923564,Klintebakken,6933,6,8.8391828,56.0357508
1923565,Klintebakken,6933,7,8.8374118,56.03654
1923566,Klintebakken,6933,8,8.8396518,56.0356188
1923567,Klintebakken,6933,9,8.8368995,56.036711
1923568,Klintebakken,6933,10,8.8399908,56.0354062
1923569,Klintebakken,6933,11,8.8371636,56.0369286
1923570,Klintebakken,6933,12,8.8400889,56.0356022
1923571,Klintebakken,6933,13,8.8376461,56.036781
1923572,Klintebakken,6933,14,8.8405305,56.035797
1923573,Klintebakken,6933,15,8.8381209,56.0367054
1923574,Klintebakken,6933,16,8.8408929,56.0357207
1923575,Klintebakken,6933,17,8.8384783,56.0365555
1923576,Klintebakken,6933,18,8.840978,56.0354386
1923577,Klintebakken,6933,19,8.8387579,56.0363853
1923578,Klintebakken,6933,20,8.8408153,56.0352123
1923579,Klintebakken,6933,21,8.839295,56.0369608
1923580,Klintebakken,6933,22,8.8412834,56.0351427
1923581,Klintebakken,6933,23,8.838912,56.036992
1923582,Klintebakken,6933,24,8.8414117,56.0353456
1923583,Klintebakken,6933,25,8.8385413,56.0370686
1923584,Klintebakken,6933,26,8.8415398,56.0355538
1923585,Klintebakken,6933,27,8.8381254,56.0371555
1923587,Klintebakken,6933,28,8.8417851,56.0358832
1923589,Klintebakken,6933,29,8.8377371,56.0372366
1923590,Klintebakken,6933,30,8.8414597,56.035915
1923592,Klintebakken,6933,31,8.837284,56.0373303
1923594,Klintebakken,6933,32,8.8410286,56.0360609
1923596,Klintebakken,6933,33,8.8375982,56.0375387
1923597,Klintebakken,6933,34,8.840536,56.036089
1923598,Klintebakken,6933,35,8.8376997,56.0377699
1923599,Klintebakken,6933,36,8.84005,56.03616
1923600,Klintebakken,6933,37,8.8377986,56.037948
1923601,Klintebakken,6933,38,8.8396461,56.0362451
1923602,Klintebakken,6933,39,8.8381596,56.0377069
1923603,Klintebakken,6933,40,8.8397958,56.0366753
1923604,Klintebakken,6933,41,8.8385172,56.0376326
1923605,Klintebakken,6933,42,8.8401761,56.036596
1923606,Klintebakken,6933,43,8.8388602,56.0375622
1923607,Klintebakken,6933,44,8.8405482,56.0365196
1923608,Klintebakken,6933,45,8.8392882,56.0376548
1923609,Klintebakken,6933,46,8.8409415,56.0364752
1923610,Klintebakken,6933,47,8.8392237,56.037463
1923611,Klintebakken,6933,48,8.8413161,56.0364172
1923612,Klintebakken,6933,49,8.8390414,56.0372847
1923613,Klintebakken,6933,50,8.8416711,56.0362893
1923614,Klintebakken,6933,51,8.8396151,56.038272
1923615,Klintebakken,6933,52,8.8419743,56.0362488
1923616,Klintebakken,6933,53,8.8393839,56.0379532
1923617,Klintebakken,6933,54,8.8420409,56.0365533
1923618,Klintebakken,6933,55,8.8390342,56.0379877
1923619,Klintebakken,6933,56,8.841573,56.0365367
1923620,Klintebakken,6933,57,8.8392429,56.0383503
1923621,Klintebakken,6933,58,8.8412539,56.0366498
1923622,Klintebakken,6933,59,8.8388633,56.0384525
1923624,Klintebakken,6933,60,8.8408418,56.0367633
1923626,Klintebakken,6933,61,8.8386165,56.0380818
1923629,Klintebakken,6933,62,8.8404212,56.0368497
1923630,Klintebakken,6933,63,8.8382156,56.0381948
1923632,Klintebakken,6933,64,8.8400004,56.0369368
1923633,Klintebakken,6933,65,8.8384045,56.0385283
1923635,Klintebakken,6933,66,8.8400858,56.0373721
1923636,Klintebakken,6933,67,8.8377924,56.0383439
1923639,Klintebakken,6933,68,8.8405228,56.0373186
1923641,Klintebakken,6933,69,8.8379853,56.0386178
1923643,Klintebakken,6933,70,8.8409642,56.0372364
1923645,Klintebakken,6933,71,8.8381174,56.0388467
1923646,Klintebakken,6933,72,8.8413896,56.0371532
1923649,Klintebakken,6933,73,8.8382641,56.0390696
1923651,Klintebakken,6933,74,8.841775,56.037024
1923652,Klintebakken,6933,75,8.8383158,56.0392233
1923655,Klintebakken,6933,76,8.842194,56.036937
1923656,Klintebakken,6933,77,8.8386925,56.039032
1923659,Klintebakken,6933,78,8.8423281,56.0372788
1923661,Klintebakken,6933,79,8.839048,56.038962
1923662,Klintebakken,6933,80,8.8418325,56.0373127
1923665,Klintebakken,6933,81,8.8394014,56.0388833
1923666,Klintebakken,6933,82,8.8414214,56.0373595
1923669,Klintebakken,6933,83,8.8398542,56.0389563
1923672,Klintebakken,6933,84,8.840961,56.037477
1923674,Klintebakken,6933,85,8.839711,56.0387651
1923677,Klintebakken,6933,86,8.840581,56.0375508
1923679,Klintebakken,6933,87,8.8396078,56.0385747
1923683,Klintebakken,6933,88,8.8401218,56.0376766
1923686,Klintebakken,6933,90,8.8402244,56.0381231
1923688,Klintebakken,6933,92,8.8405842,56.0380738
1923690,Klintebakken,6933,94,8.8409532,56.0379969
1923692,Klintebakken,6933,96,8.841322,56.0379244
1923693,Klintebakken,6933,98,8.8416783,56.0378401
1923695,Klintebakken,6933,100,8.8420214,56.0377684
1923697,Klintebakken,6933,102,8.8424214,56.037677
1923699,Klintebakken,6933,104,8.8424434,56.0379303
1923700,Klintebakken,6933,106,8.8421582,56.038
1923703,Klintebakken,6933,108,8.8425265,56.0381809
1923704,Klintebakken,6933,110,8.8420902,56.0382911
1923706,Klintebakken,6933,112,8.8418689,56.0383756
1923709,Klintebakken,6933,114,8.8414677,56.038455
1923710,Klintebakken,6933,116,8.8410906,56.0385362
1923712,Klintebakken,6933,118,8.8407663,56.0387416
1923713,Klintebakken,6933,120,8.8406788,56.0385997
1923716,Klintebakken,6933,122,8.8405466,56.0383742
1923950,Nedre Agersigvej,6933,1,8.8291139,56.0173791
1923951,Nedre Agersigvej,6933,5,8.8341071,56.0166504
1923956,Nørre Bredgade,6933,1,8.854118,56.032471
1923957,Nørre Bredgade,6933,2,8.8538189,56.0324008
1923959,Nørre Bredgade,6933,3,8.8540964,56.0323724
1923962,Nørre Bredgade,6933,5,8.8540768,56.0322689
1923965,Nørre Bredgade,6933,7,8.8540522,56.0321596
1923967,Nørre Bredgade,6933,8,8.8537357,56.0321707
1923969,Nørre Bredgade,6933,9,8.8540321,56.0320503
1923971,Nørre Bredgade,6933,10A,8.8537241,56.0320155
1923973,Nørre Bredgade,6933,10B,8.8537317,56.0320615
1923975,Nørre Bredgade,6933,10C,8.8537443,56.0321132
1923977,Nørre Bredgade,6933,10D,8.8534683,56.0321187
1923978,Nørre Bredgade,6933,11,8.8539721,56.0317857
1923979,Møllebyvej,6933,2,8.842732,56.0064581
1923981,Møllebyvej,6933,4,8.8428553,56.006866
1923982,Nørre Bredgade,6933,12,8.853589,56.03193
1923984,Nørre Bredgade,6933,12A,8.853758,56.031926
1923986,Nørre Bredgade,6933,13,8.853947,56.0316
1923987,Nørre Bredgade,6933,15,8.8539316,56.0314637
1923988,Nørre Bredgade,6933,16,8.853673,56.0316071
1923989,Nørre Bredgade,6933,17,8.8538975,56.0313256
1923990,Nørre Bredgade,6933,18,8.8536465,56.0315036
1923991,Nørre Bredgade,6933,18B,8.8534982,56.0315034
1923992,Nørre Bredgade,6933,19,8.8538704,56.0311876
1923993,Nørre Bredgade,6933,19A,8.8540186,56.0312108
1923994,Nørre Bredgade,6933,20,8.8536276,56.0314058
1923995,Nørre Bredgade,6933,21,8.85382,56.030955
1923996,Nørre Bredgade,6933,22,8.8536088,56.0312793
1923997,Nørre Bredgade,6933,23,8.853796,56.03079
1923998,Nørre Bredgade,6933,24,8.853506,56.031169
1924000,Nørre Bredgade,6933,25,8.8537588,56.0306412
1924002,Nørre Bredgade,6933,26,8.8534684,56.0308881
1924088,Klinten,6933,1,8.841344,56.0345489
1924089,Klinten,6933,1A,8.840936,56.034503
1924090,Klinten,6933,2,8.840753,56.034642
1924091,Klinten,6933,3,8.841747,56.0345022
1924092,Klinten,6933,4,8.8401982,56.0347111
1924093,Klinten,6933,6,8.8398693,56.0349445
1924094,Klinten,6933,7,8.8425827,56.0344694
1924095,Klinten,6933,8,8.8392995,56.034867
1924096,Klinten,6933,9,8.8425504,56.0342331
1924097,Klinten,6933,10,8.838958,56.0350018
1924098,Klinten,6933,11,8.8421197,56.0343072
1924099,Klinten,6933,12,8.8386056,56.0351353
1924100,Klinten,6933,14,8.8382386,56.0352403
1924101,Klinten,6933,15,8.8415018,56.0342511
1924103,Klinten,6933,16,8.8381468,56.0350594
1924105,Klinten,6933,17,8.8414702,56.034037
1924106,Klinten,6933,18,8.838164,56.0349002
1924109,Klinten,6933,19,8.8413359,56.0338648
1924110,Klinten,6933,20,8.838437,56.0347073
1924111,Klinten,6933,21,8.8412916,56.0336471
1924112,Klinten,6933,22,8.8387331,56.034938
1924113,Klinten,6933,23,8.8412875,56.0333864
1924114,Klinten,6933,24,8.8390564,56.0347348
1924115,Klinten,6933,25,8.8408111,56.0334234
1924116,Klinten,6933,27,8.8402751,56.033545
1924117,Klinten,6933,28,8.8386238,56.0343553
1924118,Klinten,6933,29,8.8395093,56.0334756
1924119,Klinten,6933,30,8.8381155,56.0344669
1924120,Klinten,6933,31,8.8392195,56.0334193
1924121,Klinten,6933,32,8.8377659,56.0345835
1924122,Klinten,6933,33,8.8388523,56.0335352
1924123,Klinten,6933,34,8.8375058,56.0344248
1924124,Klinten,6933,35,8.839252,56.0337329
1924125,Klinten,6933,36,8.8374962,56.0342635
1924127,Klinten,6933,37,8.8397638,56.0337746
1924128,Klinten,6933,38,8.8378106,56.0341895
1924129,Klinten,6933,39,8.8402734,56.0337891
1924131,Klinten,6933,40,8.8382663,56.0342181
1924133,Klinten,6933,41,8.84094,56.033855
1924135,Klinten,6933,42,8.8386084,56.0340991
1924137,Klinten,6933,43,8.8410066,56.0341158
1924139,Klinten,6933,45,8.8410258,56.0342383
1924141,Klinten,6933,46,8.8390457,56.0341967
1924142,Klinten,6933,48,8.8392083,56.0343856
1924143,Klinten,6933,50,8.8394638,56.0345654
1924144,Klinten,6933,52,8.8400126,56.0344561
1924145,Klinten,6933,54,8.8398512,56.0342383
1924146,Klinten,6933,56,8.8397997,56.0340003
1924147,Klinten,6933,58,8.8402279,56.0340876
1924148,Klinten,6933,60,8.8402939,56.0343364
1924291,Enghaven,6933,2,8.848653,56.032187
1924294,Enghaven,6933,2B,8.848784,56.03248
1924297,Enghaven,6933,4,8.848586,56.032179
1924300,Enghaven,6933,42,8.8479584,56.0325717
1924304,Enghaven,6933,44,8.8475888,56.0326068
1924307,Enghaven,6933,46,8.8479038,56.0323168
1924309,Enghaven,6933,48,8.8477258,56.0323146
1924313,Enghaven,6933,50,8.847605,56.032286
1924315,Enghaven,6933,52,8.847609,56.0321856
1924318,Enghaven,6933,54,8.8476557,56.0320993
1924319,Enghaven,6933,56,8.8478353,56.0321042
1924322,Enghaven,6933,58,8.8479704,56.0321357
1924324,Enghaven,6933,60,8.8479617,56.0322334
1924326,Enghaven,6933,66,8.8471138,56.0321082
1924328,Enghaven,6933,68,8.8468853,56.032106
1924330,Enghaven,6933,70,8.8470157,56.0323383
1924332,Enghaven,6933,72,8.8472049,56.0323407
1924333,Enghaven,6933,74,8.8473253,56.0323802
1924336,Enghaven,6933,76,8.8473217,56.0324725
1924337,Enghaven,6933,78,8.8472751,56.0325533
1924339,Enghaven,6933,80,8.8470954,56.0325538
1924342,Enghaven,6933,82,8.8469603,56.0325222
1924343,Enghaven,6933,84,8.8469689,56.0324246
1924371,Østergade,6933,4,8.8543107,56.0325207
1924373,Østergade,6933,5,8.855981,56.03292
1924375,Østergade,6933,6,8.8546613,56.0325801
1924377,Østergade,6933,7,8.8563174,56.0327787
1924379,Østergade,6933,7A,8.8562035,56.0328191
1924381,Østergade,6933,7B,8.85641,56.03279
1924383,Østergade,6933,8,8.8548383,56.0326084
1924385,Østergade,6933,9,8.8566313,56.0331611
1924388,Østergade,6933,10,8.8556616,56.0326444
1924390,Østergade,6933,10A,8.855707,56.032633
1924392,Østergade,6933,12,8.855939,56.0326491
1924394,Østergade,6933,12B,8.8559408,56.0323198
1924396,Østergade,6933,13,8.856725,56.0326968
1924398,Østergade,6933,14,8.8563143,56.0324922
1924400,Østergade,6933,15,8.8571,56.0326672
1924402,Østergade,6933,16,8.8566122,56.0324634
1924404,Østergade,6933,17,8.8572885,56.032607
1924406,Østergade,6933,18,8.8568935,56.0324114
1924408,Østergade,6933,20,8.857426,56.0320076
1924410,Østergade,6933,21,8.8578089,56.0325933
1924413,Østergade,6933,23,8.8581099,56.0324472
1924414,Østergade,6933,25,8.8583556,56.0324019
1924416,Østergade,6933,26,8.857956,56.03221
1924419,Østergade,6933,27,8.8589078,56.0328847
1924420,Østergade,6933,29,8.85864,56.0323508
1924422,Østergade,6933,31,8.858955,56.0322972
1924423,Østergade,6933,32,8.8588385,56.032116
1924426,Østergade,6933,33,8.8591749,56.0322541
1924427,Østergade,6933,34,8.8590551,56.0320365
1924430,Østergade,6933,35A,8.8597136,56.0321407
1924432,Østergade,6933,35B,8.8598804,56.0321019
1924433,Østergade,6933,35C,8.8600368,56.0321659
1924438,Østergade,6933,35D,8.860096,56.032251
1924439,Østergade,6933,36,8.8592629,56.03181
1924443,Østergade,6933,38,8.8590128,56.0312349
1924711,Industriparken,6933,2,8.8701261,56.0368919
1924712,Industriparken,6933,9,8.8694938,56.0367644
1924713,Industriparken,6933,11,8.8685635,56.0371221
1924714,Industriparken,6933,12,8.8706642,56.0367038
1924715,Industriparken,6933,14,8.8706492,56.0370259
1924726,Syrenstien,6933,1,8.8485239,56.0110714
1924727,Syrenstien,6933,2,8.8488399,56.0109883
1924791,Nørre Hveddevej,6933,1,8.8994061,56.0196117
1924814,Klinkegaardsvej,6933,1,8.890108,55.9804167
1924815,Klinkegaardsvej,6933,10,8.8685892,55.9811283
1924816,Klinkegaardsvej,6933,10A,8.8562464,55.9813949
1924825,Hjortsballehøjevej,6933,4,8.9319064,56.0500919
1924831,Kløvervænget,6933,2,8.8925618,55.9828156
1924859,Bavnehøjen,6933,1,8.844152,56.0371763
1924861,Bavnehøjen,6933,3,8.8446626,56.037168
1924863,Bavnehøjen,6933,5,8.8450731,56.0371764
1924865,Bavnehøjen,6933,7,8.8455735,56.0370218
1924867,Bavnehøjen,6933,9,8.8460692,56.0370257
1924868,Bavnehøjen,6933,11,8.8465687,56.0370146
1924871,Bavnehøjen,6933,13,8.84648,56.036767
1924872,Bavnehøjen,6933,15,8.8460757,56.036739
1924874,Bavnehøjen,6933,17,8.8456242,56.0367957
1924875,Bavnehøjen,6933,19,8.845248,56.0368124
1924877,Bavnehøjen,6933,21,8.8448268,56.0368316
1924879,Bavnehøjen,6933,23,8.8443703,56.0368514
1924881,Bavnehøjen,6933,25,8.844005,56.036861
1924882,Bavnehøjen,6933,27,8.8439855,56.0364803
1924884,Bavnehøjen,6933,29,8.8443374,56.036427
1924886,Bavnehøjen,6933,31,8.8448286,56.0364229
1924888,Bavnehøjen,6933,33,8.8452121,56.0364634
1924890,Bavnehøjen,6933,35,8.8456234,56.0363699
1924892,Bavnehøjen,6933,37,8.8460504,56.0364082
1924893,Bavnehøjen,6933,39,8.8464202,56.0363884
1924896,Bavnehøjen,6933,41,8.8462751,56.0360817
1924897,Bavnehøjen,6933,43,8.8457543,56.0361036
1924899,Bavnehøjen,6933,45,8.8453735,56.0361578
1924901,Bavnehøjen,6933,47,8.8448622,56.0361833
1924903,Bavnehøjen,6933,49,8.8443479,56.0362036
1924905,Bavnehøjen,6933,51,8.8439121,56.0362268
1924907,Bavnehøjen,6933,53,8.8438953,56.0358002
1924908,Bavnehøjen,6933,55,8.8443629,56.0358258
1924910,Bavnehøjen,6933,57,8.8448114,56.0357647
1924912,Bavnehøjen,6933,59,8.8453759,56.035734
1924914,Bavnehøjen,6933,61,8.8458307,56.0357968
1924916,Bavnehøjen,6933,63,8.8463448,56.0357408
1924918,Bavnehøjen,6933,65,8.8462303,56.0354717
1924919,Bavnehøjen,6933,67,8.8457656,56.0354564
1924922,Bavnehøjen,6933,69,8.8453703,56.0355097
1924924,Bavnehøjen,6933,71,8.8449752,56.0355181
1924926,Bavnehøjen,6933,73,8.8445826,56.0355466
1924927,Bavnehøjen,6933,75,8.8441968,56.035563
1924929,Bavnehøjen,6933,77,8.8438291,56.0355692
1924931,Bavnehøjen,6933,79,8.84386,56.0351551
1924933,Bavnehøjen,6933,81,8.8442921,56.0351423
1924934,Bavnehøjen,6933,83,8.8448422,56.03511
1924937,Bavnehøjen,6933,85,8.8453182,56.035126
1924938,Bavnehøjen,6933,87,8.8458428,56.0351282
1924940,Bavnehøjen,6933,89,8.8456477,56.0348289
1924941,Bavnehøjen,6933,91,8.8451998,56.0348336
1924944,Bavnehøjen,6933,93,8.8446969,56.0348897
1924947,Bavnehøjen,6933,95,8.8442599,56.0349049
1924949,Bavnehøjen,6933,97,8.843747,56.0349294
1924952,Bavnehøjen,6933,99,8.8438419,56.0341149
1924954,Bavnehøjen,6933,101,8.843839,56.034376
1924958,Bavnehøjen,6933,103,8.8437223,56.0345809
1924959,Bavnehøjen,6933,105,8.8442468,56.0345459
1924962,Bavnehøjen,6933,107,8.8442733,56.0343652
1924965,Bavnehøjen,6933,109,8.844258,56.0341443
1924968,Bavnehøjen,6933,111,8.8450612,56.0340807
1924970,Bavnehøjen,6933,113,8.8450771,56.034327
1924973,Bavnehøjen,6933,115,8.8450919,56.0345203
1924976,Bavnehøjen,6933,117,8.8455224,56.0345476
1924979,Bavnehøjen,6933,119,8.8454995,56.0343172
1924980,Bavnehøjen,6933,121,8.8456074,56.034106
1924984,Bavnehøjen,6933,123,8.8457188,56.033805
1924985,Bavnehøjen,6933,125,8.8453238,56.0338108
1924987,Bavnehøjen,6933,127,8.8449377,56.0337967
1924989,Bavnehøjen,6933,129,8.8445275,56.0337811
1924991,Bavnehøjen,6933,131,8.8440761,56.0338352
1924993,Bavnehøjen,6933,133,8.8436436,56.0337771
1925011,Møllegaarden,6933,1,8.8630712,56.0375568
1925013,Møllegaarden,6933,3,8.8627766,56.0377429
1925017,Møllegaarden,6933,5,8.8625038,56.0374995
1925021,Møllegaarden,6933,7,8.862045,56.0376168
1925023,Møllegaarden,6933,9,8.8623689,56.03791
1925026,Møllegaarden,6933,11,8.8627213,56.0382944
1925029,Møllegaarden,6933,13,8.8629902,56.0384353
1925032,Møllegaarden,6933,15,8.8631488,56.038277
1925037,Møllegaarden,6933,17,8.8629225,56.0381141
1925038,Møllegaarden,6933,19,8.8633424,56.0378004
1925042,Møllegaarden,6933,21,8.8637156,56.037959
1925043,Møllegaarden,6933,23,8.8640902,56.0378421
1925047,Møllegaarden,6933,25,8.8636497,56.0376588
1925052,Møllegaarden,6933,27,8.8664948,56.0391773
1925053,Møllegaarden,6933,29,8.866283,56.0390543
1925057,Møllegaarden,6933,31,8.8659858,56.038898
1925058,Møllegaarden,6933,33,8.8657119,56.0387199
1925061,Møllegaarden,6933,35,8.8654092,56.0385836
1925063,Møllegaarden,6933,37,8.8651054,56.0384309
1925065,Møllegaarden,6933,39,8.8648703,56.0382477
1925067,Møllegaarden,6933,41,8.8645257,56.038481
1925069,Møllegaarden,6933,43,8.8649443,56.0386536
1925071,Møllegaarden,6933,45,8.8652178,56.0387981
1925073,Møllegaarden,6933,47,8.8655843,56.0389888
1925075,Møllegaarden,6933,49,8.8659254,56.0391703
1925077,Møllegaarden,6933,51,8.8662021,56.0393164
1925078,Møllegaarden,6933,53,8.865835,56.0396349
1925080,Møllegaarden,6933,55,8.8653992,56.0395758
1925082,Møllegaarden,6933,57,8.8650956,56.039418
1925084,Møllegaarden,6933,59,8.8648207,56.0392683
1925086,Møllegaarden,6933,61,8.8645076,56.0391082
1925088,Møllegaarden,6933,63,8.8643157,56.0389269
1925090,Møllegaarden,6933,63A,8.8637169,56.0388357
1925091,Møllegaarden,6933,65,8.8640023,56.0391832
1925094,Møllegaarden,6933,67,8.8643545,56.0393284
1925096,Møllegaarden,6933,69,8.8646909,56.0395084
1925097,Møllegaarden,6933,71,8.8650006,56.0396716
1925100,Møllegaarden,6933,73,8.8653214,56.0398413
1925101,Møllegaarden,6933,75,8.8647911,56.0402271
1925104,Møllegaarden,6933,77,8.864523,56.0400666
1925106,Møllegaarden,6933,79,8.8642308,56.0399474
1925107,Møllegaarden,6933,81,8.8639351,56.0397923
1925110,Møllegaarden,6933,83,8.8636144,56.0396235
1925111,Møllegaarden,6933,85,8.8633192,56.0394561
1925113,Møllegaarden,6933,87,8.8633741,56.0398165
1925116,Møllegaarden,6933,89,8.8637881,56.0400207
1925117,Møllegaarden,6933,91,8.8641295,56.0401968
1925120,Møllegaarden,6933,93,8.8644829,56.0403929
1925121,Møllegaarden,6933,95,8.8639239,56.0407745
1925123,Møllegaarden,6933,97,8.863614,56.040609
1925124,Møllegaarden,6933,99,8.8633279,56.0404606
1925127,Møllegaarden,6933,101,8.8631334,56.0402654
1925129,Møllegaarden,6933,103,8.8632701,56.0407077
1925131,Møllegaarden,6933,105,8.8636113,56.0408871
1925132,Møllegaarden,6933,107,8.8632374,56.0412149
1925133,Møllegaarden,6933,109,8.863494,56.0414242
1925134,Møllegaarden,6933,111,8.86378,56.0415784
1925135,Møllegaarden,6933,113,8.864114,56.041779
1925136,Møllegaarden,6933,115,8.8643972,56.0416372
1925137,Møllegaarden,6933,117,8.8641591,56.041447
1925138,Møllegaarden,6933,119,8.8638473,56.0413354
1925139,Møllegaarden,6933,121,8.8643832,56.0410124
1925142,Møllegaarden,6933,123,8.8646088,56.0411523
1925143,Møllegaarden,6933,125,8.8649694,56.0412872
1925144,Møllegaarden,6933,127,8.8652442,56.0411154
1925145,Møllegaarden,6933,129,8.8649013,56.0409768
1925146,Møllegaarden,6933,131,8.8646269,56.0408552
1925147,Møllegaarden,6933,133,8.8651653,56.0405069
1925148,Møllegaarden,6933,135,8.865404,56.040674
1925149,Møllegaarden,6933,137,8.8656171,56.0408138
1925150,Møllegaarden,6933,139,8.8659039,56.0406206
1925151,Møllegaarden,6933,141,8.8657416,56.0405041
1925152,Møllegaarden,6933,143,8.865424,56.0404161
1925153,Møllegaarden,6933,145,8.8659547,56.0400613
1925154,Møllegaarden,6933,147,8.8662117,56.0402193
1925155,Møllegaarden,6933,149,8.8663745,56.0403238
1925156,Møllegaarden,6933,151,8.8667128,56.0401274
1925157,Møllegaarden,6933,153,8.8664939,56.0400611
1925158,Møllegaarden,6933,155,8.8661223,56.0399208
1925160,Møllegaarden,6933,157,8.8667521,56.0395745
1925162,Møllegaarden,6933,159,8.8670115,56.0397537
1925164,Møllegaarden,6933,161,8.867278,56.0398321
1925166,Møllegaarden,6933,163,8.867528,56.0396789
1925168,Møllegaarden,6933,165,8.8672213,56.0395596
1925171,Møllegaarden,6933,167,8.8669946,56.0394051
1925172,Møllegaarden,6933,185,8.8696123,56.0408371
1925175,Møllegaarden,6933,187,8.8693651,56.0406339
1925177,Møllegaarden,6933,189,8.8690656,56.040534
1925179,Møllegaarden,6933,191,8.8687609,56.0404054
1925182,Møllegaarden,6933,193,8.8685717,56.0401958
1925183,Møllegaarden,6933,195,8.8687413,56.0401813
1925186,Møllegaarden,6933,197,8.8683387,56.0399592
1925187,Møllegaarden,6933,199,8.8681791,56.0399776
1925190,Møllegaarden,6933,201,8.8679633,56.0400362
1925193,Møllegaarden,6933,203,8.8678533,56.0401015
1925194,Møllegaarden,6933,205,8.867822,56.040246
1925196,Møllegaarden,6933,207,8.8678523,56.0403307
1925197,Møllegaarden,6933,209,8.8681611,56.0403962
1925200,Møllegaarden,6933,211,8.8681887,56.0404711
1925203,Møllegaarden,6933,213,8.8685854,56.0404866
1925204,Møllegaarden,6933,215,8.86876,56.0406769
1925206,Møllegaarden,6933,217,8.8690658,56.0408164
1925208,Møllegaarden,6933,219,8.8693933,56.0409103
1925211,Møllegaarden,6933,223,8.8686702,56.0413504
1925213,Møllegaarden,6933,225,8.8685017,56.0412071
1925215,Møllegaarden,6933,227,8.8681919,56.0410439
1925218,Møllegaarden,6933,229,8.8679482,56.0409159
1925219,Møllegaarden,6933,231,8.8677049,56.0407753
1925222,Møllegaarden,6933,233,8.8674153,56.0409575
1925223,Møllegaarden,6933,235,8.8677157,56.0410736
1925224,Møllegaarden,6933,237,8.8679768,56.0412094
1925225,Møllegaarden,6933,239,8.8682048,56.041329
1925226,Møllegaarden,6933,241,8.8685337,56.0414563
1925227,Møllegaarden,6933,243,8.8677558,56.0416867
1925228,Møllegaarden,6933,243A,8.8677286,56.0418972
1925229,Møllegaarden,6933,245,8.8673797,56.0414907
1925230,Møllegaarden,6933,247,8.8669659,56.041259
1925231,Møllegaarden,6933,249,8.866487,56.0414666
1925232,Møllegaarden,6933,249A,8.8660078,56.041332
1925233,Møllegaarden,6933,251,8.8668274,56.0417139
1925234,Møllegaarden,6933,253,8.8659856,56.0417909
1925235,Møllegaarden,6933,255,8.8651908,56.0416096
1925236,Møllegaarden,6933,257,8.8649417,56.0418179
1925237,Møllegaarden,6933,259,8.8654163,56.0420028
1925238,Møllegaarden,6933,261,8.865033,56.0421823
1925239,Møllegaarden,6933,263,8.8645655,56.0420271
1925240,Møllegaarden,6933,265,8.8641988,56.0422024
1925241,Møllegaarden,6933,267,8.8645607,56.0424436
1925242,Møllegaarden,6933,269,8.8649874,56.0427329
1925243,Møllegaarden,6933,271,8.8653292,56.0428724
1925244,Møllegaarden,6933,273,8.8658609,56.0426473
1925245,Møllegaarden,6933,275,8.8655183,56.0424419
1925246,Møllegaarden,6933,277,8.8661689,56.0423315
1925247,Møllegaarden,6933,279,8.8666459,56.0421363
1925356,Mosevej,6933,1,8.8500907,55.9862888
1925358,Mosevej,6933,1A,8.846908,55.981115
1925379,Bekkasinvej,6933,2,8.8579394,56.0329478
1925381,Bekkasinvej,6933,3,8.857586,56.03323
1925384,Bekkasinvej,6933,4,8.8580685,56.0329279
1925385,Bekkasinvej,6933,5,8.857546,56.0332382
1925389,Bekkasinvej,6933,6,8.8582074,56.0329041
1925391,Bekkasinvej,6933,7,8.8575571,56.0331614
1925394,Bekkasinvej,6933,8,8.8583657,56.0328793
1925396,Bekkasinvej,6933,9,8.8575166,56.0331703
1925397,Bekkasinvej,6933,10,8.8585352,56.0328528
1925400,Bekkasinvej,6933,11,8.8573899,56.0330471
1925401,Bekkasinvej,6933,12,8.8580202,56.0332178
1925403,Bekkasinvej,6933,13,8.8573797,56.0330221
1925405,Bekkasinvej,6933,14,8.8580304,56.0332434
1925406,Bekkasinvej,6933,15,8.8574926,56.0330065
1925408,Bekkasinvej,6933,16,8.8581434,56.0332258
1925409,Bekkasinvej,6933,17,8.8569866,56.0331034
1925411,Bekkasinvej,6933,18,8.8583818,56.0331624
1925413,Bekkasinvej,6933,19,8.8569763,56.0330782
1925414,Bekkasinvej,6933,20,8.8583937,56.0331863
1925416,Bekkasinvej,6933,21,8.857114,56.0330853
1925417,Bekkasinvej,6933,22,8.858498,56.0331445
1925420,Bekkasinvej,6933,23,8.8571038,56.0330602
1925421,Bekkasinvej,6933,24,8.8585099,56.0331683
1925423,Bekkasinvej,6933,25,8.8570507,56.0332673
1925424,Bekkasinvej,6933,26,8.8586544,56.0332883
1925425,Bekkasinvej,6933,27,8.8570724,56.0332447
1925427,Bekkasinvej,6933,28,8.8586109,56.0332934
1925430,Bekkasinvej,6933,29,8.8571536,56.0333034
1925431,Bekkasinvej,6933,30,8.8586311,56.0333508
1925433,Bekkasinvej,6933,31,8.8571769,56.0332812
1925434,Bekkasinvej,6933,32,8.8587235,56.0334897
1925437,Bekkasinvej,6933,33,8.857402,56.0333906
1925440,Bekkasinvej,6933,34,8.85868,56.0334946
1925443,Bekkasinvej,6933,35,8.8574222,56.0333676
1925446,Bekkasinvej,6933,36,8.8587465,56.0335574
1925447,Bekkasinvej,6933,37,8.8575033,56.0334267
1925451,Bekkasinvej,6933,38,8.8587014,56.0335615
1925455,Bekkasinvej,6933,39,8.8575267,56.0334047
1925457,Bekkasinvej,6933,40,8.8587953,56.0337053
1925458,Bekkasinvej,6933,42,8.8587533,56.0337114
1925461,Bekkasinvej,6933,44,8.8587704,56.0337664
1925464,Bekkasinvej,6933,46,8.8585187,56.0338411
1925466,Bekkasinvej,6933,48,8.8585468,56.033821
1925467,Bekkasinvej,6933,50,8.858466,56.033785
1925470,Bekkasinvej,6933,52,8.8582624,56.0336693
1925471,Bekkasinvej,6933,54,8.8583075,56.0336637
1925473,Bekkasinvej,6933,56,8.8582858,56.0336027
1925475,Bekkasinvej,6933,58,8.8582883,56.0334579
1925477,Bekkasinvej,6933,60,8.8583298,56.0334645
1925480,Bekkasinvej,6933,62,8.8583215,56.0333906
1925481,Bekkasinvej,6933,64,8.8583628,56.0333996
1925534,Landsbyparken,6933,1,8.8636349,56.0357451
1925535,Landsbyparken,6933,1A,8.8643125,56.0361021
1925536,Landsbyparken,6933,3,8.863704,56.035833
1925537,Landsbyparken,6933,4,8.8634208,56.0365387
1925538,Landsbyparken,6933,5,8.8638803,56.0358694
1925539,Landsbyparken,6933,6,8.8637282,56.0361479
1925541,Landsbyparken,6933,7,8.863994,56.035926
1925544,Landsbyparken,6933,8,8.8636247,56.0362091
1925545,Landsbyparken,6933,9,8.8643407,56.0357094
1925548,Landsbyparken,6933,10,8.863274,56.0362319
1925551,Landsbyparken,6933,11,8.8644894,56.0356413
1925553,Landsbyparken,6933,12,8.8631086,56.0361538
1925556,Landsbyparken,6933,14,8.8634624,56.0360116
1925557,Landsbyparken,6933,16,8.8633633,56.0360837
1925560,Landsbyparken,6933,18,8.8629275,56.0360647
1925562,Landsbyparken,6933,20,8.8627561,56.0359758
1925564,Landsbyparken,6933,22,8.8630955,56.0358334
1925565,Landsbyparken,6933,23,8.8630701,56.0354571
1925567,Landsbyparken,6933,24,8.862989,56.0358878
1925569,Landsbyparken,6933,25,8.8631818,56.0355149
1925573,Landsbyparken,6933,26,8.8628788,56.0357114
1925574,Landsbyparken,6933,27,8.8632998,56.0355733
1925577,Landsbyparken,6933,28,8.8627132,56.0358029
1925578,Landsbyparken,6933,29,8.8634556,56.0356527
1925579,Landsbyparken,6933,30,8.862484,56.0358351
1925580,Landsbyparken,6933,31,8.8632532,56.0354121
1925581,Landsbyparken,6933,32,8.8623884,56.0357787
1925582,Landsbyparken,6933,33,8.8633683,56.035341
1925583,Landsbyparken,6933,34,8.8624981,56.0355176
1925585,Landsbyparken,6933,35,8.8634888,56.0352971
1925587,Landsbyparken,6933,36,8.8623521,56.0355991
1925590,Landsbyparken,6933,37,8.8636581,56.0353167
1925593,Landsbyparken,6933,38,8.8621165,56.0356319
1925594,Landsbyparken,6933,39,8.863851,56.0353913
1925597,Landsbyparken,6933,40,8.861961,56.0355461
1925598,Landsbyparken,6933,41,8.8639666,56.0354701
1925601,Landsbyparken,6933,43,8.8640728,56.0355438
1925603,Landsbyparken,6933,45,8.8636452,56.0351553
1925606,Landsbyparken,6933,47,8.8633689,56.0351225
1925607,Landsbyparken,6933,49,8.8631865,56.0351501
1925609,Landsbyparken,6933,51,8.8630048,56.0352396
1925612,Landsbyparken,6933,53,8.8628671,56.0352727
1925614,Landsbyparken,6933,55,8.8627899,56.0353196
1925616,Landsbyparken,6933,57,8.862752,56.035394
1925693,Elme Alle,6933,2,8.8543897,56.0309653
1925694,Elme Alle,6933,3A,8.8558437,56.031161
1925695,Elme Alle,6933,3B,8.8558567,56.031237
1925696,Elme Alle,6933,3C,8.8558815,56.031301
1925697,Elme Alle,6933,4,8.8545763,56.0309527
1925698,Elme Alle,6933,5,8.8560898,56.0311033
1925699,Elme Alle,6933,6,8.8548512,56.0309392
1925700,Elme Alle,6933,7,8.8563975,56.0310729
1925701,Elme Alle,6933,8,8.8553307,56.0308633
1925702,Elme Alle,6933,9,8.856677,56.0310638
1925703,Elme Alle,6933,10,8.8557047,56.0308191
1925704,Elme Alle,6933,11,8.8570509,56.0310612
1925705,Elme Alle,6933,12,8.855959,56.0308003
1925706,Elme Alle,6933,13,8.8573626,56.0310114
1925707,Elme Alle,6933,14,8.8562826,56.030811
1925708,Elme Alle,6933,14A,8.8560956,56.0304281
1925709,Elme Alle,6933,14B,8.8559768,56.0302673
1925710,Elme Alle,6933,15,8.8576156,56.030982
1925711,Elme Alle,6933,16,8.8566851,56.0307779
1925712,Elme Alle,6933,17,8.8580321,56.0312442
1925713,Elme Alle,6933,18,8.8569517,56.0307702
1925714,Elme Alle,6933,19,8.8581042,56.0314101
1925715,Elme Alle,6933,20,8.8577681,56.0306968
1925716,Elme Alle,6933,21,8.8581871,56.031587
1925718,Elme Alle,6933,22,8.8580566,56.0307019
1925720,Elme Alle,6933,23,8.8582853,56.0317817
1925721,Elme Alle,6933,24,8.8582934,56.0306799
1925722,Elme Alle,6933,25,8.8582956,56.0320082
1925725,Elme Alle,6933,26,8.8584663,56.0309734
1925726,Elme Alle,6933,27,8.858402,56.032135
1925728,Elme Alle,6933,28,8.8583531,56.0311596
1925729,Elme Alle,6933,30,8.8585174,56.0313877
1925732,Elme Alle,6933,32,8.858625,56.0315888
1925733,Elme Alle,6933,34,8.8587034,56.0317576
1925747,Kastanie Alle,6933,1,8.8555057,56.032449
1925748,Kastanie Alle,6933,1A,8.8555103,56.0323308
1925749,Kastanie Alle,6933,1B,8.855522,56.0322799
1925750,Kastanie Alle,6933,1C,8.8554917,56.0322327
1925751,Kastanie Alle,6933,2,8.855269,56.032532
1925752,Kastanie Alle,6933,3,8.8553715,56.0317019
1925753,Kastanie Alle,6933,4,8.855236,56.032301
1925754,Kastanie Alle,6933,5,8.8553289,56.0315614
1925755,Kastanie Alle,6933,7,8.8553392,56.0314615
1925756,Kastanie Alle,6933,8,8.854936,56.031618
1925757,Kastanie Alle,6933,10,8.8547675,56.0313926
1925758,Kastanie Alle,6933,11,8.8552519,56.0311935
1925759,Kastanie Alle,6933,12,8.8549998,56.0311586
1925760,Kastanie Alle,6933,13,8.8552385,56.0310854
1925761,Kastanie Alle,6933,14,8.8548441,56.0305909
1925762,Kastanie Alle,6933,16A,8.8546383,56.0303371
1925763,Kastanie Alle,6933,16B,8.854749,56.0302839
1925764,Kastanie Alle,6933,16C,8.854694,56.0301335
1925765,Kastanie Alle,6933,17,8.8551983,56.03056
1925766,Kastanie Alle,6933,18,8.8545504,56.0299827
1925767,Kastanie Alle,6933,19,8.8551033,56.030284
1925768,Kastanie Alle,6933,20,8.8545641,56.0297993
1925769,Kastanie Alle,6933,21,8.8550443,56.0299906
1925770,Kastanie Alle,6933,22,8.8544824,56.0296318
1925771,Kastanie Alle,6933,23,8.8549094,56.0296265
1925772,Kastanie Alle,6933,24,8.8543811,56.0294345
1925775,Kastanie Alle,6933,25A,8.8556222,56.0292501
1925777,Kastanie Alle,6933,25B,8.855746,56.0292417
1925778,Kastanie Alle,6933,25C,8.85587,56.0292319
1925780,Kastanie Alle,6933,25D,8.855989,56.0292228
1925781,Kastanie Alle,6933,25E,8.8561113,56.0292153
1925782,Kastanie Alle,6933,25F,8.8562189,56.0292108
1925783,Kastanie Alle,6933,26,8.8542903,56.029297
1925784,Kastanie Alle,6933,27,8.8548103,56.0291141
1925785,Kastanie Alle,6933,27B,8.8552456,56.0287493
1925786,Kastanie Alle,6933,27C,8.8552077,56.0286947
1925787,Kastanie Alle,6933,27D,8.8551779,56.0286364
1925788,Kastanie Alle,6933,27E,8.8553351,56.0286373
1925789,Kastanie Alle,6933,27F,8.8553744,56.0286967
1925790,Kastanie Alle,6933,27G,8.8554122,56.0287574
1925791,Kastanie Alle,6933,28,8.8542699,56.0287968
1925792,Kastanie Alle,6933,29A,8.8547005,56.0288218
1925793,Kastanie Alle,6933,29B,8.8546933,56.0287191
1925794,Kastanie Alle,6933,30,8.8542786,56.0286578
1925795,Kastanie Alle,6933,31,8.8546766,56.0285732
1925796,Kastanie Alle,6933,32,8.854191,56.0284787
1925797,Kastanie Alle,6933,33,8.8545789,56.0284464
1925798,Kastanie Alle,6933,34,8.854107,56.028289
1925799,Kastanie Alle,6933,35,8.8546046,56.0282845
1925800,Kastanie Alle,6933,36,8.8541173,56.0281516
1925801,Kastanie Alle,6933,37,8.8545308,56.0281214
1925803,Kastanie Alle,6933,38,8.8540679,56.0279386
1925804,Kastanie Alle,6933,39,8.8544105,56.027958
1925827,Jernbanegade,6933,1,8.8521438,56.0324588
1925828,Jernbanegade,6933,1B,8.848695,56.03184
1925829,Jernbanegade,6933,2,8.8538342,56.0330067
1925830,Jernbanegade,6933,4,8.853632,56.0329676
1925831,Jernbanegade,6933,6,8.8533915,56.0329211
1925832,Jernbanegade,6933,8,8.853065,56.032869
1925833,Jernbanegade,6933,8B,8.8531715,56.032873
1925834,Jernbanegade,6933,10,8.852865,56.0328463
1925835,Jernbanegade,6933,12,8.8527201,56.0328179
1925836,Jernbanegade,6933,14,8.852572,56.032789
1925837,Jernbanegade,6933,16A,8.852285,56.033139
1925838,Jernbanegade,6933,16B,8.852357,56.033154
1925839,Jernbanegade,6933,16C,8.852372,56.033218
1925840,Jernbanegade,6933,18,8.852113,56.032696
1925841,Jernbanegade,6933,20A,8.8517903,56.0326347
1925842,Jernbanegade,6933,20B,8.8514425,56.0325832
1925843,Jernbanegade,6933,22A,8.8515097,56.0329526
1925844,Jernbanegade,6933,22B,8.8512029,56.0329615
1925845,Jernbanegade,6933,22C,8.8509178,56.0329091
1925846,Jernbanegade,6933,22D,8.8511406,56.033049
1925847,Jernbanegade,6933,24A,8.851238,56.0325625
1925848,Jernbanegade,6933,24B,8.8510932,56.0325299
1925849,Jernbanegade,6933,26,8.8505701,56.0324342
1925850,Jernbanegade,6933,28,8.850244,56.032532
1925851,Jernbanegade,6933,30,8.850142,56.0323614
1925853,Jernbanegade,6933,32,8.8498746,56.0323056
1925855,Jernbanegade,6933,34,8.8494253,56.032226
1925856,Jernbanegade,6933,172,8.8464643,56.0322839
1925858,Jernbanegade,6933,172A,8.8465299,56.0320798
1925859,Jernbanegade,6933,174,8.8464767,56.0324966
1925860,Jernbanegade,6933,176,8.8462692,56.0323068
1925861,Jernbanegade,6933,178,8.8462833,56.032519
1925862,Jernbanegade,6933,180,8.8458039,56.0321464
1925863,Jernbanegade,6933,182,8.845767,56.0323072
1925864,Jernbanegade,6933,184,8.8457526,56.0324691
1925865,Jernbanegade,6933,186,8.8456063,56.0321513
1925866,Jernbanegade,6933,188,8.8455695,56.0323116
1925867,Jernbanegade,6933,190,8.845555,56.032474
1925868,Jernbanegade,6933,192,8.8451025,56.0322329
1925869,Jernbanegade,6933,194,8.8450622,56.0323984
1925870,Jernbanegade,6933,196,8.8449049,56.0322369
1925871,Jernbanegade,6933,198,8.8448647,56.0324024
1925872,Jernbanegade,6933,200,8.8445583,56.032036
1925873,Jernbanegade,6933,202,8.8445095,56.032134
1925874,Jernbanegade,6933,204,8.8444624,56.0322287
1925875,Jernbanegade,6933,206,8.8444153,56.0323249
1925893,Brinkevej,6933,1,8.8577515,56.0358433
1925894,Brinkevej,6933,4,8.8578359,56.035575
1925896,Brinkevej,6933,5,8.859018,56.0358343
1925897,Brinkevej,6933,6,8.8581779,56.0355703
1925900,Brinkevej,6933,7,8.859334,56.035837
1925901,Brinkevej,6933,8,8.8584945,56.0355574
1925903,Brinkevej,6933,9,8.8595932,56.0358972
1925905,Brinkevej,6933,10,8.8588327,56.0355689
1925906,Brinkevej,6933,11,8.859765,56.0358954
1925908,Brinkevej,6933,12,8.8590703,56.0355645
1925910,Brinkevej,6933,13,8.8599367,56.0358933
1925912,Brinkevej,6933,14,8.8595178,56.0355704
1925913,Brinkevej,6933,15,8.8601116,56.0358943
1925914,Brinkevej,6933,16,8.8597822,56.0355392
1925915,Brinkevej,6933,17,8.8602833,56.0358944
1925916,Brinkevej,6933,18,8.8601057,56.0355554
1925917,Brinkevej,6933,19,8.8604503,56.0358919
1925918,Brinkevej,6933,21,8.8606252,56.0358921
1925919,Brinkevej,6933,22,8.8608067,56.0355618
1925920,Brinkevej,6933,23,8.8606235,56.0361811
1925921,Brinkevej,6933,24,8.8611234,56.0357922
1925922,Brinkevej,6933,25,8.8605753,56.036426
1925923,Brinkevej,6933,26,8.8611745,56.0359611
1925924,Brinkevej,6933,27,8.8603896,56.0366609
1925925,Brinkevej,6933,28,8.8610484,56.0362296
1925926,Brinkevej,6933,29,8.8603525,56.03695
1925927,Brinkevej,6933,32,8.8609247,56.0367229
1925934,Sandfeldparken,6933,1,8.8503224,56.0328716
1925935,Sandfeldparken,6933,3,8.850172,56.0331856
1925936,Sandfeldparken,6933,5,8.849841,56.035048
1925937,Sandfeldparken,6933,7,8.8495753,56.0348418
1925938,Sandfeldparken,6933,9,8.8492137,56.0348971
1925940,Sandfeldparken,6933,11,8.8492937,56.0351452
1925942,Sandfeldparken,6933,13,8.8487314,56.0352446
1925943,Sandfeldparken,6933,14,8.850796,56.035105
1925945,Sandfeldparken,6933,15,8.848374,56.0349888
1925946,Sandfeldparken,6933,16,8.8509203,56.0356052
1925947,Sandfeldparken,6933,17,8.8481296,56.0350413
1925949,Sandfeldparken,6933,19,8.8481429,56.0353559
1925951,Sandfeldparken,6933,23,8.8480357,56.0357119
1925953,Sandfeldparken,6933,25,8.8484614,56.0355377
1925955,Sandfeldparken,6933,27,8.8487977,56.035473
1925956,Sandfeldparken,6933,29,8.8492338,56.0354007
1925957,Sandfeldparken,6933,31,8.8495567,56.0353511
1925959,Sandfeldparken,6933,33,8.8500716,56.0353162
1925962,Sandfeldparken,6933,34A,8.8512611,56.0362556
1925965,Sandfeldparken,6933,34B,8.8514445,56.0361942
1925968,Sandfeldparken,6933,35,8.8501798,56.0357441
1925971,Sandfeldparken,6933,36,8.8512569,56.0363852
1925973,Sandfeldparken,6933,37,8.8497969,56.0358101
1925975,Sandfeldparken,6933,38,8.851353,56.036593
1925977,Sandfeldparken,6933,39,8.8493414,56.0358864
1925979,Sandfeldparken,6933,40,8.8514642,56.0368238
1925981,Sandfeldparken,6933,41,8.8488728,56.0359688
1925982,Sandfeldparken,6933,43,8.8484415,56.0360402
1925985,Sandfeldparken,6933,45,8.8479711,56.036087
1925987,Sandfeldparken,6933,47,8.8480145,56.0363678
1925989,Sandfeldparken,6933,49,8.8483723,56.0363289
1925990,Sandfeldparken,6933,51,8.8487643,56.036235
1925992,Sandfeldparken,6933,53,8.8491931,56.0361471
1925995,Sandfeldparken,6933,55,8.849573,56.0361162
1925997,Sandfeldparken,6933,57,8.8499356,56.0360354
1926000,Sandfeldparken,6933,59,8.8503593,56.0359926
1926005,Sandfeldparken,6933,61,8.8503907,56.0364162
1926006,Sandfeldparken,6933,63,8.8500718,56.0364875
1926008,Sandfeldparken,6933,65,8.849684,56.0365535
1926009,Sandfeldparken,6933,67,8.8493157,56.036617
1926012,Sandfeldparken,6933,69,8.848917,56.036686
1926013,Sandfeldparken,6933,71,8.8485395,56.0367267
1926015,Sandfeldparken,6933,73,8.8481135,56.0367841
1926017,Sandfeldparken,6933,75,8.8482107,56.037085
1926019,Sandfeldparken,6933,77,8.8483718,56.037314
1926022,Sandfeldparken,6933,79,8.8486803,56.0372635
1926023,Sandfeldparken,6933,81,8.8486312,56.0370841
1926025,Sandfeldparken,6933,83,8.8491602,56.0369376
1926027,Sandfeldparken,6933,85,8.849305,56.0372116
1926029,Sandfeldparken,6933,87,8.849625,56.037194
1926031,Sandfeldparken,6933,89,8.8494713,56.0369409
1926033,Sandfeldparken,6933,91,8.8500488,56.0367837
1926035,Sandfeldparken,6933,93,8.8502339,56.0369726
1926038,Sandfeldparken,6933,95,8.8505173,56.0369496
1926040,Sandfeldparken,6933,97,8.8505103,56.0367612
1926097,Østerbro,6933,1,8.8672032,56.0354698
1926099,Østerbro,6933,2,8.86594,56.035102
1926102,Østerbro,6933,2A,8.866239,56.035383
1926104,Østerbro,6933,2B,8.866766,56.035686
1926105,Østerbro,6933,3,8.8668147,56.0350653
1926108,Østerbro,6933,4,8.8655341,56.0344128
1926109,Østerbro,6933,5,8.8661557,56.0343546
1926112,Østerbro,6933,6,8.8648899,56.0342266
1926115,Østerbro,6933,7,8.866013,56.0337771
1926116,Østerbro,6933,7B,8.867873,56.033008
1926117,Østerbro,6933,7C,8.868992,56.032997
1926118,Østerbro,6933,7D,8.8651765,56.0333087
1926119,Østerbro,6933,8,8.865075,56.0338419
1926120,Østerbro,6933,9,8.8645471,56.032534
1926121,Østerbro,6933,10,8.8636082,56.0329483
1926122,Østerbro,6933,12,8.8634387,56.0323192
1926123,Østerbro,6933,13,8.8627065,56.0312713
1926124,Østerbro,6933,14,8.8629805,56.0321373
1926125,Østerbro,6933,15,8.8623591,56.0310455
1926126,Østerbro,6933,16,8.8625477,56.032004
1926148,Egevej,6933,1,8.8554814,56.0299309
1926150,Egevej,6933,2A,8.8552316,56.0296747
1926152,Egevej,6933,2B,8.8555818,56.0296628
1926153,Egevej,6933,3,8.8557699,56.0298978
1926155,Egevej,6933,4,8.8558739,56.0296598
1926157,Egevej,6933,5,8.8562494,56.0299043
1926159,Egevej,6933,6,8.8561953,56.0296487
1926161,Egevej,6933,7,8.8565662,56.0300476
1926162,Egevej,6933,8,8.856577,56.0294877
1926164,Egevej,6933,9,8.8566686,56.0301771
1926165,Egevej,6933,10,8.8566713,56.0297412
1926167,Egevej,6933,11,8.8570104,56.030379
1926170,Egevej,6933,12,8.8568572,56.0298698
1926171,Egevej,6933,13,8.8572716,56.030697
1926173,Egevej,6933,14,8.8570556,56.0300064
1926174,Egevej,6933,16,8.8572274,56.0301667
1926176,Egevej,6933,18,8.85741,56.0302951
1926178,Egevej,6933,20,8.8576723,56.0304384
1926207,Brogade,6933,1,8.853964,56.0331383
1926208,Brogade,6933,2,8.8542707,56.0330453
1926209,Brogade,6933,3,8.8539887,56.0333613
1926210,Brogade,6933,4,8.8542909,56.0332254
1926211,Brogade,6933,5,8.8540525,56.0336153
1926212,Brogade,6933,6,8.854302,56.0335141
1926213,Brogade,6933,6B,8.854407,56.0337395
1926214,Brogade,6933,7,8.8540724,56.0337607
1926215,Brogade,6933,7B,8.8535941,56.0337649
1926216,Brogade,6933,8A,8.8544213,56.0340672
1926217,Brogade,6933,8B,8.8545671,56.0339931
1926218,Brogade,6933,9,8.8540991,56.0339783
1926219,Brogade,6933,9A,8.8532577,56.0336292
1926220,Brogade,6933,10,8.8544287,56.0342867
1926221,Brogade,6933,11,8.8541183,56.0341429
1926222,Brogade,6933,11A,8.8536451,56.0339752
1926224,Brogade,6933,11B,8.8533333,56.0338869
1926225,Brogade,6933,13,8.8541534,56.0343512
1926228,Brogade,6933,14,8.8545586,56.0346153
1926229,Brogade,6933,15,8.8540024,56.0345588
1926244,Grønnegade,6933,1,8.8545757,56.0319451
1926245,Grønnegade,6933,2,8.8550646,56.0317529
1926246,Grønnegade,6933,3,8.8547445,56.0319363
1926247,Grønnegade,6933,4,8.8558974,56.0316706
1926248,Grønnegade,6933,5,8.8550035,56.0319179
1926249,Grønnegade,6933,6,8.8562142,56.0316517
1926250,Grønnegade,6933,7,8.8551531,56.0319089
1926251,Grønnegade,6933,8,8.8564909,56.0316329
1926252,Grønnegade,6933,9,8.8554749,56.0318859
1926253,Grønnegade,6933,10,8.8568331,56.0316213
1926254,Grønnegade,6933,11,8.8557256,56.031876
1926255,Grønnegade,6933,12,8.8571712,56.0315516
1926256,Grønnegade,6933,13,8.8560004,56.0319888
1926257,Grønnegade,6933,14,8.857464,56.031572
1926258,Grønnegade,6933,15,8.8563155,56.0318914
1926259,Grønnegade,6933,17,8.8566486,56.0319061
1926260,Grønnegade,6933,19,8.8568852,56.0318482
1926272,Vibevænget,6933,1,8.8593817,56.0328287
1926275,Vibevænget,6933,3,8.8595199,56.0331912
1926276,Vibevænget,6933,5,8.859144,56.033278
1926278,Vibevænget,6933,7,8.8591438,56.0335739
1926279,Vibevænget,6933,8,8.8599266,56.0330913
1926282,Vibevænget,6933,9,8.8595072,56.0334727
1926285,Vibevænget,6933,10,8.8599883,56.0333574
1926286,Vibevænget,6933,11,8.8597558,56.0339254
1926288,Vibevænget,6933,12,8.8600669,56.0335616
1926289,Vibevænget,6933,13,8.8593919,56.0340378
1926292,Vibevænget,6933,14,8.8601496,56.0337842
1926294,Vibevænget,6933,15,8.8593241,56.0341315
1926297,Vibevænget,6933,17,8.8598121,56.0341259
1926301,Vibevænget,6933,19,8.8599552,56.0344854
1926347,Vester Alle,6933,1A,8.8530524,56.0305788
1926349,Vester Alle,6933,1B,8.8529798,56.0305892
1926351,Vester Alle,6933,1C,8.8528992,56.0305986
1926353,Vester Alle,6933,1D,8.8528202,56.0306091
1926355,Vester Alle,6933,1E,8.8523298,56.0305816
1926356,Vester Alle,6933,1F,8.8523068,56.0305262
1926358,Vester Alle,6933,1G,8.8522817,56.0304708
1926360,Vester Alle,6933,2A,8.853422,56.0307273
1926362,Vester Alle,6933,2B,8.8532512,56.0307458
1926364,Vester Alle,6933,2C,8.8530981,56.0307623
1926366,Vester Alle,6933,2D,8.8529321,56.0307803
1926367,Vester Alle,6933,2E,8.8527758,56.0307973
1926369,Vester Alle,6933,2F,8.8526131,56.030815
1926371,Vester Alle,6933,3,8.8519197,56.0307394
1926372,Vester Alle,6933,3A,8.851647,56.0307389
1926374,Vester Alle,6933,5,8.851335,56.0307988
1926375,Vester Alle,6933,5B,8.8512692,56.0303113
1926378,Vester Alle,6933,5C,8.8509732,56.0303301
1926379,Vester Alle,6933,6,8.8516447,56.0309996
1926381,Vester Alle,6933,7,8.8510262,56.0308175
1926382,Vester Alle,6933,8,8.851175,56.031113
1926384,Vester Alle,6933,9,8.8507961,56.0308741
1926386,Vester Alle,6933,10A,8.8508837,56.0310927
1926387,Vester Alle,6933,10B,8.850849,56.031158
1926389,Vester Alle,6933,10C,8.8508016,56.0312611
1926391,Vester Alle,6933,10D,8.8507544,56.0313197
1926393,Vester Alle,6933,11,8.8503478,56.0309342
1926394,Vester Alle,6933,12,8.8503817,56.0311685
1926396,Vester Alle,6933,13,8.8500895,56.0309713
1926397,Vester Alle,6933,14,8.8500398,56.0312127
1926398,Vester Alle,6933,15,8.849907,56.0310003
1926399,Vester Alle,6933,16,8.849536,56.0312543
1926400,Vester Alle,6933,17,8.8496311,56.0310393
1926401,Vester Alle,6933,18,8.848836,56.031355
1926402,Vester Alle,6933,19,8.849417,56.031043
1926403,Vester Alle,6933,21,8.8492295,56.0310936
1926404,Vester Alle,6933,23,8.8489142,56.0310719
1926405,Vester Alle,6933,25,8.848627,56.0311544
1926406,Vester Alle,6933,988,8.8521602,56.0306966
1926428,Møllevænget,6933,1,8.8541347,56.0348257
1926429,Møllevænget,6933,2,8.854446,56.0350286
1926430,Møllevænget,6933,3,8.8540658,56.0349853
1926431,Møllevænget,6933,3A,8.8526914,56.0343184
1926432,Møllevænget,6933,4,8.854479,56.0352082
1926433,Møllevænget,6933,5,8.8541401,56.0353806
1926434,Møllevænget,6933,6,8.8545293,56.0353577
1926435,Møllevænget,6933,7,8.8543479,56.0356033
1926436,Møllevænget,6933,8,8.8547201,56.0356057
1926437,Møllevænget,6933,9,8.8545447,56.0357406
1926438,Møllevænget,6933,10,8.8550006,56.035734
1926439,Møllevænget,6933,11,8.8548654,56.035949
1926440,Møllevænget,6933,13,8.8551042,56.036118
1926441,Møllevænget,6933,16A,8.8552143,56.035849
1926443,Møllevænget,6933,16B,8.8552487,56.0358733
1926444,Møllevænget,6933,16C,8.8552942,56.0359001
1926446,Møllevænget,6933,16D,8.855338,56.035928
1926447,Møllevænget,6933,16E,8.8553801,56.0359584
1926450,Møllevænget,6933,16F,8.8554175,56.0359862
1926451,Møllevænget,6933,19,8.8559252,56.0367443
1926506,Møllegaardsvej,6933,4,8.8581566,56.0368054
1926510,Møllegaardsvej,6933,6,8.8584443,56.0368323
1926513,Møllegaardsvej,6933,8,8.858793,56.036866
1926514,Møllegaardsvej,6933,10,8.859095,56.0368952
1926516,Møllegaardsvej,6933,12,8.8594179,56.0369268
1926517,Møllegaardsvej,6933,14,8.8597105,56.0369541
1926520,Møllegaardsvej,6933,16,8.8600714,56.0369987
1926521,Møllegaardsvej,6933,18,8.8607635,56.0370688
1926524,Møllegaardsvej,6933,20,8.86121,56.037088
1926526,Møllegaardsvej,6933,22,8.8615169,56.0370899
1926527,Møllegaardsvej,6933,24,8.8618593,56.0370753
1926530,Møllegaardsvej,6933,26,8.8621182,56.0370616
1926531,Møllegaardsvej,6933,28,8.8625376,56.0369636
1926533,Møllegaardsvej,6933,30,8.8627851,56.0368734
1926536,Møllegaardsvej,6933,32,8.8631368,56.0367839
1926539,Møllegaardsvej,6933,36,8.864112,56.0364686
1926540,Møllegaardsvej,6933,38,8.8646651,56.0362761
1926543,Møllegaardsvej,6933,40,8.865052,56.0360687
1926547,Møllegaardsvej,6933,40B,8.8648455,56.0357688
1926548,Møllegaardsvej,6933,42,8.8655062,56.0360258
1926573,Fasanvej,6933,2,8.8612043,56.035038
1926574,Fasanvej,6933,6,8.8616579,56.0349298
1926575,Fasanvej,6933,8,8.8620813,56.0347295
1926576,Fasanvej,6933,10,8.8624429,56.0346741
1926577,Fasanvej,6933,12,8.8626737,56.03456
1926578,Fasanvej,6933,13,8.8615123,56.0352873
1926579,Fasanvej,6933,14,8.8629352,56.0344789
1926580,Fasanvej,6933,15,8.8618014,56.0351979
1926581,Fasanvej,6933,16,8.8634389,56.0344839
1926582,Fasanvej,6933,17,8.8622194,56.0350147
1926583,Fasanvej,6933,19,8.8625708,56.0348924
1926584,Fasanvej,6933,21,8.862824,56.034814
1926585,Fasanvej,6933,23,8.8631501,56.0347276
1926586,Fasanvej,6933,25,8.8641667,56.0350729
1926591,Bækgaardsvej,6933,1,8.8582379,56.0358799
1926592,Bækgaardsvej,6933,2,8.8586337,56.0359363
1926593,Bækgaardsvej,6933,3,8.85821,56.0361814
1926594,Bækgaardsvej,6933,4,8.8586517,56.0361705
1926595,Bækgaardsvej,6933,5,8.8581733,56.0363807
1926596,Bækgaardsvej,6933,6,8.8592494,56.0362333
1926597,Bækgaardsvej,6933,7,8.858652,56.0364491
1926598,Bækgaardsvej,6933,8,8.8596485,56.0362047
1926599,Bækgaardsvej,6933,9,8.8591486,56.0364713
1926602,Bækgaardsvej,6933,10,8.8599754,56.0362987
1926603,Bækgaardsvej,6933,11,8.859638,56.0365536
1926606,Bækgaardsvej,6933,13,8.8599433,56.0365424
1926640,Engkrogen,6933,1A,8.8467845,56.031654
1926645,Engkrogen,6933,1B,8.8469369,56.031655
1926647,Engkrogen,6933,2A,8.8462024,56.0316851
1926651,Engkrogen,6933,2B,8.8460576,56.0316953
1926654,Engkrogen,6933,2C,8.8459336,56.0317062
1926657,Engkrogen,6933,3,8.8453095,56.031221
1926661,Engkrogen,6933,4,8.8457415,56.031576
1926663,Engkrogen,6933,6,8.8453786,56.0315016
1926667,Engkrogen,6933,8,8.8448535,56.0313107
1926699,Nygade,6933,1,8.8522687,56.031855
1926700,Nygade,6933,2,8.85195,56.031786
1926701,Nygade,6933,3,8.8524735,56.0316266
1926702,Nygade,6933,4,8.852018,56.031642
1926703,Nygade,6933,6,8.8521072,56.0315203
1926704,Nygade,6933,7,8.8524335,56.0314219
1926705,Nygade,6933,7A,8.8525215,56.0315449
1926706,Nygade,6933,8,8.8521004,56.0313243
1926707,Nygade,6933,9,8.852555,56.03121
1926708,Nygade,6933,10,8.8520678,56.0310515
1926709,Nygade,6933,11,8.8525966,56.0311501
1926710,Nygade,6933,13,8.852596,56.031049
1926722,Sandfeld Alle,6933,1,8.8498203,56.0341646
1926727,Sandfeld Alle,6933,3,8.8496742,56.0341674
1926729,Sandfeld Alle,6933,5,8.8495498,56.0341479
1926730,Sandfeld Alle,6933,7,8.849419,56.034128
1926731,Sandfeld Alle,6933,9,8.8491653,56.0340918
1926732,Sandfeld Alle,6933,11,8.8490458,56.0341108
1926733,Sandfeld Alle,6933,13,8.8489174,56.0341115
1926734,Sandfeld Alle,6933,15,8.848785,56.0340923
1926735,Sandfeld Alle,6933,17,8.8485539,56.0340923
1926736,Sandfeld Alle,6933,19,8.848418,56.034092
1926737,Sandfeld Alle,6933,21,8.8483061,56.0341118
1926738,Sandfeld Alle,6933,23,8.8481617,56.0341118
1926739,Sandfeld Alle,6933,25,8.8478942,56.0343818
1926794,Vestervænget,6933,2,8.850303,56.030441
1926798,Vestervænget,6933,4,8.8500241,56.030556
1926799,Vestervænget,6933,6,8.8498137,56.030562
1926801,Vestervænget,6933,8,8.8495497,56.0307053
1926803,Vestervænget,6933,10,8.8491141,56.0307258
1926805,Vestervænget,6933,12,8.849003,56.0305733
1926809,Vestervænget,6933,14,8.8488681,56.0304531
1926810,Vestervænget,6933,16,8.8485983,56.0305013
1926814,Vestervænget,6933,18,8.8486688,56.0306659
1926816,Vestervænget,6933,20,8.8487426,56.0308283
1926833,Stougaardsvej,6933,1,8.8636471,56.0302786
1926834,Stougaardsvej,6933,2,8.8640045,56.0300837
1926835,Stougaardsvej,6933,3,8.8641136,56.0305339
1926836,Stougaardsvej,6933,4,8.8643263,56.0302651
1926837,Stougaardsvej,6933,5,8.8645,56.030828
1926838,Stougaardsvej,6933,6,8.8650955,56.0307401
1926839,Stougaardsvej,6933,7,8.8650014,56.0312567
1926849,Sneppevej,6933,1,8.860735,56.0342832
1926850,Sneppevej,6933,2,8.8603778,56.0340624
1926851,Sneppevej,6933,3,8.8610236,56.0341242
1926852,Sneppevej,6933,4,8.8606732,56.0339345
1926853,Sneppevej,6933,5,8.8613338,56.0339894
1926854,Sneppevej,6933,6,8.860967,56.0338082
1926855,Sneppevej,6933,7,8.8616096,56.0338704
1926856,Sneppevej,6933,8,8.8612467,56.0336741
1926857,Sneppevej,6933,9,8.8618789,56.0337156
1926859,Sneppevej,6933,10,8.8615559,56.0335641
1926860,Sneppevej,6933,11,8.8621074,56.033616
1926862,Sneppevej,6933,12,8.861851,56.0334034
1926884,Peder Strikkers Gård,6933,2,8.8531042,56.0314768
1926889,Peder Strikkers Gård,6933,4,8.8528899,56.031483
1926890,Peder Strikkers Gård,6933,6,8.8529666,56.0316213
1926895,Peder Strikkers Gård,6933,8,8.8529776,56.0317413
1926899,Peder Strikkers Gård,6933,10,8.8529862,56.0319099
1926900,Peder Strikkers Gård,6933,12,8.8532003,56.0319038
1926928,Glentevej,6933,1,8.860083,56.032864
1926930,Glentevej,6933,2,8.8599753,56.0325868
1926933,Glentevej,6933,4,8.8602903,56.0324507
1926934,Glentevej,6933,5,8.860571,56.033115
1926937,Glentevej,6933,6,8.8604874,56.0326609
1926938,Glentevej,6933,7,8.8609191,56.0333531
1926941,Glentevej,6933,8,8.8607604,56.0328188
1926942,Glentevej,6933,10,8.8609198,56.0329694
1926944,Glentevej,6933,12,8.8611335,56.0331239
1926946,Glentevej,6933,14,8.8613458,56.0332746
1926981,Energivej,6933,1,8.86137,56.030444
1926983,Energivej,6933,2,8.8606482,56.0311419
1926984,Energivej,6933,3,8.858984,56.028672
1926987,Energivej,6933,6,8.8600257,56.0302438
1926989,Energivej,6933,8,8.8596399,56.0298939
1926991,Energivej,6933,10,8.8593302,56.0296399
1926992,Solkrogen,6933,1,8.8524451,56.0299891
1926993,Solkrogen,6933,2,8.8532374,56.0303633
1926994,Solkrogen,6933,3,8.8520091,56.0300603
1926995,Solkrogen,6933,4,8.8530164,56.0303933
1926996,Solkrogen,6933,5,8.8516599,56.0301276
1926997,Solkrogen,6933,6,8.8525158,56.0302708
1926998,Solkrogen,6933,8,8.8524029,56.0302873
1926999,Solkrogen,6933,10,8.8522787,56.0303037
1927000,Solkrogen,6933,12,8.8521593,56.0303201
1927001,Solkrogen,6933,14,8.8518233,56.0303779
1927013,Lyager,6933,1,8.8649393,56.0365696
1927014,Lyager,6933,3,8.864858,56.0368819
1927015,Lyager,6933,7,8.8666516,56.0374269
1927016,Lyager,6933,9,8.8676512,56.0378709
1927017,Lyager,6933,11,8.868408,56.0384318
1927018,Lyager,6933,13,8.869132,56.038901
1927020,Sønderbro,6933,1,8.8550813,56.034625
1927021,Sønderbro,6933,2A,8.8550009,56.0344437
1927023,Sønderbro,6933,4,8.8552969,56.0343899
1927026,Sønderbro,6933,5,8.8552239,56.0346713
1927027,Sønderbro,6933,6,8.8556491,56.0343367
1927030,Sønderbro,6933,7,8.855256,56.034766
1927032,Sønderbro,6933,8,8.8566154,56.0342693
1927034,Sønderbro,6933,9,8.8552628,56.034844
1927036,Sønderbro,6933,10,8.8561236,56.0343616
1927040,Sønderbro,6933,11,8.8560012,56.0347924
1927041,Sønderbro,6933,12,8.8557027,56.0340449
1927044,Sønderbro,6933,13,8.8559922,56.0346922
1927045,Sønderbro,6933,14,8.854976,56.0342323
1927046,Sønderbro,6933,15,8.8559795,56.0345619
1927047,Sønderbro,6933,16,8.8551371,56.0341914
1927048,Sønderbro,6933,17,8.8564592,56.0345147
1927049,Sønderbro,6933,18,8.8562801,56.0341457
1927050,Sønderbro,6933,19,8.8564849,56.0346474
1927051,Sønderbro,6933,20,8.8564586,56.0341422
1927052,Sønderbro,6933,21,8.8565063,56.0347853
1927053,Sønderbro,6933,22,8.8566374,56.0341367
1927054,Sønderbro,6933,23,8.8572894,56.0347362
1927055,Sønderbro,6933,24,8.8567757,56.0341329
1927056,Sønderbro,6933,25,8.8572699,56.0346271
1927057,Sønderbro,6933,26,8.8569319,56.0341292
1927058,Sønderbro,6933,27,8.8572475,56.0344861
1927059,Sønderbro,6933,28,8.8564755,56.0343579
1927060,Sønderbro,6933,29,8.8578296,56.0341087
1927061,Sønderbro,6933,30,8.8567283,56.0343431
1927062,Sønderbro,6933,31,8.857932,56.0341586
1927063,Sønderbro,6933,32,8.8572418,56.0343179
1927064,Sønderbro,6933,33,8.8583348,56.0343372
1927065,Sønderbro,6933,35,8.8586891,56.034511
1927070,Toften,6933,1,8.8610295,56.0365483
1927071,Toften,6933,3,8.8615725,56.036573
1927073,Toften,6933,4,8.8615083,56.0363264
1927076,Toften,6933,5,8.861913,56.0365642
1927077,Toften,6933,6,8.8619613,56.0362346
1927079,Toften,6933,7,8.8621522,56.0364808
1927081,Toften,6933,9,8.8623973,56.0363693
1927099,Rønne Alle,6933,1,8.8538786,56.0292803
1927101,Rønne Alle,6933,2,8.8542602,56.0290031
1927102,Rønne Alle,6933,4,8.8541138,56.0290122
1927119,Øster Hedegårdsvej,6933,1,8.856098,56.0273535
1927120,Øster Hedegårdsvej,6933,2,8.8612211,56.0263593
1927124,Øster Hedegårdsvej,6933,3,8.8583409,56.0270659
1927125,Øster Hedegårdsvej,6933,4,8.8657099,56.0251702
1927157,Haandværkervej,6933,1,8.863075,56.029813
1927166,Hedegaardsvej,6933,2,8.8533135,56.0277033
1927167,Hedegaardsvej,6933,4,8.8536256,56.0276814
1927168,Hedegaardsvej,6933,6,8.8539274,56.0275165
1927178,Gildsigvej,6933,2,8.8482997,56.0230941
2140184,Højgaardsvej,6933,1,8.9334798,55.9258953
2140188,Højgaardsvej,6933,1B,8.9227928,55.9097336
2140198,Højgaardsvej,6933,2,8.939312,55.9327938
2140204,Højgaardsvej,6933,2A,8.9393461,55.9341157
2140207,Højgaardsvej,6933,2C,8.9369972,55.9319922
2140213,Højgaardsvej,6933,3A,8.918444,55.903199
2140217,Højgaardsvej,6933,3B,8.918187,55.903088
2140219,Højgaardsvej,6933,4,8.9334619,55.9266335
2140223,Højgaardsvej,6933,5,8.9175986,55.9000537
2140226,Højgaardsvej,6933,6,8.9218095,55.9222583
2140229,Højgaardsvej,6933,7,8.9158306,55.8946554
2140235,Højgaardsvej,6933,8,8.9164336,55.9153467
2140237,Højgaardsvej,6933,10,8.9179147,55.9071573
2140244,Højgaardsvej,6933,10A,8.9179205,55.9074283
2140247,Højgaardsvej,6933,12,8.9130763,55.9080164
2140456,Laksestien,6933,2,8.897923,55.973191
2140466,Laksestien,6933,4,8.897653,55.97318
2140484,Laksestien,6933,7,8.897988,55.972514
2140511,Laksestien,6933,11,8.897842,55.972294
2140520,Laksestien,6933,13,8.897748,55.972159
2140528,Laksestien,6933,15,8.897459,55.97231
2140538,Laksestien,6933,17,8.897289,55.972391
2140544,Laksestien,6933,19,8.8970577,55.9725027
2140550,Laksestien,6933,21,8.896807,55.972616
2140555,Laksestien,6933,23,8.896717,55.972785
2142098,Sønder Feldingvej,6933,18,8.754309,55.980262
2142101,Sønder Feldingvej,6933,20,8.7611737,55.9795541
2142105,Sønder Feldingvej,6933,22,8.7627185,55.9796663
2142108,Sønder Feldingvej,6933,24,8.765557,55.9773256
2142110,Sønder Feldingvej,6933,26,8.7685027,55.9743755
2142116,Sønder Feldingvej,6933,29A,8.8103292,55.982785
2142124,Sønder Feldingvej,6933,31,8.7636427,55.9801166
2142129,Sønder Feldingvej,6933,33,8.7711317,55.9739606
2142133,Sønder Feldingvej,6933,35,8.7767483,55.9718087
2142138,Sønder Feldingvej,6933,37,8.780464,55.972414
2142141,Sønder Feldingvej,6933,39,8.7845545,55.9721389
2142149,Sønder Feldingvej,6933,41,8.787175,55.9714649
2142264,Velhustedparken,6933,1,8.871019,56.0415888
2142272,Velhustedparken,6933,1A,8.8709076,56.0416917
2142275,Velhustedparken,6933,3,8.8706971,56.0413712
2142281,Velhustedparken,6933,5,8.8703336,56.0412175
2142285,Velhustedparken,6933,7,8.870114,56.0413704
2142291,Velhustedparken,6933,9,8.870468,56.0415738
2142298,Velhustedparken,6933,11,8.8707872,56.0418326
2142302,Velhustedparken,6933,13,8.8701796,56.0423882
2142311,Velhustedparken,6933,15,8.86993,56.042125
2142314,Velhustedparken,6933,17,8.8696203,56.0419632
2142323,Velhustedparken,6933,19,8.8693587,56.0418299
2142334,Velhustedparken,6933,21,8.8689673,56.0419353
2142337,Velhustedparken,6933,23,8.8694404,56.0421345
2142349,Velhustedparken,6933,25,8.8696383,56.0422873
2142353,Velhustedparken,6933,27,8.8698604,56.0426072
2142361,Velhustedparken,6933,29,8.868993,56.043392
2142371,Velhustedparken,6933,31,8.8687571,56.0431816
2142375,Velhustedparken,6933,33,8.8683954,56.0430494
2142382,Velhustedparken,6933,35,8.8679906,56.0432322
2142389,Velhustedparken,6933,37,8.8684609,56.043354
2142398,Velhustedparken,6933,39,8.8687532,56.0435321
2147532,Trævænget,6933,1,8.812502,56.073089
2147548,Trævænget,6933,3,8.812818,56.073031
2147550,Trævænget,6933,5,8.813154,56.072985
2147557,Trævænget,6933,7,8.813472,56.072944
2147570,Trævænget,6933,9,8.813786,56.072903
2147575,Trævænget,6933,11,8.814143,56.072863
2147582,Trævænget,6933,13,8.814638,56.072826
2195545,Sønderbro,6933,2,8.855064,56.034332
2195547,Engkrogen,6933,1,8.846781,56.031669
2195548,Engkrogen,6933,2,8.846209,56.031693
2195552,Vester Alle,6933,1,8.852718,56.030627
2195561,Sandfeldparken,6933,16A,8.852551,56.035937
2195562,Sandfeldparken,6933,34,8.85113,56.036114
2195563,Jernbanegade,6933,16,8.852239,56.033135
2195566,Elme Alle,6933,3,8.8558302,56.0311324
2195572,Kastanie Alle,6933,9,8.855315,56.031332
2195573,Kastanie Alle,6933,29,8.854564,56.028777
2195576,Solbakken,6933,35,8.853136,56.027343
2195601,Fjelstervangvej,6933,26,8.85333,56.038914
2195605,Arnborgvej,6933,2A,8.871083,56.024208
2195606,Arnborgvej,6933,2B,8.8727894,56.0234513
2213053,Sønder Ommevej,6933,4A,8.883942,55.949775
2213054,Sønder Ommevej,6933,4B,8.884504,55.949585
2213055,Sønder Feldingvej,6933,26A,8.7822245,55.9626006
2226024,Bjerregårds Alle,6933,1,8.819579,56.072783
2226025,Bjerregårds Alle,6933,4,8.820418,56.072536
2226026,Bjerregårds Alle,6933,6,8.820628,56.072473
2226027,Bjerregårds Alle,6933,7,8.821346,56.072661
2226028,Bjerregårds Alle,6933,8,8.821093,56.072439
2226029,Bjerregårds Alle,6933,9,8.821875,56.072626
2226030,Bjerregårds Alle,6933,10,8.821342,56.072408
2226031,Bjerregårds Alle,6933,12,8.821674,56.072397
2226032,Bjerregårds Alle,6933,14,8.822071,56.072376
2226033,Bjerregårds Alle,6933,16,8.823146,56.072349
2226034,Bjerregårds Alle,6933,17,8.823833,56.072596
2226035,Bjerregårds Alle,6933,18,8.82358,56.072318
2226036,Bjerregårds Alle,6933,20,8.823968,56.072331
2226037,Bjerregårds Alle,6933,21,8.825017,56.072554
2226038,Bjerregårds Alle,6933,22,8.824465,56.072287
2226039,Bjerregårds Alle,6933,24,8.825057,56.072213
2226040,Bjerregårds Alle,6933,26,8.82586,56.072128
2226041,Bjerregårds Alle,6933,28,8.826013,56.07235
2233073,Døvlingvej,6933,1,8.905469,55.923517
2233074,Døvlingvej,6933,2,8.907879,55.922715
2233221,Hovedgaden,6933,61,8.902085,55.976212
2233227,Barslundvej,6933,7B,8.964989,55.90119
2233263,Birkemosevej,6933,1A,8.945896,55.927952
2233264,Birkemosevej,6933,1B,8.946309,55.904154
2233268,Birkemosevej,6933,14,8.928782,55.893482
2233269,Birkemosevej,6933,16,8.930767,55.892033
2233498,Over Silstrupvej,6933,2B,8.8488144,55.9763057
2234500,Haunstrupvej,6933,3A,8.81014,56.073851
2234601,Vorgodvej,6933,2B,8.83572,56.040429
2234656,Fjelstrupvej,6933,4,8.779464,56.045092
2234657,Fjelstrupvej,6933,5,8.785673,56.03907
2234658,Fjelstrupvej,6933,6,8.78156,56.04303
2234668,Overvej,6933,15A,8.806005,56.071644
2234669,Overvej,6933,15B,8.805431,56.071731
2235013,Assingvej,6933,8B,8.86812,55.998627
2235029,Vejlgaardvej,6933,6B,8.806596,56.01586
2235030,Albækhedevej,6933,3,8.8136734,56.0000585
2235045,Klinkegaardsvej,6933,5,8.870139,55.980221
2237371,Højgaardsvej,6933,2B,8.9362506,55.9328341
2237373,Laksestien,6933,25,8.896482,55.972825
2237374,Laksestien,6933,29,8.89758,55.9725261
2237375,Laksestien,6933,31,8.897649,55.972691
2237376,Laksestien,6933,33,8.897679,55.972874
2238407,Velhustedvej,6933,22,8.8841925,56.0590628
2238408,Velhustedvej,6933,47,8.876496,56.06425
2238409,Velhustedvej,6933,49,8.8673446,56.0659865
2239972,Hveddevej,6933,36A,8.889431,56.005879
2251978,Assingvej,6933,9A,8.880183,55.999442
2251979,Bavnehøjen,6933,2A,8.843046,56.032603
2251981,Blåhøjvej,6933,48,8.938638,55.934799
2251993,Højgaardsvej,6933,8B,8.912613,55.909851
2252004,Møllegaardsvej,6933,33A,8.866047,56.036609
2252005,Møllegaardsvej,6933,33B,8.865743,56.03641
2252007,Nørre Bredgade,6933,4A,8.853639,56.032227
2252008,Nørre Bredgade,6933,4B,8.853615,56.032283
2252009,Nørre Bredgade,6933,4C,8.853653,56.032316
2252014,Sandfeldparken,6933,4,8.850798,56.034717
2252028,Velhustedvej,6933,51,8.869291,56.064784
