idx,street,postcode,housenumber,lon,lat
757688,Brandsbjergvej,7570,4,8.427998,56.321812
759601,Gedmosevej,7570,1B,8.467601,56.382859
761351,Hvolbyvej,7570,5,8.403747,56.322545
761352,Hvolbyvej,7570,7,8.414708,56.314965
762431,Knudehus,7570,1,8.4058643,56.3317649
762432,Knudehus,7570,2,8.406944,56.332723
762433,Knudehus,7570,3,8.4057379,56.3314528
762434,Knudehus,7570,4,8.405835,56.333028
762435,Knudehus,7570,5,8.405493,56.331189
762436,Knudehus,7570,6,8.404628,56.333141
762437,Knudehus,7570,10,8.402931,56.333325
762438,Knudehus,7570,21,8.4046391,56.3324681
762439,Knudehus,7570,23,8.403949,56.33249
762440,Knudehus,7570,25,8.40316,56.332557
762441,Knudehus,7570,27,8.4023054,56.3325366
762442,Knudehus,7570,29,8.401529,56.33261
762443,Knudehus,7570,31,8.399763,56.332766
762444,Knudehus,7570,47,8.403808,56.334821
762445,Knudehus,7570,49,8.404454,56.335123
762446,Knudehus,7570,51,8.404673,56.335696
762447,Knudehus,7570,55,8.405868,56.335193
762448,Knudsigvej,7570,4,8.42058,56.341863
763482,Lindtorpvej,7570,11,8.452075,56.384338
766242,Ringkøbingvej,7570,44,8.423657,56.315289
766585,Råsted Kirkevej,7570,9,8.413884,56.323706
766586,Råsted Kirkevej,7570,11,8.424547,56.317732
766587,Råsted Kirkevej,7570,12,8.398306,56.328068
766588,Råsted Kirkevej,7570,12A,8.396448,56.329922
766589,Råsted Kirkevej,7570,14,8.397046,56.326293
766590,Råsted Kirkevej,7570,15,8.427572,56.315436
766591,Råsted Kirkevej,7570,16,8.405429,56.325894
766592,Råsted Kirkevej,7570,17,8.428422,56.315138
766593,Råsted Kirkevej,7570,18,8.41584,56.321079
766594,Råsted Kirkevej,7570,18B,8.422087,56.319518
766595,Råsted Kirkevej,7570,20,8.422523,56.318587
766596,Råsted Kirkevej,7570,22,8.425547,56.316205
766597,Råsted Kirkevej,7570,24A,8.426636,56.315396
766598,Råsted Kirkevej,7570,24B,8.426903,56.315125
766599,Råsted Kirkevej,7570,26,8.427258,56.314837
766600,Råsted Kirkevej,7570,28,8.427573,56.314669
767697,Stenumvej,7570,7,8.43136,56.352531
767698,Stenumvej,7570,9,8.427801,56.356011
768587,Theutsvej,7570,3,8.41697,56.332148
768588,Theutsvej,7570,5,8.427372,56.328573
770913,Ballesigvej,7570,14,8.254912,56.383738
770914,Ballesigvej,7570,17,8.2576002,56.3699773
770915,Ballesigvej,7570,21,8.2565848,56.3679653
770916,Ballesigvej,7570,23,8.2638539,56.369604
770917,Ballesigvej,7570,27,8.2547263,56.3634127
770918,Ballesigvej,7570,28,8.2540429,56.3630512
771408,Bækbyvej,7570,7,8.2539016,56.3579996
771409,Bækbyvej,7570,11,8.25323,56.354637
771410,Bækbyvej,7570,13,8.2524494,56.3557602
771411,Bækbyvej,7570,15,8.2511226,56.3561121
771412,Bækbyvej,7570,19,8.2465661,56.350795
771641,Damhusvej,7570,36,8.3339792,56.370104
771642,Damhusvej,7570,37,8.3325055,56.3701124
771643,Damhusvej,7570,38,8.3330872,56.3705093
771644,Damhusvej,7570,43,8.3307212,56.3736368
771645,Damhusvej,7570,45,8.3291488,56.3762285
771646,Damhusvej,7570,46,8.3298395,56.3767038
771647,Damhusvej,7570,47,8.3267777,56.3789177
771649,Damhusvej,7570,50,8.33281,56.378898
771711,Donskærvej,7570,16,8.4266969,56.391582
771712,Donskærvej,7570,19,8.4192253,56.3904513
771713,Donskærvej,7570,21,8.418553,56.3923569
771714,Donskærvej,7570,24,8.4131755,56.3961121
771715,Donskærvej,7570,25,8.412285,56.393949
771716,Donskærvej,7570,27,8.4069911,56.3941572
771717,Donskærvej,7570,31,8.4014666,56.3954239
772658,Færgevej,7570,5,8.1707196,56.404202
772659,Færgevej,7570,7,8.1709076,56.4047559
772660,Færgevej,7570,11,8.1708276,56.4053773
772661,Færgevej,7570,24,8.175006,56.412025
772662,Færgevej,7570,25,8.1716594,56.4138313
773219,Harpøtvej,7570,2,8.2255351,56.3696628
773220,Harpøtvej,7570,4,8.224901,56.36975
773221,Harpøtvej,7570,6,8.2245062,56.3698518
773222,Harpøtvej,7570,8,8.2238582,56.3697761
773223,Harpøtvej,7570,10,8.223372,56.3698029
773224,Harpøtvej,7570,12,8.2230503,56.3699464
773225,Harpøtvej,7570,14,8.2224566,56.3699573
773226,Harpøtvej,7570,16,8.2224169,56.3695847
773227,Harpøtvej,7570,18,8.222851,56.369505
773228,Harpøtvej,7570,20,8.2238106,56.3693321
773229,Harpøtvej,7570,24,8.2243185,56.3693587
773230,Harpøtvej,7570,26,8.2249216,56.3693661
773231,Harpøtvej,7570,28,8.2252931,56.3692974
773232,Harpøtvej,7570,30,8.225196,56.3689359
773233,Harpøtvej,7570,32,8.2247376,56.3690606
773234,Harpøtvej,7570,34,8.2243637,56.3690872
773235,Harpøtvej,7570,40,8.2228775,56.369119
773236,Harpøtvej,7570,42,8.2223254,56.3691862
773237,Harpøtvej,7570,44,8.2221517,56.3689246
773238,Harpøtvej,7570,46,8.2227108,56.3687902
773239,Harpøtvej,7570,48,8.2232138,56.368783
773240,Harpøtvej,7570,50,8.223593,56.3687753
773241,Harpøtvej,7570,52,8.2241343,56.3686386
773242,Harpøtvej,7570,54,8.224637,56.368641
773243,Harpøtvej,7570,56,8.2251986,56.3686072
773244,Harpøtvej,7570,58,8.2251984,56.3683291
773245,Harpøtvej,7570,60,8.224596,56.3682898
773246,Harpøtvej,7570,62,8.2241141,56.3683374
773247,Harpøtvej,7570,64,8.2235915,56.3684031
773248,Harpøtvej,7570,66,8.2230419,56.3684876
773249,Harpøtvej,7570,68,8.222607,56.3684384
773250,Harpøtvej,7570,70,8.222219,56.368565
773251,Harpøtvej,7570,72,8.2219175,56.368206
773252,Harpøtvej,7570,74,8.222482,56.368112
773253,Harpøtvej,7570,76,8.2229849,56.3680918
773254,Harpøtvej,7570,78,8.223525,56.368111
773255,Harpøtvej,7570,80,8.2240794,56.3680068
773256,Harpøtvej,7570,82,8.2245769,56.3679536
773257,Harpøtvej,7570,84,8.225012,56.367898
773258,Harpøtvej,7570,86,8.2249656,56.3675621
773259,Harpøtvej,7570,88,8.2244268,56.3676077
773260,Harpøtvej,7570,90,8.2240026,56.3677033
773261,Harpøtvej,7570,92,8.2234325,56.3676791
773262,Harpøtvej,7570,94,8.2229617,56.3677915
773263,Harpøtvej,7570,96,8.2224909,56.3678487
773264,Harpøtvej,7570,98,8.2219413,56.3677773
773265,Harpøtvej,7570,100,8.2218791,56.367508
773266,Harpøtvej,7570,102,8.2223446,56.3674239
773267,Harpøtvej,7570,104,8.2228107,56.3673761
773268,Harpøtvej,7570,106,8.223414,56.3673279
773269,Harpøtvej,7570,108,8.2238486,56.3672876
773270,Harpøtvej,7570,110,8.22432,56.36724
773271,Harpøtvej,7570,112,8.224729,56.3672595
773272,Harpøtvej,7570,114,8.2247949,56.3669366
773273,Harpøtvej,7570,116,8.2242499,56.3668734
773274,Harpøtvej,7570,118,8.2237692,56.3669006
773275,Harpøtvej,7570,120,8.2232561,56.366936
773276,Harpøtvej,7570,122,8.2227595,56.3671063
773277,Harpøtvej,7570,124,8.2222441,56.3670334
773278,Harpøtvej,7570,128,8.2217562,56.366778
773279,Harpøtvej,7570,130,8.2222183,56.3666964
773280,Harpøtvej,7570,132,8.222649,56.3667044
773281,Harpøtvej,7570,134,8.2232023,56.3666338
773282,Harpøtvej,7570,136,8.2237198,56.3666113
773283,Harpøtvej,7570,138,8.2241849,56.3665746
773284,Harpøtvej,7570,140,8.224591,56.366542
773285,Harpøtvej,7570,142,8.2209725,56.3664554
773404,Hedevej,7570,6,8.2785511,56.3699702
773405,Hedevej,7570,11,8.2789052,56.372711
773406,Hedevej,7570,16,8.2807292,56.3749648
773407,Hedevej,7570,21,8.280183,56.379867
773486,Hestbækvej,7570,14,8.428412,56.390894
773487,Hestbækvej,7570,16B,8.4334493,56.3935271
773488,Hestbækvej,7570,17,8.4273791,56.3946109
773489,Hestbækvej,7570,18,8.4312807,56.3961073
773576,Holmgårdvej,7570,190,8.3457913,56.3782458
773577,Holmgårdvej,7570,191,8.3493099,56.3786524
773578,Holmgårdvej,7570,194,8.341734,56.375795
773579,Holmgårdvej,7570,195,8.3450861,56.3718554
773580,Holmgårdvej,7570,197,8.337441,56.3734504
773831,Hyttevej,7570,1,8.218252,56.370613
773832,Hyttevej,7570,3,8.218606,56.3704637
773833,Hyttevej,7570,5,8.219043,56.370469
773834,Hyttevej,7570,7,8.2193833,56.3703393
773835,Hyttevej,7570,11A,8.2201096,56.3702894
773836,Hyttevej,7570,11B,8.2203065,56.370247
773837,Hyttevej,7570,13,8.2208063,56.3702708
773838,Hyttevej,7570,15,8.2213314,56.3702281
773839,Hyttevej,7570,17,8.218219,56.370173
773840,Hyttevej,7570,19,8.218644,56.370146
773841,Hyttevej,7570,21,8.2189842,56.3699972
773842,Hyttevej,7570,23,8.2193868,56.3699359
773843,Hyttevej,7570,25,8.2197912,56.3698484
773844,Hyttevej,7570,27,8.2201562,56.369861
773845,Hyttevej,7570,29,8.220578,56.3696854
773846,Hyttevej,7570,31,8.221235,56.3698089
773847,Hyttevej,7570,33,8.2210339,56.3695338
773848,Hyttevej,7570,35,8.2210333,56.3692592
773849,Hyttevej,7570,37,8.2209585,56.3689838
773850,Hyttevej,7570,39,8.2205234,56.3693268
773851,Hyttevej,7570,41,8.2201147,56.3694143
773852,Hyttevej,7570,43,8.2197534,56.3694678
773853,Hyttevej,7570,45,8.2193702,56.3695783
773854,Hyttevej,7570,47,8.2186588,56.3697311
773855,Hyttevej,7570,49,8.218322,56.3698115
773856,Hyttevej,7570,51,8.2180709,56.369606
773857,Hyttevej,7570,53,8.2184105,56.3694171
773858,Hyttevej,7570,55,8.2188714,56.3693564
773859,Hyttevej,7570,57,8.2192929,56.3692183
773860,Hyttevej,7570,59,8.219673,56.369071
773861,Hyttevej,7570,61,8.2200637,56.3688818
773862,Hyttevej,7570,63,8.220499,56.3687636
773863,Hyttevej,7570,65,8.220931,56.368601
773864,Hyttevej,7570,67,8.2208601,56.3683157
773865,Hyttevej,7570,69,8.2203794,56.3684618
773866,Hyttevej,7570,71,8.2200173,56.3685548
773867,Hyttevej,7570,73,8.2196339,56.3686192
773868,Hyttevej,7570,75,8.2191887,56.3687848
773869,Hyttevej,7570,77,8.2187376,56.3688822
773870,Hyttevej,7570,79,8.2182977,56.3690428
773871,Hyttevej,7570,81,8.2178982,56.3692091
773872,Hyttevej,7570,83,8.217863,56.36879
773873,Hyttevej,7570,85,8.2182566,56.3687674
773874,Hyttevej,7570,87,8.2186844,56.3685093
773875,Hyttevej,7570,89,8.2191693,56.3684702
773876,Hyttevej,7570,91,8.219514,56.368299
773877,Hyttevej,7570,93,8.2198654,56.3682631
773878,Hyttevej,7570,95,8.2204138,56.368106
773879,Hyttevej,7570,97,8.2207409,56.3679823
773880,Hyttevej,7570,99,8.220633,56.3674668
773881,Hyttevej,7570,101,8.2202484,56.3675839
773882,Hyttevej,7570,103,8.2197965,56.3678014
773883,Hyttevej,7570,105,8.219385,56.367878
773884,Hyttevej,7570,107,8.2190617,56.368038
773885,Hyttevej,7570,109,8.218644,56.368202
773886,Hyttevej,7570,111,8.2181428,56.3682277
773887,Hyttevej,7570,115,8.2181559,56.3675727
774196,Kikkenborgvej,7570,1,8.3329277,56.3694635
774197,Kikkenborgvej,7570,7,8.3277707,56.3657813
774198,Kikkenborgvej,7570,9,8.3257092,56.3657852
774199,Kikkenborgvej,7570,10,8.3069645,56.3708106
774200,Kikkenborgvej,7570,11,8.325843,56.3637131
774201,Kikkenborgvej,7570,15,8.319238,56.360809
774202,Kikkenborgvej,7570,21,8.2892227,56.3622524
774203,Kikkenborgvej,7570,23,8.2875808,56.3610546
774204,Kikkenborgvej,7570,24,8.290733,56.369936
774205,Kikkenborgvej,7570,29,8.2889302,56.3667832
774206,Kikkenborgvej,7570,40,8.2814586,56.3686505
774207,Kikkenborgvej,7570,42,8.2784885,56.367018
774208,Kikkenborgvej,7570,44,8.2769402,56.3662871
774209,Kikkenborgvej,7570,45,8.2745661,56.3635409
774210,Kikkenborgvej,7570,46,8.271967,56.364497
774211,Kikkenborgvej,7570,50,8.2664688,56.3652218
774212,Kikkenborgvej,7570,58,8.2587048,56.3634215
774521,Koldborgvej,7570,5,8.201053,56.395074
774522,Koldborgvej,7570,7,8.2025186,56.3952787
774523,Koldborgvej,7570,8,8.2049892,56.3963856
774524,Koldborgvej,7570,11,8.2004709,56.3962753
774525,Koldborgvej,7570,12,8.2005585,56.3995164
774526,Koldborgvej,7570,23,8.1940025,56.3994525
774527,Koldsøvej,7570,6,8.2373044,56.3900499
774528,Koldsøvej,7570,8,8.2404349,56.3894511
774529,Koldsøvej,7570,12,8.2478277,56.387831
775547,Neesvej,7570,11,8.2214643,56.3916661
775548,Neesvej,7570,13A,8.220064,56.3960203
775549,Neesvej,7570,13B,8.220359,56.395157
775550,Neesvej,7570,14,8.2173532,56.3957823
775551,Neesvej,7570,23,8.2155668,56.3948991
775552,Neesvej,7570,24,8.2146676,56.3950678
775553,Neesvej,7570,27,8.214792,56.3948394
775554,Neesvej,7570,28,8.2143885,56.3950491
775555,Neesvej,7570,29,8.2144076,56.3947584
775556,Neesvej,7570,30,8.2140295,56.3950049
775557,Neesvej,7570,31,8.2140344,56.3948138
775558,Neesvej,7570,32,8.2138299,56.3950038
775559,Neesvej,7570,33,8.2136566,56.3947808
775560,Neesvej,7570,36,8.2131286,56.3953559
775561,Neesvej,7570,37,8.2133261,56.3947055
775562,Neesvej,7570,38,8.2132217,56.3949288
775563,Neesvej,7570,39A,8.2131475,56.3944417
775564,Neesvej,7570,39B,8.2135242,56.3942868
775565,Neesvej,7570,41,8.2131971,56.3941726
775566,Neesvej,7570,45A,8.2128554,56.3942601
775567,Neesvej,7570,46A,8.2118466,56.3954764
775568,Neesvej,7570,46B,8.2118376,56.3955778
775569,Neesvej,7570,46C,8.2120797,56.3956676
775570,Neesvej,7570,47,8.2128545,56.394664
775571,Neesvej,7570,49,8.2124588,56.394655
775572,Neesvej,7570,50,8.21235,56.3948397
775573,Neesvej,7570,51,8.2122539,56.3945372
775574,Neesvej,7570,52,8.2118362,56.3948036
775575,Neesvej,7570,53A,8.211778,56.394586
775576,Neesvej,7570,53B,8.2118259,56.3942857
775577,Neesvej,7570,54,8.2115934,56.3948019
775578,Neesvej,7570,55,8.2121759,56.3935912
775579,Neesvej,7570,56,8.211295,56.3947354
775580,Neesvej,7570,57,8.2113763,56.3944998
775581,Neesvej,7570,58,8.2110247,56.3948229
775582,Neesvej,7570,59,8.2109053,56.3945027
775583,Neesvej,7570,60,8.2107665,56.3946656
775584,Neesvej,7570,61,8.2105654,56.3944569
775585,Neesvej,7570,62,8.2104193,56.3946516
775586,Neesvej,7570,63,8.2102326,56.3944222
775587,Neesvej,7570,65,8.2098139,56.3943645
775588,Neesvej,7570,67,8.2093497,56.3942488
775589,Neesvej,7570,68,8.2092978,56.3945421
775590,Neesvej,7570,70,8.208606,56.394502
775591,Neesvej,7570,72,8.208833,56.39482
775592,Neesvej,7570,77,8.2076882,56.393902
775593,Neesvej,7570,85,8.2045068,56.3901514
775594,Neesvej,7570,87,8.205547,56.3938558
775595,Neesvej,7570,90,8.2034298,56.3942013
775596,Neesvej,7570,92,8.1979949,56.3948435
775597,Neesvej,7570,93,8.199901,56.392149
775598,Neesvej,7570,96,8.1972035,56.3925651
775599,Neesvej,7570,99,8.1964375,56.3915797
775600,Neesvej,7570,103,8.194199,56.3915794
775601,Neesvej,7570,106,8.191083,56.3935034
775602,Neesvej,7570,107,8.1902315,56.3926288
775603,Neesvej,7570,113,8.1836318,56.3926981
775604,Neesvej,7570,117,8.1795475,56.3956043
775605,Neesvej,7570,125,8.175715,56.397124
775606,Neesvej,7570,129,8.1752969,56.4000466
775607,Neesvej,7570,130,8.177144,56.401407
775857,Nøragervej,7570,1,8.2243746,56.3951207
775858,Nøragervej,7570,2,8.2237854,56.3959814
775859,Nøragervej,7570,6,8.22302,56.398738
775860,Nøragervej,7570,8A,8.2234263,56.3989839
775861,Nøragervej,7570,8B,8.22285,56.399314
775862,Nøragervej,7570,10,8.2222291,56.3998152
775863,Nøragervej,7570,11,8.2213388,56.399043
775864,Nøragervej,7570,14,8.2193698,56.4001043
775865,Nøragervej,7570,20,8.214601,56.401695
775866,Nøragervej,7570,23,8.2099357,56.3989778
775867,Nøragervej,7570,25,8.208706,56.400214
775868,Nøragervej,7570,27,8.206807,56.400834
775869,Nøragervej,7570,38,8.1895833,56.404307
775870,Nøragervej,7570,42,8.1811376,56.4032206
775871,Nøragervej,7570,44,8.17486,56.403909
775872,Nøragervej,7570,48,8.1778005,56.4141161
775873,Nøragervej,7570,50,8.171476,56.4037027
776010,Nørtoftvej,7570,3,8.2325579,56.3826057
776011,Nørtoftvej,7570,7,8.2407766,56.3836841
776012,Nørtoftvej,7570,9,8.24783,56.3843894
776013,Nørtoftvej,7570,14,8.2593755,56.381781
776014,Nørtoftvej,7570,15,8.2629559,56.3822353
776015,Nørtoftvej,7570,16,8.266675,56.381604
776016,Nørtoftvej,7570,17,8.2700173,56.3820475
776017,Nørtoftvej,7570,18,8.2737414,56.3810572
776018,Nørtoftvej,7570,19,8.277446,56.38198
776019,Nørtoftvej,7570,22,8.2867115,56.3811792
776807,Sandbækvej,7570,4,8.1902864,56.3904
776808,Sandbækvej,7570,9,8.1949444,56.3861916
776809,Sandbækvej,7570,10,8.1899052,56.3850329
776810,Sandbækvej,7570,12,8.189331,56.382423
776811,Sandbækvej,7570,14A,8.1947033,56.3832804
776812,Sandbækvej,7570,14B,8.19502,56.382282
776813,Sandbækvej,7570,15,8.1956945,56.3835482
776814,Sandbækvej,7570,21,8.198198,56.38355
776815,Sandbækvej,7570,27,8.1992452,56.3834279
776816,Sandbækvej,7570,29,8.1997785,56.383445
776817,Sandbækvej,7570,31,8.2006395,56.3833426
776818,Sandbækvej,7570,33,8.2030215,56.3822623
776819,Sandbækvej,7570,38,8.1996641,56.3815156
776820,Sandbækvej,7570,39,8.2013097,56.3816131
776821,Sandbækvej,7570,40,8.1998893,56.3802533
776822,Sandbækvej,7570,44,8.202567,56.377735
776823,Sandbækvej,7570,48,8.2071444,56.3764593
776824,Sandbækvej,7570,49,8.2082064,56.3770777
776825,Sandbækvej,7570,52,8.2101315,56.3748242
776826,Sandbækvej,7570,53,8.2113285,56.3760169
776827,Sandbækvej,7570,55,8.2147204,56.374044
776828,Sandbækvej,7570,56,8.2148983,56.372683
776829,Sandbækvej,7570,57,8.2180307,56.3731819
776830,Sandbækvej,7570,59,8.226583,56.370259
776974,Skalstrupvej,7570,28,8.2789892,56.3527573
776975,Skalstrupvej,7570,30,8.2772888,56.3535029
776976,Skalstrupvej,7570,34,8.2720277,56.3593127
776977,Skalstrupvej,7570,36,8.275096,56.356745
776978,Skalstrupvej,7570,38,8.269311,56.356946
776979,Skalstrupvej,7570,39,8.2693617,56.3556762
776980,Skalstrupvej,7570,41,8.2678045,56.3536508
776981,Skalstrupvej,7570,42,8.265085,56.35878
776982,Skalstrupvej,7570,43,8.262028,56.357555
776983,Skalstrupvej,7570,50,8.2550504,56.3622998
776984,Skalstrupvej,7570,51,8.2542163,56.3622773
776985,Skalstrupvej,7570,53,8.2537479,56.3624721
776986,Skalstrupvej,7570,54,8.2536549,56.3628094
776987,Skalstrupvej,7570,57,8.2525594,56.362869
776988,Skalstrupvej,7570,58,8.2523597,56.3633713
776989,Skalstrupvej,7570,60,8.252034,56.3635262
776990,Skalstrupvej,7570,61,8.2514609,56.3633839
776991,Skalstrupvej,7570,62,8.251149,56.3639019
776992,Skalstrupvej,7570,63,8.2500098,56.3635963
776993,Skalstrupvej,7570,64,8.2488581,56.3644938
776994,Skalstrupvej,7570,66,8.2497972,56.3699612
776995,Skalstrupvej,7570,70,8.2474285,56.3649771
776996,Skalstrupvej,7570,72,8.2468961,56.3656332
776997,Skalstrupvej,7570,73,8.246721,56.364564
776998,Skalstrupvej,7570,76,8.2451014,56.3652326
776999,Skalstrupvej,7570,77,8.2443808,56.3628245
777000,Skalstrupvej,7570,80,8.2428221,56.3726767
777001,Skalstrupvej,7570,83,8.2376814,56.3631861
777002,Skalstrupvej,7570,84,8.2367425,56.3676573
777003,Skalstrupvej,7570,86,8.233641,56.368553
777004,Skalstrupvej,7570,87,8.2328765,56.368157
777005,Skalstrupvej,7570,88,8.2346358,56.3689439
777006,Skalstrupvej,7570,90,8.2285987,56.3718236
777007,Skalstrupvej,7570,91,8.228186,56.3727597
777008,Skalstrupvej,7570,95,8.2254761,56.3761732
777009,Skalstrupvej,7570,96,8.2339318,56.3759542
777010,Skalstrupvej,7570,97,8.2292812,56.3778127
777011,Skalstrupvej,7570,98,8.2313355,56.3778729
777012,Skalstrupvej,7570,100,8.233466,56.3789665
777013,Skalstrupvej,7570,101,8.2197258,56.3792947
777014,Skalstrupvej,7570,102,8.241326,56.38582
777015,Skalstrupvej,7570,107,8.228807,56.383632
777016,Skalstrupvej,7570,108,8.2300233,56.383321
777017,Skalstrupvej,7570,109,8.224684,56.3839364
777018,Skalstrupvej,7570,111,8.222835,56.383747
777019,Skalstrupvej,7570,114,8.2286218,56.3901508
777020,Skalstrupvej,7570,120,8.2265336,56.3933782
777021,Skalstrupvej,7570,121,8.2250885,56.3946303
777181,Skovvangvej,7570,3,8.2147404,56.3943427
777182,Skovvangvej,7570,8,8.2144646,56.3944206
777183,Skovvangvej,7570,10,8.214495,56.394318
777184,Skovvangvej,7570,12,8.2138969,56.3939796
777185,Skovvangvej,7570,14,8.2073574,56.3882954
777186,Skovvangvej,7570,15,8.2120748,56.3862857
777187,Skovvangvej,7570,16A,8.2055824,56.3875375
777188,Skovvangvej,7570,16B,8.2021345,56.3878968
777189,Skovvangvej,7570,18,8.2092961,56.3819575
777190,Skovvangvej,7570,23,8.2101912,56.3773778
777191,Skovvangvej,7570,25,8.2129878,56.3769196
777192,Skovvangvej,7570,27,8.216556,56.377165
777367,Soltoften,7570,1,8.2151132,56.3953606
777368,Soltoften,7570,2,8.2157195,56.3953869
777369,Soltoften,7570,3,8.2149016,56.395496
777370,Soltoften,7570,5,8.2144675,56.3956349
777371,Soltoften,7570,7,8.2141318,56.3957606
777372,Soltoften,7570,9,8.213766,56.3958726
777373,Soltoften,7570,12,8.2153637,56.3956337
777374,Soltoften,7570,15,8.2144375,56.3960687
777384,Stadionvej,7570,1,8.2099914,56.3946994
777385,Stadionvej,7570,4,8.2109964,56.3952189
777386,Stadionvej,7570,6,8.2111734,56.3959668
778785,Ulfsundvej,7570,32,8.2279547,56.3961915
778786,Ulfsundvej,7570,33,8.2266866,56.3953111
778787,Ulfsundvej,7570,35,8.2258293,56.3951335
778788,Ulfsundvej,7570,36,8.2252959,56.3954643
778789,Ulfsundvej,7570,38,8.2249222,56.3954922
779557,Øster Dalgårdvej,7570,2,8.2769844,56.373121
902070,Ringkøbingvej,7570,42,8.423498,56.31497
918072,Vestergade,7570,1,8.343165,56.34358
918074,Vestergade,7570,2A,8.343233,56.343747
918075,Vestergade,7570,2B,8.343109,56.343726
918078,Vestergade,7570,3,8.34279,56.343517
918079,Vestergade,7570,4,8.342941,56.343697
918082,Vestergade,7570,5,8.342459,56.343455
918084,Vestergade,7570,6,8.342694,56.343653
918085,Vestergade,7570,7,8.342239,56.34341
918088,Vestergade,7570,9,8.342016,56.34337
918089,Vestergade,7570,10,8.34217,56.343556
918092,Vestergade,7570,11,8.341761,56.34332
918094,Vestergade,7570,12,8.341994,56.343524
918095,Vestergade,7570,13,8.341475,56.343269
918098,Vestergade,7570,14,8.34181,56.343486
918099,Vestergade,7570,15,8.341213,56.343219
918101,Vestergade,7570,16,8.341676,56.343464
918103,Vestergade,7570,17,8.340738,56.34308
918105,Vestergade,7570,18,8.341389,56.343412
918108,Vestergade,7570,20,8.341128,56.343365
918109,Vestergade,7570,22,8.340887,56.343321
918112,Vestergade,7570,23,8.339882,56.342946
918113,Vestergade,7570,24,8.340591,56.343429
918115,Vestergade,7570,25,8.339489,56.342854
918118,Vestergade,7570,27,8.339205,56.342803
918119,Vestergade,7570,28,8.340094,56.343175
918122,Vestergade,7570,29,8.338871,56.342747
918123,Vestergade,7570,30,8.339896,56.343139
918126,Vestergade,7570,31,8.338227,56.342515
918128,Vestergade,7570,32,8.339507,56.343127
918130,Vestergade,7570,33,8.33721,56.342433
918133,Vestergade,7570,34,8.339232,56.3431
918135,Vestergade,7570,35,8.335717,56.3421
918137,Vestergade,7570,36,8.339054,56.343028
918138,Vestergade,7570,37,8.334853,56.341941
918141,Vestergade,7570,38,8.338757,56.343089
918142,Vestergade,7570,40A,8.338397,56.342945
918144,Vestergade,7570,40B,8.338354,56.343017
918146,Vestergade,7570,42,8.337338,56.342976
918147,Vestergade,7570,44,8.336126,56.342483
918148,Vestergade,7570,46A,8.336114,56.342757
918149,Vestergade,7570,46B,8.336139,56.342707
918150,Vestergade,7570,46C,8.336163,56.342659
918151,Vestergade,7570,46D,8.336187,56.342612
918152,Vestergade,7570,48,8.334686,56.342324
918153,Nyvang,7570,1,8.336838,56.342969
918154,Nyvang,7570,2,8.336789,56.343067
918155,Nyvang,7570,3,8.336768,56.343171
918156,Nyvang,7570,4,8.33672,56.343269
918157,Nyvang,7570,5,8.3367,56.343373
918158,Nyvang,7570,6,8.336651,56.343472
918159,Nyvang,7570,7,8.336632,56.343574
918160,Nyvang,7570,8,8.336585,56.343673
918161,Nyvang,7570,9,8.336508,56.343767
918162,Nyvang,7570,10,8.336457,56.343867
918163,Nyvang,7570,11,8.336382,56.343961
918164,Nyvang,7570,12,8.336333,56.344065
918165,Nyvang,7570,13,8.336904,56.342777
918166,Nyvang,7570,14,8.336745,56.342746
918167,Nyvang,7570,15,8.336574,56.342714
918168,Nyvang,7570,16,8.336405,56.342682
918169,Nyvang,7570,17,8.336157,56.342859
918170,Nyvang,7570,18,8.336111,56.342957
918171,Nyvang,7570,19,8.336036,56.343052
918172,Nyvang,7570,20,8.335989,56.343151
918173,Nyvang,7570,21,8.335913,56.343246
918174,Nyvang,7570,22,8.335864,56.343345
918175,Nyvang,7570,23,8.335846,56.343448
918176,Nyvang,7570,24,8.335795,56.34355
918177,Nyvang,7570,25,8.335776,56.343649
918178,Nyvang,7570,26,8.335729,56.343748
918179,Vesteralle,7570,1,8.337988,56.342852
918180,Vesteralle,7570,3,8.337972,56.342887
918181,Vesteralle,7570,5,8.337957,56.342922
918182,Vesteralle,7570,6,8.337671,56.343832
918183,Vesteralle,7570,7,8.337941,56.342957
918184,Vesteralle,7570,9,8.337926,56.342992
918185,Vesteralle,7570,10,8.337189,56.343912
918186,Vesteralle,7570,11,8.337901,56.343047
918187,Vesteralle,7570,13,8.337884,56.343086
918188,Vesteralle,7570,15,8.337867,56.343124
918189,Vesteralle,7570,17,8.33785,56.343163
918190,Vesteralle,7570,19,8.337804,56.343266
918191,Vesteralle,7570,21,8.337789,56.343301
918192,Vesteralle,7570,23,8.337774,56.343336
918193,Vesteralle,7570,25,8.337759,56.343372
918194,Vesteralle,7570,27,8.337743,56.343407
918195,Vesteralle,7570,29,8.33772,56.343462
918196,Vesteralle,7570,31,8.337703,56.3435
918197,Vesteralle,7570,33,8.337686,56.343539
918198,Vesteralle,7570,35,8.33767,56.343577
918199,Vesteralle,7570,37,8.337653,56.343616
918200,Rønnebærvej,7570,1,8.335007,56.342376
918201,Rønnebærvej,7570,1A,8.334458,56.342521
918202,Rønnebærvej,7570,2,8.335401,56.342487
918203,Rønnebærvej,7570,3,8.334242,56.342474
918204,Rønnebærvej,7570,4,8.335571,56.342513
918205,Rønnebærvej,7570,5,8.334277,56.342372
918206,Rønnebærvej,7570,6,8.335788,56.34253
918207,Rønnebærvej,7570,7A,8.334372,56.342271
918208,Rønnebærvej,7570,7B,8.334328,56.342264
918209,Rønnebærvej,7570,8,8.335609,56.342618
918210,Rønnebærvej,7570,9,8.334181,56.342214
918211,Rønnebærvej,7570,10,8.335319,56.342917
918212,Rønnebærvej,7570,11,8.333989,56.342213
918213,Rønnebærvej,7570,12,8.33542,56.342821
918214,Rønnebærvej,7570,13,8.333797,56.342211
918215,Rønnebærvej,7570,14,8.335649,56.342838
918216,Rønnebærvej,7570,15,8.333596,56.342194
918217,Rønnebærvej,7570,16,8.335628,56.342948
918218,Rønnebærvej,7570,17,8.333922,56.342365
918219,Rønnebærvej,7570,18,8.334919,56.343228
918220,Rønnebærvej,7570,19,8.333356,56.342536
918221,Rønnebærvej,7570,20,8.334755,56.343329
918222,Rønnebærvej,7570,21,8.333461,56.342428
918223,Rønnebærvej,7570,22,8.334967,56.343478
918224,Rønnebærvej,7570,23,8.333566,56.342318
918225,Rønnebærvej,7570,24,8.33508,56.343132
918226,Rønnebærvej,7570,25,8.333702,56.342732
918227,Rønnebærvej,7570,26,8.335296,56.343122
918228,Rønnebærvej,7570,27,8.333533,56.342695
918229,Rønnebærvej,7570,28,8.335499,56.343136
918230,Rønnebærvej,7570,29,8.334127,56.342726
918231,Rønnebærvej,7570,30,8.335474,56.343253
918232,Rønnebærvej,7570,31,8.33405,56.342829
918233,Rønnebærvej,7570,32,8.335356,56.343361
918234,Rønnebærvej,7570,33,8.334,56.342947
918235,Rønnebærvej,7570,34,8.335325,56.343481
918236,Rønnebærvej,7570,35,8.334793,56.342872
918237,Rønnebærvej,7570,36,8.335297,56.343609
918238,Rønnebærvej,7570,37,8.334594,56.342829
918239,Rønnebærvej,7570,39,8.33442,56.342792
918240,Rønnebærvej,7570,41,8.334493,56.342936
918241,Rønnebærvej,7570,43,8.334268,56.343127
918242,Nørrealle,7570,1,8.34193,56.344749
918243,Nørrealle,7570,2,8.341898,56.34493
918244,Nørrealle,7570,3,8.341702,56.344691
918245,Nørrealle,7570,4,8.341599,56.344882
918246,Nørrealle,7570,5,8.34148,56.344673
918247,Nørrealle,7570,6,8.341404,56.344851
918248,Nørrealle,7570,7,8.341168,56.344587
918249,Nørrealle,7570,8,8.341213,56.344822
918250,Nørrealle,7570,9,8.340913,56.344582
918251,Nørrealle,7570,10,8.340952,56.344815
918252,Nørrealle,7570,11,8.340634,56.344539
918253,Nørrealle,7570,12,8.340544,56.344718
918254,Nørrealle,7570,13,8.340196,56.344474
918255,Nørrealle,7570,14,8.340178,56.344657
918256,Nørrealle,7570,15,8.339855,56.344419
918257,Nørrealle,7570,16,8.339985,56.344627
918258,Nørrealle,7570,17,8.339515,56.344366
918259,Nørrealle,7570,18,8.339569,56.344702
918260,Nørrealle,7570,20,8.339366,56.344575
1855268,Burvej,7570,2,8.345742,56.340435
1855277,Burvej,7570,3,8.345885,56.340949
1855280,Burvej,7570,4,8.356776,56.344453
1855281,Burvej,7570,5,8.346106,56.340988
1855282,Burvej,7570,6,8.368011,56.347428
1855283,Burvej,7570,7,8.346305,56.34103
1855284,Burvej,7570,8,8.370351,56.348866
1855285,Burvej,7570,9,8.347707,56.3414
1855286,Burvej,7570,10,8.37167,56.350162
1855287,Burvej,7570,11,8.349616,56.341989
1855289,Burvej,7570,12,8.3729111,56.3512863
1855292,Burvej,7570,13,8.350071,56.342162
1855296,Burvej,7570,14,8.3735415,56.3516528
1855299,Burvej,7570,14A,8.3744619,56.3523179
1855302,Burvej,7570,15,8.350347,56.342273
1855304,Burvej,7570,16,8.372737,56.350621
1855306,Burvej,7570,17,8.350738,56.342426
1855310,Burvej,7570,18,8.374786,56.35034
1855311,Burvej,7570,19,8.353933,56.343944
1855313,Burvej,7570,20,8.384599,56.353549
1855315,Burvej,7570,21,8.357022,56.347357
1855317,Burvej,7570,22,8.383677,56.357031
1855319,Burvej,7570,23,8.359523,56.349203
1855322,Burvej,7570,24,8.394383,56.359009
1855324,Burvej,7570,25,8.364537,56.349184
1855325,Burvej,7570,26,8.402712,56.359649
1855330,Burvej,7570,26A,8.402176,56.359549
1855331,Burvej,7570,27,8.361814,56.351136
1855338,Burvej,7570,28,8.402626,56.358449
1855342,Burvej,7570,29,8.363772,56.351594
1855345,Burvej,7570,30,8.404483,56.361208
1855348,Burvej,7570,31,8.364311,56.352236
1855350,Burvej,7570,32,8.405236,56.361416
1855352,Burvej,7570,32A,8.406659,56.354204
1855354,Burvej,7570,33,8.37007,56.352353
1855355,Burvej,7570,34,8.406573,56.361651
1855357,Burvej,7570,35,8.369616,56.353735
1855360,Burvej,7570,36,8.407141,56.361863
1855361,Burvej,7570,37,8.37336,56.353786
1855364,Burvej,7570,38,8.408567,56.36189
1855366,Burvej,7570,39,8.378051,56.356194
1855367,Burvej,7570,40,8.409223,56.362407
1855368,Burvej,7570,41,8.374173,56.357882
1855369,Burvej,7570,42,8.411991,56.36299
1855370,Burvej,7570,43,8.377554,56.358782
1855371,Burvej,7570,44,8.422524,56.365553
1855372,Burvej,7570,45,8.37983,56.36069
1855373,Burvej,7570,46,8.428155,56.365808
1855374,Burvej,7570,48,8.428482,56.365799
1855375,Burvej,7570,49,8.392894,56.360731
1855376,Burvej,7570,50,8.42938,56.365945
1855377,Burvej,7570,51,8.417226,56.365475
1855378,Burvej,7570,52,8.429927,56.365955
1855379,Burvej,7570,53,8.418339,56.365743
1855380,Burvej,7570,54,8.430271,56.365976
1855381,Burvej,7570,56,8.430961,56.365889
1855382,Burvej,7570,56A,8.433786,56.365951
1855383,Burvej,7570,57,8.423314,56.365864
1855384,Burvej,7570,58,8.46166,56.364771
1855385,Burvej,7570,59,8.427354,56.36614
1855386,Burvej,7570,61,8.42774,56.366137
1855387,Burvej,7570,63,8.428021,56.366146
1855389,Burvej,7570,65,8.429331,56.366229
1855391,Burvej,7570,67,8.429875,56.366217
1855392,Burvej,7570,69,8.430224,56.366236
1855396,Burvej,7570,71,8.430702,56.366261
1855398,Burvej,7570,73,8.4312,56.366337
1855400,Burvej,7570,75,8.431502,56.36639
1855402,Burvej,7570,77,8.431955,56.366484
1855404,Burvej,7570,79,8.434049,56.36656
1855406,Burvej,7570,81,8.434442,56.368107
1855408,Burvej,7570,83,8.446201,56.367396
1855410,Burvej,7570,85,8.448175,56.369443
1860223,Gedmosevej,7570,3,8.459532,56.377053
1860228,Gedmosevej,7570,5,8.44771,56.373905
1860231,Gedmosevej,7570,8,8.453994,56.375987
1860776,Engholmvej,7570,2,8.436051,56.384179
1861659,Egevej,7570,1,8.331856,56.343042
1861661,Egevej,7570,2,8.3334,56.343428
1861665,Egevej,7570,4,8.333296,56.343864
1861668,Egevej,7570,6,8.33508,56.344335
1861861,Christian Schmidts Vej,7570,3,8.341432,56.342767
1861862,Christian Schmidts Vej,7570,5,8.3414828,56.3426282
1861863,Christian Schmidts Vej,7570,9,8.341699,56.342293
1861864,Christian Schmidts Vej,7570,11,8.34181,56.342092
1861865,Christian Schmidts Vej,7570,14,8.341305,56.342167
1861866,Christian Schmidts Vej,7570,15,8.341888,56.341935
1861867,Christian Schmidts Vej,7570,16,8.3414944,56.3418808
1861868,Christian Schmidts Vej,7570,17,8.3419513,56.3418027
1861869,Christian Schmidts Vej,7570,18,8.341618,56.34156
1861870,Christian Schmidts Vej,7570,19,8.342036,56.341653
1861871,Christian Schmidts Vej,7570,20,8.341713,56.341299
1861872,Christian Schmidts Vej,7570,21,8.342124,56.34147
1861873,Christian Schmidts Vej,7570,22,8.341826,56.341043
1861874,Christian Schmidts Vej,7570,23A,8.34254,56.341526
1861875,Christian Schmidts Vej,7570,23B,8.342358,56.341132
1862265,Sdr Hedegårdsvej,7570,1,8.343566,56.344853
1862268,Sdr Hedegårdsvej,7570,2,8.346112,56.345084
1862270,Sdr Hedegårdsvej,7570,3,8.343727,56.344932
1862273,Sdr Hedegårdsvej,7570,4,8.351471,56.347534
1862276,Sdr Hedegårdsvej,7570,5,8.34396,56.34497
1862277,Sdr Hedegårdsvej,7570,6,8.349984,56.348717
1862279,Sdr Hedegårdsvej,7570,7,8.344207,56.344932
1862280,Sdr Hedegårdsvej,7570,7A,8.344554,56.345032
1862285,Sdr Hedegårdsvej,7570,9,8.346845,56.345734
1862289,Sdr Hedegårdsvej,7570,11,8.348495,56.346687
1862291,Sdr Hedegårdsvej,7570,13,8.349545,56.348392
1862726,Møborgåvej,7570,1,8.421913,56.367297
1862727,Møborgåvej,7570,1A,8.427771,56.36841
1862728,Møborgåvej,7570,2,8.416306,56.373375
1862729,Møborgåvej,7570,2A,8.412976,56.378872
1862730,Møborgåvej,7570,2B,8.411929,56.381406
1862731,Møborgåvej,7570,2D,8.409813,56.386459
1862732,Møborgåvej,7570,3,8.417877,56.366694
1862734,Møborgåvej,7570,4,8.408292,56.375415
1862735,Møborgåvej,7570,4A,8.406878,56.379709
1862737,Møborgåvej,7570,4C,8.40477,56.384774
1862738,Møborgåvej,7570,4D,8.403713,56.3873004
1862739,Møborgåvej,7570,5,8.412004,56.368432
1862740,Møborgåvej,7570,6,8.401902,56.375279
1862741,Møborgåvej,7570,7,8.412246,56.365783
1862742,Møborgåvej,7570,9,8.402585,56.37475
1864114,Lyngholmvej,7570,1,8.402919,56.363726
1864115,Lyngholmvej,7570,3,8.402435,56.364656
1864116,Lyngholmvej,7570,5,8.398561,56.374211
1864165,Hvolbyvej,7570,1,8.370921,56.323592
1864169,Hvolbyvej,7570,2,8.38638,56.320083
1864170,Hvolbyvej,7570,3,8.394166,56.322456
1864174,Hvolbyvej,7570,3A,8.399299,56.319282
1864177,Hvolbyvej,7570,4,8.39923,56.318109
1864684,Neesvej,7570,81,8.2064674,56.3937972
1864686,Neesvej,7570,109,8.18792,56.391414
1864688,Neesvej,7570,121,8.1761968,56.3961159
1865662,Stadionalle,7570,1,8.347646,56.343974
1865666,Stadionalle,7570,2,8.347995,56.343302
1865667,Stadionalle,7570,3,8.348054,56.343809
1865835,Enghavevej,7570,1,8.340988,56.339917
1865837,Enghavevej,7570,2,8.340361,56.340056
1865843,Enghavevej,7570,2A,8.340697,56.339751
1865848,Enghavevej,7570,3,8.341553,56.339742
1865850,Enghavevej,7570,4,8.340863,56.339158
1865857,Enghavevej,7570,5,8.341459,56.339387
1865860,Enghavevej,7570,6,8.340576,56.339025
1865865,Enghavevej,7570,7,8.341291,56.338973
1865870,Enghavevej,7570,8,8.339809,56.338841
1865872,Enghavevej,7570,9,8.340773,56.338781
1865876,Enghavevej,7570,10,8.339581,56.338703
1865879,Enghavevej,7570,11,8.340393,56.338653
1865885,Enghavevej,7570,12,8.338792,56.338748
1865892,Enghavevej,7570,13,8.340057,56.338477
1865895,Enghavevej,7570,14,8.338433,56.339023
1865898,Enghavevej,7570,15,8.339475,56.338385
1865900,Enghavevej,7570,17,8.338954,56.338367
1865905,Enghavevej,7570,19,8.337961,56.338944
1865987,Planteskolevej,7570,1,8.3394,56.342151
1865991,Planteskolevej,7570,2,8.338848,56.34158
1865994,Planteskolevej,7570,3,8.33953,56.341613
1865996,Planteskolevej,7570,4,8.337594,56.341277
1865999,Planteskolevej,7570,6,8.338585,56.341988
1866146,Nygade,7570,1,8.343777,56.34261
1866147,Nygade,7570,3,8.343303,56.342595
1866149,Nygade,7570,3C,8.343292,56.342372
1866150,Nygade,7570,4,8.343156,56.342749
1866151,Nygade,7570,5,8.342927,56.342535
1866153,Nygade,7570,6,8.342819,56.342703
1866154,Nygade,7570,6A,8.342697,56.342876
1866155,Nygade,7570,7,8.342691,56.342496
1866158,Nygade,7570,8,8.34251,56.342645
1866160,Nygade,7570,9,8.342461,56.342459
1866161,Nygade,7570,10,8.342297,56.342599
1866162,Nygade,7570,11,8.342227,56.342423
1866164,Nygade,7570,12,8.342123,56.342557
1866165,Nygade,7570,14,8.34193,56.342527
1866193,Æblehaven,7570,1,8.340743,56.340637
1866197,Æblehaven,7570,2,8.341282,56.34086
1866202,Æblehaven,7570,3,8.340538,56.340603
1866204,Æblehaven,7570,4,8.341148,56.34113
1866209,Æblehaven,7570,5,8.34016,56.340401
1866213,Æblehaven,7570,6,8.341146,56.341419
1866218,Æblehaven,7570,7,8.340022,56.340592
1866220,Æblehaven,7570,8,8.340832,56.341707
1866226,Æblehaven,7570,9,8.339924,56.340758
1866232,Æblehaven,7570,11,8.339822,56.340997
1866235,Æblehaven,7570,13,8.340245,56.341028
1866242,Æblehaven,7570,15,8.340559,56.341215
1866245,Æblehaven,7570,16,8.340235,56.341889
1866253,Æblehaven,7570,17,8.340247,56.341495
1866260,Æblehaven,7570,19,8.339777,56.34133
1866772,Bur Kirkevej,7570,1,8.444382,56.361715
1866774,Bur Kirkevej,7570,1A,8.445208,56.361882
1866776,Bur Kirkevej,7570,2,8.442109,56.361554
1867091,Rørsgårdsvej,7570,1,8.341826,56.34061
1867092,Rørsgårdsvej,7570,1A,8.342133,56.340524
1867093,Rørsgårdsvej,7570,3,8.34077,56.34022
1867094,Rørsgårdsvej,7570,5,8.340045,56.339959
1867095,Rørsgårdsvej,7570,7,8.339764,56.339857
1867096,Rørsgårdsvej,7570,9,8.339382,56.339767
1867097,Rørsgårdsvej,7570,11,8.339057,56.339661
1867099,Rørsgårdsvej,7570,13,8.338774,56.339569
1867101,Rørsgårdsvej,7570,15,8.338441,56.339461
1867102,Rørsgårdsvej,7570,17,8.338215,56.339359
1867103,Rørsgårdsvej,7570,19,8.337702,56.33915
1867104,Rørsgårdsvej,7570,21,8.33722,56.33899
1867105,Rørsgårdsvej,7570,23,8.336831,56.338851
1867106,Rørsgårdsvej,7570,25,8.335172,56.337694
1868470,Bigårdsvej,7570,1,8.339379,56.343492
1868471,Bigårdsvej,7570,2,8.339755,56.343445
1868473,Bigårdsvej,7570,3,8.33904,56.343902
1868475,Bigårdsvej,7570,4,8.339765,56.343593
1868478,Bigårdsvej,7570,5,8.33905,56.34427
1868480,Bigårdsvej,7570,6,8.339138,56.34489
1868481,Bigårdsvej,7570,6A,8.339075,56.3452
1868482,Bigårdsvej,7570,7,8.338977,56.344436
1868483,Bigårdsvej,7570,8,8.339437,56.345251
1868484,Bigårdsvej,7570,9,8.338466,56.344303
1868485,Bigårdsvej,7570,10,8.339117,56.345538
1868486,Bigårdsvej,7570,11,8.338071,56.344347
1868487,Bigårdsvej,7570,12,8.33876,56.345752
1868488,Bigårdsvej,7570,13,8.337646,56.344332
1868489,Bigårdsvej,7570,14,8.338863,56.346154
1868490,Bigårdsvej,7570,15,8.337071,56.344286
1868491,Bigårdsvej,7570,16,8.338297,56.346073
1868492,Bigårdsvej,7570,17,8.33712,56.344619
1868493,Bigårdsvej,7570,19,8.337533,56.344624
1868494,Bigårdsvej,7570,19A,8.337921,56.344643
1868495,Bigårdsvej,7570,21,8.338313,56.344719
1868496,Bigårdsvej,7570,23,8.338769,56.344696
1868497,Bigårdsvej,7570,25,8.338497,56.345023
1868498,Bigårdsvej,7570,27,8.337909,56.345047
1868499,Bigårdsvej,7570,29,8.337508,56.344985
1868500,Bigårdsvej,7570,31,8.336936,56.344938
1868501,Bigårdsvej,7570,33,8.336938,56.345213
1868502,Bigårdsvej,7570,35,8.337375,56.34529
1868503,Bigårdsvej,7570,37,8.337945,56.34531
1868504,Bigårdsvej,7570,39,8.338455,56.345381
1868505,Bigårdsvej,7570,41,8.338156,56.345721
1868506,Bigårdsvej,7570,43,8.33766,56.345652
1868507,Bigårdsvej,7570,45,8.337285,56.3456
1868508,Bigårdsvej,7570,47,8.336753,56.345513
1868509,Bigårdsvej,7570,49,8.33654,56.345783
1868510,Bigårdsvej,7570,51,8.337095,56.345861
1868511,Bigårdsvej,7570,53,8.337641,56.345937
1868512,Bigårdsvej,7570,55,8.337801,56.345959
1868758,Brunsborgvej,7570,2,8.396788,56.317411
1868989,Tangsgårdsvej,7570,1,8.429705,56.368487
1868990,Tangsgårdsvej,7570,2,8.429704,56.368151
1868992,Tangsgårdsvej,7570,3,8.430136,56.368458
1868993,Tangsgårdsvej,7570,4,8.430312,56.368201
1868995,Tangsgårdsvej,7570,6,8.431283,56.368331
1868997,Tangsgårdsvej,7570,8,8.432832,56.369026
1868998,Tangsgårdsvej,7570,10,8.439405,56.370562
1869111,Lindtorpvej,7570,12,8.450707,56.383504
1869114,Lindtorpvej,7570,13,8.450927,56.382579
1869116,Lindtorpvej,7570,15,8.442945,56.372817
1869119,Lindtorpvej,7570,16,8.439199,56.369072
1869121,Lindtorpvej,7570,17,8.440426,56.369023
1869122,Lindtorpvej,7570,18,8.439317,56.36864
1869125,Lindtorpvej,7570,19,8.440652,56.368562
1869732,Damhusvej,7570,41A,8.3314426,56.3721198
1869733,Damhusvej,7570,41B,8.3307541,56.3725054
1872325,Bygaden,7570,1,8.428876,56.366186
1872326,Bygaden,7570,2,8.429264,56.366342
1872327,Bygaden,7570,3,8.428762,56.36637
1872328,Bygaden,7570,4,8.429234,56.366474
1872329,Bygaden,7570,5,8.42859,56.366927
1872330,Bygaden,7570,6,8.429373,56.366701
1872331,Bygaden,7570,6A,8.429104,56.366631
1872332,Bygaden,7570,6B,8.429251,56.36669
1872333,Bygaden,7570,7,8.428614,56.367092
1872335,Bygaden,7570,8,8.429039,56.366801
1872336,Bygaden,7570,9,8.428226,56.367071
1872338,Bygaden,7570,10,8.429021,56.366859
1872339,Bygaden,7570,11,8.428068,56.367073
1872340,Bygaden,7570,12,8.428919,56.36713
1872341,Bygaden,7570,12A,8.42968,56.367177
1872342,Bygaden,7570,13,8.427725,56.367006
1872343,Bygaden,7570,14,8.428862,56.367326
1872344,Bygaden,7570,15,8.427368,56.367035
1872345,Bygaden,7570,16,8.428816,56.367474
1872346,Bygaden,7570,16A,8.429723,56.367879
1872347,Bygaden,7570,18,8.428596,56.368191
1872348,Bygaden,7570,19,8.428525,56.367425
1872349,Bygaden,7570,20,8.428823,56.368512
1872350,Bygaden,7570,21,8.428256,56.367425
1872351,Bygaden,7570,22,8.428604,56.369028
1872352,Bygaden,7570,23,8.42807,56.367415
1872353,Bygaden,7570,24,8.428469,56.369205
1872354,Bygaden,7570,25,8.427348,56.367438
1872355,Bygaden,7570,26,8.428445,56.369491
1872356,Bygaden,7570,27,8.428356,56.367895
1872357,Bygaden,7570,27A,8.427553,56.36807
1872358,Bygaden,7570,28,8.428442,56.369681
1872359,Bygaden,7570,29,8.426189,56.367947
1872360,Bygaden,7570,30,8.428244,56.369926
1872361,Bygaden,7570,31,8.428301,56.368146
1872362,Bygaden,7570,32,8.428093,56.370374
1872363,Bygaden,7570,33,8.428047,56.368661
1872364,Bygaden,7570,34,8.42869,56.370485
1872365,Bygaden,7570,35,8.428011,56.369045
1872366,Bygaden,7570,37,8.427677,56.369521
1872641,Hestbækvej,7570,1,8.424815,56.379979
1872642,Hestbækvej,7570,2,8.426865,56.376008
1872643,Hestbækvej,7570,3,8.424099,56.384126
1872644,Hestbækvej,7570,4,8.428855,56.385445
1872645,Hestbækvej,7570,5,8.422869,56.385411
1872646,Hestbækvej,7570,7,8.426705,56.387588
1872748,Humlevænget,7570,1,8.341025,56.347282
1872749,Humlevænget,7570,2,8.340787,56.347448
1872750,Humlevænget,7570,3,8.340818,56.347674
1872751,Humlevænget,7570,4,8.340693,56.347876
1872752,Humlevænget,7570,5,8.340755,56.348101
1872753,Humlevænget,7570,6,8.340406,56.348291
1872754,Humlevænget,7570,7A,8.340474,56.348519
1872755,Humlevænget,7570,7B,8.340616,56.348543
1872756,Humlevænget,7570,8A,8.340294,56.348724
1872757,Humlevænget,7570,8B,8.340265,56.348806
1872758,Humlevænget,7570,9,8.339883,56.348668
1872759,Humlevænget,7570,10,8.339846,56.348464
1872760,Humlevænget,7570,11,8.339295,56.34844
1872761,Humlevænget,7570,12,8.339067,56.348629
1872762,Humlevænget,7570,13,8.338696,56.348502
1872764,Humlevænget,7570,14,8.338765,56.34832
1872766,Humlevænget,7570,15,8.338174,56.34827
1872768,Humlevænget,7570,16,8.338122,56.348441
1872770,Humlevænget,7570,17,8.337643,56.34841
1872772,Humlevænget,7570,18,8.337669,56.348204
1872774,Humlevænget,7570,19,8.337633,56.347791
1872776,Humlevænget,7570,20,8.338,56.34788
1872777,Humlevænget,7570,21,8.338524,56.347951
1872779,Humlevænget,7570,22,8.339084,56.348029
1872782,Humlevænget,7570,23,8.339583,56.348055
1872783,Humlevænget,7570,24,8.33991,56.348141
1872785,Humlevænget,7570,25,8.340013,56.347781
1872786,Humlevænget,7570,26,8.339536,56.347745
1872789,Humlevænget,7570,27,8.339314,56.347657
1872791,Humlevænget,7570,28,8.338846,56.347536
1872792,Humlevænget,7570,29,8.338413,56.347471
1872795,Humlevænget,7570,30A,8.337869,56.347432
1872796,Humlevænget,7570,30B,8.338055,56.34709
1872797,Humlevænget,7570,30C,8.338493,56.347174
1872798,Humlevænget,7570,31,8.338977,56.347296
1872799,Humlevænget,7570,32,8.339426,56.347369
1872800,Humlevænget,7570,33,8.339828,56.347432
1872801,Humlevænget,7570,34,8.340241,56.3475
1872802,Humlevænget,7570,35,8.3405,56.347104
1872803,Humlevænget,7570,36,8.340085,56.347125
1872804,Humlevænget,7570,37,8.339536,56.347047
1872805,Humlevænget,7570,38,8.339159,56.346961
1872806,Humlevænget,7570,39,8.338545,56.346945
1872807,Humlevænget,7570,42,8.337694,56.347008
1872808,Humlevænget,7570,43,8.337914,56.346819
1872809,Humlevænget,7570,44,8.337349,56.346759
1872810,Humlevænget,7570,45,8.337123,56.346984
1872811,Humlevænget,7570,46,8.336861,56.346896
1872812,Humlevænget,7570,47,8.336772,56.346704
1872813,Humlevænget,7570,48,8.33612,56.34625
1872814,Humlevænget,7570,49,8.336553,56.34631
1872815,Humlevænget,7570,50,8.336962,56.346366
1872816,Humlevænget,7570,51,8.337456,56.346434
1872817,Humlevænget,7570,52,8.33786,56.346489
1872818,Humlevænget,7570,53,8.338298,56.346542
1872819,Humlevænget,7570,54,8.338758,56.346614
1872820,Humlevænget,7570,55,8.339446,56.346716
1872821,Humlevænget,7570,56,8.33942,56.346591
1872822,Humlevænget,7570,57,8.33945,56.346449
1872823,Humlevænget,7570,58,8.339543,56.346334
1872824,Humlevænget,7570,59,8.339569,56.346203
1872825,Humlevænget,7570,60,8.339653,56.346081
1872826,Humlevænget,7570,61,8.339676,56.345951
1872827,Humlevænget,7570,62,8.339757,56.345829
1872828,Humlevænget,7570,63,8.339783,56.345698
1872829,Humlevænget,7570,64,8.339864,56.345577
1872830,Humlevænget,7570,65,8.339919,56.34545
1872831,Humlevænget,7570,66,8.339989,56.345326
1872832,Humlevænget,7570,67,8.340069,56.345205
1872833,Humlevænget,7570,68,8.340139,56.345045
1872834,Humlevænget,7570,69,8.341208,56.347014
1873887,Hyldevej,7570,1,8.334015,56.345717
1873888,Hyldevej,7570,2,8.333971,56.345883
1873889,Hyldevej,7570,3,8.334153,56.346122
1873890,Hyldevej,7570,4,8.334538,56.346106
1873891,Hyldevej,7570,5,8.33531,56.345956
1873892,Hyldevej,7570,7,8.335532,56.345749
1873893,Hyldevej,7570,8,8.335072,56.345734
1873894,Hyldevej,7570,9,8.334625,56.345709
1873895,Hyldevej,7570,10A,8.335379,56.345082
1873896,Hyldevej,7570,10B,8.335434,56.345187
1873897,Hyldevej,7570,11A,8.335636,56.345071
1873898,Hyldevej,7570,11B,8.335608,56.34518
1873899,Hyldevej,7570,12A,8.335683,56.344749
1873900,Hyldevej,7570,12B,8.335862,56.344764
1873901,Hyldevej,7570,13A,8.335423,56.344759
1873902,Hyldevej,7570,13B,8.335252,56.344789
1873903,Hyldevej,7570,14A,8.334878,56.344805
1873904,Hyldevej,7570,14B,8.334685,56.34479
1873905,Hyldevej,7570,15A,8.334172,56.34478
1873906,Hyldevej,7570,15B,8.334147,56.344888
1873907,Hyldevej,7570,16,8.333746,56.344927
1873908,Hyldevej,7570,17,8.333748,56.34517
1873909,Hyldevej,7570,18,8.334235,56.345162
1873911,Hyldevej,7570,19,8.334871,56.345136
1874665,Vembvej,7570,14,8.34514,56.330435
1874674,Vembvej,7570,31,8.33848,56.326192
1874675,Vembvej,7570,33,8.332295,56.32581
1874676,Vembvej,7570,35,8.331315,56.326577
1874677,Vembvej,7570,43,8.330439,56.32798
1874678,Vembvej,7570,45,8.343328,56.330463
1874680,Vembvej,7570,47,8.343453,56.330865
1874785,Engbjergvej,7570,1,8.434285,56.372294
1874786,Engbjergvej,7570,2,8.438647,56.377729
1874787,Grønne Vej,7570,1,8.343979,56.341233
1874788,Grønne Vej,7570,3,8.343635,56.341125
1874789,Grønne Vej,7570,5,8.343306,56.340985
1874790,Grønne Vej,7570,6,8.343252,56.341293
1874791,Grønne Vej,7570,7,8.342904,56.34081
1875369,Knudsigvej,7570,1,8.389328,56.34742
1875370,Knudsigvej,7570,2,8.378778,56.341077
1875371,Knudsigvej,7570,3,8.388517,56.347598
1875372,Knudsigvej,7570,5,8.393496,56.348885
1875373,Knudsigvej,7570,7,8.394771,56.349208
1875374,Knudsigvej,7570,9,8.408722,56.347088
1875707,Stenumvej,7570,1,8.413915,56.339666
1875708,Stenumvej,7570,2,8.413668,56.333801
1875709,Stenumvej,7570,3,8.426331,56.346393
1875710,Stenumvej,7570,5,8.420549,56.349554
1875711,Stenumvej,7570,5A,8.427756,56.348165
1875845,Kjærsvej,7570,1,8.342848,56.344092
1875848,Kjærsvej,7570,3,8.341675,56.343944
1875849,Kjærsvej,7570,4,8.34247,56.344208
1875851,Kjærsvej,7570,5,8.341152,56.343813
1875852,Kjærsvej,7570,7A,8.340628,56.343754
1875855,Kjærsvej,7570,9,8.340408,56.343723
1875857,Kjærsvej,7570,10,8.341912,56.344121
1875858,Kjærsvej,7570,11,8.340136,56.343681
1875861,Kjærsvej,7570,12,8.341684,56.344089
1875862,Kjærsvej,7570,14,8.341387,56.344126
1875864,Kjærsvej,7570,16,8.341115,56.344025
1875866,Kjærsvej,7570,18,8.340795,56.343967
1875867,Kjærsvej,7570,20,8.340576,56.343931
1875868,Kjærsvej,7570,22,8.340299,56.343986
1875869,Kjærsvej,7570,24,8.340073,56.343899
1875870,Kjærsvej,7570,26,8.339853,56.343879
1875871,Kjærsvej,7570,28,8.339643,56.343818
1875892,Rosenvænget,7570,1,8.340674,56.339378
1875895,Rosenvænget,7570,3,8.340373,56.339249
1875896,Rosenvænget,7570,4,8.340431,56.339589
1875899,Rosenvænget,7570,5,8.339859,56.339076
1875901,Rosenvænget,7570,6,8.340148,56.339464
1875905,Rosenvænget,7570,7,8.339278,56.338882
1875906,Rosenvænget,7570,8,8.339868,56.339363
1875907,Rosenvænget,7570,10,8.339542,56.339281
1875908,Rosenvænget,7570,12,8.339221,56.339195
1875909,Rosenvænget,7570,14,8.338894,56.339093
1875919,Nørgårdsvej,7570,1,8.341392,56.350667
1875920,Nørgårdsvej,7570,1A,8.342313,56.350279
1875921,Nørgårdsvej,7570,1B,8.342835,56.350609
1875922,Nørgårdsvej,7570,1D,8.348418,56.35328
1875923,Nørgårdsvej,7570,2,8.340989,56.349587
1875924,Nørgårdsvej,7570,3,8.358836,56.36297
1875925,Nørgårdsvej,7570,4,8.341433,56.349926
1875926,Nørgårdsvej,7570,5,8.35978,56.363693
1875927,Nørgårdsvej,7570,7,8.375907,56.3701
1875928,Nørgårdsvej,7570,8,8.346793,56.350101
1875929,Nørgårdsvej,7570,10,8.349297,56.352534
1875930,Nørgårdsvej,7570,12,8.352714,56.354937
1875931,Nørgårdsvej,7570,14,8.357052,56.352129
1875932,Nørgårdsvej,7570,16,8.357752,56.355659
1875933,Nørgårdsvej,7570,18,8.359956,56.356239
1875934,Nørgårdsvej,7570,20,8.361872,56.35717
1875935,Nørgårdsvej,7570,22,8.364828,56.364138
1875936,Nørgårdsvej,7570,24,8.376821,56.368655
1876195,Gørdingvej,7570,1,8.329391,56.340828
1876196,Gørdingvej,7570,1A,8.32976,56.340562
1876198,Gørdingvej,7570,2,8.330765,56.341572
1876199,Gørdingvej,7570,3,8.328064,56.340618
1876202,Gørdingvej,7570,4,8.328757,56.342278
1876203,Gørdingvej,7570,5,8.328221,56.33643
1876207,Gørdingvej,7570,7,8.324559,56.337375
1876208,Gørdingvej,7570,9,8.325352,56.336064
1876209,Gørdingvej,7570,11,8.321937,56.336608
1876210,Gørdingvej,7570,13,8.315241,56.338535
1876211,Gørdingvej,7570,15,8.314991,56.33787
1880057,Alleen,7570,1,8.346522,56.341866
1880058,Alleen,7570,2,8.346289,56.341619
1880059,Alleen,7570,3,8.346595,56.341726
1880062,Alleen,7570,4,8.346308,56.341497
1880063,Alleen,7570,5,8.346653,56.341606
1880065,Alleen,7570,7,8.3467263,56.34146
1880066,Alleen,7570,8,8.346556,56.341094
1880068,Alleen,7570,9,8.346939,56.341181
1880150,Bundgårdvej,7570,2,8.299739,56.345368
1880151,Bundgårdvej,7570,4,8.298984,56.345138
1880152,Bundgårdvej,7570,6,8.297544,56.343808
1880153,Bundgårdvej,7570,8,8.29665,56.345819
1880281,Stensigvej,7570,1,8.337977,56.348963
1880282,Stensigvej,7570,2,8.332867,56.351797
1880283,Stensigvej,7570,3,8.325003,56.345698
1880285,Stensigvej,7570,4,8.333211,56.348538
1880286,Stensigvej,7570,5,8.321189,56.346412
1880288,Stensigvej,7570,6,8.331445,56.348341
1880290,Stensigvej,7570,7,8.318046,56.345217
1880291,Stensigvej,7570,8,8.329485,56.347997
1880292,Stensigvej,7570,9,8.320653,56.341739
1880293,Stensigvej,7570,10,8.329213,56.347925
1880294,Stensigvej,7570,12,8.326583,56.348222
1880295,Stensigvej,7570,14,8.321211,56.347866
1880296,Stensigvej,7570,16,8.313978,56.347452
1880297,Stensigvej,7570,18,8.318841,56.342062
1880774,Søndergade,7570,2,8.343983,56.34235
1880775,Søndergade,7570,2A,8.34402,56.34228
1880776,Søndergade,7570,3,8.344364,56.342277
1880777,Søndergade,7570,4,8.344071,56.34218
1880778,Søndergade,7570,5,8.344425,56.34217
1880779,Søndergade,7570,7,8.344476,56.342081
1880780,Søndergade,7570,10,8.344199,56.341897
1880781,Søndergade,7570,11,8.344643,56.341776
1880782,Søndergade,7570,12,8.344281,56.341768
1880783,Søndergade,7570,14,8.344351,56.341649
1880784,Søndergade,7570,15,8.344731,56.341565
1880785,Søndergade,7570,15A,8.345178,56.341652
1880786,Søndergade,7570,16,8.344404,56.341535
1880787,Søndergade,7570,17,8.344806,56.341424
1880788,Søndergade,7570,19,8.344884,56.341284
1880789,Søndergade,7570,20,8.34447,56.341318
1880790,Søndergade,7570,21,8.344947,56.341163
1880791,Søndergade,7570,22,8.344591,56.341118
1880792,Søndergade,7570,23,8.34502,56.34101
1880793,Søndergade,7570,24,8.344617,56.340974
1880794,Søndergade,7570,25,8.348054,56.339287
1880795,Søndergade,7570,30,8.344876,56.340366
1880796,Søndergade,7570,32,8.345001,56.340264
1880797,Søndergade,7570,34,8.34508,56.340064
1880799,Søndergade,7570,36,8.345194,56.339802
1880801,Søndergade,7570,38,8.345142,56.339043
1880939,Skolegade,7570,2,8.345506,56.341714
1880940,Skolegade,7570,4,8.345775,56.341688
1880941,Skolegade,7570,5,8.345568,56.341909
1880942,Skolegade,7570,7,8.345763,56.341986
1880943,Skolegade,7570,8,8.346182,56.341826
1880944,Skolegade,7570,9,8.346027,56.341987
1880945,Skolegade,7570,10,8.347246,56.342011
1880946,Skolegade,7570,11,8.346257,56.342027
1880947,Skolegade,7570,12,8.348626,56.342227
1880948,Skolegade,7570,14,8.349805,56.342413
1880949,Skolegade,7570,15,8.346483,56.342061
1880950,Skolegade,7570,16,8.350145,56.342473
1880951,Skolegade,7570,17,8.346767,56.342112
1880952,Skolegade,7570,19,8.346952,56.34232
1880953,Skolegade,7570,21,8.347285,56.34219
1880954,Skolegade,7570,23,8.347551,56.342303
1880955,Skolegade,7570,25,8.347759,56.342461
1880956,Skolegade,7570,27,8.348047,56.342324
1880958,Skolegade,7570,29,8.348249,56.342357
1880959,Skolegade,7570,29A,8.348393,56.342671
1880960,Skolegade,7570,31,8.348572,56.342435
1880961,Skolegade,7570,33,8.348902,56.342536
1880962,Skolegade,7570,35,8.349168,56.342593
1880963,Skolegade,7570,37,8.349401,56.3426
1880964,Skolegade,7570,39,8.349634,56.342659
1880965,Skolegade,7570,41,8.349897,56.342691
1880966,Skolegade,7570,43,8.350125,56.342729
1880967,Skolegade,7570,45,8.350435,56.342779
1880968,Skolegade,7570,47,8.350749,56.342784
1880969,Skolegade,7570,49,8.351038,56.342775
1881506,Vestervangen,7570,1A,8.338283,56.338563
1881507,Vestervangen,7570,1B,8.338132,56.338514
1881508,Vestervangen,7570,3,8.33789,56.338413
1881509,Vestervangen,7570,4,8.337589,56.338632
1881510,Vestervangen,7570,5,8.337551,56.338223
1881577,Skadkjærvej,7570,1,8.434607,56.378059
1881578,Skadkjærvej,7570,2,8.435359,56.377462
1881579,Skadkjærvej,7570,3,8.44289,56.377794
1881586,Lillelundvej,7570,7,8.357798,56.326182
1881587,Lillelundvej,7570,8,8.363333,56.321141
1881588,Lillelundvej,7570,10,8.363145,56.321465
1881589,Lillelundvej,7570,12,8.360382,56.326512
1881772,Skalstrupvej,7570,1,8.306825,56.339403
1881773,Skalstrupvej,7570,2,8.305551,56.343856
1881774,Skalstrupvej,7570,3,8.304606,56.344261
1881775,Skalstrupvej,7570,4,8.307657,56.346104
1881776,Skalstrupvej,7570,5,8.299236,56.348609
1881777,Skalstrupvej,7570,6,8.304764,56.34835
1881778,Skalstrupvej,7570,7,8.29662,56.349748
1881779,Skalstrupvej,7570,8,8.312057,56.35197
1881780,Skalstrupvej,7570,10A,8.312629,56.354648
1881781,Skalstrupvej,7570,10B,8.312996,56.353935
1881782,Skalstrupvej,7570,11,8.287173,56.350885
1881783,Skalstrupvej,7570,12,8.296479,56.355352
1881784,Skalstrupvej,7570,13,8.283976,56.34853
1881785,Skalstrupvej,7570,14,8.297487,56.358785
1881786,Skalstrupvej,7570,16,8.294945,56.352429
1881787,Skalstrupvej,7570,18,8.290023,56.35397
1881788,Skalstrupvej,7570,20,8.284398,56.351835
1881789,Skalstrupvej,7570,74A,8.2463992,56.3650831
1881790,Skalstrupvej,7570,74B,8.2464096,56.365254
1881920,Ørvigvej,7570,1,8.299487,56.33633
1881921,Ørvigvej,7570,3,8.300376,56.331576
1881922,Ørvigvej,7570,4,8.296684,56.330595
1881923,Ørvigvej,7570,5,8.298804,56.331166
1881924,Ørvigvej,7570,6,8.290429,56.326843
1882167,Færgevej,7570,15,8.171002,56.406204
1882209,Dinesensvej,7570,1,8.344455,56.340297
1882210,Dinesensvej,7570,2,8.343733,56.340446
1882211,Dinesensvej,7570,3,8.344466,56.339992
1882212,Dinesensvej,7570,4,8.343344,56.340392
1882213,Dinesensvej,7570,5,8.343822,56.340219
1882214,Dinesensvej,7570,6,8.342836,56.340295
1882215,Dinesensvej,7570,7,8.343474,56.340132
1882216,Dinesensvej,7570,9,8.343165,56.340043
1882217,Dinesensvej,7570,11,8.342762,56.339984
1882218,Dinesensvej,7570,13,8.342447,56.339795
1882257,Søndergårdsvej,7570,1,8.287146,56.332962
1882258,Søndergårdsvej,7570,3,8.289408,56.33143
1882322,Skalstrupvej,7570,45,8.2610152,56.3595941
1882354,Sønderbyvej,7570,1,8.301763,56.336707
1882355,Sønderbyvej,7570,3,8.303898,56.333664
1882356,Sønderbyvej,7570,5,8.302965,56.332099
1882373,Nøragervej,7570,26,8.2046004,56.4016613
1882374,Nøragervej,7570,45,8.183029,56.398407
1882551,Knudehus,7570,7,8.4055488,56.3308086
1882552,Knudehus,7570,8,8.4041114,56.3332581
1882553,Knudehus,7570,9,8.4054509,56.3304669
1882554,Knudehus,7570,11,8.4053381,56.3301473
1882555,Knudehus,7570,12,8.403704,56.333852
1882556,Knudehus,7570,13,8.405226,56.3297785
1882557,Knudehus,7570,14,8.4044626,56.3342473
1882558,Knudehus,7570,15,8.4052311,56.3294512
1882559,Knudehus,7570,16,8.40505,56.333926
1882560,Knudehus,7570,17,8.4064087,56.3323372
1882561,Knudehus,7570,18,8.405664,56.333684
1882562,Knudehus,7570,19,8.4054943,56.3324228
1882563,Knudehus,7570,20,8.406711,56.333482
1882564,Knudehus,7570,22,8.4076868,56.3331039
1882565,Knudehus,7570,33,8.400381,56.332977
1882566,Knudehus,7570,37,8.401414,56.333379
1882567,Knudehus,7570,39,8.401809,56.3337075
1882568,Knudehus,7570,41,8.40234,56.333908
1882569,Knudehus,7570,43,8.402943,56.334181
1882570,Knudehus,7570,45,8.403398,56.334449
1882571,Knudehus,7570,59,8.4062591,56.3344618
1882572,Knudehus,7570,61,8.4067728,56.334273
1882573,Knudehus,7570,63,8.407379,56.334091
1882574,Knudehus,7570,65,8.407957,56.333847
1882575,Knudehus,7570,67,8.4085246,56.3335321
1882598,Råsted Kirkevej,7570,5,8.366788,56.338755
1882599,Råsted Kirkevej,7570,7,8.380405,56.337934
1882600,Råsted Kirkevej,7570,8,8.379005,56.335741
1882601,Råsted Kirkevej,7570,10,8.376732,56.335174
1882608,Stationsvej,7570,1,8.344105,56.343647
1882609,Stationsvej,7570,2,8.34392,56.343419
1882610,Stationsvej,7570,3,8.344591,56.343868
1882611,Stationsvej,7570,4,8.344216,56.343462
1882612,Stationsvej,7570,5,8.344812,56.343924
1882613,Stationsvej,7570,5A,8.344889,56.344005
1882614,Stationsvej,7570,6,8.345017,56.343716
1882615,Stationsvej,7570,6A,8.345377,56.343846
1882616,Stationsvej,7570,7,8.345108,56.34413
1882617,Stationsvej,7570,7A,8.345181,56.344194
1882618,Stationsvej,7570,9,8.345518,56.344559
1882656,Kløvervænget,7570,1,8.338383,56.339863
1882657,Kløvervænget,7570,2,8.33912,56.340096
1882658,Kløvervænget,7570,4,8.339438,56.340224
1882659,Kløvervænget,7570,5,8.337888,56.340106
1882660,Kløvervænget,7570,6,8.339304,56.340424
1882661,Kløvervænget,7570,7,8.338202,56.340142
1882662,Kløvervænget,7570,8,8.339,56.340423
1882663,Kløvervænget,7570,9,8.338097,56.340586
1882664,Kløvervænget,7570,10,8.338806,56.340786
1882665,Kløvervænget,7570,11,8.337576,56.340554
1882666,Kløvervænget,7570,12,8.339052,56.340892
1882667,Kløvervænget,7570,13,8.337553,56.340795
1882668,Kløvervænget,7570,14,8.338965,56.341022
1882799,Blomstervænget,7570,1,8.341373,56.34041
1882800,Blomstervænget,7570,2,8.34112,56.34033
1882801,Blomstervænget,7570,3,8.34151,56.340291
1882802,Blomstervænget,7570,4,8.341253,56.340203
1882803,Blomstervænget,7570,5,8.341656,56.340164
1882804,Blomstervænget,7570,6,8.341406,56.340068
1882805,Blomstervænget,7570,7,8.341814,56.340041
1882806,Blomstervænget,7570,8,8.341533,56.339939
1883396,Pøtparken,7570,1,8.428572,56.371748
1883397,Pøtparken,7570,2A,8.427941,56.371476
1883398,Pøtparken,7570,2B,8.427983,56.371336
1883399,Pøtparken,7570,3,8.429122,56.371681
1883400,Pøtparken,7570,4A,8.428031,56.371158
1883401,Pøtparken,7570,4B,8.428097,56.371003
1883402,Pøtparken,7570,5,8.429451,56.371695
1883403,Pøtparken,7570,6A,8.428168,56.370815
1883404,Pøtparken,7570,6B,8.428231,56.370674
1883405,Pøtparken,7570,7,8.42967,56.371915
1883406,Pøtparken,7570,9,8.42933,56.372077
1883407,Pøtparken,7570,10,8.42864,56.370903
1883408,Pøtparken,7570,11,8.42903,56.372076
1883409,Pøtparken,7570,12,8.429,56.370901
1883410,Pøtparken,7570,13,8.428522,56.371939
1883411,Pøtparken,7570,15A,8.427881,56.371799
1883412,Pøtparken,7570,15B,8.427845,56.371979
1883413,Pøtparken,7570,16,8.429312,56.371259
1883414,Pøtparken,7570,17A,8.427833,56.372148
1883415,Pøtparken,7570,17B,8.427755,56.372325
1883416,Pøtparken,7570,18,8.42888,56.371405
1883417,Pøtparken,7570,19,8.427788,56.372466
1883418,Pøtparken,7570,20,8.42967,56.371274
1883419,Pøtparken,7570,21,8.427651,56.372803
1883420,Pøtparken,7570,22,8.429635,56.370859
1883421,Pøtparken,7570,23,8.428043,56.372777
1883422,Pøtparken,7570,24,8.430166,56.370933
1883423,Pøtparken,7570,25,8.428404,56.372794
1883424,Pøtparken,7570,27,8.428798,56.372847
1883425,Pøtparken,7570,29,8.428903,56.372487
1883426,Pøtparken,7570,31,8.428464,56.372296
1883427,Pøtparken,7570,33,8.429236,56.372505
1883428,Pøtparken,7570,35,8.429163,56.372865
1883429,Pøtparken,7570,37,8.429558,56.372845
1883560,Nørtoftvej,7570,21,8.2830873,56.3816893
1883621,Koldsøvej,7570,10,8.2439818,56.389447
1883736,Nørregade,7570,2,8.343976,56.343037
1883737,Nørregade,7570,2A,8.34394,56.343102
1883738,Nørregade,7570,3,8.343711,56.342878
1883739,Nørregade,7570,5,8.343619,56.34306
1883740,Nørregade,7570,6,8.343791,56.343337
1883741,Nørregade,7570,7,8.34356,56.343178
1883742,Nørregade,7570,8,8.343664,56.343672
1883743,Nørregade,7570,9,8.343504,56.343279
1883744,Nørregade,7570,10,8.343473,56.343958
1883745,Nørregade,7570,11,8.343444,56.343416
1883746,Nørregade,7570,12,8.343413,56.344118
1883747,Nørregade,7570,14,8.343361,56.344221
1883748,Nørregade,7570,15,8.343365,56.343564
1883749,Nørregade,7570,16,8.34329,56.344369
1883750,Nørregade,7570,17A,8.343247,56.343817
1883751,Nørregade,7570,17B,8.343266,56.343781
1883752,Nørregade,7570,19,8.343223,56.343866
1883753,Nørregade,7570,20,8.343105,56.344743
1883754,Nørregade,7570,21,8.343177,56.343958
1883755,Nørregade,7570,22,8.343048,56.344862
1883756,Nørregade,7570,24,8.343001,56.344954
1883757,Nørregade,7570,25,8.343011,56.344297
1883758,Nørregade,7570,26,8.34289,56.345166
1883759,Nørregade,7570,27,8.342718,56.344364
1883760,Nørregade,7570,29,8.342604,56.344521
1883761,Nørregade,7570,30,8.342763,56.345419
1883762,Nørregade,7570,31,8.342771,56.344728
1883763,Nørregade,7570,32,8.342696,56.345538
1883764,Nørregade,7570,33,8.34272,56.344827
1883765,Nørregade,7570,34,8.342644,56.345635
1883766,Nørregade,7570,34A,8.342603,56.345787
1883767,Nørregade,7570,36,8.343054,56.345996
1883768,Nørregade,7570,37A,8.342517,56.345
1883769,Nørregade,7570,37B,8.342469,56.345097
1883770,Nørregade,7570,37C,8.342563,56.345131
1883771,Nørregade,7570,37D,8.342575,56.345105
1883772,Nørregade,7570,37E,8.342362,56.345053
1883773,Nørregade,7570,37F,8.342273,56.345041
1883774,Nørregade,7570,38,8.342516,56.345989
1883775,Nørregade,7570,38A,8.343047,56.346149
1883776,Nørregade,7570,39,8.342526,56.345231
1883777,Nørregade,7570,40,8.34244,56.346267
1883778,Nørregade,7570,40A,8.342719,56.346238
1883779,Nørregade,7570,41,8.342446,56.345373
1883780,Nørregade,7570,42,8.342318,56.346413
1883781,Nørregade,7570,44,8.342211,56.346552
1883782,Nørregade,7570,47,8.342299,56.345664
1883783,Nørregade,7570,49,8.342223,56.345817
1883784,Nørregade,7570,51,8.342095,56.345977
1883785,Nørregade,7570,55,8.341957,56.346252
1883786,Nørregade,7570,57,8.341651,56.346395
1884222,Øgelstrupvej,7570,2,8.372868,56.32873
1884223,Øgelstrupvej,7570,4,8.378932,56.330576
1884224,Øgelstrupvej,7570,6,8.38293,56.3304
1884427,Fælledvej,7570,1,8.272572,56.339196
1884428,Fælledvej,7570,2,8.276535,56.340413
1884429,Fælledvej,7570,3,8.269007,56.342432
1884430,Fælledvej,7570,4,8.277749,56.341145
1884431,Fælledvej,7570,5,8.266132,56.343518
1884432,Fælledvej,7570,6,8.271275,56.343501
1884512,Hasselvej,7570,1,8.334153,56.347486
1884513,Hasselvej,7570,2,8.333992,56.347828
1884514,Hasselvej,7570,4,8.333975,56.348044
1884515,Hasselvej,7570,5,8.334717,56.348163
1884516,Hasselvej,7570,6,8.334868,56.347974
1884517,Hasselvej,7570,8,8.334788,56.347592
1884518,Hasselvej,7570,9,8.335632,56.347112
1884519,Hasselvej,7570,10,8.336198,56.347145
1884520,Hasselvej,7570,11,8.335821,56.34682
1884521,Hasselvej,7570,12,8.335398,56.346533
1884522,Hasselvej,7570,13,8.334607,56.346672
1884523,Hasselvej,7570,14,8.33447,56.346992
1884524,Hasselvej,7570,15,8.335098,56.347085
1884525,Hasselvej,7570,16,8.335759,56.347774
1884526,Hasselvej,7570,17,8.335644,56.348047
1884527,Hasselvej,7570,20,8.336341,56.348321
1884528,Hasselvej,7570,21,8.336593,56.348227
1884529,Hasselvej,7570,22,8.336658,56.34791
1884530,Hasselvej,7570,23,8.336309,56.347856
1884766,Industrivej,7570,1,8.34222,56.3476
1884767,Industrivej,7570,1A,8.342101,56.348003
1884768,Industrivej,7570,2,8.342756,56.347065
1884769,Industrivej,7570,3,8.34362,56.347645
1884770,Industrivej,7570,10,8.343497,56.345752
1884771,Industrivej,7570,12,8.34353,56.345688
1884772,Industrivej,7570,14,8.343563,56.345622
1884773,Industrivej,7570,16,8.343663,56.345423
1884774,Industrivej,7570,18,8.343689,56.34537
1884775,Industrivej,7570,20,8.343727,56.345291
1884776,Industrivej,7570,27,8.343723,56.349732
1884777,Industrivej,7570,28,8.343865,56.346164
1884778,Industrivej,7570,29,8.343191,56.349871
1884779,Industrivej,7570,30A,8.343677,56.346778
1884780,Industrivej,7570,30B,8.34369,56.346502
1884788,Kikkenborgvej,7570,33,8.2857847,56.3659005
1884794,Fjordvejen,7570,1A,8.304399,56.338464
1884795,Fjordvejen,7570,2,8.306794,56.339025
1884796,Fjordvejen,7570,3,8.304075,56.338696
1884797,Fjordvejen,7570,3A,8.303237,56.338597
1884798,Fjordvejen,7570,4,8.306524,56.339001
1884799,Fjordvejen,7570,5,8.302592,56.337484
1884800,Fjordvejen,7570,5A,8.29469,56.336271
1884801,Fjordvejen,7570,6,8.306286,56.338977
1884802,Fjordvejen,7570,7,8.290427,56.33663
1884803,Fjordvejen,7570,8,8.303807,56.338955
1884804,Fjordvejen,7570,9,8.268544,56.33344
1884805,Fjordvejen,7570,10,8.303171,56.339084
1884806,Fjordvejen,7570,12,8.302818,56.338989
1884807,Fjordvejen,7570,12A,8.297653,56.337748
1884808,Fjordvejen,7570,14,8.290222,56.338788
1884809,Fjordvejen,7570,15,8.276931,56.330567
1884810,Fjordvejen,7570,16,8.280742,56.337916
1884811,Fjordvejen,7570,17,8.265244,56.334274
1884812,Fjordvejen,7570,18,8.270439,56.336853
1884813,Fjordvejen,7570,19,8.26409,56.334663
1884814,Fjordvejen,7570,20,8.271039,56.339486
1884815,Fjordvejen,7570,21,8.263679,56.334788
1884816,Fjordvejen,7570,22,8.270728,56.341504
1884817,Fjordvejen,7570,24,8.270536,56.334691
1884818,Fjordvejen,7570,24A,8.265875,56.334067
1884819,Fjordvejen,7570,25A,8.25498,56.338551
1884820,Fjordvejen,7570,26,8.265208,56.334504
1884821,Fjordvejen,7570,27,8.255457,56.343921
1884822,Fjordvejen,7570,28,8.26209,56.335446
1884823,Fjordvejen,7570,38,8.256914,56.341306
1970881,Skolevej,7570,1,8.42857,56.366615
1970882,Skolevej,7570,2,8.428086,56.366859
1970883,Skolevej,7570,3,8.428063,56.36656
1970884,Skolevej,7570,4A,8.427253,56.36664
1970885,Skolevej,7570,4B,8.427272,56.366751
1970886,Skolevej,7570,4C,8.427247,56.366824
1970887,Skolevej,7570,5,8.426901,56.366324
1970888,Skolevej,7570,6A,8.426965,56.366751
1970889,Skolevej,7570,6B,8.426844,56.366745
1970890,Skolevej,7570,6C,8.426719,56.366739
1970891,Skolevej,7570,7,8.426567,56.366189
1970892,Skolevej,7570,8,8.426776,56.367016
1970894,Skolevej,7570,9,8.426298,56.36631
1970896,Skolevej,7570,10,8.426245,56.366946
1970898,Skolevej,7570,11,8.426041,56.366294
1970899,Skolevej,7570,12,8.426296,56.366615
1970902,Skolevej,7570,13,8.425716,56.366278
1970904,Skolevej,7570,14,8.425784,56.366575
1970905,Skolevej,7570,15,8.42535,56.366241
1970907,Skolevej,7570,16,8.425512,56.366781
1970909,Skolevej,7570,17,8.424987,56.366232
1970911,Skolevej,7570,18,8.425114,56.366765
1970913,Skolevej,7570,19,8.424618,56.366206
1970915,Skolevej,7570,20,8.425128,56.366617
1970917,Skolevej,7570,21,8.424297,56.366221
1970918,Skolevej,7570,22,8.424588,56.366497
1970921,Skolevej,7570,23,8.423919,56.366202
1970922,Skolevej,7570,24,8.424188,56.366465
1970926,Skolevej,7570,25,8.423639,56.366134
1970929,Skolevej,7570,26,8.423765,56.366513
1970934,Skolevej,7570,27,8.42289,56.365889
1970939,Skolevej,7570,28,8.423293,56.366443
1970942,Skolevej,7570,29,8.422601,56.366122
1970948,Skolevej,7570,30,8.422901,56.366432
1970954,Skolevej,7570,31,8.42208,56.366094
1970959,Skolevej,7570,31A,8.422275,56.365981
1970963,Skolevej,7570,31B,8.422283,56.365919
1970965,Skolevej,7570,31C,8.42229,56.365856
1970967,Skolevej,7570,32,8.422623,56.366404
1970969,Skolevej,7570,33,8.421858,56.366007
1970971,Skolevej,7570,34,8.422269,56.366368
1970974,Skolevej,7570,35,8.421561,56.365964
1970976,Skolevej,7570,36,8.421934,56.366336
1970977,Skolevej,7570,37,8.421209,56.36599
1970980,Skolevej,7570,38,8.421612,56.366298
1970982,Skolevej,7570,40,8.421147,56.36641
2069897,Nørre Viumvej,7570,2,8.378951,56.316913
2077020,Damhusvej,7570,2,8.34155,56.348188
2077021,Damhusvej,7570,3,8.339489,56.35041
2077022,Damhusvej,7570,4,8.341091,56.348718
2077023,Damhusvej,7570,5,8.338924,56.35115
2077024,Damhusvej,7570,6,8.339673,56.352305
2077025,Damhusvej,7570,7,8.33892,56.352162
2077026,Damhusvej,7570,8,8.339986,56.355211
2077027,Damhusvej,7570,9,8.338068,56.352692
2077028,Damhusvej,7570,10,8.346676,56.357738
2077029,Damhusvej,7570,12,8.336185,56.362541
2077030,Damhusvej,7570,13,8.338563,56.35241
2077031,Damhusvej,7570,14,8.336138,56.362787
2077032,Damhusvej,7570,15,8.333268,56.353712
2077033,Damhusvej,7570,16,8.344941,56.369208
2077034,Damhusvej,7570,17,8.337809,56.354741
2077035,Damhusvej,7570,19,8.337379,56.35622
2077036,Damhusvej,7570,21,8.331437,56.361721
2077037,Damhusvej,7570,23,8.334548,56.365963
2079752,Skærum Møllevej,7570,1,8.358685,56.335932
2079753,Skærum Møllevej,7570,2,8.350034,56.334167
2079754,Skærum Møllevej,7570,2A,8.351782,56.333844
2079755,Skærum Møllevej,7570,3,8.356948,56.336715
2079756,Skærum Møllevej,7570,4,8.351532,56.334478
2079757,Skærum Møllevej,7570,6,8.358968,56.335595
2080162,Præstegårdsvej,7570,1,8.348289,56.344958
2080163,Præstegårdsvej,7570,2A,8.344966,56.342715
2080166,Præstegårdsvej,7570,2B,8.345122,56.342821
2080169,Præstegårdsvej,7570,4,8.346109,56.343495
2080170,Præstegårdsvej,7570,5,8.352691,56.345928
2080171,Præstegårdsvej,7570,6,8.346561,56.343854
2080172,Præstegårdsvej,7570,8,8.34666,56.343921
2080173,Præstegårdsvej,7570,10,8.346885,56.344078
2080174,Præstegårdsvej,7570,12,8.347103,56.344224
2080175,Præstegårdsvej,7570,14,8.347269,56.344334
2080176,Præstegårdsvej,7570,16,8.347397,56.344421
2080177,Præstegårdsvej,7570,18,8.347626,56.344558
2080178,Præstegårdsvej,7570,20,8.351295,56.34538
2083680,Skovvangvej,7570,17A,8.218412,56.3870862
2083682,Skovvangvej,7570,17B,8.2168332,56.3854798
2083683,Skovvangvej,7570,17C,8.215362,56.3838494
2084319,Fousingvej,7570,1,8.30905,56.337764
2084320,Fousingvej,7570,1A,8.309151,56.334346
2084321,Fousingvej,7570,2,8.306114,56.335607
2084322,Fousingvej,7570,3,8.305912,56.333925
2090962,Mejerivej,7570,1,8.346518,56.3348
2090963,Mejerivej,7570,2,8.34884,56.335152
2094616,Krohaven,7570,1,8.345025,56.344508
2104889,Idomvej,7570,1,8.429244,56.362091
2104890,Idomvej,7570,2,8.429039,56.365637
2104891,Idomvej,7570,4,8.426163,56.362576
2104892,Idomvej,7570,6,8.425971,56.361032
2104893,Idomvej,7570,6A,8.425971,56.361033
2104894,Idomvej,7570,8,8.423986,56.361686
2104895,Idomvej,7570,10,8.420918,56.361524
2104896,Idomvej,7570,12,8.428122,56.361462
2152784,Blommehaven,7570,1,8.34099,56.34247
2152789,Blommehaven,7570,2,8.340922,56.342753
2152793,Blommehaven,7570,3,8.340931,56.342333
2152799,Blommehaven,7570,4,8.3406401,56.3426488
2152804,Blommehaven,7570,5,8.340892,56.342092
2152809,Blommehaven,7570,6,8.3402826,56.34257
2152818,Blommehaven,7570,7,8.340623,56.342052
2152822,Blommehaven,7570,9,8.3405208,56.3421832
2152828,Blommehaven,7570,11,8.340451,56.3423644
2154304,Åbrinken,7570,1,8.3364527,56.3386297
2154318,Åbrinken,7570,2,8.3357603,56.3383462
2154323,Åbrinken,7570,3,8.3366112,56.3383889
2154335,Åbrinken,7570,4,8.3358744,56.3381191
2154344,Åbrinken,7570,5,8.336767,56.3381529
2154355,Åbrinken,7570,6,8.3359556,56.3379056
2154371,Åbrinken,7570,7,8.3371622,56.3379208
2154376,Åbrinken,7570,8,8.3359839,56.337677
2154389,Åbrinken,7570,9,8.3367589,56.3377709
2154397,Åbrinken,7570,10,8.3361175,56.3374359
2154401,Åbrinken,7570,11,8.3370229,56.3375462
2154412,Åbrinken,7570,12,8.3364482,56.3371932
2154422,Åbrinken,7570,13,8.3375254,56.3377263
2154428,Åbrinken,7570,14,8.337036,56.337228
2154438,Åbrinken,7570,16,8.3374947,56.3372628
2154450,Åbrinken,7570,18,8.3379022,56.3374271
2159197,Golfsvinget,7570,2,8.4083439,56.3319702
2159207,Golfsvinget,7570,4,8.4080036,56.3318882
2159214,Golfsvinget,7570,6,8.4076819,56.331824
2159217,Golfsvinget,7570,8,8.4074204,56.331691
2159220,Golfsvinget,7570,10,8.4072664,56.3315249
2159228,Golfsvinget,7570,12,8.4072279,56.3313363
2159230,Golfsvinget,7570,14,8.4073169,56.3311741
2159236,Golfsvinget,7570,16,8.4074415,56.3310368
2159242,Golfsvinget,7570,18,8.4076462,56.3308839
2159246,Golfsvinget,7570,20,8.4080224,56.3308058
2159254,Golfsvinget,7570,22,8.4081631,56.3309519
2159259,Golfsvinget,7570,24,8.408004,56.3311294
2159262,Golfsvinget,7570,26,8.407765,56.3312404
2159270,Golfsvinget,7570,28,8.4080671,56.3313044
2159273,Golfsvinget,7570,30,8.4077167,56.3314172
2159277,Golfsvinget,7570,32,8.4078185,56.3315859
2159282,Golfsvinget,7570,34,8.4081316,56.3316744
2159285,Golfsvinget,7570,36,8.4084598,56.3317562
2159290,Golfsvinget,7570,38,8.4087641,56.3317262
2159292,Golfsvinget,7570,40,8.4088944,56.3314672
2159302,Golfsvinget,7570,42,8.408995,56.3312182
2159311,Golfsvinget,7570,44,8.4091049,56.3309693
2159317,Golfsvinget,7570,46,8.4095104,56.3309375
2159327,Golfsvinget,7570,48,8.4095992,56.331186
2159339,Golfsvinget,7570,50,8.409329,56.331489
2159343,Golfsvinget,7570,52,8.4092655,56.3317029
2159354,Golfsvinget,7570,54,8.410226,56.3316868
2159356,Golfsvinget,7570,56,8.4102466,56.3315096
2159370,Golfsvinget,7570,58,8.4103223,56.3312995
2159380,Golfsvinget,7570,60,8.4103944,56.3310187
2159381,Golfsvinget,7570,62,8.4108545,56.3309448
2159391,Golfsvinget,7570,64,8.4110972,56.3311193
2159393,Golfsvinget,7570,66,8.4109177,56.3313044
2159401,Golfsvinget,7570,68,8.4107494,56.3315036
2159409,Golfsvinget,7570,70,8.4108819,56.3317112
2159413,Golfsvinget,7570,72,8.4113564,56.3317396
2159420,Golfsvinget,7570,74,8.4116122,56.3314408
2159428,Golfsvinget,7570,76,8.4119295,56.3315294
2159433,Golfsvinget,7570,78,8.4119775,56.3317842
2159447,Golfsvinget,7570,80,8.4124136,56.3316797
2159450,Golfsvinget,7570,82,8.4126129,56.3314601
2159464,Golfsvinget,7570,84,8.4126205,56.3312653
2159478,Golfsvinget,7570,86,8.4126723,56.3310747
2159484,Golfsvinget,7570,88,8.4131036,56.3310013
2159494,Golfsvinget,7570,90,8.4134304,56.3311215
2159497,Golfsvinget,7570,92,8.4134261,56.331285
2159506,Golfsvinget,7570,94,8.4132482,56.3314563
2159518,Golfsvinget,7570,96,8.4129832,56.3316285
2224247,Holmgårdvej,7570,201,8.337568,56.370403
2234477,Knudsigvej,7570,2A,8.388103,56.34547
2234604,Ballesigvej,7570,25,8.256319,56.367112
2234621,Skolegade,7570,7A,8.345367,56.34206
2234649,Færgevej,7570,29,8.159728,56.410967
2234659,Knudehus,7570,35,8.400934,56.333082
2234665,Nørregade,7570,23,8.343109,56.344092
2234679,Kikkenborgvej,7570,16,8.294901,56.371884
2243082,Fjordvejen,7570,1,8.305821,56.337788
2252188,Burvej,7570,2E,8.354039,56.343232
2252189,Burvej,7570,17B,8.353236,56.34399
