idx,street,postcode,housenumber,lon,lat
634175,Gammel Aalborgvej,7741,9,8.9112769,57.0640371
634176,Gammel Aalborgvej,7741,11,8.9175583,57.064576
634177,Gammel Aalborgvej,7741,17,8.9200807,57.0715747
644080,TÃ¸mmerbyvej,7741,49,9.003683,57.0687254
1836407,Strandvejen,7741,1,9.0006663,57.1171733
1836409,Strandvejen,7741,4,9.0010779,57.1192755
1836411,Strandvejen,7741,11,8.995147,57.118404
1836413,Strandvejen,7741,15,8.993474,57.119413
1836415,Strandvejen,7741,18,8.99295,57.122245
1836417,Strandvejen,7741,19,8.993049,57.121178
1836419,Strandvejen,7741,22,8.992962,57.1236
1836421,Strandvejen,7741,23,8.9924808,57.1221138
1836423,Strandvejen,7741,27,8.9920084,57.1228982
1836425,Strandvejen,7741,28,8.995089,57.124698
1836427,Strandvejen,7741,32,8.9917949,57.1244463
1836429,Strandvejen,7741,36,8.989644,57.126968
1836431,Strandvejen,7741,38,8.988961,57.128054
1836433,Strandvejen,7741,40,8.988054,57.128464
1836435,Strandvejen,7741,40A,8.987828,57.128563
1836438,Strandvejen,7741,45,8.980852,57.128777
1836440,Strandvejen,7741,47,8.9817127,57.1299562
1836441,Strandvejen,7741,52,8.9853409,57.1314165
1836443,Strandvejen,7741,55,8.9822437,57.1315366
1836445,Strandvejen,7741,56,8.981906,57.132937
1836447,Strandvejen,7741,58,8.9676628,57.1486475
1836449,Strandvejen,7741,60,8.967134,57.1485047
1836450,Strandvejen,7741,62,8.9667515,57.1486156
1836452,Strandvejen,7741,64A,8.965794,57.148666
1836454,Strandvejen,7741,64B,8.966283,57.148741
1836455,Strandvejen,7741,65,8.9760494,57.1376784
1836458,Strandvejen,7741,66,8.9654226,57.1488958
1836460,Strandvejen,7741,67,8.9648911,57.1479787
1836461,Strandvejen,7741,68,8.96501,57.149243
1836464,Strandvejen,7741,69,8.9649565,57.1483084
1836466,Strandvejen,7741,70,8.9650027,57.1494434
1836467,Strandvejen,7741,71,8.9651932,57.1486281
1836470,Strandvejen,7741,71A,8.9649137,57.1487071
1836471,Strandvejen,7741,72,8.9644725,57.1498348
1836473,Strandvejen,7741,73,8.9646713,57.1489649
1836476,Strandvejen,7741,74,8.964329,57.1502022
1836477,Strandvejen,7741,75,8.964401,57.148461
1836479,Strandvejen,7741,76,8.9643585,57.1504534
1836482,Strandvejen,7741,77,8.9641925,57.1481093
1836483,Strandvejen,7741,79,8.9638782,57.148799
1836484,Strandvejen,7741,80A,8.9640485,57.150761
1836485,Strandvejen,7741,80B,8.9645505,57.1508807
1836486,Strandvejen,7741,81A,8.9639267,57.1490543
1836487,Strandvejen,7741,81B,8.9643234,57.1492748
1836488,Strandvejen,7741,82,8.9639904,57.1509376
1836489,Strandvejen,7741,83A,8.9640711,57.1497326
1836490,Strandvejen,7741,83B,8.9632,57.149239
1836491,Strandvejen,7741,83C,8.9621897,57.1494966
1836492,Strandvejen,7741,84,8.963965,57.151003
1836493,Strandvejen,7741,85,8.963537,57.149772
1836494,Strandvejen,7741,86,8.9638868,57.1511556
1836495,Strandvejen,7741,87,8.9633353,57.1495531
1836496,Strandvejen,7741,88,8.9636215,57.1516753
1836497,Strandvejen,7741,89,8.9639802,57.1498747
1836498,Strandvejen,7741,91A,8.9639089,57.1501383
1836499,Strandvejen,7741,92,8.9634936,57.1519152
1836500,Strandvejen,7741,93A,8.9635782,57.1508469
1836501,Strandvejen,7741,93B,8.9635081,57.150868
1836502,Strandvejen,7741,93C,8.9635217,57.1509227
1836503,Strandvejen,7741,93D,8.96346,57.1509585
1836504,Strandvejen,7741,93E,8.9635053,57.1510028
1836505,Strandvejen,7741,93F,8.9634539,57.1509792
1836506,Strandvejen,7741,94,8.9633349,57.1521569
1836507,Strandvejen,7741,95A,8.9629232,57.1513015
1836508,Strandvejen,7741,95B,8.963202,57.151562
1836509,Strandvejen,7741,99,8.963129,57.151912
1836510,Strandvejen,7741,100,8.9631283,57.152501
1836511,Strandvejen,7741,101,8.9630267,57.1520566
1836512,Strandvejen,7741,102,8.9634836,57.152586
1836513,Strandvejen,7741,104,8.9630309,57.1527001
1836514,Strandvejen,7741,105,8.9628123,57.1526107
1836515,Strandvejen,7741,106,8.9628722,57.1529693
1836517,Strandvejen,7741,107A,8.962507,57.152918
1836518,Strandvejen,7741,107B,8.962159,57.1528301
1836519,Strandvejen,7741,107C,8.9609409,57.1531884
1836522,Strandvejen,7741,107D,8.961417,57.1533357
1836524,Strandvejen,7741,108,8.962771,57.153187
1836526,Strandvejen,7741,109,8.9620321,57.1531073
1836528,Strandvejen,7741,110,8.962361,57.15347
1836530,Strandvejen,7741,111,8.962023,57.153411
1836532,Strandvejen,7741,112,8.962685,57.153513
1836536,Strandvejen,7741,113,8.9619098,57.1533761
1836539,Strandvejen,7741,118,8.9630214,57.1537084
1836677,Vestergade,7741,2,8.9943986,57.0876449
1836680,Vestergade,7741,3,8.9933904,57.0878477
1836682,Vestergade,7741,4,8.9940181,57.0878061
1836685,Vestergade,7741,5,8.99309,57.0877651
1836688,Vestergade,7741,6,8.993888,57.087942
1836689,Vestergade,7741,6A,8.993662,57.087949
1836692,Vestergade,7741,6B,8.99373,57.087924
1836693,Vestergade,7741,6C,8.993786,57.087903
1836696,Vestergade,7741,7,8.9926876,57.0880628
1836698,Vestergade,7741,8,8.9929813,57.0883185
1836700,Vestergade,7741,9,8.9923827,57.088195
1836703,Vestergade,7741,10,8.9925364,57.088407
1836704,Vestergade,7741,11,8.9921461,57.0882754
1836708,Vestergade,7741,12,8.992408,57.0885887
1836709,Vestergade,7741,12A,8.9924687,57.088573
1836713,Vestergade,7741,12B,8.9925105,57.0885534
1836714,Vestergade,7741,13,8.9918365,57.0884217
1836718,Vestergade,7741,14,8.9921005,57.0885622
1836721,Vestergade,7741,15,8.9916089,57.0884533
1836723,Vestergade,7741,16,8.9918836,57.0886831
1836725,Vestergade,7741,16A,8.9918514,57.0887216
1836726,Vestergade,7741,17,8.9914045,57.0885501
1836727,Vestergade,7741,18,8.9915245,57.0887988
1836728,Vestergade,7741,19,8.9910909,57.0886766
1836729,Vestergade,7741,20,8.9912554,57.0889041
1836730,Vestergade,7741,21,8.9908894,57.0887086
1836731,Vestergade,7741,22,8.9910608,57.0889853
1836732,Vestergade,7741,24,8.9908009,57.0890894
1836733,Vestergade,7741,25,8.9899927,57.0891153
1836734,Vestergade,7741,26,8.9905101,57.0892074
1836735,Vestergade,7741,27,8.9897427,57.0891928
1836736,Vestergade,7741,28,8.9902916,57.0892993
1836737,Vestergade,7741,29,8.9892038,57.0894831
1836738,Vestergade,7741,30,8.9874612,57.0903954
1836739,Vestergade,7741,31,8.9888729,57.0896181
1836740,Vestergade,7741,33,8.9885752,57.0897355
1836741,Vestergade,7741,36,8.9868461,57.0904758
1836742,Vestergade,7741,37,8.9878245,57.0899744
1836743,Vestergade,7741,38,8.9865195,57.0905714
1836744,Vestergade,7741,39,8.9871431,57.090073
1836745,Vestergade,7741,40,8.9856069,57.090759
1836746,Vestergade,7741,41A,8.9867208,57.0901842
1836747,Vestergade,7741,41B,8.9863701,57.0902964
1836748,Vestergade,7741,42,8.9852128,57.0908249
1836749,Vestergade,7741,43A,8.9858902,57.0904285
1836750,Vestergade,7741,43B,8.9854378,57.0903791
1836751,Vestergade,7741,44,8.9844569,57.0915518
1836752,Vestergade,7741,45,8.9852189,57.0905543
1836753,Vestergade,7741,47,8.9839925,57.0905286
1836754,Vestergade,7741,49,8.9842529,57.0904837
1836755,Vestergade,7741,50,8.9843189,57.0909942
1836756,Vestergade,7741,52,8.984006,57.091055
1836757,Vestergade,7741,54,8.983458,57.091415
1836758,Vestergade,7741,60,8.9824777,57.0913568
1836759,Vestergade,7741,62,8.9822591,57.0914287
1836760,Vestergade,7741,63,8.979482,57.0913624
1836761,Vestergade,7741,66,8.9817212,57.0916238
1836762,Vestergade,7741,67,8.9783082,57.0916788
1836763,Vestergade,7741,68,8.9814846,57.0918591
1836764,Vestergade,7741,70,8.9810073,57.0916609
1836766,Vestergade,7741,71,8.9771715,57.0920252
1836767,Vestergade,7741,72,8.9803652,57.0916512
1836770,Vestergade,7741,74,8.9800299,57.0927111
1836772,Vestergade,7741,76,8.9800052,57.0917042
1836775,Vestergade,7741,78,8.9795627,57.0918524
1836776,Vestergade,7741,78A,8.9798189,57.0921299
1836778,Vestergade,7741,80,8.9792893,57.0918481
1836781,Vestergade,7741,82,8.9789467,57.0919292
1836782,Vestergade,7741,84,8.9783325,57.0921548
1836785,Vestergade,7741,86,8.9779453,57.092187
1836787,Vestergade,7741,90,8.9773254,57.0923615
1838910,Svenstibakkevej,7741,1,8.965416,57.1504647
1838911,Svenstibakkevej,7741,2,8.9654228,57.1500672
1838912,Svenstibakkevej,7741,3,8.9648354,57.1505238
1838913,Svenstibakkevej,7741,4,8.9656155,57.1498975
1838914,Svenstibakkevej,7741,5,8.9650363,57.1506269
1838915,Svenstibakkevej,7741,6,8.9662604,57.1497693
1838916,Svenstibakkevej,7741,7,8.9654242,57.1506956
1838917,Svenstibakkevej,7741,8,8.9660287,57.1499269
1838918,Svenstibakkevej,7741,9,8.9652751,57.1508507
1838919,Svenstibakkevej,7741,10,8.9657919,57.1501566
1838920,Svenstibakkevej,7741,11,8.965075,57.151042
1838921,Svenstibakkevej,7741,12,8.9667944,57.149524
1838922,Svenstibakkevej,7741,13,8.9653517,57.1511946
1838923,Svenstibakkevej,7741,14,8.9663783,57.1494721
1838924,Svenstibakkevej,7741,15,8.9656627,57.1512594
1838925,Svenstibakkevej,7741,16,8.9661074,57.1493388
1838926,Svenstibakkevej,7741,17,8.966001,57.151302
1838927,Svenstibakkevej,7741,18,8.9660087,57.1492213
1838928,Svenstibakkevej,7741,19,8.9663536,57.151179
1838930,Svenstibakkevej,7741,20,8.9663208,57.149137
1838932,Svenstibakkevej,7741,21,8.9658408,57.1509872
1838933,Svenstibakkevej,7741,22,8.966846,57.1491384
1838934,Svenstibakkevej,7741,23,8.9659346,57.150509
1838936,Svenstibakkevej,7741,24,8.9670759,57.1493167
1838938,Svenstibakkevej,7741,25,8.9665599,57.1509938
1838939,Svenstibakkevej,7741,26,8.967189,57.14952
1838940,Svenstibakkevej,7741,27,8.9672107,57.1511332
1838942,Svenstibakkevej,7741,28,8.967965,57.149263
1838943,Svenstibakkevej,7741,29,8.967441,57.151394
1838945,Svenstibakkevej,7741,30,8.9676249,57.1492159
1838947,Svenstibakkevej,7741,31,8.9678075,57.1517062
1838948,Svenstibakkevej,7741,32,8.9677762,57.14896
1838950,Svenstibakkevej,7741,33,8.9685858,57.1519692
1838951,Svenstibakkevej,7741,34,8.9681463,57.148523
1838954,Svenstibakkevej,7741,36,8.9680032,57.1482784
1838955,Svenstibakkevej,7741,38,8.9684403,57.1481959
1838956,Svenstibakkevej,7741,40,8.968579,57.14843
1838958,Svenstibakkevej,7741,42,8.9687872,57.1487466
1838960,Svenstibakkevej,7741,44,8.9687604,57.1489228
1838961,Svenstibakkevej,7741,46,8.9683562,57.1490947
1838963,Svenstibakkevej,7741,48,8.9693961,57.1498565
1838965,Svenstibakkevej,7741,50,8.9695037,57.1500885
1838967,Svenstibakkevej,7741,52,8.9690151,57.1501828
1838969,Svenstibakkevej,7741,54,8.9690742,57.1499743
1838972,Svenstibakkevej,7741,56,8.9680642,57.1499551
1838973,Svenstibakkevej,7741,58,8.9682994,57.1501449
1838974,Svenstibakkevej,7741,60,8.9683115,57.1503128
1838977,Svenstibakkevej,7741,62,8.9679473,57.1504324
1838979,Svenstibakkevej,7741,64,8.9677155,57.1503024
1838981,Svenstibakkevej,7741,66,8.9676484,57.1500786
1838982,Svenstibakkevej,7741,68,8.966437,57.1503931
1838984,Svenstibakkevej,7741,70,8.966789,57.15071
1838987,Svenstibakkevej,7741,72,8.9670668,57.1506242
1838991,Svenstibakkevej,7741,74,8.9672208,57.150383
1838993,Svenstibakkevej,7741,76,8.9675746,57.1506657
1838995,Svenstibakkevej,7741,78,8.9679854,57.150674
1839000,Svenstibakkevej,7741,80,8.968003,57.151053
1839002,Svenstibakkevej,7741,82,8.9686827,57.1509898
1839004,Svenstibakkevej,7741,84,8.9688146,57.1513784
1839008,Svenstibakkevej,7741,86,8.9679356,57.1513786
1839012,Svenstibakkevej,7741,88,8.968223,57.1515721
1839014,Svenstibakkevej,7741,90,8.9691528,57.1517138
1839585,SÃ¸ndergade,7741,1,8.994927,57.087219
1839586,SÃ¸ndergade,7741,2,8.994585,57.087267
1839587,SÃ¸ndergade,7741,3,8.99493,57.087101
1839588,SÃ¸ndergade,7741,4,8.994618,57.087065
1839589,SÃ¸ndergade,7741,5,8.99489,57.086925
1839590,SÃ¸ndergade,7741,6,8.994522,57.08691
1839591,SÃ¸ndergade,7741,7,8.994851,57.086736
1839592,SÃ¸ndergade,7741,8,8.994493,57.086772
1839593,SÃ¸ndergade,7741,9,8.9948844,57.086544
1839594,SÃ¸ndergade,7741,10,8.994451,57.086218
1839595,SÃ¸ndergade,7741,11,8.994924,57.086379
1839596,SÃ¸ndergade,7741,14,8.994433,57.086083
1839597,SÃ¸ndergade,7741,15,8.994819,57.08618
1839598,SÃ¸ndergade,7741,16,8.9943991,57.0859401
1839599,SÃ¸ndergade,7741,20,8.994371,57.085793
1839600,SÃ¸ndergade,7741,21,8.994718,57.085617
1839601,SÃ¸ndergade,7741,22,8.9943391,57.0856453
1839602,SÃ¸ndergade,7741,23,8.9946887,57.0854917
1839603,SÃ¸ndergade,7741,24,8.9943059,57.0854853
1839604,SÃ¸ndergade,7741,25,8.994666,57.085351
1839605,SÃ¸ndergade,7741,26,8.994232,57.085197
1839606,SÃ¸ndergade,7741,27,8.994635,57.085216
1839607,SÃ¸ndergade,7741,29,8.994611,57.085069
1839608,SÃ¸ndergade,7741,32,8.994202,57.084931
1839609,SÃ¸ndergade,7741,33A,8.994545,57.084807
1839610,SÃ¸ndergade,7741,33B,8.994698,57.084791
1839611,SÃ¸ndergade,7741,33C,8.994862,57.084779
1839612,SÃ¸ndergade,7741,33D,8.994948,57.084729
1839613,SÃ¸ndergade,7741,33E,8.995093,57.084719
1839614,SÃ¸ndergade,7741,33F,8.995226,57.084708
1839615,SÃ¸ndergade,7741,33G,8.995029,57.0847139
1839616,SÃ¸ndergade,7741,35,8.994469,57.084516
1839617,SÃ¸ndergade,7741,36,8.99407,57.08459
1839618,SÃ¸ndergade,7741,37,8.99445,57.084297
1839619,SÃ¸ndergade,7741,39,8.99437,57.084143
1839620,SÃ¸ndergade,7741,40,8.993922,57.084191
1839621,SÃ¸ndergade,7741,41A,8.994345,57.083889
1839622,SÃ¸ndergade,7741,41B,8.994323,57.083816
1839623,SÃ¸ndergade,7741,41C,8.994303,57.083745
1839624,SÃ¸ndergade,7741,41D,8.994287,57.08367
1839625,SÃ¸ndergade,7741,41E,8.994603,57.083959
1839626,SÃ¸ndergade,7741,44,8.993787,57.083709
1839627,SÃ¸ndergade,7741,45A,8.994179,57.083547
1839628,SÃ¸ndergade,7741,45B,8.99415,57.083251
1839629,SÃ¸ndergade,7741,46,8.993697,57.083501
1839630,SÃ¸ndergade,7741,47,8.995194,57.082757
1839631,SÃ¸ndergade,7741,49,8.993901,57.08296
1839632,SÃ¸ndergade,7741,50,8.993483,57.083098
1839633,SÃ¸ndergade,7741,51,8.993771,57.082717
1839634,SÃ¸ndergade,7741,52,8.99337,57.082885
1839635,SÃ¸ndergade,7741,53,8.993598,57.082482
1839636,SÃ¸ndergade,7741,54,8.99327,57.082745
1839637,SÃ¸ndergade,7741,56,8.992583,57.082482
1839638,SÃ¸ndergade,7741,57,8.993403,57.082195
1839639,SÃ¸ndergade,7741,58,8.992701,57.082227
1839640,SÃ¸ndergade,7741,59,8.993655,57.081973
1839641,SÃ¸ndergade,7741,62,8.990466,57.082197
1839642,SÃ¸ndergade,7741,63,8.992961,57.081649
1839643,SÃ¸ndergade,7741,65,8.992814,57.081427
1839644,SÃ¸ndergade,7741,66,8.989951,57.083213
1839645,SÃ¸ndergade,7741,67,8.99262,57.080904
1839646,SÃ¸ndergade,7741,69,8.994191,57.08061
1839647,SÃ¸ndergade,7741,70,8.989804,57.081641
1839648,SÃ¸ndergade,7741,74,8.990047,57.081111
1839649,SÃ¸ndergade,7741,78,8.990343,57.0805
1839650,SÃ¸ndergade,7741,80,8.989634,57.080081
1846150,Klitvejen,7741,56,8.881289,57.0918012
1846153,Klitvejen,7741,58,8.8804657,57.0942384
1846154,Klitvejen,7741,59,8.8776232,57.0952738
1846156,Klitvejen,7741,60,8.8793315,57.0943552
1846159,Klitvejen,7741,62,8.8799677,57.0948666
1846161,Klitvejen,7741,63,8.8797931,57.095274
1846163,Klitvejen,7741,70,8.880573,57.095151
1846165,Klitvejen,7741,75,8.880943,57.096331
1846166,Klitvejen,7741,77,8.833465,57.10438
1846168,Klitvejen,7741,79,8.862728,57.102187
1846171,Klitvejen,7741,81,8.8835139,57.098409
1846173,Klitvejen,7741,85,8.8890487,57.1035051
1846175,Klitvejen,7741,87,8.887446,57.104176
1846177,Klitvejen,7741,89,8.8864191,57.1043246
1846178,Klitvejen,7741,90,8.8955288,57.1023407
1846180,Klitvejen,7741,91,8.889021,57.103083
1846183,Klitvejen,7741,95,8.8863409,57.1036436
1846184,Klitvejen,7741,98,8.900298,57.100985
1846187,Klitvejen,7741,99,8.8826856,57.1045986
1846188,Klitvejen,7741,100,8.8994609,57.1003199
1846190,Klitvejen,7741,101,8.8837144,57.1082493
1846193,Klitvejen,7741,105,8.918273,57.102652
1846194,Klitvejen,7741,106,8.9207141,57.1015051
1846197,Klitvejen,7741,108,8.9199577,57.0994568
1846200,Klitvejen,7741,110,8.9242361,57.1010954
1846201,Klitvejen,7741,114,8.934414,57.098694
1846203,Klitvejen,7741,115,8.9443865,57.1032437
1846205,Klitvejen,7741,116,8.9352,57.098153
1846207,Klitvejen,7741,120,8.93266,57.092674
1846209,Klitvejen,7741,125,8.9455456,57.105391
1846211,Klitvejen,7741,131,8.946279,57.110042
1846212,Klitvejen,7741,135,8.948127,57.110039
1846214,Klitvejen,7741,139,8.9466719,57.1250046
1846216,Klitvejen,7741,140,8.954176,57.109631
1846217,Klitvejen,7741,140A,8.954366,57.109568
1846218,Klitvejen,7741,140B,8.9541741,57.1095892
1846219,Klitvejen,7741,140C,8.953984,57.109609
1846220,Klitvejen,7741,150,8.977128,57.114331
1846221,Klitvejen,7741,155,8.980439,57.11559
1846222,Klitvejen,7741,161,8.9839968,57.1157578
1846223,Klitvejen,7741,164,8.989077,57.1157299
1846224,Klitvejen,7741,165,8.9889143,57.1162537
1846225,Klitvejen,7741,170,8.996764,57.114211
1846226,Klitvejen,7741,175,8.9963292,57.1173763
1846689,Gammel Aalborgvej,7741,12,8.9295477,57.0660552
1846694,Gammel Aalborgvej,7741,14,8.9299341,57.0654632
1846696,Gammel Aalborgvej,7741,16,8.9370974,57.0690201
1846702,Gammel Aalborgvej,7741,19,8.937958,57.072012
1846704,Gammel Aalborgvej,7741,21,8.9628289,57.086221
1846711,Gammel Aalborgvej,7741,22,8.9532987,57.0767601
1846717,Gammel Aalborgvej,7741,23,8.9646749,57.0869517
1846719,Gammel Aalborgvej,7741,27,8.9688678,57.0885741
1846724,Gammel Aalborgvej,7741,42,8.984896,57.096841
1846726,Gammel Aalborgvej,7741,44,8.9911819,57.1003523
1846731,Gammel Aalborgvej,7741,46,8.9906059,57.101117
1846734,Gammel Aalborgvej,7741,47,8.9860949,57.101726
1846737,Gammel Aalborgvej,7741,48,8.990862,57.1014734
1846741,Gammel Aalborgvej,7741,49,8.9880937,57.1051758
1846743,Gammel Aalborgvej,7741,50,8.9920997,57.1031868
1846746,Gammel Aalborgvej,7741,51,8.9911806,57.1028246
1846751,Gammel Aalborgvej,7741,52,8.9928894,57.1028649
1846752,Gammel Aalborgvej,7741,53,8.9911753,57.1031178
1846757,Gammel Aalborgvej,7741,55,8.9919286,57.1034225
1846760,Gammel Aalborgvej,7741,56,8.991291,57.102032
1846763,Gammel Aalborgvej,7741,57,8.992196,57.103698
1846764,Gammel Aalborgvej,7741,58,8.9923723,57.1033421
1846765,Gammel Aalborgvej,7741,59,8.9913613,57.1037042
1846766,Gammel Aalborgvej,7741,60,8.9924667,57.1035893
1846767,Gammel Aalborgvej,7741,62,8.9928205,57.103986
1846768,Gammel Aalborgvej,7741,63,8.990312,57.1041181
1846769,Gammel Aalborgvej,7741,64,8.9932939,57.1044
1846770,Gammel Aalborgvej,7741,66,8.9934299,57.1046875
1846771,Gammel Aalborgvej,7741,67,8.9925108,57.1041757
1846772,Gammel Aalborgvej,7741,70,8.9941172,57.1053659
1846773,Gammel Aalborgvej,7741,71,8.9935407,57.1052452
1846774,Gammel Aalborgvej,7741,73,8.993696,57.105542
1846775,Gammel Aalborgvej,7741,74,8.9943509,57.1056189
1846776,Gammel Aalborgvej,7741,76,8.9945707,57.1058259
1846777,Gammel Aalborgvej,7741,78,8.9947087,57.1059984
1846778,Gammel Aalborgvej,7741,79,8.9944987,57.1064526
1846779,Gammel Aalborgvej,7741,80,8.9948447,57.1063319
1846780,Gammel Aalborgvej,7741,81,8.9948928,57.1067918
1846781,Gammel Aalborgvej,7741,85,8.995565,57.107797
1846782,Gammel Aalborgvej,7741,86,8.9980109,57.109931
1846783,Gammel Aalborgvej,7741,88,8.9984269,57.1103852
1846785,Gammel Aalborgvej,7741,91,8.996604,57.111125
1846788,Gammel Aalborgvej,7741,92,8.998905,57.1107704
1846790,Gammel Aalborgvej,7741,100,9.0036059,57.1173304
1846792,Gammel Aalborgvej,7741,110,9.0223178,57.1220199
1846899,KÃ¦rupvej,7741,1,8.995182,57.106576
1846900,KÃ¦rupvej,7741,2,8.995401,57.106249
1846901,KÃ¦rupvej,7741,3,8.995486,57.106473
1846902,KÃ¦rupvej,7741,4,8.995932,57.106223
1846903,KÃ¦rupvej,7741,5,8.99669,57.106481
1846904,KÃ¦rupvej,7741,6,8.995627,57.105856
1846905,KÃ¦rupvej,7741,7,8.995829,57.10708
1846906,KÃ¦rupvej,7741,8A,8.99658,57.106028
1846907,KÃ¦rupvej,7741,8B,8.997357,57.105999
1846908,KÃ¦rupvej,7741,8C,8.997791,57.105981
1846909,KÃ¦rupvej,7741,9,8.996297,57.106591
1846910,KÃ¦rupvej,7741,10,8.998566,57.105916
1846911,KÃ¦rupvej,7741,15,8.998675,57.106321
1846913,KÃ¦rupvej,7741,19,9.001017,57.105915
1846916,KÃ¦rupvej,7741,21,9.002281,57.105707
1846920,KÃ¦rupvej,7741,22,9.002783,57.104156
1846927,KÃ¦rupvej,7741,28,9.003753,57.104187
1846932,KÃ¦rupvej,7741,36,9.003201,57.1012
1846938,KÃ¦rupvej,7741,40,9.008696,57.097757
1846941,KÃ¦rupvej,7741,41,9.00923,57.098843
1846942,KÃ¦rupvej,7741,42,9.004961,57.097139
1846943,KÃ¦rupvej,7741,45,9.012192,57.097236
1846944,KÃ¦rupvej,7741,49,9.015799,57.094989
1846945,KÃ¦rupvej,7741,51,9.015692,57.093491
1846946,KÃ¦rupvej,7741,54,9.013867,57.09268
1846947,KÃ¦rupvej,7741,55,9.015926,57.092501
1846948,KÃ¦rupvej,7741,57,9.017747,57.092203
1846949,KÃ¦rupvej,7741,58,9.015387,57.091767
1846951,KÃ¦rupvej,7741,59,9.016177,57.091927
1846953,KÃ¦rupvej,7741,61,9.015564,57.091552
1846954,KÃ¦rupvej,7741,63,9.015969,57.091127
1846955,KÃ¦rupvej,7741,65,9.015768,57.090679
1846956,KÃ¦rupvej,7741,66,9.009656,57.090784
1846957,KÃ¦rupvej,7741,70,9.01476,57.089495
1846958,KÃ¦rupvej,7741,71,9.015297,57.08615
1846959,KÃ¦rupvej,7741,75,9.013833,57.084841
1846960,KÃ¦rupvej,7741,83,9.013639,57.083755
1846961,KÃ¦rupvej,7741,88,9.012874,57.081824
1846962,KÃ¦rupvej,7741,96,9.013173,57.079693
1846963,KÃ¦rupvej,7741,100,9.013821,57.078187
1846967,KÃ¦rupvej,7741,105,9.020645,57.074701
1846972,KÃ¦rupvej,7741,109,9.020453,57.076123
1846978,KÃ¦rupvej,7741,110,9.012433,57.072546
1846981,KÃ¦rupvej,7741,111,9.012505,57.07161
1846987,KÃ¦rupvej,7741,119,9.012028,57.068128
1846990,KÃ¦rupvej,7741,125,9.010515,57.065478
1846996,KÃ¦rupvej,7741,133,9.00955,57.063591
1847000,KÃ¦rupvej,7741,134,9.0085904,57.063591
1848095,SandnÃ¦shagevej,7741,2,8.9637016,57.1528872
1848096,SandnÃ¦shagevej,7741,3,8.9630671,57.1533291
1848099,SandnÃ¦shagevej,7741,4,8.9639154,57.1530018
1848100,SandnÃ¦shagevej,7741,5,8.9634417,57.1534641
1848102,SandnÃ¦shagevej,7741,6,8.9644014,57.1531422
1848105,SandnÃ¦shagevej,7741,8,8.9647163,57.1533258
1848106,SandnÃ¦shagevej,7741,10,8.9651954,57.1534201
1848107,SandnÃ¦shagevej,7741,11,8.9635511,57.1537946
1848110,SandnÃ¦shagevej,7741,12,8.9649451,57.1537426
1848111,SandnÃ¦shagevej,7741,13,8.9638513,57.1537848
1848114,SandnÃ¦shagevej,7741,14,8.965539,57.1539441
1848116,SandnÃ¦shagevej,7741,15,8.9645563,57.1540056
1848117,SandnÃ¦shagevej,7741,16,8.965949,57.154113
1848119,SandnÃ¦shagevej,7741,17,8.9649394,57.1541835
1848121,SandnÃ¦shagevej,7741,18,8.9663214,57.1542678
1848123,SandnÃ¦shagevej,7741,19,8.963531,57.1547617
1848124,SandnÃ¦shagevej,7741,20,8.9666541,57.1543187
1848126,SandnÃ¦shagevej,7741,22,8.966804,57.1545612
1848128,SandnÃ¦shagevej,7741,23,8.9651818,57.1543193
1848130,SandnÃ¦shagevej,7741,24,8.9670423,57.1546323
1848132,SandnÃ¦shagevej,7741,26A,8.9676836,57.1547473
1848134,SandnÃ¦shagevej,7741,26B,8.9677627,57.1545898
1848138,SandnÃ¦shagevej,7741,26C,8.9678362,57.1543121
1848139,SandnÃ¦shagevej,7741,26D,8.9682015,57.1544809
1848141,SandnÃ¦shagevej,7741,26E,8.9681382,57.15472
1848145,SandnÃ¦shagevej,7741,26F,8.968083,57.1548994
1848146,SandnÃ¦shagevej,7741,27,8.9658604,57.1546376
1848151,SandnÃ¦shagevej,7741,29,8.9662892,57.1547833
1848154,SandnÃ¦shagevej,7741,30,8.9685994,57.1550509
1848156,SandnÃ¦shagevej,7741,31,8.9665991,57.1548446
1848157,SandnÃ¦shagevej,7741,33,8.9677161,57.1551878
1848159,SandnÃ¦shagevej,7741,34A,8.9688896,57.15517
1848162,SandnÃ¦shagevej,7741,34B,8.9688727,57.1551183
1848164,SandnÃ¦shagevej,7741,34C,8.9688599,57.1550822
1848166,SandnÃ¦shagevej,7741,35,8.9691551,57.1555355
1849976,Kirkevej,7741,1,8.994655,57.08754
1849977,Kirkevej,7741,2,8.9954156,57.0871658
1849978,Kirkevej,7741,7,8.9954507,57.087318
1849979,Kirkevej,7741,9,8.9956779,57.0874731
1849980,Kirkevej,7741,11,8.9957085,57.087271
1849981,Kirkevej,7741,13A,8.995931,57.087268
1849982,Kirkevej,7741,15,8.9964076,57.0872108
1849983,Kirkevej,7741,17,8.9966792,57.0871518
1849984,Kirkevej,7741,18,8.997295,57.086928
1849985,Kirkevej,7741,19,8.99713,57.087116
1849986,Kirkevej,7741,20,8.997706,57.0868451
1849987,Kirkevej,7741,23,8.9973547,57.0871721
1849988,Kirkevej,7741,25,8.9976194,57.0870978
1849989,Kirkevej,7741,27,8.998024,57.0870043
1849990,Kirkevej,7741,29,8.9986168,57.0869365
1849991,Kirkevej,7741,30,9.0011947,57.0861738
1849992,Kirkevej,7741,31,8.9989072,57.0868174
1849993,Kirkevej,7741,34,9.002449,57.085707
1849994,Kirkevej,7741,36,9.0003447,57.0853938
1849995,Kirkevej,7741,39,8.999355,57.0865927
1849996,Kirkevej,7741,40,9.0087151,57.0853942
1849997,Kirkevej,7741,45,9.0028511,57.0879721
1849998,Kirkevej,7741,55,9.007392,57.087383
1854780,SenÃ¥vej,7741,1,8.9963337,57.120527
1854781,SenÃ¥vej,7741,3,8.9960857,57.121195
1854782,SenÃ¥vej,7741,5,8.995274,57.1216062
1854783,SenÃ¥vej,7741,7,8.9954017,57.1223084
1854784,SenÃ¥vej,7741,10,8.9979225,57.1221198
1854785,SenÃ¥vej,7741,11,8.9999118,57.1222012
1854786,SenÃ¥vej,7741,15,9.000173,57.123068
1854787,SenÃ¥vej,7741,16,9.0012327,57.1218751
1854788,SenÃ¥vej,7741,18,9.0015416,57.12295
1854789,SenÃ¥vej,7741,20,9.003308,57.1230004
1854790,SenÃ¥vej,7741,21,9.0009005,57.1248618
1854791,SenÃ¥vej,7741,22,9.001333,57.123558
1854792,SenÃ¥vej,7741,24,9.002198,57.1237
1854793,SenÃ¥vej,7741,25,8.9997734,57.1259468
1854794,SenÃ¥vej,7741,26,9.003279,57.12364
1854795,SenÃ¥vej,7741,28,9.00424,57.123555
1854796,SenÃ¥vej,7741,30,9.000441,57.1262534
1854797,SenÃ¥vej,7741,31A,8.999632,57.1269942
1854798,SenÃ¥vej,7741,31B,8.9993431,57.1277126
1854799,SenÃ¥vej,7741,32,9.005542,57.1264095
1854800,SenÃ¥vej,7741,33,8.9982535,57.1276767
1854801,SenÃ¥vej,7741,35,8.997017,57.1277468
1854802,SenÃ¥vej,7741,37,8.9957325,57.1278389
1854803,SenÃ¥vej,7741,38,9.0043228,57.1266859
1854804,SenÃ¥vej,7741,39,8.9946998,57.127924
1854805,SenÃ¥vej,7741,41,8.9946936,57.1284535
1854806,SenÃ¥vej,7741,42,9.002047,57.1269713
1854807,SenÃ¥vej,7741,43,8.9956813,57.1291608
1854808,SenÃ¥vej,7741,44,9.000907,57.126943
1854809,SenÃ¥vej,7741,45,8.9973331,57.1288296
1854810,SenÃ¥vej,7741,46,9.0004787,57.1277805
1854811,SenÃ¥vej,7741,47,8.9998318,57.1283936
1854812,SenÃ¥vej,7741,48,9.002303,57.127481
1857118,RÃ¸nnebÃ¦rvej,7741,1,8.995521,57.086322
1857123,RÃ¸nnebÃ¦rvej,7741,2,8.995454,57.085934
1857127,RÃ¸nnebÃ¦rvej,7741,4,8.9954752,57.0856894
1857128,RÃ¸nnebÃ¦rvej,7741,6,8.9954204,57.0854573
1857132,RÃ¸nnebÃ¦rvej,7741,7,8.9959821,57.0856187
1857133,RÃ¸nnebÃ¦rvej,7741,8,8.9953682,57.0852233
1857138,RÃ¸nnebÃ¦rvej,7741,9,8.9959298,57.0853989
1857139,RÃ¸nnebÃ¦rvej,7741,10,8.9953266,57.0850277
1857143,RÃ¸nnebÃ¦rvej,7741,11,8.9958879,57.0852099
1857145,RÃ¸nnebÃ¦rvej,7741,13,8.9958356,57.0849802
1857149,RÃ¸nnebÃ¦rvej,7741,15,8.9957428,57.0847287
1857151,RÃ¸nnebÃ¦rvej,7741,16,8.9951866,57.0844907
1857155,RÃ¸nnebÃ¦rvej,7741,17,8.9956732,57.0845096
1857157,RÃ¸nnebÃ¦rvej,7741,18,8.9951276,57.0842462
1857159,RÃ¸nnebÃ¦rvej,7741,19,8.9956215,57.0843027
1857161,RÃ¸nnebÃ¦rvej,7741,20,8.9950732,57.0840093
1857163,RÃ¸nnebÃ¦rvej,7741,21,8.9955208,57.0840729
1857166,RÃ¸nnebÃ¦rvej,7741,22,8.9950151,57.0837943
1857167,RÃ¸nnebÃ¦rvej,7741,23,8.9955518,57.0838899
1857169,RÃ¸nnebÃ¦rvej,7741,24,8.9949592,57.0835602
1857171,RÃ¸nnebÃ¦rvej,7741,25,8.9954743,57.0837123
1857173,RÃ¸nnebÃ¦rvej,7741,26,8.9947973,57.0831926
1857175,RÃ¸nnebÃ¦rvej,7741,27,8.9954378,57.0834945
1857178,RÃ¸nnebÃ¦rvej,7741,29,8.9952998,57.0832404
1857179,RÃ¸nnebÃ¦rvej,7741,31,8.9953198,57.0831288
1861323,NÃ¸rklitvej,7741,1,8.9869351,57.1294112
1861324,NÃ¸rklitvej,7741,3,8.9856195,57.1298504
1861327,NÃ¸rklitvej,7741,5,8.9861264,57.1308833
1861328,NÃ¸rklitvej,7741,6,8.9878811,57.1292918
1861330,NÃ¸rklitvej,7741,7A,8.9872098,57.1307243
1861331,NÃ¸rklitvej,7741,7B,8.987264,57.132039
1861334,NÃ¸rklitvej,7741,8,8.9888341,57.1297547
1861336,NÃ¸rklitvej,7741,9A,8.98627,57.132071
1861337,NÃ¸rklitvej,7741,9B,8.984533,57.13243
1861340,NÃ¸rklitvej,7741,9C,8.9848392,57.1329246
1861343,NÃ¸rklitvej,7741,10,8.988525,57.1306407
1861344,NÃ¸rklitvej,7741,11,8.9857729,57.1329133
1861346,NÃ¸rklitvej,7741,12,8.9895528,57.1313535
1861350,NÃ¸rklitvej,7741,13,8.9871685,57.1327829
1861352,NÃ¸rklitvej,7741,14,8.9905511,57.1305301
1861356,NÃ¸rklitvej,7741,15,8.9885182,57.1331298
1861361,NÃ¸rklitvej,7741,16,8.9913352,57.1316338
1861363,NÃ¸rklitvej,7741,17,8.9892456,57.133391
1861370,NÃ¸rklitvej,7741,18,8.9893857,57.1322426
1861376,NÃ¸rklitvej,7741,19,8.9902735,57.1334234
1861378,NÃ¸rklitvej,7741,20,8.9916708,57.1324839
1861380,NÃ¸rklitvej,7741,21,8.9920255,57.133118
1865520,Storkevej,7741,1,8.9941756,57.0865856
1865523,Storkevej,7741,2,8.9939983,57.0867716
1865525,Storkevej,7741,3,8.9935727,57.086614
1865530,Storkevej,7741,4,8.9937134,57.0867878
1865532,Storkevej,7741,5,8.9933121,57.0866371
1865535,Storkevej,7741,7,8.9930734,57.0866508
1865538,Storkevej,7741,8,8.9934329,57.0867991
1865540,Storkevej,7741,9,8.9928305,57.0866621
1865542,Storkevej,7741,10,8.9929339,57.0868623
1865544,Storkevej,7741,11,8.9921079,57.0862112
1865547,Storkevej,7741,13,8.9911069,57.0860894
1865551,Storkevej,7741,14,8.9934049,57.0871589
1865552,Storkevej,7741,15,8.9925166,57.0869247
1865556,Storkevej,7741,17,8.9928749,57.0872799
1865557,Storkevej,7741,19,8.9931284,57.0872991
1865558,Storkevej,7741,20,8.994103,57.0874784
1865563,Storkevej,7741,21,8.9933582,57.0873961
1865565,Storkevej,7741,23,8.9935832,57.0874938
1865571,Storkevej,7741,25,8.9937901,57.0875818
1866199,RÃ¸rslettevej,7741,3,8.963905,57.151947
1866201,RÃ¸rslettevej,7741,4,8.9644231,57.1518473
1866207,RÃ¸rslettevej,7741,6,8.9648228,57.1520007
1866210,RÃ¸rslettevej,7741,8,8.9652156,57.1521134
1866215,RÃ¸rslettevej,7741,9,8.9640962,57.1525554
1866222,RÃ¸rslettevej,7741,10,8.965719,57.1520127
1866224,RÃ¸rslettevej,7741,12,8.9661472,57.1521147
1866229,RÃ¸rslettevej,7741,13,8.964487,57.152137
1866234,RÃ¸rslettevej,7741,14,8.9663745,57.152369
1866239,RÃ¸rslettevej,7741,15,8.9652876,57.1523816
1866246,RÃ¸rslettevej,7741,16,8.966712,57.1525
1866251,RÃ¸rslettevej,7741,18,8.9672031,57.1524205
1866256,RÃ¸rslettevej,7741,20,8.9675413,57.152724
1866262,RÃ¸rslettevej,7741,21,8.966122,57.152771
1866264,RÃ¸rslettevej,7741,23,8.9665349,57.1528379
1866266,RÃ¸rslettevej,7741,25,8.966951,57.153023
1866267,RÃ¸rslettevej,7741,27,8.9674234,57.1531504
1866268,RÃ¸rslettevej,7741,29,8.9678259,57.1533748
1867391,StrandkÃ¦rvej,7741,1,8.9622991,57.1524168
1867392,StrandkÃ¦rvej,7741,2,8.9618533,57.1527163
1867393,StrandkÃ¦rvej,7741,2A,8.9619224,57.1527324
1867394,StrandkÃ¦rvej,7741,3,8.961962,57.1522932
1867395,StrandkÃ¦rvej,7741,3B,8.9618244,57.1520578
1867396,StrandkÃ¦rvej,7741,5,8.9615925,57.1519213
1867397,StrandkÃ¦rvej,7741,6,8.9614552,57.1526456
1867398,StrandkÃ¦rvej,7741,7,8.9617048,57.1516842
1867399,StrandkÃ¦rvej,7741,8,8.9608134,57.1527454
1867400,StrandkÃ¦rvej,7741,9,8.9611466,57.1518849
1867404,StrandkÃ¦rvej,7741,10A,8.9605562,57.1524998
1867405,StrandkÃ¦rvej,7741,10B,8.9602237,57.1528783
1867409,StrandkÃ¦rvej,7741,12,8.9599752,57.1526298
1867411,StrandkÃ¦rvej,7741,14,8.9601587,57.1522914
1867413,StrandkÃ¦rvej,7741,14A,8.9610383,57.1522044
1867415,StrandkÃ¦rvej,7741,16,8.9601366,57.1517403
1867417,StrandkÃ¦rvej,7741,18,8.9593784,57.1515113
1867418,StrandkÃ¦rvej,7741,20,8.9589579,57.1512122
1867421,StrandkÃ¦rvej,7741,26,8.9569642,57.1508194
1867600,Blommevej,7741,1,8.9973619,57.0855301
1867602,Blommevej,7741,2,8.997204,57.085117
1867604,Blommevej,7741,3,8.9977493,57.0854082
1867606,Blommevej,7741,4,8.9972346,57.0848934
1867607,Blommevej,7741,5,8.9980973,57.0853862
1867610,Blommevej,7741,6,8.9977223,57.0848994
1867611,Blommevej,7741,7,8.9983976,57.0854347
1867613,Blommevej,7741,8,8.9977386,57.0851786
1867618,Blommevej,7741,9,8.998819,57.085346
1867619,Blommevej,7741,10,8.9981869,57.0851465
1867621,Blommevej,7741,11,8.99919,57.0854159
1867623,Blommevej,7741,12,8.998113,57.0848368
1867626,Blommevej,7741,13,8.9996154,57.0853728
1867627,Blommevej,7741,14,8.998634,57.0848083
1867629,Blommevej,7741,16,8.9986982,57.0851126
1867633,Blommevej,7741,18,8.9991569,57.0850648
1867635,Blommevej,7741,22,8.9995314,57.0847243
1867637,Blommevej,7741,24,8.9996284,57.0850461
1869155,Elmevej,7741,3,8.9943867,57.0879329
1869156,Elmevej,7741,5,8.9943332,57.0880923
1869157,Elmevej,7741,6,8.9946448,57.0880091
1869158,Elmevej,7741,7,8.9942971,57.0883338
1869159,Elmevej,7741,8,8.9948391,57.0881523
1869160,Elmevej,7741,9,8.9940707,57.0883586
1869161,Elmevej,7741,10,8.9946604,57.0883257
1869162,Elmevej,7741,12,8.9949049,57.0884398
1869163,Elmevej,7741,13,8.9941053,57.0886245
1869164,Elmevej,7741,14,8.994422,57.0884376
1869165,Elmevej,7741,15,8.9934113,57.0886439
1869166,Elmevej,7741,18,8.9944963,57.0888254
1869167,Elmevej,7741,22,8.9946865,57.0891557
1869168,Elmevej,7741,26,8.9949588,57.0894152
1869169,Elmevej,7741,36,8.992294,57.089677
1869170,Elmevej,7741,37,8.992487,57.089119
1869171,Elmevej,7741,41,8.9919625,57.0895857
1869495,Ãblevej,7741,1,8.9977016,57.0865499
1869497,Ãblevej,7741,2,8.9972013,57.0865771
1869503,Ãblevej,7741,3,8.9976115,57.0863274
1869506,Ãblevej,7741,4,8.9971096,57.0863951
1869512,Ãblevej,7741,4A,8.9970556,57.0861952
1869514,Ãblevej,7741,5,8.9976203,57.0860074
1869521,Ãblevej,7741,6,8.99697,57.0859936
1869522,Ãblevej,7741,7,8.9974223,57.0857969
1869525,Ãblevej,7741,8,8.9967524,57.0855576
1869527,Ãblevej,7741,10,8.9966902,57.0853759
1869529,Ãblevej,7741,12,8.9966421,57.0852675
1869531,Ãblevej,7741,14,8.9965152,57.0851729
1869533,Ãblevej,7741,16,8.9964786,57.0850584
1869535,Ãblevej,7741,18,8.996442,57.084954
1869537,Ãblevej,7741,20,8.9964161,57.0848613
1869539,Ãblevej,7741,22,8.9964313,57.084399
1869541,Ãblevej,7741,24,8.9964122,57.0843156
1869542,Ãblevej,7741,26,8.9963972,57.0842503
1869545,Ãblevej,7741,28,8.9963866,57.0842048
1869546,Ãblevej,7741,30,8.9964018,57.0841389
1869547,Ãblevej,7741,32,8.996384,57.0840609
1869548,Ãblevej,7741,34,8.9963974,57.0839677
1869549,Ãblevej,7741,36,8.9963817,57.083899
1869551,Ãblevej,7741,36A,8.9963358,57.0838855
1869556,Ãblevej,7741,38,8.9963952,57.0838126
1869558,Ãblevej,7741,40,8.9963781,57.0837381
1869562,Ãblevej,7741,42,8.996386,57.083651
1869565,Ãblevej,7741,44,8.9963738,57.0835978
1869569,Ãblevej,7741,46,8.996394,57.08353
1869570,Ãblevej,7741,48,8.9963784,57.0834623
1869573,Ãblevej,7741,50,8.9964416,57.0832242
1869574,Ãblevej,7741,52,8.9963176,57.0832328
1869575,Ãblevej,7741,54,8.9961894,57.0832233
1869576,Ãblevej,7741,56,8.9960475,57.083233
1869577,Ãblevej,7741,58,8.9959238,57.0832229
1869578,Ãblevej,7741,60,8.9958132,57.0832146
1871190,Krinkelkrogen,7741,1,8.9650837,57.1526441
1871191,Krinkelkrogen,7741,2,8.9654756,57.1526776
1871192,Krinkelkrogen,7741,3,8.96488,57.15286
1871194,Krinkelkrogen,7741,4,8.965326,57.153038
1871196,Krinkelkrogen,7741,11,8.96566,57.153494
1871198,Krinkelkrogen,7741,12,8.9666644,57.1535126
1871200,Krinkelkrogen,7741,13,8.96605,57.1535688
1871201,Krinkelkrogen,7741,14,8.967164,57.153707
1871202,Krinkelkrogen,7741,15,8.9664362,57.1537718
1871204,Krinkelkrogen,7741,17,8.9669741,57.1539535
1871205,Krinkelkrogen,7741,19,8.9674299,57.1541266
1871455,Fjordvej,7741,2,9.0157378,57.0902825
1871456,Fjordvej,7741,9,9.026165,57.090411
1871457,Fjordvej,7741,10,9.0305753,57.0900019
1871458,Fjordvej,7741,15,9.0338967,57.092673
1871460,Fjordvej,7741,16,9.035272,57.091033
1871462,Fjordvej,7741,19,9.0354127,57.0915636
1871463,Fjordvej,7741,21,9.038139,57.0915328
1871464,Fjordvej,7741,23,9.0435267,57.09263
1871465,Fjordvej,7741,24,9.039542,57.091232
1871466,Fjordvej,7741,25,9.039535,57.092226
1871468,Fjordvej,7741,28,9.0405386,57.0909697
1871469,Fjordvej,7741,29,9.0416384,57.0927163
1871471,Fjordvej,7741,34,9.0425329,57.0873329
1871473,Fjordvej,7741,34A,9.0430644,57.084894
1871544,Bulbjergvej,7741,3,9.0062996,57.1221672
1871545,Bulbjergvej,7741,9,9.0057512,57.1238671
1871546,Bulbjergvej,7741,10,9.0065533,57.124558
1871547,Bulbjergvej,7741,11,9.0059695,57.1246358
1871548,Bulbjergvej,7741,12,9.0071016,57.1247881
1871549,Bulbjergvej,7741,20,9.0071644,57.1269113
1871550,Bulbjergvej,7741,21,9.0069885,57.1278438
1871551,Bulbjergvej,7741,25,9.0075448,57.1285656
1871552,Bulbjergvej,7741,28,9.0116311,57.1292887
1871553,Bulbjergvej,7741,35,9.0081241,57.1321497
1871554,Bulbjergvej,7741,40,9.010071,57.132173
1871555,Bulbjergvej,7741,61,9.0185984,57.1474569
1871556,Bulbjergvej,7741,65,9.0135762,57.1478765
1871557,Bulbjergvej,7741,69,9.0142381,57.1491517
1871558,Bulbjergvej,7741,79,9.0150939,57.1523906
1871559,Bulbjergvej,7741,93,9.0160536,57.1555969
1873385,Horsbakkevej,7741,1,8.9614712,57.1515192
1873386,Horsbakkevej,7741,2,8.96113,57.151335
1873387,Horsbakkevej,7741,3,8.962002,57.151439
1873388,Horsbakkevej,7741,4,8.9609386,57.1511618
1873389,Horsbakkevej,7741,5,8.961615,57.151287
1873390,Horsbakkevej,7741,6,8.960488,57.150997
1873391,Horsbakkevej,7741,7,8.9613407,57.1511492
1873392,Horsbakkevej,7741,9,8.961084,57.150977
1873393,Horsbakkevej,7741,10,8.960012,57.1506701
1873394,Horsbakkevej,7741,11,8.9607885,57.1507882
1873395,Horsbakkevej,7741,13,8.9606781,57.1505343
1873805,Skovbrynet,7741,1,8.9961446,57.0886251
1873806,Skovbrynet,7741,2,8.9960971,57.088326
1873807,Skovbrynet,7741,3,8.9965875,57.0885417
1873808,Skovbrynet,7741,4,8.996337,57.0883163
1873809,Skovbrynet,7741,5,8.997062,57.088528
1873810,Skovbrynet,7741,6,8.9966157,57.0882974
1873811,Skovbrynet,7741,7,8.9976236,57.0886251
1873812,Skovbrynet,7741,8,8.9968986,57.0882882
1873813,Skovbrynet,7741,10,8.9971725,57.0882717
1873814,Skovbrynet,7741,12,8.997616,57.08818
1873815,Skovbrynet,7741,19,8.9977798,57.0889511
1873816,Skovbrynet,7741,20,8.9983623,57.0889066
1873817,Skovbrynet,7741,21A,8.997549,57.089236
1873818,Skovbrynet,7741,21B,8.9975,57.089311
1873819,Skovbrynet,7741,21C,8.997446,57.089397
1873820,Skovbrynet,7741,25,8.9972676,57.0897804
1873821,Skovbrynet,7741,36,8.9984144,57.0892741
1873822,Skovbrynet,7741,38,8.9983505,57.0896145
1874462,Mirabellevej,7741,1,8.9971697,57.0839226
1874463,Mirabellevej,7741,2,8.997184,57.083489
1874464,Mirabellevej,7741,3,8.9971073,57.0842559
1874465,Mirabellevej,7741,4,8.9971356,57.0831884
1874466,Mirabellevej,7741,5,8.997149,57.084495
1874467,Mirabellevej,7741,6,8.9970402,57.0830265
1874468,Mirabellevej,7741,7,8.9976644,57.0844935
1874469,Mirabellevej,7741,8,8.9973954,57.0829173
1874470,Mirabellevej,7741,9,8.997623,57.0842183
1874471,Mirabellevej,7741,10,8.997532,57.0832057
1874472,Mirabellevej,7741,11,8.9975038,57.0839661
1874473,Mirabellevej,7741,12,8.99763,57.083508
1874841,HÃ¥ndvÃ¦rkervej,7741,4,8.9763495,57.0914927
1874844,HÃ¥ndvÃ¦rkervej,7741,6,8.976602,57.09093
1874848,HÃ¥ndvÃ¦rkervej,7741,8,8.9773124,57.0907186
1874849,HÃ¥ndvÃ¦rkervej,7741,10,8.9781552,57.0905492
1874852,HÃ¥ndvÃ¦rkervej,7741,11,8.9816361,57.0910455
1874854,HÃ¥ndvÃ¦rkervej,7741,12,8.9787533,57.0904312
1874857,HÃ¥ndvÃ¦rkervej,7741,13,8.980484,57.0910416
1874860,HÃ¥ndvÃ¦rkervej,7741,14,8.9795124,57.0900269
1874862,HÃ¥ndvÃ¦rkervej,7741,15,8.9800964,57.0905687
1874865,HÃ¥ndvÃ¦rkervej,7741,16,8.9767384,57.0894896
1874866,HÃ¥ndvÃ¦rkervej,7741,17,8.9797982,57.090156
1874869,HÃ¥ndvÃ¦rkervej,7741,24,8.980202,57.089244
1874871,HÃ¥ndvÃ¦rkervej,7741,50,8.987216,57.086281
1875161,BaggeskÃ¦r,7741,2A,9.007157,57.133548
1875162,BaggeskÃ¦r,7741,2B,9.006437,57.133124
1875163,BaggeskÃ¦r,7741,3,9.008283,57.13079
1875164,BaggeskÃ¦r,7741,4,9.005633,57.133027
1875165,BaggeskÃ¦r,7741,5,9.007312,57.12988
1875166,BaggeskÃ¦r,7741,6,9.00127,57.132734
1875167,BaggeskÃ¦r,7741,6A,9.003101,57.129896
1875168,BaggeskÃ¦r,7741,7,9.005897,57.130203
1875169,BaggeskÃ¦r,7741,8A,9.005392,57.132382
1875170,BaggeskÃ¦r,7741,8B,9.006438,57.131701
1875171,BaggeskÃ¦r,7741,9,9.004391,57.130363
1875172,BaggeskÃ¦r,7741,10,9.006188,57.130916
1875173,BaggeskÃ¦r,7741,12,9.003945,57.130863
1875174,TÃ¸mmerbyvej,7741,6,8.991374,57.077014
1875175,TÃ¸mmerbyvej,7741,8,8.9911138,57.0762818
1875176,TÃ¸mmerbyvej,7741,9,8.9921145,57.07704
1875177,TÃ¸mmerbyvej,7741,12,8.9894755,57.0774594
1875178,TÃ¸mmerbyvej,7741,13,8.9918765,57.0760449
1875179,TÃ¸mmerbyvej,7741,14,8.989186,57.075459
1875180,TÃ¸mmerbyvej,7741,18,8.9915328,57.0755226
1875181,TÃ¸mmerbyvej,7741,19,8.992328,57.0750374
1875182,TÃ¸mmerbyvej,7741,21,8.9928442,57.074528
1875183,TÃ¸mmerbyvej,7741,23,8.9931317,57.0743088
1875184,TÃ¸mmerbyvej,7741,25,8.993795,57.073834
1875185,TÃ¸mmerbyvej,7741,29,8.9945578,57.0732474
1875186,TÃ¸mmerbyvej,7741,31,8.995764,57.072672
1875187,TÃ¸mmerbyvej,7741,35,8.995419,57.071965
1875188,TÃ¸mmerbyvej,7741,39,8.995684,57.071283
1875189,TÃ¸mmerbyvej,7741,40,8.994862,57.071698
1875190,TÃ¸mmerbyvej,7741,41,8.9958364,57.0710482
1875191,TÃ¸mmerbyvej,7741,45,8.9961587,57.0704122
1875192,TÃ¸mmerbyvej,7741,50,8.9960947,57.0693075
1875193,TÃ¸mmerbyvej,7741,53,8.9973818,57.068215
1875194,TÃ¸mmerbyvej,7741,54,8.9970832,57.0677036
1875195,TÃ¸mmerbyvej,7741,55,8.9977882,57.0675988
1875196,TÃ¸mmerbyvej,7741,56,8.9972887,57.0675272
1875197,TÃ¸mmerbyvej,7741,57,8.9979302,57.0670783
1875198,TÃ¸mmerbyvej,7741,58,8.9970726,57.0672829
1875199,TÃ¸mmerbyvej,7741,61,8.998928,57.066625
1875200,TÃ¸mmerbyvej,7741,64,8.998125,57.065998
1875201,TÃ¸mmerbyvej,7741,65,8.9990244,57.0654188
1875202,TÃ¸mmerbyvej,7741,69,9.0007481,57.062773
1875203,TÃ¸mmerbyvej,7741,70,8.9996447,57.0631021
1875204,TÃ¸mmerbyvej,7741,74,8.998712,57.061393
1875205,TÃ¸mmerbyvej,7741,75,9.00046,57.0611608
1875206,TÃ¸mmerbyvej,7741,77,9.000573,57.0608042
1875207,TÃ¸mmerbyvej,7741,78,8.9996237,57.0607042
1875208,TÃ¸mmerbyvej,7741,79,9.002729,57.060532
1875209,TÃ¸mmerbyvej,7741,85,9.0009772,57.0595383
1875210,TÃ¸mmerbyvej,7741,87,9.0023386,57.0596874
1875211,TÃ¸mmerbyvej,7741,105,9.0061649,57.0550757
1875731,AnlÃ¦gsvej,7741,5,8.988363,57.090352
1875733,AnlÃ¦gsvej,7741,7,8.987559,57.090783
1875734,AnlÃ¦gsvej,7741,9,8.987559,57.090784
1875736,AnlÃ¦gsvej,7741,11,8.988137,57.090944
1875738,AnlÃ¦gsvej,7741,16,8.989055,57.090967
1875739,AnlÃ¦gsvej,7741,18,8.988938,57.091199
1875741,AnlÃ¦gsvej,7741,20,8.988482,57.091355
1875742,AnlÃ¦gsvej,7741,24,8.988601,57.092792
1875743,AnlÃ¦gsvej,7741,30,8.987851,57.094283
1875744,AnlÃ¦gsvej,7741,40,8.98807,57.096459
1876361,Minesvej,7741,1,8.9881294,57.1263171
1876364,Minesvej,7741,2,8.9873277,57.1269438
1876366,Minesvej,7741,3,8.9876563,57.1259959
1876369,Minesvej,7741,4,8.9862403,57.127486
1876370,Minesvej,7741,5,8.9873244,57.1255894
1876373,Minesvej,7741,6,8.985432,57.128153
1876377,Minesvej,7741,7,8.9867669,57.1256729
1876378,Minesvej,7741,8,8.9850315,57.1275869
1876381,Minesvej,7741,9,8.9869398,57.1261552
1876384,Minesvej,7741,10,8.9850718,57.1287736
1876386,Minesvej,7741,11,8.9871919,57.1266068
1876407,Lundvej,7741,2,9.0047937,57.1041864
1876408,Lundvej,7741,3,9.0072636,57.1056533
1876409,Lundvej,7741,7,9.010619,57.1041755
1876410,Lundvej,7741,10,9.0141506,57.1031833
1876411,Lundvej,7741,14,9.0209734,57.1072469
1876412,Lundvej,7741,15,9.018838,57.108183
1876413,Lundvej,7741,17,9.018056,57.108252
1876414,Lundvej,7741,18,9.0204386,57.1081241
1876415,Lundvej,7741,22,9.020714,57.109447
1876416,Lundvej,7741,25,9.012774,57.111703
1876442,KirsebÃ¦rvej,7741,1,8.9982877,57.0862347
1876443,KirsebÃ¦rvej,7741,2,8.9981103,57.0859542
1876444,KirsebÃ¦rvej,7741,3,8.9984964,57.086463
1876445,KirsebÃ¦rvej,7741,4,8.9984433,57.0859233
1876447,KirsebÃ¦rvej,7741,5,8.9988378,57.0863322
1876448,KirsebÃ¦rvej,7741,6,8.998829,57.085879
1876451,KirsebÃ¦rvej,7741,7,8.998963,57.0860901
1876453,KirsebÃ¦rvej,7741,8,8.9992049,57.0858317
1876455,KirsebÃ¦rvej,7741,10,8.999564,57.085811
1876457,KirsebÃ¦rvej,7741,11,8.999685,57.086099
1876795,Visdomsvej,7741,1,8.9932359,57.076755
1876796,Visdomsvej,7741,2,8.99411,57.076471
1876797,Visdomsvej,7741,4,8.9941667,57.0767365
1876799,Visdomsvej,7741,6,8.993809,57.076997
1876802,Visdomsvej,7741,8,8.994259,57.077028
1876898,Ãlvej,7741,4,8.9939376,57.1260552
1876899,Ãlvej,7741,8,8.9923674,57.1251145
1876900,Ãlvej,7741,11,8.9932377,57.1267732
1876901,Ãlvej,7741,14,8.995207,57.125832
1876902,Ãlvej,7741,19,8.9970783,57.1269375
1876903,Ãlvej,7741,21,8.9957835,57.12694
1876986,BjÃ¥lumvej,7741,4,8.942489,57.110373
1876987,BjÃ¥lumvej,7741,10,8.936611,57.11112
1876988,BjÃ¥lumvej,7741,14,8.936497,57.113281
1876989,BjÃ¥lumvej,7741,20,8.934867,57.111354
1876990,BjÃ¥lumvej,7741,21,8.9327875,57.1077207
1876991,BjÃ¥lumvej,7741,31,8.9323505,57.1106215
1876992,BjÃ¥lumvej,7741,33,8.9315459,57.1103254
1876993,BjÃ¥lumvej,7741,39,8.92609,57.109543
1876994,BjÃ¥lumvej,7741,40,8.924803,57.111786
1877368,Bredlundvej,7741,2,8.9437087,57.0752816
1877369,Bredlundvej,7741,6,8.9355504,57.0760326
1877370,Bredlundvej,7741,10,8.9351766,57.07988
1877371,Bredlundvej,7741,11,8.92842,57.076552
1877372,Bredlundvej,7741,12,8.9305902,57.0772192
1877373,Bredlundvej,7741,22,8.918517,57.0827344
1877375,Bredlundvej,7741,31,8.9058183,57.0873422
1877376,Bredlundvej,7741,32,8.9074154,57.0865644
1877378,Bredlundvej,7741,36,8.912223,57.0915813
1877607,TeglvÃ¦rksvej,7741,5,8.9918557,57.1141837
1877608,TeglvÃ¦rksvej,7741,6,8.9890094,57.1146829
1877609,TeglvÃ¦rksvej,7741,8,8.9879985,57.1132074
1877610,TeglvÃ¦rksvej,7741,9,8.9896448,57.1128577
1877611,TeglvÃ¦rksvej,7741,10,8.9900537,57.111219
1877612,TeglvÃ¦rksvej,7741,17,8.9916541,57.1082583
1877613,TeglvÃ¦rksvej,7741,18,8.9913203,57.1070656
1877614,TeglvÃ¦rksvej,7741,22,8.993268,57.1068948
1877615,TeglvÃ¦rksvej,7741,23,8.9951222,57.107409
1877616,TeglvÃ¦rksvej,7741,24,8.9948103,57.1070003
1877885,GrÃ¥bakkevej,7741,4,8.963039,57.151075
1877886,GrÃ¥bakkevej,7741,6,8.9626051,57.1508747
1877887,GrÃ¥bakkevej,7741,8,8.962238,57.150712
1877888,GrÃ¥bakkevej,7741,10,8.962045,57.150483
1877889,GrÃ¥bakkevej,7741,100,8.9618865,57.1502208
1877898,Harebakkevej,7741,1,8.9639061,57.1513782
1877899,Harebakkevej,7741,2,8.9644541,57.1512427
1877900,Harebakkevej,7741,4,8.9648085,57.1514147
1877901,Harebakkevej,7741,6,8.9654958,57.1515475
1877902,Harebakkevej,7741,10,8.9659638,57.1516062
1877903,Harebakkevej,7741,12A,8.9665543,57.1515322
1877904,Harebakkevej,7741,12B,8.9668229,57.1516968
1877905,Harebakkevej,7741,12C,8.9670534,57.1518367
1877906,Harebakkevej,7741,14,8.9672218,57.1520198
1877959,ÃlhÃ¸jvej,7741,7,9.00518,57.084785
1877960,ÃlhÃ¸jvej,7741,10,9.0053246,57.0837843
1877961,ÃlhÃ¸jvej,7741,14,9.006236,57.082324
1877962,ÃlhÃ¸jvej,7741,20,9.006678,57.0794859
1877963,ÃlhÃ¸jvej,7741,22,9.006602,57.0776
1877964,ÃlhÃ¸jvej,7741,26,9.0056883,57.0760386
1877965,ÃlhÃ¸jvej,7741,28,9.0060586,57.0753983
1878063,Skovvej,7741,1,8.9889438,57.0899075
1878064,Skovvej,7741,3,8.9887411,57.0900916
1878065,Skovvej,7741,4,8.9898379,57.0896935
1878066,Skovvej,7741,6,8.9904509,57.0898872
1878067,Skovvej,7741,8,8.9895045,57.0899465
1878068,Skovvej,7741,10,8.9892585,57.0903109
1878069,Skovvej,7741,12,8.9897776,57.0907216
1878084,Skadhaugevej,7741,7,8.9836264,57.1056621
1878085,Skadhaugevej,7741,11,8.9839566,57.1067362
1878086,Skadhaugevej,7741,15,8.9887419,57.1088748
1878143,Langvadvej,7741,18,8.9864104,57.0757416
1878144,Langvadvej,7741,20,8.9856787,57.0735134
1878145,Langvadvej,7741,23,8.98607,57.071094
1878146,Langvadvej,7741,25,8.985393,57.07121
1878147,Langvadvej,7741,30,8.980243,57.07508
1878148,Langvadvej,7741,35,8.9791206,57.0718753
1878149,Langvadvej,7741,40,8.9720804,57.0768807
1878150,Langvadvej,7741,41,8.975198,57.070956
1878151,Langvadvej,7741,44,8.96902,57.075785
1878152,Langvadvej,7741,45,8.968099,57.072175
1878153,Langvadvej,7741,47,8.948579,57.063121
1878154,Langvadvej,7741,50,8.9639253,57.0729917
1878155,Langvadvej,7741,51,8.9636699,57.0693127
1878156,Langvadvej,7741,54,8.9625221,57.071271
1878157,Langvadvej,7741,55,8.961776,57.069745
1878158,Langvadvej,7741,60,8.960063,57.075368
1878159,Langvadvej,7741,63,8.961586,57.072346
1878160,Langvadvej,7741,64,8.958416,57.075501
1878161,Langvadvej,7741,67,8.959293,57.07274
1878162,Langvadvej,7741,68,8.9580173,57.0765481
1878163,Langvadvej,7741,69,8.95931,57.069885
1878164,Langvadvej,7741,71,8.9575549,57.0724256
1878165,Langvadvej,7741,72,8.9592434,57.078026
1878166,Langvadvej,7741,75,8.957202,57.07298
1878167,Langvadvej,7741,80,8.9473619,57.075168
1878168,Langvadvej,7741,84,8.945842,57.0754762
1878169,Langvadvej,7741,85,8.945515,57.0747
1878386,BÃ¸gevej,7741,1,8.9975792,57.0876925
1878387,BÃ¸gevej,7741,2,8.9976137,57.0878906
1878388,BÃ¸gevej,7741,3,8.9970247,57.0877171
1878389,BÃ¸gevej,7741,4,8.9970766,57.0879852
1878390,BÃ¸gevej,7741,6,8.9966892,57.088023
1878391,BÃ¸gevej,7741,7,8.9964001,57.0877418
1878392,BÃ¸gevej,7741,8,8.9962917,57.0880256
1878393,BÃ¸gevej,7741,9,8.9961031,57.087821
1878440,Andreas Lassens Vej,7741,2,8.987902,57.124884
1878441,Andreas Lassens Vej,7741,4,8.988288,57.123772
1878442,Andreas Lassens Vej,7741,6,8.987578,57.123175
1878443,Andreas Lassens Vej,7741,8,8.986454,57.123247
1878444,Andreas Lassens Vej,7741,10,8.986963,57.12503
1878445,Andreas Lassens Vej,7741,16,8.98531,57.125191
1878446,Andreas Lassens Vej,7741,20,8.98476,57.124487
1878496,Spurvevej,7741,2,8.9903515,57.0889343
1878497,Spurvevej,7741,3,8.9906266,57.0885767
1878498,Spurvevej,7741,4,8.9904582,57.0888892
1878499,Spurvevej,7741,6,8.9901274,57.0887551
1878500,Spurvevej,7741,8,8.9901855,57.088686
1878780,Birkevej,7741,4,8.9981266,57.0871925
1878781,Birkevej,7741,5,8.9979774,57.0875164
1878782,Birkevej,7741,7,8.9980526,57.0878394
1878783,Birkevej,7741,9,8.998241,57.0883508
1878784,Birkevej,7741,14,8.9984846,57.0877041
1878785,Birkevej,7741,16,8.9987011,57.0885035
1878832,Amstedbrovej,7741,3,9.020844,57.097494
1878833,Amstedbrovej,7741,4,9.025449,57.097184
1878834,Amstedbrovej,7741,7,9.021895,57.098654
1878835,Amstedbrovej,7741,8,9.029486,57.099337
1878836,Amstedbrovej,7741,14,9.025182,57.102451
1878837,Amstedbrovej,7741,18,9.02243,57.105022
1878838,Amstedbrovej,7741,20,9.019791,57.105098
1879057,GlÃ¦devej,7741,2,8.976655,57.092517
1879058,GlÃ¦devej,7741,6,8.9758367,57.0926647
1879059,GlÃ¦devej,7741,8,8.9750978,57.0932814
1879060,GlÃ¦devej,7741,11,8.9653432,57.0962724
1879061,GlÃ¦devej,7741,20,8.963976,57.100644
1879231,Svalevej,7741,2,8.9919849,57.087826
1879232,Svalevej,7741,4,8.9919444,57.0876354
1879233,Svalevej,7741,5,8.9924116,57.0874356
1879234,Svalevej,7741,6,8.9916208,57.0875453
1879235,Svalevej,7741,14,8.9919113,57.0872521
1879593,GÃ¸gevej,7741,1,8.9922393,57.0879848
1879594,GÃ¸gevej,7741,2,8.991471,57.088102
1879597,GÃ¸gevej,7741,4,8.9911166,57.088047
1879851,Torvevej,7741,1,8.994635,57.087751
1879852,Torvevej,7741,5,8.9953233,57.0879159
1879853,Torvevej,7741,6A,8.9956312,57.0877159
1879854,Torvevej,7741,6B,8.9956845,57.0877088
1879855,Torvevej,7741,6C,8.9955474,57.0876976
1879856,Torvevej,7741,6D,8.99562,57.0876917
1879857,Torvevej,7741,6E,8.9956769,57.0876808
1879858,Torvevej,7741,6F,8.9955591,57.0876641
1879859,Torvevej,7741,6G,8.9956266,57.0876523
1879860,Torvevej,7741,8,8.9957849,57.0881188
1879861,Torvevej,7741,9,8.9954718,57.0882481
1879862,Torvevej,7741,10,8.9958051,57.0882719
1879863,Torvevej,7741,11,8.9954922,57.088384
1879864,Torvevej,7741,12,8.995872,57.088726
1879865,Torvevej,7741,13,8.9955062,57.0885646
1879920,RÃ¸debrovej,7741,9,8.9545372,57.0925511
1879921,RÃ¸debrovej,7741,15,8.9502821,57.0920215
1879922,RÃ¸debrovej,7741,20,8.9448952,57.0905933
1880220,Harboslettevej,7741,20,8.8398325,57.0942792
1880221,Harboslettevej,7741,30,8.831945,57.094108
1880222,Harboslettevej,7741,40,8.8225811,57.0951907
1880223,Harboslettevej,7741,42,8.8135033,57.0949581
1880224,Harboslettevej,7741,71,8.7995144,57.0954147
1880437,Fuglsangvej,7741,5,8.9562212,57.096643
1880438,Fuglsangvej,7741,15,8.939349,57.091976
1880440,Fuglsangvej,7741,25,8.9293087,57.0885716
1880542,Stentoftevej,7741,4,9.0047936,57.125382
1880543,Stentoftevej,7741,6,9.0046567,57.1258224
1880544,Stentoftevej,7741,10,9.00353,57.1254349
1880605,Selbjergvej,7741,6,8.9956802,57.0750862
1880606,Selbjergvej,7741,11,9.0030613,57.0757898
1880607,Selbjergvej,7741,14,9.005648,57.073767
1880608,Selbjergvej,7741,16,9.001689,57.073211
1880925,BlovsgÃ¥rdsvej,7741,10,8.8693601,57.078304
1881162,MÃ¸llevej,7741,9,8.9993911,57.107153
1881163,MÃ¸llevej,7741,11,8.999962,57.107498
1881164,MÃ¸llevej,7741,19,8.999335,57.108826
1881253,Lyngevej,7741,4,9.023158,57.057505
1881255,Lyngevej,7741,5,9.017817,57.058625
1881258,Lyngevej,7741,6,9.022591,57.057049
1881261,Lyngevej,7741,8,9.022228,57.056445
1881263,Lyngevej,7741,11,9.021123,57.059261
1881266,Lyngevej,7741,16,9.0232484,57.060404
1881268,Lyngevej,7741,17,9.021985,57.061043
1881270,Lyngevej,7741,20,9.026081,57.061648
1881272,Lyngevej,7741,24,9.023002,57.062573
1881275,Lyngevej,7741,25,9.0217622,57.0658333
1881278,Lyngevej,7741,28,9.0232239,57.0669442
1881280,Lyngevej,7741,30,9.0226809,57.067598
1881281,Lyngevej,7741,35,9.016461,57.06848
1911800,HÃ¸jstrupvej,7741,2,9.001508,57.061934
1911801,HÃ¸jstrupvej,7741,3,9.0026021,57.0621584
1911802,HÃ¸jstrupvej,7741,7,9.0035763,57.0619211
1911803,HÃ¸jstrupvej,7741,9,9.0040255,57.0621557
1911804,HÃ¸jstrupvej,7741,10,9.0083946,57.0607623
1911805,HÃ¸jstrupvej,7741,11,9.0046446,57.0619756
1911806,HÃ¸jstrupvej,7741,16,9.013652,57.056649
1911807,HÃ¸jstrupvej,7741,19,9.01647,57.055619
1911808,HÃ¸jstrupvej,7741,20,9.01692,57.053916
1911810,HÃ¸jstrupvej,7741,21,9.017436,57.053269
1911812,HÃ¸jstrupvej,7741,23,9.018128,57.052251
1911814,HÃ¸jstrupvej,7741,25,9.0203801,57.0519515
1911817,HÃ¸jstrupvej,7741,26,9.017455,57.052529
1911818,HÃ¸jstrupvej,7741,27,9.0182065,57.050447
1911821,HÃ¸jstrupvej,7741,29,9.017981,57.050134
1911823,HÃ¸jstrupvej,7741,30,9.0172701,57.0498663
1911824,HÃ¸jstrupvej,7741,34,9.0125354,57.0497749
2174719,Skolevej,7741,1,8.992515,57.079165
2174727,Skolevej,7741,2,8.992609,57.077828
2174734,Skolevej,7741,4,8.992909,57.077265
2234073,Vestergade,7741,6D,8.993371,57.088292
2234184,Klitvejen,7741,104,8.915228,57.102804
2234185,Klitvejen,7741,110A,8.932918,57.096627
2234209,SandnÃ¦shagevej,7741,25,8.96559,57.154519
2234389,RÃ¸rslettevej,7741,7,8.963956,57.15229
2234390,RÃ¸rslettevej,7741,11,8.964469,57.152519
2234483,AnlÃ¦gsvej,7741,5A,8.988312,57.090561
2234631,Lyngevej,7741,4A,9.03394,57.056468
2255448,Klitvejen,7741,136,8.9489,57.107836
2255450,SenÃ¥vej,7741,1A,8.997091,57.121052
2255454,SÃ¸ndergade,7741,76,8.990889,57.080763
2255458,Gammel Aalborgvej,7741,13C,8.92941,57.06744
