idx,street,postcode,housenumber,lon,lat
608442,Annettesvej,7950,4,8.7004352,56.8436076
608443,Annettesvej,7950,6,8.7003277,56.8447039
608444,Ansgarparken,7950,1,8.7211768,56.8348683
608445,Ansgarparken,7950,2,8.7213127,56.8348375
608446,Ansgarparken,7950,3,8.7214544,56.8348051
608447,Ansgarparken,7950,4,8.721588,56.8347743
608448,Ansgarparken,7950,5,8.721847,56.8347788
608449,Ansgarparken,7950,6,8.7219758,56.8347489
608450,Ansgarparken,7950,7,8.72212,56.834715
608451,Ansgarparken,7950,8,8.7223436,56.8347019
608452,Ansgarparken,7950,9,8.7222789,56.8346159
608453,Ansgarparken,7950,10,8.7222159,56.8345331
608454,Ansgarparken,7950,11,8.722169,56.8344705
608455,Ansgarparken,7950,12,8.7220206,56.8343851
608456,Ansgarparken,7950,13,8.72189,56.8344148
608457,Ansgarparken,7950,14,8.721759,56.834445
608458,Ansgarparken,7950,15,8.7216127,56.8344781
608459,Ansgarparken,7950,16,8.721087,56.8346677
608460,Ansgarparken,7950,17,8.7210328,56.8345971
608461,Ansgarparken,7950,18,8.7209718,56.8345179
608462,Ansgarparken,7950,19,8.7209328,56.8344044
608463,Ansgarparken,7950,20,8.7207881,56.8344374
608464,Ansgarparken,7950,21,8.7206414,56.8344709
608465,Ansgarparken,7950,22,8.7205013,56.8345361
608466,Ansgarparken,7950,23,8.7205642,56.8346189
608467,Ansgarparken,7950,24,8.7206145,56.8346851
608468,Ansgarparken,7950,25,8.7213356,56.8345885
608469,Ansgarvej,7950,2,8.7110877,56.8352057
608470,Ansgarvej,7950,3,8.7113258,56.8355718
608471,Ansgarvej,7950,4,8.7116327,56.8352283
608472,Ansgarvej,7950,5,8.7116799,56.8355202
608473,Ansgarvej,7950,6,8.7119841,56.8351988
608474,Ansgarvej,7950,7,8.7120832,56.8354614
608475,Ansgarvej,7950,8,8.712304,56.835184
608476,Ansgarvej,7950,9,8.7125416,56.8354615
608477,Ansgarvej,7950,10,8.7127677,56.8351539
608478,Ansgarvej,7950,11,8.7130961,56.8353708
608479,Ansgarvej,7950,12,8.7133963,56.8350952
608480,Ansgarvej,7950,13,8.713683,56.8353497
608481,Ansgarvej,7950,14,8.7139498,56.8350759
608482,Ansgarvej,7950,15,8.7140832,56.8353767
608483,Ansgarvej,7950,16,8.7143572,56.8350587
608484,Ansgarvej,7950,18,8.7147583,56.8350251
608485,Ansgarvej,7950,19,8.7153499,56.8352261
608486,Ansgarvej,7950,24,8.7163691,56.8349078
608487,Ansgarvej,7950,25,8.7177247,56.8353583
608488,Ansgarvej,7950,27,8.7176103,56.8353742
608489,Ansgarvej,7950,28,8.7172126,56.8350238
608490,Ansgarvej,7950,29,8.7174847,56.835393
608491,Ansgarvej,7950,30,8.7177389,56.8350658
608492,Ansgarvej,7950,31,8.7173606,56.8354113
608493,Ansgarvej,7950,32,8.7181321,56.8350809
608494,Ansgarvej,7950,33,8.7172698,56.8354206
608495,Ansgarvej,7950,34,8.7186214,56.8350946
608496,Ansgarvej,7950,35,8.7171195,56.8354348
608497,Ansgarvej,7950,36,8.7192066,56.8350366
608498,Ansgarvej,7950,37,8.7178128,56.8355922
608499,Ansgarvej,7950,39,8.7177026,56.8356117
608500,Ansgarvej,7950,41,8.7175797,56.8356289
608501,Ansgarvej,7950,43,8.717459,56.835646
608502,Ansgarvej,7950,45,8.7173304,56.835663
608503,Ansgarvej,7950,47,8.7172337,56.8356746
608504,Ansgarvej,7950,49,8.7179156,56.8358414
608505,Ansgarvej,7950,51,8.7177873,56.8358583
608506,Ansgarvej,7950,53,8.7176777,56.8358759
608507,Ansgarvej,7950,55,8.7175757,56.8358895
608508,Ansgarvej,7950,57,8.7174859,56.8359026
608509,Ansgarvej,7950,59,8.7173817,56.8359242
608510,Ansgarvej,7950,61,8.7182644,56.8353624
608511,Ansgarvej,7950,63,8.7187069,56.8354937
608512,Ansgarvej,7950,65,8.7191203,56.835379
608649,Bakken,7950,2,8.71043,56.8362043
608650,Bakken,7950,4,8.7112366,56.8361508
608651,Bakken,7950,5,8.7112719,56.8365374
608652,Bakken,7950,6,8.711308,56.8358061
608653,Bakken,7950,7,8.7117774,56.8366746
608654,Bakken,7950,8,8.7115997,56.8358441
608655,Bakken,7950,9,8.7118801,56.8364073
608656,Bakken,7950,10,8.711671,56.8359615
608657,Bakken,7950,12,8.7117688,56.8362153
608703,Ballevænget,7950,4,8.696745,56.8252996
608704,Ballevænget,7950,5,8.7055852,56.8318201
608705,Ballevænget,7950,5A,8.705751,56.832025
608706,Ballevænget,7950,6,8.6963408,56.8257766
608707,Ballevænget,7950,7,8.706107,56.831931
608708,Ballevænget,7950,8,8.6975181,56.8265497
608709,Ballevænget,7950,9,8.7061665,56.8312927
608710,Ballevænget,7950,10,8.6983642,56.8272253
608711,Ballevænget,7950,12,8.7018104,56.8290742
608712,Ballevænget,7950,14,8.7062193,56.8289281
608758,Bierkjær,7950,3,8.7376137,56.8635494
608759,Bierkjær,7950,4,8.7392473,56.8644251
608760,Bindeleddet,7950,2,8.6804795,56.8401806
608761,Bindeleddet,7950,4,8.6802565,56.8385693
608894,Bjørnvadbro,7950,11,8.7827973,56.8578443
608896,Bjørnvadbro,7950,13,8.7831499,56.8563941
608897,Bjørnvadbro,7950,14,8.782953,56.861524
608898,Bjørnvadbro,7950,15,8.7954592,56.8575314
608899,Bjørnvadbro,7950,16,8.7823114,56.86019
608900,Bjørnvadbro,7950,17,8.7833731,56.8559349
608901,Bjørnvadbro,7950,18,8.7776046,56.8602947
608902,Bjørnvadbro,7950,20,8.7789299,56.8597279
608903,Bjørnvadbro,7950,21,8.783311,56.8554943
608904,Bjørnvadbro,7950,22,8.7815934,56.8590877
608905,Bjørnvadbro,7950,23,8.7834266,56.8552515
608906,Bjørnvadbro,7950,24,8.7817187,56.8570294
608907,Bjørnvadbro,7950,25,8.7828716,56.8544412
608908,Bjørnvadbro,7950,27,8.78398,56.853837
608909,Bjørnvadbro,7950,31,8.7820424,56.8535311
608910,Bjørnvadbro,7950,35,8.7816153,56.8529585
608911,Bjørnvadbro,7950,37,8.781596,56.852754
608912,Bjørnvadbro,7950,39,8.7799025,56.8490996
608913,Bjørnvadbro,7950,40,8.7813149,56.8532136
608914,Bjørnvadbro,7950,41,8.7800815,56.8485437
608915,Bjørnvadbro,7950,42,8.7811521,56.8530225
608916,Bjørnvadbro,7950,44,8.7809933,56.8528066
608917,Bjørnvadbro,7950,44A,8.7807665,56.8527256
608918,Bjørnvadbro,7950,46,8.7805873,56.8524467
608919,Bjørnvadbro,7950,48,8.778698,56.8472579
608920,Bjørnvadbro,7950,50,8.7783621,56.8461804
609110,Brobækvej,7950,3,8.7027073,56.8388442
609111,Brobækvej,7950,5,8.703175,56.836834
609112,Brobækvej,7950,6,8.6998482,56.8395314
609113,Brobækvej,7950,10,8.6993543,56.8388557
609114,Brobækvej,7950,12,8.6990787,56.838907
609115,Brobækvej,7950,14,8.6988003,56.8388516
609116,Brobækvej,7950,16,8.6982243,56.8389547
609117,Brobækvej,7950,18,8.697666,56.8389453
609118,Brobækvej,7950,20,8.6971685,56.8388892
609119,Brobækvej,7950,21,8.7001669,56.8385704
609120,Brobækvej,7950,22,8.6966971,56.8388054
609121,Brobækvej,7950,23,8.6997288,56.8386138
609122,Brobækvej,7950,25,8.6991359,56.8386017
609123,Brobækvej,7950,27,8.6987524,56.838618
609124,Brobækvej,7950,28,8.6951624,56.8388731
609125,Brobækvej,7950,30,8.6946393,56.8390822
609126,Brobækvej,7950,31,8.69786,56.838646
609127,Brobækvej,7950,32,8.6927483,56.8388584
609128,Brobækvej,7950,33,8.6974676,56.8386333
609129,Brobækvej,7950,35,8.6968832,56.8386004
609130,Brobækvej,7950,39,8.6958396,56.8385957
609131,Brobækvej,7950,41,8.6955714,56.838456
609132,Brobækvej,7950,42,8.6902161,56.839036
609133,Brobækvej,7950,44,8.6898622,56.8391364
609134,Brobækvej,7950,45,8.6953882,56.8385327
609135,Brobækvej,7950,46,8.6893912,56.8392517
609136,Brobækvej,7950,47,8.6954862,56.8386406
609137,Brobækvej,7950,48,8.6886877,56.8394276
609138,Brobækvej,7950,49,8.6951292,56.8386556
609139,Brobækvej,7950,50,8.6881852,56.8395809
609140,Brobækvej,7950,51,8.6945804,56.8380957
609141,Brobækvej,7950,52,8.6873683,56.8397734
609142,Brobækvej,7950,53,8.6929498,56.8376069
609143,Brobækvej,7950,54,8.687106,56.8413284
609144,Brobækvej,7950,55,8.691415,56.8365557
609145,Brobækvej,7950,56,8.6869242,56.8399089
609146,Brobækvej,7950,57,8.6922856,56.8378934
609147,Brobækvej,7950,61,8.6907573,56.8386993
609148,Brobækvej,7950,63,8.6904533,56.8387538
609149,Brobækvej,7950,63A,8.6901214,56.838479
609150,Brobækvej,7950,65,8.6901049,56.8388224
609151,Brobækvej,7950,67,8.6869801,56.839486
609176,Brungårdsvej,7950,1,8.6659192,56.8758191
609177,Brungårdsvej,7950,3,8.6609368,56.8716812
609196,Brunhøjvej,7950,1,8.730286,56.8706572
609197,Brunhøjvej,7950,4,8.7310208,56.8707612
609198,Brunhøjvej,7950,5,8.7297789,56.8707902
609199,Brunhøjvej,7950,7,8.7294754,56.8708407
609200,Brunhøjvej,7950,9,8.7290171,56.8709919
609201,Brunhøjvej,7950,10,8.7296367,56.871089
609202,Brunhøjvej,7950,11,8.7285485,56.8706137
609203,Brunhøjvej,7950,12,8.7276902,56.8717267
609204,Brunhøjvej,7950,13,8.7258271,56.8712093
609205,Brunhøjvej,7950,14,8.7138742,56.8729869
609206,Brunhøjvej,7950,15,8.7250929,56.8703615
609207,Brunhøjvej,7950,16,8.7077695,56.8735393
609208,Brunhøjvej,7950,17,8.7226767,56.8698244
609239,Burhøjvej,7950,2,8.7386411,56.8691674
609240,Burhøjvej,7950,3,8.7375116,56.8691801
609241,Burhøjvej,7950,4,8.7380691,56.8691862
609242,Burhøjvej,7950,4A,8.7388149,56.8694153
609243,Burhøjvej,7950,6,8.7380802,56.8694311
609244,Burhøjvej,7950,7,8.7394042,56.8722581
609245,Burhøjvej,7950,8,8.7381361,56.8696295
609246,Burhøjvej,7950,9,8.7454377,56.8767126
609247,Burhøjvej,7950,10,8.7381842,56.8698328
609342,Bårupvej,7950,2,8.749226,56.830245
609343,Bårupvej,7950,4,8.750471,56.830186
609344,Bårupvej,7950,4A,8.7496228,56.8303655
609345,Bårupvej,7950,5,8.748837,56.8308411
609346,Bårupvej,7950,6,8.749206,56.830408
609347,Bårupvej,7950,8,8.749188,56.830536
609348,Bårupvej,7950,9,8.748803,56.831103
609349,Bårupvej,7950,10,8.749181,56.830626
609350,Bårupvej,7950,11,8.7487489,56.8313699
609351,Bårupvej,7950,12,8.74912,56.830832
609352,Bårupvej,7950,13,8.748609,56.831579
609353,Bårupvej,7950,15,8.74771,56.831883
609354,Bårupvej,7950,16,8.749142,56.831139
609355,Bårupvej,7950,18,8.749044,56.83124
609356,Bårupvej,7950,20,8.749092,56.83141
609357,Bårupvej,7950,21,8.748705,56.832747
609358,Bårupvej,7950,22,8.7489844,56.8316406
609359,Bårupvej,7950,23,8.748657,56.832978
609360,Bårupvej,7950,25,8.748408,56.83338
609361,Bårupvej,7950,27,8.748843,56.833737
609362,Bårupvej,7950,28,8.749135,56.832519
609363,Bårupvej,7950,31,8.7494079,56.8350682
609364,Bårupvej,7950,32,8.749182,56.832845
609365,Bårupvej,7950,33,8.750676,56.837005
609366,Bårupvej,7950,34,8.749162,56.833016
609367,Bårupvej,7950,34A,8.74919,56.833203
609368,Bårupvej,7950,36,8.749228,56.83345
609369,Bårupvej,7950,37,8.7517189,56.8381201
609370,Bårupvej,7950,39A,8.748536,56.840964
609371,Bårupvej,7950,41,8.7534365,56.842223
609372,Bårupvej,7950,43,8.746969,56.843213
609373,Bårupvej,7950,46,8.7497098,56.8348101
609374,Bårupvej,7950,48,8.750241,56.83537
609375,Bårupvej,7950,50,8.7504924,56.8356281
609376,Bårupvej,7950,52,8.750516,56.83594
609377,Bårupvej,7950,54,8.751348,56.837095
609378,Bårupvej,7950,56,8.75604,56.839177
609379,Bårupvej,7950,60,8.759364,56.841863
609380,Bårupvej,7950,61,8.7543266,56.844949
609381,Bårupvej,7950,62,8.7546047,56.8441051
609382,Bårupvej,7950,63,8.752907,56.8469709
609383,Bårupvej,7950,64,8.755557,56.846212
609384,Bårupvej,7950,65,8.75479,56.848639
609385,Bårupvej,7950,67,8.7547628,56.8488448
609386,Bårupvej,7950,69,8.7550299,56.850061
609387,Bårupvej,7950,70,8.7553395,56.84885
609388,Bårupvej,7950,71,8.7528027,56.850595
609389,Bårupvej,7950,73,8.7552924,56.851218
609390,Bårupvej,7950,74,8.7555332,56.8507949
609391,Bårupvej,7950,76,8.7560559,56.8507717
609392,Bårupvej,7950,78,8.7556635,56.8510129
609393,Bårupvej,7950,80,8.7557424,56.8515566
609394,Bårupvænget,7950,3,8.749933,56.832786
609395,Bårupvænget,7950,4,8.749918,56.832484
609396,Bårupvænget,7950,5,8.750231,56.832731
609397,Bårupvænget,7950,6,8.750211,56.832458
609398,Bårupvænget,7950,7,8.750541,56.832699
609399,Bårupvænget,7950,8,8.750543,56.832423
609400,Bårupvænget,7950,9,8.7509329,56.8326737
609401,Bårupvænget,7950,10,8.750821,56.832405
609402,Bårupvænget,7950,11,8.751307,56.832725
609403,Bårupvænget,7950,12,8.751082,56.832229
609404,Bårupvænget,7950,13,8.751215,56.832494
609432,Damagervej,7950,3,8.6987678,56.8477431
609433,Damagervej,7950,4,8.6983758,56.8478576
609434,Damagervej,7950,5,8.6983766,56.8476775
609435,Damagervej,7950,6,8.6980466,56.8477551
609436,Damagervej,7950,8,8.6977518,56.8477073
609437,Damagervej,7950,10,8.6972988,56.8477591
609438,Damagervej,7950,12,8.6906864,56.8460517
609505,Dragstrupvej,7950,20,8.6716712,56.8076144
609506,Dragstrupvej,7950,21,8.6709395,56.8081783
609507,Dragstrupvej,7950,21A,8.6707401,56.808159
609508,Dragstrupvej,7950,29,8.6710829,56.808643
609509,Dragstrupvej,7950,31,8.6715107,56.8106487
609510,Dragstrupvej,7950,40,8.6727555,56.8110461
609511,Dragstrupvej,7950,41,8.6709842,56.8114676
609512,Dragstrupvej,7950,42,8.6722054,56.8116924
609513,Dragstrupvej,7950,43,8.671609,56.812029
609514,Dragstrupvej,7950,44,8.6731754,56.81208
609515,Dragstrupvej,7950,50,8.6723197,56.8126552
609516,Dragstrupvej,7950,67,8.6699205,56.8154632
609517,Dragstrupvej,7950,68,8.6716984,56.8146357
609518,Dragstrupvej,7950,69,8.6686543,56.8153772
609519,Dragstrupvej,7950,70,8.671506,56.8151376
609520,Dragstrupvej,7950,71,8.6693435,56.8159342
609521,Dragstrupvej,7950,72,8.6721223,56.8155952
609522,Dragstrupvej,7950,73,8.6712987,56.8158044
609523,Dragstrupvej,7950,75,8.671577,56.8163624
609524,Dragstrupvej,7950,77,8.6715702,56.8166917
609525,Dragstrupvej,7950,78,8.6723663,56.8166451
609526,Dragstrupvej,7950,79,8.671508,56.817229
609527,Dragstrupvej,7950,80,8.6723526,56.8170112
609528,Dragstrupvej,7950,81,8.6674602,56.816837
609529,Dragstrupvej,7950,83,8.6687118,56.8162764
609530,Dragstrupvej,7950,87,8.6720257,56.8178247
609531,Dragstrupvej,7950,92,8.6730123,56.8194863
609532,Dragstrupvej,7950,93,8.6723734,56.8189644
609533,Dragstrupvej,7950,93A,8.6716046,56.8190129
609534,Dragstrupvej,7950,95,8.672271,56.8192581
609535,Dragstrupvej,7950,97,8.6723242,56.8196455
609536,Dragstrupvej,7950,99,8.6717415,56.8200183
609537,Dragstrupvej,7950,100,8.6728607,56.8206013
609538,Dragstrupvej,7950,103,8.671292,56.8205948
609539,Dragstrupvej,7950,105,8.6714573,56.8209803
609540,Dragstrupvej,7950,107,8.6713072,56.8213262
609541,Dragstrupvej,7950,108,8.6717355,56.8218961
609542,Dragstrupvej,7950,109,8.6705636,56.8216896
609543,Dragstrupvej,7950,110,8.6715261,56.8225974
609544,Dragstrupvej,7950,111,8.6707897,56.8220905
609545,Dragstrupvej,7950,112,8.6713815,56.822963
609546,Dragstrupvej,7950,113,8.6706612,56.8225449
609547,Dragstrupvej,7950,115,8.670904,56.8235464
609548,Dragstrupvej,7950,116,8.6712679,56.8234909
609549,Dragstrupvej,7950,117,8.6709312,56.8239059
609550,Dragstrupvej,7950,118,8.6712879,56.8237503
609551,Dragstrupvej,7950,119,8.6709763,56.8243072
609552,Dragstrupvej,7950,119A,8.6705757,56.8241647
609553,Dragstrupvej,7950,120,8.6712948,56.8239523
609554,Dragstrupvej,7950,121,8.6711434,56.8247372
609555,Dragstrupvej,7950,122,8.6714372,56.8241809
609556,Dragstrupvej,7950,125,8.6712132,56.8251381
609557,Dragstrupvej,7950,126,8.6714241,56.8243467
609558,Dragstrupvej,7950,128,8.6716067,56.824688
609725,Dæmningen,7950,1,8.6599051,56.8486933
609726,Dæmningen,7950,3,8.6594892,56.8487562
609727,Dæmningen,7950,4,8.6592729,56.8490328
609728,Dæmningen,7950,6,8.6584947,56.8492366
609729,Dæmningen,7950,7,8.6589782,56.8488598
609730,Dæmningen,7950,8,8.658129,56.8495537
609731,Dæmningen,7950,10,8.6578737,56.8498243
609732,Efterskolevej,7950,1,8.7245711,56.8453661
609733,Efterskolevej,7950,2,8.7233852,56.8451131
609734,Efterskolevej,7950,3,8.7262556,56.845472
609735,Efterskolevej,7950,4,8.7260764,56.845064
609736,Efterskolevej,7950,5,8.7311262,56.8460851
609737,Efterskolevej,7950,6,8.7279568,56.8419131
609738,Efterskolevej,7950,7,8.7322921,56.8473087
609739,Efterskolevej,7950,8,8.7283009,56.8450809
609740,Efterskolevej,7950,9,8.7333325,56.8493257
609741,Efterskolevej,7950,10,8.7297381,56.8451746
609742,Efterskolevej,7950,11,8.7353063,56.8517814
609743,Efterskolevej,7950,12,8.7330704,56.8456407
609744,Efterskolevej,7950,13,8.7342034,56.8530637
609745,Efterskolevej,7950,14,8.7333427,56.8477808
609746,Efterskolevej,7950,15,8.7367262,56.849862
609747,Efterskolevej,7950,16,8.7383636,56.8500821
609748,Efterskolevej,7950,17,8.7415887,56.8513353
609749,Efterskolevej,7950,18,8.7426815,56.8512779
609750,Efterskolevej,7950,19,8.7424058,56.8515383
609751,Efterskolevej,7950,20,8.7426758,56.8505865
609752,Efterskolevej,7950,21,8.7409486,56.8532062
609753,Efterskolevej,7950,22,8.7418238,56.849722
609754,Efterskolevej,7950,23,8.7428598,56.8558386
609755,Efterskolevej,7950,24,8.742595,56.848907
609756,Efterskolevej,7950,25,8.743361,56.8563552
609757,Efterskolevej,7950,26,8.742203,56.8472636
609758,Efterskolevej,7950,28,8.7432536,56.8497187
609759,Efterskolevej,7950,29,8.7446474,56.852587
609760,Efterskolevej,7950,30,8.7457214,56.8519291
609761,Efterskolevej,7950,31,8.7486087,56.8531915
609762,Efterskolevej,7950,32,8.7508664,56.8520892
609763,Efterskolevej,7950,33,8.7505494,56.8524919
609764,Efterskolevej,7950,34,8.7597447,56.8511774
609765,Efterskolevej,7950,37,8.7515332,56.8523357
610035,Engen,7950,1,8.7102262,56.8369979
610036,Engen,7950,2,8.7096991,56.8370691
610037,Engen,7950,3,8.7102187,56.8367487
610038,Engen,7950,4,8.7092521,56.8371084
610039,Engen,7950,6,8.7088112,56.8371727
610040,Engen,7950,7,8.7105267,56.8359769
610041,Engen,7950,8,8.7097939,56.8358939
610042,Engen,7950,9,8.710567,56.835765
610043,Engen,7950,10,8.7099846,56.8357273
610044,Engen,7950,11,8.7107529,56.8355485
610045,Engen,7950,12,8.7102132,56.8355724
610046,Engen,7950,14,8.7102284,56.8353837
610047,Engen,7950,15,8.711147,56.8349327
610048,Engen,7950,16,8.7103315,56.8352317
610049,Engen,7950,18,8.7105506,56.8350453
610050,Engen,7950,20,8.710673,56.8348168
610051,Engen,7950,22,8.7108143,56.8346191
610052,Engen,7950,24,8.7109432,56.8344387
610053,Engen,7950,26,8.7109695,56.8341927
610107,Engholmen,7950,1,8.670516,56.8257166
610108,Engholmen,7950,2,8.671566,56.825849
610109,Engholmen,7950,3,8.6708032,56.8261503
610110,Engholmen,7950,5,8.6697558,56.826414
610111,Engholmen,7950,6,8.671793,56.826558
610112,Engholmen,7950,7,8.6691317,56.8264184
610113,Engholmen,7950,8,8.671209,56.826679
610114,Engholmen,7950,10,8.6705494,56.8267254
610115,Engholmen,7950,12,8.6699235,56.8269317
610116,Engholmen,7950,14,8.6693301,56.8268442
610166,Engvej,7950,3,8.6724841,56.87461
610167,Engvej,7950,4,8.6720303,56.8747529
610168,Engvej,7950,5,8.6726755,56.8742518
610169,Engvej,7950,6,8.6718773,56.8745749
610170,Engvej,7950,8,8.6721222,56.8744144
610171,Engvej,7950,9,8.6729839,56.8740693
610172,Engvej,7950,10,8.6718967,56.8742704
610173,Engvej,7950,13,8.673389,56.8738193
610174,Engvej,7950,19,8.672551,56.873772
610368,Fjordkær,7950,3,8.6584711,56.8485554
610369,Fjordkær,7950,4,8.6571664,56.8483692
610370,Fjordkær,7950,4A,8.6576527,56.8485282
610371,Fjordkær,7950,5,8.65849,56.8484
610372,Fjordkær,7950,6,8.6571472,56.8478945
610373,Fjordkær,7950,8,8.6573281,56.8476133
610374,Fjordkær,7950,9,8.6580066,56.8480581
610375,Fjordkær,7950,10,8.6572072,56.8473915
610376,Fjordkær,7950,11,8.6577579,56.8477641
610377,Fjordkær,7950,12,8.6571269,56.8472078
610378,Fjordkær,7950,25,8.6575303,56.8459504
610379,Fjordkær,7950,28,8.6568045,56.8449913
610380,Fjordkær,7950,29,8.6571099,56.8444526
610381,Fjordkær,7950,30,8.6568366,56.8446529
610382,Fjordkær,7950,31,8.6569433,56.8441536
610383,Fjordkær,7950,32,8.6560447,56.8441342
610384,Fjordkær,7950,33,8.6574923,56.8439435
610385,Fjordkær,7950,34,8.6554518,56.8427923
610386,Fjordkær,7950,35,8.656759,56.8438431
610387,Fjordkær,7950,37,8.6559147,56.842482
610388,Fjordkær,7950,38,8.6549829,56.8416246
610389,Fjordkær,7950,42,8.6547665,56.8409322
610390,Fjordkær,7950,44,8.6546132,56.8404322
610391,Fjordkær,7950,45,8.6553607,56.8399631
610392,Fjordkær,7950,48,8.6526141,56.8380615
610393,Fjordkær,7950,49,8.6533554,56.8379029
610394,Fjordkær,7950,50,8.6524335,56.8378071
610395,Fjordkær,7950,52,8.6522188,56.8375054
610396,Fjordkær,7950,54,8.6512816,56.8372284
610397,Fjordkær,7950,56,8.6514359,56.8369582
610398,Fjordkær,7950,58,8.6504328,56.8367835
610399,Fjordkær,7950,60,8.6503595,56.8364829
610400,Fjordkær,7950,62,8.6503921,56.8362254
610401,Fjordkær,7950,64,8.6503527,56.8359637
610402,Fjordkær,7950,66,8.6502918,56.8355963
610403,Fjordkær,7950,68,8.6506085,56.8352891
610404,Fjordkær,7950,70,8.6501629,56.8350422
610405,Fjordkær,7950,72,8.6498836,56.8347572
610406,Fjordkær,7950,74,8.6499208,56.8342718
610407,Fjordkær,7950,75,8.6510973,56.8339267
610408,Fjordkær,7950,76,8.6505603,56.8338624
610409,Fjordkær,7950,82,8.6500068,56.8328139
610410,Fjordkær,7950,84,8.6497354,56.8324688
610411,Fjordkær,7950,87,8.650408,56.832168
610412,Fjordkær,7950,88,8.6491421,56.831912
610413,Fjordkær,7950,90,8.649077,56.8310724
610414,Fjordkær,7950,92,8.648188,56.8291273
610415,Fjordkær,7950,94,8.6484968,56.8287383
610416,Fjordkær,7950,96,8.6486488,56.8285489
610417,Fjordkær,7950,99,8.6494474,56.8281906
610418,Fjordkær,7950,99A,8.650517,56.827454
610419,Fjordkær,7950,101,8.6499959,56.8275921
610420,Fjordkær,7950,102,8.6491437,56.8278154
610421,Fjordkær,7950,103,8.6501659,56.8271191
610422,Fjordkær,7950,104,8.649558,56.827169
610423,Fjordkær,7950,105,8.650301,56.826852
610424,Fjordkær,7950,106,8.6497077,56.8268882
610425,Fjordkær,7950,107,8.6505819,56.8266155
610426,Fjordkær,7950,108,8.6498712,56.826673
610427,Fjordkær,7950,109,8.6506969,56.8257744
610428,Fjordkær,7950,110,8.6500023,56.82648
610429,Fjordkær,7950,111,8.6506374,56.8255279
610430,Fjordkær,7950,114,8.6500016,56.8255869
610431,Fjordkær,7950,116,8.6501136,56.8251368
610432,Fjordkær,7950,120,8.6502178,56.824822
610433,Fjordkær,7950,124,8.6488121,56.8234108
610434,Fjordkær,7950,125,8.6505103,56.8251239
610435,Fjordkær,7950,129,8.650551,56.8249909
610436,Fjordkær,7950,130,8.6481969,56.8213443
610437,Fjordkær,7950,132,8.6476292,56.8206127
610438,Fjordkær,7950,133,8.6495182,56.8225579
610439,Fjordkær,7950,134,8.6470464,56.8203799
610440,Fjordkær,7950,135,8.6496301,56.8221546
610441,Fjordkær,7950,136,8.6427334,56.8204358
610442,Fjordkær,7950,137,8.65027,56.822083
610555,Frederik Kroghs Mark,7950,3,8.746032,56.829925
610556,Frederik Kroghs Mark,7950,5,8.745966,56.829722
610557,Frederik Kroghs Mark,7950,6,8.744447,56.830185
610558,Frederik Kroghs Mark,7950,7,8.745605,56.829875
610559,Frederik Kroghs Mark,7950,8,8.743995,56.830234
610560,Frederik Kroghs Mark,7950,9,8.745202,56.829923
610561,Frederik Kroghs Mark,7950,11,8.744974,56.829926
610562,Frederik Kroghs Mark,7950,13,8.74465,56.829949
610563,Frederik Kroghs Mark,7950,15,8.744318,56.829965
610564,Frederik Kroghs Mark,7950,17,8.7440584,56.8299805
610565,Frederik Kroghs Mark,7950,19,8.744297,56.827116
610566,Frederik Kroghs Mark,7950,19A,8.743464,56.829868
610567,Frederik Kroghs Mark,7950,21,8.743082,56.829852
610568,Frederik Kroghs Mark,7950,23,8.743468,56.830573
610645,Friskolevej,7950,2,8.7364628,56.8675583
610646,Friskolevej,7950,3,8.7359117,56.8674577
610647,Friskolevej,7950,4,8.7361779,56.8681888
610648,Friskolevej,7950,5,8.7358318,56.8678756
610649,Friskolevej,7950,7,8.7354522,56.8679769
610650,Friskolevej,7950,9,8.7354024,56.8684524
610651,Friskolevej,7950,11,8.7360653,56.8685842
610652,Friskolevej,7950,12,8.7351715,56.8689499
610653,Friskolevej,7950,13,8.7341664,56.8685163
610654,Friskolevej,7950,14,8.7342971,56.8689881
610655,Friskolevej,7950,16,8.7337484,56.8689344
610656,Fristedet,7950,1,8.7145994,56.8330294
610657,Fristedet,7950,2,8.7150393,56.8329921
610658,Fristedet,7950,3,8.7147548,56.8332259
610659,Fristedet,7950,4,8.7151594,56.8331807
610660,Fristedet,7950,5,8.7149358,56.8334367
610661,Fristedet,7950,6,8.7152746,56.8333822
611160,Fælleden,7950,1,8.6569282,56.8787438
611161,Fælleden,7950,2,8.6561464,56.8786624
611162,Fælleden,7950,3,8.656704,56.8785796
611163,Fælleden,7950,4,8.6551734,56.8780562
611164,Fælleden,7950,5,8.6564665,56.8783787
611165,Fælleden,7950,6,8.6548154,56.8787069
611166,Fælleden,7950,7,8.6569211,56.878187
611167,Fælleden,7950,8,8.65425,56.878359
611168,Fælleden,7950,9,8.6567019,56.8780058
611169,Fælleden,7950,10,8.6543107,56.8780361
611170,Fælleden,7950,11,8.6565171,56.8777954
611171,Fælleden,7950,12,8.6545078,56.8778028
611172,Fælleden,7950,13,8.6561757,56.8781299
611173,Fælleden,7950,14,8.6548381,56.8776158
611174,Fælleden,7950,22,8.6527049,56.8765913
611175,Fælleden,7950,24,8.6533612,56.8762053
611176,Fælleden,7950,28,8.6527411,56.8759167
611177,Fælleden,7950,38,8.6522735,56.8749252
611178,Fælleden,7950,40,8.6495369,56.8751657
611179,Fælleden,7950,44,8.6519277,56.874402
611180,Fælleden,7950,46,8.6497116,56.8743994
611181,Fælleden,7950,47,8.6520743,56.8736573
611182,Fælleden,7950,48,8.650735,56.873864
611183,Fælleden,7950,54,8.6494983,56.8726258
611184,Fælleden,7950,56,8.6484129,56.8709993
611225,Fårtoftmark,7950,1,8.7091184,56.8794652
611226,Fårtoftmark,7950,2,8.7086406,56.8810341
611227,Fårtoftmark,7950,3,8.7175339,56.8774914
611228,Fårtoftmark,7950,4,8.698117,56.878006
611229,Fårtoftmark,7950,5,8.7049782,56.8774647
611230,Fårtoftvej,7950,3,8.6962363,56.8592747
611231,Fårtoftvej,7950,4,8.6972063,56.8604636
611232,Fårtoftvej,7950,9,8.6962863,56.8622718
611233,Fårtoftvej,7950,14,8.7015362,56.8654532
611234,Fårtoftvej,7950,14A,8.7046273,56.8694201
611235,Fårtoftvej,7950,16,8.7044374,56.8646876
611236,Fårtoftvej,7950,17,8.6981919,56.8682051
611237,Fårtoftvej,7950,20,8.7045121,56.8683401
611351,Gadegårdsvej,7950,2,8.6583605,56.8754297
611352,Gadegårdsvej,7950,4,8.6575673,56.8740542
611353,Gadegårdsvej,7950,6,8.6577429,56.8726872
611354,Gadegårdsvej,7950,10,8.6555336,56.869379
611722,Grydhøjvej,7950,1,8.7312602,56.8707128
611723,Grydhøjvej,7950,2,8.7317561,56.8706404
611724,Grydhøjvej,7950,3,8.731392,56.8709989
611725,Grydhøjvej,7950,7,8.731462,56.8713983
611726,Grydhøjvej,7950,13,8.7318858,56.8732852
611727,Grydhøjvej,7950,14,8.7322828,56.8763224
611728,Grydhøjvej,7950,15,8.7329261,56.8785274
611729,Grydhøjvej,7950,16,8.7386779,56.8793703
611730,Grydhøjvej,7950,17,8.7256878,56.879919
611731,Grydhøjvej,7950,18,8.7341746,56.8801317
611732,Grydhøjvej,7950,19,8.7335364,56.8800682
611733,Grydhøjvej,7950,21,8.7340393,56.8810614
611734,Grydhøjvej,7950,23,8.7315742,56.8868986
611735,Grydhøjvej,7950,24,8.7339961,56.8887156
611736,Grydhøjvej,7950,25,8.733391,56.8889259
611786,Grønholm,7950,2,8.767966,56.814698
611787,Grønholm,7950,3,8.770968,56.818564
611788,Grønholm,7950,5,8.769058,56.816704
611789,Grønholm,7950,7,8.768177,56.815287
611878,Grønningen,7950,3,8.7091528,56.8366933
611879,Grønningen,7950,5,8.7097876,56.836151
611880,Grønningen,7950,5A,8.709589,56.836297
611881,Grønningen,7950,16,8.7127923,56.8312557
611882,Grønningen,7950,18,8.7122868,56.8308162
611938,Gyldagervej,7950,1,8.7781369,56.8457256
611939,Gyldagervej,7950,4,8.7770064,56.846596
611940,Gyldagervej,7950,8,8.7750042,56.8476338
611941,Gyldagervej,7950,9,8.7738225,56.8473097
611942,Gyldagervej,7950,10,8.7689191,56.8497215
611943,Gyldagervej,7950,11,8.7707792,56.8478119
611944,Gyldagervej,7950,12,8.7663091,56.8498604
611945,Gyldagervej,7950,13,8.7693774,56.8465288
611946,Gyldagervej,7950,14,8.7660227,56.8495386
611947,Gyldagervej,7950,15,8.7673222,56.8467431
611948,Gyldagervej,7950,17,8.7640694,56.848091
611949,Gyldagervej,7950,21,8.758845,56.853895
611950,Gyldagervej,7950,22,8.7588139,56.8549021
611951,Gyldagervej,7950,24,8.757833,56.856405
611979,Halagervej,7950,2,8.6772797,56.8724575
611980,Halagervej,7950,3,8.676849,56.8721034
611981,Halagervej,7950,4,8.6769388,56.8724116
611982,Halagervej,7950,5,8.6765128,56.8722138
611983,Halagervej,7950,6,8.6766225,56.8724889
611984,Halagervej,7950,7,8.6760189,56.8723284
611985,Halagervej,7950,8,8.6762508,56.8726158
611986,Halagervej,7950,9,8.6755552,56.8724912
611987,Halagervej,7950,10,8.6756444,56.872813
611988,Halagervej,7950,11,8.6750618,56.87259
611989,Halagervej,7950,12,8.6751222,56.8729266
611990,Halagervej,7950,13,8.674647,56.872744
611991,Halagervej,7950,14A,8.6746583,56.8730792
611992,Halagervej,7950,15,8.6741903,56.8728359
611993,Halagervej,7950,16,8.6741287,56.8732307
611994,Halagervej,7950,17,8.673781,56.872995
611995,Halagervej,7950,18,8.6738183,56.8732884
611996,Halagervej,7950,19,8.6732573,56.8731411
611997,Halagervej,7950,20,8.6733571,56.8734224
611998,Halagervej,7950,22,8.6729215,56.873549
611999,Halvvej,7950,3,8.7170878,56.8262302
612000,Halvvej,7950,5,8.718897,56.8266713
612001,Halvvej,7950,6,8.720789,56.825951
612064,Hanklitvej,7950,2,8.7324187,56.885665
612065,Hanklitvej,7950,3,8.7411987,56.8864513
612066,Hanklitvej,7950,4,8.7359143,56.884962
612067,Hanklitvej,7950,5,8.7413505,56.8856002
612068,Hanklitvej,7950,6,8.7418603,56.8840188
612069,Hanklitvej,7950,7,8.7449032,56.8855252
612070,Hanklitvej,7950,8,8.7459726,56.8824173
612296,Helligkildevej,7950,1,8.6681984,56.8227774
612297,Helligkildevej,7950,4,8.6691857,56.8231179
612336,Helvigsvej,7950,1,8.7566946,56.8580965
612454,Holme,7950,2,8.756305,56.817055
612455,Holme,7950,3,8.746879,56.817081
612456,Holme,7950,4,8.751448,56.81917
612510,Hovvej,7950,17,8.7607149,56.8658883
612543,Hvidagre,7950,4,8.734115,56.831136
612544,Hvidagre,7950,10,8.733925,56.830082
612545,Hvidagre,7950,10A,8.7340016,56.8296892
612546,Hvidagre,7950,11,8.7361781,56.8262728
612547,Hvidagre,7950,12,8.7298625,56.8276507
612548,Hvidagre,7950,14,8.7266225,56.8266892
612605,Højskolevej,7950,1,8.750904,56.852419
612606,Højskolevej,7950,5,8.7514403,56.8531219
612607,Højskolevej,7950,7,8.7523512,56.8539773
612608,Højskolevej,7950,11,8.7529009,56.854577
612670,Ilkjæret,7950,1,8.749083,56.834887
612671,Ilkjæret,7950,5,8.744361,56.835759
612672,Ilkjæret,7950,6,8.7468191,56.8362244
612673,Ilkjæret,7950,8,8.74497,56.837355
612674,Ilkjæret,7950,9,8.7447186,56.8366111
612675,Ilkjæret,7950,10,8.743042,56.83731
612676,Ilkjæret,7950,12,8.742066,56.84069
612677,Ilkjæret,7950,13,8.74004,56.83769
612678,Ilkjæret,7950,14,8.7420247,56.8374853
612679,Ilkjæret,7950,15,8.737028,56.837936
612680,Ilkjæret,7950,16,8.739488,56.837989
612681,Ilkjæret,7950,17,8.73412,56.838489
612682,Ilkjæret,7950,18,8.738289,56.839862
612683,Ilkjæret,7950,19,8.7330425,56.8350458
612684,Ilkjæret,7950,20,8.732818,56.838867
612685,Ilkjæret,7950,22,8.732239,56.834899
612704,Ingeborghøjvej,7950,3,8.7324366,56.8684769
612705,Ingeborghøjvej,7950,4,8.7327013,56.8687319
612706,Ingeborghøjvej,7950,5,8.7317558,56.868395
612707,Ingeborghøjvej,7950,6,8.7323002,56.8686982
612708,Ingeborghøjvej,7950,7,8.7310474,56.8683769
612709,Ingeborghøjvej,7950,8,8.7310243,56.8687599
612710,Ingeborghøjvej,7950,9,8.7304288,56.8683389
612711,Ingeborghøjvej,7950,10,8.728935,56.8689377
612712,Ingeborghøjvej,7950,12,8.72509,56.868486
612840,Jølbygårdsvej,7950,2,8.6963161,56.8384542
612841,Jølbygårdsvej,7950,3,8.6967609,56.8382922
612842,Jølbygårdsvej,7950,4,8.6964096,56.8381348
612843,Jølbygårdsvej,7950,6,8.6961721,56.8370019
612844,Jølbygårdsvej,7950,8,8.6960713,56.8367445
612845,Jølbygårdsvej,7950,9,8.6964812,56.8366368
612846,Jølbygårdsvej,7950,10,8.6959917,56.8363928
612847,Jølbygårdsvej,7950,11,8.6949647,56.833953
612848,Jølbygårdsvej,7950,12A,8.6933654,56.8336724
612849,Jølbygårdsvej,7950,12B,8.6880184,56.8334543
612850,Jølbygårdsvej,7950,13,8.6940793,56.8313784
612851,Jølbygårdsvej,7950,14,8.6933693,56.8319036
612852,Jølbygårdsvej,7950,15,8.6965586,56.8292173
612853,Jølbygårdsvej,7950,15A,8.6956008,56.8294675
612854,Jølbygårdsvej,7950,16,8.693762,56.831042
612855,Jølbygårdsvej,7950,18,8.6942286,56.8291819
612987,Kartdalen,7950,4,8.727031,56.831854
612988,Kartdalen,7950,6,8.72639,56.829679
613064,Kirkebyen,7950,1,8.6991437,56.8515382
613065,Kirkebyen,7950,3,8.699615,56.85076
613066,Kirkebyen,7950,3A,8.6990883,56.8510893
613067,Kirkebyen,7950,3B,8.6992971,56.8510887
613068,Kirkebyen,7950,3C,8.6994302,56.8510898
613069,Kirkebyen,7950,3D,8.6996177,56.8510941
613070,Kirkebyen,7950,3E,8.6997501,56.8511016
613071,Kirkebyen,7950,3F,8.699897,56.8511057
613072,Kirkebyen,7950,3G,8.6993886,56.8507313
613073,Kirkebyen,7950,3H,8.699163,56.8507345
613074,Kirkebyen,7950,4,8.6983918,56.8524511
613075,Kirkebyen,7950,6,8.6982829,56.8523211
613076,Kirkebyen,7950,7,8.6987199,56.8497818
613077,Kirkebyen,7950,8,8.6982669,56.8521089
613078,Kirkebyen,7950,10,8.6981749,56.8519483
613079,Kirkebyen,7950,12,8.6980991,56.8517606
613080,Kirkebyen,7950,13,8.6988259,56.8490566
613081,Kirkebyen,7950,14,8.6979826,56.8514721
613082,Kirkebyen,7950,15,8.6990285,56.8488579
613083,Kirkebyen,7950,16,8.6979406,56.8510334
613084,Kirkebyen,7950,17,8.6991879,56.8485327
613085,Kirkebyen,7950,19,8.6993347,56.8481504
613086,Kirkebyen,7950,21,8.6995159,56.8480047
613087,Kirkebyen,7950,23,8.6995682,56.8475769
613088,Kirkebyen,7950,24,8.6982869,56.8500092
613089,Kirkebyen,7950,25,8.6997652,56.847272
613090,Kirkebyen,7950,26,8.6982678,56.8497356
613091,Kirkebyen,7950,27,8.6997877,56.8471013
613092,Kirkebyen,7950,28,8.6983061,56.8495986
613093,Kirkebyen,7950,29,8.6998694,56.8468593
613094,Kirkebyen,7950,30,8.698339,56.849287
613095,Kirkebyen,7950,31,8.7000239,56.8466871
613096,Kirkebyen,7950,32,8.698335,56.849059
613097,Kirkebyen,7950,34,8.6964825,56.8487377
613098,Kirkebyen,7950,35,8.7007999,56.8460368
613099,Kirkebyen,7950,35A,8.7009842,56.8462227
613100,Kirkebyen,7950,36,8.6982899,56.8484274
613101,Kirkebyen,7950,37,8.700375,56.846115
613102,Kirkebyen,7950,40,8.6985688,56.8488358
613103,Kirkebyen,7950,42,8.6986397,56.8487318
613104,Kirkebyen,7950,44A,8.6988081,56.8485632
613105,Kirkebyen,7950,48,8.6992046,56.847635
613106,Kirkebyen,7950,52,8.699119,56.847365
613107,Kirkebyen,7950,54,8.69833,56.847325
613108,Kirkebyen,7950,56,8.6993963,56.8471813
613109,Kirkebyen,7950,58,8.6993674,56.847044
613110,Kirkebyen,7950,60,8.699353,56.846887
613111,Kirkebyen,7950,62,8.6996365,56.8465742
613112,Kirkebyen,7950,64,8.6996692,56.8463477
613113,Kirkebyen,7950,66,8.6997794,56.8459354
613158,Kirkevænget,7950,3,8.751677,56.830067
613159,Kirkevænget,7950,4,8.751936,56.8297664
613160,Kirkevænget,7950,5,8.75155,56.830317
613161,Kirkevænget,7950,6,8.752198,56.829966
613162,Kirkevænget,7950,8,8.751965,56.830032
613163,Kirkevænget,7950,11,8.752174,56.831643
613164,Kirkevænget,7950,13,8.752652,56.831606
613165,Kirkevænget,7950,14,8.752486,56.830933
613166,Kirkevænget,7950,15,8.7544881,56.8307201
613269,Kliphøj,7950,1,8.7741095,56.8270084
613270,Kliphøj,7950,3,8.774569,56.830124
613271,Kliphøj,7950,4,8.775447,56.831258
613272,Kliphøj,7950,5,8.775368,56.833468
613273,Kliphøj,7950,9,8.777183,56.837153
613274,Kliphøj,7950,10,8.778722,56.835645
613275,Kliphøj,7950,11,8.780387,56.839046
613276,Kliphøj,7950,12,8.7821771,56.8385592
613305,Knudebro,7950,2,8.7092772,56.8558732
613306,Knudebro,7950,3,8.7142081,56.8594022
613307,Knudebro,7950,4,8.7182001,56.8595198
613308,Knudebro,7950,6,8.719616,56.857752
613309,Knudebro,7950,8,8.7191213,56.8582054
613421,Korsbakkevej,7950,1A,8.7362046,56.8667939
613422,Korsbakkevej,7950,1B,8.7360175,56.8668073
613423,Korsbakkevej,7950,1C,8.7356528,56.8668894
613424,Korsbakkevej,7950,1D,8.7354683,56.8668991
613425,Korsbakkevej,7950,1E,8.7352025,56.8669643
613426,Korsbakkevej,7950,1F,8.7350016,56.86698
613427,Korsbakkevej,7950,3,8.7343282,56.867026
613428,Korsbakkevej,7950,4,8.7354668,56.8672121
613429,Korsbakkevej,7950,5,8.7339189,56.8671778
613430,Korsbakkevej,7950,7,8.7337311,56.8672837
613431,Korsbakkevej,7950,8,8.7344862,56.8672853
613432,Korsbakkevej,7950,10,8.7339481,56.8675201
613433,Korsbakkevej,7950,11,8.732966,56.8676856
613434,Korsbakkevej,7950,12,8.7337888,56.8676881
613435,Korsbakkevej,7950,13,8.7332081,56.8679723
613436,Korsbakkevej,7950,14,8.7338441,56.8679598
613437,Korsbakkevej,7950,15,8.732816,56.868137
613438,Korsbakkevej,7950,17,8.7328485,56.8683214
613439,Korsbakkevej,7950,17A,8.7332267,56.8685091
613440,Korsbakkevej,7950,19,8.7331479,56.8688211
613441,Korsbakkevej,7950,21,8.7326274,56.8690209
613442,Korsbakkevej,7950,23,8.7329853,56.8691855
613443,Korsbakkevej,7950,25,8.7328598,56.8697229
613444,Korsbakkevej,7950,26,8.7335064,56.869449
613445,Korsbakkevej,7950,27,8.7326066,56.8700568
613446,Korsbakkevej,7950,34,8.7353853,56.8708094
613447,Korsbakkevej,7950,38,8.7326547,56.8703906
613448,Korsbakkevej,7950,40,8.7323742,56.8704828
613456,Kresten Kolds Vej,7950,3,8.7063838,56.8217446
613457,Kresten Kolds Vej,7950,4,8.6995525,56.8247871
613458,Kresten Kolds Vej,7950,5,8.7076169,56.818407
613459,Kresten Kolds Vej,7950,6,8.6991447,56.8248092
613460,Kresten Kolds Vej,7950,9,8.7018759,56.8219006
613461,Kresten Kolds Vej,7950,11,8.696275,56.82365
613462,Kresten Kolds Vej,7950,13,8.6963245,56.8249001
613463,Kresten Kolds Vej,7950,14,8.6910475,56.8278194
613464,Kresten Kolds Vej,7950,15,8.6829248,56.8274886
613465,Kresten Kolds Vej,7950,16,8.677173,56.8266229
613466,Kresten Kolds Vej,7950,17,8.6796543,56.8267903
613467,Kresten Kolds Vej,7950,18,8.6716222,56.8254355
613468,Kresten Kolds Vej,7950,19,8.6759755,56.8258666
613469,Kresten Kolds Vej,7950,24,8.670227,56.826177
613470,Kresten Kolds Vej,7950,26,8.6694092,56.8256252
613471,Kresten Kolds Vej,7950,28,8.6685547,56.8260484
613472,Kresten Kolds Vej,7950,30,8.6683566,56.8255534
613473,Kresten Kolds Vej,7950,31,8.6704403,56.8250817
613474,Kresten Kolds Vej,7950,32,8.6674835,56.8256373
613475,Kresten Kolds Vej,7950,32A,8.6675813,56.8259135
613476,Kresten Kolds Vej,7950,33,8.6698297,56.8252008
613477,Kresten Kolds Vej,7950,34,8.668569,56.8287335
613478,Kresten Kolds Vej,7950,35,8.6675695,56.8251718
613479,Kresten Kolds Vej,7950,36,8.666706,56.8255892
613480,Kresten Kolds Vej,7950,38,8.665704,56.828066
613481,Kresten Kolds Vej,7950,40,8.654102,56.826374
613482,Kresten Kolds Vej,7950,41,8.6514112,56.8259097
613483,Kresten Kolds Vej,7950,43,8.651026,56.8258166
613553,Kronborgvej,7950,4,8.6912993,56.8509716
613554,Kronborgvej,7950,5,8.6836399,56.8505648
613555,Kronborgvej,7950,11,8.6848934,56.8520588
613556,Kronborgvej,7950,13,8.6796544,56.8553901
613557,Kronborgvej,7950,14,8.6782433,56.8583805
613558,Kæret,7950,3,8.7132895,56.8374049
613559,Kæret,7950,4,8.713889,56.8373323
613560,Kæret,7950,9,8.7138734,56.8397231
613705,Langkærvej,7950,1,8.736453,56.8687625
613706,Langkærvej,7950,2,8.7364935,56.8685169
613707,Langkærvej,7950,3,8.7368262,56.8687596
613708,Langkærvej,7950,5,8.7372563,56.8687228
613709,Langkærvej,7950,7,8.7381159,56.8686896
613710,Langkærvej,7950,8,8.7388808,56.8686015
613711,Langkærvej,7950,9,8.7390662,56.8691594
613712,Langkærvej,7950,10,8.7394957,56.8687254
613713,Langkærvej,7950,11,8.7394746,56.8693092
613714,Langkærvej,7950,13,8.7397651,56.8694477
613715,Langkærvej,7950,15,8.7400901,56.8696126
613716,Langkærvej,7950,22,8.7429203,56.8693479
613717,Langkærvej,7950,25,8.7417601,56.871382
613718,Langkærvej,7950,27,8.7463319,56.871573
613719,Langkærvej,7950,29,8.7490906,56.8715673
613720,Langtoften,7950,1,8.6785693,56.863831
613721,Langtoften,7950,3,8.6773009,56.8625099
613722,Langtoften,7950,4,8.6765486,56.8625289
613723,Langtoften,7950,5,8.678326,56.8620417
613724,Langtoften,7950,6,8.6761016,56.8622316
613725,Langtoften,7950,7,8.674137,56.8612617
613726,Langtoften,7950,8,8.6754847,56.8620438
613727,Langtoften,7950,9,8.6746288,56.8609648
613728,Langtoften,7950,10,8.6741991,56.8615866
613729,Langtoften,7950,13,8.6731034,56.8609444
613730,Langtoften,7950,14,8.671399,56.860924
613731,Langtoften,7950,16,8.6704205,56.8604356
613732,Langtoften,7950,17,8.6707959,56.8602267
613733,Langtoften,7950,18,8.6696913,56.8603751
613734,Langtoften,7950,19,8.6698258,56.8601949
613735,Langtoften,7950,20,8.6662146,56.8602308
613736,Langtoften,7950,21,8.6669329,56.8598658
613737,Langtoften,7950,22,8.666486,56.8611918
613738,Langtoften,7950,23,8.6635935,56.8578608
613739,Langtoften,7950,24,8.665558,56.863122
613740,Langtoften,7950,25,8.6629211,56.8593093
613741,Langtoften,7950,26,8.6645282,56.8611852
613742,Langtoften,7950,27,8.6577856,56.854955
613743,Langtoften,7950,28,8.6632311,56.8596867
613744,Langtoften,7950,29,8.6561914,56.8519237
613745,Langtoften,7950,30,8.6570084,56.8607909
613746,Langtoften,7950,30A,8.657738,56.8608809
613747,Langtoften,7950,30B,8.656518,56.861204
613748,Langtoften,7950,32,8.6548085,56.8521252
613785,Lergravsvej,7950,4,8.758138,56.8541903
613786,Lergravsvej,7950,6,8.7559662,56.8547363
614032,Lyngbro,7950,3,8.7731,56.824659
614033,Lyngbro,7950,5,8.7730383,56.8244594
614034,Lyngbro,7950,6,8.771999,56.823858
614037,Lyngbro,7950,8,8.770806,56.822816
614038,Lyngbro,7950,9,8.768569,56.821069
614039,Lyngbro,7950,10,8.765899,56.820159
614040,Lyngbro,7950,12,8.7640734,56.8200731
614041,Lyngbro,7950,15,8.764771,56.819161
614042,Lyngbro,7950,17,8.763308,56.817613
614043,Lyngbro,7950,18,8.757414,56.814479
614094,Lyngvej,7950,1,8.6786002,56.8355983
614095,Lyngvej,7950,3,8.6786356,56.8350399
614096,Lyngvej,7950,4,8.6759578,56.833742
614097,Lyngvej,7950,5,8.685079,56.834377
614098,Lyngvej,7950,6,8.6778535,56.8332269
614099,Lyngvej,7950,8,8.6767235,56.8303423
614100,Lyngvej,7950,9,8.6776683,56.8297961
614101,Lyngvej,7950,10,8.6737901,56.8291846
614102,Lyngvej,7950,11,8.676734,56.82773
614116,Læsbjerg,7950,3,8.6917223,56.8051536
614117,Læsbjerg,7950,5,8.6930678,56.8058072
614118,Læsbjerg,7950,6,8.6935842,56.8076145
614119,Læsbjerg,7950,7,8.6909721,56.8096533
614120,Læsbjerg,7950,8,8.693014,56.8108073
614121,Læsbjerg,7950,9,8.6889622,56.808747
614122,Læsbjerg,7950,10,8.6912808,56.8112873
614123,Læsbjerg,7950,11,8.683881,56.8105052
614124,Læsbjerg,7950,12,8.6869797,56.815149
614125,Læsbjerg,7950,13,8.6884693,56.8126234
614126,Læsbjerg,7950,14,8.6824953,56.8158602
614127,Læsbjerg,7950,15,8.6801856,56.8154304
614128,Læsbjerg,7950,16,8.6790479,56.8172621
614428,Mejerivej,7950,14,8.780236,56.826825
614429,Mejerivej,7950,16,8.772853,56.825594
614453,Molervej,7950,2,8.709104,56.8833611
614454,Molervej,7950,4,8.7053889,56.8834464
614455,Molervej,7950,7,8.6953992,56.8835753
614456,Molervej,7950,8,8.7026078,56.8873133
614457,Molervej,7950,12,8.6913117,56.882745
614458,Molervej,7950,14,8.6892224,56.8819506
614586,Mølagre,7950,3,8.7461473,56.8243789
614587,Mølagre,7950,12,8.731263,56.824004
614588,Mølagre,7950,14,8.7269521,56.8232747
614589,Mølagre,7950,18,8.722415,56.821629
614590,Mølagre,7950,19,8.7207493,56.8212201
614591,Mølagre,7950,21,8.7141793,56.8203081
614592,Mølbjergvej,7950,3,8.7248535,56.8827096
614593,Mølbjergvej,7950,5,8.7240074,56.883907
614594,Mølbjergvej,7950,7,8.7199722,56.8839118
614595,Mølbjergvej,7950,8,8.7151381,56.8837718
614596,Mølbjergvej,7950,9,8.7168009,56.8834768
614657,Møllesvinget,7950,3,8.6642211,56.8432177
614658,Møllesvinget,7950,4,8.662928,56.8424894
614659,Møllesvinget,7950,5,8.6636759,56.8398082
614718,Mårbjergvej,7950,3,8.6493327,56.8521302
614719,Mårbjergvej,7950,5,8.6484934,56.8540279
614720,Mårbjergvej,7950,7,8.648737,56.8544234
614827,Nordmorsvej,7950,32,8.7547737,56.8671966
614828,Nordmorsvej,7950,33,8.7554996,56.8652876
614829,Nordmorsvej,7950,35,8.7526841,56.8651833
614830,Nordmorsvej,7950,36,8.7484704,56.8659217
614831,Nordmorsvej,7950,37,8.7509989,56.8648272
614832,Nordmorsvej,7950,38,8.7438605,56.8661692
614833,Nordmorsvej,7950,39,8.7418739,56.865534
614834,Nordmorsvej,7950,40,8.7427417,56.866213
614835,Nordmorsvej,7950,41,8.7384283,56.8661127
614836,Nordmorsvej,7950,43,8.7272039,56.8662862
614837,Nordmorsvej,7950,44,8.7335682,56.8667165
614838,Nordmorsvej,7950,45,8.7223729,56.8647198
614839,Nordmorsvej,7950,46,8.730489,56.8667858
614840,Nordmorsvej,7950,47,8.7214936,56.8640022
614841,Nordmorsvej,7950,48,8.7268667,56.867811
614842,Nordmorsvej,7950,49,8.723531,56.863328
614843,Nordmorsvej,7950,51,8.7099637,56.860251
614844,Nordmorsvej,7950,52,8.7105536,56.8654128
614845,Nordmorsvej,7950,53,8.7036305,56.857397
614846,Nordmorsvej,7950,54,8.7040827,56.8591112
614847,Nordmorsvej,7950,56,8.6992841,56.8589572
614848,Nordmorsvej,7950,61,8.700431,56.856613
615365,Nørrebyen,7950,1,8.698822,56.853649
615366,Nørrebyen,7950,2,8.699157,56.8534658
615367,Nørrebyen,7950,3,8.6988943,56.8537752
615368,Nørrebyen,7950,4,8.6992986,56.8537843
615369,Nørrebyen,7950,5,8.698771,56.853917
615370,Nørrebyen,7950,6,8.6997286,56.8539504
615371,Nørrebyen,7950,6A,8.7002766,56.8537559
615372,Nørrebyen,7950,7,8.698969,56.8541088
615373,Nørrebyen,7950,8,8.7021918,56.8526614
615374,Nørrebyen,7950,9,8.6989412,56.8545719
615375,Nørrebyen,7950,10,8.6993386,56.8540596
615376,Nørrebyen,7950,11,8.6990573,56.8549595
615377,Nørrebyen,7950,12,8.6993523,56.8541792
615378,Nørrebyen,7950,13,8.6985509,56.8555743
615379,Nørrebyen,7950,14,8.699383,56.8544187
615380,Nørrebyen,7950,16,8.699433,56.854673
615381,Nørrebyen,7950,18,8.6995102,56.8548367
615382,Nørrebyen,7950,20,8.6994418,56.855045
615383,Nørrebyen,7950,22,8.7003441,56.8562586
615384,Nørrebyen,7950,24,8.7001007,56.8551794
615385,Nørrebyen,7950,26,8.7006427,56.8551483
615386,Nørrebyen,7950,28,8.6993804,56.8553524
615387,Nørrebyen,7950,30,8.6990301,56.8557491
615442,Nørrekærvej,7950,2,8.6594476,56.8796127
615443,Nørrekærvej,7950,4,8.6596383,56.879816
615444,Nørrekærvej,7950,6,8.6602555,56.8800437
615445,Nørrekærvej,7950,7,8.6607562,56.8811351
615446,Nørrekærvej,7950,8,8.662126,56.8821617
615447,Nørrekærvej,7950,9,8.6608734,56.8831639
615448,Nørrekærvej,7950,10,8.6659613,56.8834524
615457,Nørrevænget,7950,1,8.7559716,56.829137
615458,Nørrevænget,7950,2,8.7550469,56.8290349
615459,Nørrevænget,7950,3,8.756102,56.829379
615460,Nørrevænget,7950,4,8.7551608,56.8289901
615461,Nørrevænget,7950,5,8.7562016,56.8296334
615462,Nørrevænget,7950,6,8.7552773,56.8289441
615463,Nørrevænget,7950,7,8.7563363,56.829785
615464,Nørrevænget,7950,8A,8.7554344,56.8289236
615465,Nørrevænget,7950,8B,8.7555141,56.8289133
615466,Nørrevænget,7950,8C,8.7556113,56.8289006
615467,Nørrevænget,7950,9,8.7566144,56.829097
615468,Nørrevænget,7950,10,8.7559849,56.8288518
615469,Nørrevænget,7950,11,8.756665,56.829306
615470,Nørrevænget,7950,12A,8.7562955,56.8288007
615471,Nørrevænget,7950,12B,8.7564437,56.8287757
615472,Nørrevænget,7950,13,8.7567891,56.8295177
615473,Nørrevænget,7950,14A,8.7566394,56.8287474
615474,Nørrevænget,7950,14B,8.7567741,56.8287254
615475,Nørrevænget,7950,15,8.7569101,56.8297178
615476,Nørrevænget,7950,16A,8.7570642,56.828809
615477,Nørrevænget,7950,16B,8.7571914,56.8287863
615478,Nørrevænget,7950,17,8.7573646,56.8299462
615479,Nørrevænget,7950,18A,8.7574294,56.828771
615480,Nørrevænget,7950,18B,8.7575572,56.8287482
615481,Nørrevænget,7950,19,8.7574485,56.8301724
615482,Nørrevænget,7950,20A,8.7573359,56.8286332
615483,Nørrevænget,7950,20B,8.7574803,56.8286107
615484,Nørrevænget,7950,21,8.7574731,56.8304229
615485,Nørrevænget,7950,32,8.7579335,56.829781
615486,Nørrevænget,7950,34,8.758036,56.8299954
615487,Nørrevænget,7950,38,8.7583054,56.8304811
615488,Nørvang,7950,3,8.754934,56.829297
615489,Nørvang,7950,4,8.755258,56.829314
615490,Nørvang,7950,6,8.755363,56.829513
615491,Nørvang,7950,7,8.755119,56.829909
615492,Nørvang,7950,8,8.755484,56.829724
615493,Nørvang,7950,9,8.754931,56.830191
615494,Nørvang,7950,10,8.755806,56.829869
615495,Nørvang,7950,11,8.75596,56.830504
615496,Nørvang,7950,12,8.755796,56.830164
615497,Nørvang,7950,14,8.7574561,56.8292138
615498,Nørvang,7950,15,8.757496,56.830698
615499,Nørvang,7950,17,8.764842,56.837009
615500,Nørvang,7950,18,8.765533,56.831272
615501,Nørvang,7950,19,8.763804,56.83307
615502,Nørvang,7950,20,8.770605,56.831853
615503,Nørvang,7950,21,8.767729,56.832739
615551,Ole Jacobsensvej,7950,4,8.7144293,56.8327502
615552,Ole Jacobsensvej,7950,6,8.7149026,56.8326466
615601,Paradisvej,7950,1,8.7539384,56.8284854
615602,Paradisvej,7950,2,8.7532947,56.8284217
615603,Paradisvej,7950,4,8.7530188,56.8284798
615604,Paradisvej,7950,6,8.7527586,56.8285339
615605,Paradisvej,7950,8,8.7524834,56.828591
615606,Paradisvej,7950,10,8.752179,56.828647
615607,Paradisvej,7950,14,8.7516445,56.8287258
615608,Paradisvej,7950,15,8.7536168,56.8259218
615609,Paradisvej,7950,16,8.752723,56.827687
615734,Plejdrupvej,7950,1,8.711622,56.8341456
615735,Plejdrupvej,7950,2,8.7110372,56.8336628
615736,Plejdrupvej,7950,3,8.7119909,56.8340216
615737,Plejdrupvej,7950,5,8.712377,56.8338721
615738,Plejdrupvej,7950,7,8.7127727,56.8336648
615739,Plejdrupvej,7950,8,8.7116422,56.8336941
615740,Plejdrupvej,7950,9,8.7130118,56.8339506
615741,Plejdrupvej,7950,10,8.7114723,56.8335312
615742,Plejdrupvej,7950,12,8.7117568,56.8335137
615743,Plejdrupvej,7950,14,8.7116315,56.8333749
615744,Plejdrupvej,7950,15,8.7134465,56.8337837
615745,Plejdrupvej,7950,16,8.7114423,56.8332401
615746,Plejdrupvej,7950,17,8.7131057,56.8336078
615747,Plejdrupvej,7950,18,8.711144,56.833172
615748,Plejdrupvej,7950,19,8.7130157,56.8333486
615749,Plejdrupvej,7950,20,8.7123993,56.833314
615750,Plejdrupvej,7950,21,8.7127717,56.8330863
615751,Plejdrupvej,7950,22,8.712221,56.8330914
615752,Plejdrupvej,7950,24,8.7120097,56.8329152
615753,Plejdrupvej,7950,25,8.7127159,56.8327938
615754,Plejdrupvej,7950,26,8.7115027,56.8328771
615755,Plejdrupvej,7950,28,8.7119345,56.8325642
615756,Plejdrupvej,7950,29,8.7124457,56.8322365
615757,Poppelvænget,7950,3,8.7487935,56.8296207
615758,Poppelvænget,7950,4,8.7478276,56.8298959
615759,Poppelvænget,7950,5,8.7482181,56.8296168
615760,Poppelvænget,7950,6,8.7474188,56.8298967
615761,Poppelvænget,7950,7,8.7477648,56.8296411
615762,Poppelvænget,7950,8,8.7467432,56.8299125
615763,Poppelvænget,7950,9,8.7472116,56.8296568
615764,Poppelvænget,7950,10,8.7469709,56.8299497
615765,Poppelvænget,7950,11,8.7466553,56.8297133
615797,Poulsen Dalsvej,7950,3,8.717896,56.8367101
615798,Poulsen Dalsvej,7950,4,8.7191699,56.8369554
615799,Poulsen Dalsvej,7950,5,8.7180445,56.836879
615800,Poulsen Dalsvej,7950,6,8.7184923,56.8368305
615801,Poulsen Dalsvej,7950,7,8.7183499,56.8373695
615802,Poulsen Dalsvej,7950,8,8.7184856,56.8370222
615803,Poulsen Dalsvej,7950,9A,8.718519,56.837521
615804,Poulsen Dalsvej,7950,9B,8.7185405,56.8376141
615805,Poulsen Dalsvej,7950,11,8.7186286,56.8378246
615806,Poulsen Dalsvej,7950,12B,8.7247573,56.8395397
615807,Poulsen Dalsvej,7950,13,8.7186793,56.8380117
615808,Poulsen Dalsvej,7950,14,8.7216077,56.8386188
615809,Poulsen Dalsvej,7950,15,8.718372,56.838041
615810,Poulsen Dalsvej,7950,17,8.7179072,56.8394481
615811,Poulsen Dalsvej,7950,17A,8.7182207,56.8383622
615812,Poulsen Dalsvej,7950,17B,8.7174429,56.8390461
615813,Poulsen Dalsvej,7950,17C,8.7190561,56.8389361
615814,Poulsen Dalsvej,7950,17D,8.7184943,56.8391144
615815,Poulsen Dalsvej,7950,18,8.7227176,56.8417318
615816,Poulsen Dalsvej,7950,19,8.7190969,56.8405611
615892,Præstbrovej,7950,28,8.777162,56.824399
615893,Præstbrovej,7950,32,8.775651,56.824914
615894,Præstbrovej,7950,34,8.774431,56.824949
615895,Præstbrovej,7950,36,8.773778,56.82509
615896,Præstbrovej,7950,37,8.773346,56.824934
615897,Præstbrovej,7950,37A,8.773458,56.824941
615898,Præstbrovej,7950,40,8.772437,56.82568
615899,Præstbrovej,7950,42,8.771359,56.825994
615900,Præstbrovej,7950,43,8.770024,56.826067
615901,Præstbrovej,7950,46,8.768413,56.827168
615902,Præstbrovej,7950,47,8.768391,56.826459
615903,Præstbrovej,7950,48,8.76841,56.826793
615904,Præstbrovej,7950,52,8.767013,56.826948
615905,Præstbrovej,7950,68,8.7630563,56.8273444
615906,Præstbrovej,7950,69,8.7653,56.826773
615907,Præstbrovej,7950,80,8.759833,56.827508
615908,Præstbrovej,7950,81,8.7595136,56.8272629
615909,Præstbrovej,7950,82,8.759064,56.827708
615910,Præstbrovej,7950,83,8.758548,56.827383
615911,Præstbrovej,7950,84,8.758358,56.827695
615912,Præstbrovej,7950,86,8.757995,56.827707
615913,Præstbrovej,7950,88,8.757732,56.827757
615914,Præstbrovej,7950,90,8.757462,56.827832
615915,Præstbrovej,7950,92,8.75724,56.82786
615916,Præstbrovej,7950,94,8.757036,56.82791
615917,Præstbrovej,7950,96,8.7568232,56.8279534
615918,Præstbrovej,7950,98,8.756617,56.828009
615919,Præstbrovej,7950,99,8.755355,56.827173
615920,Præstbrovej,7950,100,8.756407,56.828077
615921,Præstbrovej,7950,102,8.756207,56.828184
615922,Præstbrovej,7950,104,8.755984,56.828278
615923,Præstbrovej,7950,106,8.755647,56.828514
615924,Præstbrovej,7950,107,8.755243,56.828322
615925,Præstbrovej,7950,109,8.754901,56.82855
615926,Præstbrovej,7950,110,8.754466,56.829037
615927,Præstbrovej,7950,111,8.754613,56.828694
615928,Præstbrovej,7950,112,8.754186,56.829095
615929,Præstbrovej,7950,113,8.75425,56.828715
615930,Præstbrovej,7950,114,8.753967,56.829166
615931,Præstbrovej,7950,115,8.753854,56.82894
615932,Præstbrovej,7950,116,8.753692,56.829217
615933,Præstbrovej,7950,117,8.753533,56.828975
615934,Præstbrovej,7950,118,8.753435,56.82938
615935,Præstbrovej,7950,119,8.7524535,56.828928
615936,Præstbrovej,7950,120,8.753142,56.829323
615937,Præstbrovej,7950,121,8.7532033,56.8290387
615938,Præstbrovej,7950,122,8.752702,56.829367
615939,Præstbrovej,7950,123,8.752974,56.829063
615940,Præstbrovej,7950,124,8.7524,56.829416
615941,Præstbrovej,7950,125,8.752682,56.829093
615942,Præstbrovej,7950,126,8.752017,56.829526
615943,Præstbrovej,7950,127,8.7522157,56.8291115
615944,Præstbrovej,7950,130,8.7510979,56.8297302
615945,Præstbrovej,7950,131,8.75171,56.82904
615946,Præstbrovej,7950,132,8.750767,56.829796
615947,Præstbrovej,7950,134,8.750392,56.829871
615948,Præstbrovej,7950,135,8.751328,56.828835
615949,Præstbrovej,7950,136,8.750067,56.829943
615950,Præstbrovej,7950,137,8.7507183,56.8281656
615951,Præstbrovej,7950,138,8.750086,56.83014
615952,Præstbrovej,7950,139,8.7498076,56.828503
615953,Præstbrovej,7950,140,8.749722,56.830179
615954,Præstbrovej,7950,141,8.751207,56.829365
615955,Præstbrovej,7950,143,8.7508592,56.829448
615956,Præstbrovej,7950,144,8.748832,56.830227
615957,Præstbrovej,7950,145,8.750522,56.829533
615958,Præstbrovej,7950,146,8.748316,56.830342
615959,Præstbrovej,7950,147,8.750246,56.829603
615960,Præstbrovej,7950,148,8.7480917,56.8303509
615961,Præstbrovej,7950,149,8.750031,56.829658
615962,Præstbrovej,7950,150,8.747894,56.830395
615963,Præstbrovej,7950,151,8.750109,56.829206
615964,Præstbrovej,7950,152,8.747643,56.830398
615965,Præstbrovej,7950,153,8.7496115,56.8295088
615966,Præstbrovej,7950,154,8.747446,56.830412
615967,Præstbrovej,7950,155,8.749645,56.829821
615968,Præstbrovej,7950,157,8.749362,56.829893
615969,Præstbrovej,7950,158,8.7471597,56.8304353
615970,Præstbrovej,7950,160,8.746918,56.830444
615971,Præstbrovej,7950,162,8.74665,56.83046
615972,Præstbrovej,7950,163,8.748609,56.830085
615973,Præstbrovej,7950,164A,8.746569,56.830467
615974,Præstbrovej,7950,166,8.745857,56.830515
615975,Præstbrovej,7950,167,8.74815,56.83012
615976,Præstbrovej,7950,168,8.745507,56.8305584
615977,Præstbrovej,7950,170,8.7452682,56.8305924
615978,Præstbrovej,7950,171,8.747829,56.830157
615979,Præstbrovej,7950,172,8.745034,56.830636
615980,Præstbrovej,7950,173,8.747377,56.830164
615981,Præstbrovej,7950,174,8.74481,56.830674
615982,Præstbrovej,7950,175,8.747097,56.830175
615983,Præstbrovej,7950,176,8.744538,56.830733
615984,Præstbrovej,7950,177,8.7468349,56.8301931
615985,Præstbrovej,7950,178,8.7437049,56.8308709
615986,Præstbrovej,7950,179,8.7464591,56.8302211
615987,Præstbrovej,7950,180,8.743798,56.832719
615988,Præstbrovej,7950,181,8.74609,56.83026
615989,Præstbrovej,7950,183,8.7455844,56.8302711
615990,Præstbrovej,7950,185,8.745345,56.83032
615991,Præstbrovej,7950,186,8.741724,56.831313
615992,Præstbrovej,7950,187,8.745053,56.8304252
615993,Præstbrovej,7950,188,8.740764,56.833611
615994,Præstbrovej,7950,189,8.744533,56.830484
615995,Præstbrovej,7950,190,8.741138,56.831566
615996,Præstbrovej,7950,191,8.744083,56.830519
615997,Præstbrovej,7950,193,8.740454,56.831335
615998,Præstbrovej,7950,200,8.739235,56.831951
615999,Præstbrovej,7950,225,8.730991,56.833128
616000,Præstbrovej,7950,230,8.729328,56.833944
616001,Præstbrovej,7950,232,8.728635,56.8342
616002,Præstbrovej,7950,233,8.729504,56.833536
616003,Præstbrovej,7950,233A,8.728359,56.833422
616004,Præstbrovej,7950,235,8.728162,56.833991
616005,Præstbrovej,7950,236,8.728522,56.83651
616006,Præstbrovej,7950,237,8.727904,56.83406
616007,Præstbrovej,7950,238,8.728035,56.83449
616008,Præstbrovej,7950,239,8.727619,56.834127
616009,Præstbrovej,7950,240,8.726947,56.834626
616010,Præstbrovej,7950,241,8.7273,56.834203
616011,Præstbrovej,7950,243,8.726921,56.834283
616012,Præstbrovej,7950,245,8.726528,56.834361
616013,Præstbrovej,7950,246,8.726342,56.834742
616014,Præstbrovej,7950,247,8.7260728,56.834197
616015,Præstbrovej,7950,248,8.726064,56.834883
616016,Præstbrovej,7950,249,8.725801,56.834502
616017,Præstbrovej,7950,250,8.725662,56.834934
616018,Præstbrovej,7950,251,8.725302,56.834611
616019,Præstbrovej,7950,252,8.725217,56.834984
616020,Præstbrovej,7950,253,8.72477,56.834796
616021,Præstbrovej,7950,254,8.724811,56.835029
616022,Præstbrovej,7950,256,8.7243548,56.8351368
616023,Præstbrovej,7950,257,8.7240911,56.8347398
616024,Præstbrovej,7950,260,8.7240052,56.835248
616025,Præstbrovej,7950,261,8.7233691,56.8347046
616026,Præstbrovej,7950,262,8.723534,56.835294
616027,Præstbrovej,7950,263,8.723504,56.8349398
616028,Præstbrovej,7950,265,8.7232237,56.8350158
616029,Præstbrovej,7950,267,8.7229613,56.8350997
616030,Præstbrovej,7950,269,8.7226464,56.8351547
616031,Præstbrovej,7950,271,8.7223672,56.8352083
616032,Præstbrovej,7950,272,8.7232735,56.8353244
616033,Præstbrovej,7950,273,8.7219968,56.8352186
616034,Præstbrovej,7950,274,8.722947,56.835353
616035,Præstbrovej,7950,276,8.7226345,56.8354785
616036,Præstbrovej,7950,277,8.7215547,56.8353145
616037,Præstbrovej,7950,279,8.7213645,56.8354368
616038,Præstbrovej,7950,281,8.7211175,56.8354754
616039,Præstbrovej,7950,282,8.722312,56.8355853
616040,Præstbrovej,7950,283,8.7207877,56.8355269
616041,Præstbrovej,7950,285,8.720397,56.8356006
616042,Præstbrovej,7950,286,8.7220422,56.835573
616043,Præstbrovej,7950,287,8.7199068,56.8356822
616044,Præstbrovej,7950,288,8.7216207,56.8357219
616045,Præstbrovej,7950,290,8.7213535,56.8357958
616046,Præstbrovej,7950,291,8.718488,56.8358043
616047,Præstbrovej,7950,292,8.7210117,56.83589
616048,Præstbrovej,7950,296A,8.7202749,56.8361027
616049,Præstbrovej,7950,296B,8.7204611,56.8361197
616050,Præstbrovej,7950,296C,8.7205383,56.836097
616051,Præstbrovej,7950,296D,8.7205719,56.8361163
616052,Præstbrovej,7950,296E,8.7207903,56.8362227
616053,Præstbrovej,7950,296F,8.7207559,56.8361763
616054,Præstbrovej,7950,296G,8.7207241,56.836133
616055,Præstbrovej,7950,296H,8.7205313,56.8359623
616056,Præstbrovej,7950,298,8.7197498,56.8361001
616057,Præstbrovej,7950,304,8.719452,56.8361876
616058,Præstbrovej,7950,306,8.7192784,56.8362361
616059,Præstbrovej,7950,308,8.7190672,56.8362265
616060,Præstbrovej,7950,310,8.7187827,56.8362703
616061,Præstbrovej,7950,311,8.7181922,56.8360206
616062,Præstbrovej,7950,312,8.7184311,56.836334
616063,Præstbrovej,7950,313,8.717873,56.836228
616064,Præstbrovej,7950,314,8.7182241,56.8363544
616065,Præstbrovej,7950,315,8.7175977,56.8362698
616066,Præstbrovej,7950,316,8.7176524,56.836444
616067,Præstbrovej,7950,317,8.7173764,56.8362995
616068,Præstbrovej,7950,318,8.717347,56.8364756
616069,Præstbrovej,7950,318A,8.7172763,56.836463
616070,Præstbrovej,7950,319,8.7170903,56.836335
616071,Præstbrovej,7950,321,8.716543,56.8364053
616072,Præstbrovej,7950,322,8.7169344,56.8365357
616073,Præstbrovej,7950,324,8.7167564,56.8365568
616074,Præstbrovej,7950,325,8.716361,56.836428
616075,Præstbrovej,7950,326,8.7160979,56.8370669
616076,Præstbrovej,7950,327,8.7161991,56.8364544
616077,Præstbrovej,7950,328,8.7159691,56.8366939
616078,Præstbrovej,7950,329,8.7159522,56.8364894
616079,Præstbrovej,7950,330,8.7156742,56.8367437
616080,Præstbrovej,7950,330A,8.715466,56.836887
616081,Præstbrovej,7950,331,8.7156969,56.8365234
616082,Præstbrovej,7950,332A,8.7150297,56.8368156
616083,Præstbrovej,7950,332B,8.7150405,56.8368619
616084,Præstbrovej,7950,332C,8.7150588,56.8369096
616085,Præstbrovej,7950,333,8.7154216,56.8365581
616086,Præstbrovej,7950,335,8.7151878,56.8365862
616087,Præstbrovej,7950,336,8.7145177,56.8369183
616088,Præstbrovej,7950,337,8.7149062,56.8366184
616089,Præstbrovej,7950,338,8.7142638,56.8369659
616090,Præstbrovej,7950,340,8.7139628,56.8370394
616091,Præstbrovej,7950,341,8.7141501,56.836703
616092,Præstbrovej,7950,342,8.7136705,56.8370367
616093,Præstbrovej,7950,343,8.713845,56.836713
616094,Præstbrovej,7950,345,8.7136701,56.8367465
616095,Præstbrovej,7950,346,8.7127034,56.8371071
616096,Præstbrovej,7950,347,8.712774,56.8364494
616097,Præstbrovej,7950,350,8.7116253,56.8372317
616098,Præstbrovej,7950,351,8.7120091,56.8369008
616099,Præstbrovej,7950,352,8.7112496,56.8372336
616100,Præstbrovej,7950,353,8.711505,56.8369505
616101,Præstbrovej,7950,354,8.7110313,56.8373028
616102,Præstbrovej,7950,355,8.7110797,56.8369767
616103,Præstbrovej,7950,356,8.7107442,56.837372
616104,Præstbrovej,7950,357,8.7106525,56.8370025
616105,Præstbrovej,7950,358,8.7104941,56.8374582
616106,Præstbrovej,7950,362,8.7101391,56.8374947
616107,Præstbrovej,7950,364,8.709389,56.837575
616108,Præstbrovej,7950,370,8.7087894,56.8407474
616109,Præstbrovej,7950,372,8.7086352,56.8408948
616110,Præstbrovej,7950,373,8.7061031,56.8384262
616111,Præstbrovej,7950,375,8.7049284,56.8382464
616112,Præstbrovej,7950,377,8.7056488,56.8388023
616113,Præstbrovej,7950,378,8.7064561,56.8439206
616162,Rebslagervej,7950,1,8.7005867,56.845413
616163,Rebslagervej,7950,4,8.699298,56.84563
616164,Rebslagervej,7950,6,8.6988348,56.8456263
616165,Rebslagervej,7950,8,8.698943,56.8452524
616166,Rebslagervej,7950,10,8.692814,56.844731
616167,Rebslagervej,7950,12,8.6985533,56.8446424
616168,Rebslagervej,7950,14,8.6984158,56.8444114
616169,Rebslagervej,7950,15,8.6970349,56.8419147
616170,Rebslagervej,7950,20,8.6964932,56.8419061
616171,Rebslagervej,7950,22,8.6952849,56.8403313
616172,Rebslagervej,7950,23,8.696805,56.8393112
616173,Rebslagervej,7950,24,8.6933442,56.8401091
616174,Rebslagervej,7950,25,8.6967613,56.8390724
616175,Rebslagervej,7950,26,8.6964584,56.8391814
616176,Rebslagervej,7950,28,8.6964728,56.8389592
616583,Rovvigen,7950,3,8.6514137,56.8255684
616584,Rovvigen,7950,4,8.651196,56.8252619
616585,Rovvigen,7950,5,8.6517203,56.8253344
616586,Rovvigen,7950,6,8.6512822,56.8249763
616587,Rovvigen,7950,7,8.6517605,56.8249788
617056,Skelhøj,7950,1,8.6608036,56.877095
617057,Skelhøj,7950,2,8.6610659,56.8772671
617058,Skelhøj,7950,3,8.6604713,56.8771576
617059,Skelhøj,7950,4,8.6607965,56.8773901
617060,Skelhøj,7950,5,8.6601495,56.8772663
617061,Skelhøj,7950,6,8.6604537,56.8775033
617062,Skelhøj,7950,7,8.6597778,56.8773913
617063,Skelhøj,7950,8,8.6600794,56.8775778
617064,Skelhøj,7950,9,8.6594986,56.8774863
617065,Skelhøj,7950,10,8.6596722,56.8777607
617066,Skelhøj,7950,11,8.6591522,56.8775881
617067,Skelhøj,7950,12,8.6594324,56.8778584
617068,Skelhøj,7950,14A,8.6617813,56.8770494
617069,Skelhøj,7950,14B,8.6618233,56.8771231
617070,Skelhøj,7950,14C,8.6618633,56.8771964
617071,Skelhøj,7950,16A,8.6621874,56.8769758
617072,Skelhøj,7950,16B,8.6622298,56.8770502
617073,Skelhøj,7950,16C,8.6622697,56.8771229
617074,Skelhøj,7950,18A,8.6625296,56.8768501
617075,Skelhøj,7950,18B,8.6625714,56.8769249
617076,Skelhøj,7950,18C,8.6626108,56.8769973
617077,Skelhøj,7950,20A,8.662871,56.876724
617078,Skelhøj,7950,20B,8.6629124,56.8767975
617079,Skelhøj,7950,20C,8.6629516,56.8768702
617080,Skelhøj,7950,22A,8.66257,56.876465
617081,Skelhøj,7950,22B,8.662421,56.876505
617082,Skelhøj,7950,24A,8.6621439,56.87648
617083,Skelhøj,7950,24B,8.6620215,56.8765209
617084,Skelhøj,7950,26A,8.6619386,56.8766553
617085,Skelhøj,7950,26B,8.6618084,56.8767002
617086,Skelhøj,7950,28A,8.6615085,56.8766771
617087,Skelhøj,7950,28B,8.661382,56.8767137
617088,Skelhøj,7950,30A,8.661223,56.876785
617089,Skelhøj,7950,30B,8.6612909,56.8768446
617141,Skolebakken,7950,1,8.6726846,56.8753217
617142,Skolebakken,7950,2,8.673151,56.875316
617143,Skolebakken,7950,3,8.6725283,56.8755929
617144,Skolebakken,7950,4,8.6731009,56.8756532
617145,Skolebakken,7950,6,8.6732026,56.8758577
617146,Skolebakken,7950,7,8.6725793,56.8759389
617147,Skolebakken,7950,8,8.6731751,56.8761191
617148,Skolebakken,7950,9,8.6727361,56.8761407
617149,Skolebakken,7950,10,8.673388,56.876394
617150,Skolebakken,7950,11,8.6728186,56.8763941
617151,Skolebakken,7950,13,8.6728394,56.8767556
617152,Skolebakken,7950,15,8.6728272,56.8770266
617153,Skolebakken,7950,17,8.6725959,56.8772018
617154,Skolebakken,7950,21,8.6714061,56.8770312
617155,Skolebakken,7950,23,8.671812,56.877244
617156,Skolebakken,7950,27,8.6728471,56.8774684
617157,Skolebakken,7950,29,8.6722192,56.8775236
617158,Skolebakken,7950,31,8.6719345,56.8776802
617159,Skolebakken,7950,33,8.672534,56.877666
617160,Skolebakken,7950,35,8.6729945,56.8777825
617161,Skolebakken,7950,37,8.6713753,56.8775876
617162,Skolebakken,7950,39,8.6704231,56.8778343
617163,Skolebakken,7950,45,8.6727847,56.8784924
617164,Skolebakken,7950,51,8.673026,56.8807535
617165,Skolebakken,7950,57,8.6797932,56.8854049
617166,Skolebakken,7950,60,8.6737277,56.8773802
617167,Skolebakken,7950,61,8.6734951,56.8777399
617168,Skolebakken,7950,63,8.6740056,56.8777212
617169,Skolebakken,7950,64,8.6760357,56.8770396
617170,Skolebakken,7950,65,8.6743875,56.877655
617171,Skolebakken,7950,67,8.6747151,56.877769
617172,Skolebakken,7950,69,8.6752709,56.8777087
617210,Skolevænget,7950,4,8.6602976,56.8491804
617211,Skolevænget,7950,4A,8.6606143,56.8494588
617212,Skolevænget,7950,12,8.6616389,56.8510803
617213,Skolevænget,7950,13,8.6627362,56.8506431
617495,Smedevej,7950,4,8.6701746,56.8748808
617496,Smedevej,7950,6,8.6699364,56.8742842
617552,Solbjerghedevej,7950,4,8.6781993,56.8443093
617553,Solbjerghedevej,7950,6,8.6773029,56.8452677
617554,Solbjerghedevej,7950,10,8.6787136,56.8479936
617555,Solbjerghedevej,7950,13,8.6757299,56.8485236
617556,Solbjerghedevej,7950,14,8.6789621,56.8518148
617557,Solbjerghedevej,7950,16,8.6754443,56.8522381
617558,Solbjerghedevej,7950,20,8.6738597,56.856234
617559,Solbjerghedevej,7950,21,8.6703443,56.8544922
617560,Solbjerghedevej,7950,25,8.6652572,56.8542835
617561,Solbjerghedevej,7950,27,8.6708835,56.8583366
617562,Solbjerghedevej,7950,31,8.6718331,56.8593345
617563,Solbjerghedevej,7950,34,8.6727028,56.859831
617564,Solbjerghedevej,7950,37,8.6723507,56.8604599
617565,Solbjergkær,7950,3,8.7002515,56.8478201
617566,Solbjergkær,7950,5,8.7007678,56.847836
617567,Solbjergkær,7950,11,8.7048339,56.8492539
617568,Solbjergkær,7950,13,8.7070373,56.8505003
617569,Solbjergkær,7950,14,8.7090537,56.8495089
617701,Stenholten,7950,1,8.750963,56.831623
617702,Stenholten,7950,3,8.751033,56.831927
617703,Stenholten,7950,4,8.74974,56.831468
617704,Stenholten,7950,5,8.750461,56.831909
617705,Stenholten,7950,9,8.749622,56.832095
617706,Stenholten,7950,18,8.747006,56.833765
617707,Stenholten,7950,19,8.747627,56.833713
617708,Stenholten,7950,21,8.748041,56.834136
617709,Stenholten,7950,22,8.747026,56.834182
617710,Stenholten,7950,24,8.747196,56.834658
617711,Stenholten,7950,26,8.747241,56.834986
617712,Stenhøjvej,7950,6,8.7539203,56.8611969
617713,Stenhøjvej,7950,8,8.7481328,56.8602521
617714,Stenhøjvej,7950,9,8.747075,56.8597411
617715,Stenhøjvej,7950,11,8.7453774,56.8606727
617716,Stenhøjvej,7950,13,8.7425899,56.8593677
617717,Stenhøjvej,7950,15,8.7436374,56.8617399
617718,Stenhøjvej,7950,17,8.7427666,56.8624255
617719,Stenhøjvej,7950,18,8.7434202,56.8627486
617720,Stenhøjvej,7950,23,8.7389026,56.8658215
617907,Sundbyvej,7950,2,8.6801974,56.8683384
617908,Sundbyvej,7950,4,8.682143,56.8693752
617909,Sundbyvej,7950,5,8.6775333,56.8712198
617910,Sundbyvej,7950,6,8.6781477,56.8714956
617911,Sundbyvej,7950,8,8.6815954,56.8706142
617912,Sundbyvej,7950,12,8.6778327,56.8723638
617913,Sundbyvej,7950,14,8.6777946,56.8726737
617914,Sundbyvej,7950,15,8.677241,56.87266
617915,Sundbyvej,7950,16,8.6777287,56.8730322
617916,Sundbyvej,7950,17,8.6772577,56.8728742
617917,Sundbyvej,7950,18,8.6776483,56.8733392
617918,Sundbyvej,7950,19,8.6769059,56.8730697
617919,Sundbyvej,7950,21,8.6768601,56.8732862
617920,Sundbyvej,7950,21B,8.6759027,56.8731666
617921,Sundbyvej,7950,22,8.6768623,56.8738289
617922,Sundbyvej,7950,23,8.6764425,56.8735349
617923,Sundbyvej,7950,24,8.6763528,56.873987
617924,Sundbyvej,7950,25,8.6762109,56.8736442
617925,Sundbyvej,7950,26,8.6757265,56.8741852
617926,Sundbyvej,7950,27,8.6759351,56.87372
617927,Sundbyvej,7950,28,8.6754436,56.8742152
617928,Sundbyvej,7950,29,8.675355,56.873712
617929,Sundbyvej,7950,30,8.6751339,56.8743252
617930,Sundbyvej,7950,31,8.6751184,56.8737622
617931,Sundbyvej,7950,32,8.6749569,56.8743936
617932,Sundbyvej,7950,33,8.6752245,56.8739374
617933,Sundbyvej,7950,34,8.6746617,56.874494
617934,Sundbyvej,7950,35,8.6749776,56.8740737
617935,Sundbyvej,7950,36,8.6743291,56.8747037
617936,Sundbyvej,7950,37,8.6747985,56.8741219
617937,Sundbyvej,7950,38,8.6740575,56.8747948
617938,Sundbyvej,7950,39,8.674547,56.874208
617939,Sundbyvej,7950,40,8.6738503,56.8749198
617940,Sundbyvej,7950,41,8.6738466,56.87399
617941,Sundbyvej,7950,42,8.673482,56.8750532
617942,Sundbyvej,7950,43,8.6734893,56.8740843
617943,Sundbyvej,7950,45,8.6741678,56.8743564
617944,Sundbyvej,7950,47,8.6735422,56.87445
617945,Sundbyvej,7950,48,8.6722565,56.8753252
617946,Sundbyvej,7950,50,8.6717365,56.8755391
617947,Sundbyvej,7950,51,8.6731007,56.8747288
617948,Sundbyvej,7950,52,8.6712214,56.8759051
617949,Sundbyvej,7950,53,8.6723881,56.8748471
617950,Sundbyvej,7950,54,8.6710333,56.8754853
617951,Sundbyvej,7950,55,8.671873,56.8750866
617952,Sundbyvej,7950,56,8.6706998,56.8755875
617953,Sundbyvej,7950,57,8.671506,56.8751599
617954,Sundbyvej,7950,58,8.6702844,56.8756836
617955,Sundbyvej,7950,59,8.6712237,56.8752151
617956,Sundbyvej,7950,60,8.6699773,56.8757822
617957,Sundbyvej,7950,61,8.670935,56.8752732
617958,Sundbyvej,7950,62,8.6695578,56.8757974
617959,Sundbyvej,7950,63,8.670578,56.8753352
617960,Sundbyvej,7950,65,8.6697894,56.8754412
617961,Sundbyvej,7950,66,8.668665,56.8759989
617962,Sundbyvej,7950,67,8.6691851,56.8755722
617963,Sundbyvej,7950,68,8.66833,56.8760667
617964,Sundbyvej,7950,69,8.6687804,56.8755794
617965,Sundbyvej,7950,70,8.6680505,56.8761189
617966,Sundbyvej,7950,71,8.6682389,56.8757524
617967,Sundbyvej,7950,72,8.6677528,56.8761408
617968,Sundbyvej,7950,73,8.6679864,56.8758141
617969,Sundbyvej,7950,74,8.667479,56.8762299
617970,Sundbyvej,7950,75,8.6676709,56.8758912
617971,Sundbyvej,7950,76,8.6671891,56.876285
617972,Sundbyvej,7950,77,8.6673057,56.875974
617973,Sundbyvej,7950,78,8.666899,56.8763559
617974,Sundbyvej,7950,80,8.6666409,56.8764706
617975,Sundbyvej,7950,82,8.6676824,56.8779229
617976,Sundbyvej,7950,85,8.6651621,56.8763691
617977,Sundbyvej,7950,86,8.6645121,56.8768517
617978,Sundbyvej,7950,87,8.6644531,56.8764806
617979,Sundbyvej,7950,89,8.664085,56.8765454
617980,Sundbyvej,7950,90,8.6637151,56.8769342
617981,Sundbyvej,7950,91,8.6636551,56.876621
617982,Sundbyvej,7950,92,8.6635104,56.8769691
617983,Sundbyvej,7950,93,8.6634646,56.8766781
617984,Sundbyvej,7950,94,8.6633274,56.8770206
617985,Sundbyvej,7950,95,8.6633028,56.8767274
617986,Sundbyvej,7950,96,8.6629833,56.8771398
617987,Sundbyvej,7950,98,8.6626486,56.8772857
617988,Sundbyvej,7950,100,8.662206,56.8774577
617989,Sundbyvej,7950,102,8.661851,56.8775749
617990,Sundbyvej,7950,104,8.6617059,56.8776547
617991,Sundbyvej,7950,106,8.661506,56.8777206
617992,Sundbyvej,7950,108,8.6613451,56.8777693
617993,Sundbyvej,7950,110,8.6603784,56.8780244
617994,Sundbyvej,7950,120,8.6595071,56.8782541
617995,Sundbyvej,7950,121,8.6590941,56.8780122
617996,Sundbyvej,7950,122,8.6592458,56.8783147
617997,Sundbyvej,7950,124,8.6590111,56.8783716
617998,Sundbyvej,7950,126,8.6604111,56.8785263
617999,Sundbyvej,7950,128,8.6610181,56.8786137
618000,Sundbyvej,7950,132,8.6620337,56.8783658
618001,Sundbyvej,7950,136,8.6615977,56.8786973
618002,Sundbyvej,7950,138,8.658833,56.878746
618003,Sundbyvej,7950,140,8.6579789,56.8787324
618004,Sundbyvej,7950,141,8.6574522,56.8785891
618005,Sundbyvej,7950,142,8.6575941,56.8789126
618006,Sundbyvej,7950,144,8.6572414,56.8789985
618007,Sundbyvej,7950,146,8.6569477,56.8790458
618008,Sundbyvej,7950,147,8.6563519,56.8789394
618009,Sundbyvej,7950,148,8.6565797,56.8792266
618010,Sundbyvej,7950,150,8.6556868,56.8793737
618011,Sundbyvej,7950,151,8.6559065,56.8790547
618012,Sundbyvej,7950,153,8.6551509,56.8791421
618013,Sundbyvej,7950,154,8.6552487,56.8798584
618014,Sundbyvej,7950,155,8.6547587,56.8793077
618015,Sundbyvej,7950,156,8.6568178,56.8811126
618016,Sundbyvej,7950,157,8.654496,56.879366
618017,Sundbyvej,7950,158,8.6576743,56.8806711
618018,Sundbyvej,7950,159,8.6541784,56.8794073
618019,Sundbyvej,7950,161,8.653841,56.879445
618020,Sundbyvej,7950,164,8.6543977,56.8796271
618021,Sundbyvej,7950,166,8.6539781,56.8800963
618022,Sundbyvej,7950,172,8.65281,56.87989
618023,Sundbyvej,7950,174,8.6524403,56.8799316
618024,Sundbyvej,7950,174A,8.6521569,56.8801274
618025,Sundbyvej,7950,175,8.6527213,56.8796376
618026,Sundbyvej,7950,176,8.6509734,56.880369
618027,Sundbyvej,7950,176A,8.6515086,56.8803919
618028,Sundbyvej,7950,177,8.6524572,56.8796848
618029,Sundbyvej,7950,179,8.6521036,56.8797206
618030,Sundbyvej,7950,180,8.6512651,56.8800869
618031,Sundbyvej,7950,181,8.6517214,56.8797981
618032,Sundbyvej,7950,182,8.6509893,56.880118
618033,Sundbyvej,7950,183,8.6512946,56.8797781
618034,Sundbyvej,7950,184,8.6504903,56.8802116
618035,Sundbyvej,7950,185,8.650972,56.879926
618036,Sundbyvej,7950,186,8.6502796,56.880357
618037,Sundbyvej,7950,188,8.6495959,56.8804831
618038,Sundbyvej,7950,190,8.6490413,56.8805745
618039,Sundbyvej,7950,191,8.6485423,56.8803389
618040,Sundbyvej,7950,192,8.6484961,56.8805434
618041,Sundbyvej,7950,194,8.648262,56.88059
618042,Sundbyvej,7950,196,8.6477471,56.8806938
618043,Sundbyvej,7950,198,8.6474269,56.8808108
618044,Sundbyvej,7950,200,8.6470718,56.8809412
618045,Sundbyvej,7950,202,8.6467649,56.8810549
618046,Sundbyvej,7950,204,8.6463585,56.8810532
618047,Sundbyvej,7950,205,8.6460137,56.8807902
618048,Sundbyvej,7950,210,8.6451342,56.8814151
618049,Sundbyvej,7950,211,8.6439915,56.8812908
618050,Sundbyvej,7950,213,8.6435951,56.8813633
618051,Sundbyvej,7950,214,8.643394,56.881834
618052,Sundbyvej,7950,215,8.6425226,56.8816251
618053,Sundbyvej,7950,216,8.6427441,56.8823158
618054,Sundbyvej,7950,218,8.641767,56.882289
618055,Sundbyvej,7950,220,8.6420492,56.8832146
618056,Sundbyvej,7950,222,8.640848,56.8829392
618057,Sundbyvej,7950,224,8.6404881,56.8832182
618058,Sundbyvej,7950,226,8.6402231,56.8834154
618059,Sundbyvej,7950,228,8.6400596,56.8835413
618060,Sundbyvej,7950,230,8.6398682,56.8836578
618061,Sundbyvej,7950,232,8.639625,56.8838399
618062,Sundbyvej,7950,234,8.6393535,56.8839789
618063,Sundbyvej,7950,236,8.6392373,56.8841081
618064,Sundbyvej,7950,237,8.6385617,56.8840476
618065,Sundbyvej,7950,238,8.638611,56.884531
618066,Svaleklitvej,7950,6,8.7288342,56.889828
618067,Svaleklitvej,7950,7,8.7251092,56.8884934
618068,Svaleklitvej,7950,8,8.721767,56.889124
618069,Svaleklitvej,7950,9,8.7195925,56.8875919
618070,Svaleklitvej,7950,10,8.715132,56.8867942
618071,Svaleklitvej,7950,11,8.7198106,56.8858825
618249,Søndermarksvej,7950,3,8.6745377,56.867299
618250,Søndermarksvej,7950,5,8.6659946,56.8684651
618275,Søndervej,7950,3,8.7168919,56.8361659
618276,Søndervej,7950,4,8.7167238,56.8363161
618277,Søndervej,7950,5,8.7168447,56.836067
618278,Søndervej,7950,6,8.7164921,56.8359408
618279,Søndervej,7950,7,8.7167616,56.8359064
618280,Søndervej,7950,8,8.7164323,56.835822
618281,Søndervej,7950,9,8.7166444,56.8355468
618282,Søndervej,7950,11,8.7165313,56.8352865
618283,Søndervej,7950,12,8.7162667,56.83549
618284,Søndervej,7950,15,8.7162289,56.8347673
618285,Søndervej,7950,16,8.7159542,56.8349043
618286,Søndervej,7950,17,8.7163954,56.8345261
618287,Søndervej,7950,18,8.7159023,56.8347444
618288,Søndervej,7950,19,8.7160257,56.8345033
618289,Søndervej,7950,20,8.7157137,56.8344271
618290,Søndervej,7950,21,8.7159749,56.8342188
618291,Søndervej,7950,22,8.7152574,56.8342708
618292,Søndervej,7950,25,8.7156481,56.8340545
618293,Søndervej,7950,26,8.7143865,56.8340457
618294,Søndervej,7950,27,8.7153454,56.8336595
618295,Søndervej,7950,28,8.7141886,56.8338074
618296,Søndervej,7950,29,8.7151611,56.8339318
618297,Søndervej,7950,30,8.7140313,56.8336317
618298,Søndervej,7950,31,8.7146574,56.8337904
618299,Søndervej,7950,32,8.7138933,56.8334287
618300,Søndervej,7950,33,8.7143177,56.8334834
618301,Søndervej,7950,34,8.7137554,56.8332538
618302,Søndervej,7950,35,8.7141754,56.8332378
618303,Søndervej,7950,36,8.7136458,56.8329619
618304,Søndervej,7950,38,8.7134815,56.8327876
618305,Søndervej,7950,39,8.7138334,56.8328188
618306,Søndervej,7950,40,8.7133119,56.8326356
618307,Søndervej,7950,41,8.7136202,56.8325472
618308,Søndervej,7950,42,8.7129766,56.8323592
618309,Søndervej,7950,43,8.7135348,56.8322409
618310,Søndervej,7950,44,8.7130194,56.8321426
618311,Søndervej,7950,45,8.7132692,56.8319635
618312,Søndervej,7950,46,8.712921,56.831979
618313,Søndervej,7950,47,8.7130942,56.8317685
618371,Teglværksvej,7950,3,8.6979287,56.8730012
618372,Teglværksvej,7950,4,8.694595,56.874427
618373,Teglværksvej,7950,7,8.6891235,56.8741082
618374,Teglværksvej,7950,8,8.69229,56.8762586
618375,Teglværksvej,7950,10,8.6876703,56.8764723
618376,Teglværksvej,7950,16,8.6852977,56.87709
618418,Th. Knudsens Vej,7950,1,8.718137,56.834094
618419,Th. Knudsens Vej,7950,3,8.717778,56.833941
618420,Th. Knudsens Vej,7950,4,8.716196,56.8338932
618421,Th. Knudsens Vej,7950,5,8.717503,56.833769
618422,Th. Knudsens Vej,7950,6,8.716715,56.833789
618423,Th. Knudsens Vej,7950,7,8.717246,56.833605
618424,Th. Knudsens Vej,7950,8,8.716595,56.833577
618425,Th. Knudsens Vej,7950,9,8.716939,56.833416
618426,Th. Knudsens Vej,7950,10,8.716337,56.833426
618427,Th. Knudsens Vej,7950,11,8.716686,56.833247
618428,Th. Knudsens Vej,7950,12,8.716061,56.833248
618429,Th. Knudsens Vej,7950,13,8.7164584,56.8330946
618430,Th. Knudsens Vej,7950,14,8.715858,56.8330818
618431,Th. Knudsens Vej,7950,15,8.7161981,56.8329273
618432,Th. Knudsens Vej,7950,16,8.71559,56.8328914
618433,Th. Knudsens Vej,7950,17,8.715957,56.832721
618434,Th. Knudsens Vej,7950,19,8.715677,56.832545
618504,Tinghøjvej,7950,45,8.7823448,56.8431944
618505,Tinghøjvej,7950,46,8.7849538,56.8456314
618506,Tinghøjvej,7950,48,8.7801877,56.8457007
618625,Toppen,7950,2,8.7095054,56.83816
618626,Toppen,7950,3,8.7097575,56.8384093
618627,Toppen,7950,4,8.7100476,56.8381001
618628,Toppen,7950,6,8.7103829,56.83793
618629,Toppen,7950,10,8.7116342,56.8379558
618630,Tordenhøjsvej,7950,3,8.654673,56.8517602
618631,Tordenhøjsvej,7950,4,8.6541966,56.8521266
618632,Tordenhøjsvej,7950,5,8.6544981,56.851289
618633,Tordenhøjsvej,7950,7,8.6538631,56.8513987
618634,Tordenhøjsvej,7950,7A,8.6539,56.8517992
618635,Tordenhøjsvej,7950,8,8.6533249,56.8523099
618636,Tordenhøjsvej,7950,9,8.6535168,56.8518389
618637,Tordenhøjsvej,7950,12,8.6515678,56.8538414
618638,Tordenhøjsvej,7950,13,8.6509869,56.8516363
618639,Tordenhøjsvej,7950,14,8.6506016,56.8523263
618640,Tordenhøjsvej,7950,16,8.6472935,56.8508303
618641,Tordenhøjsvej,7950,20,8.6478803,56.8498241
618642,Tordenhøjsvej,7950,22,8.6465004,56.848192
618643,Tordenhøjsvej,7950,24,8.6452854,56.8461877
618644,Tordenhøjsvej,7950,25,8.6499317,56.8455845
618645,Tordenhøjsvej,7950,26,8.6450524,56.8455204
618646,Tordenhøjsvej,7950,28,8.6448079,56.8451284
618647,Tordenhøjsvej,7950,30,8.6442798,56.8441006
618648,Tordenhøjsvej,7950,32,8.6388963,56.8416812
618649,Tordenhøjsvej,7950,34,8.6443849,56.8424216
618682,Torupvej,7950,2,8.659738,56.8482957
618683,Torupvej,7950,4,8.6602604,56.8482729
618684,Torupvej,7950,6,8.6610671,56.8478779
618685,Torupvej,7950,7,8.664023,56.847188
618686,Torupvej,7950,9,8.6642782,56.8469968
618687,Torupvej,7950,11,8.6647808,56.8467117
618688,Torupvej,7950,13,8.6652059,56.8464786
618689,Torupvej,7950,14,8.665531,56.8460363
618690,Torupvej,7950,16,8.6664176,56.8457193
618691,Torupvej,7950,17,8.6662053,56.8461823
618692,Torupvej,7950,19,8.6669976,56.8457388
618693,Torupvej,7950,20,8.6668438,56.8452407
618694,Torupvej,7950,22,8.6691482,56.840771
618695,Torupvej,7950,23,8.6678867,56.8447488
618696,Torupvej,7950,24,8.6717749,56.8393737
618697,Torupvej,7950,25,8.6715245,56.8438705
618749,Trekløvervej,7950,1,8.7687146,56.8357609
618750,Trekløvervej,7950,3,8.769465,56.840042
618751,Trekroner,7950,1,8.7548678,56.8295939
618752,Trekroner,7950,3,8.754554,56.829669
618753,Trekroner,7950,4,8.754555,56.829991
618754,Trekroner,7950,5,8.754197,56.829716
618755,Trekroner,7950,6,8.754069,56.830073
618756,Trekroner,7950,7,8.753865,56.829745
618757,Trekroner,7950,8,8.753628,56.830021
618758,Trekroner,7950,9,8.7535078,56.829781
618759,Trekroner,7950,10,8.752886,56.829956
618760,Trekroner,7950,11,8.753231,56.829825
618761,Trekroner,7950,13,8.75277,56.829758
618767,Tøving Syd,7950,4,8.7732343,56.8445177
618768,Tøving Syd,7950,5,8.7732454,56.8429407
618769,Tøving Syd,7950,7,8.7653766,56.8437732
618770,Tøving Syd,7950,8,8.7635699,56.8449743
618771,Tøving Syd,7950,9,8.7624409,56.8433948
618772,Tøving Syd,7950,10,8.7565753,56.8474231
618773,Tøving Syd,7950,11,8.7610918,56.8457209
618774,Tøving Syd,7950,12,8.7556283,56.8471784
618775,Tøving Syd,7950,13,8.7592667,56.8446256
618776,Tøving Syd,7950,15,8.755217,56.847024
618782,Udsigten,7950,1,8.6456613,56.8812929
618783,Udsigten,7950,2,8.6460467,56.8812245
618784,Udsigten,7950,3,8.6457574,56.8815367
618785,Udsigten,7950,3A,8.6458537,56.8817809
618786,Udsigten,7950,4,8.6462668,56.8814477
618787,Udsigten,7950,5,8.6459289,56.8819715
618788,Udsigten,7950,6,8.6468307,56.8813842
618789,Udsigten,7950,7,8.6465192,56.8818474
618790,Udsigten,7950,8,8.6472376,56.881302
618791,Udsigten,7950,9,8.6469253,56.8817617
618792,Udsigten,7950,9A,8.6471811,56.881708
618793,Udsigten,7950,11,8.647619,56.8816164
618794,Udsigten,7950,13,8.6479028,56.8815218
618795,Udvejen,7950,3,8.7202491,56.8351654
618796,Udvejen,7950,4,8.7198013,56.8354371
618797,Udvejen,7950,5,8.7199377,56.8348822
618798,Udvejen,7950,6,8.7195541,56.8352912
618799,Udvejen,7950,7,8.719774,56.834676
618800,Udvejen,7950,9,8.7196384,56.8345133
618801,Udvejen,7950,9A,8.7195136,56.8343313
618802,Udvejen,7950,10,8.7191773,56.8347144
618803,Udvejen,7950,11,8.7165641,56.831617
618822,Ulleruphusevej,7950,23,8.7870129,56.8509348
618823,Ulleruphusevej,7950,25,8.78605,56.851011
618824,Ulleruphusevej,7950,26,8.783074,56.8519689
618825,Ulleruphusevej,7950,27,8.7832854,56.851135
618826,Ulleruphusevej,7950,30,8.7812042,56.8523198
618827,Ulleruphusevej,7950,34,8.7802204,56.8525687
618828,Ulleruphusevej,7950,36,8.780004,56.852702
618829,Ulleruphusevej,7950,38,8.7799178,56.8529593
618830,Ulleruphusevej,7950,39,8.7785147,56.8532327
618831,Ulleruphusevej,7950,46,8.7768818,56.855037
618832,Ulleruphusevej,7950,50,8.7739677,56.8542009
618833,Ulleruphusevej,7950,51,8.7698193,56.8536055
618834,Ulleruphusevej,7950,52,8.776147,56.85717
618835,Ulleruphusevej,7950,53,8.7694119,56.852968
618836,Ulleruphusevej,7950,54,8.7685434,56.8544136
618837,Ulleruphusevej,7950,55,8.7615236,56.8531319
618838,Ulleruphusevej,7950,57,8.7610345,56.8531996
618852,Under Bakken,7950,1,8.647673,56.880343
618853,Under Bakken,7950,15,8.6462402,56.8786548
618854,Under Bakken,7950,17,8.6461301,56.878497
618855,Under Bakken,7950,19,8.646119,56.878319
618856,Under Bakken,7950,23,8.6462574,56.8779107
618857,Under Bakken,7950,25,8.6461389,56.8775472
618858,Under Bakken,7950,27,8.6461799,56.8773904
618859,Under Bakken,7950,29,8.6457897,56.8770517
618860,Under Bakken,7950,31,8.646295,56.8770211
618861,Under Bakken,7950,33,8.646613,56.8770695
618862,Under Bakken,7950,35,8.6466177,56.8775297
618863,Under Bakken,7950,39,8.6452466,56.8766448
618864,Under Bakken,7950,43,8.64574,56.876493
618865,Under Bakken,7950,45,8.6457485,56.876721
618866,Under Bakken,7950,47,8.6462465,56.8764411
618867,Under Bakken,7950,49,8.6466901,56.8767041
618868,Under Bakken,7950,51,8.6450196,56.8763659
618869,Under Bakken,7950,53,8.6446487,56.8763393
618870,Under Bakken,7950,55,8.6445677,56.8761076
618943,Vanggårdsvej,7950,8,8.776664,56.833595
618944,Vangvej,7950,3,8.6843233,56.8385459
618945,Vangvej,7950,4,8.6836683,56.8388927
618946,Vangvej,7950,5,8.6831619,56.8376597
618947,Vangvej,7950,6,8.6806236,56.8371596
618948,Vangvej,7950,8,8.6780999,56.8380132
618949,Vangvej,7950,10,8.6771247,56.8367512
618950,Vangvej,7950,12,8.6728969,56.836023
618951,Vangvej,7950,14,8.6684457,56.8357213
618952,Vangvej,7950,15,8.6675681,56.8329536
618953,Vangvej,7950,16,8.6662467,56.833681
618954,Vangvej,7950,17,8.6611734,56.8306394
618955,Vangvej,7950,18,8.6571317,56.8334467
618956,Vangvej,7950,19,8.6527508,56.8278226
618957,Vangvej,7950,20,8.6511201,56.8272961
618958,Vangvej,7950,21,8.6516551,56.8271631
618959,Vangvej,7950,22,8.6509198,56.8270832
618960,Vangvej,7950,26,8.6507677,56.826816
618961,Vendbjergvej,7950,3,8.7210815,56.8473408
618962,Vendbjergvej,7950,4,8.7257474,56.8514483
618963,Vendbjergvej,7950,5,8.7237076,56.8530996
618964,Vendbjergvej,7950,6,8.7286961,56.8525231
618965,Vendbjergvej,7950,7,8.722766,56.8531269
618966,Vendbjergvej,7950,9,8.7257896,56.8557226
618967,Vendbjergvej,7950,10,8.7311692,56.8575157
618968,Vendbjergvej,7950,12,8.7297588,56.8585508
618969,Vendbjergvej,7950,14,8.728837,56.8583874
618970,Vendbjergvej,7950,15,8.724928,56.858797
618971,Vendbjergvej,7950,16,8.7292952,56.8592498
618972,Vendbjergvej,7950,17,8.7264435,56.8599899
618973,Vendbjergvej,7950,18,8.7325327,56.8641592
618974,Vendbjergvej,7950,19,8.7311006,56.8646324
618975,Vendbjergvej,7950,20,8.7324299,56.8656444
618976,Vendbjergvej,7950,22,8.7326519,56.8663443
618977,Vendbjergvej,7950,23,8.7321348,56.8668222
618978,Vendbjergvej,7950,24,8.7328018,56.8668788
618979,Vendbjergvej,7950,25,8.7323661,56.8670095
618980,Vendbjergvej,7950,26,8.7332436,56.8668906
618981,Vendbjergvej,7950,27,8.7323407,56.8672738
618982,Vendbjergvej,7950,28,8.7329489,56.8671249
618983,Vendbjergvej,7950,29,8.7326506,56.8674103
618984,Vendbjergvej,7950,30,8.7334047,56.867215
619076,Vesterhaven,7950,2,8.7294993,56.8683428
619077,Vesterhaven,7950,6,8.7295138,56.8680466
619078,Vesterhaven,7950,7,8.7320534,56.8679678
619079,Vesterhaven,7950,15,8.731155,56.8678841
619080,Vesterhaven,7950,17,8.7305152,56.8678847
619081,Vesterled,7950,2,8.7116763,56.834537
619082,Vesterled,7950,3,8.7115973,56.8348399
619083,Vesterled,7950,4,8.7121325,56.8345256
619084,Vesterled,7950,5,8.7122092,56.8347827
619085,Vesterled,7950,6,8.712649,56.8344925
619086,Vesterled,7950,7,8.7126328,56.8347653
619087,Vesterled,7950,8,8.7130718,56.8344617
619088,Vesterled,7950,9,8.7132119,56.8347224
619089,Vesterled,7950,10,8.71357,56.8344184
619090,Vesterled,7950,11,8.7135591,56.8347242
619091,Vesterled,7950,12,8.7140462,56.8343751
619092,Vesterled,7950,13,8.7141521,56.8347016
619093,Vesterled,7950,14,8.7145858,56.8343234
619094,Vesterled,7950,15,8.7145434,56.8346441
619095,Vestermarken,7950,2,8.6490548,56.8256011
619096,Vestermarken,7950,4,8.6479632,56.8253734
619097,Vestermarken,7950,5,8.6472461,56.8243193
619098,Vestermarken,7950,7,8.6405082,56.8251654
619099,Vestermarken,7950,8,8.6335486,56.8264552
619100,Vestermarken,7950,9A,8.6345185,56.8247872
619101,Vestermarken,7950,9B,8.6343511,56.8248037
619102,Vestermarken,7950,10,8.6309357,56.8270211
619103,Vestermarken,7950,11,8.6286302,56.826323
619104,Vestermarken,7950,12,8.631109,56.8279406
619105,Vestermarken,7950,13,8.6285403,56.8259541
619106,Vestermarken,7950,14,8.6238927,56.8272351
619107,Vestermarken,7950,15,8.6331358,56.8233117
619108,Vestermarken,7950,16,8.622912,56.8301159
619109,Vestermarken,7950,17,8.6308404,56.8231644
619110,Vestermarken,7950,18,8.6207913,56.8289047
619111,Vestermarken,7950,19,8.6276568,56.8233671
619112,Vestermarken,7950,21,8.6204202,56.8238677
619113,Vestermarken,7950,23,8.6168004,56.8246933
619114,Vestermarken,7950,25,8.6252398,56.8263719
619115,Vestermarken,7950,27,8.6188612,56.8269409
619170,Vestmorsvej,7950,8,8.7114223,56.8284819
619171,Vestmorsvej,7950,10,8.7112426,56.8280143
619172,Vestmorsvej,7950,12,8.7113543,56.8277833
619173,Vestmorsvej,7950,14,8.7114867,56.8275254
619174,Vestmorsvej,7950,18,8.7126709,56.8204797
619175,Vestmorsvej,7950,22,8.7110953,56.8209629
619593,Østerhaven,7950,3,8.734291,56.8691382
619594,Østerhaven,7950,4,8.7356413,56.8690234
619595,Østerhaven,7950,5,8.7342299,56.8693096
619596,Østerhaven,7950,6,8.7360329,56.8690627
619597,Østerhaven,7950,7,8.734123,56.8695091
619598,Østerhaven,7950,8,8.7364226,56.8690774
619599,Østerhaven,7950,9,8.7347692,56.869643
619600,Østerhaven,7950,10,8.7367546,56.8691085
619601,Østerhaven,7950,11,8.7350123,56.8694293
619602,Østerhaven,7950,12,8.7371384,56.8691534
619603,Østerhaven,7950,13,8.7347861,56.8691916
619604,Østerhaven,7950,15,8.7355815,56.8693919
619605,Østerhaven,7950,17,8.7355758,56.8696379
619606,Østerhaven,7950,19,8.7361364,56.8694451
619607,Østerhaven,7950,21,8.7360763,56.8697281
619608,Østerhaven,7950,23,8.7366411,56.8694951
619609,Østerhaven,7950,25,8.7365918,56.8697428
619610,Østerhaven,7950,27,8.737133,56.869516
619611,Østerhaven,7950,29,8.7370929,56.8697988
619612,Østerhaven,7950,31,8.7375783,56.8698613
1744697,Præstbrovej,7950,164B,8.746324,56.8305189
1744699,Præstbrovej,7950,164C,8.7465918,56.8305659
1744701,Præstbrovej,7950,164D,8.7463992,56.8308248
1745594,Sundbyvej,7950,38A,8.6748866,56.8747834
1912915,Dragstrupvej,7950,21B,8.6704069,56.8081771
1912916,Dragstrupvej,7950,21C,8.6701253,56.8082551
1912917,Dragstrupvej,7950,106,8.6720563,56.821635
1912918,Dragstrupvej,7950,119B,8.6699374,56.8241944
1939766,Vestmorsvej,7950,17,8.7140896,56.8218619
1990498,Nordmorsvej,7950,34,8.752109,56.8668
1993696,Bjørnvadbro,7950,25B,8.807619,56.856146
1993885,Søndervej,7950,23,8.7163477,56.8340922
2047077,Skelhøj,7950,14D,8.661996,56.877026
2047079,Skelhøj,7950,16D,8.662325,56.876909
2047080,Skelhøj,7950,18D,8.662675,56.876778
2047082,Skelhøj,7950,20D,8.663021,56.876649
2047083,Skelhøj,7950,20E,8.662763,56.876611
2067922,Fælleden,7950,15A,8.6563991,56.8774479
2069779,Molervej,7950,6,8.6968822,56.8863141
2070129,Vestermarken,7950,20,8.61931,56.82858
2071648,Halvvej,7950,2,8.7145047,56.8244191
2072170,Tøving Syd,7950,9A,8.767066,56.842642
2073086,Knudebro,7950,6A,8.7189457,56.8562547
2073087,Knudebro,7950,7,8.7174599,56.863335
2073464,Burhøjvej,7950,7A,8.741344,56.872551
2073545,Holme,7950,2A,8.753979,56.81759
2073652,Engholmen,7950,4,8.6716027,56.826289
2074057,Solbjerghedevej,7950,17,8.6682774,56.8517544
2074277,Brunhøjvej,7950,11A,8.729107,56.86991
2074758,Ballevænget,7950,2,8.695848,56.825548
2169451,Doktor Lunds Vej,7950,2A,8.718447,56.832898
2169461,Doktor Lunds Vej,7950,2B,8.718088,56.832897
2169468,Doktor Lunds Vej,7950,2C,8.717886,56.83305
2169474,Doktor Lunds Vej,7950,4,8.719111,56.833352
2169582,Frode Jakobsens Vej,7950,2,8.7193665,56.8340772
2169584,Frode Jakobsens Vej,7950,4,8.7193532,56.833997
2169594,Frode Jakobsens Vej,7950,6,8.7190655,56.8338457
2169596,Frode Jakobsens Vej,7950,8,8.719063,56.8337903
2169608,Frode Jakobsens Vej,7950,10,8.7193893,56.8337862
2169613,Frode Jakobsens Vej,7950,12,8.7195291,56.8337867
2169621,Frode Jakobsens Vej,7950,14,8.7197878,56.8338392
2169631,Frode Jakobsens Vej,7950,16,8.7196995,56.8340114
2169635,Frode Jakobsens Vej,7950,18,8.7198352,56.8340125
2169642,Frode Jakobsens Vej,7950,20,8.7203478,56.8340859
2169644,Frode Jakobsens Vej,7950,22,8.7203389,56.8340059
2169650,Frode Jakobsens Vej,7950,24,8.7201152,56.833786
2169652,Frode Jakobsens Vej,7950,26,8.7202995,56.8337871
2169655,Frode Jakobsens Vej,7950,28,8.7206602,56.8337918
2169656,Frode Jakobsens Vej,7950,30,8.7208265,56.8337996
2169662,Frode Jakobsens Vej,7950,32,8.7206826,56.8340454
2169664,Frode Jakobsens Vej,7950,34,8.7208129,56.834043
2170206,Over Bakken,7950,1,8.6530587,56.8791938
2170208,Over Bakken,7950,2,8.6523692,56.8791754
2170221,Over Bakken,7950,3,8.6532047,56.8795553
2170225,Over Bakken,7950,4,8.6493719,56.8789463
2170229,Over Bakken,7950,5,8.654164,56.8790157
2170232,Over Bakken,7950,6,8.6508697,56.8781497
2170242,Over Bakken,7950,7,8.6534151,56.8788933
2170244,Over Bakken,7950,8,8.6507066,56.877635
2170248,Over Bakken,7950,9,8.6529772,56.8786939
2170256,Over Bakken,7950,11,8.6525635,56.8787677
2170260,Over Bakken,7950,13,8.6526923,56.878446
2235143,Kirkebyen,7950,5A,8.698992,56.849941
2235611,Ansgarvej,7950,17A,8.7142191,56.8356769
2236504,Fælleden,7950,15,8.656405,56.877402
2236526,Jølbygårdsvej,7950,4A,8.695315,56.838008
2236536,Solbjergkær,7950,24,8.713346,56.85298
2236537,Solbjergkær,7950,28,8.714577,56.855538
2236565,Kæret,7950,6,8.714739,56.837245
2236571,Poulsen Dalsvej,7950,19A,8.714803,56.841151
2236572,Poulsen Dalsvej,7950,29,8.713235,56.844225
2236586,Helligkildevej,7950,14,8.656974,56.821505
2236589,Vesterhaven,7950,4,8.729515,56.867871
2242522,Kæret,7950,5,8.713999,56.837837
2242543,Langtoften,7950,31,8.655485,56.851897
2254955,Bjørnvadbro,7950,11A,8.784012,56.862707
2254956,Bjørnvadbro,7950,45,8.778696,56.845767
2254958,Dragstrupvej,7950,23,8.67056,56.808479
2254959,Dragstrupvej,7950,40A,8.671993,56.811231
2254960,Dragstrupvej,7950,68A,8.671342,56.814873
2254961,Dragstrupvej,7950,76,8.67197,56.816465
2254962,Dragstrupvej,7950,102,8.672138,56.820786
2254963,Dragstrupvej,7950,104,8.671774,56.821441
2254964,Engholmen,7950,2A,8.671342,56.826067
2254965,Engholmen,7950,6A,8.671625,56.826743
2254966,Engholmen,7950,14A,8.669549,56.826656
2254967,Fjordkær,7950,122,8.649907,56.824468
2254973,Gyldagervej,7950,19,8.760472,56.850498
2254980,Kliphøj,7950,7,8.775907,56.834329
2254981,Kresten Kolds Vej,7950,25,8.672384,56.825338
2254989,Ulleruphusevej,7950,31,8.780897,56.852225
