idx,street,postcode,housenumber,lon,lat
608554,Asselsvej,7990,114,8.7473598,56.7327724
608556,Asselsvej,7990,116,8.7427145,56.7301191
608557,Asselsvej,7990,119,8.7451192,56.7303897
608558,Asselsvej,7990,120,8.7406327,56.7282852
608559,Asselsvej,7990,121,8.742142,56.728674
608560,Asselsvej,7990,122,8.7400737,56.7275003
608561,Asselsvej,7990,123,8.7413926,56.7278562
608562,Asselsvej,7990,124,8.736681,56.7263934
608563,Asselsvej,7990,126,8.7335899,56.72495
608564,Asselsvej,7990,127,8.7386904,56.724436
608565,Asselsvej,7990,129,8.7376838,56.7232439
608566,Asselsvej,7990,131,8.7373978,56.7220102
608567,Asselsvej,7990,132,8.7290758,56.7227648
608568,Asselsvej,7990,133,8.7327014,56.7180382
608569,Asselsvej,7990,137,8.7258192,56.7135613
608570,Asselsvej,7990,138,8.7264349,56.7150529
608571,Asselsvej,7990,139,8.7254388,56.7114166
608572,Asselsvej,7990,140,8.7238352,56.7138953
608573,Asselsvej,7990,142,8.7183626,56.7129332
608574,Asselsvej,7990,143,8.719297,56.7082847
608575,Asselsvej,7990,144,8.7212456,56.7105008
608576,Asselsvej,7990,145,8.717254,56.705685
608577,Asselsvej,7990,146,8.719388,56.709168
608578,Asselsvej,7990,147,8.7164782,56.7051461
608579,Asselsvej,7990,148,8.7170946,56.7073931
608580,Asselsvej,7990,149,8.7165005,56.7042186
608581,Asselsvej,7990,150,8.7161044,56.7061586
608582,Asselsvej,7990,151,8.71618,56.703926
608583,Asselsvej,7990,152,8.71463,56.703723
608584,Asselsvej,7990,153,8.71556,56.7037804
608585,Asselsvej,7990,156,8.710755,56.700292
608586,Asselsvej,7990,157,8.714199,56.702596
608587,Asselsvej,7990,158,8.710584,56.700113
608588,Asselsvej,7990,160,8.710227,56.699966
608589,Asselsvej,7990,161,8.713326,56.702107
608590,Asselsvej,7990,164,8.6995525,56.7012322
608591,Asselsvej,7990,165,8.7133054,56.7014543
608592,Asselsvej,7990,166,8.69947,56.701477
608593,Asselsvej,7990,167,8.7181302,56.7004994
608594,Asselsvej,7990,168,8.698625,56.701683
608595,Asselsvej,7990,169,8.6986439,56.7011437
608596,Asselsvej,7990,170,8.698009,56.70217
608597,Asselsvej,7990,171,8.6959141,56.7020283
608598,Asselsvej,7990,172,8.697016,56.702103
608599,Asselsvej,7990,173,8.695523,56.701933
608600,Asselsvej,7990,174,8.696639,56.702159
608601,Asselsvej,7990,174A,8.696556,56.702103
608602,Asselsvej,7990,176,8.695951,56.7022
608603,Asselsvej,7990,177,8.695247,56.702167
608604,Asselsvej,7990,178,8.695721,56.70226
608605,Asselsvej,7990,179,8.695011,56.702205
608606,Asselsvej,7990,180,8.695504,56.70227
608607,Asselsvej,7990,182,8.695361,56.70231
608608,Asselsvej,7990,184,8.695106,56.702378
608633,Atletikvej,7990,1,8.692988,56.698314
608634,Atletikvej,7990,3,8.693272,56.698242
608635,Atletikvej,7990,5,8.693597,56.698171
608636,Atletikvej,7990,18,8.6938781,56.697665
608637,Atletikvej,7990,19,8.694571,56.697941
608638,Atletikvej,7990,23,8.694679,56.697709
608694,Ballesvej,7990,1,8.762752,56.691915
608695,Ballesvej,7990,2,8.7632033,56.6924513
608696,Ballesvej,7990,3,8.7624183,56.692397
608697,Ballesvej,7990,5,8.7619632,56.6930548
608698,Ballesvej,7990,7,8.7622135,56.6939102
608699,Ballesvej,7990,12,8.7635524,56.694433
608700,Ballesvej,7990,14,8.7630247,56.6947137
608701,Ballesvej,7990,16,8.7629312,56.6950163
608702,Ballesvej,7990,18,8.7620114,56.6951308
608770,Birkemosen,7990,3,8.7685311,56.7323688
608771,Birkemosen,7990,4,8.7598374,56.7316134
608772,Birkemosen,7990,5,8.7699977,56.7310769
608773,Birkemosen,7990,6,8.7651079,56.7313482
608921,Blidstrupmark,7990,1,8.7075152,56.723759
608922,Blidstrupmark,7990,2,8.7057884,56.7241461
608923,Blidstrupmark,7990,3,8.7061542,56.7227702
608924,Blidstrupmark,7990,4,8.7038853,56.7220631
608925,Blidstrupmark,7990,5,8.704731,56.7216404
608926,Blidstrupmark,7990,6,8.7034901,56.7213776
608927,Blidstrupmark,7990,7,8.7045436,56.7210575
608928,Blidstrupmark,7990,8,8.7012714,56.7197228
608929,Blidstrupmark,7990,9,8.7025068,56.7195051
608930,Blidstrupmark,7990,10,8.7010085,56.7193296
608931,Blidstrupmark,7990,12,8.6993375,56.7183049
608932,Blidstrupmark,7990,13,8.6977644,56.7170256
608933,Blidstrupmark,7990,14,8.6963935,56.7169927
608934,Blidstrupmark,7990,15,8.696217,56.7160869
608935,Blidstrupmark,7990,16,8.6948124,56.7163767
608936,Blidstrupmark,7990,17,8.6946794,56.7149504
608937,Blidstrupmark,7990,18,8.6944963,56.7161961
608938,Blidstrupmark,7990,19,8.694244,56.715158
608939,Blidstrupmark,7990,20,8.6941624,56.7160462
608940,Blidstrupmark,7990,21,8.6939278,56.7152753
608941,Blidstrupmark,7990,22,8.6935406,56.7159639
608942,Blidstrupmark,7990,23,8.6923855,56.7153077
608943,Blidstrupmark,7990,23A,8.6927985,56.7150663
608944,Blidstrupmark,7990,24,8.6926405,56.7158592
608945,Blidstrupmark,7990,26,8.6923645,56.7159042
608946,Blidstrupvej,7990,1,8.6921409,56.7145768
608947,Blidstrupvej,7990,2,8.6919469,56.7156232
608948,Blidstrupvej,7990,3,8.6974237,56.7112804
608949,Blidstrupvej,7990,3A,8.697909,56.711206
608950,Blidstrupvej,7990,3B,8.7069249,56.7076948
608951,Blidstrupvej,7990,4,8.6912482,56.7145983
608952,Blidstrupvej,7990,5,8.6902195,56.712986
608953,Blidstrupvej,7990,6,8.6909591,56.7141012
608954,Blidstrupvej,7990,7,8.6866361,56.7103063
608955,Blidstrupvej,7990,8,8.6885783,56.7125117
608956,Blidstrupvej,7990,9,8.6856138,56.7082557
608957,Blidstrupvej,7990,10,8.6856035,56.7106172
608958,Blidstrupvej,7990,11,8.687673,56.704852
608959,Blidstrupvej,7990,12,8.6851764,56.7096267
608960,Blidstrupvej,7990,14,8.6841881,56.7068699
608961,Blidstrupvej,7990,16,8.686647,56.704585
608962,Blinkevej,7990,1,8.731397,56.68493
608963,Blinkevej,7990,2,8.7316936,56.6845582
608964,Blinkevej,7990,3,8.7320807,56.6849262
608965,Blinkevej,7990,4,8.7321219,56.6845851
609048,Blåklokkevej,7990,1,8.7700356,56.7128784
609049,Blåklokkevej,7990,2,8.7696343,56.7124622
609050,Blåklokkevej,7990,3,8.770528,56.712683
609051,Blåklokkevej,7990,4,8.7704409,56.7123142
609052,Blåklokkevej,7990,5,8.770916,56.7126295
609053,Blåklokkevej,7990,6,8.7710233,56.7122319
609054,Blåklokkevej,7990,7,8.7714747,56.7125511
609055,Blåklokkevej,7990,8,8.7714828,56.7121838
609056,Blåklokkevej,7990,9,8.7719915,56.712497
609057,Blåklokkevej,7990,10,8.7718452,56.7121877
609058,Blåklokkevej,7990,11,8.7724822,56.7125638
609059,Blåklokkevej,7990,12,8.772372,56.712211
609093,Bolvej,7990,4,8.6494172,56.7004796
609094,Brandbægervej,7990,2,8.7686123,56.7118008
609095,Brandbægervej,7990,3,8.7678996,56.7117781
609096,Brandbægervej,7990,4,8.7691203,56.7116332
609097,Brandbægervej,7990,5,8.767829,56.7120161
609098,Brandbægervej,7990,6,8.7696763,56.7117363
609099,Brandbægervej,7990,7,8.7679102,56.7123156
609100,Brandbægervej,7990,8,8.770119,56.7117327
609101,Brandbægervej,7990,9,8.7681493,56.7126051
609102,Brandbægervej,7990,10,8.7702842,56.71208
609103,Brandbægervej,7990,11,8.768168,56.7128433
609104,Brandbægervej,7990,12,8.769651,56.712151
609105,Brandbægervej,7990,14,8.7686302,56.7121861
609106,Brandbægervej,7990,15,8.768751,56.7132417
609107,Brandbægervej,7990,16,8.7686993,56.7124312
609108,Brandbægervej,7990,18,8.7689742,56.7126447
609109,Brandbægervej,7990,20,8.7692108,56.7128849
609248,Bygaden,7990,1A,8.7571179,56.7168866
609249,Bygaden,7990,1B,8.7571186,56.7168426
609250,Bygaden,7990,1C,8.7571754,56.716818
609251,Bygaden,7990,1D,8.7573347,56.7168217
609252,Bygaden,7990,1E,8.7575002,56.7168254
609253,Bygaden,7990,2,8.7571075,56.7164823
609254,Bygaden,7990,3,8.7578558,56.716907
609255,Bygaden,7990,4,8.7575131,56.7165613
609256,Bygaden,7990,6,8.7578098,56.7165644
609257,Bygaden,7990,8,8.7581059,56.7166229
609258,Bygaden,7990,9,8.7586912,56.7172111
609259,Bygaden,7990,10,8.7583641,56.716798
609260,Bygaden,7990,11,8.7590651,56.7171909
609261,Bygaden,7990,12,8.7586248,56.7168249
609262,Bygaden,7990,13,8.7593194,56.7173544
609263,Bygaden,7990,14,8.7589176,56.7169077
609264,Bygaden,7990,15,8.7595973,56.7173824
609265,Bygaden,7990,16,8.7592189,56.7169272
609266,Bygaden,7990,17,8.7599315,56.7174242
609267,Bygaden,7990,18,8.7595102,56.717023
609268,Bygaden,7990,20,8.7597528,56.7170855
609269,Bygaden,7990,22,8.7606556,56.7171667
609270,Bygaden,7990,27,8.7614216,56.718072
609271,Bygaden,7990,29,8.761477,56.7184554
609272,Bygaden,7990,31,8.7613614,56.7190413
609273,Bygaden,7990,38,8.7646363,56.7198004
609274,Bygaden,7990,39,8.7639488,56.7216266
609306,Bytoften,7990,3,8.7582372,56.7173568
609307,Bytoften,7990,4,8.7590171,56.7175606
609308,Bytoften,7990,5,8.7584364,56.7176082
609309,Bytoften,7990,6,8.759437,56.717587
609310,Bytoften,7990,7,8.7587437,56.7179043
609311,Bytoften,7990,8,8.7594293,56.7178191
609312,Bytoften,7990,9,8.7590576,56.7180858
609313,Bytoften,7990,10,8.7594849,56.7180266
609492,Doubletvej,7990,1,8.757156,56.718537
609493,Doubletvej,7990,2,8.7570997,56.7191291
610138,Engkærvej,7990,5,8.697472,56.703183
610139,Engkærvej,7990,6,8.696873,56.702442
610140,Engkærvej,7990,7,8.697791,56.702975
610141,Engkærvej,7990,8,8.69715,56.702489
610142,Engkærvej,7990,11,8.6983259,56.7029311
610143,Engkærvej,7990,12,8.69884,56.702878
610144,Engkærvej,7990,14,8.698862,56.7031279
610443,Fjordlundsvej,7990,1,8.649862,56.674289
610444,Fjordlundsvej,7990,3,8.645916,56.677332
610445,Fjordlundsvej,7990,5,8.64501,56.67851
610446,Fjordskovvej,7990,2,8.7565426,56.6890233
610447,Fjordskovvej,7990,5,8.7585353,56.6896892
610448,Fjordskovvej,7990,6,8.755085,56.6889342
610449,Fjordskovvej,7990,8,8.7546318,56.6888512
610450,Fjordskovvej,7990,10,8.7537659,56.6885508
611362,Gammel Færgevej,7990,1,8.7295688,56.6948053
611363,Gammel Færgevej,7990,3,8.7300356,56.6948324
611364,Gammel Færgevej,7990,5,8.7305588,56.6948257
611365,Gammel Færgevej,7990,7,8.7309417,56.69475
611366,Gammel Færgevej,7990,11,8.7318768,56.694576
611367,Gammel Færgevej,7990,15,8.7325783,56.6941916
611368,Gammel Færgevej,7990,18,8.7333933,56.6937474
611369,Gammel Færgevej,7990,19,8.733484,56.6941118
611370,Gammel Færgevej,7990,21,8.7340079,56.6939327
611371,Gammel Færgevej,7990,25,8.7347953,56.6937262
611372,Gammel Færgevej,7990,27,8.7348532,56.6933466
611373,Gammel Færgevej,7990,29,8.7350587,56.6931698
611374,Gammel Færgevej,7990,30,8.7348967,56.6928657
611375,Gammel Færgevej,7990,31,8.7355093,56.6929368
611376,Gammel Færgevej,7990,32,8.7355354,56.6921764
611377,Gammel Færgevej,7990,33,8.7362541,56.6931903
611378,Gammel Færgevej,7990,35,8.7368834,56.6930127
611379,Gammel Færgevej,7990,36,8.7360694,56.6926758
611380,Gammel Færgevej,7990,37,8.7375433,56.6927925
611381,Gammel Færgevej,7990,38,8.7366354,56.6925166
611382,Gammel Færgevej,7990,39,8.7378649,56.6927632
611383,Gammel Færgevej,7990,40,8.7369518,56.692246
611384,Gammel Færgevej,7990,41,8.7382598,56.6926563
611385,Gammel Færgevej,7990,42,8.7374125,56.6926493
611386,Gammel Færgevej,7990,43,8.7386051,56.69254
611387,Gammel Færgevej,7990,44,8.7374611,56.6921407
611388,Gammel Færgevej,7990,45,8.7389741,56.6924223
611389,Gammel Færgevej,7990,46,8.7357576,56.6885859
611390,Gammel Færgevej,7990,47,8.7403531,56.6933996
611391,Gammel Færgevej,7990,48,8.7445004,56.6867708
611392,Gammel Færgevej,7990,50,8.7412227,56.6871097
611393,Gammel Færgevej,7990,51,8.7459905,56.6938131
611394,Gammel Færgevej,7990,52,8.7392884,56.6920513
611395,Gammel Færgevej,7990,53,8.748083,56.691557
611396,Gammel Færgevej,7990,56,8.7438555,56.6905552
611397,Gammel Færgevej,7990,62,8.7510835,56.6918124
611398,Gammel Færgevej,7990,64,8.7519906,56.6919702
611399,Gammel Færgevej,7990,65,8.7544914,56.6929164
611400,Gammel Færgevej,7990,66,8.7533475,56.6922061
611401,Gammel Færgevej,7990,67,8.756294,56.6913467
611402,Gammel Færgevej,7990,68,8.755401,56.690771
611403,Gammel Færgevej,7990,70,8.7554338,56.6911895
611404,Gammel Færgevej,7990,72,8.7563669,56.6907714
611405,Gammel Færgevej,7990,72A,8.7575854,56.690793
611406,Gammel Færgevej,7990,72B,8.7581091,56.6908024
611407,Gammel Færgevej,7990,73,8.7585378,56.6914708
611408,Gammel Færgevej,7990,74,8.7587264,56.6904983
611409,Gammel Færgevej,7990,74A,8.7589656,56.6906507
611410,Gammel Færgevej,7990,75,8.7590385,56.6915326
611411,Gammel Færgevej,7990,76,8.759472,56.6908266
611412,Gammel Færgevej,7990,77,8.7595828,56.6916121
611413,Gammel Færgevej,7990,78,8.7601385,56.6909709
611414,Gammel Færgevej,7990,79,8.760019,56.6921765
611415,Gammel Færgevej,7990,80,8.7610215,56.6910198
611416,Gammel Færgevej,7990,84,8.7620318,56.6911741
611417,Gammel Færgevej,7990,86,8.762658,56.6913344
611418,Gammel Færgevej,7990,86A,8.7623573,56.6913281
611419,Gammel Færgevej,7990,88,8.7631196,56.6914162
611420,Gammel Færgevej,7990,90,8.7635949,56.6915091
611421,Gammel Færgevej,7990,91,8.763751,56.6918383
611422,Gammel Færgevej,7990,92,8.7640103,56.6916347
611423,Gammel Færgevej,7990,94,8.7644253,56.6917098
611424,Gammel Færgevej,7990,95,8.7644239,56.6919663
611425,Gammel Færgevej,7990,97,8.7648777,56.6921051
611426,Gammel Færgevej,7990,99,8.7652244,56.6922797
611427,Gammel Færgevej,7990,101,8.7660272,56.6921176
611428,Gammel Færgevej,7990,105,8.7666101,56.6923343
611429,Gammel Færgevej,7990,107,8.7672529,56.692887
611430,Gammel Færgevej,7990,109,8.76779,56.6931098
611431,Gammel Færgevej,7990,111,8.7686456,56.6941609
611432,Gammel Færgevej,7990,113,8.7676538,56.6947497
611433,Gammel Færgevej,7990,115,8.7689916,56.6945853
611434,Gammel Færgevej,7990,116,8.769685,56.694783
611435,Gammel Færgevej,7990,117,8.769585,56.6957022
611436,Gammel Færgevej,7990,130,8.7717792,56.6962972
611572,Gammel Skolevej,7990,1,8.7335346,56.7107882
611573,Gammel Skolevej,7990,4,8.7346887,56.7108855
611720,Grimshøjvej,7990,2,8.6444908,56.6973713
611721,Grimshøjvej,7990,3,8.6454176,56.6966973
611933,Grå Stensvej,7990,7,8.6919495,56.7284602
611934,Grå Stensvej,7990,9,8.6913441,56.7274149
611935,Grå Stensvej,7990,10,8.6855185,56.7238721
611936,Grå Stensvej,7990,11,8.6879101,56.7227483
611937,Grå Stensvej,7990,12,8.68299,56.7228897
612195,Havnevej,7990,1,8.7346022,56.693056
612196,Havnevej,7990,2,8.7343713,56.693268
612197,Havnevej,7990,3,8.7344004,56.6927276
612198,Havnevej,7990,4,8.7343028,56.6930293
612199,Havnevej,7990,5,8.7343683,56.6925847
612200,Havnevej,7990,9,8.7341445,56.6922488
612201,Havnevej,7990,10,8.7336166,56.6921613
612202,Havnevej,7990,11,8.7341025,56.6920973
612203,Havnevej,7990,12,8.7334491,56.6918292
612204,Havnevej,7990,13,8.7340102,56.6918904
612205,Havnevej,7990,14,8.7333872,56.6911974
612206,Havnevej,7990,20,8.7333517,56.6908324
612207,Havnevej,7990,22,8.733241,56.6905527
612208,Havnevej,7990,26,8.733002,56.6901572
612209,Havnevej,7990,40,8.7318313,56.6872554
612210,Havnevej,7990,44,8.7317965,56.6867829
612211,Havnevej,7990,47,8.733737,56.685818
612212,Havnevej,7990,48,8.730349,56.6854298
612213,Havnevej,7990,49,8.7313101,56.6852668
612214,Havnevej,7990,50,8.7309612,56.6853653
612215,Havnevej,7990,51,8.7312421,56.6851181
612216,Havnevej,7990,56,8.7263362,56.6835755
612217,Havnevej,7990,57,8.7308757,56.6841181
612218,Havnevej,7990,58,8.7297725,56.6839962
612219,Havnevej,7990,59,8.7308985,56.6839469
612220,Havnevej,7990,60,8.7300087,56.6840138
612221,Havnevej,7990,61,8.7307671,56.6837778
612222,Havnevej,7990,62,8.730547,56.684021
612223,Havnevej,7990,63,8.7306908,56.6834752
612224,Havnevej,7990,64,8.7302572,56.683735
612225,Havnevej,7990,66,8.7299282,56.6833748
612226,Havnevej,7990,67,8.7306116,56.6827144
612227,Havnevej,7990,70,8.730232,56.683075
612228,Havnevej,7990,71,8.7307479,56.6821964
612229,Havnevej,7990,72,8.7300697,56.6829276
612230,Havnevej,7990,73,8.7309634,56.68217
612231,Havnevej,7990,73A,8.7297262,56.6816624
612232,Havnevej,7990,74,8.7302391,56.6826809
612233,Havnevej,7990,75,8.7305487,56.6818896
612234,Havnevej,7990,76,8.7303969,56.6825637
612235,Havnevej,7990,78,8.730411,56.6824279
612236,Havnevej,7990,82,8.7291788,56.6822694
612237,Havnevej,7990,84A,8.727859,56.6813466
612238,Havnevej,7990,84B,8.7277431,56.6813021
612239,Havnevej,7990,86,8.7270056,56.6813096
612255,Hedestien,7990,1,8.7688821,56.6951615
612256,Hedestien,7990,2,8.7694724,56.6953668
612257,Hedestien,7990,3,8.7679325,56.695586
612258,Hedestien,7990,4,8.7674501,56.6966203
612259,Hedestien,7990,5,8.7672212,56.6962235
612260,Hedestien,7990,6,8.7660049,56.6975809
612261,Hedestien,7990,8,8.7647357,56.6982472
612262,Hedestien,7990,9,8.7660537,56.6968836
612263,Hedestien,7990,11,8.7656368,56.6971371
612264,Hedestien,7990,13,8.7646816,56.6975997
612363,Hesterøroddevej,7990,3,8.694754,56.702059
612364,Hesterøroddevej,7990,3A,8.694671,56.701946
612365,Hesterøroddevej,7990,4,8.694532,56.702263
612366,Hesterøroddevej,7990,6,8.694471,56.702102
612367,Hesterøroddevej,7990,7,8.694441,56.701585
612368,Hesterøroddevej,7990,8,8.6943427,56.7019957
612369,Hesterøroddevej,7990,9,8.694369,56.701477
612370,Hesterøroddevej,7990,10,8.693777,56.702061
612371,Hesterøroddevej,7990,11,8.694299,56.701316
612372,Hesterøroddevej,7990,14,8.694277,56.701839
612373,Hesterøroddevej,7990,16,8.694216,56.701713
612374,Hesterøroddevej,7990,18,8.694153,56.701596
612375,Hesterøroddevej,7990,19,8.694034,56.700712
612376,Hesterøroddevej,7990,20,8.694074,56.701445
612377,Hesterøroddevej,7990,22,8.693999,56.701307
612378,Hesterøroddevej,7990,25,8.6940715,56.7000747
612379,Hesterøroddevej,7990,26,8.6938774,56.7010516
612380,Hesterøroddevej,7990,28,8.693771,56.700939
612381,Hesterøroddevej,7990,29,8.693745,56.699845
612382,Hesterøroddevej,7990,30,8.6936822,56.7007982
612383,Hesterøroddevej,7990,32,8.693636,56.700659
612384,Hesterøroddevej,7990,36,8.693418,56.700348
612385,Hesterøroddevej,7990,37,8.693127,56.698647
612386,Hesterøroddevej,7990,37A,8.693366,56.698864
612387,Hesterøroddevej,7990,40,8.693194,56.699875
612388,Hesterøroddevej,7990,41,8.694283,56.698129
612389,Hesterøroddevej,7990,42,8.692993,56.699705
612390,Hesterøroddevej,7990,44,8.693043,56.699523
612391,Hesterøroddevej,7990,46,8.692913,56.699309
612392,Hesterøroddevej,7990,47,8.692377,56.697527
612393,Hesterøroddevej,7990,50,8.692766,56.698988
612394,Hesterøroddevej,7990,51,8.692124,56.696977
612395,Hesterøroddevej,7990,53,8.693213,56.696668
612396,Hesterøroddevej,7990,59,8.692036,56.696627
612397,Hesterøroddevej,7990,65,8.691534,56.6954111
612398,Hesterøroddevej,7990,68,8.690768,56.695219
612399,Hesterøroddevej,7990,70,8.689959,56.694689
612400,Hesterøroddevej,7990,72,8.689737,56.694434
612401,Hesterøroddevej,7990,75,8.689468,56.693826
612402,Hesterøroddevej,7990,76,8.6883628,56.6940175
612403,Hesterøroddevej,7990,77,8.689046,56.693695
612404,Hesterøroddevej,7990,78,8.688221,56.693756
612405,Hesterøroddevej,7990,79,8.688689,56.693509
612406,Hesterøroddevej,7990,80,8.687622,56.693626
612407,Hesterøroddevej,7990,84,8.685767,56.692995
612408,Hesterøroddevej,7990,85,8.689777,56.691091
612409,Hesterøroddevej,7990,86,8.683773,56.69267
612410,Hesterøroddevej,7990,87,8.685263,56.68938
612411,Hesterøroddevej,7990,88,8.6792238,56.6909355
612412,Hesterøroddevej,7990,89,8.685524,56.687021
612413,Hesterøroddevej,7990,90,8.6800251,56.6892413
612414,Hesterøroddevej,7990,94,8.679419,56.68845
612415,Hesterøroddevej,7990,95,8.679057,56.687917
612416,Hesterøroddevej,7990,96,8.678578,56.688252
612417,Hesterøroddevej,7990,99,8.675251,56.687313
612418,Hesterøroddevej,7990,100,8.6750592,56.6878313
612419,Hesterøroddevej,7990,101,8.671892,56.684266
612420,Hesterøroddevej,7990,102,8.6705306,56.6844673
612421,Hesterøroddevej,7990,103,8.667696,56.681697
612422,Hesterøroddevej,7990,104,8.663902,56.684696
612423,Hesterøroddevej,7990,105,8.666797,56.681172
612424,Hesterøroddevej,7990,106,8.660738,56.677305
612425,Hesterøroddevej,7990,107,8.671488,56.676802
612426,Hesterøroddevej,7990,108,8.658646,56.675779
612427,Hesterøroddevej,7990,109,8.6637641,56.6761925
612428,Hesterøroddevej,7990,110,8.65653,56.674397
612429,Hesterøroddevej,7990,111,8.660889,56.676229
612430,Hesterøroddevej,7990,112,8.65436,56.673472
612431,Hesterøroddevej,7990,113,8.652747,56.672036
612432,Hesterøroddevej,7990,114,8.649522,56.671883
612433,Hesterøroddevej,7990,116,8.649268,56.67164
612462,Hovedstrædet,7990,2,8.6499025,56.7010056
612463,Hovedstrædet,7990,3,8.6492508,56.7007234
612464,Hovedstrædet,7990,5,8.6488724,56.7007045
612465,Hovedstrædet,7990,6,8.6494856,56.7010111
612466,Hovedstrædet,7990,7,8.6484622,56.7008233
612467,Hovedstrædet,7990,9,8.6478272,56.7007627
612468,Hovedstrædet,7990,10,8.6488642,56.7010621
612469,Hovedstrædet,7990,13,8.647211,56.70038
612470,Hovedstrædet,7990,14,8.6481916,56.7010183
612471,Hovedstrædet,7990,18,8.6471189,56.7012234
612472,Hovedstrædet,7990,19,8.646586,56.7005943
612473,Hovedstrædet,7990,20,8.6471947,56.7009683
612474,Hovedstrædet,7990,22,8.6462137,56.700994
612475,Hovedstrædet,7990,23,8.6459366,56.7008436
612476,Hovedstrædet,7990,24,8.6454427,56.7010431
612477,Hovedstrædet,7990,25,8.6456698,56.7007943
612478,Hovedstrædet,7990,26,8.6457851,56.7032117
612479,Hovedstrædet,7990,28,8.6427151,56.7015687
612480,Hovedstrædet,7990,30,8.6428985,56.7024472
612481,Hovedstrædet,7990,31,8.6438197,56.7003533
612482,Hovedstrædet,7990,33,8.6443539,56.7009774
612483,Hovedstrædet,7990,34,8.641655,56.701804
612484,Hovedstrædet,7990,35,8.6441331,56.7010273
612485,Hovedstrædet,7990,36,8.6412921,56.7020867
612486,Hovedstrædet,7990,37,8.6438338,56.7010822
612487,Hovedstrædet,7990,39,8.6435448,56.7011577
612488,Hovedstrædet,7990,41,8.641816,56.7003718
612489,Hovedstrædet,7990,43,8.6420663,56.7015596
612584,Højgårdsvej,7990,2,8.7199991,56.6935277
612585,Højgårdsvej,7990,3,8.7219914,56.6917486
612586,Højgårdsvej,7990,4,8.718521,56.689456
612587,Højgårdsvej,7990,5,8.7202953,56.6890457
612662,Idrætsvej,7990,1,8.693752,56.699638
612663,Idrætsvej,7990,2,8.6935,56.699319
612664,Idrætsvej,7990,3,8.694292,56.699586
612665,Idrætsvej,7990,4,8.693903,56.699294
612666,Idrætsvej,7990,5,8.694709,56.699509
612667,Idrætsvej,7990,6,8.694267,56.699228
612668,Idrætsvej,7990,8,8.694545,56.699182
612669,Idrætsvej,7990,10,8.695085,56.699206
612837,Jordmodervej,7990,2,8.7180988,56.7071906
612838,Jordmodervej,7990,3,8.7227327,56.707173
612839,Jordmodervej,7990,4,8.7239991,56.7050778
612884,Kamillevej,7990,1,8.770471,56.7136771
612885,Kamillevej,7990,2,8.7702289,56.7133074
612886,Kamillevej,7990,3,8.770854,56.7135885
612887,Kamillevej,7990,4,8.7707227,56.7132599
612888,Kamillevej,7990,5,8.7713054,56.7135438
612889,Kamillevej,7990,6,8.771063,56.7131103
612890,Kamillevej,7990,7,8.7717712,56.7134276
612891,Kamillevej,7990,8,8.7714579,56.7131034
612892,Kamillevej,7990,9,8.7722156,56.7133157
612893,Kamillevej,7990,10,8.7718798,56.7129609
612894,Kamillevej,7990,11,8.7726351,56.7130459
612895,Kamillevej,7990,12,8.7726113,56.7128544
612896,Kampsvej,7990,2,8.768059,56.6936206
612897,Kampsvej,7990,3,8.7669725,56.6934751
612898,Kampsvej,7990,4,8.7675032,56.6940684
612899,Kampsvej,7990,5,8.7662974,56.6939116
612900,Kampsvej,7990,6,8.7672907,56.6944867
612901,Kampsvej,7990,7,8.7657838,56.6942204
612902,Kampsvej,7990,8,8.7666109,56.6947602
612903,Kampsvej,7990,9,8.7654372,56.6944181
612904,Kampsvej,7990,10,8.7667957,56.6953949
612905,Kampsvej,7990,11,8.765058,56.694909
612906,Kampsvej,7990,12,8.7664187,56.6956323
612907,Kampsvej,7990,13,8.7641927,56.6948899
612908,Kampsvej,7990,14,8.7654655,56.6954592
612909,Kampsvej,7990,15,8.7639071,56.695461
612910,Kampsvej,7990,16,8.7656979,56.6961083
612911,Kampsvej,7990,17,8.7634698,56.6956026
612912,Kampsvej,7990,18,8.7648276,56.6958728
612913,Kampsvej,7990,19,8.7632231,56.6960882
612914,Kampsvej,7990,20,8.7640005,56.6963324
612915,Kampsvej,7990,22,8.7647075,56.6966408
612916,Kampsvej,7990,24,8.7636846,56.6967823
613134,Kirkestræde,7990,2,8.696437,56.702425
613135,Kirkestræde,7990,4,8.6965353,56.7026048
613136,Kirkestræde,7990,5,8.6957717,56.7027639
613137,Kirkestræde,7990,8,8.697158,56.702965
613138,Kirkestræde,7990,10,8.6966367,56.7032375
613139,Kirkestræde,7990,12,8.696352,56.703011
613140,Kirkestræde,7990,14,8.696252,56.703037
613141,Kirkestræde,7990,16,8.696146,56.703154
613142,Kirkestræde,7990,18,8.6957239,56.7032641
613143,Kirkestræde,7990,20,8.6955395,56.7032751
613144,Kirkestræde,7990,24,8.694908,56.703336
613145,Kirkestræde,7990,26,8.6943806,56.703278
613310,Kompasvej,7990,2,8.7311797,56.6845028
613311,Kompasvej,7990,3,8.7317474,56.6843374
613312,Kompasvej,7990,4,8.7311617,56.6842567
613313,Kompasvej,7990,5,8.7317861,56.6840675
613314,Kompasvej,7990,6,8.7313268,56.684042
613315,Kompasvej,7990,7,8.7320552,56.683866
613316,Kompasvej,7990,8,8.7313357,56.6837998
613319,Kongehøjvej,7990,6,8.7534283,56.7360375
613320,Kongehøjvej,7990,8,8.7537074,56.7353638
613321,Kongehøjvej,7990,9,8.754113,56.7356634
613322,Kongehøjvej,7990,11,8.7546513,56.7354469
613323,Kongehøjvej,7990,13,8.7559481,56.7343308
613324,Kongehøjvej,7990,15,8.7559916,56.7305409
613325,Kongehøjvej,7990,15A,8.7558615,56.7295569
613326,Kongehøjvej,7990,17,8.7611989,56.7298575
613327,Kongehøjvej,7990,19,8.756255,56.726659
613328,Kongehøjvej,7990,20,8.7569468,56.7230538
613329,Kongehøjvej,7990,21,8.7577941,56.7218978
613330,Kongehøjvej,7990,28,8.7576419,56.7213136
613331,Kongehøjvej,7990,28A,8.7579392,56.7208108
613332,Kongehøjvej,7990,30,8.7581117,56.7205191
613333,Kongehøjvej,7990,31,8.7586497,56.720466
613334,Kongehøjvej,7990,33,8.758876,56.7199402
613335,Kongehøjvej,7990,34,8.7581064,56.7199655
613336,Kongehøjvej,7990,38,8.7579383,56.7196739
613337,Kongehøjvej,7990,39,8.758675,56.7195331
613338,Kongehøjvej,7990,41,8.7586164,56.7191093
613339,Kongehøjvej,7990,45,8.7585443,56.718556
613340,Kongehøjvej,7990,47,8.7585008,56.7183354
613341,Kongehøjvej,7990,49,8.7585059,56.7181749
613342,Kongehøjvej,7990,51,8.7583272,56.7180449
613343,Kongehøjvej,7990,53,8.7581614,56.7178856
613344,Kongehøjvej,7990,55,8.7580071,56.7176204
613345,Kongehøjvej,7990,57,8.757731,56.717446
613346,Kongehøjvej,7990,58,8.7578493,56.7182977
613347,Kongehøjvej,7990,59,8.7575819,56.7173021
613348,Kongehøjvej,7990,60,8.7577848,56.7181195
613349,Kongehøjvej,7990,61,8.7573826,56.717118
613350,Kongehøjvej,7990,62,8.7576488,56.7179494
613351,Kongehøjvej,7990,64,8.756453,56.7177218
613352,Kongehøjvej,7990,65,8.7567586,56.7162677
613353,Kongehøjvej,7990,69,8.7575649,56.7159013
613354,Kongehøjvej,7990,71,8.7565698,56.715883
613355,Kongehøjvej,7990,73,8.7561796,56.7157153
613356,Kongehøjvej,7990,74,8.7551724,56.7155444
613357,Kongehøjvej,7990,79,8.7558351,56.7150162
613358,Kongehøjvej,7990,81,8.7557823,56.7148072
613359,Kongehøjvej,7990,83,8.7555915,56.7146177
613360,Kongehøjvej,7990,85,8.755316,56.714428
613361,Kongehøjvej,7990,87,8.7552423,56.7142656
613362,Kongehøjvej,7990,89,8.7551784,56.7139783
613539,Kroghsvej,7990,1,8.7696297,56.69613
613540,Kroghsvej,7990,1A,8.7684954,56.6966311
613541,Kroghsvej,7990,2,8.7702881,56.6962593
613542,Kroghsvej,7990,3,8.7682149,56.6968669
613543,Kroghsvej,7990,4,8.7689179,56.6973614
613544,Kroghsvej,7990,5,8.7677763,56.6971353
613545,Kroghsvej,7990,6,8.7681522,56.6977648
613546,Kroghsvej,7990,7,8.7671364,56.6975591
613627,Kærvænget,7990,3,8.647843,56.701511
613628,Kærvænget,7990,4,8.6486211,56.7014747
613629,Kærvænget,7990,6,8.6485963,56.7017116
613749,Lanternevej,7990,1,8.7328394,56.6846508
613750,Lanternevej,7990,3,8.7328983,56.6844206
613751,Lanternevej,7990,4,8.7322264,56.6843404
613752,Lanternevej,7990,5,8.7331652,56.684238
613753,Lanternevej,7990,6,8.7324995,56.684169
613754,Lanternevej,7990,7,8.7332694,56.6840174
613755,Lanternevej,7990,8,8.7324211,56.6839458
613756,Lanternevej,7990,10,8.7325159,56.6836838
613792,Lervænget,7990,3,8.6674526,56.6975682
613793,Lervænget,7990,5,8.6686909,56.6965779
613794,Lervænget,7990,6,8.6623862,56.6966064
613795,Lervænget,7990,8,8.6596593,56.6966042
613796,Lervænget,7990,10,8.6622464,56.6943616
613893,Lunden,7990,2,8.6505538,56.6943486
613894,Lunden,7990,4,8.6535619,56.6924621
613895,Lunden,7990,5,8.654299,56.690209
613896,Lunden,7990,6,8.653514,56.6894123
613897,Lunden,7990,8,8.6548782,56.6883541
613898,Lunden,7990,10,8.656128,56.6871812
613899,Lunden,7990,12,8.659408,56.682474
613900,Lunden,7990,14,8.660178,56.681387
614534,Mygdammen,7990,1,8.75691,56.690062
614535,Mygdammen,7990,2,8.75693,56.690425
614536,Mygdammen,7990,3,8.7563584,56.6897641
614537,Mygdammen,7990,5,8.7556513,56.6895384
614538,Mygdammen,7990,6,8.7551231,56.6902588
614539,Mygdammen,7990,7,8.7547449,56.6896725
614540,Mygdammen,7990,8,8.7546439,56.6901872
614541,Mygdammen,7990,9,8.7541481,56.6893868
614542,Mælkevejen,7990,1,8.694575,56.702379
614543,Mælkevejen,7990,3,8.694587,56.702505
614544,Mælkevejen,7990,5,8.6945598,56.7026115
614545,Mælkevejen,7990,7,8.694427,56.702708
614546,Mælkevejen,7990,8,8.69471,56.702918
614547,Mælkevejen,7990,9,8.694215,56.702926
614548,Mælkevejen,7990,10,8.694547,56.703153
614549,Mælkevejen,7990,11,8.694049,56.703217
614550,Mælkevejen,7990,12,8.694495,56.703522
614551,Mælkevejen,7990,13,8.693802,56.703354
614552,Mælkevejen,7990,14,8.694159,56.7033752
614553,Mælkevejen,7990,15,8.693705,56.703448
614554,Mælkevejen,7990,16,8.6940499,56.7034612
614555,Mælkevejen,7990,17,8.693612,56.703536
614556,Mælkevejen,7990,18,8.693898,56.703556
614557,Mælkevejen,7990,19,8.693483,56.703614
614558,Mælkevejen,7990,20,8.693892,56.703881
614559,Mælkevejen,7990,21,8.69325,56.703746
614560,Mælkevejen,7990,22,8.69342,56.7039
614561,Mælkevejen,7990,23,8.6928663,56.7038435
614562,Mælkevejen,7990,24,8.6932797,56.7039423
614563,Mælkevejen,7990,25,8.692649,56.703994
614564,Mælkevejen,7990,26,8.693277,56.704336
614565,Mælkevejen,7990,27,8.692506,56.703763
614566,Mælkevejen,7990,29,8.69241,56.703537
614567,Mælkevejen,7990,31,8.692367,56.703356
614568,Mælkevejen,7990,32,8.692729,56.704531
614569,Mælkevejen,7990,34,8.691652,56.704773
614570,Mælkevejen,7990,35,8.691794,56.704346
614571,Mælkevejen,7990,36,8.691239,56.704804
614572,Mælkevejen,7990,37,8.6911779,56.7044373
614573,Mælkevejen,7990,39,8.6907826,56.7045226
614574,Mælkevejen,7990,41,8.690427,56.7046309
614575,Mælkevejen,7990,43,8.68968,56.704797
614576,Mælkevejen,7990,49,8.687936,56.704463
614577,Mælkevejen,7990,53,8.688211,56.703768
614604,Møllebjerget,7990,1,8.6876925,56.7041296
614605,Møllebjerget,7990,2,8.687161,56.704509
614606,Møllebjerget,7990,4,8.686922,56.704315
614607,Møllebjerget,7990,6,8.686395,56.704169
614608,Møllebjerget,7990,9,8.6868554,56.7007754
614609,Møllebjerget,7990,10,8.685353,56.703456
614610,Møllebjerget,7990,12,8.68521,56.703314
614611,Møllebjerget,7990,13,8.680314,56.69943
614612,Møllebjerget,7990,16,8.678507,56.702724
614613,Møllebjerget,7990,17,8.6707029,56.7001523
614614,Møllebjerget,7990,18,8.6738642,56.7023381
614615,Møllebjerget,7990,20,8.6694666,56.7061635
614616,Møllebjerget,7990,20A,8.6702839,56.7059066
614617,Møllebjerget,7990,21,8.667614,56.7016876
614618,Møllebjerget,7990,22,8.6629737,56.7014266
614619,Møllebjerget,7990,23,8.6653075,56.7012048
614620,Møllebjerget,7990,24,8.6504601,56.7013511
614621,Møllebjerget,7990,25,8.6524459,56.6992489
614622,Møllebjerget,7990,26,8.6518624,56.7035848
614623,Møllebjerget,7990,28,8.652477,56.7051306
614631,Møllersmindevej,7990,1,8.7521,56.7116916
614632,Møllersmindevej,7990,2,8.7458263,56.7145673
614633,Møllersmindevej,7990,3,8.7452517,56.711518
614634,Møllersmindevej,7990,4,8.7416681,56.7148072
614635,Møllersmindevej,7990,6,8.7397831,56.7122072
614636,Møllersmindevej,7990,8,8.7374267,56.7110908
614637,Møllersmindevej,7990,10,8.736596,56.710516
614638,Møllersmindevej,7990,11,8.7380737,56.7092829
614639,Møllersmindevej,7990,12,8.7347444,56.708563
614640,Møllersmindevej,7990,13,8.7344702,56.7067996
614641,Møllersmindevej,7990,14,8.732183,56.702014
614642,Møllersmindevej,7990,15,8.7354204,56.7053161
614643,Møllersmindevej,7990,16,8.725326,56.7014729
614644,Møllersmindevej,7990,17,8.7325771,56.7005632
614645,Møllersmindevej,7990,18,8.7257496,56.7001998
614646,Møllersmindevej,7990,19,8.731956,56.7000454
614647,Møllersmindevej,7990,20,8.7275708,56.697729
614648,Møllersmindevej,7990,21,8.7298025,56.6987392
614649,Møllersmindevej,7990,23,8.7293221,56.697994
614650,Møllersmindevej,7990,23A,8.7288348,56.6969967
614651,Møllersmindevej,7990,24,8.7285682,56.6955281
614652,Møllersmindevej,7990,25,8.7311413,56.6967597
614653,Møllersmindevej,7990,27,8.7290022,56.6964662
614660,Møllevej,7990,2,8.7621329,56.7195847
614661,Møllevej,7990,4,8.7617478,56.7196696
614662,Møllevej,7990,5,8.7603964,56.7194794
614663,Møllevej,7990,6,8.7613571,56.7197192
614664,Møllevej,7990,8,8.7610302,56.7197723
614665,Møllevej,7990,9,8.7590208,56.7192152
614666,Møllevej,7990,10,8.7605188,56.7200277
614667,Møllevej,7990,14,8.7599631,56.7198126
614668,Møllevej,7990,16,8.7593441,56.7195808
614669,Møllevej,7990,18,8.7590154,56.7195398
614766,N. C. Rasmussens Vej,7990,1,8.694575,56.701799
614767,N. C. Rasmussens Vej,7990,3,8.694968,56.701747
614768,N. C. Rasmussens Vej,7990,4,8.694804,56.701582
614769,N. C. Rasmussens Vej,7990,5,8.695379,56.701753
614770,N. C. Rasmussens Vej,7990,6,8.694519,56.700991
614771,N. C. Rasmussens Vej,7990,12A,8.695197,56.701533
614772,N. C. Rasmussens Vej,7990,12B,8.695387,56.701537
614773,N. C. Rasmussens Vej,7990,12C,8.695553,56.701507
614774,N. C. Rasmussens Vej,7990,12D,8.6957866,56.701476
614775,N. C. Rasmussens Vej,7990,12E,8.6957591,56.701407
614776,N. C. Rasmussens Vej,7990,12F,8.6956849,56.701286
614777,N. C. Rasmussens Vej,7990,12G,8.695503,56.701308
614778,N. C. Rasmussens Vej,7990,12H,8.6954,56.701391
615439,Nørrekjær,7990,3,8.6685856,56.7234027
615440,Nørrekjær,7990,7,8.672875,56.724332
615441,Nørrekjær,7990,9,8.6731681,56.7253887
615549,Nøråvej,7990,30,8.6607173,56.7211896
615550,Nøråvej,7990,32,8.6605709,56.7203895
615645,Perlevej,7990,2,8.7177768,56.6858189
615646,Perlevej,7990,3,8.7184569,56.6846312
615647,Perlevej,7990,4,8.7179976,56.6850621
615648,Perlevej,7990,5,8.7190032,56.6846548
615649,Perlevej,7990,6,8.7175837,56.683126
615650,Perlevej,7990,7,8.7223164,56.6847112
615651,Perlevej,7990,9,8.7201966,56.6819933
615652,Perlevej,7990,10,8.7179389,56.6821417
615653,Perlevej,7990,10A,8.717675,56.6820498
615654,Peterslundsvej,7990,4,8.6817287,56.6850111
615655,Peterslundsvej,7990,5,8.6908922,56.685181
615656,Peterslundsvej,7990,6,8.6911528,56.6829183
615657,Peterslundsvej,7990,7,8.6963357,56.683277
616114,Præstealle,7990,1,8.696698,56.701132
616344,Rolighedsvej,7990,4,8.703182,56.69636
616345,Rolighedsvej,7990,6,8.702478,56.693871
616346,Rolighedsvej,7990,8,8.701496,56.692376
616347,Rolighedsvej,7990,10,8.700374,56.692514
616348,Rolighedsvej,7990,11,8.701458,56.691495
616349,Rolighedsvej,7990,12,8.696505,56.691137
616350,Rolighedsvej,7990,14,8.696074,56.689019
616351,Rolighedsvej,7990,17,8.6977215,56.6871294
616352,Rolighedsvej,7990,18,8.697149,56.686482
616353,Rolighedsvej,7990,19,8.698021,56.685714
616354,Rolighedsvej,7990,22,8.6972652,56.6844316
616487,Romerdammen,7990,2,8.7308502,56.6829341
616488,Romerdammen,7990,3,8.7309396,56.6831957
616489,Romerdammen,7990,4,8.7321158,56.682784
616490,Romerdammen,7990,5,8.7311852,56.6832973
616491,Romerdammen,7990,7,8.731475,56.6833472
616492,Romerdammen,7990,9,8.7317466,56.6834046
616493,Romerdammen,7990,11,8.7321085,56.683635
616494,Romerdammen,7990,12,8.733206,56.6830842
616495,Romerdammen,7990,16,8.7343442,56.6840809
616496,Romerdammen,7990,20,8.7387201,56.6840476
616680,Røllikevej,7990,6,8.7694262,56.713498
616681,Røllikevej,7990,8,8.7693289,56.7131014
616977,Serupsvej,7990,6,8.639939,56.7011481
616978,Serupsvej,7990,7,8.6391153,56.7005646
616979,Serupsvej,7990,8,8.6377945,56.70119
616980,Serupsvej,7990,10,8.6340155,56.7015626
616981,Serupsvej,7990,14,8.6301811,56.7005206
616982,Skallevej,7990,1,8.7540726,56.6911682
616983,Skallevej,7990,3,8.7536685,56.6905464
616984,Skallevej,7990,4,8.7532134,56.6917816
616985,Skallevej,7990,5,8.7535759,56.6898818
616986,Skallevej,7990,6,8.7517912,56.691357
616987,Skallevej,7990,7,8.7534136,56.6892614
616988,Skallevej,7990,8,8.7528529,56.6911603
616989,Skallevej,7990,9,8.7530594,56.6886992
616990,Skallevej,7990,10,8.7526351,56.6906428
616991,Skallevej,7990,11,8.7527217,56.6879924
616992,Skallevej,7990,12,8.7515311,56.6907729
616993,Skallevej,7990,14,8.7509056,56.691482
616994,Skallevej,7990,15,8.7514147,56.6874997
616995,Skallevej,7990,16,8.7499914,56.6910219
616996,Skallevej,7990,17,8.7508739,56.68732
616997,Skallevej,7990,18,8.7489165,56.6905332
616998,Skallevej,7990,19,8.7500183,56.6872107
616999,Skallevej,7990,20,8.7500512,56.690359
617000,Skallevej,7990,21,8.749513,56.6869597
617001,Skallevej,7990,22,8.7509226,56.6902042
617002,Skallevej,7990,23,8.7488695,56.6867979
617003,Skallevej,7990,24,8.7523397,56.6900058
617004,Skallevej,7990,25,8.7482954,56.686681
617005,Skallevej,7990,27,8.7478571,56.6865527
617006,Skallevej,7990,29,8.747087,56.686764
617007,Skallevej,7990,31,8.7465242,56.6866928
617008,Skallevej,7990,33,8.7460636,56.6865698
617009,Skallevej,7990,35,8.7455651,56.686551
617010,Skallevej,7990,36,8.7519701,56.6884364
617011,Skallevej,7990,38,8.7511145,56.6883549
617012,Skallevej,7990,40,8.7505813,56.6882613
617013,Skallevej,7990,42,8.7498332,56.6879749
617014,Skallevej,7990,44,8.7489742,56.6880468
617015,Skallevej,7990,46,8.7483347,56.6879729
617016,Skallevej,7990,48,8.747705,56.687723
617017,Skallevej,7990,50,8.74699,56.6878814
617018,Skallevej,7990,52,8.7464671,56.687802
617019,Skallevej,7990,54,8.7459813,56.6876892
617020,Skallevej,7990,56,8.7455362,56.6875322
617090,Skibdalsvej,7990,1,8.7322211,56.6887853
617091,Skibdalsvej,7990,5,8.7286475,56.6884849
617092,Skibdalsvej,7990,6,8.7263881,56.6885404
617093,Skibdalsvej,7990,10,8.7235638,56.6879672
617094,Skibdalsvej,7990,21,8.7105779,56.6850555
617095,Skibdalsvej,7990,23,8.708614,56.6846
617096,Skibdalsvej,7990,24,8.708097,56.684896
617097,Skibdalsvej,7990,25,8.70597,56.684553
617098,Skibdalsvej,7990,26,8.704256,56.685306
617099,Skibdalsvej,7990,27,8.705492,56.682942
617100,Skibdalsvej,7990,28,8.70515,56.686196
617101,Skibdalsvej,7990,29,8.703209,56.684326
617102,Skibdalsvej,7990,33,8.701032,56.684145
617103,Skibdalsvej,7990,34,8.700032,56.684327
617195,Skolesvinget,7990,3,8.7589059,56.7189433
617196,Skolesvinget,7990,4,8.7589381,56.7186524
617197,Skolesvinget,7990,5,8.7596966,56.718743
617198,Skolesvinget,7990,6,8.7592232,56.7185562
617199,Skolesvinget,7990,7,8.7599349,56.7185718
617200,Skolesvinget,7990,8,8.759175,56.7182973
617201,Skolesvinget,7990,9,8.7605002,56.7186871
617202,Skolesvinget,7990,10,8.7594204,56.7184699
617203,Skolesvinget,7990,11,8.760298,56.718053
617204,Skolesvinget,7990,14,8.7598036,56.7181603
617205,Skolesvinget,7990,18,8.7603771,56.717634
617206,Skolesvinget,7990,18A,8.7604448,56.7175283
617342,Skræppedalsvej,7990,71,8.7775552,56.723037
617343,Skræppedalsvej,7990,73,8.7752349,56.7234187
617344,Skræppedalsvej,7990,74,8.774455,56.7252966
617345,Skræppedalsvej,7990,79,8.7696212,56.7227113
617624,Sportsvej,7990,1,8.69396,56.700572
617625,Sportsvej,7990,3,8.694456,56.700531
617626,Sportsvej,7990,4,8.694551,56.700031
617627,Sportsvej,7990,5,8.6947269,56.7005305
617628,Sportsvej,7990,6,8.69462,56.700299
617629,Sportsvej,7990,8,8.694921,56.700214
617630,Sportsvej,7990,10,8.695178,56.700173
617631,Sportsvej,7990,12,8.695434,56.700121
617635,Stadionvej,7990,12,8.695542,56.701178
617636,Stadionvej,7990,14,8.6954926,56.7009981
617637,Stadionvej,7990,16,8.695437,56.700825
617638,Stadionvej,7990,18,8.6953579,56.7006873
617639,Stadionvej,7990,20,8.695297,56.700491
617640,Stadionvej,7990,26,8.695665,56.699962
617641,Stadionvej,7990,28,8.695597,56.699807
617642,Stadionvej,7990,29,8.69612,56.699646
617643,Stadionvej,7990,30,8.695469,56.699608
617644,Stadionvej,7990,31,8.6956659,56.6991126
617645,Stadionvej,7990,32,8.695341,56.699401
617646,Stadionvej,7990,33,8.695649,56.698719
617647,Stadionvej,7990,35,8.695337,56.69786
617648,Stadionvej,7990,36,8.694995,56.698914
617649,Stadionvej,7990,38,8.694137,56.697046
617650,Stadionvej,7990,40,8.694534,56.696935
617651,Staghøjmøllevej,7990,3,8.7125144,56.6963692
617652,Staghøjmøllevej,7990,5,8.7144625,56.6954066
617653,Staghøjmøllevej,7990,7,8.7155603,56.694951
617654,Staghøjmøllevej,7990,8,8.7157883,56.6931062
617655,Staghøjmøllevej,7990,13,8.724333,56.6967106
617656,Staghøjmøllevej,7990,14,8.7246776,56.693884
617657,Staghøjmøllevej,7990,16,8.7257553,56.6910888
617658,Staghøjmøllevej,7990,20,8.7283825,56.6942946
617659,Staghøjmøllevej,7990,22,8.7291367,56.6935379
617660,Staghøjmøllevej,7990,23,8.7290838,56.6947675
617734,Storupgårdvej,7990,3,8.737437,56.7211001
617735,Storupgårdvej,7990,8,8.7401948,56.7194875
617736,Stranden,7990,3,8.7628639,56.7168894
617737,Stranden,7990,6,8.7586623,56.7160247
617738,Stranden,7990,8,8.7609773,56.715903
617739,Stranden,7990,10,8.7608981,56.7155759
617740,Stranden,7990,12,8.7608443,56.7147096
617741,Stranden,7990,15,8.7641224,56.7148178
617742,Stranden,7990,20,8.7639847,56.7115118
617743,Stranden,7990,21,8.7648822,56.7124502
617744,Stranden,7990,27,8.7676322,56.7115342
617745,Stranden,7990,30,8.7683247,56.7113661
617746,Stranden,7990,37,8.7711776,56.7117546
617747,Stranden,7990,40,8.7732735,56.711938
617748,Stranden,7990,41,8.7734448,56.7123746
617749,Stranden,7990,44,8.7792565,56.7135863
617750,Stranden,7990,47,8.7761116,56.7159658
617751,Stranden,7990,48,8.7826541,56.7159665
617898,Strædet,7990,4,8.6447669,56.7005107
617899,Strædet,7990,9,8.6464289,56.6997402
617900,Strædet,7990,11,8.6468126,56.699568
617901,Strædet,7990,15,8.647328,56.699488
617902,Strædet,7990,17,8.6475173,56.6994449
617903,Strædet,7990,19,8.6477205,56.6994062
617904,Strædet,7990,23,8.6481208,56.6993259
617905,Strædet,7990,29,8.6492161,56.6990123
617906,Strædet,7990,38,8.6530842,56.6965207
618135,Svanekærvej,7990,2,8.713852,56.703828
618136,Svanekærvej,7990,4,8.71223,56.703743
618137,Svanekærvej,7990,6,8.710868,56.703724
618138,Svanekærvej,7990,8,8.7092661,56.7030261
618139,Svanekærvej,7990,9,8.709134,56.702228
618140,Svanekærvej,7990,10,8.707746,56.702478
618141,Svanekærvej,7990,12,8.707218,56.702409
618142,Svinget,7990,3,8.6612591,56.6913256
618143,Svinget,7990,7,8.6609659,56.6900099
618144,Svinget,7990,9,8.6612829,56.6886006
618203,Søndenom,7990,1,8.6842816,56.7170028
618204,Søndenom,7990,3,8.6841755,56.716631
618205,Søndenom,7990,6,8.683536,56.7164817
618206,Søndenom,7990,7,8.6834561,56.7161414
618207,Søndenom,7990,8,8.6780617,56.7152143
618208,Søndenom,7990,9,8.673045,56.7131491
618209,Søndenom,7990,10,8.6695469,56.7160248
618210,Søndenom,7990,11,8.6622778,56.712834
618211,Søndenom,7990,13,8.6563449,56.7128152
618212,Søndenom,7990,15,8.6599711,56.7174439
618213,Søndenom,7990,17,8.6606675,56.7199713
618251,Søndertoften,7990,3,8.7566745,56.7154527
618252,Søndertoften,7990,5,8.7570938,56.7153413
618253,Søndertoften,7990,6,8.756938,56.7147968
618254,Søndertoften,7990,7,8.7575307,56.7152996
618255,Søndertoften,7990,8,8.7570537,56.7150452
618256,Søndertoften,7990,9,8.7573986,56.7155434
618257,Søndertoften,7990,10,8.7574825,56.7149465
618258,Søndertoften,7990,11A,8.7581775,56.7154578
618259,Søndertoften,7990,11B,8.7580945,56.7155296
618260,Søndertoften,7990,13A,8.758574,56.71546
618261,Søndertoften,7990,13B,8.7584789,56.7155285
618262,Søndertoften,7990,13C,8.7583365,56.7156709
618263,Søndertoften,7990,13D,8.7582308,56.7157316
618264,Søndertoften,7990,15A,8.7589959,56.7154425
618265,Søndertoften,7990,15B,8.7588943,56.7155103
618266,Søndertoften,7990,15C,8.7587591,56.7156082
618267,Søndertoften,7990,15D,8.7586721,56.7156657
618268,Søndertoften,7990,17A,8.7590907,56.7152093
618269,Søndertoften,7990,17B,8.7591279,56.7151338
618270,Søndertoften,7990,17C,8.7591627,56.7150646
618271,Søndertoften,7990,27,8.7591343,56.7148536
618272,Søndertoften,7990,29,8.7591005,56.7145678
618273,Søndertoften,7990,31,8.7585459,56.7146339
618274,Søndertoften,7990,33,8.7582677,56.7146154
618355,Tagensvej,7990,4,8.7660362,56.6930179
618356,Tagensvej,7990,6,8.7655089,56.6927866
618357,Tagensvej,7990,7,8.763346,56.6933156
618358,Tagensvej,7990,8,8.7652949,56.6934616
618359,Tagensvej,7990,10,8.764714,56.6930887
618360,Tagensvej,7990,12,8.7640858,56.6938318
618361,Tagensvej,7990,14,8.7636349,56.6940799
618507,Tingstedvej,7990,2,8.7558866,56.7123169
618508,Tingstedvej,7990,4,8.7549771,56.7124318
618509,Tingstedvej,7990,6,8.7560266,56.7118447
618510,Tingstedvej,7990,8,8.7557575,56.7115621
618511,Tingstedvej,7990,9,8.7578311,56.7131545
618512,Tingstedvej,7990,9A,8.7570403,56.7127074
618513,Tingstedvej,7990,10,8.7556859,56.7110995
618514,Tingstedvej,7990,11,8.7563654,56.7110759
618515,Tingstedvej,7990,13,8.7624886,56.7078232
618516,Tingstedvej,7990,14,8.7512404,56.708777
618517,Tingstedvej,7990,15,8.7556264,56.7071956
618518,Tingstedvej,7990,16,8.7448154,56.7041326
618519,Tingstedvej,7990,17,8.7472943,56.7033294
618520,Tingstedvej,7990,17A,8.7437266,56.7026634
618521,Tingstedvej,7990,18,8.739554,56.7014415
618522,Tingstedvej,7990,25,8.735623,56.6983112
618523,Tingstedvej,7990,27,8.7355101,56.7003011
618524,Tingstedvej,7990,29,8.7328768,56.697423
618606,Tohøjevej,7990,2,8.7103854,56.692271
618607,Tohøjevej,7990,3,8.710829,56.689434
618608,Tohøjevej,7990,5,8.710251,56.686634
619339,Vittrupvej,7990,26,8.7730391,56.7274058
619340,Vittrupvej,7990,27,8.7726402,56.7268071
619341,Vittrupvej,7990,28,8.7727774,56.7272106
619342,Vittrupvej,7990,29,8.771853,56.7261469
619343,Vittrupvej,7990,30,8.7705387,56.7272237
619344,Vittrupvej,7990,31,8.7674961,56.7239026
619345,Vittrupvej,7990,32,8.7694429,56.7256442
619346,Vittrupvej,7990,33,8.766775,56.723242
619347,Vittrupvej,7990,34,8.7685308,56.7249796
619348,Vittrupvej,7990,36,8.7675882,56.7243218
619349,Vittrupvej,7990,38,8.7659716,56.7233766
619381,Ørding Kærvej,7990,2,8.7511507,56.7039822
619382,Ørding Kærvej,7990,4,8.7539051,56.7020749
619383,Ørding Kærvej,7990,5,8.7574845,56.7027754
619384,Ørding Kærvej,7990,19,8.7524999,56.6938051
619385,Ørding Kærvej,7990,23,8.7528943,56.6930093
619509,Østerbyen,7990,3,8.7620985,56.716567
619510,Østerbyen,7990,4,8.7666941,56.7140117
619511,Østerbyen,7990,5,8.7684513,56.7172133
619512,Østerbyen,7990,6,8.7697632,56.7137813
619513,Østerbyen,7990,7,8.7698929,56.7152199
619514,Østerbyen,7990,9,8.7740866,56.7138806
619515,Østerbyen,7990,11,8.7728511,56.7135253
619516,Østerbyen,7990,12,8.77306,56.7128115
619517,Østerbyen,7990,13,8.7734447,56.7133449
619518,Østerbyen,7990,14,8.7731219,56.7126487
619519,Østerbyen,7990,15,8.7737126,56.7131379
619520,Østerbyen,7990,17,8.774709,56.712418
619693,Åbakken,7990,4,8.691961,56.7161199
619694,Åbakken,7990,6,8.6911573,56.7162662
619695,Åbakken,7990,10,8.6903139,56.7166681
619696,Åbakken,7990,14,8.688194,56.717336
619697,Åbakken,7990,16,8.6856848,56.7165535
619698,Åbakken,7990,17,8.6853419,56.7164311
619699,Åbakken,7990,18,8.6855398,56.7170917
619700,Åbakken,7990,20,8.6852536,56.7168313
619701,Åbakken,7990,21,8.6848407,56.7166653
619702,Åbakken,7990,22,8.6850452,56.7170059
619703,Åbakken,7990,25,8.6839928,56.7172406
619704,Åbakken,7990,26,8.6844409,56.7174484
619705,Åbakken,7990,28,8.6851269,56.7187643
619706,Åbakken,7990,28A,8.6818943,56.7184486
619707,Åbakken,7990,30,8.6813361,56.7188312
619708,Åbakken,7990,34,8.6746944,56.7194641
619709,Åbakken,7990,36,8.6739227,56.7196376
619710,Åbakken,7990,39,8.6686531,56.7198496
619711,Åbakken,7990,40,8.6670573,56.7205215
619712,Åbakken,7990,41,8.6657836,56.7203532
619713,Åbakken,7990,45,8.6627927,56.7201229
619805,Ålekistevej,7990,1,8.6405044,56.7018132
619806,Ålekistevej,7990,4,8.6396244,56.7025226
619807,Ålekistevej,7990,6,8.6389239,56.7049134
619808,Ålekistevej,7990,7,8.6366677,56.7025938
619809,Ålekistevej,7990,10,8.6341589,56.7044066
619810,Ålekistevej,7990,11,8.6275338,56.7039543
619811,Ålekistevej,7990,12,8.6317569,56.7075235
619812,Ålekistevej,7990,13,8.6265259,56.7032611
619813,Ålekistevej,7990,14,8.630273,56.708001
619814,Ålekistevej,7990,15,8.6279107,56.7057409
619815,Ålekistevej,7990,16,8.6271264,56.7089015
619816,Ålekistevej,7990,17,8.625747,56.7059313
619817,Ålekistevej,7990,19,8.621421,56.706246
619818,Ålekistevej,7990,21,8.6194962,56.7057503
619819,Ålekistevej,7990,21A,8.6193826,56.7057612
619820,Ålekistevej,7990,21B,8.6191963,56.7056113
619821,Ålekistevej,7990,23,8.6207093,56.7052765
619822,Ålekistevej,7990,25,8.6223188,56.704683
619823,Ålekistevej,7990,27,8.6223121,56.7078304
619824,Ålekistevej,7990,29,8.6170722,56.7105176
619825,Ålekistevej,7990,31,8.6150298,56.7089476
619826,Ålekistevej,7990,33,8.6192222,56.7118747
619827,Ålekistevej,7990,35,8.6200965,56.7137818
619828,Ålekistevej,7990,38,8.6257137,56.7162975
619829,Ålekistevej,7990,39,8.6238551,56.7156288
619830,Ålekistevej,7990,40,8.6263552,56.7165327
619831,Ålekistevej,7990,42,8.62708,56.7163742
619832,Årbækmøllevej,7990,1,8.7629565,56.7195735
619833,Årbækmøllevej,7990,3,8.7633547,56.719595
619834,Årbækmøllevej,7990,9,8.7657208,56.7199443
619835,Årbækmøllevej,7990,10,8.765886,56.7195722
619836,Årbækmøllevej,7990,12,8.7665016,56.7196724
619837,Årbækmøllevej,7990,13,8.7663023,56.7199513
619838,Årbækmøllevej,7990,14,8.7671427,56.7196219
619839,Årbækmøllevej,7990,15,8.7712945,56.7215119
619840,Årbækmøllevej,7990,16,8.7687883,56.7192324
619841,Årbækmøllevej,7990,17,8.7733977,56.7201698
619842,Årbækmøllevej,7990,18,8.7784655,56.7187046
619843,Årbækmøllevej,7990,19,8.7799297,56.7197431
619844,Årbækmøllevej,7990,20,8.7847172,56.7181369
619845,Årbækmøllevej,7990,20A,8.7841563,56.7180064
619846,Årbækmøllevej,7990,20B,8.784103,56.7179294
619847,Årbækmøllevej,7990,20C,8.784815,56.718045
619862,Åshøj,7990,3,8.6551913,56.7177387
619863,Åshøj,7990,11,8.6495709,56.7188594
619864,Åshøj,7990,14,8.6544476,56.7200341
619865,Åshøj,7990,15,8.6530527,56.7199113
1842104,Asselsvej,7990,134,8.7282972,56.7215261
1860498,Gammel Færgevej,7990,63,8.7539814,56.6923666
1860500,Gammel Færgevej,7990,66A,8.7547335,56.6913408
1860502,Gammel Færgevej,7990,69,8.757311,56.691343
1860505,Gammel Færgevej,7990,71,8.7580337,56.6914077
1860507,Gammel Færgevej,7990,125,8.77054,56.696535
1888763,Hesterøroddevej,7990,105A,8.6661241,56.6806114
1888765,Hesterøroddevej,7990,106A,8.6601757,56.6773963
1970181,Havnevej,7990,68,8.7294179,56.6831318
1970183,Havnevej,7990,73B,8.7294906,56.6816406
1970186,Havnevej,7990,73C,8.7292056,56.6815138
1970187,Havnevej,7990,75A,8.7309339,56.6820287
1977764,Kongehøjvej,7990,35,8.7593571,56.7199733
1977765,Kongehøjvej,7990,64A,8.7479429,56.7271136
1977767,Kongehøjvej,7990,67,8.7564964,56.7161091
1995161,Møllebjerget,7990,19,8.6704068,56.6987798
1995189,Ålekistevej,7990,4A,8.646007,56.701824
1995190,Ålekistevej,7990,8,8.6402068,56.7087732
1995267,Lervænget,7990,5A,8.6739325,56.6955393
1996980,Skallevej,7990,9B,8.7533263,56.6882708
2007859,Mælkevejen,7990,51,8.68807,56.703934
2054928,Årbækmøllevej,7990,14A,8.7673422,56.7192202
2057521,Kroghsvej,7990,8,8.7676592,56.698146
2068035,Blidstrupmark,7990,23B,8.6922037,56.715183
2079545,Søndertoften,7990,1,8.7560626,56.7155162
2082018,Blidstrupvej,7990,3C,8.7076263,56.7093521
2082019,Blidstrupvej,7990,3D,8.7080766,56.7109661
2082151,Blinkevej,7990,11,8.7325154,56.6849424
2082389,Stadionvej,7990,4A,8.695957,56.7017303
2082390,Stadionvej,7990,4B,8.6959521,56.7016515
2082398,Stadionvej,7990,4C,8.6959477,56.7016924
2085584,N. C. Rasmussens Vej,7990,4A,8.694213,56.7011445
2087372,Jordmodervej,7990,6,8.7294483,56.706003
2087910,Hedestien,7990,7,8.7667257,56.6965037
2089498,Møllevej,7990,1,8.7618012,56.7192041
2089499,Møllevej,7990,1A,8.7613415,56.7191358
2089501,Møllevej,7990,1B,8.7613293,56.7192076
2089502,Møllevej,7990,1C,8.7613219,56.7192677
2089503,Møllevej,7990,1D,8.7613163,56.7193246
2092645,Ballesvej,7990,9,8.761493,56.6936509
2092646,Ballesvej,7990,11,8.7606398,56.6940431
2092647,Ballesvej,7990,13,8.76122,56.694501
2092648,Ballesvej,7990,15,8.7607699,56.6947692
2092649,Ballesvej,7990,17,8.7600813,56.6950661
2092650,Ballesvej,7990,19,8.759575,56.695381
2092651,Ballesvej,7990,20,8.7618208,56.695593
2092652,Ballesvej,7990,22,8.7612153,56.6952512
2092653,Ballesvej,7990,24,8.7604449,56.695603
2095528,Ørding Kærvej,7990,12,8.750543,56.697051
2170070,Kanalstien,7990,1,8.754832,56.692154
2170081,Kanalstien,7990,2,8.755421,56.691796
2170086,Kanalstien,7990,3,8.7552431,56.6923991
2170090,Kanalstien,7990,4,8.756004,56.6919869
2170100,Kanalstien,7990,5,8.7557171,56.6926263
2170104,Kanalstien,7990,6,8.7564134,56.6922494
2170110,Kanalstien,7990,7,8.756293,56.6929881
2170114,Kanalstien,7990,8,8.7568615,56.6925119
2170117,Kanalstien,7990,9,8.7557122,56.6933546
2170123,Kanalstien,7990,11,8.7549901,56.6937492
2170129,Kanalstien,7990,14,8.756843,56.6934311
2170135,Kanalstien,7990,16,8.7564549,56.6937803
2170138,Kanalstien,7990,18,8.7557971,56.6941538
2170164,Kærstien,7990,1,8.7536549,56.6931533
2170165,Kærstien,7990,3,8.7538333,56.6935627
2213342,Åshøj,7990,16,8.644071,56.717095
2213343,Blidstrupvej,7990,7A,8.688519,56.709846
2213344,Kærstien,7990,5,8.757023,56.69288
2235456,Havnevej,7990,71A,8.730709,56.682096
2235706,Grimshøjvej,7990,4,8.640256,56.694889
2235807,Mælkevejen,7990,14A,8.694579,56.703856
2236849,Perlevej,7990,8,8.717682,56.682324
2237588,Kanalstien,7990,12,8.75781,56.692912
2239801,Serupsvej,7990,30,8.620636,56.689871
2239802,Ålekistevej,7990,44,8.644032,56.721298
