idx,street,postcode,housenumber,lon,lat
435114,Agerbærvej,8471,1,10.034066,56.216173
435115,Agerbærvej,8471,2,10.034591,56.216115
435116,Agerbærvej,8471,3,10.033754,56.216194
435117,Agerbærvej,8471,5,10.033392,56.216179
435118,Agerbærvej,8471,7,10.032982,56.216151
435119,Agerbærvej,8471,9,10.032598,56.216149
435120,Agerbærvej,8471,11,10.032196,56.21613
435121,Agerbærvej,8471,13,10.03183,56.216115
435122,Agerbærvej,8471,15,10.031409,56.216101
435123,Agerbærvej,8471,17,10.031053,56.216063
435124,Agerbærvej,8471,19,10.03067,56.216062
435125,Agerbærvej,8471,21,10.030242,56.216048
435126,Agerbærvej,8471,23,10.029942,56.215956
435127,Agerbærvej,8471,25,10.029486,56.216005
436501,Astervej,8471,2,10.039349,56.214494
436502,Astervej,8471,4,10.038962,56.21451
436503,Astervej,8471,5,10.038113,56.214257
436504,Astervej,8471,6,10.038591,56.214729
436505,Astervej,8471,7,10.037854,56.214151
436506,Astervej,8471,8,10.038421,56.214488
436507,Astervej,8471,9,10.03725,56.214379
436508,Astervej,8471,10,10.037871,56.214546
436509,Astervej,8471,11,10.037034,56.214339
436510,Astervej,8471,12,10.037497,56.214541
436511,Astervej,8471,14,10.037345,56.214546
436512,Astervej,8471,15,10.036649,56.213973
436513,Astervej,8471,16,10.03675,56.214569
436514,Astervej,8471,17,10.036259,56.214232
436515,Astervej,8471,18,10.03627,56.214636
439216,Bjørnkærvej,8471,1,10.022405,56.212802
439217,Bjørnkærvej,8471,2,10.021894,56.212878
439218,Bjørnkærvej,8471,3,10.02227,56.212524
439219,Bjørnkærvej,8471,4,10.021561,56.212818
439220,Bjørnkærvej,8471,5,10.022196,56.212323
439221,Bjørnkærvej,8471,6,10.021107,56.212759
439222,Bjørnkærvej,8471,7,10.022098,56.212103
439223,Bjørnkærvej,8471,8,10.021045,56.212525
439224,Bjørnkærvej,8471,9,10.021391,56.212168
439225,Bjørnkærvej,8471,10,10.021417,56.212518
439226,Bjørnkærvej,8471,11,10.021063,56.212197
439227,Bjørnkærvej,8471,12,10.021789,56.212551
439228,Bjørnkærvej,8471,13,10.020728,56.212236
439229,Bjørnkærvej,8471,14,10.020714,56.212667
439230,Bjørnkærvej,8471,15,10.021046,56.211825
439231,Bjørnkærvej,8471,16,10.020336,56.212608
439232,Bjørnkærvej,8471,17,10.020746,56.211876
439233,Bjørnkærvej,8471,18,10.019801,56.212509
439234,Bjørnkærvej,8471,19,10.020422,56.211938
439235,Bjørnkærvej,8471,20,10.020024,56.212395
439236,Bjørnkærvej,8471,21,10.020052,56.211968
439237,Bjørnkærvej,8471,22,10.020342,56.212334
439238,Bjørnkærvej,8471,23,10.019666,56.212029
439239,Bjørnkærvej,8471,24,10.019584,56.212344
439240,Bjørnkærvej,8471,26,10.0191,56.212393
439241,Bjørnkærvej,8471,27,10.01925,56.211696
439242,Bjørnkærvej,8471,28,10.018588,56.212308
439243,Bjørnkærvej,8471,29,10.018937,56.211766
439244,Bjørnkærvej,8471,30,10.018837,56.212207
439245,Bjørnkærvej,8471,31,10.018662,56.211822
439246,Bjørnkærvej,8471,32,10.01916,56.212137
439247,Bjørnkærvej,8471,33,10.01833,56.211896
439248,Bjørnkærvej,8471,34,10.01821,56.21223
439249,Bjørnkærvej,8471,35,10.018051,56.211948
439250,Bjørnkærvej,8471,37,10.017713,56.212018
439505,Blåbærvej,8471,2,10.036282,56.208984
439506,Blåbærvej,8471,3,10.035971,56.209589
439507,Blåbærvej,8471,4,10.03631,56.209155
439508,Blåbærvej,8471,5,10.035925,56.209881
439509,Blåbærvej,8471,6,10.036481,56.209347
439510,Blåbærvej,8471,7,10.035929,56.21007
439511,Blåbærvej,8471,8,10.036573,56.209526
439512,Blåbærvej,8471,9,10.035875,56.210273
439513,Blåbærvej,8471,10,10.036458,56.209706
439514,Blåbærvej,8471,11,10.035491,56.21037
439515,Blåbærvej,8471,12,10.036532,56.20993
439516,Blåbærvej,8471,13,10.035254,56.210184
439517,Blåbærvej,8471,14,10.036499,56.210128
439518,Blåbærvej,8471,15,10.035055,56.209988
439519,Blåbærvej,8471,16,10.036472,56.210313
439520,Blåbærvej,8471,17,10.034808,56.209832
439521,Blåbærvej,8471,18,10.036378,56.210489
439522,Blåbærvej,8471,19,10.035302,56.209666
439523,Blåbærvej,8471,20,10.036386,56.21074
439524,Blåbærvej,8471,21,10.035706,56.209627
439525,Blåbærvej,8471,22,10.036046,56.210689
439526,Blåbærvej,8471,24,10.035642,56.210805
439527,Blåbærvej,8471,26,10.035231,56.210781
439528,Blåbærvej,8471,28,10.03507,56.210625
439529,Blåbærvej,8471,30,10.034887,56.210461
439530,Blåbærvej,8471,32,10.034687,56.210314
439531,Blåbærvej,8471,34,10.034473,56.210145
439532,Blåbærvej,8471,36,10.034218,56.209995
439533,Blåbærvej,8471,38,10.033738,56.209769
439534,Blåbærvej,8471,40,10.034109,56.209694
439535,Blåbærvej,8471,42,10.034429,56.209615
439536,Blåbærvej,8471,44,10.034758,56.209509
439537,Blåbærvej,8471,46,10.035083,56.209426
439538,Blåbærvej,8471,48,10.035396,56.209329
439539,Blåbærvej,8471,50,10.035653,56.209183
439622,Blåvej,8471,11,10.074308,56.207424
439623,Blåvej,8471,26,10.074607,56.207134
439624,Blåvej,8471,34,10.076506,56.207163
439625,Blåvej,8471,40,10.078349,56.207286
439918,Borum Byvej,8471,1,10.009581,56.187489
439919,Borum Byvej,8471,3,10.009912,56.187625
439920,Borum Byvej,8471,4,10.010169,56.186468
439921,Borum Byvej,8471,4A,10.009993,56.187098
439922,Borum Byvej,8471,6,10.009296,56.187037
439923,Borum Byvej,8471,8,10.00941,56.18713
439924,Borum Byvej,8471,9,10.010765,56.188336
439925,Borum Byvej,8471,10,10.010907,56.187711
439926,Borum Byvej,8471,11,10.010984,56.188496
439927,Borum Byvej,8471,12,10.011613,56.187943
439928,Borum Byvej,8471,13,10.010965,56.18864
439929,Borum Byvej,8471,14,10.011244,56.188328
439930,Borum Byvej,8471,15A,10.011161,56.188755
439931,Borum Byvej,8471,15B,10.010566,56.189016
439932,Borum Byvej,8471,16,10.011501,56.188546
439933,Borum Byvej,8471,17,10.011227,56.188854
439934,Borum Byvej,8471,18,10.011999,56.189319
439935,Borum Byvej,8471,19,10.011338,56.189069
439936,Borum Byvej,8471,23,10.0111,56.189178
439937,Borum Byvej,8471,25,10.010862,56.189324
439938,Borum Byvej,8471,25A,10.010989,56.189309
439939,Borum Byvej,8471,27,10.011431,56.189203
439940,Borum Byvej,8471,29,10.011475,56.189413
439941,Borum Landevej,8471,2,10.012663,56.195442
439942,Borum Landevej,8471,6,10.011186,56.191981
439943,Borum Landevej,8471,8,10.011082,56.191187
439944,Borum Landevej,8471,12,10.010099,56.189757
439945,Borum Landevej,8471,16,10.007939,56.190049
439946,Borum Landevej,8471,20,10.009472,56.18872
439947,Borum Møllevej,8471,1,9.995838,56.185582
439948,Borum Møllevej,8471,3,9.99712,56.186089
439949,Borum Møllevej,8471,5,9.999598,56.187026
439950,Borum Møllevej,8471,7,9.999924,56.187041
439951,Borum Møllevej,8471,9,10.001216,56.187138
439952,Borum Møllevej,8471,11,10.001884,56.187097
439953,Borum Møllevej,8471,15,10.003487,56.187115
439954,Borum Møllevej,8471,19,10.004319,56.187266
439955,Borum Møllevej,8471,25,10.006077,56.187597
439956,Borum Møllevej,8471,27,10.007187,56.187871
439957,Borum Møllevej,8471,29,10.010019,56.188396
439958,Borum Møllevej,8471,31,10.010296,56.188183
439973,Borumvej,8471,105,10.029933,56.186161
439974,Borumvej,8471,107,10.028999,56.186771
439975,Borumvej,8471,125,10.010625,56.184701
439976,Borumvej,8471,131,10.002906,56.185548
439977,Borumtoften,8471,6,10.011101,56.186685
439978,Borumtoften,8471,8,10.010968,56.186686
439979,Borumtoften,8471,10,10.0109,56.186561
439980,Borumtoften,8471,12,10.010897,56.186493
439981,Borumtoften,8471,14,10.010971,56.186398
439982,Borumtoften,8471,16,10.011132,56.186402
439983,Borumtoften,8471,18,10.011264,56.186504
441334,Brushøjvej,8471,1,10.08194,56.216613
441335,Brushøjvej,8471,2,10.08238,56.216492
441336,Brushøjvej,8471,4,10.082405,56.216699
441337,Brushøjvej,8471,5,10.082237,56.216983
441338,Brushøjvej,8471,6,10.082611,56.216836
441339,Brushøjvej,8471,6B,10.083217,56.216831
441340,Brushøjvej,8471,6C,10.083577,56.21689
441341,Brushøjvej,8471,8,10.095169,56.216541
441342,Brushøjvej,8471,10,10.097484,56.216786
441343,Brushøjvej,8471,20,10.083446,56.217884
442779,Bysvinget,8471,1A,10.012606,56.189251
442780,Bysvinget,8471,1B,10.013483,56.188939
442781,Bysvinget,8471,3,10.013522,56.188581
442782,Bysvinget,8471,5,10.013865,56.188527
442783,Bysvinget,8471,6,10.012382,56.18817
442784,Bysvinget,8471,7,10.014415,56.188567
442785,Bysvinget,8471,8,10.012708,56.188145
442786,Bysvinget,8471,9,10.014837,56.188609
442787,Bysvinget,8471,10,10.012761,56.188302
442788,Bysvinget,8471,11,10.015125,56.188305
442789,Bysvinget,8471,12,10.013103,56.188506
442790,Bysvinget,8471,13A,10.014649,56.188089
442791,Bysvinget,8471,14,10.012923,56.188296
442792,Bysvinget,8471,14A,10.013245,56.187975
442793,Bysvinget,8471,15,10.014047,56.188233
442794,Bysvinget,8471,16,10.013631,56.187814
442795,Bysvinget,8471,17,10.013907,56.187987
442796,Bysvinget,8471,18,10.012982,56.187653
442797,Bysvinget,8471,18A,10.013445,56.187623
442798,Bysvinget,8471,19,10.013945,56.187911
442799,Bysvinget,8471,20,10.013648,56.187405
442800,Bysvinget,8471,21,10.014036,56.187735
442801,Bysvinget,8471,23,10.014069,56.187671
442802,Bysvinget,8471,25,10.014107,56.187604
442803,Bysvinget,8471,27,10.014339,56.187382
445380,Damvej,8471,1,10.035926,56.208605
445381,Damvej,8471,1A,10.036444,56.208044
445382,Damvej,8471,5,10.034039,56.20899
445383,Damvej,8471,9,10.032551,56.209411
445384,Damvej,8471,16,10.031367,56.210481
445385,Damvej,8471,17,10.031149,56.209737
445386,Damvej,8471,18,10.031917,56.210279
445387,Damvej,8471,20,10.032307,56.210222
445388,Damvej,8471,22,10.032625,56.210435
445389,Damvej,8471,23,10.029857,56.2096
445390,Damvej,8471,24,10.032195,56.210636
445391,Damvej,8471,26,10.03184,56.210801
445392,Damvej,8471,28,10.032169,56.211
445393,Damvej,8471,30,10.032591,56.210794
445394,Damvej,8471,32,10.032998,56.210724
445395,Damvej,8471,34,10.033246,56.210924
445396,Damvej,8471,36,10.033035,56.211087
445397,Damvej,8471,38,10.032488,56.211226
445398,Damvej,8471,40,10.032809,56.211507
445399,Damvej,8471,42,10.033259,56.211323
445400,Damvej,8471,44,10.033683,56.211248
445401,Damvej,8471,46,10.03393,56.211497
445402,Damvej,8471,48,10.033695,56.211576
445403,Damvej,8471,50,10.033206,56.211719
445404,Damvej,8471,52,10.032935,56.211919
445405,Damvej,8471,54,10.03243,56.212072
445406,Damvej,8471,56,10.032082,56.212178
445407,Damvej,8471,58,10.031685,56.212311
445408,Damvej,8471,60,10.031293,56.212418
445409,Damvej,8471,62,10.030779,56.212094
445410,Damvej,8471,64,10.031163,56.212028
445411,Damvej,8471,66,10.031512,56.2119
445412,Damvej,8471,68,10.031824,56.211843
445413,Damvej,8471,70,10.032233,56.211732
445414,Damvej,8471,72,10.03193,56.211433
445415,Damvej,8471,74,10.031581,56.211575
445416,Damvej,8471,76,10.031267,56.211654
445417,Damvej,8471,78,10.03085,56.211775
445418,Damvej,8471,80,10.030522,56.211885
445419,Damvej,8471,82,10.030283,56.21146
445420,Damvej,8471,84,10.030713,56.211394
445421,Damvej,8471,86,10.031139,56.211274
445422,Damvej,8471,88,10.03154,56.211153
445423,Damvej,8471,90,10.031182,56.210891
445424,Damvej,8471,92,10.030907,56.211011
445425,Damvej,8471,94,10.030539,56.211041
445426,Damvej,8471,96,10.030217,56.211138
445427,Damvej,8471,98,10.029876,56.211244
445428,Damvej,8471,100,10.029581,56.210972
445429,Damvej,8471,102,10.029917,56.210888
445430,Damvej,8471,104,10.030261,56.2108
445431,Damvej,8471,106,10.030601,56.210663
445432,Damvej,8471,108,10.030926,56.210606
445433,Damvej,8471,110,10.029101,56.210576
445434,Damvej,8471,110A,10.028011,56.210455
445435,Damvej,8471,114,10.028873,56.210035
445436,Damvej,8471,116,10.028772,56.209793
445437,Damvej,8471,950,10.030511,56.212889
450116,Eshøjvej,8471,41,10.006419,56.211401
450117,Eshøjvej,8471,50,10.003822,56.211355
450118,Eshøjvej,8471,51,10.002382,56.210791
450119,Eshøjvej,8471,60,10.000113,56.211052
450120,Eshøjvej,8471,61,10.002913,56.209354
450121,Eshøjvej,8471,71,9.999381,56.208852
450122,Eshøjvej,8471,79,9.996421,56.204846
450123,Eshøjvej,8471,89,9.998355,56.201228
450124,Eshøjvej,8471,90,9.995608,56.201326
450125,Eshøjvej,8471,91,10.000952,56.202424
450126,Eshøjvej,8471,92,9.995257,56.20066
450127,Eshøjvej,8471,93,10.000892,56.199576
450128,Eshøjvej,8471,95,10.001882,56.197322
452795,Fårupvej,8471,4,10.066734,56.197755
452796,Fårupvej,8471,6,10.066761,56.197929
452797,Fårupvej,8471,7,10.065522,56.198088
452798,Fårupvej,8471,8,10.066706,56.198168
452799,Fårupvej,8471,11,10.066046,56.198304
452800,Fårupvej,8471,35,10.06298,56.202077
452801,Fårupvej,8471,37,10.065947,56.201984
452802,Fårupvej,8471,38,10.066562,56.202082
452803,Fårupvej,8471,39,10.066066,56.202105
452804,Fårupvej,8471,40,10.066847,56.202421
452805,Fårupvej,8471,41,10.066189,56.202256
452806,Fårupvej,8471,42,10.067308,56.202314
452807,Fårupvej,8471,44,10.069043,56.201751
452808,Fårupvej,8471,45,10.065917,56.202591
452809,Fårupvej,8471,48,10.068648,56.203637
452810,Fårupvej,8471,51,10.067135,56.203304
452811,Fårupvej,8471,53,10.064648,56.203617
452812,Fårupvej,8471,54,10.069013,56.204784
452813,Fårupvej,8471,55,10.068147,56.204248
452814,Fårupvej,8471,61,10.068259,56.204736
452815,Fårupvej,8471,62,10.072941,56.202777
452816,Fårupvej,8471,64,10.073833,56.203237
452817,Fårupvej,8471,70,10.069202,56.205537
452818,Fårupvej,8471,71,10.068459,56.205373
452819,Fårupvej,8471,72,10.069245,56.205891
452820,Fårupvej,8471,73,10.068552,56.205713
452821,Fårupvej,8471,74,10.069358,56.206272
452822,Fårupvej,8471,80,10.069682,56.206898
452823,Fårupvej,8471,81,10.068908,56.206797
452824,Fårupvej,8471,83,10.069074,56.208463
452825,Fårupvej,8471,102,10.06957,56.209667
452826,Fårupvej,8471,102A,10.070223,56.209774
452827,Fårupvej,8471,102B,10.07077,56.209535
452828,Fårupvej,8471,104,10.069166,56.210672
452829,Fårupvej,8471,106A,10.068031,56.210282
452830,Fårupvej,8471,106B,10.068186,56.210312
452831,Fårupvej,8471,108,10.068158,56.210021
452832,Fårupvej,8471,110,10.068822,56.209983
452833,Fårupvej,8471,112,10.068939,56.209785
452834,Fårupvej,8471,113,10.067357,56.210113
452835,Fårupvej,8471,114,10.068951,56.209412
452836,Fårupvej,8471,115,10.066615,56.210663
452837,Fårupvej,8471,116,10.069186,56.209338
452838,Fårupvej,8471,135,10.064718,56.21258
452839,Fårupvej,8471,152,10.063611,56.214287
452840,Fårupvej,8471,154,10.06297,56.214971
452841,Fårupvej,8471,156,10.062513,56.215402
452842,Fårupvej,8471,170,10.061747,56.216554
453127,Gammel Viborgvej,8471,60,10.068155,56.196974
453128,Gammel Viborgvej,8471,61,10.071373,56.195019
453129,Gammel Viborgvej,8471,62,10.067906,56.197084
453130,Gammel Viborgvej,8471,64,10.067367,56.197219
453131,Gammel Viborgvej,8471,66,10.067127,56.197297
453132,Gammel Viborgvej,8471,70,10.066641,56.197481
453133,Gammel Viborgvej,8471,71,10.069322,56.196016
453134,Gammel Viborgvej,8471,73,10.068549,56.196301
453135,Gammel Viborgvej,8471,74,10.065895,56.197789
453136,Gammel Viborgvej,8471,77,10.067842,56.196298
453137,Gammel Viborgvej,8471,78,10.065306,56.198054
453138,Gammel Viborgvej,8471,79,10.06771,56.196353
453139,Gammel Viborgvej,8471,80,10.064857,56.198274
453140,Gammel Viborgvej,8471,81,10.068127,56.19644
453141,Gammel Viborgvej,8471,82,10.064733,56.198405
453142,Gammel Viborgvej,8471,83,10.067977,56.196504
453143,Gammel Viborgvej,8471,84,10.064308,56.198517
453144,Gammel Viborgvej,8471,85,10.066864,56.197039
453145,Gammel Viborgvej,8471,88,10.063725,56.198719
453146,Gammel Viborgvej,8471,89,10.065969,56.197496
453147,Gammel Viborgvej,8471,93A,10.065134,56.197845
453148,Gammel Viborgvej,8471,93B,10.065134,56.197809
453149,Gammel Viborgvej,8471,93C,10.064878,56.197883
453150,Gammel Viborgvej,8471,95,10.064501,56.198016
453151,Gammel Viborgvej,8471,97,10.064443,56.197878
453152,Gammel Viborgvej,8471,98,10.061963,56.199633
453153,Gammel Viborgvej,8471,99,10.063984,56.198192
453154,Gammel Viborgvej,8471,100,10.061655,56.19969
453155,Gammel Viborgvej,8471,102,10.061402,56.199876
453156,Gammel Viborgvej,8471,103,10.06368,56.198383
453157,Gammel Viborgvej,8471,104,10.061056,56.199892
453158,Gammel Viborgvej,8471,105,10.06319,56.198126
453159,Gammel Viborgvej,8471,106,10.06086,56.200105
453160,Gammel Viborgvej,8471,109,10.063192,56.198576
453161,Gammel Viborgvej,8471,110,10.060494,56.200162
453162,Gammel Viborgvej,8471,113,10.062279,56.198615
453163,Gammel Viborgvej,8471,116,10.060619,56.200813
453164,Gammel Viborgvej,8471,117,10.059725,56.199908
453165,Gammel Viborgvej,8471,119,10.059454,56.200014
453166,Gammel Viborgvej,8471,120,10.059951,56.200383
453167,Gammel Viborgvej,8471,121,10.059077,56.200237
453168,Gammel Viborgvej,8471,122,10.059657,56.200421
453169,Gammel Viborgvej,8471,124,10.059765,56.200708
453170,Gammel Viborgvej,8471,125,10.058611,56.200515
453171,Gammel Viborgvej,8471,126,10.059004,56.200678
453172,Gammel Viborgvej,8471,128,10.058583,56.200839
453173,Gammel Viborgvej,8471,129,10.057668,56.200811
453174,Gammel Viborgvej,8471,136,10.058081,56.20109
453175,Gammel Viborgvej,8471,141,10.054183,56.200472
453176,Gammel Viborgvej,8471,142,10.057955,56.202552
453177,Gammel Viborgvej,8471,143,10.05538,56.201738
453178,Gammel Viborgvej,8471,152,10.055142,56.203955
453179,Gammel Viborgvej,8471,156,10.050918,56.203986
453180,Gammel Viborgvej,8471,160,10.049875,56.205357
455110,Grønkærvej,8471,2,10.064491,56.197293
455111,Grønkærvej,8471,3,10.065263,56.197098
455112,Grønkærvej,8471,4,10.064293,56.197003
455113,Grønkærvej,8471,5,10.0654,56.196867
455114,Grønkærvej,8471,7,10.065345,56.19672
455115,Grønkærvej,8471,9,10.065536,56.196534
455116,Grønkærvej,8471,10,10.06494,56.196615
455117,Grønkærvej,8471,12,10.065167,56.196317
455118,Grønkærvej,8471,14,10.064706,56.196492
455119,Grønkærvej,8471,16,10.065039,56.196039
455120,Grønkærvej,8471,18,10.065635,56.19612
455121,Grønkærvej,8471,20,10.066274,56.196128
455313,Grønvej,8471,25,10.064388,56.207371
455314,Grønvej,8471,35,10.060628,56.205494
455315,Grønvej,8471,37,10.060188,56.205556
455316,Grønvej,8471,42,10.061142,56.208234
455317,Grønvej,8471,51,10.059818,56.208026
455318,Grønvej,8471,80,10.053971,56.209194
455319,Grønvej,8471,110,10.047589,56.210542
456111,Hanghedevej,8471,2,10.038128,56.224729
461966,Hvidtjørnvej,8471,1,10.044523,56.206017
462630,Højagerparken,8471,1,10.04011,56.212353
462631,Højagerparken,8471,2,10.040688,56.212591
462632,Højagerparken,8471,4,10.041041,56.212646
462633,Højagerparken,8471,6,10.041355,56.212707
462634,Højagerparken,8471,8,10.041797,56.212833
462635,Højagerparken,8471,10,10.041598,56.213046
462636,Højagerparken,8471,12,10.041135,56.212925
462637,Højagerparken,8471,14,10.040668,56.212879
462638,Højagerparken,8471,16,10.040359,56.213079
462639,Højagerparken,8471,17,10.039992,56.212785
462640,Højagerparken,8471,18,10.04074,56.213192
462641,Højagerparken,8471,19,10.039818,56.212746
462642,Højagerparken,8471,20,10.041275,56.213368
462643,Højagerparken,8471,21,10.039628,56.212694
462644,Højagerparken,8471,22,10.040993,56.213568
462645,Højagerparken,8471,23,10.039454,56.212646
462646,Højagerparken,8471,24,10.040609,56.213557
462647,Højagerparken,8471,25,10.039289,56.212607
462648,Højagerparken,8471,26,10.040314,56.213398
462649,Højagerparken,8471,27,10.039153,56.212572
462650,Højagerparken,8471,28,10.039964,56.213266
462651,Højagerparken,8471,29,10.039008,56.212538
462652,Højagerparken,8471,30,10.03971,56.213417
462653,Højagerparken,8471,31,10.039725,56.212949
462654,Højagerparken,8471,32,10.039961,56.213594
462655,Højagerparken,8471,33,10.039579,56.212892
462656,Højagerparken,8471,34,10.040286,56.213722
462657,Højagerparken,8471,35,10.039423,56.212822
462658,Højagerparken,8471,36,10.040603,56.213908
462659,Højagerparken,8471,37,10.039385,56.213096
462660,Højagerparken,8471,38,10.040486,56.214102
462661,Højagerparken,8471,39,10.039287,56.213011
462662,Højagerparken,8471,40,10.04001,56.214133
462663,Højagerparken,8471,41,10.03918,56.212918
462664,Højagerparken,8471,42,10.039729,56.213893
462665,Højagerparken,8471,43,10.03879,56.212683
462666,Højagerparken,8471,44,10.039382,56.213774
462667,Højagerparken,8471,45,10.038896,56.212983
462668,Højagerparken,8471,46,10.039017,56.21353
462669,Højagerparken,8471,47,10.038973,56.213082
462670,Højagerparken,8471,48,10.038969,56.213818
462671,Højagerparken,8471,49,10.03905,56.213175
462672,Højagerparken,8471,50,10.039707,56.214167
462673,Højagerparken,8471,51,10.038638,56.213008
462674,Højagerparken,8471,52,10.039264,56.214139
462675,Højagerparken,8471,53,10.038672,56.213098
462676,Højagerparken,8471,54,10.038858,56.214165
462677,Højagerparken,8471,55,10.038717,56.213205
462678,Højagerparken,8471,56,10.038473,56.213796
462679,Højagerparken,8471,57,10.038367,56.212772
462680,Højagerparken,8471,58,10.03851,56.213494
462681,Højagerparken,8471,59,10.038357,56.212853
462682,Højagerparken,8471,61,10.038366,56.212943
462683,Højagerparken,8471,63,10.038357,56.213037
462684,Højagerparken,8471,65,10.038355,56.213136
462685,Højagerparken,8471,67,10.038363,56.213226
463103,Højvej,8471,1,10.027873,56.214841
463104,Højvej,8471,3,10.027832,56.215066
463105,Højvej,8471,5,10.027831,56.215295
463106,Højvej,8471,7,10.027891,56.215497
463107,Højvej,8471,9,10.02841,56.215564
463108,Højvej,8471,11,10.028421,56.215335
463109,Højvej,8471,13,10.028494,56.215119
463110,Højvej,8471,15,10.028434,56.214872
463111,Højvej,8471,17,10.028992,56.214944
463112,Højvej,8471,19,10.029003,56.215178
463113,Højvej,8471,21,10.029036,56.215375
463114,Højvej,8471,23,10.029029,56.215591
463115,Højvej,8471,25,10.029729,56.21558
463116,Højvej,8471,27,10.029592,56.215375
463117,Højvej,8471,29,10.029724,56.215203
463118,Højvej,8471,31,10.029813,56.214987
463119,Højvej,8471,33,10.030328,56.215041
463120,Højvej,8471,35,10.030365,56.215229
463121,Højvej,8471,37,10.030325,56.215445
463122,Højvej,8471,39,10.030331,56.215661
463123,Højvej,8471,41,10.030918,56.215683
463124,Højvej,8471,43,10.030879,56.215476
463125,Højvej,8471,45,10.031022,56.215282
463126,Højvej,8471,47,10.030932,56.215076
465855,Jordbærvej,8471,1,10.037184,56.211344
465856,Jordbærvej,8471,2,10.036996,56.211755
465857,Jordbærvej,8471,3,10.03677,56.211375
465858,Jordbærvej,8471,4,10.036659,56.211996
465859,Jordbærvej,8471,5,10.036442,56.211346
465860,Jordbærvej,8471,6,10.036526,56.211723
465861,Jordbærvej,8471,7,10.035999,56.211341
468698,Kirsebærvej,8471,1,10.032109,56.215053
468699,Kirsebærvej,8471,2,10.032822,56.214589
468700,Kirsebærvej,8471,3,10.032025,56.215305
468701,Kirsebærvej,8471,4,10.032259,56.214688
468702,Kirsebærvej,8471,5,10.0321,56.215502
468703,Kirsebærvej,8471,6,10.031789,56.214638
468704,Kirsebærvej,8471,7,10.032215,56.215717
468705,Kirsebærvej,8471,8,10.03134,56.214668
468706,Kirsebærvej,8471,9,10.032813,56.21573
468707,Kirsebærvej,8471,10,10.031326,56.214341
468708,Kirsebærvej,8471,11,10.032755,56.215447
468709,Kirsebærvej,8471,12,10.031809,56.214354
468710,Kirsebærvej,8471,13,10.032775,56.215222
468711,Kirsebærvej,8471,14,10.032255,56.214351
468712,Kirsebærvej,8471,15,10.032687,56.215012
468713,Kirsebærvej,8471,16,10.032722,56.214275
468714,Kirsebærvej,8471,17,10.033359,56.214979
468715,Kirsebærvej,8471,18,10.032543,56.214025
468716,Kirsebærvej,8471,19,10.033425,56.21519
468717,Kirsebærvej,8471,20,10.032097,56.214024
468718,Kirsebærvej,8471,21,10.033469,56.215405
468719,Kirsebærvej,8471,22,10.031624,56.214033
468720,Kirsebærvej,8471,23,10.033424,56.21577
468721,Kirsebærvej,8471,24,10.031188,56.214068
468722,Kirsebærvej,8471,25,10.033964,56.215729
468723,Kirsebærvej,8471,26,10.031169,56.213731
468724,Kirsebærvej,8471,27,10.034493,56.21572
468725,Kirsebærvej,8471,28,10.031685,56.213727
468726,Kirsebærvej,8471,29,10.034952,56.215698
468727,Kirsebærvej,8471,30,10.032286,56.213627
468728,Kirsebærvej,8471,31,10.034642,56.215337
468729,Kirsebærvej,8471,32,10.032101,56.213404
468730,Kirsebærvej,8471,33,10.034121,56.215377
468731,Kirsebærvej,8471,34,10.031705,56.213385
468732,Kirsebærvej,8471,35,10.033971,56.21515
468733,Kirsebærvej,8471,36,10.031326,56.213406
468734,Kirsebærvej,8471,37,10.034657,56.215063
468735,Kirsebærvej,8471,38,10.03096,56.21349
468736,Kirsebærvej,8471,39,10.034539,56.214826
468737,Kirsebærvej,8471,40,10.031001,56.213103
468738,Kirsebærvej,8471,41,10.033973,56.214867
468739,Kirsebærvej,8471,42,10.031453,56.213104
468740,Kirsebærvej,8471,43,10.033389,56.214548
468741,Kirsebærvej,8471,44,10.031941,56.213033
468742,Kirsebærvej,8471,45,10.033734,56.214554
468743,Kirsebærvej,8471,47,10.034167,56.214488
468744,Kirsebærvej,8471,49,10.034014,56.214143
468745,Kirsebærvej,8471,51,10.033655,56.214173
468746,Kirsebærvej,8471,53,10.033249,56.214199
468747,Kirsebærvej,8471,55,10.033113,56.213921
468748,Kirsebærvej,8471,57,10.03351,56.213819
468749,Kirsebærvej,8471,59,10.033895,56.213802
468750,Kirsebærvej,8471,61,10.033768,56.213467
468751,Kirsebærvej,8471,63,10.033279,56.213502
468752,Kirsebærvej,8471,65,10.032879,56.213573
468753,Kirsebærvej,8471,67,10.032741,56.213273
468754,Kirsebærvej,8471,69,10.033201,56.213184
468755,Kirsebærvej,8471,71,10.03369,56.213171
468756,Kirsebærvej,8471,73,10.033481,56.212844
468757,Kirsebærvej,8471,75,10.033135,56.212865
468758,Kirsebærvej,8471,77,10.032724,56.212932
468759,Kirsebærvej,8471,79,10.032409,56.212961
470934,Kvottrupvej,8471,41,10.07257,56.214259
470935,Kvottrupvej,8471,51,10.074498,56.215042
470936,Kvottrupvej,8471,77,10.07848,56.216468
470937,Kvottrupvej,8471,79,10.079584,56.216485
470938,Kvottrupvej,8471,81,10.080134,56.216489
470939,Kvottrupvej,8471,82,10.080509,56.216239
470940,Kvottrupvej,8471,83,10.08094,56.217021
470941,Kvottrupvej,8471,84,10.080976,56.216226
470942,Kvottrupvej,8471,85,10.081498,56.216455
470943,Kvottrupvej,8471,86,10.081762,56.216304
470944,Kvottrupvej,8471,89,10.082224,56.216296
470945,Kvottrupvej,8471,91,10.082524,56.216113
470946,Kvottrupvej,8471,93,10.083022,56.215705
470947,Kvottrupvej,8471,94,10.08196,56.215503
470948,Kvottrupvej,8471,95,10.083557,56.215745
470949,Kvottrupvej,8471,97,10.087132,56.215264
470950,Kvottrupvej,8471,100,10.082437,56.215508
470951,Kvottrupvej,8471,110,10.083387,56.213797
470952,Kvottrupvej,8471,114,10.086822,56.212055
470953,Kvottrupvej,8471,118,10.086638,56.210668
470954,Kvottrupvej,8471,120,10.081343,56.210688
470955,Kvottrupvej,8471,124,10.087922,56.21081
470956,Kvottrupvej,8471,126,10.08836,56.210541
470957,Kvottrupvej,8471,130,10.088186,56.211054
470958,Kvottrupvej,8471,132,10.087735,56.211288
470959,Kvottrupvej,8471,134,10.087545,56.211509
471343,Kærsvinget,8471,8,10.058052,56.197169
471344,Kærsvinget,8471,9,10.061031,56.196451
471345,Kærsvinget,8471,12,10.053695,56.199102
471346,Kærsvinget,8471,14,10.050609,56.198724
471347,Kærsvinget,8471,15,10.05904,56.196361
471348,Kærsvinget,8471,16,10.049196,56.196858
471349,Kærsvinget,8471,17,10.059949,56.196353
471350,Kærsvinget,8471,18,10.050681,56.196409
471351,Kærsvinget,8471,19,10.060171,56.196778
471352,Kærsvinget,8471,24,10.056559,56.195308
472301,Langelinie,8471,33,10.011118,56.187642
472302,Langelinie,8471,34,10.010508,56.18695
472303,Langelinie,8471,35,10.011409,56.187311
472304,Langelinie,8471,36,10.010673,56.186949
472305,Langelinie,8471,37,10.011794,56.187254
472306,Langelinie,8471,38,10.01063,56.187286
472307,Langelinie,8471,39,10.012119,56.18722
472308,Langelinie,8471,40,10.010741,56.187263
472309,Langelinie,8471,43,10.012829,56.187488
472310,Langelinie,8471,44,10.011662,56.187076
472311,Langelinie,8471,45,10.013182,56.187436
472312,Langelinie,8471,46,10.012014,56.187055
472313,Langelinie,8471,47,10.013384,56.187169
472314,Langelinie,8471,48,10.012371,56.186356
472315,Langelinie,8471,49,10.014505,56.187106
472316,Langelinie,8471,50,10.012462,56.187011
472317,Langelinie,8471,51,10.014779,56.186996
472318,Langelinie,8471,52,10.012802,56.186976
472319,Langelinie,8471,53,10.015287,56.18688
472320,Langelinie,8471,54,10.012955,56.186962
472321,Langelinie,8471,55,10.015927,56.186762
472322,Langelinie,8471,57,10.01654,56.186824
472323,Langelinie,8471,59,10.016536,56.188604
472324,Langelinie,8471,59A,10.017354,56.186944
472325,Langelinie,8471,60,10.013962,56.186823
472326,Langelinie,8471,61,10.017939,56.18702
472327,Langelinie,8471,62,10.014573,56.186504
472328,Langelinie,8471,63,10.018311,56.187044
472329,Langelinie,8471,64,10.015928,56.186479
472330,Langelinie,8471,65,10.018752,56.187035
472331,Langelinie,8471,66,10.016433,56.186484
472332,Langelinie,8471,67,10.019097,56.1871
472333,Langelinie,8471,68,10.018068,56.186461
472334,Langelinie,8471,69,10.019654,56.187167
472335,Langelinie,8471,69A,10.019424,56.187214
472336,Langelinie,8471,71,10.020127,56.187276
472337,Langelinie,8471,75,10.020873,56.187364
472338,Langelinie,8471,76,10.020014,56.186351
472339,Langelinie,8471,77,10.021221,56.187388
472340,Langelinie,8471,77A,10.021661,56.187398
472341,Langelinie,8471,77B,10.021492,56.187682
472342,Langelinie,8471,77D,10.022107,56.187578
472343,Langelinie,8471,78,10.020817,56.18693
472344,Langelinie,8471,79,10.022926,56.187657
472345,Langelinie,8471,80,10.021219,56.1871
472346,Langelinie,8471,81,10.024184,56.187732
472730,Larixvej,8471,1,10.038217,56.208726
472731,Larixvej,8471,2,10.037346,56.207992
472732,Larixvej,8471,3,10.038568,56.208399
472733,Larixvej,8471,4,10.038234,56.207804
472734,Larixvej,8471,6,10.038771,56.207849
472735,Larixvej,8471,7,10.039577,56.208148
475231,Løkkediget,8471,1,10.013343,56.186954
475232,Løkkediget,8471,3,10.013261,56.186793
475233,Løkkediget,8471,4,10.012803,56.186657
475234,Løkkediget,8471,6,10.012967,56.186652
475235,Løkkediget,8471,8,10.012752,56.18646
475236,Løkkediget,8471,10,10.012943,56.18645
475237,Løkkediget,8471,12,10.013028,56.186188
475328,Løvkærvej,8471,3,10.065508,56.197487
475329,Løvkærvej,8471,4,10.06517,56.197719
475330,Løvkærvej,8471,5,10.065165,56.197422
475331,Løvkærvej,8471,6,10.064895,56.1976
475332,Løvkærvej,8471,8,10.064697,56.197597
475333,Løvkærvej,8471,9,10.064167,56.197197
475334,Løvkærvej,8471,10,10.064323,56.197591
475335,Løvkærvej,8471,11,10.064169,56.197388
475336,Løvkærvej,8471,13,10.063997,56.197419
475337,Løvkærvej,8471,14,10.063556,56.197719
475338,Løvkærvej,8471,15,10.06384,56.197447
475339,Løvkærvej,8471,16,10.063237,56.19783
475340,Løvkærvej,8471,19,10.063266,56.197452
475341,Løvkærvej,8471,20,10.062553,56.197782
475342,Løvkærvej,8471,21,10.062534,56.197386
475343,Løvkærvej,8471,28,10.062142,56.197704
475344,Løvkærvej,8471,30,10.061825,56.197657
478019,Multebærvej,8471,1,10.02732,56.215497
478020,Multebærvej,8471,2,10.02642,56.215406
478021,Multebærvej,8471,3,10.027071,56.215328
478022,Multebærvej,8471,4,10.02648,56.215212
478023,Multebærvej,8471,5,10.027079,56.215153
478024,Multebærvej,8471,6,10.026513,56.215014
478025,Multebærvej,8471,7,10.027185,56.214955
478026,Multebærvej,8471,8,10.026564,56.214811
478027,Multebærvej,8471,10,10.026635,56.2146
478028,Multebærvej,8471,11,10.027375,56.214459
478029,Multebærvej,8471,12,10.026717,56.214419
478030,Multebærvej,8471,13,10.027434,56.214283
478031,Multebærvej,8471,15,10.027595,56.214107
478032,Multebærvej,8471,16,10.026979,56.213797
478033,Multebærvej,8471,17,10.027831,56.213902
478034,Multebærvej,8471,18,10.02765,56.21359
478035,Multebærvej,8471,19,10.028695,56.213994
478036,Multebærvej,8471,20,10.027281,56.21361
478037,Multebærvej,8471,21,10.028246,56.213971
478038,Multebærvej,8471,22,10.027201,56.213342
478039,Multebærvej,8471,23,10.028766,56.214303
478040,Multebærvej,8471,24,10.027599,56.213248
478041,Multebærvej,8471,25,10.028095,56.214255
478042,Multebærvej,8471,26,10.028386,56.213188
478043,Multebærvej,8471,27,10.028123,56.214457
478044,Multebærvej,8471,28,10.028301,56.213427
478045,Multebærvej,8471,29,10.028757,56.214573
478046,Multebærvej,8471,30,10.028533,56.213658
478047,Multebærvej,8471,31,10.029347,56.214645
478048,Multebærvej,8471,32,10.029676,56.213662
478049,Multebærvej,8471,33,10.029456,56.21445
478050,Multebærvej,8471,34,10.029121,56.213658
478051,Multebærvej,8471,35,10.029364,56.214227
478052,Multebærvej,8471,36,10.028974,56.213435
478053,Multebærvej,8471,37,10.029434,56.21401
478054,Multebærvej,8471,38,10.029596,56.213326
478055,Multebærvej,8471,39,10.02993,56.213952
478056,Multebærvej,8471,40,10.02882,56.213171
478057,Multebærvej,8471,41,10.030003,56.214185
478058,Multebærvej,8471,42,10.029444,56.213112
478059,Multebærvej,8471,43,10.029905,56.214442
478060,Multebærvej,8471,44,10.03011,56.212998
478061,Multebærvej,8471,45,10.030014,56.214657
478062,Multebærvej,8471,46,10.030269,56.213222
478063,Multebærvej,8471,47,10.030797,56.214709
478064,Multebærvej,8471,48,10.030336,56.213428
478065,Multebærvej,8471,49,10.030661,56.214422
478066,Multebærvej,8471,50,10.030325,56.213648
478067,Multebærvej,8471,51,10.030579,56.214185
478068,Multebærvej,8471,53,10.030435,56.21393
485610,Ranunkelvej,8471,241,10.041807,56.210587
485611,Ranunkelvej,8471,243,10.041724,56.210578
485612,Ranunkelvej,8471,245,10.041628,56.210566
485613,Ranunkelvej,8471,247A,10.041546,56.210557
485614,Ranunkelvej,8471,247B,10.041496,56.210549
485615,Ranunkelvej,8471,249,10.041387,56.210536
485616,Ranunkelvej,8471,251,10.041266,56.210519
485617,Ranunkelvej,8471,253,10.041182,56.210516
485618,Ranunkelvej,8471,255,10.041089,56.210503
485619,Ranunkelvej,8471,257A,10.040994,56.21049
485620,Ranunkelvej,8471,257B,10.040938,56.210486
485621,Ranunkelvej,8471,259,10.040848,56.210474
485622,Ranunkelvej,8471,261,10.040734,56.210456
485623,Ranunkelvej,8471,263A,10.040619,56.210444
485624,Ranunkelvej,8471,263B,10.040562,56.21044
485625,Ranunkelvej,8471,265,10.040455,56.210432
485626,Ranunkelvej,8471,267,10.041157,56.210682
485627,Ranunkelvej,8471,269,10.041585,56.21097
485628,Ranunkelvej,8471,271,10.0415,56.210953
485629,Ranunkelvej,8471,273,10.04141,56.210932
485630,Ranunkelvej,8471,275A,10.04132,56.21091
485631,Ranunkelvej,8471,275B,10.041253,56.210892
485632,Ranunkelvej,8471,279,10.041046,56.210845
485633,Ranunkelvej,8471,281A,10.040956,56.210823
485634,Ranunkelvej,8471,281B,10.040903,56.210814
485635,Ranunkelvej,8471,283,10.040818,56.210797
485636,Ranunkelvej,8471,285,10.040739,56.21078
485637,Ranunkelvej,8471,287A,10.040641,56.210754
485638,Ranunkelvej,8471,287B,10.040588,56.210745
485639,Ranunkelvej,8471,289A,10.0405,56.210724
485640,Ranunkelvej,8471,289B,10.040447,56.210711
485641,Ranunkelvej,8471,291,10.040362,56.210693
485642,Ranunkelvej,8471,293,10.040275,56.210676
485643,Ranunkelvej,8471,295,10.040174,56.21065
485644,Ranunkelvej,8471,297,10.040965,56.210985
485645,Ranunkelvej,8471,299,10.041461,56.211228
485646,Ranunkelvej,8471,301,10.041356,56.21122
485647,Ranunkelvej,8471,303,10.041246,56.211207
485648,Ranunkelvej,8471,305A,10.041147,56.211194
485649,Ranunkelvej,8471,305B,10.041097,56.211186
485650,Ranunkelvej,8471,307,10.040991,56.211178
485651,Ranunkelvej,8471,309,10.040847,56.211156
485652,Ranunkelvej,8471,311A,10.040749,56.211144
485653,Ranunkelvej,8471,311B,10.040706,56.21114
485654,Ranunkelvej,8471,313,10.040617,56.211131
485655,Ranunkelvej,8471,315,10.040529,56.211123
485656,Ranunkelvej,8471,317A,10.040441,56.21111
485657,Ranunkelvej,8471,317B,10.040388,56.211106
485658,Ranunkelvej,8471,319,10.040292,56.211094
485659,Ranunkelvej,8471,321,10.040203,56.211081
485660,Ranunkelvej,8471,323,10.040112,56.211068
486194,Ristrupvej,8471,2,10.038082,56.215924
486195,Ristrupvej,8471,3A,10.037056,56.216552
486196,Ristrupvej,8471,4,10.038137,56.216256
486197,Ristrupvej,8471,5,10.037575,56.217006
486198,Ristrupvej,8471,7,10.038243,56.216956
486199,Ristrupvej,8471,20,10.039589,56.217344
486200,Ristrupvej,8471,30,10.042333,56.218179
486201,Ristrupvej,8471,35,10.041506,56.218532
486202,Ristrupvej,8471,39,10.053231,56.223069
486203,Ristrupvej,8471,39A,10.053474,56.22176
486204,Ristrupvej,8471,39B,10.053479,56.221674
486205,Ristrupvej,8471,39C,10.050059,56.222427
486206,Ristrupvej,8471,41,10.057554,56.225333
488261,Rødkærvej,8471,2,10.06628,56.197332
488262,Rødkærvej,8471,3,10.066878,56.196778
488263,Rødkærvej,8471,4,10.066297,56.197269
488264,Rødkærvej,8471,5,10.067173,56.196866
488265,Rødkærvej,8471,6,10.066336,56.197098
488266,Rødkærvej,8471,7,10.06728,56.196793
488267,Rødkærvej,8471,8,10.066354,56.196891
488268,Rødkærvej,8471,9,10.067381,56.196752
488269,Rødkærvej,8471,10,10.066358,56.19668
488270,Rødkærvej,8471,11,10.06752,56.196696
488271,Rødkærvej,8471,12,10.066405,56.196486
488272,Rødkærvej,8471,13,10.067608,56.196655
488273,Rødkærvej,8471,15B,10.06676,56.196258
488274,Rødkærvej,8471,16,10.066159,56.195931
488275,Rødkærvej,8471,17,10.06733,56.196186
488276,Rødkærvej,8471,18,10.066171,56.195769
488277,Rødkærvej,8471,19,10.066789,56.195768
488278,Rødkærvej,8471,20,10.065542,56.195451
489195,Sabro Kirkevej,8471,100,10.035605,56.216147
489196,Sabro Kirkevej,8471,102,10.03638,56.216703
489197,Sabro Kirkevej,8471,138,10.028556,56.21594
489198,Sabro Kirkevej,8471,140,10.028171,56.215917
489199,Sabro Kirkevej,8471,142,10.027796,56.215929
489200,Sabro Kirkevej,8471,144,10.027373,56.215874
489201,Sabro Kirkevej,8471,146,10.026856,56.215833
489202,Sabro Kirkevej,8471,148,10.026451,56.215873
489203,Sabro Kirkevej,8471,149,10.025835,56.215388
489204,Sabro Kirkevej,8471,150,10.026001,56.215761
489205,Sabro Kirkevej,8471,151,10.024889,56.215302
489206,Sabro Kirkevej,8471,153,10.024443,56.214829
489207,Sabro Kirkevej,8471,155,10.024448,56.214757
489208,Sabro Kirkevej,8471,157,10.024438,56.214681
489209,Sabro Kirkevej,8471,159,10.024333,56.21456
489210,Sabro Kirkevej,8471,161,10.024229,56.214566
489211,Sabro Kirkevej,8471,163,10.024099,56.214567
489212,Sabro Kirkevej,8471,165,10.02403,56.214689
489213,Sabro Kirkevej,8471,167,10.024024,56.214765
489214,Sabro Kirkevej,8471,169,10.024023,56.214841
489215,Sabro Kirkevej,8471,171,10.024021,56.214922
489216,Sabro Kirkevej,8471,175,10.024252,56.215343
489217,Sabro Skolevej,8471,1,10.022971,56.211943
489218,Sabro Skolevej,8471,2,10.022694,56.211425
489219,Sabro Skolevej,8471,3,10.02311,56.212136
489220,Sabro Skolevej,8471,4,10.02367,56.211767
489221,Sabro Skolevej,8471,5,10.023145,56.212306
489222,Sabro Skolevej,8471,7,10.023217,56.212508
489223,Sabro Skolevej,8471,9,10.023323,56.212709
489224,Sabro Skolevej,8471,10,10.024592,56.213583
489225,Sabro Skolevej,8471,11,10.023422,56.212901
489226,Sabro Skolevej,8471,12,10.024854,56.213765
489227,Sabro Skolevej,8471,13,10.023536,56.21308
489228,Sabro Skolevej,8471,14,10.025035,56.21393
489229,Sabro Skolevej,8471,15,10.023663,56.213272
489230,Sabro Skolevej,8471,16,10.025209,56.214077
489231,Sabro Skolevej,8471,17,10.02375,56.213451
489232,Sabro Skolevej,8471,18,10.025384,56.214228
489233,Sabro Skolevej,8471,19,10.024048,56.213619
489234,Sabro Skolevej,8471,20,10.025556,56.214411
489235,Sabro Skolevej,8471,21,10.024211,56.213784
489236,Sabro Skolevej,8471,22,10.025679,56.214594
489237,Sabro Skolevej,8471,23,10.023525,56.213678
489238,Sabro Skolevej,8471,24,10.025696,56.214805
489239,Sabro Skolevej,8471,26,10.025798,56.214966
489240,Sabro Skolevej,8471,28,10.025804,56.215177
489241,Sabro Skolevej,8471,31,10.0244,56.214003
489242,Sabro Skolevej,8471,35,10.024806,56.214305
489243,Sabro Skovvej,8471,1,10.032777,56.21002
489244,Sabro Skovvej,8471,2,10.033321,56.209809
489245,Sabro Skovvej,8471,3,10.032918,56.21014
489246,Sabro Skovvej,8471,4,10.033529,56.209991
489247,Sabro Skovvej,8471,5,10.03308,56.210256
489248,Sabro Skovvej,8471,6,10.033765,56.210182
489249,Sabro Skovvej,8471,7,10.033209,56.210371
489250,Sabro Skovvej,8471,8,10.034031,56.210373
489251,Sabro Skovvej,8471,9,10.033393,56.210478
489252,Sabro Skovvej,8471,10,10.034203,56.210498
489253,Sabro Skovvej,8471,11,10.033555,56.210598
489254,Sabro Skovvej,8471,11A,10.0337,56.210704
489255,Sabro Skovvej,8471,12,10.034381,56.210739
489256,Sabro Skovvej,8471,14,10.034694,56.210867
489257,Sabro Skovvej,8471,15,10.033842,56.210824
489258,Sabro Skovvej,8471,16,10.034811,56.211068
489259,Sabro Skovvej,8471,17,10.034011,56.210922
489260,Sabro Skovvej,8471,18,10.03536,56.211432
489261,Sabro Skovvej,8471,19,10.034164,56.211046
489262,Sabro Skovvej,8471,20,10.035481,56.211502
489263,Sabro Skovvej,8471,21,10.034341,56.211153
489264,Sabro Skovvej,8471,22,10.03561,56.211591
489265,Sabro Skovvej,8471,23,10.034473,56.211268
489266,Sabro Skovvej,8471,24,10.035738,56.211729
489267,Sabro Skovvej,8471,26,10.036025,56.211875
489268,Sabro Skovvej,8471,27,10.034932,56.211664
489269,Sabro Skovvej,8471,28,10.036146,56.212045
489270,Sabro Skovvej,8471,30,10.036359,56.212232
489271,Sabro Skovvej,8471,31,10.035352,56.21202
489272,Sabro Skovvej,8471,32,10.036761,56.21222
489273,Sabro Skovvej,8471,33,10.035588,56.21218
489274,Sabro Skovvej,8471,35,10.03584,56.212407
489275,Sabro Skovvej,8471,35A,10.035068,56.212593
489276,Sabro Skovvej,8471,35B,10.034415,56.212666
489277,Sabro Skovvej,8471,37,10.03585,56.212726
489278,Sabro Skovvej,8471,39,10.036194,56.212678
489279,Sabro Skovvej,8471,41,10.036524,56.212603
489280,Sabro Toftevej,8471,1,10.037049,56.213601
489281,Sabro Toftevej,8471,2,10.037177,56.213236
489282,Sabro Toftevej,8471,3,10.037485,56.213629
489283,Sabro Toftevej,8471,4,10.037504,56.213256
489284,Sabro Toftevej,8471,5,10.037903,56.213589
489285,Sabro Toftevej,8471,6,10.0379,56.213261
489286,Sabrovej,8471,2,10.046154,56.205047
489287,Sabrovej,8471,8,10.045985,56.206185
489288,Sabrovej,8471,38,10.045125,56.209588
489289,Sabrovej,8471,44,10.044512,56.211072
489290,Sabrovej,8471,50,10.044301,56.211365
489291,Sabrovej,8471,52,10.044111,56.211767
489292,Sabro Vænge,8471,5,10.035385,56.21304
489293,Sabro Vænge,8471,6,10.035612,56.213649
489294,Sabro Vænge,8471,7,10.035373,56.212963
489295,Sabro Vænge,8471,8,10.03559,56.213523
489296,Sabro Vænge,8471,9,10.035319,56.212905
489297,Sabro Vænge,8471,11A,10.035216,56.212866
489298,Sabro Vænge,8471,11B,10.035238,56.212857
489299,Sabro Vænge,8471,13A,10.035092,56.212813
489300,Sabro Vænge,8471,13B,10.035109,56.212799
489301,Sabro Vænge,8471,15,10.035018,56.212854
489302,Sabro Vænge,8471,17A,10.034923,56.212931
489303,Sabro Vænge,8471,17B,10.034894,56.212918
489304,Sabro Vænge,8471,19,10.034664,56.212853
489305,Sabro Vænge,8471,21A,10.034574,56.212862
489306,Sabro Vænge,8471,21B,10.034567,56.212844
489307,Sabro Vænge,8471,23A,10.034487,56.212868
489308,Sabro Vænge,8471,23B,10.034484,56.21285
489309,Sabro Vænge,8471,25,10.034378,56.212873
489310,Sabro Vænge,8471,27A,10.034292,56.212883
489311,Sabro Vænge,8471,27B,10.03429,56.21286
489312,Sabro Vænge,8471,29A,10.034126,56.212889
489313,Sabro Vænge,8471,29B,10.034122,56.212875
489314,Sabro Vænge,8471,31,10.034135,56.21296
489315,Sabro Vænge,8471,33A,10.034158,56.21301
489316,Sabro Vænge,8471,33B,10.034119,56.213014
489317,Sabro Vænge,8471,35,10.034157,56.213077
489318,Sabro Vænge,8471,37,10.03417,56.213131
489319,Sabro Vænge,8471,39,10.034188,56.213193
489320,Sabro Vænge,8471,41,10.034256,56.213373
489321,Sabro Vænge,8471,43,10.03455,56.21337
489322,Sabro Vænge,8471,45,10.034708,56.21336
489323,Sabro Vænge,8471,47,10.034824,56.213354
489324,Sabro Vænge,8471,49A,10.034962,56.213344
489325,Sabro Vænge,8471,49B,10.034967,56.213362
489326,Sabro Vænge,8471,51A,10.035075,56.213334
489327,Sabro Vænge,8471,51B,10.03508,56.213352
489328,Sabro Vænge,8471,53,10.035054,56.213272
489329,Sabro Vænge,8471,55,10.035041,56.213204
489330,Sabro Vænge,8471,57,10.03502,56.213142
489331,Sabro Vænge,8471,59,10.035105,56.213563
489332,Sabro Vænge,8471,61,10.035003,56.213569
489333,Sabro Vænge,8471,63,10.034899,56.21356
489334,Sabro Vænge,8471,65,10.034785,56.21357
489335,Sabro Vænge,8471,67,10.034686,56.213576
489336,Sabro Vænge,8471,69,10.034392,56.213619
489337,Sabro Vænge,8471,71,10.034405,56.213686
489338,Sabro Vænge,8471,73,10.034447,56.213753
489339,Sabro Vænge,8471,75,10.034465,56.213816
489340,Sabro Vænge,8471,77,10.034721,56.213863
489341,Sabro Vænge,8471,79,10.034872,56.213848
489342,Sabro Vænge,8471,81,10.035041,56.21382
489343,Sabro Vænge,8471,83,10.035194,56.213796
489344,Sabro Vænge,8471,85,10.035266,56.214195
489345,Sabro Vænge,8471,87,10.035243,56.214128
489346,Sabro Vænge,8471,89,10.035195,56.214066
489347,Sabro Vænge,8471,91,10.035182,56.214003
489348,Sabro Vænge,8471,93,10.034923,56.214072
489349,Sabro Vænge,8471,95,10.034792,56.214127
489350,Sabro Vænge,8471,97,10.034555,56.214192
489351,Sabro Vænge,8471,99,10.034623,56.214246
489352,Sabro Vænge,8471,101,10.03467,56.214304
489353,Sabro Vænge,8471,103,10.034728,56.214348
489354,Sabro Vænge,8471,105,10.034957,56.214432
489355,Sabro Vænge,8471,107,10.035124,56.214421
489356,Sabro Vænge,8471,109,10.035285,56.214384
489357,Sabro Vænge,8471,111,10.035429,56.214374
493354,Skivholmevej,8471,19C,9.989339,56.189336
493355,Skivholmevej,8471,25,9.999984,56.194696
493356,Skivholmevej,8471,27,9.996484,56.193075
493357,Skivholmevej,8471,29,9.995461,56.194597
493358,Skivholmevej,8471,30,9.995078,56.196582
493359,Skivholmevej,8471,31,9.989756,56.192357
493360,Skivholmevej,8471,32,9.994202,56.197698
493361,Skivholmevej,8471,34,9.993437,56.196613
493362,Skivholmevej,8471,36,9.992713,56.196646
493363,Skivholmevej,8471,40,9.991257,56.196648
493364,Skivholmevej,8471,41,9.990779,56.196288
493365,Skivholmevej,8471,44,9.989241,56.196736
493366,Skivholmevej,8471,46,9.988195,56.196758
493367,Skivholmevej,8471,47,9.986864,56.194599
497321,Solbærvej,8471,1,10.02693,56.214108
497322,Solbærvej,8471,3,10.026625,56.213984
497323,Solbærvej,8471,4,10.026176,56.214527
497324,Solbærvej,8471,5,10.026556,56.213706
497325,Solbærvej,8471,6,10.026176,56.214276
497326,Solbærvej,8471,8,10.026073,56.214052
497327,Solbærvej,8471,9,10.026716,56.21335
497328,Solbærvej,8471,10,10.025852,56.213865
497329,Solbærvej,8471,11,10.026334,56.213349
497330,Solbærvej,8471,12,10.025088,56.213471
497331,Solbærvej,8471,14,10.025515,56.213499
497332,Solbærvej,8471,16,10.025895,56.213537
499824,Stillingvej,8471,1,10.027362,56.220245
499825,Stillingvej,8471,2,10.02819,56.222763
499826,Stillingvej,8471,3,10.027382,56.22034
499827,Stillingvej,8471,4,10.026751,56.222555
499828,Stillingvej,8471,6,10.027532,56.222221
499829,Stillingvej,8471,26,10.025826,56.219656
499830,Stillingvej,8471,30,10.025939,56.219381
499831,Stillingvej,8471,52,10.024742,56.217522
499832,Stillingvej,8471,56,10.02413,56.217325
499833,Stillingvej,8471,78,10.023189,56.21457
499834,Stillingvej,8471,82,10.022922,56.214033
499835,Stillingvej,8471,92,10.021877,56.211872
499836,Stillingvej,8471,94,10.021675,56.211698
499837,Stillingvej,8471,96,10.021591,56.211438
499838,Stillingvej,8471,98,10.021372,56.211233
499839,Stillingvej,8471,100,10.020532,56.210818
499840,Stillingvej,8471,101,10.021486,56.210756
499841,Stillingvej,8471,103,10.021268,56.210484
499842,Stillingvej,8471,104,10.020308,56.210573
499843,Stillingvej,8471,105A,10.022175,56.210104
499844,Stillingvej,8471,105B,10.021226,56.210112
499845,Stillingvej,8471,106,10.020052,56.21013
499846,Stillingvej,8471,107,10.021494,56.210069
499847,Stillingvej,8471,108,10.02,56.210059
499848,Stillingvej,8471,109,10.020849,56.209858
499849,Stillingvej,8471,111,10.020595,56.20969
499850,Stillingvej,8471,112,10.01981,56.209818
499851,Stillingvej,8471,130,10.017787,56.207305
499852,Stillingvej,8471,202,10.01681,56.204573
499853,Stillingvej,8471,204,10.015204,56.204895
499854,Stillingvej,8471,208,10.010458,56.204527
499855,Stillingvej,8471,210,10.015908,56.202302
499856,Stillingvej,8471,211,10.017449,56.201473
499857,Stillingvej,8471,212,10.014485,56.200153
499858,Stillingvej,8471,214,10.014728,56.199279
499859,Stillingvej,8471,215,10.017113,56.201115
499860,Stillingvej,8471,216,10.014419,56.198958
499861,Stillingvej,8471,217,10.021992,56.199961
499862,Stillingvej,8471,218,10.013951,56.198464
499863,Stillingvej,8471,219,10.029393,56.197312
499864,Stillingvej,8471,220,10.011495,56.198533
499865,Stillingvej,8471,222,10.008453,56.19845
499866,Stillingvej,8471,224,10.006956,56.19884
503740,Tingvad,8471,1,10.016221,56.186234
503741,Tingvad,8471,12,10.026437,56.18106
503742,Tingvad,8471,14,10.028469,56.181447
503743,Tingvad,8471,15,10.032451,56.180996
503744,Tingvad,8471,16,10.035991,56.179834
503745,Tingvad,8471,17,10.033414,56.180602
503746,Tingvad,8471,18,10.037392,56.179966
503747,Tingvad,8471,19,10.035734,56.18056
503748,Tingvad,8471,20,10.040208,56.178968
503749,Tingvad,8471,21,10.038486,56.180247
503750,Tingvad,8471,23,10.040403,56.18168
507344,Urebjergvej,8471,2,10.0068,56.214183
507345,Urebjergvej,8471,60,10.015318,56.217788
509576,Viborgvej,8471,713,10.048657,56.203565
509577,Viborgvej,8471,715,10.047998,56.200768
509578,Viborgvej,8471,717,10.046006,56.199134
509579,Viborgvej,8471,717A,10.042071,56.199623
509580,Viborgvej,8471,717B,10.04587,56.201311
509581,Viborgvej,8471,717C,10.043446,56.197706
509582,Viborgvej,8471,717D,10.040377,56.20067
509583,Viborgvej,8471,717E,10.044064,56.201034
509584,Viborgvej,8471,719,10.040709,56.202509
509585,Viborgvej,8471,721,10.035299,56.207887
509586,Viborgvej,8471,724,10.049328,56.205087
509587,Viborgvej,8471,725,10.032163,56.208462
509588,Viborgvej,8471,727,10.030864,56.207969
509589,Viborgvej,8471,728,10.04842,56.204813
509590,Viborgvej,8471,729,10.034617,56.206226
509591,Viborgvej,8471,730,10.033516,56.208608
509592,Viborgvej,8471,731,10.03208,56.205129
509593,Viborgvej,8471,732,10.033082,56.208665
509594,Viborgvej,8471,733,10.031139,56.207096
509595,Viborgvej,8471,735,10.029537,56.207289
509596,Viborgvej,8471,737,10.02703,56.204281
509597,Viborgvej,8471,742,10.023344,56.210831
509598,Viborgvej,8471,743,10.027706,56.209528
509599,Viborgvej,8471,744,10.022892,56.210848
509600,Viborgvej,8471,745,10.025813,56.209283
509601,Viborgvej,8471,750,10.021075,56.211173
509602,Viborgvej,8471,754,10.020232,56.211396
509603,Viborgvej,8471,760,10.019739,56.211534
509604,Viborgvej,8471,761,10.014688,56.211001
509605,Viborgvej,8471,761A,10.015503,56.210828
509606,Viborgvej,8471,761B,10.014164,56.21083
509607,Viborgvej,8471,771,10.006551,56.213615
509608,Viborgvej,8471,773,10.004762,56.213912
509609,Viborgvej,8471,775,10.002909,56.213487
509610,Viborgvej,8471,776,10.017411,56.212066
509611,Viborgvej,8471,777,9.99911,56.214124
509612,Viborgvej,8471,778,10.017098,56.212055
509613,Viborgvej,8471,779,9.998231,56.213853
509614,Viborgvej,8471,780,10.015779,56.212317
509615,Viborgvej,8471,783,9.997981,56.214286
509616,Viborgvej,8471,786,10.009539,56.213725
509617,Viborgvej,8471,792A,10.005366,56.214536
509618,Viborgvej,8471,792C,10.005771,56.214892
509619,Viborgvej,8471,792D,10.006246,56.215181
509620,Viborgvej,8471,798,10.003646,56.214622
510407,Vistoftparken,8471,1,10.038464,56.209698
510408,Vistoftparken,8471,2,10.038694,56.209467
510409,Vistoftparken,8471,3,10.038337,56.209708
510410,Vistoftparken,8471,4,10.038605,56.209468
510411,Vistoftparken,8471,5,10.038217,56.209714
510412,Vistoftparken,8471,6,10.038511,56.209469
510413,Vistoftparken,8471,7,10.03824,56.209817
510414,Vistoftparken,8471,8,10.038432,56.209478
510415,Vistoftparken,8471,9,10.038248,56.209884
510416,Vistoftparken,8471,10,10.038236,56.209489
510417,Vistoftparken,8471,11,10.038265,56.209952
510418,Vistoftparken,8471,12,10.038227,56.209444
510419,Vistoftparken,8471,13,10.038271,56.210014
510420,Vistoftparken,8471,14,10.038222,56.209395
510421,Vistoftparken,8471,15,10.038478,56.210004
510422,Vistoftparken,8471,16,10.038213,56.209346
510423,Vistoftparken,8471,17,10.038598,56.209998
510424,Vistoftparken,8471,18,10.03821,56.209301
510425,Vistoftparken,8471,19,10.038721,56.209993
510426,Vistoftparken,8471,20,10.038201,56.209247
510427,Vistoftparken,8471,21,10.039044,56.209689
510428,Vistoftparken,8471,22,10.038172,56.209153
510429,Vistoftparken,8471,23,10.038981,56.209766
510430,Vistoftparken,8471,24,10.038256,56.209125
510431,Vistoftparken,8471,25,10.038987,56.209815
510432,Vistoftparken,8471,26,10.038336,56.209102
510433,Vistoftparken,8471,27,10.038997,56.20986
510434,Vistoftparken,8471,28,10.038409,56.209079
510435,Vistoftparken,8471,29,10.039005,56.209914
510436,Vistoftparken,8471,30,10.03849,56.209056
510437,Vistoftparken,8471,31,10.039016,56.209959
510438,Vistoftparken,8471,32,10.038572,56.209033
510439,Vistoftparken,8471,33,10.039206,56.209966
510440,Vistoftparken,8471,34,10.03876,56.209143
510441,Vistoftparken,8471,35,10.039291,56.209961
510442,Vistoftparken,8471,36,10.038765,56.208977
510443,Vistoftparken,8471,37,10.03938,56.20996
510444,Vistoftparken,8471,38,10.038848,56.208954
510445,Vistoftparken,8471,39,10.039469,56.209955
510446,Vistoftparken,8471,40,10.038919,56.208931
510447,Vistoftparken,8471,41,10.03976,56.209598
510448,Vistoftparken,8471,42,10.039002,56.208908
510449,Vistoftparken,8471,43,10.039704,56.209679
510450,Vistoftparken,8471,44,10.039087,56.20888
510451,Vistoftparken,8471,45,10.03971,56.209728
510452,Vistoftparken,8471,46,10.039256,56.208982
510453,Vistoftparken,8471,47,10.039716,56.209778
510454,Vistoftparken,8471,48,10.039268,56.208829
510455,Vistoftparken,8471,49,10.039726,56.209827
510456,Vistoftparken,8471,50,10.039355,56.208806
510457,Vistoftparken,8471,51,10.039739,56.209876
510458,Vistoftparken,8471,52,10.039434,56.208783
510459,Vistoftparken,8471,53,10.039739,56.209926
510460,Vistoftparken,8471,54,10.039512,56.208764
510461,Vistoftparken,8471,55,10.039929,56.209933
510462,Vistoftparken,8471,56,10.039589,56.208741
510463,Vistoftparken,8471,57,10.040015,56.209928
510464,Vistoftparken,8471,58,10.039769,56.208838
510465,Vistoftparken,8471,59,10.040101,56.209923
510466,Vistoftparken,8471,60,10.039768,56.208686
510467,Vistoftparken,8471,61,10.040195,56.209917
510468,Vistoftparken,8471,62,10.03985,56.208662
510469,Vistoftparken,8471,63,10.040475,56.209515
510470,Vistoftparken,8471,64,10.039929,56.208639
510471,Vistoftparken,8471,65,10.040417,56.209592
510472,Vistoftparken,8471,66,10.040006,56.208616
510473,Vistoftparken,8471,67,10.040425,56.209646
510474,Vistoftparken,8471,68,10.04009,56.208593
510475,Vistoftparken,8471,69,10.040435,56.209695
510476,Vistoftparken,8471,70,10.040169,56.20857
510477,Vistoftparken,8471,71,10.040443,56.209745
510478,Vistoftparken,8471,72,10.040433,56.208599
510479,Vistoftparken,8471,73,10.040449,56.209794
510480,Vistoftparken,8471,74,10.040575,56.208661
510481,Vistoftparken,8471,75,10.040454,56.209839
510482,Vistoftparken,8471,76,10.040709,56.208727
510483,Vistoftparken,8471,77,10.040461,56.209893
510484,Vistoftparken,8471,78,10.040378,56.208945
510485,Vistoftparken,8471,79,10.040661,56.2099
510486,Vistoftparken,8471,80,10.040296,56.208901
510487,Vistoftparken,8471,81,10.040755,56.209895
510488,Vistoftparken,8471,82,10.040194,56.208965
510489,Vistoftparken,8471,83,10.040833,56.20989
510490,Vistoftparken,8471,84,10.040282,56.209005
510491,Vistoftparken,8471,85,10.040924,56.209884
510492,Vistoftparken,8471,86,10.040024,56.209047
510493,Vistoftparken,8471,87,10.041194,56.209855
510494,Vistoftparken,8471,88,10.039933,56.209008
510495,Vistoftparken,8471,89,10.041184,56.209806
510496,Vistoftparken,8471,90,10.039847,56.209076
510497,Vistoftparken,8471,91,10.041185,56.209756
510498,Vistoftparken,8471,92,10.039925,56.209116
510499,Vistoftparken,8471,93,10.041168,56.209707
510500,Vistoftparken,8471,94,10.039656,56.209154
510501,Vistoftparken,8471,95,10.041163,56.209658
510502,Vistoftparken,8471,96,10.039568,56.20911
510503,Vistoftparken,8471,97,10.041152,56.209608
510504,Vistoftparken,8471,98,10.03947,56.209173
510505,Vistoftparken,8471,99,10.041148,56.209559
510506,Vistoftparken,8471,100,10.039559,56.209213
510507,Vistoftparken,8471,101,10.041148,56.209514
510508,Vistoftparken,8471,102,10.039123,56.209266
510509,Vistoftparken,8471,103,10.041138,56.209375
510510,Vistoftparken,8471,105,10.041121,56.209272
510511,Vistoftparken,8471,107,10.041108,56.209164
510512,Vistoftparken,8471,109,10.040711,56.20923
510513,Vistoftparken,8471,111,10.040791,56.209265
510514,Vistoftparken,8471,113,10.040725,56.209311
510515,Vistoftparken,8471,115,10.04064,56.209276
510516,Vistoftparken,8471,117,10.040301,56.209274
510517,Vistoftparken,8471,119,10.040379,56.209318
510518,Vistoftparken,8471,121,10.040312,56.209364
510519,Vistoftparken,8471,123,10.040215,56.209324
510520,Vistoftparken,8471,125,10.039898,56.209322
510521,Vistoftparken,8471,127,10.039985,56.209367
510522,Vistoftparken,8471,129,10.039914,56.209412
510523,Vistoftparken,8471,131,10.039812,56.209373
510524,Vistoftparken,8471,133,10.0395,56.209371
510525,Vistoftparken,8471,135,10.039581,56.209415
510526,Vistoftparken,8471,137,10.039507,56.20946
510527,Vistoftparken,8471,139,10.039414,56.209425
510528,Vistoftvej,8471,1,10.037277,56.208774
510529,Vistoftvej,8471,3,10.036985,56.208821
510530,Vistoftvej,8471,5,10.036732,56.20894
510531,Vistoftvej,8471,7,10.036866,56.209168
510532,Vistoftvej,8471,9,10.037204,56.209143
510533,Vistoftvej,8471,11,10.037557,56.209122
510534,Vistoftvej,8471,13,10.037671,56.209422
510535,Vistoftvej,8471,15,10.03735,56.209483
510536,Vistoftvej,8471,17,10.037028,56.209517
510537,Vistoftvej,8471,19,10.037086,56.2098
510538,Vistoftvej,8471,21,10.037386,56.209838
510539,Vistoftvej,8471,23,10.037707,56.209839
510540,Vistoftvej,8471,25,10.037681,56.210168
510541,Vistoftvej,8471,27,10.037319,56.210166
510542,Vistoftvej,8471,29,10.037013,56.210187
510543,Vistoftvej,8471,31,10.036929,56.210417
510544,Vistoftvej,8471,32,10.037809,56.21138
510545,Vistoftvej,8471,33,10.037138,56.210554
510546,Vistoftvej,8471,34,10.037663,56.211893
510547,Vistoftvej,8471,35,10.037534,56.210569
510548,Vistoftvej,8471,37,10.037286,56.210858
510549,Vistoftvej,8471,38,10.037601,56.212186
510550,Vistoftvej,8471,39,10.036861,56.21083
510551,Vistoftvej,8471,40,10.037668,56.212531
510552,Vistoftvej,8471,41,10.036034,56.212989
510553,Vistoftvej,8471,47,10.036009,56.213583
510554,Vistoftvej,8471,48,10.037237,56.21297
510555,Vistoftvej,8471,51,10.036017,56.213866
510556,Vistoftvej,8471,53,10.035822,56.21402
510557,Vistoftvej,8471,54,10.036623,56.213721
510558,Vistoftvej,8471,55,10.03581,56.214105
510559,Vistoftvej,8471,60,10.036224,56.214794
510560,Vistoftvej,8471,62,10.036729,56.214852
510561,Vistoftvej,8471,64,10.036593,56.215128
510562,Vistoftvej,8471,65,10.036189,56.215437
510563,Vistoftvej,8471,70,10.036663,56.215518
790067,Rønnevangen,8471,1,10.045678,56.208784
790068,Rønnevangen,8471,2,10.045944,56.208135
790069,Rønnevangen,8471,3,10.045433,56.208791
790070,Rønnevangen,8471,5,10.045603,56.209036
790071,Rønnevangen,8471,6,10.046557,56.207165
790072,Rønnevangen,8471,7,10.045366,56.209047
790073,Rønnevangen,8471,8,10.045904,56.207353
790074,Rønnevangen,8471,10,10.045981,56.207106
790075,Rønnevangen,8471,12,10.046389,56.206929
790076,Rønnevangen,8471,14,10.046083,56.206718
790077,Rønnevangen,8471,16,10.046593,56.20653
790078,Rønnevangen,8471,26,10.047123,56.206395
790079,Rønnevangen,8471,28,10.047563,56.206257
790080,Rønnevangen,8471,38,10.04817,56.206099
790081,Rønnevangen,8471,40,10.048666,56.205942
790082,Rønnevangen,8471,42,10.049138,56.205799
790083,Rønnevangen,8471,44,10.048822,56.206246
790084,Rønnevangen,8471,50,10.04908,56.206495
790085,Rønnevangen,8471,52,10.050023,56.206591
790086,Rønnevangen,8471,950,10.050461,56.206518
790087,Rødtjørnvej,8471,1,10.04462,56.208128
790088,Rønnevangen,8471,71,10.05222,56.208998
790089,Rødtjørnvej,8471,2,10.044251,56.208666
790090,Rønnevangen,8471,9,10.045499,56.209244
790091,Rødtjørnvej,8471,4,10.04427,56.208877
790092,Rønnevangen,8471,11,10.046496,56.209294
790093,Rødtjørnvej,8471,5,10.044732,56.207489
790094,Rønnevangen,8471,13,10.046077,56.209288
790095,Rødtjørnvej,8471,6,10.044256,56.209155
790096,Rønnevangen,8471,15,10.04605,56.209585
790097,Rønnevangen,8471,17,10.04655,56.209599
790098,Rødtjørnvej,8471,7,10.044736,56.207251
790099,Rønnevangen,8471,19,10.047172,56.209481
790100,Rødtjørnvej,8471,8,10.044266,56.209371
790101,Rønnevangen,8471,21,10.047094,56.209289
790102,Rødtjørnvej,8471,9,10.044101,56.207481
790103,Rødtjørnvej,8471,10,10.044148,56.209642
790104,Rødtjørnvej,8471,11,10.044065,56.207733
790105,Rønnevangen,8471,23,10.047055,56.209172
790106,Rødtjørnvej,8471,12,10.043733,56.209717
790107,Rønnevangen,8471,25,10.04747,56.209128
790108,Rødtjørnvej,8471,13,10.044135,56.207957
790109,Rønnevangen,8471,27,10.047507,56.20924
790110,Rødtjørnvej,8471,14,10.043654,56.209318
790111,Rønnevangen,8471,29,10.047663,56.209486
790112,Rødtjørnvej,8471,15,10.044061,56.208182
790113,Rødtjørnvej,8471,16,10.043699,56.209043
790114,Rønnevangen,8471,31,10.048212,56.209427
790115,Rødtjørnvej,8471,17,10.043645,56.208316
790116,Rødtjørnvej,8471,18,10.043763,56.208751
790117,Rønnevangen,8471,33,10.048125,56.20919
790118,Rødtjørnvej,8471,19,10.043598,56.208078
790119,Rødtjørnvej,8471,20,10.043075,56.208914
790120,Rødtjørnvej,8471,21,10.043569,56.207845
790121,Rønnevangen,8471,35,10.048086,56.209078
790122,Rødtjørnvej,8471,22,10.043256,56.20911
790123,Rønnevangen,8471,37,10.048558,56.209011
790124,Rønnevangen,8471,39,10.04861,56.20915
790125,Rødtjørnvej,8471,23,10.043646,56.207602
790126,Rønnevangen,8471,41,10.048716,56.209356
790127,Rødtjørnvej,8471,24,10.043297,56.209384
790128,Rønnevangen,8471,43,10.049316,56.209315
790129,Rødtjørnvej,8471,25,10.042861,56.207757
790130,Rønnevangen,8471,45,10.049227,56.209104
790131,Rødtjørnvej,8471,26,10.043354,56.209752
790132,Rødtjørnvej,8471,27,10.042956,56.207976
790133,Rønnevangen,8471,47,10.049184,56.20897
790134,Rødtjørnvej,8471,28,10.042856,56.209787
790135,Rønnevangen,8471,49,10.049658,56.208939
790136,Rødtjørnvej,8471,29,10.043093,56.208159
790137,Rønnevangen,8471,51,10.049703,56.209055
790138,Rødtjørnvej,8471,30,10.042706,56.209402
790139,Rønnevangen,8471,53,10.049811,56.209216
790140,Rødtjørnvej,8471,31,10.043136,56.208401
790141,Rønnevangen,8471,55,10.050347,56.209216
790142,Rødtjørnvej,8471,32,10.04262,56.209201
790143,Rønnevangen,8471,57,10.05037,56.2089997
790144,Rønnevangen,8471,61,10.050826,56.208896
790145,Rødtjørnvej,8471,33,10.042644,56.208477
790146,Rødtjørnvej,8471,34,10.042531,56.209017
790147,Rønnevangen,8471,65,10.050828,56.209127
790148,Rødtjørnvej,8471,35,10.042529,56.208316
790149,Rønnevangen,8471,67,10.051329,56.209149
790150,Rønnevangen,8471,69,10.05194,56.209072
790151,Rødtjørnvej,8471,37,10.042357,56.20812
790152,Rødtjørnvej,8471,39,10.042197,56.207937
790153,Rønnevangen,8471,73,10.051929,56.208767
790154,Rødtjørnvej,8471,41,10.041702,56.208157
790155,Rødtjørnvej,8471,43,10.041909,56.20842
790156,Rønnevangen,8471,75,10.051497,56.208811
790157,Rødtjørnvej,8471,45,10.042119,56.20863
790158,Rønnevangen,8471,77,10.051586,56.208475
790159,Rødtjørnvej,8471,3,10.044613,56.207827
790160,Rønnevangen,8471,185,10.047512,56.208813
790161,Rønnevangen,8471,22A,10.047696,56.206979
790162,Rønnevangen,8471,22B,10.047608,56.20689
790163,Rønnevangen,8471,163,10.048803,56.208708
790164,Rønnevangen,8471,201,10.047037,56.20888
790165,Rønnevangen,8471,46A,10.049337,56.20612
790166,Rønnevangen,8471,46B,10.049533,56.206069
790167,Rønnevangen,8471,59,10.050311,56.208893
790168,Rønnevangen,8471,54,10.050078,56.206649
790169,Rønnevangen,8471,56,10.050129,56.206702
790170,Rønnevangen,8471,58,10.050188,56.20676
790171,Rønnevangen,8471,60,10.050244,56.206818
790172,Rønnevangen,8471,62,10.050438,56.207027
790173,Rønnevangen,8471,64,10.05049,56.207081
790174,Rønnevangen,8471,66,10.050549,56.207143
790175,Rønnevangen,8471,68,10.050619,56.207215
790176,Rønnevangen,8471,70,10.050678,56.207277
790177,Rønnevangen,8471,72,10.050271,56.207393
790178,Rønnevangen,8471,74,10.050231,56.207348
790179,Rønnevangen,8471,76,10.050191,56.207299
790180,Rønnevangen,8471,78,10.050152,56.20725
790181,Rønnevangen,8471,80,10.050125,56.207214
790182,Rønnevangen,8471,82,10.050029,56.207116
790183,Rønnevangen,8471,84,10.049974,56.207063
790184,Rønnevangen,8471,86,10.049927,56.207005
790185,Rønnevangen,8471,165,10.04877,56.20861
790186,Rønnevangen,8471,167,10.048748,56.208515
790187,Rønnevangen,8471,169,10.048709,56.208399
790188,Rønnevangen,8471,171,10.048679,56.208309
790189,Rønnevangen,8471,173,10.0482,56.208358
790190,Rønnevangen,8471,175,10.048217,56.208421
790191,Rønnevangen,8471,177,10.048253,56.208547
790192,Rønnevangen,8471,179,10.048271,56.208614
790193,Rønnevangen,8471,181,10.048302,56.208712
790194,Rønnevangen,8471,183,10.048319,56.208771
790195,Rønnevangen,8471,48,10.049616,56.206388
790196,Rønnevangen,8471,161,10.0483778,56.2084761
790197,Hvidtjørnvej,8471,3,10.043599,56.206335
790198,Hvidtjørnvej,8471,5,10.04284,56.20644
799226,Viborgvej,8471,729A,10.036582,56.205743
799227,Viborgvej,8471,736,10.026089,56.210175
799228,Viborgvej,8471,739,10.02984,56.209025
799229,Viborgvej,8471,794,10.002703,56.214631
805314,Stillingvej,8471,7,10.027121,56.220054
805315,Stillingvej,8471,74,10.023132,56.215056
805316,Stillingvej,8471,99,10.022061,56.21121
805317,Stillingvej,8471,110,10.01986,56.209876
805318,Stillingvej,8471,113,10.020293,56.209243
805319,Stillingvej,8471,249,10.003385,56.181536
805605,Gammel Viborgvej,8471,94,10.062886,56.199225
805606,Gammel Viborgvej,8471,96,10.062407,56.199301
805607,Gammel Viborgvej,8471,107,10.063408,56.198448
805608,Gammel Viborgvej,8471,114,10.061266,56.201243
805609,Gammel Viborgvej,8471,115A,10.060436,56.199691
805610,Gammel Viborgvej,8471,115B,10.060108,56.199829
805611,Gammel Viborgvej,8471,127A,10.058187,56.200541
805612,Gammel Viborgvej,8471,127B,10.058027,56.200417
805613,Gammel Viborgvej,8471,131A,10.056258,56.201397
805614,Gammel Viborgvej,8471,131B,10.056756,56.201201
805615,Gammel Viborgvej,8471,131C,10.057236,56.201062
805616,Gammel Viborgvej,8471,133,10.057096,56.200852
805617,Gammel Viborgvej,8471,135,10.056601,56.200964
805618,Gammel Viborgvej,8471,137,10.05598,56.201028
805619,Rødkærvej,8471,15A,10.06707,56.196323
805620,Løvkærvej,8471,12,10.064214,56.197857
805621,Løvkærvej,8471,17,10.063621,56.197444
805622,Løvkærvej,8471,19H,10.062669,56.197107
805623,Løvkærvej,8471,23,10.062202,56.197322
805624,Løvkærvej,8471,25,10.061954,56.197297
805625,Løvkærvej,8471,27,10.061553,56.197314
805626,Kærsvinget,8471,2,10.061182,56.199393
805627,Kærsvinget,8471,4,10.060843,56.199521
805628,Kærsvinget,8471,6,10.0607872,56.1991349
805629,Kærsvinget,8471,30,10.058676,56.191934
805630,Grønkærvej,8471,6,10.064314,56.19689
805631,Grønkærvej,8471,11,10.065672,56.196402
805632,Grønkærvej,8471,14A,10.064487,56.196341
805633,Grønkærvej,8471,16A,10.064592,56.195933
805856,Grønvej,8471,37A,10.059201,56.205371
805857,Grønvej,8471,61,10.053499,56.208911
805858,Sabrovej,8471,3,10.045047,56.206633
805859,Sabro Skovvej,8471,29,10.035203,56.211797
805860,Sabro Kirkevej,8471,152,10.025573,56.215704
805861,Sabro Kirkevej,8471,154,10.024988,56.215686
805862,Højagerparken,8471,3,10.039973,56.212336
805863,Højagerparken,8471,5,10.039825,56.21232
805864,Højagerparken,8471,7,10.0397,56.212312
805865,Højagerparken,8471,9,10.039565,56.212295
805866,Højagerparken,8471,11A,10.040115,56.212573
805867,Højagerparken,8471,11B,10.039972,56.212547
805868,Højagerparken,8471,11C,10.039835,56.212517
805869,Højagerparken,8471,13,10.039354,56.212418
805870,Højagerparken,8471,15,10.039211,56.212388
805871,Damvej,8471,3,10.034994,56.208461
805872,Damvej,8471,23A,10.02967,56.210059
805873,Damvej,8471,110B,10.026491,56.210656
805874,Vistoftparken,8471,104,10.039064,56.209455
805875,Ranunkelvej,8471,1,10.041516,56.212054
805876,Ranunkelvej,8471,3,10.041479,56.212108
805877,Ranunkelvej,8471,5,10.041436,56.212171
805878,Ranunkelvej,8471,7,10.041395,56.212239
805879,Ranunkelvej,8471,9,10.041356,56.212307
805880,Ranunkelvej,8471,11,10.041759,56.212393
805881,Ranunkelvej,8471,13,10.041932,56.212423
805882,Ranunkelvej,8471,15,10.042232,56.212479
805883,Ranunkelvej,8471,17,10.041852,56.212217
805884,Ranunkelvej,8471,19,10.042052,56.212251
805885,Ranunkelvej,8471,21,10.042289,56.212299
805886,Ranunkelvej,8471,23,10.042552,56.212157
805887,Ranunkelvej,8471,25,10.042314,56.212101
805888,Ranunkelvej,8471,27,10.04209,56.212044
805889,Ranunkelvej,8471,29,10.041883,56.212001
805890,Ranunkelvej,8471,31,10.041574,56.211919
805891,Ranunkelvej,8471,45,10.041723,56.211782
805892,Ranunkelvej,8471,47,10.041868,56.211817
805893,Ranunkelvej,8471,49,10.042009,56.211856
805894,Ranunkelvej,8471,51,10.042278,56.211922
805895,Ranunkelvej,8471,53,10.0424,56.211947
805896,Ranunkelvej,8471,55,10.042572,56.211991
805897,Ranunkelvej,8471,57,10.042682,56.212021
805898,Ranunkelvej,8471,59,10.042874,56.211867
805899,Ranunkelvej,8471,61,10.042754,56.211841
805900,Ranunkelvej,8471,63,10.042563,56.211807
805901,Ranunkelvej,8471,65,10.042422,56.211777
805902,Ranunkelvej,8471,67,10.043037,56.211704
805903,Ranunkelvej,8471,69,10.042887,56.211683
805904,Ranunkelvej,8471,71,10.042749,56.211662
805905,Ranunkelvej,8471,73,10.042602,56.211645
805906,Ranunkelvej,8471,75,10.042463,56.211623
805907,Ranunkelvej,8471,77,10.043303,56.211491
805908,Ranunkelvej,8471,79,10.043134,56.211483
805909,Ranunkelvej,8471,81,10.042987,56.211471
805910,Ranunkelvej,8471,83,10.042857,56.211463
805911,Ranunkelvej,8471,85,10.042669,56.211451
805912,Ranunkelvej,8471,87,10.042545,56.211443
805913,Ranunkelvej,8471,89,10.042264,56.211423
805914,Ranunkelvej,8471,91,10.042123,56.211411
805915,Ranunkelvej,8471,93,10.041978,56.211403
805916,Ranunkelvej,8471,95,10.041845,56.211395
805917,Ranunkelvej,8471,97,10.041769,56.211553
805918,Ranunkelvej,8471,99,10.042568,56.211299
805919,Ranunkelvej,8471,101,10.042854,56.211297
805920,Ranunkelvej,8471,103,10.043032,56.211304
805921,Ranunkelvej,8471,105,10.043213,56.211312
805922,Ranunkelvej,8471,107,10.043393,56.211315
805923,Ranunkelvej,8471,109,10.043545,56.211138
805924,Ranunkelvej,8471,111,10.043368,56.21114
805925,Ranunkelvej,8471,113,10.043201,56.211137
805926,Ranunkelvej,8471,115,10.043828,56.21092
805927,Ranunkelvej,8471,117,10.043752,56.21093
805928,Ranunkelvej,8471,119,10.043657,56.21094
805929,Ranunkelvej,8471,121,10.043583,56.210945
805930,Ranunkelvej,8471,123,10.043461,56.210959
805931,Ranunkelvej,8471,125,10.043353,56.210969
805932,Ranunkelvej,8471,127,10.043201,56.210984
805933,Ranunkelvej,8471,129,10.043089,56.210998
805934,Ranunkelvej,8471,131,10.043008,56.211008
805935,Ranunkelvej,8471,133,10.042915,56.211013
805936,Ranunkelvej,8471,135,10.042822,56.211023
805937,Ranunkelvej,8471,137A,10.042621,56.211052
805938,Ranunkelvej,8471,137B,10.042599,56.211002
805939,Ranunkelvej,8471,139A,10.042555,56.211079
805940,Ranunkelvej,8471,139B,10.042373,56.211076
805941,Ranunkelvej,8471,139C,10.042532,56.211034
805942,Ranunkelvej,8471,139D,10.042353,56.211027
805943,Ranunkelvej,8471,141A,10.042308,56.211104
805944,Ranunkelvej,8471,141B,10.042137,56.211101
805945,Ranunkelvej,8471,141C,10.042291,56.211063
805946,Ranunkelvej,8471,141D,10.04212,56.211056
805947,Ranunkelvej,8471,143A,10.042069,56.211128
805948,Ranunkelvej,8471,143B,10.042053,56.211088
805949,Ranunkelvej,8471,147,10.04209,56.210885
805950,Ranunkelvej,8471,149,10.04226,56.21087
805951,Ranunkelvej,8471,151,10.042379,56.210856
805952,Ranunkelvej,8471,153,10.042494,56.210851
805953,Ranunkelvej,8471,155,10.042624,56.210836
805954,Ranunkelvej,8471,157,10.042525,56.210877
805955,Ranunkelvej,8471,159,10.043097,56.210783
805956,Ranunkelvej,8471,161,10.04325,56.210768
805957,Ranunkelvej,8471,163,10.043377,56.210753
805958,Ranunkelvej,8471,165,10.043495,56.210743
805959,Ranunkelvej,8471,167,10.043625,56.210733
805960,Ranunkelvej,8471,169,10.043744,56.210719
805961,Ranunkelvej,8471,171,10.043884,56.210708
805962,Ranunkelvej,8471,173,10.043533,56.210774
805963,Ranunkelvej,8471,175,10.043543,56.210532
805964,Ranunkelvej,8471,177,10.043673,56.210517
805965,Ranunkelvej,8471,179,10.043805,56.210503
805966,Ranunkelvej,8471,181,10.043933,56.210492
805967,Ranunkelvej,8471,183,10.043503,56.210357
805968,Ranunkelvej,8471,185,10.043632,56.210347
805969,Ranunkelvej,8471,187,10.043771,56.210332
805970,Ranunkelvej,8471,189,10.0439,56.210318
805971,Ranunkelvej,8471,191,10.044026,56.210312
805972,Ranunkelvej,8471,193,10.04406,56.210127
805973,Ranunkelvej,8471,195,10.043946,56.210137
805974,Ranunkelvej,8471,197,10.043828,56.210147
805975,Ranunkelvej,8471,199,10.043702,56.210157
805976,Ranunkelvej,8471,201,10.043587,56.210167
805977,Ranunkelvej,8471,203,10.04346,56.210177
805978,Ranunkelvej,8471,205,10.043327,56.210188
805979,Ranunkelvej,8471,207,10.043086,56.210208
805980,Ranunkelvej,8471,209,10.042922,56.210222
805981,Ranunkelvej,8471,211,10.042798,56.210232
805982,Ranunkelvej,8471,213,10.04267,56.210243
805983,Ranunkelvej,8471,215,10.042518,56.210257
805984,Ranunkelvej,8471,217,10.042361,56.210272
805985,Ranunkelvej,8471,219,10.042894,56.210259
805986,Ranunkelvej,8471,221,10.043072,56.210477
805987,Ranunkelvej,8471,223,10.042938,56.210483
805988,Ranunkelvej,8471,225,10.042855,56.210488
805989,Ranunkelvej,8471,227,10.042776,56.210498
805990,Ranunkelvej,8471,229,10.042691,56.210503
805991,Ranunkelvej,8471,231,10.042612,56.210513
805992,Ranunkelvej,8471,233,10.042532,56.210518
805993,Ranunkelvej,8471,235,10.042449,56.210523
805994,Ranunkelvej,8471,237,10.042373,56.210533
805995,Ranunkelvej,8471,239,10.042272,56.210542
805996,Ranunkelvej,8471,277,10.041166,56.210871
805997,Ranunkelvej,8471,325,10.04089,56.211709
805998,Ranunkelvej,8471,327,10.040991,56.211717
805999,Ranunkelvej,8471,329A,10.041177,56.211742
806000,Ranunkelvej,8471,329B,10.041086,56.211734
806001,Ranunkelvej,8471,331,10.041189,56.211666
806002,Ranunkelvej,8471,333,10.041224,56.211589
806003,Ranunkelvej,8471,335A,10.041278,56.211508
806004,Ranunkelvej,8471,335B,10.041195,56.211495
806005,Ranunkelvej,8471,337,10.041073,56.211478
806006,Ranunkelvej,8471,339,10.040961,56.211465
806007,Ranunkelvej,8471,341,10.040856,56.211453
806008,Ranunkelvej,8471,343,10.040403,56.211443
806009,Ranunkelvej,8471,345,10.04029,56.211417
806010,Ranunkelvej,8471,347,10.040178,56.211391
806011,Ranunkelvej,8471,349A,10.040083,56.211365
806012,Ranunkelvej,8471,349B,10.039998,56.211348
806013,Ranunkelvej,8471,351,10.039935,56.211438
806014,Ranunkelvej,8471,353,10.03989,56.211501
806015,Ranunkelvej,8471,355A,10.039908,56.211591
806016,Ranunkelvej,8471,355B,10.039826,56.211574
806017,Ranunkelvej,8471,357,10.039995,56.211617
806018,Ranunkelvej,8471,359,10.040093,56.211639
806019,Ranunkelvej,8471,361,10.040015,56.211864
806020,Ranunkelvej,8471,363,10.039875,56.211852
806021,Ranunkelvej,8471,365A,10.039754,56.211839
806022,Ranunkelvej,8471,365B,10.039728,56.211894
806023,Ranunkelvej,8471,367,10.039715,56.211943
806024,Ranunkelvej,8471,369,10.039692,56.211993
806025,Ranunkelvej,8471,371A,10.039673,56.212038
806026,Ranunkelvej,8471,371B,10.039659,56.212083
806027,Ranunkelvej,8471,373,10.039781,56.2121
806028,Ranunkelvej,8471,375,10.039887,56.212112
806029,Ranunkelvej,8471,377,10.04,56.212125
806030,Ranunkelvej,8471,379,10.040114,56.212137
806031,Ranunkelvej,8471,381,10.040575,56.212161
806032,Ranunkelvej,8471,383,10.040702,56.212191
806033,Ranunkelvej,8471,385A,10.040836,56.21223
806034,Ranunkelvej,8471,385B,10.04088,56.212194
806035,Ranunkelvej,8471,387,10.040912,56.212144
806036,Ranunkelvej,8471,389,10.040951,56.212103
806037,Ranunkelvej,8471,391A,10.040999,56.21204
806038,Ranunkelvej,8471,391B,10.041024,56.211995
806039,Ranunkelvej,8471,393,10.0409,56.211969
806040,Ranunkelvej,8471,395,10.040793,56.211943
806041,Multebærvej,8471,9,10.027225,56.214792
806042,Sabro Skolevej,8471,25,10.023663,56.21409
806043,Sabro Skolevej,8471,37,10.024934,56.214524
806044,Agerbærvej,8471,30,10.029007,56.215959
806045,Vistoftvej,8471,30,10.038907,56.210845
806046,Vistoftvej,8471,36A,10.038378,56.21182
806047,Vistoftvej,8471,36B,10.038815,56.211798
806048,Vistoftvej,8471,39A,10.0372,56.211066
806049,Vistoftvej,8471,57A,10.03583,56.214712
806050,Vistoftvej,8471,57B,10.035525,56.214728
806051,Vistoftvej,8471,59A,10.035328,56.214734
806052,Vistoftvej,8471,59B,10.035033,56.214754
806053,Vistoftvej,8471,61A,10.035104,56.215095
806054,Vistoftvej,8471,61B,10.0354,56.215079
806055,Vistoftvej,8471,63A,10.035594,56.215064
806056,Vistoftvej,8471,63B,10.035907,56.215053
806057,Ristrupvej,8471,6,10.039508,56.216833
806058,Ristrupvej,8471,31,10.039657,56.218858
806059,Ristrupvej,8471,33,10.040971,56.218478
806060,Ristrupvej,8471,62,10.067332,56.22533
806061,Astervej,8471,13,10.037383,56.213935
806062,Larixvej,8471,5,10.039181,56.208434
806063,Urebjergvej,8471,13,10.006814,56.216717
806064,Urebjergvej,8471,15,10.006155,56.217517
806065,Urebjergvej,8471,23,10.009935,56.216287
806066,Urebjergvej,8471,25,10.010971,56.216458
806067,Urebjergvej,8471,35,10.011819,56.219821
806068,Urebjergvej,8471,47,10.021182,56.222421
806069,Urebjergvej,8471,75,10.018046,56.221243
810207,Brushøjvej,8471,7A,10.082239,56.217203
810208,Brushøjvej,8471,7B,10.081635,56.21728
810209,Brushøjvej,8471,7C,10.081315,56.217463
810210,Brushøjvej,8471,9,10.082429,56.217476
810211,Brushøjvej,8471,23,10.079225,56.222333
810212,Brushøjvej,8471,25,10.07888,56.223383
810213,Brushøjvej,8471,27,10.078575,56.223314
810219,Kvottrupvej,8471,90,10.081769,56.216102
810220,Kvottrupvej,8471,91A,10.083356,56.216362
810221,Kvottrupvej,8471,108,10.082518,56.214155
810222,Kvottrupvej,8471,110A,10.082275,56.214215
810898,Langelinie,8471,70,10.019222,56.186793
810899,Langelinie,8471,72,10.019616,56.186817
810900,Langelinie,8471,74,10.019994,56.18685
810901,Langelinie,8471,77C,10.022009,56.187808
810905,Borumvej,8471,100,10.042326,56.195456
933624,Graven,8471,1,10.012005,56.2305745
933625,Graven,8471,2,10.012274,56.230366
933626,Graven,8471,3,10.0124274,56.2306879
933627,Graven,8471,3A,10.0122322,56.2306266
933628,Graven,8471,3B,10.0121698,56.230708
933629,Graven,8471,3C,10.0121878,56.2307797
933630,Graven,8471,4,10.0124034,56.2303916
933631,Graven,8471,5,10.0126121,56.2309649
933632,Graven,8471,6,10.012693,56.2303622
933633,Graven,8471,7,10.0121776,56.2310044
933634,Graven,8471,8,10.0129287,56.2307377
933635,Graven,8471,8A,10.0131801,56.230484
933636,Graven,8471,8B,10.013173,56.230233
933637,Graven,8471,10,10.0133988,56.2308237
933638,Graven,8471,12,10.0133597,56.2311744
933639,Graven,8471,12A,10.0132556,56.2315077
933640,Graven,8471,14,10.0126671,56.231216
1228004,Eshøjvej,8471,81,9.996568,56.204248
1445268,Viborgvej,8471,800,10.001845,56.2152207
1445269,Viborgvej,8471,801,9.994377,56.213268
1445270,Viborgvej,8471,802,9.99646,56.215228
1445271,Viborgvej,8471,803,9.9963183,56.2147532
1445272,Viborgvej,8471,805,9.9960242,56.2146028
1445273,Viborgvej,8471,807,9.9955798,56.214876
1445274,Viborgvej,8471,808,9.9954763,56.2164851
1445275,Viborgvej,8471,809,9.9942774,56.2150212
1445276,Viborgvej,8471,810,9.9961989,56.2151226
1445277,Viborgvej,8471,811,9.9914198,56.2161314
1445278,Viborgvej,8471,813,9.9910948,56.2160351
1445279,Viborgvej,8471,814,9.991448,56.2165984
1445280,Viborgvej,8471,824,9.986416,56.219092
1445281,Viborgvej,8471,825,9.984974,56.219435
1445282,Viborgvej,8471,826,9.9860042,56.2193644
1445283,Viborgvej,8471,827,9.9847501,56.2195091
1445284,Viborgvej,8471,828,9.9857488,56.2194652
1445285,Viborgvej,8471,829,9.9845893,56.2195284
1445286,Viborgvej,8471,830,9.9854775,56.2195752
1445287,Viborgvej,8471,835,9.982787,56.219669
1445288,Viborgvej,8471,836,9.9836196,56.2200752
1445289,Viborgvej,8471,837A,9.9826352,56.2200471
1445290,Viborgvej,8471,837B,9.9824587,56.2200844
1445291,Viborgvej,8471,839,9.982421,56.219887
1445292,Viborgvej,8471,840,9.9830263,56.2202057
1445293,Viborgvej,8471,841,9.9822125,56.2192867
1445294,Viborgvej,8471,842,9.9825124,56.2202907
1445295,Viborgvej,8471,843,9.981934,56.2197472
1445296,Viborgvej,8471,844,9.9828588,56.2205934
1445297,Viborgvej,8471,845,9.9818937,56.220062
1445298,Viborgvej,8471,846,9.9820462,56.2203483
1445299,Viborgvej,8471,846A,9.982514,56.221611
1445300,Viborgvej,8471,848,9.9814657,56.2203529
1445301,Viborgvej,8471,849,9.9816037,56.2200732
1445302,Viborgvej,8471,850,9.9807591,56.2204663
1445303,Viborgvej,8471,851,9.981315,56.220138
1445304,Viborgvej,8471,852,9.9799466,56.2208591
1445305,Viborgvej,8471,852A,9.979861,56.220367
1445306,Viborgvej,8471,852B,9.980199,56.220356
1445307,Viborgvej,8471,852C,9.98023,56.220578
1445308,Viborgvej,8471,852D,9.9799,56.220589
1445309,Viborgvej,8471,854,9.979529,56.2209253
1445310,Viborgvej,8471,855,9.9808925,56.220007
1445311,Viborgvej,8471,856,9.9789873,56.2205522
1445312,Viborgvej,8471,857,9.9806502,56.219991
1445313,Viborgvej,8471,858,9.9782184,56.220756
1445314,Viborgvej,8471,858A,9.9774935,56.2207887
1445315,Viborgvej,8471,859,9.9803254,56.2199037
1445316,Viborgvej,8471,859A,9.9803965,56.2201637
1445317,Viborgvej,8471,860,9.976835,56.220902
1445318,Viborgvej,8471,861,9.9801867,56.2201564
1445319,Viborgvej,8471,862,9.9753448,56.2212728
1445320,Viborgvej,8471,862A,9.9758542,56.2210363
1445321,Viborgvej,8471,862B,9.976132,56.221288
1445322,Viborgvej,8471,863A,9.9798967,56.2201676
1445323,Viborgvej,8471,863B,9.9796203,56.22008
1445324,Viborgvej,8471,864,9.97512,56.22132
1445325,Viborgvej,8471,865,9.9776381,56.2201316
1445326,Viborgvej,8471,866,9.9750122,56.2215091
1445327,Viborgvej,8471,867,9.97638,56.220155
1445328,Viborgvej,8471,869,9.9759911,56.2206837
1445329,Viborgvej,8471,870,9.9741612,56.2216595
1445330,Viborgvej,8471,871,9.9756529,56.2207044
1445331,Viborgvej,8471,872,9.973579,56.2222302
1445332,Viborgvej,8471,873,9.9752381,56.2208783
1445333,Viborgvej,8471,874,9.9722922,56.2223661
1445334,Viborgvej,8471,876,9.9717804,56.2225319
1445335,Viborgvej,8471,878,9.9713623,56.2225801
1445336,Viborgvej,8471,880,9.9710745,56.2226812
1445337,Viborgvej,8471,882,9.9707209,56.2227289
1445338,Viborgvej,8471,884,9.9684523,56.2235823
1445339,Viborgvej,8471,886,9.9680998,56.2236749
1445340,Viborgvej,8471,888,9.967876,56.223766
1445341,Viborgvej,8471,890,9.9677006,56.2238307
1445342,Viborgvej,8471,892,9.9673485,56.2239413
1445343,Viborgvej,8471,893,9.964619,56.2244298
1445344,Viborgvej,8471,894,9.9669327,56.2240793
1445345,Viborgvej,8471,895,9.9642184,56.2245318
1445346,Viborgvej,8471,897,9.9635263,56.2245911
1445347,Viborgvej,8471,899,9.9624876,56.2249766
1445348,Viborgvej,8471,900,9.9615822,56.2255317
1445349,Viborgvej,8471,901,9.9619428,56.2251156
1445350,Viborgvej,8471,902,9.9605076,56.2257737
1445351,Viborgvej,8471,903,9.9597434,56.225528
1445352,Viborgvej,8471,904,9.9598982,56.2259132
1445353,Viborgvej,8471,906,9.9584438,56.2264456
1445354,Viborgvej,8471,920,9.9538659,56.2304524
1445355,Viborgvej,8471,930,9.9473282,56.2289572
1511584,Møllebakken,8471,1,9.969207,56.2234506
1511585,Møllebakken,8471,2,9.970016,56.223552
1511586,Møllebakken,8471,3,9.9694375,56.2236374
1511587,Møllebakken,8471,4,9.9704177,56.223495
1511588,Møllebakken,8471,5,9.9694757,56.2238707
1511589,Møllebakken,8471,6,9.9707037,56.223322
1511590,Møllebakken,8471,7,9.9694673,56.2241763
1511591,Møllebakken,8471,8,9.971328,56.223137
1511592,Møllebakken,8471,9,9.9688568,56.2242709
1511593,Møllebakken,8471,11,9.968454,56.224301
1511594,Møllebakken,8471,13,9.9683003,56.2245898
1511595,Møllebakken,8471,15,9.9684066,56.2249663
1511596,Møllebakken,8471,17,9.9689687,56.2248721
1511597,Møllebakken,8471,19,9.9688486,56.2245855
1511598,Møllebakken,8471,21,9.9692669,56.2245463
1511599,Møllebakken,8471,23,9.9697981,56.2245062
1511600,Møllebakken,8471,25,9.9692753,56.2248787
1511601,Møllebakken,8471,27,9.9698395,56.2248652
1511602,Møllebakken,8471,28,9.9707936,56.2236897
1511603,Møllebakken,8471,29,9.9698994,56.225323
1511604,Møllebakken,8471,30,9.970606,56.2239248
1511605,Møllebakken,8471,31,9.9694654,56.2253803
1511606,Møllebakken,8471,32,9.9701868,56.2239281
1511607,Møllebakken,8471,33,9.9690464,56.2253926
1511608,Møllebakken,8471,34,9.9710305,56.2241281
1511609,Møllebakken,8471,35,9.968676,56.225413
1511610,Møllebakken,8471,36,9.9701463,56.2242429
1511611,Møllebakken,8471,37,9.9686961,56.225575
1511612,Møllebakken,8471,38,9.9702342,56.2245297
1511613,Møllebakken,8471,39,9.9691987,56.2256789
1511614,Møllebakken,8471,40,9.9708626,56.2245068
1511615,Møllebakken,8471,41,9.969616,56.2255948
1511616,Møllebakken,8471,42,9.9709326,56.2247219
1511617,Møllebakken,8471,43,9.9700357,56.2256095
1511618,Møllebakken,8471,44,9.9702889,56.2247809
1511619,Møllebakken,8471,45,9.9700012,56.2261578
1511620,Møllebakken,8471,46A,9.9704606,56.2251928
1511621,Møllebakken,8471,46B,9.9704422,56.2251031
1511622,Møllebakken,8471,46C,9.9705045,56.2250128
1511623,Møllebakken,8471,46D,9.9706494,56.2250027
1511624,Møllebakken,8471,46E,9.9708747,56.2249829
1511625,Møllebakken,8471,46F,9.9711322,56.2249629
1511626,Møllebakken,8471,46G,9.9711995,56.2250702
1511627,Møllebakken,8471,46H,9.9712017,56.2251601
1511628,Møllebakken,8471,46K,9.9712179,56.2251599
1511629,Møllebakken,8471,46L,9.9716519,56.2251026
1511630,Møllebakken,8471,46M,9.9716262,56.2247254
1511631,Møllebakken,8471,46N,9.972126,56.224713
1511632,Møllebakken,8471,46P,9.972294,56.224999
1511633,Møllebakken,8471,46R,9.9727861,56.2246714
1511634,Møllebakken,8471,46S,9.9728424,56.2249854
1511635,Møllebakken,8471,46T,9.972737,56.225283
1511636,Møllebakken,8471,46U,9.972466,56.225393
1511637,Møllebakken,8471,46V,9.972014,56.225387
1511638,Møllebakken,8471,46X,9.971675,56.225372
1511639,Møllebakken,8471,47,9.969598,56.226152
1511640,Møllebakken,8471,48,9.9712735,56.225447
1511641,Møllebakken,8471,49,9.969211,56.226173
1511642,Møllebakken,8471,50,9.9708851,56.2253961
1511643,Møllebakken,8471,51,9.968809,56.226212
1511644,Møllebakken,8471,52,9.9705631,56.2254166
1511645,Møllebakken,8471,53,9.968864,56.226481
1511646,Møllebakken,8471,55,9.969285,56.226523
1511647,Møllebakken,8471,57,9.969751,56.226465
1511648,Møllebakken,8471,59,9.9701496,56.226543
1511649,Møllebakken,8471,70,9.970674,56.225991
1511650,Møllebakken,8471,72,9.971045,56.22597
1511651,Møllebakken,8471,74,9.971318,56.225932
1511652,Møllebakken,8471,76,9.9717852,56.2259102
1511653,Møllebakken,8471,78,9.9722195,56.2258619
1511654,Møllebakken,8471,80A,9.97254,56.225796
1511655,Møllebakken,8471,80B,9.972532,56.226093
1511656,Møllebakken,8471,82,9.972259,56.22614
1511657,Møllebakken,8471,84,9.971825,56.226197
1511658,Møllebakken,8471,86,9.971471,56.226227
1511659,Møllebakken,8471,88,9.971068,56.226266
1511660,Møllebakken,8471,90,9.9707381,56.2262601
1511661,Mødalvej,8471,1,10.0119962,56.2302421
1511662,Mødalvej,8471,1A,10.0123806,56.2301402
1511663,Mødalvej,8471,2,10.011749,56.230056
1511664,Mødalvej,8471,3,10.0125535,56.229968
1511665,Mødalvej,8471,4,10.012032,56.229943
1511666,Mødalvej,8471,5,10.0126458,56.2297966
1511667,Mødalvej,8471,5A,10.0133402,56.2298265
1511668,Mødalvej,8471,5B,10.0137033,56.2295273
1511669,Mødalvej,8471,6,10.0118506,56.2296144
1511670,Mødalvej,8471,7,10.0132349,56.2295042
1511671,Mødalvej,8471,8,10.012295,56.229689
1511672,Mødalvej,8471,9,10.0132902,56.2291533
1511673,Mødalvej,8471,11,10.01435,56.228647
1511674,Mødalvej,8471,15,10.0153255,56.2292624
1511675,Mødalvej,8471,17,10.0148559,56.2285834
1511676,Mødalvej,8471,17A,10.015346,56.228532
1511677,Mødalvej,8471,17B,10.015336,56.228305
1511678,Mødalvej,8471,19,10.015827,56.2280992
1511679,Mødalvej,8471,35,10.0182202,56.2264982
1511680,Mødalvej,8471,37,10.018523,56.226267
1511681,Mødalvej,8471,39,10.018981,56.225993
1511682,Mødalvej,8471,39A,10.0190878,56.2257632
1511683,Mødalvej,8471,41,10.0201675,56.2257274
1511684,Mødalvej,8471,41A,10.0213112,56.225673
1511685,Mødalvej,8471,41B,10.0226337,56.2256711
1511686,Mødalvej,8471,41C,10.0247146,56.2256808
1511687,Mødalvej,8471,43,10.020391,56.225382
1511688,Mødalvej,8471,43A,10.0222258,56.2254948
1511689,Mødalvej,8471,45,10.02442,56.225341
1511690,Mødalvej,8471,45A,10.026108,56.2253099
1511691,Mødalvej,8471,46,10.021336,56.223969
1511692,Mødalvej,8471,47,10.0225936,56.2241619
1511693,Mødalvej,8471,49,10.0230277,56.2241134
1511694,Mødalvej,8471,51,10.023322,56.223994
1511695,Mødalvej,8471,53,10.023666,56.224004
1511696,Mødalvej,8471,55,10.0236453,56.224288
1511697,Mødalvej,8471,57,10.0240176,56.2243388
1511698,Mødalvej,8471,59,10.024072,56.224074
1511699,Mødalvej,8471,60,10.026167,56.2238987
1511700,Mødalvej,8471,62,10.0283352,56.2235572
1511701,Mødalvej,8471,71,10.027735,56.224631
1511702,Mødalvej,8471,73,10.027773,56.2248468
1511703,Mødalvej,8471,75,10.0279219,56.2255913
1511704,Mødalvej,8471,77,10.028359,56.226213
1511705,Mødalvej,8471,77A,10.026979,56.226619
1511706,Mødalvej,8471,81,10.028967,56.224253
1511935,Hovvejen,8471,1,10.0101756,56.2309399
1511936,Hovvejen,8471,2,10.0102543,56.2314784
1511937,Hovvejen,8471,4,10.0088031,56.2314992
1511938,Hovvejen,8471,5,10.0079111,56.2313178
1511939,Hovvejen,8471,7,10.0076376,56.2313469
1511940,Hovvejen,8471,9,10.0073466,56.2313224
1511941,Hovvejen,8471,11,10.0068617,56.2306704
1511942,Hovvejen,8471,13,10.0068419,56.2311468
1511943,Hovvejen,8471,15,10.006997,56.2315229
1511944,Hovvejen,8471,21,10.0063872,56.2328756
1511945,Hovvejen,8471,40,9.9892474,56.2394651
1511946,Hovvejen,8471,41,9.9891776,56.2380101
1511947,Hovvejen,8471,43,9.9878493,56.2403119
1511948,Hovvejen,8471,45,9.9863049,56.2411149
1511949,Hovvejen,8471,46,9.9864086,56.2413837
1511950,Hovvejen,8471,47,9.9826111,56.2405333
1511951,Hovvejen,8471,49,9.9844421,56.2420912
1511952,Hovvejen,8471,50,9.9839903,56.2427237
1511953,Hovvejen,8471,55,9.979675,56.2449773
1511954,Hovvejen,8471,60,9.9756361,56.2486032
1511955,Hovvejen,8471,60A,9.9749326,56.2488603
1523792,Elhøjvej,8471,1,9.958943,56.226406
1523797,Elhøjvej,8471,2,9.959289,56.226471
1523803,Elhøjvej,8471,3,9.958527,56.226662
1523804,Elhøjvej,8471,4,9.959429,56.226698
1523805,Elhøjvej,8471,4A,9.959574,56.227102
1523810,Elhøjvej,8471,5,9.958696,56.22744
1523812,Elhøjvej,8471,6,9.959265,56.227346
1523816,Elhøjvej,8471,7,9.958646,56.227711
1523818,Elhøjvej,8471,8,9.959766,56.22728
1523821,Elhøjvej,8471,9,9.958519,56.228085
1523822,Elhøjvej,8471,12,9.95892,56.22766
1523824,Elhøjvej,8471,14,9.959227,56.228179
1523829,Elhøjvej,8471,15,9.958844,56.229774
1523831,Elhøjvej,8471,16,9.959216,56.228503
1523835,Elhøjvej,8471,18,9.959218,56.228683
1523836,Elhøjvej,8471,20,9.959197,56.228873
1523841,Elhøjvej,8471,22,9.959248,56.229014
1523842,Elhøjvej,8471,24,9.959242,56.229169
1523845,Elhøjvej,8471,33,9.956787,56.2342905
1523848,Elhøjvej,8471,35,9.9596704,56.235511
1523851,Elhøjvej,8471,37,9.957979,56.235482
1523855,Elhøjvej,8471,39,9.954769,56.236017
1523856,Elhøjvej,8471,41,9.952788,56.233703
1523862,Elhøjvej,8471,45,9.967683,56.236182
1523863,Elhøjvej,8471,46,9.967627,56.234406
1523867,Elhøjvej,8471,49,9.9719146,56.2348684
1523869,Elhøjvej,8471,51,9.9741586,56.2345978
1523871,Elhøjvej,8471,53,9.975824,56.234767
1523876,Elhøjvej,8471,54,9.975981,56.234316
1523877,Elhøjvej,8471,55,9.979596,56.238205
1523881,Elhøjvej,8471,56,9.978838,56.23481
1523883,Elhøjvej,8471,58,9.97818,56.235327
1523884,Lyngballevej,8471,2,9.9589246,56.2256781
1523885,Lyngballevej,8471,4,9.958462,56.225241
1523886,Lyngballevej,8471,6,9.9584867,56.2249357
1523887,Lyngballevej,8471,6A,9.9581828,56.22439
1523888,Lyngballevej,8471,8,9.9573096,56.2242979
1523889,Lyngballevej,8471,10,9.9576766,56.2241423
1523890,Lyngballevej,8471,12,9.9581747,56.2240666
1523891,Lyngballevej,8471,14,9.9577015,56.2238456
1523892,Lyngballevej,8471,16,9.9579743,56.2237896
1523893,Lyngballevej,8471,18,9.9576323,56.2236575
1523894,Lyngballevej,8471,20,9.9575944,56.2234332
1523895,Lyngballevej,8471,21,9.9582672,56.2232483
1523896,Lyngballevej,8471,22,9.957525,56.223236
1523897,Lyngballevej,8471,24,9.957111,56.221775
1523898,Lyngballevej,8471,25,9.950586,56.2191654
1523899,Lyngballevej,8471,32,9.9527151,56.2217816
1523900,Lyngballevej,8471,35,9.9330477,56.2181219
1523901,Lyngballevej,8471,35A,9.9331403,56.2172855
1523915,Kirkevejen,8471,1,9.9771438,56.2209891
1523917,Kirkevejen,8471,3,9.9771532,56.2213574
1523920,Kirkevejen,8471,4,9.9774696,56.2217503
1523922,Kirkevejen,8471,5,9.9771253,56.2215283
1523924,Kirkevejen,8471,7,9.9763748,56.2218218
1523926,Kirkevejen,8471,7A,9.9757932,56.2217815
1523927,Kirkevejen,8471,9,9.9770032,56.2217989
1523930,Kirkevejen,8471,10,9.9773219,56.2222815
1523933,Kirkevejen,8471,12,9.9780009,56.2223481
1523936,Kirkevejen,8471,12A,9.9780239,56.2226174
1523937,Kirkevejen,8471,21,9.9730635,56.2305275
1523940,Kirkevejen,8471,23,9.9670538,56.2308082
1523942,Kirkevejen,8471,24,9.9750449,56.231689
1523944,Kirkevejen,8471,25,9.9711787,56.232537
1523946,Kirkevejen,8471,27,9.9702643,56.2327418
1523949,Kirkevejen,8471,29,9.9694043,56.2325419
1523982,Torvet,8471,2,10.0098358,56.2302867
1523983,Torvet,8471,2A,10.0105364,56.2305506
1523984,Torvet,8471,4,10.0104886,56.2307308
1523985,Torvet,8471,6,10.0107712,56.2308901
1523986,Torvet,8471,8,10.0111068,56.2307706
1523987,Torvet,8471,10,10.0114554,56.2305341
1523988,Torvet,8471,12,10.0112897,56.2303647
1523989,Torvet,8471,14,10.0113962,56.2301213
1523990,Torvet,8471,16,10.0113872,56.2297799
1523991,Torvet,8471,18,10.0118148,56.2288689
1523992,Torvet,8471,20,10.0109977,56.2303042
1523993,Torvet,8471,22,10.0108331,56.2301798
1523994,Udgården,8471,2,9.9837064,56.2196882
1523995,Udgården,8471,6,9.9841936,56.2191901
1523996,Udgården,8471,8,9.9840971,56.2191998
1523997,Udgården,8471,10,9.9839529,56.2192369
1523998,Udgården,8471,12,9.9838896,56.2192824
1523999,Udgården,8471,14,9.9837293,56.2193196
1524000,Udgården,8471,16,9.9836655,56.219347
1524001,Udgården,8471,18,9.9840745,56.2189484
1524002,Udgården,8471,20,9.983978,56.2189582
1524003,Udgården,8471,22,9.9838338,56.2189953
1524004,Udgården,8471,24,9.9834038,56.2192054
1524005,Udgården,8471,26,9.9831721,56.2189736
1524006,Udgården,8471,28,9.9830758,56.2189923
1524007,Udgården,8471,30,9.9829316,56.2190294
1524008,Udgården,8471,32,9.9828349,56.2190302
1524009,Udgården,8471,34,9.9826907,56.2190673
1524010,Udgården,8471,36,9.9826108,56.2190949
1524033,Hummeluhrevej,8471,1,10.011422,56.2311004
1524034,Hummeluhrevej,8471,1A,10.0113375,56.2309574
1524037,Hummeluhrevej,8471,2,10.0114782,56.2307855
1524038,Hummeluhrevej,8471,3,10.0116525,56.2312782
1524041,Hummeluhrevej,8471,4,10.0115953,56.2309463
1524043,Hummeluhrevej,8471,5,10.0112116,56.2316862
1524045,Hummeluhrevej,8471,6,10.0118083,56.2310703
1524047,Hummeluhrevej,8471,8,10.0119136,56.2313929
1524049,Hummeluhrevej,8471,9,10.0118102,56.2317532
1524052,Hummeluhrevej,8471,10,10.0121095,56.2314812
1524054,Hummeluhrevej,8471,11,10.0118424,56.2323639
1524056,Hummeluhrevej,8471,12,10.0121017,56.2317957
1524058,Hummeluhrevej,8471,17,10.0117666,56.2349972
1524059,Hummeluhrevej,8471,19,10.0088215,56.2358838
1524062,Hummeluhrevej,8471,21,10.0117384,56.2357611
1524066,Hummeluhrevej,8471,23,10.0118088,56.2365962
1524067,Hummeluhrevej,8471,25,10.0117293,56.2372527
1524071,Hummeluhrevej,8471,27,10.011232,56.2391976
1524075,Hummeluhrevej,8471,27A,10.0112837,56.238712
1524077,Hummeluhrevej,8471,27B,10.0115539,56.238557
1524081,Hummeluhrevej,8471,29,10.012431,56.238155
1524083,Hummeluhrevej,8471,35,10.0129241,56.2403428
1524173,Mandhusvej,8471,2,9.985987,56.2199485
1524177,Mandhusvej,8471,2A,9.9849346,56.2197862
1524180,Mandhusvej,8471,2B,9.9853692,56.2197558
1524183,Mandhusvej,8471,4,9.9863117,56.2200358
1524185,Mandhusvej,8471,6,9.9866703,56.2195567
1524186,Mandhusvej,8471,8A,9.9870363,56.2193651
1524189,Mandhusvej,8471,8B,9.987125,56.2196789
1524192,Mandhusvej,8471,8C,9.987245,56.219965
1524193,Mandhusvej,8471,10,9.9876979,56.2200068
1524195,Mandhusvej,8471,12,9.9879395,56.2199959
1524197,Mandhusvej,8471,16,9.994747,56.216949
1524199,Mandhusvej,8471,18,9.9948455,56.2182783
1524202,Mandhusvej,8471,20,9.9960146,56.2198323
1524204,Mandhusvej,8471,21,9.9964733,56.2201071
1524206,Mandhusvej,8471,25,10.0007546,56.219785
1524208,Mandhusvej,8471,25A,10.0004129,56.2189434
1524211,Mandhusvej,8471,27,9.996681,56.221265
1524258,Skjoldhøjvej,8471,1,10.010798,56.2300722
1524260,Skjoldhøjvej,8471,3,10.0108282,56.2299911
1524262,Skjoldhøjvej,8471,5,10.010922,56.229874
1524266,Skjoldhøjvej,8471,7,10.0104822,56.2291044
1524267,Skjoldhøjvej,8471,11,10.008385,56.2290946
1524270,Skjoldhøjvej,8471,24,9.9887175,56.2282919
1524274,Skjoldhøjvej,8471,25,9.9884286,56.2277192
1524275,Skjoldhøjvej,8471,38,9.9836092,56.2209289
1524278,Skjoldhøjvej,8471,39,9.984341,56.220435
1524279,Skjoldhøjvej,8471,40,9.9835982,56.2204977
1534285,Ladingvej,8471,34,9.970942,56.208318
1534286,Ladingvej,8471,38,9.974331,56.211621
2075228,Nordrevej,8471,1,9.9591304,56.2377884
2075229,Nordrevej,8471,2,9.9639299,56.2361697
2075230,Nordrevej,8471,3,9.9563404,56.237837
2075231,Nordrevej,8471,7,9.9517642,56.2406756
2075232,Nordrevej,8471,9,9.9609156,56.2382059
2075233,Nordrevej,8471,11,9.9627093,56.2383177
2075234,Nordrevej,8471,14,9.9648984,56.238112
2075235,Nordrevej,8471,15,9.9579215,56.2397745
2075236,Nordrevej,8471,17,9.9562456,56.2405063
2075237,Nordrevej,8471,19,9.9622354,56.2400106
2075238,Nordrevej,8471,21,9.9562032,56.2413961
2075239,Nordrevej,8471,23,9.9555743,56.2420569
2075240,Nordrevej,8471,26,9.9631556,56.2387455
2075241,Nordrevej,8471,27,9.9618965,56.2406512
2075242,Nordrevej,8471,29,9.9619678,56.2409202
2075243,Nordrevej,8471,31,9.9617989,56.2412629
2075244,Nordrevej,8471,31A,9.9618997,56.2414238
2075245,Nordrevej,8471,35,9.9592268,56.2422892
2075246,Nordrevej,8471,36,9.9638197,56.2427028
2075247,Nordrevej,8471,37,9.9543366,56.243549
2075248,Nordrevej,8471,39,9.954368,56.24535
2075249,Nordrevej,8471,39A,9.957985,56.2500709
2075250,Nordrevej,8471,41,9.9628044,56.2433935
2075251,Nordrevej,8471,43,9.964685,56.248896
2075252,Nordrevej,8471,45,9.9691382,56.248196
2075253,Nordrevej,8471,55,9.964306,56.247272
2087253,Vesterkær,8471,1,10.010878,56.234933
2087254,Vesterkær,8471,2,10.0111613,56.2352896
2087255,Vesterkær,8471,9,10.0073357,56.233982
2088462,Eshøjvej,8471,20,9.994473,56.2094
2088463,Eshøjvej,8471,26,9.993852,56.2091965
2088465,Eshøjvej,8471,30,9.992363,56.210741
2091294,Markusvej,8471,1,9.9622847,56.241331
2091295,Markusvej,8471,2,9.9631257,56.2407674
2091297,Markusvej,8471,3,9.9627523,56.2413184
2091298,Markusvej,8471,5,9.9647082,56.240818
2091301,Markusvej,8471,10,9.9656003,56.2403617
2091303,Markusvej,8471,11,9.9688322,56.2399142
2091304,Markusvej,8471,12,9.969953,56.238288
2091305,Markusvej,8471,15,9.9721323,56.2396188
2091306,Markusvej,8471,16,9.9760426,56.2385727
2091307,Markusvej,8471,18,9.9808675,56.2379684
2091308,Markusvej,8471,19,9.9806722,56.2385361
2091309,Markusvej,8471,20,9.98315,56.2376358
2091310,Markusvej,8471,21,9.9823863,56.2380552
2091311,Markusvej,8471,22,9.9841305,56.2374933
2091312,Markusvej,8471,24,9.9836133,56.2330498
2091313,Markusvej,8471,26,9.9832036,56.2334304
2091461,Bakkevej,8471,1,9.989574,56.209613
2091464,Bakkevej,8471,2,9.985085,56.208581
2095400,Brunbjergvej,8471,1,9.970798,56.247337
2095402,Brunbjergvej,8471,2,9.970149,56.2457
2095404,Brunbjergvej,8471,4,9.973119,56.2442955
2095406,Brunbjergvej,8471,6,9.976397,56.245248
2095408,Brunbjergvej,8471,6A,9.9763799,56.2454885
2095410,Brunbjergvej,8471,8,9.977557,56.245431
2096613,Poppelgårdsvej,8471,1,9.9786822,56.2199706
2096614,Poppelgårdsvej,8471,2,9.9782201,56.2201899
2096615,Poppelgårdsvej,8471,4,9.9780186,56.219877
2096616,Poppelgårdsvej,8471,5,9.9784572,56.2143028
2096617,Poppelgårdsvej,8471,6,9.977883,56.219635
2096618,Poppelgårdsvej,8471,8,9.9777653,56.2194298
2096619,Poppelgårdsvej,8471,10,9.977662,56.21917
2096620,Poppelgårdsvej,8471,12,9.9775904,56.218892
2096621,Poppelgårdsvej,8471,12A,9.9745518,56.2186195
2096622,Poppelgårdsvej,8471,14,9.977713,56.218648
2096623,Poppelgårdsvej,8471,16,9.9777211,56.2183249
2096624,Poppelgårdsvej,8471,30,9.9711478,56.2153757
2098427,Højvangsvej,8471,1,10.0132444,56.2359734
2098430,Højvangsvej,8471,8,10.0160063,56.2354836
2098431,Højvangsvej,8471,10,10.016093,56.235097
2098432,Højvangsvej,8471,12,10.0175964,56.2346079
2098433,Højvangsvej,8471,16,10.016114,56.234674
2098537,Hadstenvej,8471,207,10.0283619,56.2275644
2098538,Hadstenvej,8471,209,10.0276694,56.2282081
2098539,Hadstenvej,8471,211,10.0273326,56.2288848
2098540,Hadstenvej,8471,215,10.0271639,56.2292097
2098541,Hadstenvej,8471,215A,10.028154,56.227094
2098544,Hadstenvej,8471,221,10.0270124,56.2313853
2098950,Vedhavevej,8471,1,9.9545383,56.2270059
2098952,Vedhavevej,8471,3,9.9546324,56.2262504
2098954,Vedhavevej,8471,4,9.9504693,56.2261746
2098956,Vedhavevej,8471,20,9.945663,56.226176
2098958,Vedhavevej,8471,22,9.9531217,56.224519
2098960,Vedhavevej,8471,23,9.9559237,56.2243446
2098961,Vedhavevej,8471,24,9.9555302,56.2240871
2098962,Vedhavevej,8471,25,9.9565291,56.2240434
2098963,Vedhavevej,8471,27,9.9569367,56.223573
2098964,Vedhavevej,8471,29,9.9570767,56.2233653
2103536,Terp Møllevej,8471,14,9.979427,56.206965
2103537,Terp Møllevej,8471,18,9.978424,56.206899
2103538,Terp Møllevej,8471,20,9.977947,56.207214
2120182,Løkkebjergvej,8471,11,10.069235,56.201287
2120187,Løkkebjergvej,8471,15,10.070437,56.20067
2120190,Løkkebjergvej,8471,17,10.071345,56.199844
2120193,Løkkebjergvej,8471,19,10.073429,56.200275
2120195,Løkkebjergvej,8471,21,10.075002,56.20076
2122579,Storkesig Vænge,8471,1,10.012934,56.188844
2122585,Storkesig Vænge,8471,4,10.014015,56.188898
2122596,Storkesig Vænge,8471,6,10.014222,56.189237
2133448,Engbakken,8471,1,9.967928,56.224349
2133449,Engbakken,8471,2,9.967726,56.224689
2133452,Engbakken,8471,3,9.967846,56.224364
2133459,Engbakken,8471,4,9.967738,56.224735
2133462,Engbakken,8471,5,9.967582,56.224417
2133466,Engbakken,8471,6,9.967769,56.22486
2133469,Engbakken,8471,7,9.9675,56.224433
2133471,Engbakken,8471,8,9.967781,56.224905
2133474,Engbakken,8471,9,9.967244,56.224481
2133478,Engbakken,8471,10,9.967806,56.225032
2133488,Engbakken,8471,11,9.967154,56.224499
2133490,Engbakken,8471,12,9.9678172,56.2250788
2133492,Engbakken,8471,13,9.9668499,56.2245573
2133497,Engbakken,8471,14,9.9677261,56.2255108
2133498,Engbakken,8471,15,9.9667574,56.2245752
2133499,Engbakken,8471,16,9.968096,56.225516
2133511,Engbakken,8471,17,9.966505,56.224622
2133514,Engbakken,8471,18,9.968275,56.225716
2133516,Engbakken,8471,19,9.966415,56.22464
2133518,Engbakken,8471,20,9.967854,56.225787
2133519,Engbakken,8471,22,9.967923,56.226313
2133521,Engbakken,8471,24,9.968348,56.226308
2133523,Engbakken,8471,26,9.968483,56.226583
2133529,Engbakken,8471,28,9.968041,56.226667
2133531,Engbakken,8471,30,9.967444,56.226704
2133533,Engbakken,8471,32,9.967067,56.226669
2133536,Engbakken,8471,34,9.966935,56.226458
2133538,Engbakken,8471,36,9.967356,56.226397
2133539,Engbakken,8471,38,9.967247,56.225903
2133542,Engbakken,8471,40,9.966929,56.225781
2133543,Engbakken,8471,42,9.966811,56.225677
2133544,Engbakken,8471,44,9.96722,56.225525
2133545,Engbakken,8471,46,9.966894,56.225228
2133547,Engbakken,8471,48,9.966882,56.22518
2133549,Engbakken,8471,50,9.966856,56.225058
2133550,Engbakken,8471,52,9.966842,56.225004
2133554,Engbakken,8471,54,9.966815,56.22489
2133557,Engbakken,8471,56,9.966801,56.224836
2142086,Søvejen,8471,2,9.9679252,56.2205854
2142089,Søvejen,8471,10,9.9620905,56.2207117
2142094,Søvejen,8471,12,9.95915,56.219872
2178322,Skivholmevej,8471,52,9.986521,56.197464
2178327,Skivholmevej,8471,53,9.986092,56.196744
2178329,Skivholmevej,8471,54,9.986345,56.199923
2178335,Skivholmevej,8471,56,9.983469,56.202005
2178338,Skivholmevej,8471,58,9.985838,56.197853
2180458,Eshøjvej,8471,40,9.987391,56.206182
2190816,Rønnevangen,8471,18A,10.046764,56.206771
2190817,Rønnevangen,8471,18B,10.046859,56.206865
2190818,Rønnevangen,8471,20A,10.046989,56.207007
2190819,Rønnevangen,8471,20B,10.047103,56.207123
2190820,Rønnevangen,8471,24A,10.047466,56.206702
2190821,Rønnevangen,8471,24B,10.047359,56.206586
2190822,Rønnevangen,8471,30A,10.047762,56.206475
2190823,Rønnevangen,8471,30B,10.047861,56.206573
2190824,Rønnevangen,8471,34A,10.048716,56.206674
2190825,Rønnevangen,8471,34B,10.048607,56.206549
2190826,Rønnevangen,8471,129A,10.049534,56.20839
2191574,Løvkærvej,8471,19B,10.063655,56.197008
2191575,Løvkærvej,8471,19C,10.06399,56.196846
2191576,Løvkærvej,8471,19F,10.063604,56.19673
2191577,Løvkærvej,8471,19G,10.063262,56.196716
2191659,Engbakken,8471,11A,9.966877,56.224345
2195020,Borumtoften,8471,2,10.011066,56.187139
2195021,Borumtoften,8471,4,10.011009,56.186915
2195022,Skivholmevej,8471,19,10.00617,56.189713
2195023,Skivholmevej,8471,19B,10.003041,56.189576
2195024,Skivholmevej,8471,21,10.004131,56.193548
2195025,Skivholmevej,8471,21A,10.004642,56.193409
2195026,Skivholmevej,8471,45,9.98923,56.196373
2195027,Skivholmevej,8471,46A,9.988696,56.196947
2195028,Skivholmevej,8471,49,9.985631,56.194811
2195029,Borum Landevej,8471,7,10.011053,56.190064
2195030,Borum Landevej,8471,9,10.010978,56.189718
2195031,Borum Landevej,8471,14,10.010115,56.189492
2195032,Borum Landevej,8471,17,10.010228,56.188705
2195033,Borum Landevej,8471,18,10.009675,56.188965
2195034,Borum Landevej,8471,25,10.008069,56.185798
2195462,Rødtjørnvej,8471,951,10.0414246,56.2079943
2195499,Borum Møllevej,8471,2,9.991203,56.182344
2195500,Borum Møllevej,8471,4,9.994447,56.184605
2195501,Bysvinget,8471,2,10.012143,56.188591
2195502,Bysvinget,8471,4,10.012612,56.188573
2195514,Løkkediget,8471,5,10.013528,56.186454
2195515,Løkkediget,8471,7,10.013635,56.186161
2195516,Borum Byvej,8471,2,10.009899,56.186618
2195517,Borum Byvej,8471,5,10.010394,56.187908
2195518,Borum Byvej,8471,21,10.011241,56.189164
2195519,Borum Byvej,8471,37,10.011503,56.190181
2195520,Borum Byvej,8471,41,10.011484,56.190433
2196599,Ranunkelvej,8471,950,10.037738,56.211197
2196600,Ranunkelvej,8471,951,10.040364,56.213881
2198708,Viborgvej,8471,867A,9.976755,56.220436
2225140,Rønnevangen,8471,32,10.048021,56.206815
2225141,Rønnevangen,8471,36A,10.048507,56.206378
2225142,Rønnevangen,8471,36B,10.048439,56.206305
2225143,Rønnevangen,8471,88,10.049871,56.206947
2225144,Rønnevangen,8471,90,10.049814,56.206889
2225145,Rønnevangen,8471,92,10.049749,56.2068313
2225146,Rønnevangen,8471,94,10.049683,56.20676
2225147,Rønnevangen,8471,96,10.0496437,56.2067057
2225148,Rønnevangen,8471,129,10.049679,56.208633
2225149,Rønnevangen,8471,131,10.04967,56.208588
2225150,Rønnevangen,8471,133,10.049648,56.208539
2225151,Rønnevangen,8471,135,10.0496358,56.2084942
2225152,Rønnevangen,8471,137,10.049574,56.208275
2225153,Rønnevangen,8471,139,10.0495609,56.2082303
2225154,Rønnevangen,8471,141,10.049552,56.208181
2225155,Rønnevangen,8471,143,10.049537,56.20814
2225156,Rønnevangen,8471,145,10.049107,56.208202
2225157,Rønnevangen,8471,147,10.04912,56.208243
2225158,Rønnevangen,8471,149,10.049136,56.208305
2225159,Rønnevangen,8471,151,10.049148,56.208346
2225160,Rønnevangen,8471,153,10.049217,56.208574
2225161,Rønnevangen,8471,155,10.049206,56.208534
2225162,Rønnevangen,8471,157,10.0492363,56.2086241
2225163,Rønnevangen,8471,159,10.049251,56.208668
2228888,Eshøjvej,8471,85,9.996419,56.202236
2230887,Møllebakken,8471,10,9.971281,56.223697
2230888,Møllebakken,8471,27A,9.969365,56.225042
2230889,Mødalvej,8471,43B,10.023145,56.225505
2230890,Mødalvej,8471,79,10.028567,56.226675
2236905,Hadstenvej,8471,200,10.031544,56.222336
2237688,Skivholmevej,8471,52B,9.989291,56.204801
2238045,Løvkærvej,8471,19A,10.063219,56.197028
2238046,Løvkærvej,8471,19D,10.064096,56.196604
2238047,Løvkærvej,8471,19E,10.064102,56.196346
2238048,Løvkærvej,8471,19Z,10.062826,56.196732
2238343,Skivholmevej,8471,46B,9.9883607,56.1981363
2238697,Langelinie,8471,57C,10.017166,56.187754
2239489,Fuglsangvej,8471,160,9.927215,56.214019
2239490,Fuglsangvej,8471,162,9.924727,56.214346
2239491,Fuglsangvej,8471,164,9.922239,56.214672
2239492,Fuglsangvej,8471,166,9.919759,56.214978
2239493,Fuglsangvej,8471,175,9.927909,56.210596
2242469,Fårupvej,8471,1,10.066279,56.197839
2242470,Fårupvej,8471,3,10.066422,56.197766
2242471,Fårupvej,8471,5,10.066369,56.19765
2253851,Fårupvej,8471,75,10.067078,56.206044
2253904,Hvidtjørnvej,8471,11,10.040906,56.207018
2254032,Larixvej,8471,951,10.039378,56.207725
2254123,Rønnevangen,8471,98,10.049306,56.206834
2254124,Rønnevangen,8471,100,10.049391,56.206925
2254125,Rønnevangen,8471,102,10.049495,56.207035
2254126,Rønnevangen,8471,104,10.049576,56.207122
2254127,Rønnevangen,8471,106,10.049691,56.207245
2254128,Rønnevangen,8471,108,10.049772,56.207333
2254129,Rønnevangen,8471,110,10.049876,56.207443
2254130,Rønnevangen,8471,112,10.049462,56.207557
2254131,Rønnevangen,8471,114,10.049359,56.207447
2254132,Rønnevangen,8471,116,10.049279,56.207361
2254133,Rønnevangen,8471,118,10.049167,56.207239
2254134,Rønnevangen,8471,120,10.049084,56.207151
2254135,Rønnevangen,8471,122,10.048978,56.207039
2254136,Rønnevangen,8471,124,10.048895,56.20695
2254137,Rønnevangen,8471,158,10.04852,56.207066
2254138,Rønnevangen,8471,160,10.04861,56.20716
2254139,Rønnevangen,8471,162,10.048694,56.207251
2254140,Rønnevangen,8471,164,10.048819,56.207383
2254141,Rønnevangen,8471,166,10.048899,56.207468
2254142,Rønnevangen,8471,168,10.04898,56.207554
2254143,Rønnevangen,8471,170,10.049054,56.207634
2254144,Rønnevangen,8471,172,10.048694,56.207762
2254145,Rønnevangen,8471,174,10.048598,56.207658
2254146,Rønnevangen,8471,176,10.048518,56.207574
2254147,Rønnevangen,8471,178,10.048431,56.207481
2254148,Rønnevangen,8471,180,10.048301,56.207342
2254149,Rønnevangen,8471,182,10.048206,56.207248
2254150,Rønnevangen,8471,184,10.048132,56.207159
2254151,Rønnevangen,8471,186,10.047753,56.207277
2254152,Rønnevangen,8471,186A,10.04787,56.207546
2254153,Rønnevangen,8471,188,10.047818,56.207352
2254154,Rønnevangen,8471,190,10.047871,56.207405
2254155,Rønnevangen,8471,192,10.048067,56.207615
2254156,Rønnevangen,8471,194,10.048135,56.207689
2254157,Rønnevangen,8471,196,10.048164,56.207721
2254158,Rønnevangen,8471,198,10.048234,56.207794
2254159,Rønnevangen,8471,200,10.047858,56.207901
2254160,Rønnevangen,8471,202,10.047788,56.207826
2254161,Rønnevangen,8471,204,10.047725,56.207789
2254162,Rønnevangen,8471,206,10.047697,56.207726
2254163,Rønnevangen,8471,208,10.047538,56.207558
2254164,Rønnevangen,8471,210,10.047476,56.207491
2254165,Rønnevangen,8471,212,10.047434,56.207444
2254166,Rønnevangen,8471,214,10.04738,56.207385
2254167,Rønnevangen,8471,955,10.047444,56.208284
2254168,Rønnevangen,8471,956,10.050419,56.208385
