idx,street,postcode,housenumber,lon,lat
435961,Anneksvej,8530,1,10.212162,56.301862
436194,Argosvej,8530,2,10.216167,56.283726
436195,Argosvej,8530,4,10.215901,56.283787
436196,Argosvej,8530,6,10.215618,56.283817
436197,Argosvej,8530,8,10.215284,56.283847
436456,Asmusvej,8530,1,10.26075,56.243156
436457,Asmusvej,8530,1A,10.260457,56.243267
436458,Asmusvej,8530,5,10.259577,56.243114
436459,Asmusvej,8530,7,10.259249,56.243167
436460,Asmusvej,8530,9,10.258953,56.243148
436461,Asmusvej,8530,11,10.258602,56.243115
436462,Asmusvej,8530,13,10.258298,56.243096
436463,Asmusvej,8530,15,10.257569,56.243117
436464,Asmusvænget,8530,2,10.259926,56.243084
436465,Asmusvænget,8530,3,10.26058,56.242983
436466,Asmusvænget,8530,4,10.260023,56.242791
436467,Asmusvænget,8530,5,10.260678,56.24278
436468,Asmusvænget,8530,6,10.259732,56.242794
436469,Asmusvænget,8530,7,10.260313,56.242267
436470,Asmusvænget,8530,8,10.259403,56.242829
436471,Asmusvænget,8530,9,10.259975,56.242239
436472,Asmusvænget,8530,10,10.259069,56.242796
436473,Asmusvænget,8530,11,10.259681,56.242188
436474,Asmusvænget,8530,12A,10.258794,56.242655
436475,Asmusvænget,8530,12B,10.25875,56.242786
436476,Asmusvænget,8530,13,10.259299,56.242326
436477,Asmusvænget,8530,14,10.25837,56.242808
436478,Asmusvænget,8530,15,10.258842,56.242291
436479,Asmusvænget,8530,17,10.258407,56.242362
436480,Asmusvænget,8530,19,10.257832,56.242391
436481,Asmusvænget,8530,21,10.257764,56.242571
436482,Asmusvænget,8530,23,10.257798,56.242737
436483,Asmusvænget,8530,25,10.257751,56.242935
436545,Attikavej,8530,1,10.211863,56.284824
436546,Attikavej,8530,2,10.212413,56.28472
436547,Attikavej,8530,3,10.211631,56.284894
436548,Attikavej,8530,4,10.212661,56.284673
436549,Attikavej,8530,5,10.211539,56.285165
436550,Attikavej,8530,6,10.213085,56.284556
436551,Attikavej,8530,7,10.211551,56.28538
436552,Attikavej,8530,8,10.213476,56.284952
436553,Attikavej,8530,9,10.21156,56.285609
436554,Attikavej,8530,10,10.213339,56.284976
436555,Attikavej,8530,11,10.211601,56.285905
436556,Attikavej,8530,12,10.213247,56.284995
436557,Attikavej,8530,13,10.211925,56.285929
436558,Attikavej,8530,14,10.213109,56.285019
436559,Attikavej,8530,15,10.212235,56.285953
436560,Attikavej,8530,16,10.21302,56.285029
436561,Attikavej,8530,17,10.212549,56.286013
436562,Attikavej,8530,18,10.212896,56.285048
436563,Attikavej,8530,19,10.212871,56.28605
436564,Attikavej,8530,20,10.212808,56.285067
436565,Attikavej,8530,21,10.213158,56.286155
436566,Attikavej,8530,22,10.212691,56.28509
436567,Attikavej,8530,23,10.213676,56.286177
436568,Attikavej,8530,24,10.212605,56.285109
436569,Attikavej,8530,25,10.213988,56.286151
436570,Attikavej,8530,26,10.212479,56.285128
436571,Attikavej,8530,27,10.214282,56.286081
436572,Attikavej,8530,28,10.212401,56.285147
436573,Attikavej,8530,30,10.212025,56.285056
436574,Attikavej,8530,32,10.212057,56.285101
436575,Attikavej,8530,34,10.212087,56.285141
436576,Attikavej,8530,36,10.212099,56.285204
436577,Attikavej,8530,38,10.212145,56.285271
436578,Attikavej,8530,40,10.212192,56.285342
436579,Attikavej,8530,42,10.212282,56.285431
436580,Attikavej,8530,44,10.212332,56.285503
436581,Attikavej,8530,46,10.212112,56.285685
436582,Attikavej,8530,48,10.212214,56.285702
436583,Attikavej,8530,50,10.212351,56.285718
436584,Attikavej,8530,52,10.212493,56.285739
436585,Attikavej,8530,54,10.212625,56.285756
436586,Attikavej,8530,56,10.212756,56.285777
436587,Attikavej,8530,58,10.212937,56.285807
436588,Attikavej,8530,60,10.213063,56.285824
436589,Attikavej,8530,62,10.213256,56.285849
436590,Attikavej,8530,64,10.212946,56.285645
436591,Attikavej,8530,66,10.213283,56.285687
436592,Attikavej,8530,68,10.213659,56.285665
436593,Attikavej,8530,70,10.213925,56.285622
436594,Attikavej,8530,72,10.21378,56.285839
436595,Attikavej,8530,74,10.213906,56.285815
436596,Attikavej,8530,76,10.214033,56.285792
436597,Attikavej,8530,78,10.214143,56.285772
437112,Bakkevej,8530,1,10.207718,56.265551
437113,Bakkevej,8530,2,10.208115,56.265215
437114,Bakkevej,8530,4,10.20864,56.265102
437115,Bakkevej,8530,6,10.208927,56.265063
437282,Balshøje,8530,1,10.254727,56.286213
437283,Balshøje,8530,2,10.246626,56.28461
437284,Balshøje,8530,3,10.250713,56.285395
437285,Balshøje,8530,4,10.246393,56.284248
437286,Balshøje,8530,5,10.250595,56.283145
437287,Balshøje,8530,6,10.245065,56.284329
437288,Balshøje,8530,6A,10.2471,56.28363
437289,Balshøje,8530,8,10.237417,56.280016
437385,Banetoften,8530,4,10.262903,56.242065
437386,Banetoften,8530,6,10.262804,56.242044
437387,Banetoften,8530,9,10.261798,56.242135
438086,Bendstrupvej,8530,26,10.26117,56.276039
439886,Borrevej,8530,1,10.254263,56.263799
439887,Borrevej,8530,2,10.253531,56.263379
439888,Borrevej,8530,4,10.253371,56.263592
442225,Bygballevej,8530,1,10.199143,56.317062
442226,Bygballevej,8530,3,10.194655,56.320164
442227,Bygballevej,8530,4,10.200087,56.317382
442228,Bygbjerg,8530,1,10.262919,56.249608
442229,Bygbjerg,8530,2,10.262726,56.249314
442230,Bygbjerg,8530,3,10.263275,56.249604
442231,Bygbjerg,8530,4,10.263056,56.249288
442232,Bygbjerg,8530,5,10.263479,56.249841
442233,Bygbjerg,8530,6,10.263389,56.249244
442234,Bygbjerg,8530,7,10.263932,56.249782
442235,Bygbjerg,8530,8,10.263056,56.248942
442236,Bygbjerg,8530,9,10.263924,56.249566
442237,Bygbjerg,8530,10,10.263169,56.24864
442238,Bygbjerg,8530,12,10.263655,56.248729
442239,Bygbjerg,8530,14,10.263774,56.248979
442240,Bygbjerg,8530,16,10.263893,56.24918
443007,Bækvangen,8530,1,10.266034,56.249635
443008,Bækvangen,8530,2,10.266561,56.249472
443009,Bækvangen,8530,3,10.265925,56.249703
443010,Bækvangen,8530,4,10.266568,56.249548
443011,Bækvangen,8530,5,10.26582,56.249767
443012,Bækvangen,8530,6,10.266573,56.249611
443013,Bækvangen,8530,7,10.265551,56.24981
443014,Bækvangen,8530,8,10.266585,56.249683
443015,Bækvangen,8530,9,10.265394,56.249816
443016,Bækvangen,8530,10,10.266598,56.24975
443017,Bækvangen,8530,11,10.265238,56.249827
443018,Bækvangen,8530,12,10.266609,56.249822
443019,Bækvangen,8530,13,10.264895,56.249777
443020,Bækvangen,8530,14,10.266392,56.249901
443021,Bækvangen,8530,15,10.264734,56.249769
443022,Bækvangen,8530,16,10.266222,56.249902
443023,Bækvangen,8530,17,10.264577,56.249775
443024,Bækvangen,8530,18,10.266052,56.249976
443025,Bækvangen,8530,19,10.26456,56.24991
443026,Bækvangen,8530,20,10.265955,56.250022
443027,Bækvangen,8530,21,10.264563,56.249987
443028,Bækvangen,8530,22,10.265859,56.250063
443029,Bækvangen,8530,24,10.26564,56.250097
443030,Bækvangen,8530,26,10.265482,56.250103
443031,Bækvangen,8530,28,10.26532,56.250109
443032,Bækvangen,8530,30,10.264859,56.250141
443629,Bøggildsvej,8530,1,10.206237,56.267304
443630,Bøggildsvej,8530,2,10.206841,56.26764
443631,Bøggildsvej,8530,3,10.20653,56.267557
443632,Bøggildsvej,8530,4,10.207093,56.268082
443633,Bøggildsvej,8530,5,10.206595,56.267781
443634,Bøggildsvej,8530,7,10.206629,56.267965
443635,Bøggildsvej,8530,8,10.207663,56.268229
443636,Bøggildsvej,8530,9,10.20666,56.268176
443637,Bøggildsvej,8530,10,10.207863,56.268218
443638,Bøggildsvej,8530,11,10.206107,56.268379
443639,Bøggildsvej,8530,12,10.208035,56.268257
443640,Bøggildsvej,8530,13,10.206739,56.268288
443641,Bøggildsvej,8530,14,10.208694,56.268282
443642,Bøggildsvej,8530,15,10.207214,56.26844
443643,Bøggildsvej,8530,16,10.209492,56.26765
443644,Bøggildsvej,8530,17,10.208878,56.269206
443645,Bøggildsvej,8530,18,10.210729,56.268392
443646,Bøggildsvej,8530,19,10.208981,56.268594
443647,Bøggildsvej,8530,20,10.210313,56.268617
443648,Bøggildsvej,8530,21,10.209821,56.268594
443649,Bøggildsvej,8530,22,10.210931,56.269442
443650,Bøggildsvej,8530,23,10.210341,56.269097
443651,Bøggildsvej,8530,24,10.211146,56.269786
443652,Bøggildsvej,8530,25,10.209953,56.269006
443653,Bøggildsvej,8530,26,10.211448,56.270236
443654,Bøggildsvej,8530,28,10.211813,56.270758
443655,Bøggildsvej,8530,28A,10.212565,56.271699
443656,Bøggildsvej,8530,30,10.215296,56.271758
443657,Bøggildsvej,8530,38,10.214019,56.273042
443658,Bøggildsvej,8530,40,10.214333,56.273663
443659,Bøggildsvej,8530,41,10.215217,56.277707
443660,Bøggildsvej,8530,42,10.21497,56.275476
443661,Bøggildsvej,8530,44,10.216168,56.279014
443662,Bøggildsvej,8530,46,10.216909,56.280345
443663,Bøggildsvej,8530,47,10.215826,56.280248
443664,Bøggildsvej,8530,48,10.21706,56.280851
443665,Bøggildsvej,8530,49,10.216092,56.280461
443666,Bøggildsvej,8530,50,10.217599,56.280886
443667,Bøggildsvej,8530,50A,10.217734,56.28124
443668,Bøggildsvej,8530,51,10.216158,56.280595
443669,Bøggildsvej,8530,52,10.217681,56.281501
443670,Bøggildsvej,8530,53,10.216575,56.281409
443671,Bøggildsvej,8530,54,10.217422,56.281746
444844,Clemensvej,8530,1,10.239156,56.274432
444845,Clemensvej,8530,2,10.239402,56.273473
444846,Clemensvej,8530,3,10.239157,56.273961
444847,Clemensvej,8530,4,10.239535,56.273768
444848,Clemensvej,8530,5,10.240524,56.27445
444849,Clemensvej,8530,6,10.241004,56.273488
444850,Clemensvej,8530,7,10.241393,56.273817
444851,Clemensvej,8530,8,10.241666,56.273639
444852,Clemensvej,8530,9,10.241697,56.27394
444853,Clemensvej,8530,10,10.25317,56.275432
444854,Clemensvej,8530,11,10.245982,56.276839
444855,Clemensvej,8530,13,10.252967,56.278355
445319,Dammen,8530,1,10.207506,56.267754
445320,Dammen,8530,2,10.208196,56.266598
445321,Dammen,8530,2A,10.207217,56.267348
445322,Dammen,8530,3,10.207845,56.267666
445323,Dammen,8530,4A,10.20831,56.267562
445324,Dammen,8530,4B,10.208515,56.267722
445325,Dammen,8530,4C,10.208406,56.267939
445326,Dammen,8530,6,10.208542,56.268104
445635,Delfivej,8530,1,10.216985,56.289029
445636,Delfivej,8530,1A,10.217168,56.288924
445637,Delfivej,8530,2,10.217541,56.289576
445638,Delfivej,8530,4,10.217178,56.289728
445639,Delfivej,8530,6,10.216962,56.289878
445640,Delfivej,8530,8,10.216454,56.290153
445641,Delfivej,8530,9,10.215738,56.290133
445642,Delfivej,8530,10,10.216178,56.290295
445643,Delfivej,8530,13,10.214988,56.290504
445644,Delfivej,8530,14,10.21524,56.290758
445645,Delfivej,8530,15,10.214668,56.290359
445646,Delfivej,8530,16,10.215517,56.290872
445647,Delfivej,8530,17,10.214643,56.29071
445648,Delfivej,8530,18,10.215682,56.291063
445649,Delfivej,8530,19,10.214287,56.290497
445650,Delfivej,8530,20,10.215853,56.291192
445651,Delfivej,8530,21,10.214294,56.290219
445652,Delfivej,8530,22,10.216324,56.291308
445653,Delfivej,8530,23,10.214121,56.290014
445654,Delfivej,8530,24,10.216125,56.291481
445655,Delfivej,8530,25,10.213899,56.290115
445656,Delfivej,8530,26,10.215789,56.291628
445657,Delfivej,8530,27,10.213632,56.290252
445658,Delfivej,8530,28,10.215467,56.291748
445659,Delfivej,8530,29,10.213402,56.290376
445660,Delfivej,8530,30,10.215076,56.291815
445661,Delfivej,8530,31,10.213739,56.290548
445662,Delfivej,8530,32,10.214854,56.291592
445663,Delfivej,8530,33,10.21393,56.290743
445664,Delfivej,8530,34,10.214753,56.291346
445665,Delfivej,8530,35,10.214146,56.290899
445666,Delfivej,8530,36,10.215311,56.291377
445667,Delfivej,8530,38,10.215171,56.29119
445668,Delfivej,8530,40,10.214857,56.291035
445669,Delfivej,8530,42,10.214626,56.291222
445670,Delfivej,8530,44,10.214311,56.291122
449761,Engtoftevej,8530,2,10.20826,56.268578
449762,Engtoftevej,8530,4,10.207818,56.268663
449763,Engtoftevej,8530,6,10.207389,56.268708
449764,Engtoftevej,8530,8,10.207476,56.269305
449765,Engtoftevej,8530,10,10.190699,56.274625
449766,Engtoftevej,8530,12,10.206845,56.268659
449767,Engtoftevej,8530,16,10.20673,56.268458
450101,Esbenvej,8530,1,10.234316,56.278362
450102,Esbenvej,8530,2,10.235409,56.278495
450103,Esbenvej,8530,3,10.235232,56.278802
452930,Gammel Kirkevej,8530,1,10.265178,56.25233
452931,Gammel Kirkevej,8530,2,10.265059,56.252003
452932,Gammel Kirkevej,8530,4,10.265436,56.252053
452933,Gammel Kirkevej,8530,6,10.265821,56.252049
452934,Gammel Kirkevej,8530,8,10.266164,56.252082
452935,Gammel Kirkevej,8530,10,10.266491,56.252128
452936,Gammel Kirkevej,8530,12,10.266895,56.252142
452937,Gammel Kirkevej,8530,14B,10.267008,56.251835
452938,Gammel Kirkevej,8530,14C,10.266632,56.251812
452939,Gammel Kirkevej,8530,14D,10.266283,56.251784
452940,Gammel Kirkevej,8530,14E,10.265923,56.251752
452941,Gammel Kirkevej,8530,14F,10.265429,56.251734
452942,Gammel Kirkevej,8530,14G,10.265551,56.251527
452943,Gammel Kirkevej,8530,14H,10.265668,56.251314
452944,Gammel Kirkevej,8530,14J,10.266024,56.2514
452945,Gammel Kirkevej,8530,14K,10.266469,56.251432
452946,Gammel Kirkevej,8530,14L,10.266902,56.25145
452947,Gammel Kirkevej,8530,16,10.267501,56.25219
452948,Gammel Kirkevej,8530,20,10.268184,56.2522
452949,Gammel Kirkevej,8530,22,10.268624,56.252223
452950,Gammel Kirkevej,8530,24,10.268985,56.252242
452951,Gammel Kirkevej,8530,26,10.269272,56.252225
452952,Gammel Kirkevej,8530,28,10.269634,56.252231
452953,Gammel Kirkevej,8530,30,10.270114,56.252127
452954,Gammel Kirkevej,8530,36,10.271967,56.251793
452955,Gammel Kirkevej,8530,38,10.27183,56.251795
452956,Gammel Kirkevej,8530,39A,10.271086,56.252216
452957,Gammel Kirkevej,8530,39B,10.271338,56.252186
452958,Gammel Kirkevej,8530,40,10.271523,56.251811
452959,Gammel Kirkevej,8530,41,10.271841,56.252109
452960,Gammel Kirkevej,8530,42,10.271393,56.251804
452961,Gammel Kirkevej,8530,43,10.271921,56.252351
452962,Gammel Kirkevej,8530,45,10.272024,56.252529
452963,Gammel Kirkevej,8530,46A,10.271334,56.251584
452964,Gammel Kirkevej,8530,46B,10.271166,56.251572
452965,Gammel Kirkevej,8530,47,10.272083,56.252825
452966,Gammel Kirkevej,8530,48,10.271592,56.25155
452967,Gammel Kirkevej,8530,50,10.271736,56.251531
452968,Gammel Kirkevej,8530,52,10.271993,56.251501
452969,Gammel Kirkevej,8530,54,10.272132,56.251513
452970,Gammel Kirkevej,8530,56,10.271699,56.25132
452971,Gammel Kirkevej,8530,58,10.271374,56.251355
452972,Gammel Kirkevej,8530,60,10.271407,56.251175
452973,Gammel Kirkevej,8530,62,10.271327,56.251018
452974,Gammel Kirkevej,8530,64,10.27104,56.251048
452975,Gammel Kirkevej,8530,65,10.273581,56.252028
452976,Gammel Kirkevej,8530,66,10.271048,56.25085
452977,Gammel Kirkevej,8530,67,10.275736,56.251817
452978,Gammel Kirkevej,8530,68,10.271311,56.250843
452979,Gammel Kirkevej,8530,70,10.271621,56.250934
452980,Gammel Kirkevej,8530,72,10.271846,56.250932
452981,Gammel Kirkevej,8530,74,10.272136,56.250938
452982,Gammel Kirkevej,8530,76,10.271983,56.251218
452983,Gammel Kirkevej,8530,78,10.272197,56.25122
452984,Gammel Kirkevej,8530,81,10.277255,56.251806
452985,Gammel Kirkevej,8530,83,10.277894,56.251737
452986,Gammel Kirkevej,8530,95,10.279409,56.252813
452987,Gammel Kirkevej,8530,99,10.279963,56.251468
452988,Gammel Kirkevej,8530,121,10.282569,56.251239
453181,Gammel Møllevej,8530,5,10.208641,56.264783
453182,Gammel Møllevej,8530,7,10.208531,56.264559
453183,Gammel Møllevej,8530,9,10.208392,56.264336
453184,Gammel Møllevej,8530,11,10.208114,56.264132
453317,Gammelvej,8530,1,10.250413,56.26453
453318,Gammelvej,8530,2,10.249632,56.263931
453319,Gammelvej,8530,3,10.250057,56.262826
453320,Gammelvej,8530,4,10.24953,56.262557
453321,Gammelvej,8530,5,10.250107,56.261918
453322,Gammelvej,8530,5A,10.250202,56.262227
453323,Gammelvej,8530,6,10.250148,56.261194
453324,Gammelvej,8530,7,10.250118,56.261657
453701,Georgsmindevej,8530,1,10.262876,56.250372
453702,Georgsmindevej,8530,2,10.262336,56.250248
453703,Georgsmindevej,8530,3,10.263278,56.250153
453704,Georgsmindevej,8530,4,10.26236,56.250059
453705,Georgsmindevej,8530,5,10.262892,56.250125
453706,Georgsmindevej,8530,6,10.262377,56.249883
453707,Georgsmindevej,8530,7,10.262873,56.249896
453708,Georgsmindevej,8530,8,10.262316,56.249682
453709,Georgsmindevej,8530,10,10.262248,56.249507
453710,Georgsmindevej,8530,12,10.262133,56.249302
453711,Georgsmindevej,8530,13,10.26266,56.249
453712,Georgsmindevej,8530,14,10.262112,56.249095
453713,Georgsmindevej,8530,15,10.262783,56.248697
453714,Georgsmindevej,8530,16,10.261961,56.248948
453715,Georgsmindevej,8530,17,10.262403,56.248737
453716,Georgsmindevej,8530,18,10.261874,56.24877
453717,Georgsmindevej,8530,20,10.261754,56.248591
453718,Georgsmindevej,8530,22,10.261688,56.248372
453719,Georgsmindevej,8530,23,10.263516,56.24847
453720,Georgsmindevej,8530,24,10.261481,56.248208
453721,Georgsmindevej,8530,25,10.263673,56.248208
453722,Georgsmindevej,8530,26,10.261397,56.248065
453723,Georgsmindevej,8530,27,10.263555,56.24798
453724,Georgsmindevej,8530,31,10.263104,56.247989
453725,Georgsmindevej,8530,33,10.262855,56.248108
453726,Georgsmindevej,8530,35,10.263132,56.248272
453727,Georgsmindevej,8530,37,10.262816,56.248342
453728,Georgsmindevej,8530,39,10.262502,56.248399
453729,Georgsmindevej,8530,41,10.262222,56.248434
453730,Georgsmindevej,8530,43,10.262537,56.248161
453731,Georgsmindevej,8530,45,10.262222,56.248142
453732,Georgsmindevej,8530,47,10.261794,56.248047
454459,Grimsbrovej,8530,1,10.210817,56.269016
454460,Grimsbrovej,8530,2,10.212164,56.268514
454461,Grimsbrovej,8530,4,10.224031,56.272399
454462,Grimsbrovej,8530,5,10.213308,56.269866
454463,Grimsbrovej,8530,6,10.2227,56.272457
454464,Grimsbrovej,8530,7,10.213896,56.270064
454465,Grimsbrovej,8530,8,10.228231,56.273812
454466,Grimsbrovej,8530,9,10.214178,56.270228
454467,Grimsbrovej,8530,11,10.216196,56.270765
454468,Grimsbrovej,8530,13,10.218254,56.27198
454469,Grimsbrovej,8530,15,10.21873,56.272109
454470,Grimsbrovej,8530,20,10.232768,56.276742
455565,Gyden,8530,1,10.212621,56.300982
455566,Gyden,8530,3,10.21239,56.30088
455567,Gyden,8530,5,10.211885,56.30045
455568,Gyden,8530,6,10.211553,56.30114
455569,Gyden,8530,8,10.211399,56.301348
455570,Gyden,8530,12,10.211108,56.301329
455571,Gyden,8530,13,10.211051,56.300965
458633,Helbovej,8530,1,10.213071,56.299908
458634,Helbovej,8530,1A,10.213793,56.300134
458635,Helbovej,8530,1B,10.213557,56.30006
458636,Helbovej,8530,3,10.21264,56.299854
458637,Helbovej,8530,5,10.212263,56.299781
458638,Helbovej,8530,6,10.212574,56.300137
458639,Helbovej,8530,8,10.212045,56.300071
458728,Hellasvej,8530,1,10.218098,56.28572
458729,Hellasvej,8530,3,10.218206,56.285899
458730,Hellasvej,8530,4,10.218763,56.285803
458731,Hellasvej,8530,5,10.218207,56.286137
458732,Hellasvej,8530,6,10.218768,56.285997
458733,Hellasvej,8530,7,10.218274,56.286325
458734,Hellasvej,8530,8,10.218825,56.286171
458735,Hellasvej,8530,9,10.21829,56.286491
458736,Hellasvej,8530,10,10.218907,56.286355
458737,Hellasvej,8530,11,10.218419,56.28666
458738,Hellasvej,8530,12,10.218893,56.286512
458739,Hellasvej,8530,13,10.218452,56.28684
458740,Hellasvej,8530,14,10.219038,56.286708
458741,Hellasvej,8530,16,10.21896,56.286866
459005,Hesselballevej,8530,6,10.265504,56.254655
459006,Hesselballevej,8530,31,10.265608,56.259141
459007,Hesselballevej,8530,32,10.266419,56.259178
459008,Hesselballevej,8530,43,10.26707,56.262244
459009,Hesselballevej,8530,44,10.268362,56.262581
459010,Hesselballevej,8530,45,10.267302,56.262606
459011,Hesselballevej,8530,46,10.268877,56.262495
459012,Hesselballevej,8530,46A,10.270681,56.263326
459013,Hesselballevej,8530,48,10.268107,56.262957
459014,Hesselballevej,8530,50,10.2678,56.263319
459015,Hesselballevej,8530,51,10.266757,56.263883
459016,Hesselballevej,8530,52,10.26828,56.263494
459017,Hesselballevej,8530,53,10.266714,56.264103
459018,Hesselballevej,8530,54,10.268676,56.26354
459019,Hesselballevej,8530,56,10.267726,56.263671
459020,Hesselballevej,8530,59,10.266895,56.264334
459021,Hesselballevej,8530,60,10.269109,56.263504
459022,Hesselballevej,8530,68,10.270505,56.264172
459023,Hesselballevej,8530,73,10.265905,56.264453
459024,Hesselballevej,8530,76,10.267497,56.26419
459025,Hesselballevej,8530,78,10.267063,56.264571
459026,Hesselballevej,8530,81,10.266598,56.26472
459027,Hesselgyden,8530,6,10.266489,56.264195
459028,Hesselgyden,8530,8,10.266312,56.264022
459029,Hesselgyden,8530,10,10.265628,56.263822
459513,Hjortshøj Møllevej,8530,25,10.269828,56.251833
459514,Hjortshøj Møllevej,8530,27,10.269704,56.25183
459515,Hjortshøj Møllevej,8530,29,10.269558,56.251643
459516,Hjortshøj Møllevej,8530,31,10.269445,56.251639
459517,Hjortshøj Møllevej,8530,33,10.269246,56.251794
459518,Hjortshøj Møllevej,8530,35,10.269127,56.251791
459519,Hjortshøj Møllevej,8530,37,10.269012,56.251788
459520,Hjortshøj Møllevej,8530,39,10.26894,56.251613
459521,Hjortshøj Møllevej,8530,41,10.268769,56.251606
459522,Hjortshøj Møllevej,8530,43,10.268499,56.251595
459523,Hjortshøj Møllevej,8530,45,10.268327,56.251592
459524,Hjortshøj Møllevej,8530,47,10.268522,56.251766
459525,Hjortshøj Møllevej,8530,49,10.268403,56.251767
459526,Hjortshøj Møllevej,8530,51,10.268288,56.251764
459527,Hjortshøj Møllevej,8530,53,10.268103,56.251698
459528,Hjortshøj Møllevej,8530,55,10.267981,56.251695
459529,Hjortshøj Møllevej,8530,57,10.267862,56.251692
459530,Hjortshøj Møllevej,8530,59,10.267745,56.251693
459531,Hjortshøj Møllevej,8530,61,10.267561,56.25174
459532,Hjortshøj Møllevej,8530,63,10.267433,56.251736
459533,Hjortshøj Møllevej,8530,65,10.269244,56.251444
459534,Hjortshøj Møllevej,8530,67,10.269073,56.251441
459535,Hjortshøj Møllevej,8530,69,10.268875,56.251245
459536,Hjortshøj Møllevej,8530,71,10.268867,56.25134
459537,Hjortshøj Møllevej,8530,73,10.268517,56.25142
459538,Hjortshøj Møllevej,8530,75,10.268344,56.251417
459539,Hjortshøj Møllevej,8530,77,10.26817,56.25141
459540,Hjortshøj Møllevej,8530,79,10.267923,56.251516
459541,Hjortshøj Møllevej,8530,81,10.267783,56.251517
459542,Hjortshøj Møllevej,8530,83,10.267557,56.25156
459543,Hjortshøj Møllevej,8530,85,10.26741,56.251557
459544,Hjortshøj Møllevej,8530,96,10.269508,56.250614
459545,Hjortshøj Møllevej,8530,98,10.269612,56.2506
459546,Hjortshøj Møllevej,8530,100,10.269709,56.250585
459547,Hjortshøj Møllevej,8530,102,10.269806,56.250566
459548,Hjortshøj Møllevej,8530,104,10.269902,56.250552
459549,Hjortshøj Møllevej,8530,106,10.269993,56.250538
459550,Hjortshøj Møllevej,8530,108,10.270092,56.250523
459551,Hjortshøj Møllevej,8530,110,10.270189,56.250513
459552,Hjortshøj Møllevej,8530,112,10.270463,56.25047
459553,Hjortshøj Møllevej,8530,114,10.270594,56.250451
459554,Hjortshøj Møllevej,8530,116,10.270754,56.250431
459555,Hjortshøj Møllevej,8530,118,10.270876,56.250466
459556,Hjortshøj Møllevej,8530,120,10.270941,56.250528
459557,Hjortshøj Møllevej,8530,122,10.271015,56.250603
459558,Hjortshøj Møllevej,8530,124,10.270646,56.250675
459559,Hjortshøj Møllevej,8530,126,10.269599,56.250856
459560,Hjortshøj Møllevej,8530,128,10.269691,56.250855
459561,Hjortshøj Møllevej,8530,130,10.269793,56.250854
459562,Hjortshøj Møllevej,8530,132,10.26989,56.250858
459563,Hjortshøj Møllevej,8530,134,10.269982,56.250857
459564,Hjortshøj Møllevej,8530,136,10.270074,56.250856
459565,Hjortshøj Møllevej,8530,138,10.270266,56.250858
459566,Hjortshøj Møllevej,8530,140,10.270363,56.250857
459567,Hjortshøj Møllevej,8530,142,10.270455,56.250856
459568,Hjortshøj Møllevej,8530,144,10.270551,56.25086
459569,Hjortshøj Møllevej,8530,146,10.270652,56.250859
459570,Hjortshøj Møllevej,8530,148,10.270752,56.250862
459571,Hjortshøj Møllevej,8530,148A,10.270695,56.251038
459572,Hjortshøj Møllevej,8530,150,10.27019,56.251218
459573,Hjortshøj Møllevej,8530,152,10.270368,56.251221
459574,Hjortshøj Møllevej,8530,154,10.270526,56.25122
459575,Hjortshøj Møllevej,8530,156,10.270705,56.251222
459576,Hjortshøj Møllevej,8530,158,10.271071,56.251245
459577,Hjortshøj Møllevej,8530,160,10.271041,56.251349
459578,Hjortshøj Møllevej,8530,162,10.270986,56.25143
459579,Hjortshøj Møllevej,8530,164,10.27094,56.251516
459580,Hjortshøj Møllevej,8530,166,10.270911,56.251602
459581,Hjortshøj Møllevej,8530,168,10.270906,56.251746
459582,Hjortshøj Møllevej,8530,170,10.270906,56.251827
459583,Hjortshøj Møllevej,8530,172,10.270601,56.251834
459584,Hjortshøj Møllevej,8530,174,10.270535,56.25179
459585,Hjortshøj Møllevej,8530,176,10.270464,56.251737
459586,Hjortshøj Møllevej,8530,178,10.270381,56.251679
459587,Hjortshøj Møllevej,8530,180,10.270244,56.251582
459588,Hjortshøj Møllevej,8530,182,10.270156,56.251524
459589,Hjortshøj Møllevej,8530,184,10.270064,56.251458
459590,Hjortshøj Møllevej,8530,186,10.269984,56.251405
459591,Hjortshøj Møllevej,8530,188,10.269898,56.251343
459592,Hjortshøj Møllevej,8530,190,10.270539,56.25144
459593,Hjortshøj Stationsvej,8530,6,10.268377,56.244884
459594,Hjortshøj Stationsvej,8530,8,10.268089,56.244811
459595,Hjortshøj Stationsvej,8530,10,10.267691,56.244748
459596,Hjortshøj Stationsvej,8530,12,10.267472,56.244673
459597,Hjortshøj Stationsvej,8530,14,10.267127,56.244538
459598,Hjortshøj Stationsvej,8530,16,10.266832,56.244505
459599,Hjortshøj Stationsvej,8530,18A,10.266879,56.244936
459600,Hjortshøj Stationsvej,8530,18B,10.267023,56.24497
459601,Hjortshøj Stationsvej,8530,20A,10.266604,56.245091
459602,Hjortshøj Stationsvej,8530,20B,10.266738,56.245121
459603,Hjortshøj Stationsvej,8530,20C,10.266885,56.245156
459604,Hjortshøj Stationsvej,8530,22A,10.266607,56.245311
459605,Hjortshøj Stationsvej,8530,22B,10.266751,56.245341
459606,Hjortshøj Stationsvej,8530,24A,10.266321,56.245467
459607,Hjortshøj Stationsvej,8530,24B,10.266462,56.245493
459608,Hjortshøj Stationsvej,8530,24C,10.266609,56.245531
459609,Hjortshøj Stationsvej,8530,24D,10.266419,56.245691
459610,Hjortshøj Stationsvej,8530,24E,10.266553,56.24573
459611,Hjortshøj Stationsvej,8530,26A,10.265782,56.24558
459612,Hjortshøj Stationsvej,8530,26B,10.265848,56.245512
459613,Hjortshøj Stationsvej,8530,26C,10.265913,56.245426
459614,Hjortshøj Stationsvej,8530,26D,10.265973,56.245354
459615,Hjortshøj Stationsvej,8530,28A,10.26607,56.245231
459616,Hjortshøj Stationsvej,8530,28B,10.266126,56.245155
459617,Hjortshøj Stationsvej,8530,28C,10.266195,56.245077
459618,Hjortshøj Stationsvej,8530,30A,10.266287,56.244955
459619,Hjortshøj Stationsvej,8530,30B,10.26635,56.244878
459620,Hjortshøj Stationsvej,8530,30C,10.266422,56.244801
459621,Hjortshøj Stationsvej,8530,32,10.266463,56.244293
459622,Hjortshøj Stationsvej,8530,34,10.264342,56.243205
459623,Hjortshøj Stationsvej,8530,35,10.263827,56.242649
459624,Hjortshøj Stationsvej,8530,36,10.263911,56.243281
459625,Hjortshøj Stationsvej,8530,37,10.263547,56.242575
459626,Hjortshøj Stationsvej,8530,39,10.263068,56.24249
459627,Hjortshøj Stationsvej,8530,40,10.262232,56.243352
459628,Hjortshøj Stationsvej,8530,41,10.262787,56.242304
459629,Hjortshøj Stationsvej,8530,42,10.262219,56.243006
459630,Hjortshøj Stationsvej,8530,43,10.262288,56.242408
459631,Hjortshøj Stationsvej,8530,44,10.261702,56.243021
459632,Hjortshøj Stationsvej,8530,45,10.261956,56.242367
459633,Hjortshøj Stationsvej,8530,46,10.261521,56.243337
459634,Hjortshøjparken,8530,1,10.270766,56.254569
459635,Hjortshøjparken,8530,2,10.269831,56.25434
459636,Hjortshøjparken,8530,3,10.270704,56.254619
459637,Hjortshøjparken,8530,4,10.269961,56.254397
459638,Hjortshøjparken,8530,5,10.270632,56.254682
459639,Hjortshøjparken,8530,6,10.270082,56.254441
459640,Hjortshøjparken,8530,7,10.270566,56.254728
459641,Hjortshøjparken,8530,8,10.26969,56.254566
459642,Hjortshøjparken,8530,9,10.270509,56.254836
459643,Hjortshøjparken,8530,10,10.269866,56.254632
459644,Hjortshøjparken,8530,11,10.270448,56.254886
459645,Hjortshøjparken,8530,12,10.269468,56.254762
459646,Hjortshøjparken,8530,13,10.270389,56.254936
459647,Hjortshøjparken,8530,14,10.269612,56.254805
459648,Hjortshøjparken,8530,15,10.270321,56.254995
459649,Hjortshøjparken,8530,16,10.269093,56.254653
459650,Hjortshøjparken,8530,17,10.270259,56.255046
459651,Hjortshøjparken,8530,18,10.269197,56.254562
459652,Hjortshøjparken,8530,19,10.270721,56.255095
459653,Hjortshøjparken,8530,20,10.268758,56.254526
459654,Hjortshøjparken,8530,21,10.270639,56.255149
459655,Hjortshøjparken,8530,22,10.26887,56.25444
459656,Hjortshøjparken,8530,23,10.270541,56.255227
459657,Hjortshøjparken,8530,24,10.268997,56.254349
459658,Hjortshøjparken,8530,25,10.271123,56.255162
459659,Hjortshøjparken,8530,26,10.268261,56.254338
459660,Hjortshøjparken,8530,27,10.271008,56.255249
459661,Hjortshøjparken,8530,28,10.268561,56.254187
459662,Hjortshøjparken,8530,29,10.27089,56.255345
459663,Hjortshøjparken,8530,30,10.268639,56.254123
459664,Hjortshøjparken,8530,31,10.271593,56.255508
459665,Hjortshøjparken,8530,32,10.268819,56.254009
459666,Hjortshøjparken,8530,33,10.271429,56.255442
459667,Hjortshøjparken,8530,34,10.26898,56.253935
459668,Hjortshøjparken,8530,35,10.27126,56.255372
459669,Hjortshøjparken,8530,36,10.269161,56.25383
459670,Hjortshøjparken,8530,37,10.271996,56.255392
459671,Hjortshøjparken,8530,38,10.26925,56.253758
459672,Hjortshøjparken,8530,39,10.271864,56.255339
459673,Hjortshøjparken,8530,40,10.269513,56.253939
459674,Hjortshøjparken,8530,41,10.271762,56.2553
459675,Hjortshøjparken,8530,42,10.269611,56.253853
459676,Hjortshøjparken,8530,43,10.271644,56.255242
459677,Hjortshøjparken,8530,44,10.269847,56.254066
459678,Hjortshøjparken,8530,45,10.272253,56.255218
459679,Hjortshøjparken,8530,46,10.269932,56.253998
459680,Hjortshøjparken,8530,47,10.272096,56.255161
459681,Hjortshøjparken,8530,48,10.270132,56.254157
459682,Hjortshøjparken,8530,49,10.271857,56.255061
459683,Hjortshøjparken,8530,50,10.270263,56.254196
459684,Hjortshøjparken,8530,51,10.271711,56.254999
459685,Hjortshøjparken,8530,52,10.270202,56.253465
459686,Hjortshøjparken,8530,53,10.272331,56.25497
459687,Hjortshøjparken,8530,54,10.270212,56.253375
459688,Hjortshøjparken,8530,55,10.272158,56.254905
459689,Hjortshøjparken,8530,56,10.270062,56.253664
459690,Hjortshøjparken,8530,57,10.272001,56.254843
459691,Hjortshøjparken,8530,58,10.270203,56.253662
459692,Hjortshøjparken,8530,59,10.271847,56.254791
459693,Hjortshøjparken,8530,60,10.270377,56.253674
459694,Hjortshøjparken,8530,61,10.272732,56.254854
459695,Hjortshøjparken,8530,62,10.269789,56.253595
459696,Hjortshøjparken,8530,63,10.27262,56.254806
459697,Hjortshøjparken,8530,64,10.269796,56.253482
459698,Hjortshøjparken,8530,65,10.272509,56.254762
459699,Hjortshøjparken,8530,66,10.269385,56.253545
459700,Hjortshøjparken,8530,67,10.272392,56.254718
459701,Hjortshøjparken,8530,68,10.269403,56.253441
459702,Hjortshøjparken,8530,69,10.27282,56.254588
459703,Hjortshøjparken,8530,70,10.269385,56.253289
459704,Hjortshøjparken,8530,71,10.272641,56.254549
459705,Hjortshøjparken,8530,72,10.269343,56.253208
459706,Hjortshøjparken,8530,73,10.272856,56.254345
459707,Hjortshøjparken,8530,74,10.269314,56.253056
459708,Hjortshøjparken,8530,75,10.272694,56.254338
459709,Hjortshøjparken,8530,76,10.269344,56.252957
459710,Hjortshøjparken,8530,77,10.272792,56.254108
459711,Hjortshøjparken,8530,78,10.269356,56.25284
459712,Hjortshøjparken,8530,79,10.272591,56.254128
459713,Hjortshøjparken,8530,80,10.26948,56.252681
459714,Hjortshøjparken,8530,81,10.272544,56.253903
459715,Hjortshøjparken,8530,82,10.269621,56.252608
459716,Hjortshøjparken,8530,83,10.272419,56.253918
459717,Hjortshøjparken,8530,84,10.269857,56.252529
459718,Hjortshøjparken,8530,85,10.272412,56.253689
459719,Hjortshøjparken,8530,86,10.270009,56.252501
459720,Hjortshøjparken,8530,87,10.27222,56.253705
459721,Hjortshøjparken,8530,88,10.270152,56.252477
459722,Hjortshøjparken,8530,89,10.271872,56.253654
459723,Hjortshøjparken,8530,90,10.27002,56.252725
459724,Hjortshøjparken,8530,91,10.271907,56.253766
459725,Hjortshøjparken,8530,92,10.270172,56.252706
459726,Hjortshøjparken,8530,93,10.271794,56.253934
459727,Hjortshøjparken,8530,94,10.269982,56.252973
459728,Hjortshøjparken,8530,95,10.27181,56.25401
459729,Hjortshøjparken,8530,96,10.270171,56.252944
459730,Hjortshøjparken,8530,97,10.271836,56.25409
459731,Hjortshøjparken,8530,98,10.270158,56.253101
459732,Hjortshøjparken,8530,99,10.271831,56.254257
459733,Hjortshøjparken,8530,100,10.270191,56.253177
459734,Hjortshøjparken,8530,101,10.271809,56.254365
459735,Hjortshøjparken,8530,103,10.271692,56.254514
459736,Hjortshøjparken,8530,105,10.27163,56.25456
459737,Hjortshøjparken,8530,107,10.271582,56.254614
459738,Hjortshøjparken,8530,109,10.271517,56.254664
459739,Hjortshøjparken,8530,111,10.271356,56.254374
459740,Hjortshøjparken,8530,113,10.271289,56.254433
459741,Hjortshøjparken,8530,115,10.271228,56.254474
459742,Hjortshøjparken,8530,117,10.271169,56.254529
459743,Hjortshøjparken,8530,119,10.27126,56.253472
459744,Hjortshøjparken,8530,119A,10.270933,56.254374
459745,Hjortshøjparken,8530,121,10.271299,56.253013
459746,Hjortshøjparken,8530,123,10.271334,56.25308
459747,Hjortshøjparken,8530,125,10.271374,56.253156
459748,Hjortshøjparken,8530,127,10.271685,56.252928
459749,Hjortshøjparken,8530,129,10.271731,56.253031
459750,Hjortshøjparken,8530,131,10.271673,56.252762
459751,Hjortshøjparken,8530,133,10.271529,56.252782
459752,Hjortshøjparken,8530,135,10.271555,56.252557
459753,Hjortshøjparken,8530,137,10.271376,56.252586
459754,Hjortshøjparken,8530,139,10.271467,56.252369
459755,Hjortshøjparken,8530,141,10.271278,56.252371
459756,Hjortshøjparken,8530,143,10.271072,56.252422
459757,Hjortshøjparken,8530,145,10.270734,56.252246
459758,Hjortshøjparken,8530,147,10.270723,56.252332
459759,Hjortshøjparken,8530,149,10.270714,56.252435
459760,Hjortshøjparken,8530,151,10.270689,56.252525
459761,Hjortshøjparken,8530,153,10.270627,56.252634
459762,Hjortshøjparken,8530,155,10.270608,56.252787
459763,Hjortshøjparken,8530,157,10.270622,56.252849
459764,Hjortshøjparken,8530,159,10.270663,56.252907
459765,Hjortshøjparken,8530,161,10.270839,56.25304
459766,Hjortshøjparken,8530,163,10.270875,56.253103
459767,Hjortshøjparken,8530,165,10.270901,56.25317
459768,Hjortshøjparken,8530,167,10.270928,56.253224
459769,Hjortshøjparken,8530,169,10.270821,56.253319
461744,Hundkærvej,8530,1,10.267305,56.246544
461745,Hundkærvej,8530,3A,10.266861,56.24636
461746,Hundkærvej,8530,3B,10.267105,56.24594
461747,Hundkærvej,8530,4,10.266936,56.246831
461748,Hundkærvej,8530,5A,10.266479,56.246328
461749,Hundkærvej,8530,7,10.266026,56.246063
461750,Hundkærvej,8530,9,10.265621,56.245905
461751,Hundkærvej,8530,10,10.26581,56.24655
461752,Hundkærvej,8530,12,10.265512,56.246482
461753,Hundkærvej,8530,13,10.264775,56.245968
461754,Hundkærvej,8530,14,10.26522,56.246377
461755,Hundkærvej,8530,16,10.264884,56.246394
461756,Hundkærvej,8530,17,10.264037,56.245782
461757,Hundkærvej,8530,18,10.264636,56.246266
461758,Hundkærvej,8530,19,10.263768,56.245691
461759,Hundkærvej,8530,20,10.264338,56.246197
461760,Hundkærvej,8530,21,10.263496,56.245635
461761,Hundkærvej,8530,22,10.264051,56.246115
461762,Hundkærvej,8530,23,10.2633,56.245453
461763,Hundkærvej,8530,24,10.263707,56.246064
461764,Hundkærvej,8530,26,10.26346,56.24599
461765,Hundkærvej,8530,27,10.262578,56.24542
461766,Hundkærvej,8530,28,10.263128,56.245949
461767,Hundkærvej,8530,29,10.261918,56.245418
461768,Hundkærvej,8530,30,10.262749,56.245872
461769,Hundkærvej,8530,31,10.261524,56.245498
461770,Hundkærvej,8530,32,10.262428,56.246005
461771,Hundkærvej,8530,33,10.260792,56.245582
461772,Hundkærvej,8530,34,10.262317,56.245777
462238,Hæstvej,8530,1,10.20613,56.26686
462239,Hæstvej,8530,2B,10.204957,56.267838
462240,Hæstvej,8530,2C,10.202668,56.267963
462241,Hæstvej,8530,3,10.205162,56.26656
462242,Hæstvej,8530,4,10.198593,56.268138
462445,Højager,8530,1,10.276023,56.247137
462446,Højager,8530,2,10.275729,56.246875
462447,Højager,8530,3,10.276214,56.247167
462448,Højager,8530,4,10.275631,56.246966
462449,Højager,8530,5,10.27635,56.247228
462450,Højager,8530,6,10.275311,56.246871
462451,Højager,8530,7,10.276503,56.247299
462452,Højager,8530,8,10.275163,56.246809
462453,Højager,8530,9,10.276642,56.247356
462454,Højager,8530,10,10.274925,56.246677
462455,Højager,8530,11,10.276884,56.247389
462456,Højager,8530,12,10.274995,56.246613
462457,Højager,8530,13,10.27705,56.247383
462458,Højager,8530,14,10.275051,56.246429
462459,Højager,8530,15,10.27705,56.247239
462460,Højager,8530,16,10.275136,56.246365
462461,Højager,8530,17,10.277119,56.247086
462462,Højager,8530,18A,10.275206,56.246306
462463,Højager,8530,18B,10.27527,56.24626
462464,Højager,8530,19,10.277166,56.246964
462465,Højager,8530,20,10.275158,56.246167
462466,Højager,8530,21,10.277141,56.246874
462467,Højager,8530,22,10.275242,56.246108
462468,Højager,8530,23,10.277201,56.246748
462469,Højager,8530,24A,10.275603,56.246059
462470,Højager,8530,24B,10.275682,56.24609
462471,Højager,8530,25,10.277259,56.246622
462472,Højager,8530,26,10.275788,56.246129
462473,Højager,8530,27,10.27717,56.246479
462474,Højager,8530,28,10.275886,56.246357
462475,Højager,8530,29,10.276965,56.246494
462476,Højager,8530,30,10.275823,56.246412
462477,Højager,8530,31,10.276743,56.246456
462478,Højager,8530,32,10.275906,56.24655
462479,Højager,8530,33,10.276603,56.246399
462480,Højager,8530,34,10.275833,56.246618
462481,Højager,8530,35,10.276359,56.246361
462482,Højager,8530,36,10.275761,56.246682
462483,Højager,8530,40,10.275983,56.245525
462484,Højager,8530,42,10.275946,56.245642
462485,Højager,8530,43,10.276478,56.246531
462486,Højager,8530,44,10.275874,56.245692
462487,Højager,8530,45,10.276608,56.246637
462488,Højager,8530,46,10.275805,56.245738
462489,Højager,8530,47,10.276754,56.246775
462490,Højager,8530,48,10.275614,56.245744
462491,Højager,8530,49,10.276877,56.246891
462492,Højager,8530,50,10.275535,56.245709
462493,Højager,8530,52,10.275454,56.245674
462494,Højager,8530,53,10.276733,56.247108
462495,Højager,8530,54,10.27537,56.245635
462496,Højager,8530,55,10.276458,56.24707
462497,Højager,8530,56,10.275333,56.245532
462498,Højager,8530,57,10.276318,56.247009
462499,Højager,8530,58,10.276029,56.245192
462500,Højager,8530,59,10.276115,56.246979
462501,Højager,8530,60,10.276095,56.245146
462502,Højager,8530,61,10.276491,56.245924
462503,Højager,8530,62,10.276292,56.245135
462504,Højager,8530,64,10.276374,56.245171
462505,Højager,8530,65,10.276669,56.24577
462506,Højager,8530,66,10.276459,56.24521
462507,Højager,8530,67,10.276794,56.245669
462508,Højager,8530,68,10.276536,56.245245
462509,Højager,8530,69,10.276954,56.245636
462510,Højager,8530,70,10.276549,56.245353
462511,Højager,8530,71,10.277133,56.245616
462512,Højager,8530,72,10.276475,56.245403
462513,Højager,8530,73,10.277297,56.245637
462514,Højager,8530,74,10.2764,56.245453
462515,Højager,8530,75,10.277461,56.245748
462516,Højager,8530,76,10.276215,56.245464
462517,Højager,8530,77,10.277484,56.245846
462518,Højager,8530,78,10.277001,56.245101
462519,Højager,8530,79,10.277502,56.245923
462520,Højager,8530,80,10.277085,56.245046
462521,Højager,8530,81,10.277323,56.246023
462522,Højager,8530,82,10.276777,56.244982
462523,Højager,8530,83,10.27719,56.246083
462524,Højager,8530,84,10.276663,56.244934
462525,Højager,8530,85,10.27711,56.246138
462526,Højager,8530,86,10.276557,56.244881
462527,Højager,8530,87,10.276989,56.246175
462528,Højager,8530,88,10.27637,56.244847
462529,Højager,8530,89,10.276919,56.246221
462530,Højager,8530,90,10.276204,56.24484
462531,Højager,8530,91,10.276682,56.246066
462532,Højager,8530,92,10.276065,56.244837
462533,Højager,8530,93,10.277435,56.245191
462534,Højager,8530,94,10.275973,56.24477
462535,Højager,8530,95,10.277352,56.245237
462536,Højager,8530,96,10.275986,56.244662
462537,Højager,8530,97,10.277275,56.245292
462538,Højager,8530,98,10.276151,56.244584
462539,Højager,8530,99,10.277508,56.245361
462540,Højager,8530,100,10.276315,56.244587
462541,Højager,8530,101,10.277575,56.245432
462542,Højager,8530,102,10.276486,56.244621
462543,Højager,8530,103,10.277686,56.245525
462544,Højager,8530,104,10.276587,56.244665
462545,Højager,8530,105,10.277802,56.245578
462546,Højager,8530,106,10.276691,56.244714
462547,Højager,8530,107,10.277912,56.245631
462548,Højager,8530,108,10.276805,56.244762
462549,Højager,8530,109,10.278073,56.24562
462550,Højager,8530,110,10.276905,56.24481
462551,Højager,8530,111,10.278197,56.245538
462552,Højager,8530,112,10.277001,56.24485
462553,Højager,8530,113,10.27828,56.245479
462554,Højager,8530,114,10.277114,56.244902
462555,Højager,8530,115,10.278248,56.245403
462556,Højager,8530,116,10.277213,56.244942
462557,Højager,8530,117,10.27814,56.245359
462558,Højager,8530,118,10.27751,56.244763
462559,Højager,8530,119,10.277979,56.245284
462560,Højager,8530,120,10.277568,56.244718
462561,Højager,8530,121,10.277866,56.245232
462562,Højager,8530,122,10.277658,56.244659
462563,Højager,8530,123,10.277777,56.245196
462564,Højager,8530,124,10.277341,56.244599
462565,Højager,8530,125,10.277687,56.245157
462566,Højager,8530,126,10.277234,56.244551
462567,Højager,8530,127,10.277552,56.2451
462568,Højager,8530,128,10.277134,56.244507
462569,Højager,8530,129,10.277988,56.244803
462570,Højager,8530,130,10.277021,56.244459
462571,Højager,8530,131,10.277911,56.244858
462572,Højager,8530,132,10.276832,56.244411
462573,Højager,8530,133,10.277823,56.244917
462574,Højager,8530,134,10.276691,56.244408
462575,Højager,8530,135,10.278062,56.244924
462576,Højager,8530,136,10.276565,56.244409
462577,Højager,8530,137,10.278179,56.244977
462578,Højager,8530,138,10.276349,56.244353
462579,Højager,8530,139,10.278296,56.245025
462580,Højager,8530,140,10.276228,56.244314
462581,Højager,8530,141,10.278396,56.245114
462582,Højager,8530,142,10.27616,56.24422
462583,Højager,8530,143,10.278535,56.245189
462584,Højager,8530,144,10.27626,56.244165
462585,Højager,8530,145,10.278715,56.245164
462586,Højager,8530,146,10.276402,56.244132
462587,Højager,8530,147,10.278819,56.2451
462588,Højager,8530,148,10.276537,56.244136
462589,Højager,8530,149,10.278894,56.245037
462590,Højager,8530,150,10.276666,56.244134
462591,Højager,8530,151,10.278983,56.244977
462592,Højager,8530,152,10.2768,56.244137
462593,Højager,8530,153,10.279067,56.244923
462594,Højager,8530,154,10.276931,56.244136
462595,Højager,8530,155,10.279149,56.244868
462596,Højager,8530,156,10.277066,56.244179
462597,Højager,8530,157,10.279228,56.244809
462598,Højager,8530,158,10.277113,56.244237
462599,Højager,8530,159,10.278842,56.24479
462600,Højager,8530,160,10.277271,56.244339
462601,Højager,8530,161,10.278721,56.244845
462602,Højager,8530,162,10.277367,56.244383
462603,Højager,8530,163,10.27843,56.244853
462604,Højager,8530,164,10.277462,56.244423
462605,Højager,8530,165,10.278119,56.244712
462606,Højager,8530,166,10.277562,56.244466
462607,Højager,8530,167,10.278241,56.244765
462608,Højager,8530,168,10.27766,56.24451
462609,Højager,8530,169,10.278325,56.2448
462610,Højager,8530,170,10.277749,56.24455
462611,Højager,8530,171,10.278565,56.244393
462612,Højager,8530,172,10.278212,56.244159
462613,Højager,8530,173,10.278451,56.244462
462614,Højager,8530,175,10.278381,56.244516
462615,Højager,8530,177,10.278301,56.244571
462616,Højager,8530,179,10.278641,56.244527
462617,Højager,8530,181,10.278748,56.24458
462618,Højager,8530,183,10.278837,56.244624
462619,Højager,8530,185,10.279284,56.244705
462620,Højager,8530,187,10.279271,56.244628
462621,Højager,8530,189,10.279193,56.244548
462622,Højager,8530,191,10.279098,56.2445
462623,Højager,8530,193,10.278995,56.244456
462624,Højager,8530,195,10.278886,56.244408
462625,Højager,8530,197,10.27878,56.244364
462626,Højager,8530,199,10.278632,56.244289
462627,Højager,8530,201,10.278716,56.24423
462628,Højager,8530,203,10.278816,56.244175
462629,Højager,8530,952,10.276863,56.247017
463677,Håruptoften,8530,1,10.220169,56.281342
463678,Håruptoften,8530,3,10.220167,56.281796
463679,Håruptoften,8530,5,10.220182,56.282052
463680,Håruptoften,8530,7,10.219691,56.28242
463681,Håruptoften,8530,9,10.22013,56.28234
466839,Kalstrup,8530,1,10.20653,56.310628
466840,Kalstrup,8530,2,10.205693,56.311256
466841,Kalstrup,8530,3,10.203299,56.311653
466842,Kalstrup,8530,5,10.195126,56.311889
466843,Kalstrup,8530,7,10.203262,56.312367
466844,Kalstrup,8530,8,10.201811,56.314497
466845,Kalstrup,8530,9,10.201873,56.31394
466846,Kalstrup,8530,11,10.201138,56.31503
466847,Kalstrup,8530,12,10.197715,56.316729
466848,Kalstrup,8530,13,10.200478,56.315921
466849,Kalstrup,8530,14,10.194573,56.316724
466850,Kalstrup,8530,15,10.194513,56.316432
466851,Kalstrup,8530,16,10.194076,56.316594
466852,Kalstrup,8530,17,10.192307,56.315169
466853,Kalstrup,8530,18,10.191952,56.315469
466862,Kaløvej,8530,8,10.217333,56.299803
466863,Kaløvej,8530,30,10.223481,56.301333
466864,Kaløvej,8530,31,10.222067,56.301787
466865,Kaløvej,8530,33,10.223174,56.301767
466866,Kaløvej,8530,35,10.22407,56.301997
466867,Kaløvej,8530,36,10.229239,56.301869
466868,Kaløvej,8530,37,10.226723,56.302092
466869,Kaløvej,8530,38,10.237447,56.301927
466870,Kaløvej,8530,39,10.226992,56.303765
467030,Kankbøllevej,8530,4,10.26998,56.244953
467031,Kankbøllevej,8530,6,10.27019,56.245041
467032,Kankbøllevej,8530,8A,10.270462,56.245142
467033,Kankbøllevej,8530,8B,10.270796,56.245197
467034,Kankbøllevej,8530,10,10.271228,56.245349
467035,Kankbøllevej,8530,12,10.271727,56.245582
467036,Kankbøllevej,8530,70,10.279093,56.247083
467037,Kankbøllevej,8530,104,10.287181,56.249345
467650,Kastrup Skovvej,8530,1,10.28956,56.249715
467651,Kastrup Skovvej,8530,2,10.288114,56.249259
467652,Kastrup Skovvej,8530,3,10.29076,56.249182
467653,Kastrup Skovvej,8530,3A,10.289941,56.24972
467654,Kastrup Skovvej,8530,3B,10.290142,56.249727
467655,Kastrup Skovvej,8530,4,10.288615,56.248795
467656,Kastrup Skovvej,8530,6,10.289647,56.248757
467657,Kastrup Skovvej,8530,15,10.290162,56.248509
468970,Klokbakken,8530,2,10.206361,56.266845
468971,Klokbakken,8530,4,10.206573,56.266452
468972,Klokbakken,8530,6,10.206677,56.266226
468973,Klokbakken,8530,8,10.206646,56.265759
468974,Klokbakken,8530,9,10.207629,56.265233
468975,Klokbakken,8530,10,10.20704,56.265522
468976,Klokbakken,8530,11,10.207693,56.264473
468977,Klokbakken,8530,11A,10.207689,56.264931
468978,Klokbakken,8530,12,10.207288,56.262937
468979,Klokbakken,8530,13,10.207812,56.263883
469585,Koldkærvej,8530,1,10.195002,56.303466
469586,Koldkærvej,8530,1A,10.192023,56.30328
469587,Koldkærvej,8530,3,10.189651,56.305203
469588,Koldkærvej,8530,4,10.191398,56.305397
469589,Koldkærvej,8530,5,10.182887,56.306251
469590,Koldkærvej,8530,6,10.187218,56.306363
469591,Koldkærvej,8530,7,10.18079,56.305997
469592,Koldkærvej,8530,8,10.185464,56.307274
470198,Korsvej,8530,2,10.238236,56.273669
470199,Korsvej,8530,6,10.237102,56.272786
470200,Korsvej,8530,8,10.231358,56.267847
470245,Krannestrup,8530,1,10.231281,56.309405
470246,Krannestrup,8530,3,10.232112,56.310345
470333,Kretavej,8530,3,10.216769,56.290244
470334,Kretavej,8530,5,10.21709,56.290461
470335,Kretavej,8530,7,10.217425,56.290592
470336,Kretavej,8530,8,10.217655,56.290316
470337,Kretavej,8530,10,10.217748,56.290513
471446,Kådhøjvej,8530,2,10.264389,56.245752
471447,Kådhøjvej,8530,3,10.26494,56.245818
471448,Kådhøjvej,8530,4A,10.264394,56.245446
471449,Kådhøjvej,8530,4B,10.264623,56.245323
471450,Kådhøjvej,8530,5,10.265122,56.245637
471451,Kådhøjvej,8530,6,10.264926,56.245086
471452,Kådhøjvej,8530,7,10.2652,56.245461
471453,Kådhøjvej,8530,8,10.265175,56.244778
471454,Kådhøjvej,8530,9,10.265312,56.245329
471455,Kådhøjvej,8530,10,10.26538,56.244497
471456,Kådhøjvej,8530,11,10.265462,56.24517
471457,Kådhøjvej,8530,12,10.265724,56.244085
471458,Kådhøjvej,8530,13,10.265588,56.245007
471459,Kådhøjvej,8530,15,10.265705,56.244862
471460,Kådhøjvej,8530,17,10.265943,56.244734
471461,Kådhøjvej,8530,19,10.266104,56.24458
471462,Kådhøjvej,8530,21,10.266109,56.244288
473441,Lille Todbjerg,8530,1,10.209773,56.262539
473442,Lille Todbjerg,8530,2,10.208945,56.262125
473443,Lille Todbjerg,8530,4,10.210648,56.261901
473444,Lille Todbjerg,8530,6,10.21191,56.261804
473445,Lille Todbjerg,8530,7,10.215023,56.261787
473446,Lille Todbjerg,8530,8,10.215207,56.259952
473447,Lille Todbjerg,8530,9,10.215566,56.262725
473448,Lille Todbjerg,8530,9A,10.212713,56.262851
473449,Lille Todbjerg,8530,10,10.218848,56.262277
473450,Lille Todbjerg,8530,12,10.223748,56.262572
473451,Lille Todbjerg,8530,14,10.231363,56.262676
473823,Lindåhøje,8530,1,10.249501,56.289745
473824,Lindåhøje,8530,2,10.23971,56.285061
473825,Lindåhøje,8530,3,10.247418,56.289395
473826,Lindåhøje,8530,4,10.233953,56.287805
473827,Lindåhøje,8530,5,10.240197,56.284775
473828,Lindåhøje,8530,6,10.235284,56.278995
473829,Lindåhøje,8530,7,10.238397,56.281273
475256,Løvagervej,8530,1,10.266104,56.246637
475257,Løvagervej,8530,2,10.266442,56.246867
475258,Løvagervej,8530,3,10.265563,56.246827
475259,Løvagervej,8530,4,10.266269,56.247085
475260,Løvagervej,8530,5,10.265113,56.246886
475261,Løvagervej,8530,6,10.26593,56.247201
475262,Løvagervej,8530,7,10.264812,56.246943
475263,Løvagervej,8530,8,10.265519,56.247232
475264,Løvagervej,8530,9,10.264498,56.246986
475265,Løvagervej,8530,10,10.265249,56.247289
475266,Løvagervej,8530,11,10.263957,56.247113
475267,Løvagervej,8530,12,10.264891,56.247292
475268,Løvagervej,8530,13,10.263286,56.247214
475269,Løvagervej,8530,14,10.264592,56.247444
475270,Løvagervej,8530,15,10.263202,56.246973
475271,Løvagervej,8530,16,10.264207,56.247438
475272,Løvagervej,8530,17,10.263147,56.246735
475273,Løvagervej,8530,18,10.263885,56.24755
475274,Løvagervej,8530,19,10.26308,56.246493
475275,Løvagervej,8530,19A,10.26297,56.246225
475276,Løvagervej,8530,20,10.263394,56.247501
475277,Løvagervej,8530,21,10.262573,56.246274
475278,Løvagervej,8530,22,10.263169,56.247705
475279,Løvagervej,8530,23,10.262497,56.246566
475280,Løvagervej,8530,24,10.262733,56.247557
475281,Løvagervej,8530,25,10.262525,56.246818
475282,Løvagervej,8530,26,10.262703,56.247755
475283,Løvagervej,8530,27,10.262664,56.247018
475284,Løvagervej,8530,28,10.262161,56.247828
475285,Løvagervej,8530,29,10.262785,56.24721
475286,Løvagervej,8530,30,10.262166,56.247549
475287,Løvagervej,8530,31,10.262269,56.247202
475288,Løvagervej,8530,33,10.262063,56.24698
475289,Løvagervej,8530,34,10.261656,56.247509
475290,Løvagervej,8530,35,10.262095,56.246746
475291,Løvagervej,8530,36,10.261556,56.247317
475292,Løvagervej,8530,37,10.261995,56.246567
475293,Løvagervej,8530,38,10.26116,56.247582
475294,Løvagervej,8530,39,10.261929,56.246321
475295,Løvagervej,8530,40,10.261032,56.247314
475296,Løvagervej,8530,41,10.261881,56.246083
475297,Løvagervej,8530,42,10.261011,56.247049
475298,Løvagervej,8530,43,10.261833,56.245845
475299,Løvagervej,8530,44,10.261455,56.247044
475300,Løvagervej,8530,46,10.261387,56.246843
475301,Løvagervej,8530,48,10.26097,56.246856
475302,Løvagervej,8530,50,10.260903,56.246578
475303,Løvagervej,8530,52,10.261272,56.246579
475304,Løvagervej,8530,54,10.261244,56.246372
475305,Løvagervej,8530,56,10.260848,56.24639
475306,Løvagervej,8530,58,10.260758,56.246099
475307,Løvagervej,8530,60,10.261242,56.24608
475308,Løvagervej,8530,62,10.261094,56.245898
475323,Løvgangen,8530,2,10.267992,56.246906
475324,Løvgangen,8530,4,10.268579,56.247088
475325,Løvgangen,8530,6,10.268976,56.247187
475326,Løvgangen,8530,8,10.26937,56.246972
475347,Løvstien,8530,3,10.264513,56.246667
475348,Løvstien,8530,4,10.263956,56.246956
475349,Løvstien,8530,6,10.263898,56.246781
475350,Løvstien,8530,8,10.263749,56.24659
475351,Løvstien,8530,10,10.263591,56.246411
476794,Mejlby Toften,8530,3,10.210049,56.300751
476795,Mejlby Toften,8530,4,10.209531,56.300643
476796,Mejlby Toften,8530,5,10.210201,56.300529
476797,Mejlby Toften,8530,6,10.209702,56.300422
476798,Mejlby Toften,8530,7,10.210403,56.300293
476799,Mejlby Toften,8530,8,10.209982,56.300226
476833,Mejlbyvej,8530,265,10.261111,56.239154
476834,Mejlbyvej,8530,268,10.264752,56.24043
476835,Mejlbyvej,8530,270,10.262726,56.240728
476836,Mejlbyvej,8530,285,10.261009,56.242017
476837,Mejlbyvej,8530,287,10.260431,56.241991
476838,Mejlbyvej,8530,301,10.260746,56.243484
476839,Mejlbyvej,8530,303,10.260596,56.243683
476840,Mejlbyvej,8530,315,10.259647,56.244386
476841,Mejlbyvej,8530,440,10.259391,56.255246
476842,Mejlbyvej,8530,501,10.253681,56.255812
476843,Mejlbyvej,8530,501A,10.253653,56.255718
476844,Mejlbyvej,8530,501B,10.253621,56.255624
476845,Mejlbyvej,8530,501C,10.253581,56.255503
476846,Mejlbyvej,8530,600,10.254416,56.260747
476847,Mejlbyvej,8530,601,10.236114,56.275442
476848,Mejlbyvej,8530,604,10.240351,56.271882
476849,Mejlbyvej,8530,606,10.240848,56.27247
476850,Mejlbyvej,8530,608,10.238357,56.274566
476851,Mejlbyvej,8530,609,10.224432,56.279471
476852,Mejlbyvej,8530,611,10.220029,56.280907
476853,Mejlbyvej,8530,612,10.219868,56.281471
476854,Mejlbyvej,8530,613,10.218513,56.281277
476855,Mejlbyvej,8530,614,10.219881,56.28196
476856,Mejlbyvej,8530,616A,10.219561,56.281608
476857,Mejlbyvej,8530,616B,10.219574,56.28208
476858,Mejlbyvej,8530,618,10.219222,56.282039
476859,Mejlbyvej,8530,620,10.21871,56.282048
476860,Mejlbyvej,8530,622,10.218014,56.282019
476861,Mejlbyvej,8530,626,10.217591,56.282171
476862,Mejlbyvej,8530,628,10.217924,56.282613
476863,Mejlbyvej,8530,630,10.216896,56.282511
476864,Mejlbyvej,8530,632,10.216592,56.282743
476865,Mejlbyvej,8530,633,10.215139,56.282281
476866,Mejlbyvej,8530,636,10.216359,56.282974
476867,Mejlbyvej,8530,638,10.216548,56.283255
476868,Mejlbyvej,8530,639,10.216075,56.283381
476869,Mejlbyvej,8530,640,10.216675,56.283456
476870,Mejlbyvej,8530,642,10.216761,56.283667
476871,Mejlbyvej,8530,643,10.216497,56.283948
476872,Mejlbyvej,8530,644,10.21736,56.28376
476873,Mejlbyvej,8530,646,10.218679,56.283976
476874,Mejlbyvej,8530,647,10.216471,56.284249
476875,Mejlbyvej,8530,648,10.217352,56.284303
476876,Mejlbyvej,8530,649,10.216685,56.284517
476877,Mejlbyvej,8530,650,10.217389,56.284582
476878,Mejlbyvej,8530,652,10.221596,56.28861
476879,Mejlbyvej,8530,653,10.217447,56.286153
476880,Mejlbyvej,8530,654B,10.218436,56.290178
476881,Mejlbyvej,8530,655,10.217528,56.287195
476882,Mejlbyvej,8530,656,10.21844,56.290443
476883,Mejlbyvej,8530,657,10.217727,56.290809
476884,Mejlbyvej,8530,658,10.221169,56.290466
476885,Mejlbyvej,8530,659,10.217861,56.291069
476886,Mejlbyvej,8530,660,10.218256,56.291829
476887,Mejlbyvej,8530,662,10.218643,56.29306
476888,Mejlbyvej,8530,664,10.217502,56.295969
476889,Mejlbyvej,8530,665,10.214571,56.299655
476890,Mejlbyvej,8530,666,10.215378,56.299548
476891,Mejlbyvej,8530,667,10.214335,56.29981
476892,Mejlbyvej,8530,668,10.21515,56.299726
476893,Mejlbyvej,8530,669,10.214005,56.299989
476894,Mejlbyvej,8530,670,10.214927,56.300042
476895,Mejlbyvej,8530,672,10.214444,56.300173
476896,Mejlbyvej,8530,673,10.213453,56.300493
476897,Mejlbyvej,8530,674,10.214041,56.300559
476898,Mejlbyvej,8530,675,10.21336,56.300687
476899,Mejlbyvej,8530,676,10.213744,56.300953
476900,Mejlbyvej,8530,678,10.21341,56.301077
476901,Mejlbyvej,8530,679,10.213176,56.300972
476902,Mejlbyvej,8530,685,10.212705,56.301318
476903,Mejlbyvej,8530,686,10.213038,56.301818
476904,Mejlbyvej,8530,687,10.212205,56.301565
476905,Mejlbyvej,8530,687A,10.212044,56.301621
476906,Mejlbyvej,8530,688,10.212513,56.301805
476907,Mejlbyvej,8530,689,10.210983,56.301865
476908,Mejlbyvej,8530,689A,10.210496,56.301923
476909,Mejlbyvej,8530,689B,10.210714,56.302182
476910,Mejlbyvej,8530,690A,10.211955,56.302021
476911,Mejlbyvej,8530,690B,10.211743,56.302226
476912,Mejlbyvej,8530,691,10.210569,56.302318
476913,Mejlbyvej,8530,692,10.210768,56.302855
476914,Mejlbyvej,8530,693,10.210375,56.302482
476915,Mejlbyvej,8530,695,10.210239,56.302586
476916,Mejlbyvej,8530,696,10.209459,56.316038
476917,Mejlbyvej,8530,697,10.210054,56.302691
476918,Mejlbyvej,8530,699,10.209675,56.302731
476919,Mejlbyvej,8530,701,10.209262,56.302888
477085,Melosvej,8530,1,10.219709,56.285071
477086,Melosvej,8530,2,10.219176,56.28478
477087,Melosvej,8530,3,10.219708,56.284936
477088,Melosvej,8530,4,10.219089,56.284578
477089,Melosvej,8530,5,10.219789,56.284747
477090,Melosvej,8530,6,10.2191,56.284367
477091,Melosvej,8530,7,10.219698,56.284563
477092,Melosvej,8530,9,10.219716,56.284383
477093,Melosvej,8530,11,10.219687,56.28419
478292,Mykenevej,8530,1,10.217699,56.284996
478293,Mykenevej,8530,2,10.217685,56.284727
478294,Mykenevej,8530,3,10.218048,56.285024
478295,Mykenevej,8530,4,10.218053,56.28449
478296,Mykenevej,8530,5,10.218387,56.284963
478297,Mykenevej,8530,6,10.218276,56.284685
478298,Mykenevej,8530,7,10.218795,56.284846
478299,Mykenevej,8530,8,10.218634,56.284583
478413,Myrhøjvej,8530,2,10.26442,56.265713
478414,Myrhøjvej,8530,22,10.260793,56.265408
478415,Myrhøjvej,8530,26,10.255021,56.268526
478556,Mølleager,8530,1,10.268175,56.252511
478557,Mølleager,8530,2,10.268851,56.252562
478558,Mølleager,8530,3,10.268195,56.252695
478559,Mølleager,8530,4,10.268822,56.252751
478560,Mølleager,8530,5,10.268207,56.252991
478561,Mølleager,8530,6,10.268789,56.25294
478562,Mølleager,8530,7,10.267861,56.252968
478563,Mølleager,8530,8,10.268796,56.253124
478564,Mølleager,8530,9,10.267573,56.252948
478565,Mølleager,8530,10,10.268692,56.253305
478566,Mølleager,8530,11,10.26738,56.253242
478567,Mølleager,8530,12,10.268622,56.253499
478568,Mølleager,8530,13,10.267814,56.253283
478569,Mølleager,8530,14,10.268526,56.25368
478570,Mølleager,8530,15,10.268125,56.253392
478571,Mølleager,8530,16,10.268283,56.253853
478572,Mølleager,8530,17,10.267951,56.253564
478573,Mølleager,8530,19,10.267706,56.253773
478584,Mølledalen,8530,1,10.266788,56.252466
478585,Mølledalen,8530,2,10.267533,56.252495
478586,Mølledalen,8530,3,10.266688,56.252643
478587,Mølledalen,8530,4,10.267412,56.252671
478588,Mølledalen,8530,5,10.266564,56.252806
478589,Mølledalen,8530,6,10.267204,56.252947
478590,Mølledalen,8530,7,10.266482,56.252995
478591,Mølledalen,8530,8,10.267062,56.253182
478592,Mølledalen,8530,9,10.266413,56.253185
478593,Mølledalen,8530,10,10.266857,56.253454
478594,Mølledalen,8530,11,10.266388,56.253333
478595,Mølledalen,8530,12,10.267171,56.253554
478596,Mølledalen,8530,13,10.266279,56.253536
478597,Mølledalen,8530,14,10.267415,56.253695
478598,Mølledalen,8530,15A,10.266165,56.253744
478599,Mølledalen,8530,15B,10.26604,56.253714
478600,Mølledalen,8530,17,10.26656,56.253812
478601,Mølledalen,8530,18,10.268134,56.253989
478602,Mølledalen,8530,19,10.266845,56.253917
478603,Mølledalen,8530,21,10.267086,56.254004
478604,Mølledalen,8530,23,10.267338,56.254128
478605,Mølledalen,8530,25,10.267619,56.254206
478606,Mølledalen,8530,27,10.267878,56.254338
479167,Nedermarksvej,8530,3,10.212497,56.321685
482094,Ogstrupgårdsvej,8530,1,10.212095,56.305053
482095,Ogstrupgårdsvej,8530,2,10.218556,56.305196
482096,Ogstrupgårdsvej,8530,4,10.215074,56.310468
482097,Ogstrupgårdsvej,8530,6,10.215629,56.311986
482098,Ogstrupgårdsvej,8530,10,10.217606,56.31672
482099,Ogstrupgårdsvej,8530,11,10.212642,56.314302
482100,Ogstrupgårdsvej,8530,12,10.217243,56.320857
482101,Ogstrupgårdsvej,8530,13,10.215819,56.319307
482102,Ogstrupgårdsvej,8530,14,10.214201,56.322153
485222,Præstemarken,8530,1,10.213495,56.26815
485223,Præstemarken,8530,2,10.213063,56.26748
485224,Præstemarken,8530,3,10.220584,56.266373
485225,Præstemarken,8530,4,10.214865,56.267076
485226,Præstemarken,8530,5,10.224115,56.265534
485227,Præstemarken,8530,6,10.224335,56.26506
485228,Præstemarken,8530,8,10.227571,56.264556
485229,Præstemarken,8530,9,10.227697,56.265
485230,Præstemarken,8530,11,10.234611,56.264284
486207,Risvang,8530,1,10.193747,56.284376
486208,Risvang,8530,2,10.195324,56.287964
486209,Risvang,8530,3,10.192899,56.283876
486210,Risvang,8530,5,10.188428,56.281866
486211,Risvang,8530,7,10.186862,56.281693
486306,Risvangsvej,8530,6,10.170415,56.296648
486307,Risvangsvej,8530,8,10.17174,56.296101
486308,Risvangsvej,8530,10,10.172956,56.294099
486309,Risvangsvej,8530,12,10.17149,56.292904
486310,Risvangsvej,8530,14,10.175605,56.290251
486311,Risvangsvej,8530,16,10.176839,56.294377
486312,Risvangsvej,8530,18,10.178743,56.292184
486313,Risvangsvej,8530,20,10.184575,56.291585
486314,Risvangsvej,8530,25,10.187193,56.291717
486315,Risvangsvej,8530,27,10.189724,56.291252
486316,Risvangsvej,8530,29,10.200064,56.287451
486317,Risvangsvej,8530,30,10.196573,56.283522
486318,Risvangsvej,8530,31,10.201519,56.290433
486319,Risvangsvej,8530,32,10.210714,56.284458
486320,Risvangsvej,8530,33,10.205105,56.286081
486321,Risvangsvej,8530,34,10.215715,56.282904
486322,Risvangsvej,8530,35,10.213635,56.284286
486323,Risvangsvej,8530,37,10.214073,56.284169
486324,Risvangsvej,8530,39,10.214663,56.284002
486325,Risvangsvej,8530,41,10.214967,56.283918
486326,Risvangsvej,8530,43,10.215392,56.283581
486327,Risvangsvej,8530,45,10.215873,56.283244
489575,Salonikivej,8530,7,10.216006,56.284937
489576,Salonikivej,8530,9,10.215945,56.284717
489577,Salonikivej,8530,10,10.217345,56.286455
489578,Salonikivej,8530,11,10.215912,56.284506
489579,Salonikivej,8530,12,10.217002,56.287285
489580,Salonikivej,8530,13,10.21585,56.284291
489581,Salonikivej,8530,15,10.215449,56.284228
489582,Salonikivej,8530,17,10.215105,56.284285
489583,Salonikivej,8530,19,10.2148,56.284355
489584,Salonikivej,8530,21,10.214544,56.284475
489585,Salonikivej,8530,23,10.214183,56.28451
489586,Salonikivej,8530,25,10.213922,56.284593
489587,Salonikivej,8530,26,10.214406,56.286965
489588,Salonikivej,8530,27,10.213761,56.284801
489589,Salonikivej,8530,29,10.213806,56.284873
489590,Salonikivej,8530,31,10.213867,56.284962
489591,Salonikivej,8530,33,10.213908,56.285029
489592,Salonikivej,8530,35,10.213959,56.285105
489593,Salonikivej,8530,37,10.21424,56.284904
489594,Salonikivej,8530,39,10.214617,56.284829
489595,Salonikivej,8530,40,10.209074,56.290153
489596,Salonikivej,8530,41,10.214983,56.284753
489597,Salonikivej,8530,43,10.214958,56.284628
489598,Salonikivej,8530,45,10.214821,56.284661
489599,Salonikivej,8530,47,10.214693,56.28468
489600,Salonikivej,8530,49,10.214556,56.284708
489601,Salonikivej,8530,51,10.214437,56.284727
489602,Salonikivej,8530,53,10.2143,56.28476
489603,Salonikivej,8530,55,10.215546,56.284663
489604,Salonikivej,8530,57,10.215516,56.284618
489605,Salonikivej,8530,59,10.215487,56.284573
489606,Salonikivej,8530,61,10.215544,56.284465
489607,Salonikivej,8530,63,10.215463,56.284479
489608,Salonikivej,8530,65,10.215386,56.284498
489609,Salonikivej,8530,67,10.215307,56.284512
489610,Salonikivej,8530,69,10.215235,56.284526
489611,Salonikivej,8530,71,10.215174,56.284545
489612,Salonikivej,8530,73,10.215079,56.284559
489613,Salonikivej,8530,75,10.21524,56.284751
489614,Salonikivej,8530,77,10.215362,56.284808
489615,Salonikivej,8530,79,10.215406,56.284871
489616,Salonikivej,8530,81,10.215516,56.284919
489617,Salonikivej,8530,83,10.215557,56.284986
489618,Salonikivej,8530,85,10.215374,56.28537
489619,Salonikivej,8530,87,10.215044,56.285431
489620,Salonikivej,8530,89,10.215258,56.285564
489621,Salonikivej,8530,91,10.21519,56.285574
489622,Salonikivej,8530,93,10.215091,56.285592
489623,Salonikivej,8530,95,10.214974,56.285607
489624,Salonikivej,8530,97,10.214728,56.285502
489625,Salonikivej,8530,99,10.214675,56.285426
489626,Salonikivej,8530,101,10.214338,56.285461
489627,Salonikivej,8530,103,10.214369,56.285523
489628,Salonikivej,8530,105,10.21442,56.285595
489629,Salonikivej,8530,107,10.214471,56.285666
489630,Salonikivej,8530,109,10.214514,56.285733
489656,Samosvej,8530,1,10.219355,56.285501
489657,Samosvej,8530,2,10.219967,56.285342
489658,Samosvej,8530,3,10.219475,56.285671
489659,Samosvej,8530,4,10.220135,56.285619
489660,Samosvej,8530,5,10.219494,56.28585
489661,Samosvej,8530,6,10.220138,56.285817
489662,Samosvej,8530,7,10.219621,56.285988
489663,Samosvej,8530,8,10.220276,56.285991
489664,Samosvej,8530,9,10.219678,56.28619
489665,Samosvej,8530,11,10.219743,56.286364
489666,Samosvej,8530,12,10.220479,56.286155
489667,Samosvej,8530,13,10.219572,56.286725
489668,Samosvej,8530,14,10.220502,56.286339
489669,Samosvej,8530,15,10.219964,56.286546
490209,Sastrupvej,8530,4,10.263708,56.250894
490210,Sastrupvej,8530,5,10.264054,56.250607
490211,Sastrupvej,8530,6A,10.263936,56.251193
490212,Sastrupvej,8530,6B,10.263413,56.251189
490213,Sastrupvej,8530,7,10.264114,56.25009
490214,Sastrupvej,8530,8,10.263245,56.250935
490215,Sastrupvej,8530,9,10.264077,56.250311
490216,Sastrupvej,8530,10,10.263075,56.250707
490217,Sastrupvej,8530,11,10.263556,56.250451
490218,Sastrupvej,8530,50,10.253998,56.254511
490219,Sastrupvej,8530,401,10.255228,56.250679
490434,Sensommervej,8530,11,10.264442,56.243559
490435,Sensommervej,8530,13,10.264261,56.243507
490436,Sensommervej,8530,15,10.264098,56.243468
490437,Sensommervej,8530,18,10.264617,56.244195
490438,Sensommervej,8530,20,10.26478,56.244238
490439,Sensommervej,8530,22,10.264469,56.244349
490440,Sensommervej,8530,24,10.264642,56.244392
490441,Sensommervej,8530,26,10.264901,56.244439
490442,Sensommervej,8530,28,10.265058,56.244474
490443,Sensommervej,8530,30,10.264753,56.244607
490444,Sensommervej,8530,31,10.264461,56.243833
490445,Sensommervej,8530,32,10.264906,56.244646
490446,Sensommervej,8530,33,10.264345,56.243793
490447,Sensommervej,8530,35,10.264227,56.243768
490448,Sensommervej,8530,37,10.264103,56.243675
490449,Sensommervej,8530,39,10.264008,56.243649
490450,Sensommervej,8530,41,10.263881,56.243618
490451,Sensommervej,8530,43,10.263722,56.243571
490452,Sensommervej,8530,45,10.263593,56.243532
490453,Sensommervej,8530,47,10.263824,56.243057
490454,Sensommervej,8530,49,10.26369,56.243023
490455,Sensommervej,8530,51,10.263591,56.243311
490456,Sensommervej,8530,53,10.263458,56.243272
490457,Sensommervej,8530,55,10.263442,56.243466
490458,Sensommervej,8530,57,10.263308,56.243436
490459,Sensommervej,8530,59,10.263271,56.243638
490460,Sensommervej,8530,61,10.263167,56.243599
490461,Sensommervej,8530,63,10.263124,56.243792
490462,Sensommervej,8530,65,10.263022,56.243753
490463,Sensommervej,8530,67,10.262991,56.243942
490464,Sensommervej,8530,69,10.262893,56.243916
490465,Sensommervej,8530,71,10.262859,56.244101
490466,Sensommervej,8530,73,10.262741,56.244066
490467,Sensommervej,8530,75,10.263287,56.244222
490468,Sensommervej,8530,77,10.263172,56.244183
490469,Sensommervej,8530,79,10.263058,56.244144
490470,Sensommervej,8530,81,10.26334,56.244001
490471,Sensommervej,8530,83,10.263218,56.243971
490472,Sensommervej,8530,85,10.263496,56.243829
490473,Sensommervej,8530,87,10.264262,56.244041
490474,Sensommervej,8530,89,10.264158,56.244002
490475,Sensommervej,8530,91,10.26405,56.243976
490476,Sensommervej,8530,93,10.264135,56.244186
490477,Sensommervej,8530,95,10.264032,56.244156
490478,Sensommervej,8530,97,10.26391,56.244126
490479,Sensommervej,8530,99,10.263855,56.244297
490480,Sensommervej,8530,101,10.263749,56.244271
490481,Sensommervej,8530,103,10.263625,56.244246
490482,Sensommervej,8530,151,10.262342,56.244686
490483,Sensommervej,8530,153,10.262303,56.244726
490484,Sensommervej,8530,155,10.262251,56.244776
490485,Sensommervej,8530,157,10.262212,56.244831
490486,Sensommervej,8530,159,10.262121,56.244944
490487,Sensommervej,8530,161,10.262123,56.244989
490488,Sensommervej,8530,163,10.262106,56.245038
490489,Sensommervej,8530,165,10.262099,56.245092
490490,Sensommervej,8530,167,10.262567,56.244921
490491,Sensommervej,8530,169,10.262439,56.244887
490492,Sensommervej,8530,171,10.262686,56.244776
490493,Sensommervej,8530,173,10.262565,56.244746
490494,Sensommervej,8530,175,10.263273,56.244932
490495,Sensommervej,8530,177,10.263125,56.244893
490496,Sensommervej,8530,179,10.263146,56.245082
490497,Sensommervej,8530,181,10.263022,56.245074
490498,Sensommervej,8530,183,10.262814,56.245022
490499,Sensommervej,8530,185,10.262552,56.245119
490500,Sensommervej,8530,187,10.262387,56.245112
493494,Skolelodden,8530,1,10.214703,56.299497
493495,Skolelodden,8530,2,10.213491,56.299607
493496,Skolelodden,8530,3,10.214904,56.299279
493497,Skolelodden,8530,4,10.213083,56.299566
493498,Skolelodden,8530,5,10.215182,56.299128
493499,Skolelodden,8530,6,10.212777,56.299515
493500,Skolelodden,8530,7,10.215412,56.298955
493501,Skolelodden,8530,8,10.212414,56.299479
493502,Skolelodden,8530,9,10.215532,56.298693
493503,Skolelodden,8530,10,10.213937,56.299306
493504,Skolelodden,8530,12,10.213595,56.299301
493505,Skolelodden,8530,14,10.213307,56.299209
493506,Skolelodden,8530,16,10.212931,56.299168
493507,Skolelodden,8530,18,10.21259,56.299162
493508,Skolelodden,8530,20,10.214488,56.298991
493509,Skolelodden,8530,22,10.214103,56.298981
493510,Skolelodden,8530,24,10.213779,56.298917
493511,Skolelodden,8530,26,10.213516,56.298852
493512,Skolelodden,8530,28,10.213197,56.298743
493513,Skolelodden,8530,30,10.212859,56.298751
493514,Skolelodden,8530,32,10.214764,56.298683
493515,Skolelodden,8530,34,10.214462,56.29865
493516,Skolelodden,8530,36,10.214107,56.298595
493517,Skolelodden,8530,38,10.213741,56.298518
493518,Skolelodden,8530,40,10.213384,56.298463
493519,Skolelodden,8530,42,10.213003,56.298412
493520,Skolelodden,8530,44,10.215047,56.298397
493521,Skolelodden,8530,46,10.214596,56.298307
493522,Skolelodden,8530,48,10.214286,56.29822
493523,Skolelodden,8530,50,10.21395,56.298143
493524,Skolelodden,8530,52,10.213536,56.298093
493525,Skolelodden,8530,54,10.213261,56.298015
493891,Skovager,8530,1,10.273923,56.245708
493892,Skovager,8530,3,10.27381,56.245134
493893,Skovager,8530,4,10.273222,56.245661
493894,Skovager,8530,5,10.274183,56.245229
493895,Skovager,8530,6,10.273255,56.245032
493896,Skovager,8530,7,10.274499,56.245441
493897,Skovager,8530,8,10.272865,56.244883
493898,Skovager,8530,9,10.274919,56.245545
493899,Skovager,8530,10,10.27307,56.244679
493900,Skovager,8530,12,10.273436,56.24481
493901,Skovager,8530,13,10.274431,56.245033
493902,Skovager,8530,14,10.273731,56.244591
493903,Skovager,8530,15,10.274052,56.244858
493904,Skovager,8530,16,10.273365,56.244451
493905,Skovager,8530,17,10.274433,56.244674
493906,Skovager,8530,18,10.273735,56.243989
493907,Skovager,8530,19,10.274743,56.244882
493908,Skovager,8530,20,10.274173,56.244187
493909,Skovager,8530,21,10.275229,56.244989
493910,Skovager,8530,22,10.274055,56.244386
493911,Skovager,8530,23,10.275365,56.244732
493912,Skovager,8530,25,10.274996,56.244605
493913,Skovager,8530,27,10.27466,56.244406
496111,Skødstrupvej,8530,2,10.262089,56.253251
496112,Skødstrupvej,8530,48,10.27179,56.255892
496113,Skødstrupvej,8530,49,10.273417,56.25686
496114,Skødstrupvej,8530,56,10.274042,56.256655
496115,Skødstrupvej,8530,59,10.275525,56.257768
496116,Skødstrupvej,8530,135,10.279592,56.259173
496117,Skødstrupvej,8530,137,10.276951,56.262484
496118,Skødstrupvej,8530,146,10.285111,56.257817
496119,Skødstrupvej,8530,163,10.288331,56.259608
496120,Skødstrupvej,8530,168,10.290632,56.258047
496121,Skødstrupvej,8530,169,10.288892,56.259894
496122,Skødstrupvej,8530,171,10.290314,56.259497
496123,Skødstrupvej,8530,179,10.290895,56.25972
496492,Smedebakken,8530,1,10.264518,56.251191
496493,Smedebakken,8530,2,10.264938,56.251209
496494,Smedebakken,8530,3,10.26339,56.251778
496495,Smedebakken,8530,3A,10.263903,56.251606
496496,Smedebakken,8530,4,10.26521,56.251207
496497,Smedebakken,8530,5,10.264567,56.251689
496498,Smedebakken,8530,6,10.265072,56.251455
496499,Smedebakken,8530,7,10.264507,56.251892
496500,Smedebakken,8530,8,10.265034,56.251622
496501,Smedebakken,8530,9,10.264551,56.252107
496502,Smedebakken,8530,11,10.26453,56.252179
496503,Smedebakken,8530,13,10.264511,56.252274
496504,Smedebakken,8530,14,10.26485,56.25259
496505,Smedebakken,8530,16,10.265027,56.253181
496666,Smøgen,8530,2,10.206173,56.267943
496667,Smøgen,8530,4,10.206319,56.26773
496668,Smøgen,8530,6,10.205873,56.267784
497790,Sortemosevej,8530,8,10.290632,56.251084
497791,Sortemosevej,8530,10,10.290753,56.253149
497792,Sortemosevej,8530,64,10.287019,56.261328
497793,Sortemosevej,8530,65,10.285831,56.261538
497794,Sortemosevej,8530,77,10.285522,56.263846
497795,Sortemosevej,8530,78,10.288783,56.264012
497796,Sortemosevej,8530,80,10.289583,56.26437
497797,Sortemosevej,8530,80A,10.288241,56.264187
497798,Sortemosevej,8530,89,10.283184,56.264356
497799,Sortemosevej,8530,116,10.283027,56.267953
497800,Sortemosevej,8530,120,10.283651,56.268828
497853,Spartavej,8530,2,10.217884,56.285412
497854,Spartavej,8530,3,10.218778,56.285628
497855,Spartavej,8530,4,10.218158,56.285351
497856,Spartavej,8530,6,10.218474,56.285276
497857,Spartavej,8530,8,10.218752,56.285229
497858,Spartavej,8530,10,10.219099,56.285203
498168,Spørringvej,8530,1,10.21183,56.30165
498169,Spørringvej,8530,3,10.211493,56.301622
498170,Spørringvej,8530,4,10.210746,56.301611
498171,Spørringvej,8530,5,10.211182,56.301539
498172,Spørringvej,8530,6,10.209918,56.301547
498173,Spørringvej,8530,9,10.209956,56.300972
498174,Spørringvej,8530,10,10.209173,56.301199
498175,Spørringvej,8530,11,10.209384,56.300892
498176,Spørringvej,8530,12,10.204626,56.300242
498177,Spørringvej,8530,13,10.208997,56.300824
498178,Spørringvej,8530,14,10.201942,56.300497
498179,Spørringvej,8530,15,10.207528,56.300443
498180,Spørringvej,8530,15A,10.206686,56.300455
498181,Spørringvej,8530,17,10.199687,56.298295
498182,Spørringvej,8530,19,10.195911,56.296566
498183,Spørringvej,8530,23,10.193803,56.297876
498184,Spørringvej,8530,25,10.192549,56.297412
498185,Spørringvej,8530,27,10.191468,56.297641
498186,Spørringvej,8530,28,10.188447,56.298192
498187,Spørringvej,8530,30,10.183451,56.299682
498188,Spørringvej,8530,31,10.187309,56.296361
498189,Spørringvej,8530,33,10.181833,56.296041
498190,Spørringvej,8530,34,10.180511,56.298542
498191,Spørringvej,8530,35,10.179351,56.298176
498192,Spørringvej,8530,36,10.175677,56.298229
498193,Spørringvej,8530,37,10.177124,56.296984
498194,Spørringvej,8530,38,10.174626,56.298284
498195,Spørringvej,8530,40,10.177288,56.30272
498196,Spørringvej,8530,41,10.173635,56.29764
498197,Spørringvej,8530,42,10.175072,56.299636
498198,Spørringvej,8530,46,10.174056,56.298617
499205,Stendyssevej,8530,3,10.261142,56.244136
499206,Stendyssevej,8530,5,10.261082,56.244321
499207,Stendyssevej,8530,7,10.261046,56.244479
499208,Stendyssevej,8530,9,10.261224,56.244697
499209,Stendyssevej,8530,11,10.260993,56.244852
499210,Stendyssevej,8530,13,10.26106,56.245031
499211,Stendyssevej,8530,14,10.261569,56.245259
499212,Stendyssevej,8530,15,10.260995,56.245238
499213,Stendyssevej,8530,17,10.260795,56.245398
500138,Storbakken,8530,2,10.243791,56.263644
501181,Svinget,8530,1,10.267941,56.244979
501182,Svinget,8530,7,10.267816,56.245506
501183,Svinget,8530,9,10.268025,56.245804
503602,Tinghøjvej,8530,1,10.265645,56.264842
503603,Tinghøjvej,8530,2,10.266526,56.265156
503604,Tinghøjvej,8530,4,10.265709,56.265336
503605,Tinghøjvej,8530,6,10.265395,56.265482
503606,Tinghøjvej,8530,36,10.264437,56.271629
503607,Tinghøjvej,8530,57,10.258905,56.274579
503608,Tinghøjvej,8530,58,10.26527,56.274909
506468,Trojavej,8530,10,10.216749,56.29125
506469,Trojavej,8530,11,10.217272,56.291034
506470,Trojavej,8530,12,10.216514,56.29106
506471,Trojavej,8530,13,10.21704,56.290906
506472,Trojavej,8530,14,10.216257,56.290905
506473,Trojavej,8530,15,10.216796,56.290756
506474,Trojavej,8530,16,10.215966,56.290697
506475,Trojavej,8530,17,10.21664,56.290605
506476,Trojavej,8530,18,10.215619,56.290538
506477,Trojavej,8530,19,10.216418,56.290517
506478,Trojavej,8530,20,10.215306,56.29029
506479,Trojavej,8530,22,10.214991,56.290122
506480,Trojavej,8530,24,10.214658,56.289986
506481,Trojavej,8530,25,10.215505,56.289883
506482,Trojavej,8530,26A,10.214434,56.289813
506483,Trojavej,8530,26B,10.214301,56.289733
506484,Trojavej,8530,27,10.215124,56.289793
506485,Trojavej,8530,29,10.214729,56.289599
506524,Tronkærvej,8530,61,10.272264,56.269334
506525,Tronkærvej,8530,73,10.272569,56.270459
506526,Tronkærvej,8530,85,10.273442,56.271142
506527,Tronkærvej,8530,95,10.273618,56.271962
507648,Vanggårdsvej,8530,1A,10.216872,56.283077
507649,Vanggårdsvej,8530,1B,10.217453,56.283309
507650,Vanggårdsvej,8530,1C,10.217758,56.283167
507651,Vanggårdsvej,8530,1D,10.21786,56.283166
507652,Vanggårdsvej,8530,1E,10.217949,56.283165
507653,Vanggårdsvej,8530,1F,10.218046,56.28316
507654,Vanggårdsvej,8530,2,10.217708,56.282781
507655,Vanggårdsvej,8530,4,10.217204,56.282777
507656,Vanggårdsvej,8530,6,10.217193,56.282494
507657,Vanggårdsvej,8530,8,10.218562,56.28271
507658,Vanggårdsvej,8530,10,10.218445,56.282505
507659,Vanggårdsvej,8530,12,10.217786,56.282349
507660,Vanggårdsvej,8530,14,10.218225,56.282309
507661,Vanggårdsvej,8530,16,10.218949,56.28223
507662,Vanggårdsvej,8530,18,10.219251,56.282515
507663,Vanggårdsvej,8530,20,10.218901,56.282536
510110,Virupvej,8530,2,10.26533,56.250765
510111,Virupvej,8530,4,10.264525,56.250531
510112,Virupvej,8530,4A,10.264529,56.250342
510113,Virupvej,8530,4B,10.264886,56.250482
510114,Virupvej,8530,4C,10.264756,56.250483
510115,Virupvej,8530,4D,10.26521,56.250569
510116,Virupvej,8530,6,10.26545,56.250499
510117,Virupvej,8530,7,10.266245,56.250976
510118,Virupvej,8530,8,10.265728,56.250415
510119,Virupvej,8530,10,10.265953,56.25048
510120,Virupvej,8530,11,10.267072,56.250931
510121,Virupvej,8530,12,10.266281,56.250414
510122,Virupvej,8530,13,10.267802,56.251081
510123,Virupvej,8530,14,10.266429,56.250215
510124,Virupvej,8530,15,10.267041,56.250465
510125,Virupvej,8530,16,10.266584,56.25006
510126,Virupvej,8530,17,10.2677869,56.2493736
510127,Virupvej,8530,39,10.267806,56.247527
510128,Virupvej,8530,40A,10.266552,56.248452
510129,Virupvej,8530,40B,10.266971,56.24843
510130,Virupvej,8530,40C,10.26666,56.248667
510131,Virupvej,8530,40D,10.266657,56.248815
510132,Virupvej,8530,40E,10.266137,56.248928
510133,Virupvej,8530,40G,10.265567,56.249019
510134,Virupvej,8530,40H,10.265454,56.248805
510135,Virupvej,8530,40J,10.266029,56.248709
510136,Virupvej,8530,42A,10.264936,56.248887
510137,Virupvej,8530,42B,10.265092,56.249119
510138,Virupvej,8530,42C,10.26441,56.249207
510139,Virupvej,8530,42D,10.264333,56.248965
510140,Virupvej,8530,43,10.267956,56.246686
510141,Virupvej,8530,44A,10.264263,56.248655
510142,Virupvej,8530,44B,10.264217,56.248436
510143,Virupvej,8530,44C,10.264134,56.248198
510144,Virupvej,8530,44D,10.264069,56.247957
510145,Virupvej,8530,44E,10.264753,56.24781
510146,Virupvej,8530,44G,10.264724,56.248107
510147,Virupvej,8530,44H,10.264731,56.248327
510148,Virupvej,8530,44J,10.264955,56.248563
510149,Virupvej,8530,45A,10.268905,56.246892
510150,Virupvej,8530,45B,10.267971,56.246461
510151,Virupvej,8530,46A,10.265416,56.248455
510152,Virupvej,8530,46B,10.265392,56.248159
510153,Virupvej,8530,46C,10.265313,56.247953
510154,Virupvej,8530,46D,10.265231,56.247734
510155,Virupvej,8530,46E,10.265774,56.247584
510156,Virupvej,8530,46G,10.265821,56.247804
510157,Virupvej,8530,46H,10.265927,56.248023
510158,Virupvej,8530,46J,10.265881,56.248261
510159,Virupvej,8530,47,10.26828,56.24639
510160,Virupvej,8530,48A,10.266599,56.24803
510161,Virupvej,8530,48B,10.266494,56.247788
510162,Virupvej,8530,48C,10.266296,56.247552
510163,Virupvej,8530,48D,10.266892,56.247447
510164,Virupvej,8530,48E,10.266994,56.247639
510165,Virupvej,8530,48G,10.267065,56.24798
510166,Virupvej,8530,49,10.269135,56.246458
510167,Virupvej,8530,49A,10.269458,56.246257
510168,Virupvej,8530,49B,10.269897,56.246567
510169,Virupvej,8530,49C,10.269626,56.246709
510170,Virupvej,8530,49E,10.269884,56.246257
510171,Virupvej,8530,49G,10.269041,56.246185
510172,Virupvej,8530,50,10.266665,56.247121
510173,Virupvej,8530,51,10.268582,56.246113
510174,Virupvej,8530,53,10.268677,56.245879
510175,Virupvej,8530,55,10.26895,56.245782
510176,Virupvej,8530,56,10.267586,56.246429
510177,Virupvej,8530,57,10.269002,56.245597
510178,Virupvej,8530,58,10.26772,56.246275
510179,Virupvej,8530,59,10.269128,56.245389
510180,Virupvej,8530,60,10.26789,56.246134
510181,Virupvej,8530,61A,10.270055,56.245388
510182,Virupvej,8530,61B,10.269975,56.245358
510183,Virupvej,8530,61C,10.269897,56.245314
510184,Virupvej,8530,61D,10.269788,56.245292
510185,Virupvej,8530,61E,10.269716,56.245248
510186,Virupvej,8530,61F,10.269637,56.245222
510187,Virupvej,8530,61G,10.269567,56.245196
510188,Virupvej,8530,62,10.268075,56.246029
510189,Virupvej,8530,63,10.269603,56.2448
510190,Virupvej,8530,64,10.268442,56.245764
510191,Virupvej,8530,65,10.269708,56.244601
510192,Virupvej,8530,66,10.268589,56.245592
510193,Virupvej,8530,67,10.269879,56.244496
510194,Virupvej,8530,68,10.26869,56.245384
510195,Virupvej,8530,69,10.270296,56.244451
510196,Virupvej,8530,70,10.268912,56.245184
510197,Virupvej,8530,71,10.270724,56.244636
510198,Virupvej,8530,72,10.26924,56.244763
510199,Virupvej,8530,75,10.272163,56.243192
510200,Virupvej,8530,80,10.268247,56.244257
510201,Virupvej,8530,84,10.269918,56.243898
510202,Virupvej,8530,85,10.276999,56.242832
510203,Virupvej,8530,132,10.271285,56.241175
510204,Virupvej,8530,134,10.271058,56.240517
510205,Virupvej,8530,138,10.273249,56.241622
510206,Virupvej,8530,166,10.275241,56.239638
510207,Virupvej,8530,168,10.276083,56.23896
510208,Virupvej,8530,170,10.274235,56.239496
788541,Mejlbyvej,8530,701,10.20944,56.30293
788581,Håruptoften,8530,8,10.22078,56.28183
788582,Håruptoften,8530,6,10.220895,56.281573
788583,Håruptoften,8530,2,10.220904,56.281159
788584,Håruptoften,8530,4,10.220732,56.281399
788585,Håruptoften,8530,12,10.22079,56.282257
788586,Håruptoften,8530,10,10.22078,56.282046
806164,Sensommervej,8530,2,10.265014,56.243764
806165,Sensommervej,8530,4,10.265148,56.243799
806166,Sensommervej,8530,6,10.26531,56.243918
806167,Sensommervej,8530,8,10.265446,56.243953
806168,Sensommervej,8530,10,10.264778,56.244014
806169,Sensommervej,8530,12,10.264922,56.244057
806170,Sensommervej,8530,14,10.265156,56.244086
806171,Sensommervej,8530,16,10.265289,56.244121
806172,Sensommervej,8530,34,10.264328,56.244539
806173,Sensommervej,8530,50,10.264,56.244588
806174,Sensommervej,8530,70,10.264015,56.245315
806175,Sensommervej,8530,72,10.263855,56.245128
806176,Sensommervej,8530,74,10.263682,56.245301
806177,Sensommervej,8530,105,10.263571,56.244507
806178,Sensommervej,8530,107,10.263506,56.244588
806179,Sensommervej,8530,109,10.263443,56.244661
806180,Sensommervej,8530,111,10.263395,56.244729
806181,Sensommervej,8530,113,10.263014,56.244351
806182,Sensommervej,8530,115,10.262952,56.244423
806183,Sensommervej,8530,117,10.26288,56.244496
806184,Sensommervej,8530,119,10.262832,56.244568
806185,Sensommervej,8530,121,10.262692,56.244255
806186,Sensommervej,8530,123,10.262634,56.244328
806187,Sensommervej,8530,125,10.262564,56.244409
806188,Sensommervej,8530,127,10.262495,56.244486
806189,Sensommervej,8530,129,10.261889,56.244425
806190,Sensommervej,8530,131,10.261895,56.244681
806191,Sensommervej,8530,133,10.261642,56.244962
806192,Bækvangen,8530,1A,10.265191,56.249562
806197,Løvgangen,8530,1,10.267822,56.247141
806198,Løvgangen,8530,5,10.268691,56.247527
806199,Løvgangen,8530,10,10.26986,56.247053
806200,Løvgangen,8530,12,10.269594,56.247222
806201,Skødstrupvej,8530,2A,10.261302,56.253646
806202,Skødstrupvej,8530,169A,10.289607,56.260722
806203,Skødstrupvej,8530,170,10.292397,56.258208
806204,Skødstrupvej,8530,180,10.292454,56.25965
806205,Gammel Kirkevej,8530,44,10.271152,56.251712
806206,Gammel Kirkevej,8530,120,10.274594,56.251537
806207,Gammel Kirkevej,8530,122,10.274286,56.251464
806208,Gammel Kirkevej,8530,124,10.274306,56.251598
806209,Gammel Kirkevej,8530,126,10.273965,56.251611
806210,Gammel Kirkevej,8530,128,10.273841,56.251455
806211,Gammel Kirkevej,8530,130,10.273567,56.251305
806212,Gammel Kirkevej,8530,132,10.273348,56.251159
806213,Gammel Kirkevej,8530,134,10.273439,56.251019
806214,Gammel Kirkevej,8530,136,10.273636,56.250918
806215,Gammel Kirkevej,8530,138,10.273829,56.251132
806216,Gammel Kirkevej,8530,140,10.274063,56.251242
806217,Gammel Kirkevej,8530,142,10.274398,56.251243
806218,Gammel Kirkevej,8530,144,10.274745,56.251167
806219,Gammel Kirkevej,8530,146,10.274892,56.251013
806220,Gammel Kirkevej,8530,148,10.274942,56.250743
806221,Gammel Kirkevej,8530,150,10.275235,56.250735
806222,Gammel Kirkevej,8530,152,10.27554,56.250737
806223,Gammel Kirkevej,8530,154,10.275617,56.251001
806224,Gammel Kirkevej,8530,156,10.27534,56.250995
806225,Gammel Kirkevej,8530,158,10.275675,56.251167
806226,Gammel Kirkevej,8530,160,10.275712,56.251395
806227,Gammel Kirkevej,8530,162,10.275349,56.251372
806228,Gammel Kirkevej,8530,164,10.27532,56.251202
806229,Gammel Kirkevej,8530,166,10.275023,56.251402
806230,Gammel Kirkevej,8530,170,10.277479,56.251485
806231,Smedebakken,8530,1A,10.263963,56.251408
806232,Smedebakken,8530,15,10.264269,56.252694
806233,Smedebakken,8530,19,10.263116,56.252742
806234,Smedebakken,8530,21,10.262988,56.252694
806235,Smedebakken,8530,23,10.262845,56.252677
806236,Smedebakken,8530,25,10.262719,56.252656
806237,Smedebakken,8530,27,10.262557,56.25264
806238,Smedebakken,8530,29,10.263268,56.252493
806239,Smedebakken,8530,31,10.263122,56.252445
806240,Smedebakken,8530,33,10.262994,56.252393
806241,Smedebakken,8530,35,10.262869,56.252345
806242,Smedebakken,8530,37,10.262763,56.252305
806243,Smedebakken,8530,39,10.262625,56.252329
806244,Smedebakken,8530,41,10.262491,56.252349
806245,Smedebakken,8530,43,10.262334,56.252368
806246,Smedebakken,8530,45,10.262182,56.252379
806247,Smedebakken,8530,47,10.26222,56.252571
806248,Smedebakken,8530,49,10.261943,56.252615
806249,Smedebakken,8530,51,10.261783,56.252616
806250,Smedebakken,8530,53,10.261637,56.252604
806251,Smedebakken,8530,55,10.261532,56.252848
806252,Smedebakken,8530,57,10.261671,56.25286
806253,Smedebakken,8530,59,10.261849,56.25284
806254,Smedebakken,8530,61,10.262038,56.252811
806255,Smedebakken,8530,63,10.262724,56.25289
806256,Hjortshøj Møllevej,8530,148B,10.269702,56.251264
806257,Højager,8530,37,10.276232,56.246493
806258,Højager,8530,39,10.276281,56.246515
806259,Højager,8530,41,10.276319,56.246487
806260,Højager,8530,63,10.276575,56.245829
806261,Sortemosevej,8530,25A,10.280943,56.25529
806262,Sortemosevej,8530,25B,10.281046,56.255334
806263,Sortemosevej,8530,25C,10.281205,56.255333
806264,Sortemosevej,8530,25D,10.28091,56.255596
806265,Sortemosevej,8530,65A,10.285648,56.261626
806266,Sortemosevej,8530,65B,10.285653,56.261698
806267,Sortemosevej,8530,67,10.285872,56.262836
806268,Sortemosevej,8530,79,10.285448,56.263986
806269,Sortemosevej,8530,90,10.282348,56.265191
806270,Sortemosevej,8530,100,10.28245,56.265788
806271,Sortemosevej,8530,142,10.286382,56.267517
806272,Hundkærvej,8530,25,10.26305,56.2455
806273,Hjortshøj Stationsvej,8530,2,10.268866,56.245091
806274,Hjortshøj Stationsvej,8530,31,10.267992,56.244529
806275,Hjortshøj Stationsvej,8530,33,10.264605,56.242919
806277,Skovager,8530,11,10.274963,56.245351
806278,Virupvej,8530,5,10.26568,56.251098
806279,Virupvej,8530,37,10.268111,56.247646
806280,Virupvej,8530,38,10.266759,56.248989
806281,Virupvej,8530,97,10.274563,56.241878
806282,Virupvej,8530,113,10.276294,56.239156
806283,Virupvej,8530,115,10.280141,56.241681
806284,Asmusvænget,8530,5A,10.260913,56.242341
806285,Asmusvænget,8530,5B,10.260561,56.242455
806286,Kankbøllevej,8530,28,10.27756,56.247423
806287,Kankbøllevej,8530,30,10.277959,56.247481
806288,Kankbøllevej,8530,32,10.278309,56.247631
806289,Kankbøllevej,8530,34,10.278418,56.248106
806290,Kankbøllevej,8530,36,10.277965,56.247962
806291,Kankbøllevej,8530,38,10.277654,56.247772
806292,Sastrupvej,8530,3,10.264288,56.250726
806293,Hesselballevej,8530,17,10.264903,56.256457
806294,Hesselballevej,8530,34,10.267199,56.260684
806295,Hesselballevej,8530,38,10.267601,56.262001
806296,Hesselballevej,8530,40,10.267774,56.262289
806297,Hesselballevej,8530,42,10.267915,56.262456
806298,Hesselballevej,8530,47,10.262108,56.260974
806299,Hesselballevej,8530,49,10.267026,56.263664
806300,Hesselballevej,8530,49A,10.267475,56.263489
806301,Hesselballevej,8530,55,10.267063,56.264243
806302,Hesselballevej,8530,57,10.26697,56.264273
806303,Hesselballevej,8530,58,10.268601,56.263762
806304,Svinget,8530,3A,10.267534,56.245275
806305,Svinget,8530,3B,10.267438,56.245271
806306,Svinget,8530,3C,10.267285,56.24512
806307,Svinget,8530,3D,10.267199,56.245135
806308,Svinget,8530,3E,10.267174,56.245279
806309,Svinget,8530,3F,10.267089,56.245293
806310,Svinget,8530,5A,10.267357,56.245506
806311,Svinget,8530,5B,10.267258,56.245507
806312,Svinget,8530,5C,10.267059,56.245446
806313,Svinget,8530,5D,10.26697,56.245433
806314,Svinget,8530,5E,10.266932,56.245596
806315,Svinget,8530,5F,10.266844,56.245601
806316,Svinget,8530,5G,10.267236,56.245669
806317,Svinget,8530,5H,10.267142,56.245674
806318,Svinget,8530,6,10.268093,56.245193
806319,Svinget,8530,8,10.268053,56.245368
806327,Mejlbyvej,8530,276,10.261293,56.243726
806328,Mejlbyvej,8530,278,10.262618,56.243811
806329,Mejlbyvej,8530,280,10.261188,56.243956
806330,Mejlbyvej,8530,370,10.261127,56.247838
806331,Mejlbyvej,8530,608B,10.222124,56.280577
806332,Mejlbyvej,8530,654A,10.218266,56.289919
806333,Mejlbyvej,8530,663,10.217495,56.294127
806334,Mejlbyvej,8530,663A,10.217081,56.295681
806335,Mejlbyvej,8530,680,10.212697,56.301632
806336,Mejlbyvej,8530,681,10.212978,56.301108
806337,Mejlbyvej,8530,682,10.213681,56.301465
806338,Mejlbyvej,8530,682A,10.214646,56.301411
806339,Mejlbyvej,8530,690C,10.21128,56.302235
806340,Banetoften,8530,8,10.262549,56.24179
806341,Banetoften,8530,10,10.262261,56.241627
806342,Banetoften,8530,12,10.262028,56.241863
815300,Korsvej,8530,1A,10.238193,56.273404
815301,Korsvej,8530,21,10.238457,56.272022
815302,Korsvej,8530,23,10.238734,56.271849
815303,Korsvej,8530,25,10.239023,56.271684
815304,Korsvej,8530,27,10.239348,56.271537
815305,Korsvej,8530,49,10.230255,56.26466
815306,Engtoftevej,8530,6A,10.207038,56.268923
815307,Engtoftevej,8530,6B,10.207186,56.269164
815308,Engtoftevej,8530,6C,10.207619,56.269052
815309,Engtoftevej,8530,8A,10.20655,56.269107
815310,Engtoftevej,8530,8B,10.205457,56.269554
815311,Grimsbrovej,8530,3,10.211967,56.268744
815312,Grimsbrovej,8530,25,10.231839,56.27751
815313,Klokbakken,8530,6A,10.206471,56.265994
815314,Klokbakken,8530,7,10.207382,56.265945
815315,Klokbakken,8530,16,10.203103,56.260277
815316,Klokbakken,8530,19,10.205766,56.258889
815317,Hæstvej,8530,2,10.202754,56.268641
815318,Hæstvej,8530,2A,10.205313,56.267951
815319,Hæstvej,8530,7,10.188732,56.264306
815320,Lille Todbjerg,8530,9B,10.214489,56.263162
815321,Bøggildsvej,8530,24E,10.212288,56.270201
815322,Bøggildsvej,8530,43,10.214571,56.277758
815323,Bøggildsvej,8530,45A,10.209197,56.276606
815324,Bøggildsvej,8530,45B,10.215423,56.28022
829927,Salonikivej,8530,1,10.216785,56.285571
829928,Salonikivej,8530,2,10.217175,56.285981
829929,Salonikivej,8530,3,10.216988,56.285264
829930,Salonikivej,8530,5A,10.21646,56.285309
829931,Salonikivej,8530,5B,10.21632,56.285086
829932,Salonikivej,8530,5C,10.215922,56.285391
829933,Salonikivej,8530,5D,10.215795,56.285204
829934,Salonikivej,8530,80,10.216659,56.286565
829935,Salonikivej,8530,83A,10.215179,56.285147
829936,Salonikivej,8530,111,10.214642,56.286009
829937,Vanggårdsvej,8530,1G,10.218168,56.283154
829938,Vanggårdsvej,8530,1H,10.218175,56.283226
829939,Vanggårdsvej,8530,1K,10.218177,56.283298
829940,Vanggårdsvej,8530,1L,10.21819,56.283374
829941,Vanggårdsvej,8530,1M,10.218446,56.28294
829942,Vanggårdsvej,8530,1N,10.217883,56.282959
829943,Vanggårdsvej,8530,3,10.21982,56.28281
829944,Risvangsvej,8530,21,10.190033,56.294772
829945,Risvangsvej,8530,29A,10.19736,56.289211
829946,Risvangsvej,8530,33B,10.206998,56.285649
829947,Risvangsvej,8530,33C,10.210902,56.284798
829948,Melosvej,8530,13,10.220133,56.284186
839940,Hastruptoften,8530,1,10.268106,56.248558
839941,Hastruptoften,8530,2,10.26803,56.248302
839942,Hastruptoften,8530,3,10.268148,56.248467
839943,Hastruptoften,8530,4,10.268033,56.248217
839944,Hastruptoften,8530,5,10.268407,56.248361
839945,Hastruptoften,8530,6,10.268042,56.2481
839946,Hastruptoften,8530,7,10.268452,56.248271
839947,Hastruptoften,8530,8,10.268045,56.24801
839948,Hastruptoften,8530,9,10.268499,56.248154
839949,Hastruptoften,8530,10,10.267928,56.247913
839950,Hastruptoften,8530,11,10.268548,56.248063
839951,Hastruptoften,8530,12,10.267932,56.247823
839952,Hastruptoften,8530,13,10.268602,56.247951
839953,Hastruptoften,8530,15,10.268629,56.247865
839954,Hastruptoften,8530,17,10.268619,56.247775
839955,Hastruptoften,8530,19,10.26846,56.247381
841672,Østergårdstoften,8530,1,10.268913,56.250612
841673,Østergårdstoften,8530,3,10.269516,56.250309
841674,Østergårdstoften,8530,5,10.269544,56.250362
841675,Østergårdstoften,8530,7,10.26957,56.250416
841676,Østergårdstoften,8530,9,10.269877,56.250359
841677,Østergårdstoften,8530,10,10.270049,56.24958
841678,Østergårdstoften,8530,11,10.270026,56.250335
841679,Østergårdstoften,8530,12,10.26993,56.249572
841680,Østergårdstoften,8530,13,10.27014,56.25032
841681,Østergårdstoften,8530,14,10.269808,56.249565
841682,Østergårdstoften,8530,15,10.270369,56.250287
841683,Østergårdstoften,8530,16,10.269688,56.249552
841684,Østergårdstoften,8530,17,10.270497,56.250267
841685,Østergårdstoften,8530,18,10.269569,56.24954
841686,Østergårdstoften,8530,19,10.270617,56.250248
841687,Østergårdstoften,8530,20,10.269326,56.249475
841688,Østergårdstoften,8530,21,10.270419,56.250088
841689,Østergårdstoften,8530,22,10.269294,56.249417
841690,Østergårdstoften,8530,23,10.270277,56.24991
841691,Østergårdstoften,8530,24,10.269274,56.249354
841692,Østergårdstoften,8530,25,10.270195,56.249934
841693,Østergårdstoften,8530,26,10.269242,56.249287
841694,Østergårdstoften,8530,27,10.270083,56.249957
841695,Østergårdstoften,8530,28,10.269215,56.249225
841696,Østergårdstoften,8530,29,10.26999,56.249981
841697,Østergårdstoften,8530,30,10.269192,56.249158
841698,Østergårdstoften,8530,31,10.269824,56.250023
841699,Østergårdstoften,8530,32,10.269165,56.249104
841700,Østergårdstoften,8530,33,10.269737,56.250046
841701,Østergårdstoften,8530,34,10.269631,56.249126
841702,Østergårdstoften,8530,35,10.269625,56.250074
841703,Østergårdstoften,8530,36,10.269761,56.249134
841704,Østergårdstoften,8530,37,10.269523,56.250093
841705,Østergårdstoften,8530,38,10.269892,56.249146
841706,Østergårdstoften,8530,40,10.270024,56.249158
841707,Østergårdstoften,8530,42,10.270162,56.249166
841708,Østergårdstoften,8530,44,10.270288,56.249178
841709,Østergårdstoften,8530,46,10.270417,56.24919
841710,Østergårdstoften,8530,50,10.270609,56.248927
841711,Østergårdstoften,8530,52,10.270591,56.249008
841712,Østergårdstoften,8530,54,10.270282,56.248899
841713,Østergårdstoften,8530,56,10.27026,56.248985
841714,Østergårdstoften,8530,58,10.269961,56.248876
841715,Østergårdstoften,8530,60,10.269936,56.248966
841716,Østergårdstoften,8530,62,10.269633,56.248843
841717,Østergårdstoften,8530,64,10.269609,56.248933
841718,Østergårdstoften,8530,66,10.269306,56.248819
841719,Østergårdstoften,8530,68,10.269284,56.248901
841720,Østergårdstoften,8530,70,10.2694,56.248594
841721,Østergårdstoften,8530,72,10.26955,56.248606
841722,Østergårdstoften,8530,74,10.269721,56.248618
841723,Østergårdstoften,8530,76,10.269874,56.248629
841724,Østergårdstoften,8530,78,10.270024,56.248641
841725,Østergårdstoften,8530,80,10.270317,56.248665
841726,Østergårdstoften,8530,82,10.27047,56.248677
841727,Østergårdstoften,8530,84,10.270624,56.248689
841728,Østergårdstoften,8530,86,10.27078,56.248701
841729,Østergårdstoften,8530,88,10.270899,56.248709
841730,Østergårdstoften,8530,90,10.27098,56.248479
841731,Østergårdstoften,8530,92,10.27088,56.248475
841732,Østergårdstoften,8530,94,10.270788,56.248467
841733,Østergårdstoften,8530,96,10.2707,56.248455
841734,Østergårdstoften,8530,98,10.270597,56.248447
841735,Østergårdstoften,8530,100,10.270504,56.248443
841736,Østergårdstoften,8530,102,10.270349,56.248431
841737,Østergårdstoften,8530,104,10.270249,56.248423
841738,Østergårdstoften,8530,106,10.270157,56.248415
841739,Østergårdstoften,8530,108,10.270059,56.248407
841740,Østergårdstoften,8530,110,10.270086,56.248079
841741,Østergårdstoften,8530,112,10.270175,56.248087
841742,Østergårdstoften,8530,114,10.270269,56.248095
841743,Østergårdstoften,8530,116,10.270357,56.248103
841744,Østergårdstoften,8530,118,10.270527,56.248115
841745,Østergårdstoften,8530,120,10.270618,56.248123
841746,Østergårdstoften,8530,122,10.270689,56.248149
841747,Østergårdstoften,8530,124,10.270776,56.248135
841748,Østergårdstoften,8530,126,10.270873,56.248138
841749,Østergårdstoften,8530,128,10.270949,56.248165
841750,Østergårdstoften,8530,130,10.271041,56.248155
841751,Østergårdstoften,8530,132,10.271147,56.248163
841752,Østergårdstoften,8530,134,10.271232,56.248189
841753,Østergårdstoften,8530,136,10.271495,56.248011
841754,Østergårdstoften,8530,138,10.271351,56.247999
841755,Østergårdstoften,8530,140,10.271205,56.247991
841756,Østergårdstoften,8530,142,10.270971,56.247967
841757,Østergårdstoften,8530,144,10.270813,56.247955
841758,Østergårdstoften,8530,146,10.27047,56.247945
841759,Østergårdstoften,8530,148,10.270502,56.247823
841760,Østergårdstoften,8530,150,10.270858,56.247676
841761,Østergårdstoften,8530,152,10.270884,56.247563
841762,Østergårdstoften,8530,154,10.271176,56.247709
841763,Østergårdstoften,8530,156,10.27121,56.247582
841764,Østergårdstoften,8530,158,10.271483,56.247728
841765,Østergårdstoften,8530,160,10.271509,56.247606
841766,Østergårdstoften,8530,162,10.271788,56.247761
841767,Østergårdstoften,8530,164,10.271876,56.247647
841768,Virup Skovvej,8530,1,10.27086,56.242071
841769,Virup Skovvej,8530,3,10.271151,56.242178
841770,Virup Skovvej,8530,5,10.271477,56.24221
841771,Virup Skovvej,8530,7,10.271799,56.242212
841772,Virup Skovvej,8530,9,10.271757,56.241961
841773,Virup Skovvej,8530,11,10.271466,56.241925
841774,Virup Skovvej,8530,13,10.271161,56.241853
841775,Virup Skovvej,8530,15,10.270867,56.241821
841776,Virup Skovvej,8530,17,10.270457,56.241673
841777,Virup Skovvej,8530,19,10.270086,56.2417
841778,Virup Skovvej,8530,21,10.269766,56.241756
841779,Virup Skovvej,8530,23,10.269619,56.24207
841780,Virup Skovvej,8530,25,10.270058,56.242057
841781,Virup Skovvej,8530,27,10.270426,56.241977
842249,Clemensvej,8530,4A,10.239891,56.273432
842250,Balshøje,8530,7,10.258728,56.282978
842258,Tronkærvej,8530,2,10.267418,56.265637
842259,Tronkærvej,8530,3,10.266343,56.265612
842260,Tronkærvej,8530,48,10.275629,56.269551
842261,Tronkærvej,8530,50,10.277784,56.269475
842262,Tronkærvej,8530,76,10.273769,56.270532
844947,Attikavej,8530,49,10.212053,56.286265
844950,Krannestrup,8530,1A,10.230367,56.308741
844951,Krannestrup,8530,1B,10.230247,56.308733
844952,Kretavej,8530,4,10.217204,56.290091
844953,Kretavej,8530,6,10.217467,56.290183
844954,Ogstrupgårdsvej,8530,7,10.214593,56.311399
844955,Ogstrupgårdsvej,8530,17,10.211976,56.325395
844956,Ogstrupgårdsvej,8530,19,10.209266,56.325513
844957,Ogstrupgårdsvej,8530,21,10.213808,56.322094
844958,Spørringvej,8530,7A,10.210467,56.300895
844959,Spørringvej,8530,7B,10.210713,56.300605
844960,Spørringvej,8530,8,10.209655,56.301213
844961,Spørringvej,8530,40A,10.178489,56.304204
844962,Gyden,8530,2,10.211951,56.300745
844963,Gyden,8530,2A,10.21209,56.301121
844972,Kaløvej,8530,16,10.221302,56.30148
844975,Kalstrup,8530,20,10.189468,56.31689
844976,Koldkærvej,8530,2,10.194049,56.304522
847609,Risvang,8530,3A,10.192718,56.283851
1027499,Hjortshøjvangen,8530,6,10.273293,56.255463
1027500,Hjortshøjvangen,8530,8,10.272956,56.255719
1027501,Hjortshøjvangen,8530,10,10.272623,56.255978
1027502,Hjortshøjvangen,8530,12,10.272348,56.256033
1027503,Hjortshøjvangen,8530,14,10.272454,56.255606
1027504,Hjortshøjvangen,8530,16,10.272688,56.255415
1027505,Hjortshøjvangen,8530,18,10.272949,56.255231
1027506,Hjortshøjvangen,8530,20,10.273372,56.255148
1027507,Hjortshøjvangen,8530,22,10.273789,56.255315
1027508,Hjortshøjvangen,8530,24,10.274253,56.255481
1027509,Hjortshøjvangen,8530,26,10.274549,56.25523
1027510,Hjortshøjvangen,8530,28,10.274306,56.255096
1027511,Hjortshøjvangen,8530,30,10.273887,56.25493
1027512,Hjortshøjvangen,8530,34,10.273542,56.254365
1027513,Hjortshøjvangen,8530,36,10.273826,56.254664
1027514,Hjortshøjvangen,8530,38,10.274188,56.254793
1027515,Hjortshøjvangen,8530,40,10.274589,56.254911
1027516,Hjortshøjvangen,8530,42,10.274839,56.25473
1027517,Hjortshøjvangen,8530,44,10.274541,56.254545
1027518,Hjortshøjvangen,8530,46,10.274183,56.254384
1027519,Hjortshøjvangen,8530,48,10.273936,56.254168
1027520,Hjortshøjvangen,8530,50,10.273662,56.254005
1027521,Hjortshøjvangen,8530,52,10.273704,56.253651
1027522,Hjortshøjvangen,8530,54,10.273957,56.253816
1027523,Hjortshøjvangen,8530,56,10.274318,56.254032
1027524,Hjortshøjvangen,8530,58,10.274576,56.254176
1027525,Hjortshøjvangen,8530,60,10.274786,56.25439
1027526,Hjortshøjvangen,8530,62,10.275139,56.254635
1027527,Hjortshøjvangen,8530,64,10.275561,56.254482
1027528,Hjortshøjvangen,8530,66,10.275307,56.254201
1027529,Hjortshøjvangen,8530,68,10.275149,56.253989
1027530,Hjortshøjvangen,8530,70,10.27473,56.253797
1027531,Hjortshøjvangen,8530,72,10.274598,56.253587
1027532,Hjortshøjvangen,8530,74,10.27419,56.253475
1027533,Hjortshøjvangen,8530,76,10.274923,56.253021
1027534,Hjortshøjvangen,8530,78,10.274987,56.253274
1027535,Hjortshøjvangen,8530,80,10.27518,56.253495
1027536,Hjortshøjvangen,8530,82,10.275381,56.253627
1027537,Hjortshøjvangen,8530,84,10.275496,56.253943
1027538,Hjortshøjvangen,8530,86,10.275657,56.254156
1027539,Hjortshøjvangen,8530,88,10.27596,56.254468
1027540,Hjortshøjvangen,8530,90,10.276362,56.254312
1027541,Hjortshøjvangen,8530,92,10.276285,56.254112
1027542,Hjortshøjvangen,8530,94,10.27622,56.253844
1027543,Hjortshøjvangen,8530,96,10.275988,56.253612
1027544,Hjortshøjvangen,8530,124,10.276572,56.253606
1027545,Hjortshøjvangen,8530,126,10.276661,56.253897
1027546,Hjortshøjvangen,8530,128,10.276768,56.254255
1582112,Mejlbyparken,8530,1,10.216277,56.297055
1582113,Mejlbyparken,8530,2,10.216107,56.297421
1582114,Mejlbyparken,8530,3,10.216299,56.296992
1582115,Mejlbyparken,8530,4,10.215945,56.297741
1582116,Mejlbyparken,8530,5,10.21635,56.296839
1582117,Mejlbyparken,8530,6,10.215364,56.297922
1582118,Mejlbyparken,8530,7,10.216379,56.29678
1582119,Mejlbyparken,8530,8,10.214993,56.297767
1582120,Mejlbyparken,8530,9,10.216434,56.296631
1582121,Mejlbyparken,8530,10,10.215478,56.29762
1582122,Mejlbyparken,8530,11,10.216467,56.296577
1582123,Mejlbyparken,8530,12,10.215736,56.29725
1582124,Mejlbyparken,8530,13,10.216536,56.296336
1582125,Mejlbyparken,8530,14,10.215196,56.297551
1582126,Mejlbyparken,8530,15,10.216435,56.296322
1582127,Mejlbyparken,8530,16,10.214888,56.297458
1582128,Mejlbyparken,8530,17,10.216144,56.296275
1582129,Mejlbyparken,8530,18,10.214554,56.297427
1582130,Mejlbyparken,8530,19,10.216041,56.29626
1582131,Mejlbyparken,8530,20,10.214183,56.29739
1582132,Mejlbyparken,8530,21,10.215764,56.296218
1582133,Mejlbyparken,8530,22,10.214554,56.297791
1582134,Mejlbyparken,8530,23,10.215648,56.296203
1582135,Mejlbyparken,8530,24,10.214111,56.297701
1582136,Mejlbyparken,8530,25,10.215316,56.296151
1582137,Mejlbyparken,8530,26,10.213699,56.297291
1582138,Mejlbyparken,8530,27,10.215214,56.296132
1582139,Mejlbyparken,8530,28,10.213887,56.29705
1582140,Mejlbyparken,8530,29,10.214998,56.296107
1582141,Mejlbyparken,8530,30,10.214286,56.29703
1582142,Mejlbyparken,8530,31,10.21491,56.296092
1582143,Mejlbyparken,8530,33,10.214683,56.296078
1582144,Mejlbyparken,8530,35,10.214566,56.296063
1582145,Mejlbyparken,8530,37,10.214364,56.296044
1582146,Mejlbyparken,8530,39,10.214261,56.296027
1582147,Mejlbyparken,8530,41,10.21422,56.296235
1582148,Mejlbyparken,8530,43,10.214195,56.296289
1582149,Mejlbyparken,8530,45,10.214104,56.296447
1582150,Mejlbyparken,8530,47,10.214075,56.296502
1582151,Mejlbyparken,8530,49,10.213992,56.296646
1582152,Mejlbyparken,8530,51,10.213983,56.2967
1582153,Mejlbyparken,8530,53,10.214415,56.296741
1582154,Mejlbyparken,8530,55,10.214511,56.296758
1582155,Mejlbyparken,8530,57,10.214563,56.29651
1582156,Mejlbyparken,8530,59,10.2146,56.296461
1582157,Mejlbyparken,8530,61,10.214666,56.296334
1582158,Mejlbyparken,8530,63,10.214683,56.296284
1582159,Mejlbyparken,8530,65,10.215548,56.296415
1582160,Mejlbyparken,8530,67,10.215653,56.296432
1582161,Mejlbyparken,8530,69,10.216034,56.296496
1582162,Mejlbyparken,8530,71,10.216007,56.29655
1582163,Mejlbyparken,8530,73,10.215919,56.296713
1582164,Mejlbyparken,8530,75,10.215886,56.296762
1582165,Mejlbyparken,8530,77,10.215807,56.29692
1582166,Mejlbyparken,8530,79,10.215784,56.296975
1582167,Parosvej,8530,1,10.216919,56.292965
1582168,Parosvej,8530,3,10.2174,56.293037
1582169,Parosvej,8530,5,10.21744,56.292856
1582170,Parosvej,8530,7,10.217489,56.2926
1582171,Parosvej,8530,9,10.217546,56.292321
1582172,Parosvej,8530,11,10.217577,56.292046
1582173,Parosvej,8530,13,10.217577,56.291786
1582174,Parosvej,8530,15,10.217587,56.291507
1582175,Parosvej,8530,17,10.217395,56.291388
1582176,Parosvej,8530,19,10.216667,56.291696
1582177,Parosvej,8530,21,10.217123,56.291854
1582178,Parosvej,8530,23,10.217103,56.292148
1582179,Parosvej,8530,25,10.217087,56.292414
1582180,Parosvej,8530,27,10.216645,56.292357
1582181,Parosvej,8530,29,10.216522,56.292121
1582182,Parosvej,8530,31,10.216354,56.291968
1582183,Parosvej,8530,33,10.216236,56.29233
1582184,Parosvej,8530,35,10.216161,56.292599
1582185,Parosvej,8530,37,10.216079,56.292797
1582186,Parosvej,8530,39,10.216354,56.29289
1582187,Parosvej,8530,41,10.216797,56.292643
2117120,Engvej,8530,2,10.212699,56.300599
2117130,Engvej,8530,2A,10.212366,56.300503
2117137,Engvej,8530,4,10.211389,56.300419
2117149,Engvej,8530,7,10.210988,56.300009
2117157,Engvej,8530,9,10.209178,56.298782
2117169,Engvej,8530,15,10.207689,56.295153
2117689,Gammel Kaløvej,8530,1,10.214415,56.300892
2117700,Gammel Kaløvej,8530,2,10.214682,56.300418
2117710,Gammel Kaløvej,8530,3,10.214236,56.301231
2117715,Gammel Kaløvej,8530,4,10.214865,56.300443
2117725,Gammel Kaløvej,8530,5,10.214713,56.301073
2117731,Gammel Kaløvej,8530,6,10.215603,56.30044
2117742,Gammel Kaløvej,8530,7,10.215106,56.301087
2117750,Gammel Kaløvej,8530,9,10.215527,56.30111
2117755,Gammel Kaløvej,8530,11,10.215868,56.301129
2117770,Gammel Kaløvej,8530,13,10.216282,56.301134
2117776,Gammel Kaløvej,8530,15,10.216702,56.301256
2117791,Gammel Kaløvej,8530,17,10.217251,56.301179
2117806,Gammel Kaløvej,8530,19,10.218043,56.301256
2117814,Gammel Kaløvej,8530,21,10.218384,56.301289
2117835,Gammel Kaløvej,8530,23,10.218579,56.301696
2117842,Gammel Kaløvej,8530,27,10.21931,56.301437
2117855,Gammel Kaløvej,8530,29,10.219902,56.30149
2190682,Hjortshøjvangen,8530,114,10.276556,56.25309
2190793,Mejlbyparken,8530,950,10.215241,56.297059
2190794,Mejlbyparken,8530,951,10.213645,56.297552
2190795,Mejlbyparken,8530,952,10.215711,56.297935
2196601,Gammel Kirkevej,8530,116A,10.272588,56.251517
2196602,Gammel Kirkevej,8530,116B,10.2734767,56.2516384
2196603,Gammel Kirkevej,8530,951,10.274412,56.251084
2196604,Gammel Kirkevej,8530,953,10.274973,56.25165
2196605,Gammel Kirkevej,8530,954,10.273594,56.251082
2196606,Kankbøllevej,8530,950,10.277294,56.247508
2198065,Hastruptoften,8530,950,10.2684442,56.2476761
2198591,Trojavej,8530,950,10.213962,56.290309
2217930,Virup Skovvej,8530,6,10.267183,56.24262
2217931,Virup Skovvej,8530,29A,10.268549,56.241911
2217932,Virup Skovvej,8530,31,10.269771,56.241319
2217933,Virup Skovvej,8530,33,10.269696,56.241331
2217934,Virup Skovvej,8530,35,10.269624,56.241339
2217935,Virup Skovvej,8530,37,10.269546,56.241348
2217936,Virup Skovvej,8530,39,10.26947,56.241384
2217937,Virup Skovvej,8530,41,10.2693853,56.2413925
2217938,Virup Skovvej,8530,43,10.269318,56.241401
2217939,Virup Skovvej,8530,45,10.269222,56.241447
2217940,Virup Skovvej,8530,47,10.269137,56.241454
2217941,Virup Skovvej,8530,51A,10.268843,56.241543
2217942,Virup Skovvej,8530,51B,10.268786,56.24155
2217943,Virup Skovvej,8530,53A,10.2686191,56.2415844
2217944,Virup Skovvej,8530,53B,10.2685612,56.2415907
2217945,Virup Skovvej,8530,55A,10.268401,56.241632
2217946,Virup Skovvej,8530,55B,10.268346,56.24164
2217947,Virup Skovvej,8530,57A,10.268237,56.241654
2217948,Virup Skovvej,8530,57B,10.268183,56.241662
2217949,Virup Skovvej,8530,71,10.2673808,56.2414763
2217950,Virup Skovvej,8530,73,10.267312,56.241481
2217951,Virup Skovvej,8530,75,10.267237,56.241486
2217952,Virup Skovvej,8530,77,10.267107,56.241478
2217953,Virup Skovvej,8530,79,10.267028,56.241493
2217954,Virup Skovvej,8530,81,10.26695,56.241502
2217955,Virup Skovvej,8530,83,10.266836,56.241532
2217956,Virup Skovvej,8530,85,10.267153,56.241132
2217957,Virup Skovvej,8530,87,10.2672317,56.241127
2217958,Virup Skovvej,8530,89,10.267314,56.241112
2217959,Virup Skovvej,8530,91,10.267426,56.241098
2217960,Virup Skovvej,8530,93,10.267541,56.241097
2217961,Virup Skovvej,8530,95,10.267619,56.241087
2217962,Virup Skovvej,8530,97,10.26799,56.241069
2217963,Virup Skovvej,8530,99,10.268055,56.241058
2217964,Virup Skovvej,8530,101,10.26812,56.241044
2217965,Virup Skovvej,8530,103,10.268167,56.240996
2217966,Virup Skovvej,8530,105,10.268259,56.240976
2217967,Virup Skovvej,8530,107,10.268338,56.240948
2217968,Virup Skovvej,8530,109,10.268423,56.240934
2217969,Virup Skovvej,8530,111,10.26851,56.240914
2217970,Virup Skovvej,8530,113,10.268533,56.240893
2217971,Virup Skovvej,8530,115,10.268694,56.240875
2217972,Virup Skovvej,8530,117,10.268827,56.24092
2217973,Virup Skovvej,8530,119,10.268913,56.2409
2217974,Virup Skovvej,8530,121,10.269239,56.240935
2217975,Virup Skovvej,8530,123,10.26934,56.240975
2217976,Virup Skovvej,8530,125,10.269381,56.240934
2217977,Virup Skovvej,8530,127,10.269456,56.240956
2217978,Virup Skovvej,8530,129,10.269556,56.240968
2217979,Virup Skovvej,8530,131,10.2696116,56.2409359
2217980,Virup Skovvej,8530,133,10.2696698,56.2409583
2217981,Virup Skovvej,8530,135,10.269804,56.2407
2217982,Virup Skovvej,8530,137,10.269796,56.240723
2217983,Virup Skovvej,8530,139,10.269586,56.240706
2217984,Virup Skovvej,8530,141,10.269484,56.240692
2217985,Virup Skovvej,8530,143,10.269382,56.240664
2217986,Virup Skovvej,8530,145,10.269279,56.24067
2217987,Virup Skovvej,8530,147,10.269189,56.240657
2217988,Virup Skovvej,8530,149,10.26896,56.240629
2217989,Virup Skovvej,8530,151,10.268867,56.240619
2217990,Virup Skovvej,8530,153,10.268762,56.240608
2217991,Virup Skovvej,8530,155,10.268664,56.240602
2217992,Virup Skovvej,8530,157,10.268557,56.240589
2217993,Virup Skovvej,8530,159,10.26845,56.240578
2217994,Virup Skovvej,8530,161,10.268345,56.24055
2217995,Virup Skovvej,8530,163,10.268257,56.240545
2217996,Virup Skovvej,8530,165,10.268182,56.240531
2217997,Virup Skovvej,8530,167,10.268106,56.24052
2217998,Virup Skovvej,8530,169,10.268029,56.240508
2217999,Virup Skovvej,8530,171,10.267922,56.240486
2218000,Virup Skovvej,8530,173,10.267898,56.240526
2218001,Virup Skovvej,8530,175,10.267808,56.240499
2218002,Virup Skovvej,8530,177,10.267754,56.240544
2218003,Virup Skovvej,8530,179,10.26766,56.24052
2218004,Virup Skovvej,8530,181,10.267663,56.240655
2218005,Virup Skovvej,8530,183,10.267589,56.240714
2218006,Virup Skovvej,8530,185,10.267517,56.240786
2218007,Virup Skovvej,8530,187,10.267451,56.24085
2218008,Virup Skovvej,8530,950,10.27136,56.242455
2218009,Virup Skovvej,8530,951,10.270577,56.241842
2223290,Østergårdstoften,8530,950,10.269775,56.24973
2223291,Østergårdstoften,8530,951,10.270457,56.247729
2226347,Gammel Kirkevej,8530,82,10.272444,56.250867
2226348,Gammel Kirkevej,8530,84,10.272533,56.250817
2226349,Gammel Kirkevej,8530,86,10.272664,56.250748
2226350,Gammel Kirkevej,8530,86A,10.2728404,56.2508859
2226351,Gammel Kirkevej,8530,88,10.272759,56.250747
2226352,Gammel Kirkevej,8530,90,10.272863,56.250643
2226353,Gammel Kirkevej,8530,92,10.2729651,56.2506373
2226354,Gammel Kirkevej,8530,94,10.273106,56.250735
2226355,Gammel Kirkevej,8530,96,10.273209,56.250729
2226356,Gammel Kirkevej,8530,98,10.273386,56.250772
2226357,Gammel Kirkevej,8530,100,10.273298,56.250836
2226358,Gammel Kirkevej,8530,102,10.273121,56.25095
2226359,Gammel Kirkevej,8530,104,10.272969,56.2510283
2226360,Gammel Kirkevej,8530,106,10.27287,56.251034
2226361,Gammel Kirkevej,8530,108,10.272758,56.251035
2226362,Gammel Kirkevej,8530,110,10.272648,56.251036
2226363,Gammel Kirkevej,8530,112,10.27256,56.251037
2237129,Engvej,8530,6,10.210831,56.300433
2238173,Anneksvej,8530,2,10.2124,56.302516
2238174,Anneksvej,8530,3,10.211957,56.302372
2238175,Anneksvej,8530,3A,10.212438,56.302093
2238176,Anneksvej,8530,5,10.211744,56.30285
2238177,Anneksvej,8530,9,10.212055,56.302959
2238648,Skødstrupvej,8530,65,10.27487,56.259404
2238649,Skødstrupvej,8530,136,10.27635,56.257786
2239384,Risvangsvej,8530,7,10.1726833,56.2962583
2239386,Spørringvej,8530,12C,10.200785,56.297676
2253780,Clemensvej,8530,8G,10.253741,56.272591
2253844,Engtoftevej,8530,6D,10.207877,56.269436
2253852,Gammel Kirkevej,8530,51,10.2729104,56.2535995
2253894,Hjortshøjvangen,8530,32,10.273501,56.254829
2253895,Hjortshøjvangen,8530,98,10.275924,56.253388
2254117,Risvang,8530,4,10.186181,56.284817
2254118,Risvang,8530,6,10.179942,56.28556
2254251,Sortemosevej,8530,65C,10.286049,56.261689
2254360,Virup Skovvej,8530,49,10.26903,56.241465
2254361,Virup Skovvej,8530,51C,10.26873,56.241557
2254362,Virup Skovvej,8530,53C,10.268503,56.241599
2254363,Virup Skovvej,8530,55C,10.268292,56.241647
2254364,Virup Skovvej,8530,57C,10.268128,56.241669
2254365,Virup Skovvej,8530,59,10.267939,56.241641
2254366,Virup Skovvej,8530,61,10.267887,56.241648
2254367,Virup Skovvej,8530,63,10.267835,56.241655
