idx,street,postcode,housenumber,lon,lat
830312,Parallelvej,8680,1,9.7792525,56.0904945
830313,Parallelvej,8680,5,9.780202,56.0903957
922388,Nygårdsvej,8680,3,9.837539,56.085739
922389,Nygårdsvej,8680,4,9.841429,56.085174
922390,Nygårdsvej,8680,5,9.839394,56.090252
922391,Nygårdsvej,8680,7,9.841683,56.091284
922408,Hårbyvej,8680,1,9.80431,56.086635
922409,Hårbyvej,8680,1A,9.8038421,56.0863333
922410,Hårbyvej,8680,1B,9.803821,56.086617
922411,Hårbyvej,8680,1C,9.803972,56.086987
922412,Hårbyvej,8680,1D,9.804891,56.087081
922413,Hårbyvej,8680,2,9.80724,56.086185
922414,Hårbyvej,8680,3,9.8052214,56.0877102
922415,Hårbyvej,8680,4,9.806605,56.086693
922416,Hårbyvej,8680,5,9.804683,56.088281
922417,Hårbyvej,8680,6,9.807151,56.087589
922418,Hårbyvej,8680,7,9.8062212,56.0878761
922419,Hårbyvej,8680,8,9.807145,56.087802
922420,Hårbyvej,8680,9,9.80673,56.088139
922421,Hårbyvej,8680,10,9.807066,56.088063
922422,Hårbyvej,8680,11,9.806889,56.088369
922423,Hårbyvej,8680,13,9.806883,56.08872
922424,Hårbyvej,8680,13A,9.80675,56.088552
922425,Hårbyvej,8680,15,9.807335,56.088625
922426,Hårbyvej,8680,15A,9.807906,56.088712
922427,Hårbyvej,8680,17,9.808554,56.088719
922428,Hårbyvej,8680,17A,9.808327,56.088791
922429,Hårbyvej,8680,19A,9.809316,56.089273
922430,Hårbyvej,8680,19B,9.809204,56.089246
922431,Hårbyvej,8680,21,9.810574,56.08959
922432,Hårbyvej,8680,24,9.830494,56.08724
922433,Hårbyvej,8680,25,9.816488,56.089604
922434,Hårbyvej,8680,26,9.831501,56.087849
922435,Hårbyvej,8680,27,9.820241,56.088907
922436,Hårbyvej,8680,29,9.821048,56.08904
922437,Hårbyvej,8680,30,9.850074,56.086278
922438,Hårbyvej,8680,31,9.82719,56.088008
922439,Hårbyvej,8680,32,9.853298,56.086157
922440,Hårbyvej,8680,33,9.83569,56.088257
922441,Hårbyvej,8680,35,9.847596,56.088475
922442,Hårbyvej,8680,37,9.852181,56.086561
922443,Hårbyvej,8680,41,9.853207,56.086604
922444,Hårbyvej,8680,43,9.857156,56.086761
923401,Emborgvej,8680,2,9.698025,56.07346
923402,Emborgvej,8680,3,9.699189,56.07315
923403,Emborgvej,8680,4,9.69792,56.072927
923404,Emborgvej,8680,5,9.698912,56.072838
923405,Emborgvej,8680,6,9.698175,56.072477
923406,Emborgvej,8680,7,9.698858,56.07256
923407,Emborgvej,8680,9,9.699682,56.072847
923408,Emborgvej,8680,10,9.698291,56.071442
923409,Emborgvej,8680,11,9.699153,56.072405
923410,Emborgvej,8680,12A,9.6982575,56.071248
923411,Emborgvej,8680,12B,9.6979752,56.0711978
923412,Emborgvej,8680,13,9.698922,56.07219
923413,Emborgvej,8680,14,9.69841,56.071089
923414,Emborgvej,8680,15,9.698723,56.071982
923415,Emborgvej,8680,17,9.69876,56.071799
923416,Emborgvej,8680,19,9.698781,56.071633
923417,Emborgvej,8680,21A,9.6995104,56.0717009
923418,Emborgvej,8680,23,9.701824,56.069359
923419,Emborgvej,8680,28,9.724492,56.055265
923420,Emborgvej,8680,31,9.72186,56.058754
923421,Emborgvej,8680,32,9.731337,56.054007
923422,Emborgvej,8680,34,9.732566,56.051935
923423,Emborgvej,8680,36,9.729517,56.051616
923424,Emborgvej,8680,37A,9.735106,56.055907
923425,Emborgvej,8680,39,9.753398,56.053333
923427,Emborgvej,8680,41,9.75385,56.053629
923430,Emborgvej,8680,43A,9.757234,56.053027
923432,Emborgvej,8680,45,9.758298,56.05485
923533,Horsensvej,8680,3,9.696212,56.07144
923534,Horsensvej,8680,5A,9.696403,56.07126
923535,Horsensvej,8680,5B,9.69636,56.071209
923536,Horsensvej,8680,5C,9.696345,56.07113
923537,Horsensvej,8680,5D,9.696357,56.071043
923538,Horsensvej,8680,6,9.695858,56.071464
923539,Horsensvej,8680,7A,9.696693,56.07108
923540,Horsensvej,8680,7B,9.696691,56.07102
923541,Horsensvej,8680,7C,9.696726,56.070938
923542,Horsensvej,8680,7D,9.696716,56.070876
923543,Horsensvej,8680,9A,9.696272,56.070783
923544,Horsensvej,8680,9B,9.696439,56.07077
923545,Horsensvej,8680,9C,9.696496,56.070741
923546,Horsensvej,8680,9D,9.696678,56.070728
923547,Horsensvej,8680,9E,9.696729,56.070701
923548,Horsensvej,8680,9F,9.696896,56.070688
923549,Horsensvej,8680,11,9.696238,56.070582
923550,Horsensvej,8680,13A,9.697029,56.070421
923551,Horsensvej,8680,13B,9.697153,56.070224
923552,Horsensvej,8680,15A,9.697084,56.070046
923553,Horsensvej,8680,15B,9.696804,56.070239
923554,Horsensvej,8680,17,9.696419,56.07034
923555,Horsensvej,8680,19,9.696057,56.070198
923556,Horsensvej,8680,20,9.695651,56.070082
923557,Horsensvej,8680,21A,9.696261,56.069776
923558,Horsensvej,8680,21B,9.696847,56.069703
923559,Horsensvej,8680,21C,9.69751,56.069718
923560,Horsensvej,8680,21D,9.69689,56.069509
923561,Horsensvej,8680,23,9.694306,56.066767
923562,Horsensvej,8680,24,9.695581,56.069888
923563,Horsensvej,8680,26,9.695392,56.069687
923564,Horsensvej,8680,28A,9.694306,56.070053
923565,Horsensvej,8680,28B,9.69382,56.069608
923566,Horsensvej,8680,28C,9.694078,56.069269
923567,Horsensvej,8680,28D,9.693638,56.068941
923568,Horsensvej,8680,29,9.694576,56.065945
923569,Horsensvej,8680,30,9.695165,56.069381
923570,Horsensvej,8680,31,9.694823,56.06473
923571,Horsensvej,8680,32,9.69476,56.068827
923572,Horsensvej,8680,33,9.69891,56.064547
923573,Horsensvej,8680,34,9.694522,56.068452
923574,Horsensvej,8680,36,9.693508,56.068109
923575,Horsensvej,8680,38,9.693774,56.06728
923576,Horsensvej,8680,38A,9.692914,56.067374
923577,Horsensvej,8680,40,9.693639,56.066924
923578,Horsensvej,8680,42,9.69347,56.066746
923579,Horsensvej,8680,44,9.693185,56.06618
923580,Horsensvej,8680,46,9.692611,56.065955
923581,Horsensvej,8680,48,9.693046,56.065551
923582,Horsensvej,8680,50,9.691293,56.064706
923583,Horsensvej,8680,54,9.685282,56.064587
923584,Lyngdal,8680,1,9.699002,56.071314
923585,Lyngdal,8680,2,9.699146,56.07101
923586,Lyngdal,8680,3,9.699349,56.071295
923587,Lyngdal,8680,4,9.699349,56.070851
923588,Lyngdal,8680,5,9.699712,56.071338
923589,Lyngdal,8680,6,9.699429,56.070642
923590,Lyngdal,8680,7,9.700119,56.071353
923591,Lyngdal,8680,8,9.699518,56.070481
923592,Lyngdal,8680,9,9.699816,56.071129
923593,Lyngdal,8680,10,9.699741,56.070322
923594,Lyngdal,8680,12,9.699859,56.070155
923595,Lyngdal,8680,14,9.700125,56.070041
923596,Lyngdal,8680,15,9.70021,56.070443
923597,Lyngdal,8680,16,9.70031,56.069895
923598,Lyngdal,8680,17,9.700412,56.070257
923599,Lyngdal,8680,18,9.700495,56.069765
923600,Lyngdal,8680,19,9.700855,56.070118
923601,Lyngdal,8680,21,9.701047,56.069945
923602,Lyngdal,8680,23,9.701509,56.070081
923603,Lyngdal,8680,25,9.701952,56.07003
923604,Lyngdal,8680,27,9.70168,56.069833
923605,Lyngdal,8680,29,9.701289,56.06964
923606,Lyngdal,8680,31,9.700779,56.069521
923613,Gerstedvej,8680,1,9.698758,56.07011
923614,Gerstedvej,8680,2A,9.698353,56.070372
923615,Gerstedvej,8680,2B,9.698331,56.070434
923616,Gerstedvej,8680,2C,9.698296,56.070562
923617,Gerstedvej,8680,2D,9.698257,56.070635
923618,Gerstedvej,8680,2E,9.698234,56.070724
923619,Gerstedvej,8680,2F,9.698195,56.0708
923620,Gerstedvej,8680,2G,9.698571,56.07072
923621,Gerstedvej,8680,2H,9.698548,56.070782
923622,Gerstedvej,8680,3,9.699142,56.069849
923623,Gerstedvej,8680,4,9.698873,56.069563
923624,Gerstedvej,8680,5,9.699375,56.069609
923625,Gerstedvej,8680,6,9.699397,56.069294
923626,Gerstedvej,8680,7,9.699737,56.06945
923627,Gerstedvej,8680,8,9.699614,56.069139
923628,Gerstedvej,8680,9,9.69999,56.069283
923629,Gerstedvej,8680,10,9.699957,56.068959
923630,Gerstedvej,8680,11,9.700262,56.069123
923631,Gerstedvej,8680,12,9.700294,56.068768
923632,Gerstedvej,8680,13,9.700568,56.068958
923633,Gerstedvej,8680,14,9.700729,56.068401
923634,Gerstedvej,8680,15,9.701183,56.068647
923635,Gerstedvej,8680,16,9.700793,56.068214
923636,Gerstedvej,8680,17,9.701472,56.068469
923637,Gerstedvej,8680,18,9.701209,56.068268
923638,Gerstedvej,8680,19,9.701851,56.068414
923639,Ryesgade,8680,2A,9.701991,56.077248
923640,Ryesgade,8680,2B,9.701895,56.077633
923641,Ryesgade,8680,3,9.702928,56.077154
923642,Ryesgade,8680,5,9.702647,56.077117
923643,Ryesgade,8680,6,9.700764,56.077199
923644,Ryesgade,8680,7,9.702351,56.076971
923645,Ryesgade,8680,8,9.699751,56.077117
923646,Ryesgade,8680,9A,9.701951,56.077052
923647,Ryesgade,8680,9B,9.701982,56.076972
923648,Ryesgade,8680,10,9.699243,56.076345
923649,Ryesgade,8680,11,9.701791,56.076774
923650,Ryesgade,8680,12,9.699182,56.076236
923651,Ryesgade,8680,13A,9.701457,56.07697
923652,Ryesgade,8680,13B,9.701423,56.07701
923653,Ryesgade,8680,13C,9.7013261,56.0769983
923654,Ryesgade,8680,13D,9.701284,56.076973
923655,Ryesgade,8680,13E,9.701318,56.076881
923656,Ryesgade,8680,14,9.698961,56.076134
923657,Ryesgade,8680,15,9.70016,56.076789
923658,Ryesgade,8680,16,9.698928,56.075974
923659,Ryesgade,8680,17,9.6994649,56.0762153
923660,Ryesgade,8680,18,9.698794,56.07587
923661,Ryesgade,8680,19,9.69936,56.076093
923662,Ryesgade,8680,20,9.698692,56.075757
923663,Ryesgade,8680,21,9.69924,56.075979
923664,Ryesgade,8680,22,9.698593,56.07564
923665,Ryesgade,8680,23,9.69918,56.075834
923666,Ryesgade,8680,24,9.698466,56.07548
923667,Ryesgade,8680,25,9.698928,56.075668
923668,Ryesgade,8680,27,9.698743,56.075448
923669,Ryesgade,8680,28,9.698293,56.075158
923670,Ryesgade,8680,29,9.699137,56.075229
923671,Ryesgade,8680,30,9.697968,56.074631
923672,Ryesgade,8680,31,9.698786,56.07516
923673,Ryesgade,8680,31A,9.699348,56.074855
923674,Ryesgade,8680,32,9.698278,56.074471
923675,Ryesgade,8680,33,9.69856,56.074895
923676,Ryesgade,8680,34A,9.697788,56.074408
923677,Ryesgade,8680,36,9.697923,56.074187
923678,Ryesgade,8680,37,9.698652,56.074408
923679,Ryesgade,8680,38,9.697431,56.074208
923680,Ryesgade,8680,38A,9.696658,56.074189
923681,Ryesgade,8680,38B,9.696499,56.074052
923682,Ryesgade,8680,38C,9.696563,56.073796
923683,Ryesgade,8680,39,9.698515,56.074094
923684,Ryesgade,8680,40,9.697905,56.073957
923685,Ryesgade,8680,41,9.698338,56.073879
923686,Ryesgade,8680,42,9.697781,56.073721
923687,Ryesgade,8680,43,9.697266,56.072676
923688,Ryesgade,8680,44,9.697218,56.073448
923689,Ryesgade,8680,45,9.697556,56.072665
923690,Ryesgade,8680,46A,9.696836,56.073474
923691,Ryesgade,8680,46B,9.696584,56.073295
923692,Ryesgade,8680,47A,9.69706,56.072515
923693,Ryesgade,8680,47B,9.69721,56.0725
923694,Ryesgade,8680,47C,9.697455,56.072476
923695,Ryesgade,8680,47D,9.69761,56.072461
923696,Ryesgade,8680,48,9.696894,56.073288
923697,Ryesgade,8680,49,9.697065,56.072149
923698,Ryesgade,8680,50,9.697443,56.07327
923699,Ryesgade,8680,52,9.697242,56.073107
923700,Ryesgade,8680,54,9.696771,56.072895
923701,Ryesgade,8680,56,9.696167,56.073103
923702,Ryesgade,8680,58A,9.696077,56.073401
923703,Ryesgade,8680,58B,9.695816,56.073703
923704,Ryesgade,8680,60,9.696064,56.072966
923705,Ryesgade,8680,62A,9.696293,56.072579
923706,Ryesgade,8680,62B,9.696734,56.072609
923707,Ryesgade,8680,64,9.696583,56.072474
923708,Ryesgade,8680,66,9.696451,56.072428
923709,Møllestien,8680,1,9.701491,56.076567
923710,Møllestien,8680,2A,9.700887,56.076876
923711,Møllestien,8680,2B,9.70078,56.076862
923712,Møllestien,8680,2C,9.700671,56.076846
923713,Møllestien,8680,2E,9.69991,56.076554
923714,Møllestien,8680,2F,9.699838,56.076483
923715,Møllestien,8680,2G,9.6998,56.076446
923716,Møllestien,8680,2H,9.699776,56.076406
923717,Møllestien,8680,2I,9.700937,56.07671
923718,Møllestien,8680,2J,9.701057,56.076726
923719,Møllestien,8680,3,9.701548,56.076331
923720,Møllestien,8680,4,9.701086,56.076477
923721,Møllestien,8680,5,9.701899,56.076009
923722,Møllestien,8680,6,9.700771,56.076397
923723,Møllestien,8680,7,9.70224,56.076284
923724,Møllestien,8680,8,9.7005378,56.0762667
923725,Møllestien,8680,10,9.700353,56.07618
923726,Møllestien,8680,11,9.701402,56.074623
923727,Møllestien,8680,12,9.700229,56.075993
923728,Møllestien,8680,14,9.700581,56.075906
923729,Møllestien,8680,16,9.700995,56.075965
923730,Møllestien,8680,18,9.7014093,56.075957
923731,Møllestien,8680,20,9.701326,56.076099
923732,Møllestien,8680,22,9.7012603,56.0762454
930718,Klostervej,8680,1,9.758052,56.091737
930719,Klostervej,8680,2,9.757395,56.092108
930720,Klostervej,8680,3,9.758507,56.091253
930721,Klostervej,8680,3A,9.760873,56.088891
930722,Klostervej,8680,4,9.757441,56.092042
930723,Klostervej,8680,6,9.75755,56.091928
930724,Klostervej,8680,6A,9.757624,56.091836
930725,Klostervej,8680,6B,9.757474,56.091978
930726,Klostervej,8680,6C,9.757315,56.091814
930727,Klostervej,8680,6D,9.75717,56.091782
930728,Klostervej,8680,6F,9.757036,56.091751
930729,Klostervej,8680,6G,9.756822,56.091643
930730,Klostervej,8680,6H,9.756723,56.091726
930731,Klostervej,8680,7,9.763319,56.086306
930732,Klostervej,8680,8,9.757644,56.091788
930733,Klostervej,8680,8A,9.757515,56.091772
930734,Klostervej,8680,8B,9.75743,56.091717
930735,Klostervej,8680,8C,9.757169,56.091665
930736,Klostervej,8680,10,9.757723,56.091677
930737,Klostervej,8680,11,9.763548,56.085809
930738,Klostervej,8680,12,9.757778,56.091613
930739,Klostervej,8680,13,9.763665,56.085613
930740,Klostervej,8680,14,9.75785,56.091522
930741,Klostervej,8680,15,9.763735,56.085466
930742,Klostervej,8680,17,9.763809,56.085344
930743,Klostervej,8680,18,9.757975,56.091363
930744,Klostervej,8680,19A,9.763932,56.08525
930745,Klostervej,8680,19B,9.763994,56.085178
930746,Klostervej,8680,20,9.758032,56.09127
930747,Klostervej,8680,21A,9.764112,56.085082
930748,Klostervej,8680,21B,9.764177,56.085012
930749,Klostervej,8680,22,9.758093,56.091192
930750,Klostervej,8680,23A,9.764278,56.084906
930751,Klostervej,8680,23B,9.764353,56.084838
930752,Klostervej,8680,24,9.758087,56.091137
930753,Klostervej,8680,25,9.764504,56.084721
930754,Klostervej,8680,26,9.758155,56.091077
930755,Klostervej,8680,27,9.764624,56.084614
930756,Klostervej,8680,29,9.764756,56.084495
930757,Klostervej,8680,31,9.764932,56.084333
930758,Klostervej,8680,33,9.765076,56.084259
930759,Klostervej,8680,35,9.765223,56.084177
930760,Klostervej,8680,36,9.758625,56.090396
930761,Klostervej,8680,37,9.765349,56.084088
930762,Klostervej,8680,38A,9.758803,56.090112
930763,Klostervej,8680,38B,9.758356,56.089805
930764,Klostervej,8680,39,9.765295,56.083937
930765,Klostervej,8680,40,9.758856,56.090043
930766,Klostervej,8680,41,9.765499,56.083879
930767,Klostervej,8680,42A,9.758976,56.089901
930768,Klostervej,8680,42B,9.75855,56.089719
930769,Klostervej,8680,43,9.765462,56.083747
930770,Klostervej,8680,45,9.765565,56.083617
930771,Klostervej,8680,46,9.758769,56.089648
930772,Klostervej,8680,47,9.765709,56.08354
930773,Klostervej,8680,48,9.758986,56.089579
930774,Klostervej,8680,49,9.765763,56.083407
930775,Klostervej,8680,50,9.759311,56.089506
930776,Klostervej,8680,51,9.765885,56.083199
930777,Klostervej,8680,52,9.759226,56.089377
930778,Klostervej,8680,53,9.766012,56.082826
930779,Klostervej,8680,54,9.75948,56.08931
930780,Klostervej,8680,55,9.766071,56.082642
930781,Klostervej,8680,56,9.759127,56.089161
930782,Klostervej,8680,57,9.76609,56.082574
930783,Klostervej,8680,58,9.759417,56.089105
930784,Klostervej,8680,59,9.766101,56.082521
930785,Klostervej,8680,60,9.759561,56.088978
930786,Klostervej,8680,61,9.766139,56.082447
930787,Klostervej,8680,62,9.759775,56.088824
930788,Klostervej,8680,63,9.766156,56.082387
930789,Klostervej,8680,64,9.760051,56.088664
930790,Klostervej,8680,65,9.766179,56.082321
930791,Klostervej,8680,66,9.760212,56.088569
930792,Klostervej,8680,67,9.766222,56.082249
930793,Klostervej,8680,68,9.760781,56.08813
930794,Klostervej,8680,69,9.76624,56.082194
930795,Klostervej,8680,70,9.760568,56.087826
930796,Klostervej,8680,71,9.76628,56.082117
930797,Klostervej,8680,72,9.760987,56.087999
930798,Klostervej,8680,73,9.766315,56.08206
930799,Klostervej,8680,74,9.761108,56.087779
930800,Klostervej,8680,75,9.766336,56.081992
930801,Klostervej,8680,76,9.761512,56.087614
930802,Klostervej,8680,77,9.766367,56.081935
930803,Klostervej,8680,78,9.76162,56.087471
930804,Klostervej,8680,79,9.766401,56.08186
930805,Klostervej,8680,80,9.76161,56.087314
930806,Klostervej,8680,81,9.766436,56.081807
930807,Klostervej,8680,82,9.76206,56.087202
930808,Klostervej,8680,83,9.766476,56.081749
930809,Klostervej,8680,84,9.761651,56.086982
930810,Klostervej,8680,85,9.766524,56.081693
930811,Klostervej,8680,86A,9.761957,56.086882
930812,Klostervej,8680,86B,9.762006,56.08664
930813,Klostervej,8680,86C,9.76253,56.086703
930814,Klostervej,8680,87,9.766563,56.081618
930815,Klostervej,8680,88,9.76176,56.086452
930816,Klostervej,8680,89,9.766606,56.081555
930817,Klostervej,8680,90A,9.762883,56.086249
930818,Klostervej,8680,90B,9.761779,56.086232
930819,Klostervej,8680,90C,9.761922,56.08607
930820,Klostervej,8680,90D,9.761967,56.085974
930821,Klostervej,8680,90E,9.761991,56.085788
930822,Klostervej,8680,90F,9.762372,56.086045
930823,Klostervej,8680,90G,9.762745,56.085991
930824,Klostervej,8680,91,9.76683,56.081435
930825,Klostervej,8680,92A,9.762362,56.085592
930826,Klostervej,8680,92B,9.763051,56.085834
930827,Klostervej,8680,93,9.766836,56.081359
930828,Klostervej,8680,94,9.763037,56.085282
930829,Klostervej,8680,94B,9.763205,56.08507
930830,Klostervej,8680,95,9.766855,56.081163
930831,Klostervej,8680,96,9.763244,56.084836
930832,Klostervej,8680,97,9.766999,56.081041
930833,Klostervej,8680,98A,9.764052,56.084773
930834,Klostervej,8680,98B,9.763409,56.084659
930835,Klostervej,8680,98C,9.762877,56.084528
930836,Klostervej,8680,100A,9.763495,56.084475
930837,Klostervej,8680,100B,9.763286,56.084342
930838,Klostervej,8680,102A,9.76436,56.084427
930839,Klostervej,8680,102B,9.76346,56.084208
930840,Klostervej,8680,102C,9.763799,56.084222
930841,Klostervej,8680,104,9.764306,56.084219
930842,Klostervej,8680,106A,9.76443,56.084103
930843,Klostervej,8680,106B,9.76398,56.084027
930844,Klostervej,8680,108A,9.764764,56.083976
930845,Klostervej,8680,108B,9.763985,56.083859
930846,Klostervej,8680,108C,9.763277,56.083718
930847,Klostervej,8680,109,9.76787,56.079802
930848,Klostervej,8680,110A,9.764879,56.083819
930849,Klostervej,8680,116,9.76531,56.083256
930850,Klostervej,8680,120,9.765563,56.082791
930851,Klostervej,8680,122,9.76567,56.082491
930852,Klostervej,8680,124,9.765744,56.082273
930853,Klostervej,8680,126,9.765814,56.081995
930854,Klostervej,8680,128,9.765971,56.081614
930855,Klostervej,8680,130,9.766213,56.08138
930856,Klostervej,8680,136,9.764408,56.079828
930857,Klostervej,8680,138,9.766501,56.079552
930858,Klostervej,8680,140,9.766994,56.079667
930859,Klostervej,8680,142,9.767439,56.079668
930860,Klostervej,8680,148,9.765333,56.076378
930861,Klostervej,8680,148A,9.765131,56.076221
930862,Klostervej,8680,150,9.761161,56.077197
930863,Klostervej,8680,152,9.761238,56.076288
930864,Klostervej,8680,160,9.763745,56.074189
930865,Klostervej,8680,164,9.769661,56.070766
952294,Skanderborgvej,8680,3,9.758984,56.09211
952295,Skanderborgvej,8680,4,9.758425,56.092021
952296,Skanderborgvej,8680,5,9.759159,56.09208
952297,Skanderborgvej,8680,6,9.758506,56.092013
952298,Skanderborgvej,8680,7,9.759314,56.092051
952299,Skanderborgvej,8680,8,9.758713,56.0919668
952300,Skanderborgvej,8680,9,9.759422,56.092033
952301,Skanderborgvej,8680,10,9.758808,56.091951
952302,Skanderborgvej,8680,11,9.7595682,56.0920075
952303,Skanderborgvej,8680,12,9.7590269,56.0919131
952304,Skanderborgvej,8680,13,9.759738,56.09198
952305,Skanderborgvej,8680,14,9.759223,56.091879
952306,Skanderborgvej,8680,15,9.759892,56.091955
952307,Skanderborgvej,8680,16,9.759297,56.091867
952308,Skanderborgvej,8680,17,9.760129,56.091911
952309,Skanderborgvej,8680,17B,9.7601004,56.092033
952310,Skanderborgvej,8680,18,9.759498,56.091832
952311,Skanderborgvej,8680,19,9.760294,56.091883
952312,Skanderborgvej,8680,21,9.7605049,56.0918752
952313,Skanderborgvej,8680,22A,9.759739,56.09179
952314,Skanderborgvej,8680,23,9.760986,56.091806
952315,Skanderborgvej,8680,24,9.760014,56.091741
952316,Skanderborgvej,8680,25,9.761222,56.091764
952317,Skanderborgvej,8680,26,9.7602693,56.0916984
952318,Skanderborgvej,8680,27,9.761514,56.091707
952319,Skanderborgvej,8680,28,9.760436,56.091669
952320,Skanderborgvej,8680,29,9.761898,56.091619
952321,Skanderborgvej,8680,30,9.760564,56.091646
952322,Skanderborgvej,8680,31,9.762152,56.09161
952323,Skanderborgvej,8680,32,9.76071,56.091621
952324,Skanderborgvej,8680,33,9.762296,56.091547
952325,Skanderborgvej,8680,34,9.760964,56.091578
952326,Skanderborgvej,8680,35,9.762621,56.091698
952327,Skanderborgvej,8680,36,9.761086,56.091556
952328,Skanderborgvej,8680,37,9.7627878,56.0921027
952329,Skanderborgvej,8680,39,9.763007,56.091603
952330,Skanderborgvej,8680,42,9.761595,56.091468
952331,Skanderborgvej,8680,44,9.761806,56.091429
952332,Skanderborgvej,8680,49,9.764771,56.091437
952333,Skanderborgvej,8680,50,9.762392,56.091307
952334,Skanderborgvej,8680,51,9.766011,56.091081
952335,Skanderborgvej,8680,53,9.768824,56.090638
952336,Skanderborgvej,8680,60,9.764417,56.090555
952337,Skanderborgvej,8680,62A,9.765032,56.090856
952338,Skanderborgvej,8680,62B,9.765017,56.090822
952339,Skanderborgvej,8680,62C,9.764996,56.090779
952340,Skanderborgvej,8680,62D,9.765043,56.090769
952341,Skanderborgvej,8680,62E,9.765096,56.09076
952342,Skanderborgvej,8680,62F,9.765151,56.090753
952343,Skanderborgvej,8680,62G,9.765166,56.090785
952344,Skanderborgvej,8680,62H,9.765193,56.09082
952345,Skanderborgvej,8680,62I,9.765135,56.090804
952346,Skanderborgvej,8680,62J,9.765064,56.090813
952347,Skanderborgvej,8680,64,9.765403,56.090769
952348,Skanderborgvej,8680,68,9.766131,56.090637
952349,Skanderborgvej,8680,69,9.772418,56.090722
952350,Skanderborgvej,8680,72,9.76673,56.09053
952351,Skanderborgvej,8680,74,9.76716,56.090457
952352,Skanderborgvej,8680,76,9.767658,56.090369
952353,Skanderborgvej,8680,80,9.768838,56.090205
952354,Skanderborgvej,8680,81,9.776249,56.091124
952355,Skanderborgvej,8680,82,9.769427,56.090184
952356,Skanderborgvej,8680,86,9.771704,56.090006
952357,Skanderborgvej,8680,86A,9.771639,56.089816
952358,Skanderborgvej,8680,86B,9.772078,56.089235
952359,Skanderborgvej,8680,94,9.789874,56.088134
952360,Skanderborgvej,8680,95,9.821251,56.080313
952361,Skanderborgvej,8680,97,9.822586,56.080473
952362,Skanderborgvej,8680,100,9.805587,56.083958
952364,Skanderborgvej,8680,102,9.807018,56.083613
952366,Skanderborgvej,8680,104,9.811573,56.082241
952368,Skanderborgvej,8680,106,9.812877,56.082004
952370,Skanderborgvej,8680,108,9.815354,56.081326
954508,Thorsvej,8680,1A,9.774889,56.091025
954509,Thorsvej,8680,1B,9.775196,56.091302
954510,Thorsvej,8680,2,9.77588,56.091144
954511,Thorsvej,8680,3,9.774966,56.091448
954512,Thorsvej,8680,4,9.775614,56.091552
954513,Thorsvej,8680,5,9.775003,56.091669
954514,Thorsvej,8680,6,9.775466,56.091728
954515,Thorsvej,8680,7,9.774877,56.091888
954516,Thorsvej,8680,8,9.775296,56.091966
954517,Thorsvej,8680,9,9.774463,56.092418
954518,Thorsvej,8680,10,9.77517,56.092133
954519,Thorsvej,8680,11,9.77429,56.092672
954520,Thorsvej,8680,12,9.775094,56.09235
954521,Thorsvej,8680,13,9.774019,56.092998
954522,Thorsvej,8680,14,9.775,56.092561
954523,Thorsvej,8680,15,9.773624,56.093352
954524,Thorsvej,8680,16,9.774992,56.092794
954525,Thorsvej,8680,17,9.773418,56.093552
954526,Thorsvej,8680,18,9.774722,56.092885
954527,Thorsvej,8680,19,9.773202,56.093769
954528,Thorsvej,8680,20,9.774532,56.093025
954529,Thorsvej,8680,21,9.772953,56.093937
954530,Thorsvej,8680,22,9.774468,56.093225
954531,Thorsvej,8680,23,9.772677,56.094107
954532,Thorsvej,8680,24,9.774282,56.093362
954533,Thorsvej,8680,25,9.77228,56.094297
954534,Thorsvej,8680,26,9.774198,56.093511
954535,Thorsvej,8680,28,9.774039,56.093649
954536,Thorsvej,8680,30,9.773867,56.093761
954537,Thorsvej,8680,31,9.771205,56.094646
954538,Thorsvej,8680,32B,9.774844,56.094944
954539,Thorsvej,8680,32G,9.77536,56.094869
954540,Thorsvej,8680,33,9.770669,56.094798
954541,Thorsvej,8680,35,9.770227,56.094871
954542,Thorsvej,8680,36,9.773277,56.094311
954543,Thorsvej,8680,37,9.769792,56.094964
954544,Thorsvej,8680,38,9.772858,56.094328
954545,Thorsvej,8680,39,9.769079,56.095115
954546,Thorsvej,8680,40,9.772731,56.094532
954547,Thorsvej,8680,41,9.768586,56.095218
954548,Thorsvej,8680,42,9.772534,56.094621
954549,Thorsvej,8680,43,9.768296,56.095267
954550,Thorsvej,8680,44,9.772198,56.094771
954551,Thorsvej,8680,45,9.767866,56.09531
954552,Thorsvej,8680,46,9.771937,56.094808
954553,Thorsvej,8680,47,9.767516,56.095394
954554,Thorsvej,8680,48,9.771497,56.094874
954555,Thorsvej,8680,49,9.76718,56.095447
954556,Thorsvej,8680,50,9.77116,56.094967
954557,Thorsvej,8680,51,9.766359,56.095617
954558,Thorsvej,8680,52A,9.770905,56.09506
954559,Thorsvej,8680,52B,9.770971,56.095149
954560,Thorsvej,8680,52C,9.771004,56.095194
954561,Thorsvej,8680,53,9.765668,56.095715
954562,Thorsvej,8680,54,9.770534,56.095234
954563,Thorsvej,8680,55,9.7649153,56.0957065
954564,Thorsvej,8680,56,9.770077,56.095244
954565,Thorsvej,8680,57,9.764613,56.095683
954566,Thorsvej,8680,58,9.769499,56.095367
954567,Thorsvej,8680,59,9.764296,56.095552
954568,Thorsvej,8680,60,9.769146,56.095368
954569,Thorsvej,8680,61,9.763713,56.095525
954570,Thorsvej,8680,62,9.768778,56.095468
954571,Thorsvej,8680,63,9.763171,56.095393
954572,Thorsvej,8680,64,9.768486,56.095485
954573,Thorsvej,8680,66,9.768171,56.095682
954574,Thorsvej,8680,68,9.767897,56.095646
954575,Thorsvej,8680,70,9.767643,56.095805
954576,Thorsvej,8680,72,9.767272,56.095776
954577,Thorsvej,8680,74,9.76696,56.095915
954578,Thorsvej,8680,76,9.76659,56.095872
954579,Thorsvej,8680,82,9.764958,56.095965
954580,Thorsvej,8680,84,9.764157,56.096086
954581,Thorsvej,8680,86,9.763272,56.095733
954582,Thorsvej,8680,88,9.763008,56.095686
954583,Bøgevej,8680,1A,9.775604,56.081057
954584,Bøgevej,8680,1B,9.775454,56.081021
954585,Bøgevej,8680,2A,9.776023,56.081216
954586,Bøgevej,8680,2B,9.776226,56.081255
954587,Bøgevej,8680,3A,9.775181,56.080954
954588,Bøgevej,8680,3B,9.775027,56.080917
954589,Bøgevej,8680,4A,9.776481,56.081307
954590,Bøgevej,8680,4B,9.776647,56.081339
954591,Bøgevej,8680,5A,9.774735,56.080846
954592,Bøgevej,8680,5B,9.77459,56.080811
954593,Bøgevej,8680,6,9.776999,56.081418
954594,Bøgevej,8680,7,9.774387,56.080635
954595,Bøgevej,8680,8,9.777323,56.08151
954596,Bøgevej,8680,9,9.774229,56.080675
954597,Bøgevej,8680,10,9.776945,56.081636
954598,Bøgevej,8680,11A,9.774134,56.080743
954599,Bøgevej,8680,11B,9.774043,56.080811
954600,Bøgevej,8680,12,9.776611,56.08152
954601,Bøgevej,8680,13A,9.774014,56.080905
954602,Bøgevej,8680,13B,9.773899,56.080965
954603,Bøgevej,8680,14,9.776175,56.081454
954604,Bøgevej,8680,15A,9.773825,56.081041
954605,Bøgevej,8680,15B,9.773714,56.0811
954606,Bøgevej,8680,16,9.77579,56.081432
954607,Bøgevej,8680,17,9.774538,56.081022
954608,Bøgevej,8680,18,9.775265,56.08178
954609,Bøgevej,8680,19,9.774923,56.081114
954610,Bøgevej,8680,20,9.775586,56.081823
954611,Bøgevej,8680,21A,9.7753869,56.0812248
954612,Bøgevej,8680,21B,9.7752847,56.0813519
954613,Bøgevej,8680,22,9.775889,56.081879
954614,Bøgevej,8680,23,9.774987,56.081519
954615,Bøgevej,8680,24,9.776168,56.081955
954616,Bøgevej,8680,25,9.774641,56.08142
954617,Bøgevej,8680,26A,9.7764849,56.082
954618,Bøgevej,8680,26B,9.776732,56.081899
954619,Bøgevej,8680,27,9.774392,56.08135
954620,Bøgevej,8680,29,9.7740914,56.0812329
954621,Bøgevej,8680,30,9.777759,56.081715
954622,Bøgevej,8680,31,9.773549,56.081242
954623,Bøgevej,8680,32,9.778081,56.081811
954624,Bøgevej,8680,33,9.773495,56.081355
954625,Bøgevej,8680,34,9.777526,56.081934
954626,Bøgevej,8680,35,9.773379,56.08144
954627,Bøgevej,8680,36,9.777299,56.082085
954628,Bøgevej,8680,37,9.773256,56.081528
954629,Bøgevej,8680,38,9.776958,56.082145
954630,Bøgevej,8680,39,9.773079,56.081582
954631,Bøgevej,8680,40,9.77682,56.082258
954632,Bøgevej,8680,41,9.77296,56.081667
954633,Bøgevej,8680,42,9.776633,56.082392
954634,Bøgevej,8680,43,9.772837,56.081757
954635,Bøgevej,8680,44,9.7764422,56.0825005
954636,Bøgevej,8680,45,9.772663,56.081811
954637,Bøgevej,8680,46,9.776117,56.082271
954638,Bøgevej,8680,47,9.772547,56.081896
954639,Bøgevej,8680,48A,9.775654,56.08211
954640,Bøgevej,8680,48B,9.775409,56.082074
954641,Bøgevej,8680,49,9.772428,56.081981
954642,Bøgevej,8680,50,9.775199,56.081987
954643,Bøgevej,8680,51,9.772353,56.082094
954644,Bøgevej,8680,52,9.774864,56.081856
954645,Bøgevej,8680,53,9.772872,56.082119
954646,Bøgevej,8680,54,9.774414,56.082246
954647,Bøgevej,8680,55,9.773202,56.082169
954648,Bøgevej,8680,56A,9.774725,56.082315
954649,Bøgevej,8680,56B,9.774886,56.082359
954650,Bøgevej,8680,57,9.773528,56.082262
954651,Bøgevej,8680,58,9.77526,56.082432
954652,Bøgevej,8680,59,9.773878,56.082359
954653,Bøgevej,8680,60,9.775741,56.082391
954654,Bøgevej,8680,61,9.774247,56.082462
954655,Bøgevej,8680,62,9.7761069,56.0826061
954656,Bøgevej,8680,64,9.7759348,56.0827395
954657,Bøgevej,8680,66,9.775734,56.08278
954658,Bøgevej,8680,67,9.773909,56.082163
954659,Bøgevej,8680,68,9.775381,56.082828
954660,Bøgevej,8680,69,9.774025,56.082008
954661,Bøgevej,8680,71,9.774175,56.081869
954662,Bøgevej,8680,73,9.774386,56.081748
954663,Bøgevej,8680,75,9.774584,56.081685
954664,Bakkelyparken,8680,1A,9.766155,56.085128
954665,Bakkelyparken,8680,1B,9.766045,56.085293
954666,Bakkelyparken,8680,2,9.766414,56.084836
954667,Bakkelyparken,8680,3A,9.766314,56.085408
954668,Bakkelyparken,8680,3B,9.766538,56.085256
954669,Bakkelyparken,8680,4,9.766642,56.085005
954670,Bakkelyparken,8680,5,9.7668063,56.08539
954671,Bakkelyparken,8680,6,9.767008,56.085162
954672,Bakkelyparken,8680,7A,9.766991,56.085479
954673,Bakkelyparken,8680,7B,9.767179,56.085567
954674,Bakkelyparken,8680,8,9.767356,56.085317
954675,Bakkelyparken,8680,9A,9.767357,56.0856396
954676,Bakkelyparken,8680,9B,9.767557,56.085744
954677,Bakkelyparken,8680,10,9.7678086,56.085493
954678,Bakkelyparken,8680,11A,9.767926,56.085948
954679,Bakkelyparken,8680,11B,9.768054,56.086039
954680,Bakkelyparken,8680,12,9.768132,56.085257
954681,Bakkelyparken,8680,13A,9.768179,56.086132
954682,Bakkelyparken,8680,13B,9.768304,56.086225
954683,Bakkelyparken,8680,14,9.76781,56.085094
954684,Bakkelyparken,8680,15A,9.768429,56.086313
954685,Bakkelyparken,8680,15B,9.7685571,56.0864142
954686,Bakkelyparken,8680,16,9.767398,56.084901
954687,Bakkelyparken,8680,17,9.7688198,56.0861423
954688,Bakkelyparken,8680,18,9.76706,56.08474
954689,Bakkelyparken,8680,19,9.768624,56.085985
954690,Bakkelyparken,8680,20,9.766692,56.084612
954691,Bakkelyparken,8680,21,9.768207,56.08575
954692,Bakkelyparken,8680,22,9.766938,56.084408
954693,Bakkelyparken,8680,23,9.768656,56.085547
954694,Bakkelyparken,8680,24,9.76735,56.084545
954695,Bakkelyparken,8680,25,9.76884,56.085692
954696,Bakkelyparken,8680,26,9.76768,56.084719
954697,Bakkelyparken,8680,27,9.769215,56.085908
954698,Bakkelyparken,8680,28,9.768127,56.084896
954699,Bakkelyparken,8680,29,9.769531,56.085725
954700,Bakkelyparken,8680,30,9.7684395,56.0850578
954701,Bakkelyparken,8680,31,9.7692654,56.0855702
954702,Bakkelyparken,8680,32,9.768712,56.084822
954703,Bakkelyparken,8680,33,9.7689086,56.0853711
954704,Bakkelyparken,8680,34,9.768365,56.084591
954705,Bakkelyparken,8680,35,9.769194,56.085152
954706,Bakkelyparken,8680,36,9.768063,56.084425
954707,Bakkelyparken,8680,37,9.769639,56.085371
954708,Bakkelyparken,8680,38,9.76767,56.084247
954709,Bakkelyparken,8680,39,9.769992,56.085591
954710,Bakkelyparken,8680,40,9.767384,56.084136
954711,Bakkelyparken,8680,41,9.770176,56.085326
954712,Bakkelyparken,8680,42,9.767642,56.083911
954713,Bakkelyparken,8680,43,9.769938,56.08513
954714,Bakkelyparken,8680,44,9.768008,56.0840484
954715,Bakkelyparken,8680,45,9.7695569,56.0849071
954716,Bakkelyparken,8680,46,9.768333,56.084239
954717,Bakkelyparken,8680,47,9.769732,56.084689
954718,Bakkelyparken,8680,48,9.768708,56.08446
954719,Bakkelyparken,8680,49,9.770056,56.084874
954720,Bakkelyparken,8680,50,9.768962,56.084602
954721,Bakkelyparken,8680,51,9.770545,56.085034
954722,Bakkelyparken,8680,52,9.7694029,56.0844365
954723,Bakkelyparken,8680,53,9.77074,56.084856
954724,Bakkelyparken,8680,54,9.7691123,56.0841738
954725,Bakkelyparken,8680,55,9.770594,56.084643
954726,Bakkelyparken,8680,56,9.768766,56.083968
954727,Bakkelyparken,8680,57,9.770268,56.084511
954728,Bakkelyparken,8680,58,9.768368,56.083754
954729,Bakkelyparken,8680,60,9.768071,56.08358
954730,Bakkelyparken,8680,62,9.768269,56.083423
954731,Bakkelyparken,8680,64,9.768636,56.083559
954732,Bakkelyparken,8680,66,9.768961,56.08375
954733,Bakkelyparken,8680,68,9.7693007,56.0839541
954734,Bakkelyparken,8680,70,9.769667,56.084162
954735,Søkildevej,8680,17,9.757375,56.094641
954736,Søkildevej,8680,19,9.757414,56.094878
954737,Søkildevej,8680,21,9.757034,56.094977
954738,Søkildevej,8680,25,9.757489,56.095092
954739,Søkildevej,8680,26,9.758585,56.095334
954740,Søkildevej,8680,27,9.7576212,56.095303
954741,Søkildevej,8680,28,9.758888,56.095536
954742,Søkildevej,8680,29,9.757766,56.095435
954743,Søkildevej,8680,30,9.759199,56.095729
954744,Søkildevej,8680,32,9.759466,56.095836
954745,Søkildevej,8680,33,9.758169,56.095794
954746,Søkildevej,8680,34,9.760087,56.095826
954747,Søkildevej,8680,35A,9.758675,56.09584
954748,Søkildevej,8680,35B,9.758557,56.095909
954749,Søkildevej,8680,35C,9.758659,56.0962
954750,Søkildevej,8680,35D,9.758458,56.096132
954751,Søkildevej,8680,37,9.758936,56.096036
954752,Søkildevej,8680,38A,9.760869,56.096241
954753,Søkildevej,8680,38B,9.76101,56.096174
954754,Søkildevej,8680,40,9.761164,56.09636
954755,Søkildevej,8680,41,9.759737,56.096169
954756,Søkildevej,8680,42A,9.76158,56.096101
954757,Søkildevej,8680,42B,9.761642,56.096042
954758,Søkildevej,8680,42C,9.761702,56.095982
954759,Søkildevej,8680,42D,9.761766,56.09592
954760,Søkildevej,8680,43,9.76007,56.096279
954761,Søkildevej,8680,44A,9.761701,56.095789
954762,Søkildevej,8680,44B,9.761775,56.095808
954763,Søkildevej,8680,44C,9.761866,56.095833
954764,Søkildevej,8680,45,9.760559,56.096469
954765,Søkildevej,8680,46A,9.761953,56.095718
954766,Søkildevej,8680,46B,9.762013,56.095749
954767,Søkildevej,8680,46C,9.762073,56.095781
954768,Søkildevej,8680,46D,9.762133,56.095813
954769,Søkildevej,8680,48,9.762932,56.096904
954770,Søkildevej,8680,48A,9.763141,56.096295
954771,Søkildevej,8680,49,9.761346,56.09671
954772,Søkildevej,8680,50,9.763355,56.09708
954773,Søkildevej,8680,52,9.763654,56.097071
954774,Søkildevej,8680,53A,9.761602,56.096885
954775,Søkildevej,8680,53B,9.761523,56.096904
954776,Søkildevej,8680,53C,9.761487,56.096968
954777,Søkildevej,8680,53D,9.76141,56.096987
954778,Søkildevej,8680,54,9.764417,56.097395
954779,Søkildevej,8680,55,9.761843,56.09697
954780,Søkildevej,8680,56,9.76468,56.097365
954781,Søkildevej,8680,57,9.76221,56.097008
954782,Søkildevej,8680,58,9.764992,56.097406
954783,Søkildevej,8680,59,9.762582,56.09708
954784,Søkildevej,8680,60,9.765379,56.09737
954785,Søkildevej,8680,61,9.76282,56.097188
954786,Søkildevej,8680,62,9.765634,56.097405
954787,Søkildevej,8680,63,9.76319,56.097386
954788,Søkildevej,8680,64,9.76613,56.097436
954789,Søkildevej,8680,66,9.766919,56.09746
954790,Søkildevej,8680,71,9.764401,56.097683
954791,Søkildevej,8680,73,9.764834,56.097768
954792,Søkildevej,8680,74,9.76774,56.097401
954793,Søkildevej,8680,75,9.765319,56.097699
954794,Søkildevej,8680,76,9.768365,56.097347
954795,Søkildevej,8680,77,9.765858,56.09775
954796,Søkildevej,8680,78,9.769091,56.097232
954797,Søkildevej,8680,79,9.766215,56.097805
954798,Søkildevej,8680,81,9.766756,56.097874
954799,Søkildevej,8680,85,9.767247,56.097797
954800,Søkildevej,8680,87,9.767645,56.097642
954801,Søkildevej,8680,89,9.767904,56.09778
954802,Søkildevej,8680,91,9.768465,56.097613
954803,Søkildevej,8680,93,9.768421,56.097883
954804,Søkildevej,8680,95,9.768281,56.098087
954805,Siimvej,8680,3,9.766918,56.090117
954806,Siimvej,8680,5,9.767102,56.089952
954807,Siimvej,8680,6,9.766411,56.08984
954808,Siimvej,8680,7,9.767191,56.089778
954809,Siimvej,8680,8,9.766587,56.089667
954810,Siimvej,8680,9,9.767352,56.089618
954811,Siimvej,8680,10,9.76678,56.089434
954812,Siimvej,8680,11,9.7674701,56.0894169
954813,Siimvej,8680,12,9.766919,56.089258
954814,Siimvej,8680,13,9.767511,56.089214
954815,Siimvej,8680,14,9.76705,56.089127
954816,Siimvej,8680,15,9.767589,56.089062
954817,Siimvej,8680,16,9.767159,56.08894
954818,Siimvej,8680,17,9.767785,56.088856
954819,Siimvej,8680,18,9.76743,56.088702
954820,Siimvej,8680,19,9.768352,56.088686
954821,Siimvej,8680,20,9.767543,56.08857
954822,Siimvej,8680,21,9.768034,56.088392
954823,Siimvej,8680,22,9.767691,56.088399
954824,Siimvej,8680,23,9.768291,56.088248
954825,Siimvej,8680,24,9.767796,56.088275
954826,Siimvej,8680,25,9.768431,56.08803
954827,Siimvej,8680,26,9.767925,56.088129
954828,Siimvej,8680,27,9.768747,56.087936
954829,Siimvej,8680,28,9.768128,56.087921
954830,Siimvej,8680,29,9.768958,56.087744
954831,Siimvej,8680,30,9.768334,56.087669
954832,Siimvej,8680,31,9.768937,56.087559
954833,Siimvej,8680,32,9.768396,56.087598
954834,Siimvej,8680,33,9.769102,56.087345
954835,Siimvej,8680,34,9.768598,56.087361
954836,Siimvej,8680,35,9.769166,56.087168
954837,Siimvej,8680,36,9.765504,56.088339
954838,Siimvej,8680,37,9.769413,56.086947
954839,Siimvej,8680,38,9.765729,56.088221
954840,Siimvej,8680,39,9.769453,56.086785
954841,Siimvej,8680,40,9.766034,56.088043
954842,Siimvej,8680,42,9.76625,56.087984
954843,Siimvej,8680,44,9.766508,56.087862
954844,Siimvej,8680,46,9.766799,56.087789
954845,Siimvej,8680,48,9.766981,56.087614
954846,Siimvej,8680,50,9.767463,56.087522
954847,Siimvej,8680,52,9.767796,56.087372
954848,Siimvej,8680,54,9.767893,56.08732
954849,Siimvej,8680,56,9.768359,56.087088
954850,Siimvej,8680,58,9.768464,56.087031
954851,Siimvej,8680,60,9.7689,56.086779
954852,Siimvej,8680,62,9.769199,56.086614
954853,Siimvej,8680,63,9.765757,56.08856
954854,Siimvej,8680,64,9.769377,56.086516
954855,Siimvej,8680,65,9.765994,56.088424
954856,Siimvej,8680,66,9.769654,56.086362
954857,Siimvej,8680,67,9.7664573,56.0882041
954858,Siimvej,8680,68,9.76987,56.086223
954859,Siimvej,8680,69,9.7667,56.08811
954860,Siimvej,8680,70,9.770143,56.086091
954861,Siimvej,8680,71,9.7669,56.088041
954862,Siimvej,8680,73,9.767301,56.088037
954863,Siimvej,8680,75,9.76739,56.087818
954864,Siimvej,8680,77,9.767648,56.087724
954865,Siimvej,8680,79,9.76842,56.087267
954866,Siimvej,8680,83,9.769715,56.086645
954867,Siimvej,8680,85,9.770315,56.086293
954868,Randersvej,8680,8,9.758867,56.092794
954869,Randersvej,8680,10,9.7596024,56.0935829
954870,Randersvej,8680,11A,9.759102,56.09361
954871,Randersvej,8680,11B,9.758847,56.093584
954872,Randersvej,8680,11D,9.758728,56.093725
954873,Randersvej,8680,12,9.759956,56.093844
954874,Randersvej,8680,13A,9.759053,56.093649
954875,Randersvej,8680,13B,9.758919,56.09361
954876,Randersvej,8680,13C,9.758827,56.093663
954877,Randersvej,8680,13D,9.758809,56.093758
954878,Randersvej,8680,15,9.75928,56.093756
954879,Randersvej,8680,19,9.759585,56.094025
954880,Randersvej,8680,21,9.75985,56.0941
954881,Randersvej,8680,22,9.7615949,56.0949853
954882,Randersvej,8680,24,9.761835,56.095124
954883,Randersvej,8680,25,9.760786,56.094908
954884,Randersvej,8680,27,9.761405,56.095206
954885,Randersvej,8680,29,9.761409,56.095421
954886,Randersvej,8680,31,9.761658,56.095471
954887,Randersvej,8680,32,9.763365,56.095987
954888,Randersvej,8680,34,9.76363,56.096071
954889,Randersvej,8680,36,9.763854,56.09617
954890,Randersvej,8680,37,9.76245,56.095917
954891,Randersvej,8680,39,9.762528,56.095957
954892,Randersvej,8680,40,9.764283,56.096299
954893,Randersvej,8680,42,9.764609,56.096396
954894,Randersvej,8680,44,9.764825,56.096461
954895,Randersvej,8680,45,9.763496,56.096395
954896,Randersvej,8680,47A,9.76375,56.09649
954897,Randersvej,8680,47B,9.763854,56.096525
954898,Randersvej,8680,47C,9.763732,56.09652
954899,Randersvej,8680,47D,9.763822,56.096566
954900,Randersvej,8680,47E,9.763701,56.096769
954901,Randersvej,8680,49,9.764067,56.096783
954902,Randersvej,8680,51,9.764091,56.097107
954903,Randersvej,8680,53,9.764419,56.097028
954904,Randersvej,8680,55A,9.764911,56.096837
954905,Randersvej,8680,55B,9.764835,56.096956
954906,Randersvej,8680,55C,9.764742,56.096938
954907,Randersvej,8680,55D,9.76512,56.097127
954908,Randersvej,8680,57,9.765324,56.096929
954909,Randersvej,8680,59,9.765855,56.097042
954910,Randersvej,8680,60,9.769911,56.096898
954911,Randersvej,8680,61,9.766369,56.097135
954912,Randersvej,8680,62,9.770621,56.096752
954913,Randersvej,8680,63,9.766828,56.09718
954914,Randersvej,8680,67,9.767363,56.097179
954915,Randersvej,8680,77,9.771296,56.097324
954916,Randersvej,8680,79,9.771739,56.097289
954917,Randersvej,8680,80,9.784798,56.098188
954918,Randersvej,8680,83,9.783373,56.09826
954919,Randersvej,8680,84,9.790618,56.099053
954920,Randersvej,8680,85,9.784335,56.103459
954921,Randersvej,8680,88,9.785259,56.102538
954922,Randersvej,8680,90,9.785068,56.103083
954923,Randersvej,8680,90C,9.791711,56.103367
954924,Randersvej,8680,92,9.78492,56.105913
954925,Randersvej,8680,94,9.784878,56.106926
954926,Randersvej,8680,95,9.784058,56.105789
954927,Randersvej,8680,96,9.784806,56.10719
954928,Randersvej,8680,97,9.784333,56.106146
954929,Randersvej,8680,98,9.787802,56.114746
954930,Randersvej,8680,99,9.782893,56.106196
954931,Randersvej,8680,100,9.788828,56.117405
954932,Randersvej,8680,102,9.790221,56.118928
954933,Randersvej,8680,103,9.784288,56.106537
954934,Randersvej,8680,104,9.791371,56.120377
954935,Randersvej,8680,105,9.783897,56.106702
954936,Randersvej,8680,107,9.784302,56.106911
954937,Randersvej,8680,108,9.794815,56.12948
954938,Randersvej,8680,110,9.796801,56.13016
954939,Randersvej,8680,111,9.783939,56.108005
954940,Randersvej,8680,112,9.799411,56.129549
954941,Randersvej,8680,117,9.786559,56.116976
954943,Randersvej,8680,119,9.787456,56.117546
954945,Randersvej,8680,121,9.790179,56.122628
954947,Randersvej,8680,123,9.789868,56.129112
954954,Gartnervænget,8680,1,9.770454,56.086523
954955,Gartnervænget,8680,2,9.770989,56.086049
954956,Gartnervænget,8680,3,9.770406,56.08659
954957,Gartnervænget,8680,4,9.77109,56.086276
954958,Gartnervænget,8680,5,9.770354,56.086641
954959,Gartnervænget,8680,6,9.771149,56.08651
954960,Gartnervænget,8680,7,9.770305,56.086701
954961,Gartnervænget,8680,8,9.771166,56.086596
954962,Gartnervænget,8680,9,9.770296,56.086774
954963,Gartnervænget,8680,10,9.771181,56.086679
954964,Gartnervænget,8680,11,9.770282,56.08684
954965,Gartnervænget,8680,12,9.7712,56.086763
954966,Gartnervænget,8680,13,9.770208,56.086906
954967,Gartnervænget,8680,14,9.771217,56.086846
954968,Gartnervænget,8680,15,9.770153,56.086963
954969,Gartnervænget,8680,16,9.771234,56.08693
954970,Gartnervænget,8680,17,9.770166,56.087037
954971,Gartnervænget,8680,18,9.771053,56.087059
954972,Gartnervænget,8680,19,9.769927,56.0872
954973,Gartnervænget,8680,20,9.770955,56.087091
954974,Gartnervænget,8680,21,9.769868,56.087269
954975,Gartnervænget,8680,22,9.770852,56.087123
954976,Gartnervænget,8680,23,9.769773,56.087329
954977,Gartnervænget,8680,24,9.770444,56.087538
954978,Gartnervænget,8680,25,9.769715,56.087397
954979,Gartnervænget,8680,26,9.770438,56.087614
954980,Gartnervænget,8680,27,9.769288,56.087873
954981,Gartnervænget,8680,28,9.770453,56.087694
954982,Gartnervænget,8680,29,9.769244,56.087923
954983,Gartnervænget,8680,30,9.77047,56.087822
954984,Gartnervænget,8680,31,9.7692002,56.0879743
954985,Gartnervænget,8680,32,9.770483,56.087902
954986,Gartnervænget,8680,33,9.769117,56.088105
954987,Gartnervænget,8680,34,9.77047,56.087993
954988,Gartnervænget,8680,35,9.769072,56.088157
954989,Gartnervænget,8680,36,9.77043,56.08806
954990,Gartnervænget,8680,37,9.769027,56.08821
954991,Gartnervænget,8680,38,9.769923,56.087742
954992,Gartnervænget,8680,39,9.768915,56.08832
954993,Gartnervænget,8680,40,9.769905,56.087801
954994,Gartnervænget,8680,41,9.768868,56.088375
954995,Gartnervænget,8680,42,9.769902,56.087869
954996,Gartnervænget,8680,43,9.768844,56.08844
954997,Gartnervænget,8680,44,9.769881,56.087931
954998,Gartnervænget,8680,46,9.769593,56.088184
954999,Gartnervænget,8680,48,9.769569,56.088216
955000,Gartnervænget,8680,50,9.7695451,56.0882482
955001,Gartnervænget,8680,52,9.769467,56.088351
955002,Gartnervænget,8680,54,9.769443,56.088383
955003,Gartnervænget,8680,56,9.76942,56.088415
955004,Gartnervænget,8680,58A,9.769891,56.088268
955005,Gartnervænget,8680,58B,9.770005,56.088317
955006,Gartnervænget,8680,60,9.770113,56.088496
955007,Gartnervænget,8680,62,9.770069,56.088627
955008,Gartnervænget,8680,64,9.77,56.088742
955009,Gartnervænget,8680,66A,9.770232,56.088966
955010,Gartnervænget,8680,66B,9.770171,56.089083
955011,Gartnervænget,8680,68,9.77042,56.088393
955012,Kildebakken,8680,1,9.767455,56.091073
955013,Kildebakken,8680,2,9.76829,56.090607
955014,Kildebakken,8680,3,9.767431,56.091384
955015,Kildebakken,8680,4,9.7679726,56.0907939
955016,Kildebakken,8680,5,9.76747,56.091604
955017,Kildebakken,8680,6,9.7679269,56.0910185
955018,Kildebakken,8680,8A,9.767943,56.091397
955019,Kildebakken,8680,8B,9.76802,56.091318
955020,Kildebakken,8680,8C,9.768086,56.091172
955021,Kildebakken,8680,8D,9.768578,56.091299
955022,Kildebakken,8680,10,9.768364,56.091446
955023,Kildebakken,8680,12A,9.768254,56.091695
955024,Kildebakken,8680,14,9.767761,56.091893
955025,Kildebakken,8680,15,9.767014,56.092628
955026,Kildebakken,8680,16,9.767828,56.092368
955027,Kildebakken,8680,17,9.766842,56.09279
955028,Kildebakken,8680,17B,9.766768,56.09293
955029,Kildebakken,8680,18,9.767541,56.092831
955030,Kildebakken,8680,19,9.766537,56.093108
955031,Kildebakken,8680,20,9.767112,56.093026
955032,Kildebakken,8680,21,9.766347,56.093347
955033,Kildebakken,8680,22,9.766912,56.093226
955034,Kildebakken,8680,23,9.766203,56.093475
955035,Kildebakken,8680,24,9.766796,56.093452
955036,Kildebakken,8680,25,9.765965,56.093651
955037,Kildebakken,8680,26,9.766499,56.093612
955038,Kildebakken,8680,27,9.76587,56.093811
955039,Kildebakken,8680,28,9.76634,56.093754
955040,Kildebakken,8680,30,9.766285,56.093875
955041,Kildebakken,8680,31,9.765682,56.094134
955042,Kildebakken,8680,32,9.766402,56.094126
955043,Kildebakken,8680,33,9.765569,56.094295
955044,Kildebakken,8680,34,9.765971,56.094237
955045,Kildebakken,8680,35,9.765414,56.094511
955046,Kildebakken,8680,35B,9.764781,56.094315
955047,Kildebakken,8680,36,9.766344,56.094456
955048,Kildebakken,8680,37,9.76534,56.094929
955049,Kildebakken,8680,38,9.76608,56.09462
955050,Kildebakken,8680,39,9.765209,56.095182
955051,Kildebakken,8680,40,9.765969,56.09486
955052,Kildebakken,8680,41,9.765123,56.095357
955053,Kildebakken,8680,42,9.765948,56.094989
955054,Kildebakken,8680,44,9.765853,56.095193
955055,Kildebakken,8680,46,9.765742,56.095383
955056,Kildebakken,8680,48,9.76559,56.095551
955057,Bodalsvej,8680,1,9.75849,56.091865
955058,Bodalsvej,8680,3,9.758754,56.091804
955059,Bodalsvej,8680,4,9.759785,56.090375
955060,Bodalsvej,8680,5,9.758756,56.091635
955061,Bodalsvej,8680,6,9.760055,56.090264
955062,Bodalsvej,8680,8,9.760285,56.090165
955063,Bodalsvej,8680,9,9.75892,56.091448
955064,Bodalsvej,8680,10A,9.760452,56.08985
955065,Bodalsvej,8680,10B,9.760408,56.08965
955066,Bodalsvej,8680,11,9.75896,56.091386
955067,Bodalsvej,8680,12,9.760978,56.089844
955068,Bodalsvej,8680,13,9.759381,56.09144
955069,Bodalsvej,8680,14,9.761261,56.089753
955070,Bodalsvej,8680,15,9.759456,56.091353
955071,Bodalsvej,8680,16,9.761514,56.089667
955072,Bodalsvej,8680,17,9.759111,56.091177
955073,Bodalsvej,8680,19,9.759203,56.091055
955074,Bodalsvej,8680,21,9.759327,56.090931
955075,Bodalsvej,8680,25,9.76024,56.090435
955076,Bodalsvej,8680,37,9.762074,56.089689
955077,Agnetevej,8680,1,9.764767,56.091702
955078,Agnetevej,8680,2,9.765561,56.091303
955079,Agnetevej,8680,3,9.765394,56.091562
955080,Agnetevej,8680,4,9.766194,56.092548
955081,Agnetevej,8680,5,9.765405,56.091886
955082,Agnetevej,8680,6,9.765418,56.092398
955083,Agnetevej,8680,7,9.765291,56.092052
955084,Agnetevej,8680,8,9.765371,56.092586
955085,Agnetevej,8680,9,9.765019,56.092236
955086,Agnetevej,8680,11,9.764967,56.092469
955087,Agnetevej,8680,12,9.76497,56.092934
955088,Agnetevej,8680,14,9.764849,56.093239
955089,Agnetevej,8680,16,9.764656,56.093346
955090,Agnetevej,8680,17,9.764386,56.093151
955091,Agnetevej,8680,18,9.764554,56.093468
955092,Agnetevej,8680,20A,9.76437,56.093651
955093,Agnetevej,8680,20B,9.765215,56.093955
955094,Agnetevej,8680,21,9.764075,56.093398
955095,Agnetevej,8680,22,9.764278,56.093767
955096,Agnetevej,8680,23,9.763971,56.093647
955097,Agnetevej,8680,24,9.764169,56.093959
955098,Agnetevej,8680,25,9.76375,56.093851
955099,Agnetevej,8680,26,9.763979,56.094108
955100,Agnetevej,8680,27,9.763617,56.093997
955101,Agnetevej,8680,28,9.76384,56.09427
955102,Agnetevej,8680,29,9.76346,56.094174
955103,Agnetevej,8680,30,9.764086,56.094542
955104,Agnetevej,8680,31,9.76303,56.094216
955105,Agnetevej,8680,32,9.763558,56.0946
955106,Agnetevej,8680,33,9.76321,56.094496
955107,Agnetevej,8680,34,9.763396,56.094768
955108,Agnetevej,8680,36,9.763234,56.095047
955109,Agnetevej,8680,38,9.76315,56.095334
955110,Agnetevej,8680,39,9.762615,56.095175
955111,Agnetevej,8680,41,9.762408,56.095414
955112,Stadionalle,8680,1,9.763336,56.091448
955113,Stadionalle,8680,2A,9.763812,56.091418
955114,Stadionalle,8680,2B,9.763925,56.091397
955115,Stadionalle,8680,2C,9.76403,56.091381
955116,Stadionalle,8680,2D,9.764161,56.091359
955117,Stadionalle,8680,3,9.763467,56.091826
955118,Stadionalle,8680,4A,9.763908,56.091785
955119,Stadionalle,8680,4B,9.764004,56.091768
955120,Stadionalle,8680,4C,9.764142,56.091744
955121,Stadionalle,8680,4D,9.764257,56.091724
955122,Stadionalle,8680,5,9.7634415,56.0920296
955123,Stadionalle,8680,6A,9.764274,56.091889
955124,Stadionalle,8680,6B,9.76421,56.091949
955125,Stadionalle,8680,6C,9.764149,56.092008
955126,Stadionalle,8680,6D,9.764089,56.0920659
955127,Stadionalle,8680,6E,9.764027,56.092125
955128,Stadionalle,8680,6F,9.7639528,56.092199
955129,Stadionalle,8680,6G,9.7638707,56.0922455
955130,Stadionalle,8680,8A,9.764654,56.091918
955131,Stadionalle,8680,8B,9.764643,56.091931
955132,Stadionalle,8680,9,9.763061,56.092494
955133,Stadionalle,8680,10A,9.764561,56.092003
955134,Stadionalle,8680,10B,9.764551,56.092015
955135,Stadionalle,8680,11A,9.763311,56.092778
955136,Stadionalle,8680,11B,9.763437,56.092813
955137,Stadionalle,8680,12A,9.764471,56.092088
955138,Stadionalle,8680,12B,9.76446,56.0921
955139,Stadionalle,8680,13A,9.763604,56.092859
955140,Stadionalle,8680,13B,9.763723,56.092893
955141,Stadionalle,8680,14A,9.764379,56.092174
955142,Stadionalle,8680,14B,9.764369,56.092186
955143,Stadionalle,8680,14C,9.764287,56.0922602
955144,Stadionalle,8680,14D,9.764217,56.092292
955145,Stadionalle,8680,15A,9.763893,56.092789
955146,Stadionalle,8680,15B,9.763962,56.092707
955147,Stadionalle,8680,16,9.763672,56.092353
955148,Stadionalle,8680,17A,9.763416,56.092647
955149,Stadionalle,8680,17B,9.763526,56.092649
955150,Stadionalle,8680,17C,9.763616,56.092673
955151,Stadionalle,8680,17D,9.763714,56.0927
955152,Stadionalle,8680,18,9.763781,56.092382
955153,Stadionalle,8680,20,9.764046,56.092453
955154,Stadionalle,8680,22,9.764154,56.092482
955155,Knudsvej,8680,6,9.762005,56.091962
955156,Knudsvej,8680,7,9.761856,56.092209
955157,Knudsvej,8680,8,9.7624,56.092106
955158,Knudsvej,8680,9,9.761573,56.092548
955159,Knudsvej,8680,10,9.762188,56.092283
955160,Knudsvej,8680,11A,9.76146,56.092689
955161,Knudsvej,8680,11B,9.76141,56.092775
955162,Knudsvej,8680,12,9.762047,56.092426
955163,Knudsvej,8680,13,9.761314,56.092909
955164,Knudsvej,8680,14,9.761937,56.092554
955165,Knudsvej,8680,15,9.761155,56.093052
955166,Knudsvej,8680,16,9.761808,56.092825
955167,Knudsvej,8680,19,9.761105,56.093219
955168,Knudsvej,8680,20,9.761583,56.093009
955169,Knudsvej,8680,21,9.760921,56.093374
955170,Knudsvej,8680,22,9.761508,56.09318
955171,Knudsvej,8680,23,9.760786,56.093519
955172,Knudsvej,8680,24,9.761342,56.093285
955173,Knudsvej,8680,26,9.761258,56.093488
955174,Knudsvej,8680,31,9.760114,56.094392
955175,Knudsvej,8680,33,9.760021,56.094529
955176,Knudsvej,8680,34,9.761579,56.093787
955177,Knudsvej,8680,35,9.759909,56.094666
955178,Knudsvej,8680,36,9.760282,56.094563
955179,Knudsvej,8680,37,9.759787,56.094779
955180,Knudsvej,8680,38,9.760127,56.094743
955181,Knudsvej,8680,40A,9.760254,56.094932
955182,Knudsvej,8680,40B,9.760402,56.094969
955183,Knudsvej,8680,41,9.759504,56.095032
955184,Knudsvej,8680,42,9.760433,56.095143
955185,Knudsvej,8680,43,9.759247,56.095328
955186,Knudsvej,8680,44,9.759874,56.095199
955187,Knudsvej,8680,44A,9.760013,56.0952365
955188,Knudsvej,8680,46,9.759721,56.095348
955189,Fjeldstedsvej,8680,1,9.769131,56.091727
955190,Fjeldstedsvej,8680,3,9.769001,56.091888
955191,Fjeldstedsvej,8680,4,9.769546,56.092013
955192,Fjeldstedsvej,8680,5,9.768858,56.092028
955193,Fjeldstedsvej,8680,7,9.768782,56.092212
955194,Fjeldstedsvej,8680,9,9.768647,56.09237
955195,Fjeldstedsvej,8680,10,9.769107,56.09261
955196,Fjeldstedsvej,8680,11,9.768349,56.09252
955197,Fjeldstedsvej,8680,12,9.768903,56.092771
955198,Fjeldstedsvej,8680,13,9.768421,56.092709
955199,Fjeldstedsvej,8680,14,9.768658,56.092961
955200,Fjeldstedsvej,8680,15,9.768304,56.092877
955201,Fjeldstedsvej,8680,16,9.768521,56.093159
955202,Fjeldstedsvej,8680,17,9.768175,56.093053
955203,Fjeldstedsvej,8680,18,9.768505,56.093353
955204,Fjeldstedsvej,8680,19,9.767987,56.093211
955205,Fjeldstedsvej,8680,20,9.768328,56.093498
955206,Fjeldstedsvej,8680,21,9.767857,56.09339
955207,Fjeldstedsvej,8680,23,9.767743,56.093543
955208,Fjeldstedsvej,8680,25,9.767637,56.093711
955209,Fjeldstedsvej,8680,26,9.768135,56.094111
955210,Fjeldstedsvej,8680,27,9.767522,56.093884
955211,Fjeldstedsvej,8680,28,9.768038,56.094285
955212,Fjeldstedsvej,8680,29,9.7674,56.094043
955213,Fjeldstedsvej,8680,31,9.767259,56.094198
955214,Fjeldstedsvej,8680,33,9.76713,56.09435
955215,Fjeldstedsvej,8680,34,9.767311,56.094988
955216,Fjeldstedsvej,8680,35,9.767014,56.094543
955217,Fjeldstedsvej,8680,36,9.767143,56.095105
955218,Fjeldstedsvej,8680,37,9.766928,56.0947
955219,Fjeldstedsvej,8680,39,9.766787,56.09489
955220,Fjeldstedsvej,8680,41,9.766675,56.095015
955221,Fjeldstedsvej,8680,43,9.766503,56.095193
955222,Fjeldstedsvej,8680,45,9.766346,56.095356
955223,Silkeborgvej,8680,3,9.758549,56.093318
955224,Silkeborgvej,8680,5,9.758415,56.093472
955225,Silkeborgvej,8680,6,9.758363,56.09386
955226,Silkeborgvej,8680,7,9.758092,56.093634
955227,Silkeborgvej,8680,8,9.758241,56.094018
955228,Silkeborgvej,8680,9,9.758011,56.093788
955229,Silkeborgvej,8680,10,9.757908,56.09419
955230,Silkeborgvej,8680,11,9.757879,56.093929
955231,Silkeborgvej,8680,12,9.757671,56.09428
955232,Silkeborgvej,8680,14,9.757152,56.094528
955233,Silkeborgvej,8680,18,9.756395,56.094871
955234,Silkeborgvej,8680,20,9.755886,56.095017
955235,Silkeborgvej,8680,21,9.755195,56.094924
955236,Silkeborgvej,8680,22,9.755456,56.095199
955237,Silkeborgvej,8680,23,9.755006,56.095019
955238,Silkeborgvej,8680,24,9.755342,56.095433
955239,Silkeborgvej,8680,25,9.7547303,56.0951597
955240,Silkeborgvej,8680,26,9.755187,56.095533
955241,Silkeborgvej,8680,27,9.754566,56.095283
955242,Silkeborgvej,8680,28,9.754881,56.095643
955243,Silkeborgvej,8680,29,9.754086,56.095301
955244,Silkeborgvej,8680,30,9.7545,56.09568
955245,Silkeborgvej,8680,31,9.753915,56.095448
955246,Silkeborgvej,8680,32,9.754186,56.095785
955247,Silkeborgvej,8680,33,9.753429,56.095343
955248,Silkeborgvej,8680,34,9.753581,56.095965
955249,Silkeborgvej,8680,35,9.752965,56.095691
955250,Silkeborgvej,8680,36,9.752165,56.096089
955251,Silkeborgvej,8680,37,9.752456,56.0957
955252,Silkeborgvej,8680,46,9.745556,56.09611
955253,Silkeborgvej,8680,48,9.741814,56.097493
955254,Silkeborgvej,8680,50,9.741629,56.097818
955255,Silkeborgvej,8680,51,9.73943,56.101197
955256,Silkeborgvej,8680,52,9.741596,56.098021
955257,Silkeborgvej,8680,53,9.734517,56.104292
955258,Silkeborgvej,8680,54,9.741481,56.09826
955259,Silkeborgvej,8680,56,9.741554,56.09837
955260,Silkeborgvej,8680,58,9.741751,56.098446
955261,Silkeborgvej,8680,60,9.741728,56.098588
955262,Silkeborgvej,8680,62,9.741836,56.098792
955263,Silkeborgvej,8680,63,9.733938,56.119261
955264,Silkeborgvej,8680,64,9.742031,56.098839
955265,Silkeborgvej,8680,65,9.73358,56.12201
955266,Silkeborgvej,8680,66,9.742334,56.098904
955267,Silkeborgvej,8680,68,9.74274,56.098976
955269,Silkeborgvej,8680,78,9.734508,56.110291
955270,Silkeborgvej,8680,78A,9.735289,56.110004
955271,Silkeborgvej,8680,80,9.734723,56.113805
955272,Silkeborgvej,8680,82,9.735082,56.121509
955273,Silkeborgvej,8680,84,9.729391,56.12496
955277,Moselunden,8680,1A,9.771685,56.091538
955278,Moselunden,8680,1B,9.771575,56.091505
955279,Moselunden,8680,2A,9.771509,56.091284
955280,Moselunden,8680,2B,9.771564,56.091226
955281,Moselunden,8680,2C,9.771633,56.091173
955282,Moselunden,8680,2D,9.771688,56.091117
955283,Moselunden,8680,2E,9.77177,56.091049
955284,Moselunden,8680,3A,9.771383,56.091425
955285,Moselunden,8680,3B,9.771302,56.091488
955286,Moselunden,8680,3C,9.771243,56.091552
955287,Moselunden,8680,3D,9.77118,56.091587
955288,Moselunden,8680,3E,9.771115,56.091659
955289,Moselunden,8680,4A,9.771805,56.090926
955290,Moselunden,8680,4B,9.771908,56.090956
955291,Moselunden,8680,4C,9.772018,56.090991
955292,Moselunden,8680,5A,9.771344,56.091706
955293,Moselunden,8680,5B,9.771488,56.091735
955294,Moselunden,8680,5C,9.771604,56.091758
955295,Moselunden,8680,5D,9.771712,56.091777
955296,Moselunden,8680,6A,9.772152,56.091267
955297,Moselunden,8680,6B,9.772187,56.091204
955298,Moselunden,8680,6C,9.772241,56.091147
955299,Moselunden,8680,6D,9.772291,56.09107
955300,Moselunden,8680,7A,9.772218,56.091662
955301,Moselunden,8680,7B,9.772162,56.091718
955302,Moselunden,8680,7C,9.772104,56.091777
955303,Moselunden,8680,7D,9.772056,56.091842
955304,Moselunden,8680,8A,9.771699,56.091324
955305,Moselunden,8680,8B,9.771788,56.091353
955306,Moselunden,8680,8C,9.771904,56.091389
955307,Moselunden,8680,8D,9.772058,56.091435
955308,Moselunden,8680,9A,9.772259,56.091888
955309,Moselunden,8680,9B,9.772371,56.091915
955310,Moselunden,8680,9C,9.772475,56.091935
955311,Moselunden,8680,9D,9.772591,56.09196
955312,Moselunden,8680,10A,9.772733,56.090962
955313,Moselunden,8680,10B,9.772829,56.0909
955314,Moselunden,8680,10C,9.772849,56.090831
955315,Moselunden,8680,11A,9.772825,56.092036
955316,Moselunden,8680,11B,9.772871,56.091966
955317,Moselunden,8680,11C,9.772902,56.091906
955318,Moselunden,8680,11D,9.772963,56.091851
955319,Moselunden,8680,12A,9.772593,56.0911
955320,Moselunden,8680,12B,9.772729,56.091129
955321,Moselunden,8680,12C,9.772826,56.091131
955322,Moselunden,8680,12D,9.772947,56.091173
955323,Moselunden,8680,12E,9.773051,56.091204
955324,Moselunden,8680,13A,9.772997,56.091745
955325,Moselunden,8680,13B,9.773035,56.091682
955326,Moselunden,8680,13C,9.773053,56.091615
955327,Moselunden,8680,13D,9.773094,56.091551
955328,Moselunden,8680,13E,9.773164,56.091474
955329,Moselunden,8680,14A,9.772819,56.091244
955330,Moselunden,8680,14B,9.772764,56.09132
955331,Moselunden,8680,14C,9.772741,56.091387
955332,Moselunden,8680,16,9.772566,56.091514
955333,Skansehøj,8680,1,9.771507,56.090703
955334,Skansehøj,8680,3,9.771,56.090853
955335,Skansehøj,8680,4,9.770252,56.09103
955336,Skansehøj,8680,5,9.770756,56.090763
955337,Skansehøj,8680,6,9.770145,56.091144
955338,Skansehøj,8680,7,9.770373,56.090763
955339,Skansehøj,8680,8,9.770005,56.091325
955340,Skansehøj,8680,9,9.770045,56.090783
955341,Skansehøj,8680,10,9.769952,56.091455
955342,Skansehøj,8680,11,9.769637,56.090849
955343,Skansehøj,8680,12,9.770511,56.091578
955344,Skansehøj,8680,13,9.769375,56.090831
955345,Skansehøj,8680,14,9.770742,56.091441
955346,Skansehøj,8680,15,9.768989,56.090928
955347,Skansehøj,8680,16,9.770892,56.091286
955348,Skansehøj,8680,17,9.769661,56.091088
955349,Skansehøj,8680,18,9.771044,56.091133
955350,Skansehøj,8680,21,9.769445,56.091333
955351,Skansehøj,8680,23,9.769259,56.091544
955352,Skansehøj,8680,25,9.769638,56.09178
955353,Skansehøj,8680,27,9.769964,56.091755
955354,Skansehøj,8680,29,9.770289,56.091822
955355,Skansehøj,8680,31,9.77059,56.091902
955356,Isagervej,8680,5,9.766074,56.089444
955357,Isagervej,8680,7,9.766014,56.089338
955358,Isagervej,8680,9,9.765957,56.089236
955359,Isagervej,8680,11,9.765901,56.0891334
955360,Isagervej,8680,13,9.7658411,56.0890303
955361,Isagervej,8680,14,9.7655253,56.089705
955362,Isagervej,8680,15,9.7657851,56.0889271
955363,Isagervej,8680,16,9.765291,56.089526
955364,Isagervej,8680,17,9.765551,56.088651
955365,Isagervej,8680,18,9.76508,56.089252
955366,Isagervej,8680,20,9.765292,56.089065
955367,Isagervej,8680,21A,9.765394,56.087557
955368,Isagervej,8680,21B,9.765652,56.087455
955369,Isagervej,8680,21C,9.765873,56.087367
955370,Isagervej,8680,21D,9.766131,56.087265
955371,Isagervej,8680,22,9.765169,56.088797
955372,Isagervej,8680,23A,9.766676,56.08693
955373,Isagervej,8680,23B,9.766998,56.086803
955374,Isagervej,8680,23C,9.767279,56.086704
955375,Isagervej,8680,23D,9.767551,56.086584
955376,Isagervej,8680,30,9.764102,56.087113
955377,Isagervej,8680,40,9.778876,56.081353
955378,Violvej,8680,1,9.774722,56.086442
955379,Violvej,8680,3,9.774048,56.086454
955380,Violvej,8680,4,9.774177,56.086765
955381,Violvej,8680,5,9.773427,56.08646
955382,Violvej,8680,6,9.774194,56.087015
955383,Violvej,8680,7,9.773026,56.086444
955384,Violvej,8680,8,9.774307,56.087284
955385,Violvej,8680,9,9.772579,56.08622
955386,Violvej,8680,10,9.774297,56.087554
955387,Violvej,8680,11,9.772254,56.086156
955388,Violvej,8680,12,9.773862,56.087435
955389,Violvej,8680,14,9.77381,56.087206
955390,Violvej,8680,16,9.773762,56.086944
955391,Violvej,8680,18,9.773717,56.086751
955392,Violvej,8680,20,9.772919,56.086744
955393,Violvej,8680,22,9.772912,56.086951
955394,Violvej,8680,24,9.773026,56.087139
955395,Violvej,8680,26,9.773092,56.087363
955396,Violvej,8680,28,9.77247,56.087149
955397,Violvej,8680,30,9.772466,56.086917
955398,Violvej,8680,32,9.772021,56.086932
955399,Violvej,8680,34,9.77204,56.086722
955400,Violvej,8680,36,9.772465,56.08669
955401,Violvej,8680,38,9.772295,56.086423
955402,Violvej,8680,40,9.771916,56.086455
955403,Violvej,8680,42,9.771808,56.086136
955404,Violvej,8680,44,9.771739,56.085987
955405,Kyhnsvej,8680,1,9.757161,56.09225
955406,Kyhnsvej,8680,2,9.757273,56.09246
955407,Kyhnsvej,8680,3,9.756984,56.092286
955408,Kyhnsvej,8680,4,9.7568145,56.0924902
955409,Kyhnsvej,8680,5,9.756755,56.092325
955410,Kyhnsvej,8680,6,9.756619,56.092512
955411,Kyhnsvej,8680,7,9.75658,56.092357
955412,Kyhnsvej,8680,8,9.756481,56.092551
955413,Kyhnsvej,8680,9,9.756462,56.092378
955414,Kyhnsvej,8680,11,9.756243,56.09241
955415,Kyhnsvej,8680,13,9.756092,56.092442
955416,Kyhnsvej,8680,19,9.755442,56.092524
955417,Kyhnsvej,8680,20,9.753626,56.092592
955418,Kyhnsvej,8680,20A,9.752561,56.093242
955419,Kyhnsvej,8680,21,9.755091,56.092602
955420,Kyhnsvej,8680,22,9.753495,56.092449
955421,Kyhnsvej,8680,25,9.754451,56.092589
955422,Kyhnsvej,8680,26,9.752311,56.093375
955423,Kyhnsvej,8680,27,9.754343,56.092447
955424,Hostrupsvej,8680,2,9.757165,56.091164
955425,Hostrupsvej,8680,3A,9.757607,56.091203
955426,Hostrupsvej,8680,3B,9.757678,56.091224
955427,Hostrupsvej,8680,3C,9.757749,56.091243
955428,Hostrupsvej,8680,3D,9.757822,56.091258
955429,Hostrupsvej,8680,3E,9.75789,56.09127
955430,Hostrupsvej,8680,4A,9.757268,56.091035
955431,Hostrupsvej,8680,4B,9.757291,56.091006
955432,Hostrupsvej,8680,4C,9.75733,56.090945
955433,Hostrupsvej,8680,5A,9.757698,56.091101
955434,Hostrupsvej,8680,5B,9.757759,56.091085
955435,Hostrupsvej,8680,5C,9.757793,56.091129
955436,Hostrupsvej,8680,5D,9.757883,56.091114
955437,Hostrupsvej,8680,5E,9.757918,56.091159
955438,Hostrupsvej,8680,6,9.757391,56.090866
955439,Hostrupsvej,8680,7,9.757773,56.090447
955440,Hostrupsvej,8680,9,9.757163,56.090507
955441,Hostrupsvej,8680,10,9.757605,56.090632
955442,Hostrupsvej,8680,11,9.757016,56.09063
955443,Hostrupsvej,8680,13,9.756877,56.090737
955444,Rodelundvej,8680,1,9.752983,56.090329
955445,Rodelundvej,8680,2,9.752882,56.091699
955446,Rodelundvej,8680,2A,9.752739,56.091612
955447,Rodelundvej,8680,2B,9.752621,56.091661
955448,Rodelundvej,8680,2C,9.752438,56.091448
955449,Rodelundvej,8680,2D,9.752521,56.091498
955450,Rodelundvej,8680,2E,9.75259,56.09154
955451,Rodelundvej,8680,2F,9.752643,56.091572
955452,Rodelundvej,8680,2G,9.752473,56.091618
955453,Rodelundvej,8680,2H,9.752352,56.091679
955454,Rodelundvej,8680,2I,9.752264,56.091724
955455,Rodelundvej,8680,2J,9.752198,56.091758
955456,Rodelundvej,8680,2K,9.752144,56.091786
955457,Rodelundvej,8680,3,9.750124,56.088188
955458,Rodelundvej,8680,4A,9.751781,56.091663
955459,Rodelundvej,8680,4B,9.751745,56.091988
955460,Rodelundvej,8680,5,9.73113,56.081657
955461,Rodelundvej,8680,6,9.752167,56.091445
955462,Rodelundvej,8680,7,9.72822,56.081479
955463,Rodelundvej,8680,8,9.75201,56.091517
955464,Rodelundvej,8680,9,9.723297,56.0781
955465,Rodelundvej,8680,10,9.740394,56.083761
955466,Rodelundvej,8680,11,9.724549,56.074519
955467,Rodelundvej,8680,13,9.72,56.079082
955468,Rodelundvej,8680,14,9.720443,56.083962
955469,Rodelundvej,8680,15,9.71979,56.077017
955470,Rodelundvej,8680,24,9.691238,56.085009
955471,Rodelundvej,8680,28,9.683478,56.089155
955472,Rodelundvej,8680,30,9.681782,56.090549
955473,Rodelundvej,8680,31,9.677286,56.08795
955474,Rodelundvej,8680,33,9.677526,56.086492
955475,Rodelundvej,8680,35,9.672227,56.09054
955476,Rodelundvej,8680,36,9.664405,56.092916
955477,Rodelundvej,8680,37,9.670622,56.0909
955478,Rodelundvej,8680,38,9.664053,56.092576
955479,Rodelundvej,8680,39,9.670678,56.091437
955480,Rodelundvej,8680,40,9.661979,56.094144
955481,Rodelundvej,8680,41,9.665551,56.090402
955482,Rodelundvej,8680,42,9.658618,56.093206
955483,Rodelundvej,8680,43,9.660247,56.091733
955484,Rodelundvej,8680,44,9.657365,56.095423
955485,Rodelundvej,8680,45A,9.662191,56.090388
955486,Rodelundvej,8680,45B,9.661866,56.090578
955487,Rodelundvej,8680,47,9.658898,56.092786
955488,Rodelundvej,8680,47B,9.654864,56.08381
955489,Rodelundvej,8680,48,9.654,56.095601
955490,Rodelundvej,8680,50,9.649887,56.096606
955491,Rodelundvej,8680,52,9.651529,56.096931
955492,Rodelundvej,8680,54,9.64934,56.096737
955493,Rodelundvej,8680,55A,9.649253,56.096334
955494,Rodelundvej,8680,55B,9.649364,56.096216
955495,Rodelundvej,8680,55C,9.649159,56.096194
955496,Rodelundvej,8680,55D,9.649352,56.096295
955497,Rodelundvej,8680,56,9.648688,56.096965
955498,Rodelundvej,8680,57,9.648261,56.096146
955499,Rodelundvej,8680,59,9.646945,56.096631
955500,Rodelundvej,8680,60,9.639666,56.099414
955501,Rodelundvej,8680,61,9.64702,56.096329
955502,Rodelundvej,8680,62,9.638828,56.09943
955503,Rodelundvej,8680,63,9.646376,56.096307
955504,Rodelundvej,8680,65,9.648931,56.096454
955505,Rodelundvej,8680,69,9.645521,56.097698
955506,Rodelundvej,8680,71,9.639761,56.098261
955507,Rodelundvej,8680,73,9.639487,56.098657
955508,Ahornvej,8680,1,9.776537,56.085441
955509,Ahornvej,8680,2,9.775905,56.085306
955510,Ahornvej,8680,3,9.776317,56.085103
955511,Ahornvej,8680,4,9.775597,56.085307
955512,Ahornvej,8680,5,9.776432,56.084929
955513,Ahornvej,8680,6,9.775176,56.085313
955514,Ahornvej,8680,7,9.776659,56.084765
955515,Ahornvej,8680,8,9.77475,56.085352
955516,Ahornvej,8680,9,9.777039,56.084623
955517,Ahornvej,8680,10,9.774337,56.085271
955518,Ahornvej,8680,11,9.777028,56.084417
955519,Ahornvej,8680,12,9.773942,56.08522
955520,Ahornvej,8680,13,9.777185,56.084163
955521,Ahornvej,8680,14,9.77356,56.085183
955522,Ahornvej,8680,15,9.776793,56.083947
955523,Ahornvej,8680,16,9.773224,56.085074
955524,Ahornvej,8680,17,9.776383,56.08392
955525,Ahornvej,8680,18,9.772801,56.084962
955526,Ahornvej,8680,19,9.776682,56.084209
955527,Ahornvej,8680,20,9.772488,56.084852
955528,Ahornvej,8680,21,9.776499,56.084376
955529,Ahornvej,8680,22,9.772141,56.084737
955530,Ahornvej,8680,23,9.7763,56.08459
955531,Ahornvej,8680,24A,9.771778,56.084707
955532,Ahornvej,8680,24B,9.772044,56.084545
955533,Ahornvej,8680,25,9.77612,56.084735
955534,Ahornvej,8680,26,9.772402,56.084435
955535,Ahornvej,8680,27,9.775772,56.084569
955536,Ahornvej,8680,28,9.772754,56.084654
955537,Ahornvej,8680,29,9.775813,56.084299
955538,Ahornvej,8680,30,9.773076,56.084777
955539,Ahornvej,8680,31,9.775667,56.084051
955540,Ahornvej,8680,32,9.773507,56.084884
955541,Ahornvej,8680,33,9.775803,56.083853
955542,Ahornvej,8680,34,9.773939,56.084999
955543,Ahornvej,8680,36,9.774305,56.085033
955544,Ahornvej,8680,38,9.774733,56.085082
955545,Ahornvej,8680,40,9.775079,56.085107
955546,Ahornvej,8680,42,9.775604,56.085069
955547,Ahornvej,8680,44,9.775344,56.084788
955548,Ahornvej,8680,46,9.774775,56.084622
955549,Ahornvej,8680,48,9.774373,56.084563
955550,Ahornvej,8680,50,9.773962,56.084536
955551,Ahornvej,8680,52,9.773422,56.084446
955552,Ahornvej,8680,54A,9.77326,56.084295
955553,Ahornvej,8680,54B,9.772637,56.084268
955554,Ahornvej,8680,56,9.773069,56.084132
955555,Ahornvej,8680,58,9.773387,56.084007
955556,Ahornvej,8680,60,9.773808,56.084113
955557,Ahornvej,8680,62,9.774051,56.084254
955558,Ahornvej,8680,64,9.774668,56.084309
955559,Ahornvej,8680,66,9.775209,56.084305
955560,Ahornvej,8680,68,9.774771,56.084028
955561,Ahornvej,8680,70,9.775227,56.08396
955562,Platanvej,8680,1A,9.779746,56.084367
955563,Platanvej,8680,1B,9.779944,56.084288
955564,Platanvej,8680,2A,9.779485,56.084508
955565,Platanvej,8680,2B,9.779285,56.08459
955566,Platanvej,8680,3,9.779612,56.08417
955567,Platanvej,8680,4,9.779175,56.084646
955568,Platanvej,8680,5,9.779539,56.084025
955569,Platanvej,8680,6,9.778996,56.084723
955570,Platanvej,8680,7,9.779465,56.083819
955571,Platanvej,8680,8,9.778855,56.084758
955572,Platanvej,8680,9,9.779363,56.083677
955573,Platanvej,8680,10,9.778686,56.084828
955574,Platanvej,8680,11,9.779192,56.08355
955575,Platanvej,8680,12A,9.778497,56.084892
955576,Platanvej,8680,12B,9.778272,56.084978
955577,Platanvej,8680,13,9.778958,56.083387
955578,Platanvej,8680,14A,9.778157,56.08505
955579,Platanvej,8680,14B,9.777928,56.085136
955580,Platanvej,8680,15,9.778782,56.083051
955581,Platanvej,8680,16A,9.77763,56.085216
955582,Platanvej,8680,16B,9.777324,56.085216
955583,Platanvej,8680,17,9.778973,56.082992
955584,Platanvej,8680,18A,9.777404,56.085086
955585,Platanvej,8680,18B,9.777501,56.084943
955586,Platanvej,8680,19,9.779424,56.082911
955587,Platanvej,8680,20A,9.777692,56.084808
955588,Platanvej,8680,20B,9.777941,56.084748
955589,Platanvej,8680,21,9.779593,56.082789
955590,Platanvej,8680,22A,9.778169,56.084715
955591,Platanvej,8680,22B,9.778411,56.084648
955592,Platanvej,8680,23,9.779867,56.082669
955593,Platanvej,8680,24A,9.77855,56.084486
955594,Platanvej,8680,24B,9.778734,56.084384
955595,Platanvej,8680,25,9.779971,56.0825
955596,Platanvej,8680,26A,9.779011,56.084379
955597,Platanvej,8680,26B,9.779247,56.08432
955598,Platanvej,8680,27,9.779596,56.082384
955599,Platanvej,8680,28,9.779188,56.084076
955600,Platanvej,8680,29,9.779306,56.082407
955601,Platanvej,8680,30,9.77878,56.084051
955602,Platanvej,8680,31,9.779066,56.082537
955603,Platanvej,8680,32,9.778449,56.083975
955604,Platanvej,8680,33,9.778757,56.082717
955605,Platanvej,8680,34,9.77807,56.083866
955606,Platanvej,8680,35,9.778668,56.08283
955607,Platanvej,8680,36,9.778332,56.083721
955608,Platanvej,8680,38,9.778741,56.083574
955609,Platanvej,8680,40,9.778397,56.08325
955610,Platanvej,8680,42,9.778047,56.083297
955611,Platanvej,8680,44,9.777752,56.083321
955612,Platanvej,8680,46,9.777409,56.083059
955613,Platanvej,8680,48,9.777885,56.083021
955614,Platanvej,8680,50,9.778157,56.082996
955615,Egevej,8680,2A,9.769984,56.08369
955616,Egevej,8680,2B,9.770108,56.0836615
955617,Egevej,8680,3,9.771148,56.083299
955618,Egevej,8680,4A,9.770312,56.083487
955619,Egevej,8680,4B,9.770427,56.083449
955620,Egevej,8680,5,9.771513,56.08311
955621,Egevej,8680,6A,9.770544,56.083321
955622,Egevej,8680,6B,9.770656,56.083282
955623,Egevej,8680,7,9.771706,56.082953
955624,Egevej,8680,8A,9.770765,56.083159
955625,Egevej,8680,8B,9.7708979,56.0831103
955626,Egevej,8680,9,9.771973,56.082762
955627,Egevej,8680,10A,9.771021,56.082976
955628,Egevej,8680,10B,9.771136,56.082937
955629,Egevej,8680,11,9.772658,56.082798
955630,Egevej,8680,12,9.7713562,56.0828257
955631,Egevej,8680,13,9.7730532,56.0828956
955632,Egevej,8680,14,9.771695,56.082528
955633,Egevej,8680,15,9.773365,56.082984
955634,Egevej,8680,16,9.771824,56.082318
955635,Egevej,8680,17,9.77367,56.08321
955636,Egevej,8680,18,9.772147,56.08237
955637,Egevej,8680,19,9.773066,56.083357
955638,Egevej,8680,20,9.772594,56.082515
955639,Egevej,8680,21,9.77246,56.083289
955640,Egevej,8680,22,9.772959,56.082619
955641,Egevej,8680,23,9.772082,56.083492
955642,Egevej,8680,24,9.773419,56.082679
955643,Egevej,8680,25,9.77174,56.083622
955644,Egevej,8680,26,9.773893,56.082852
955645,Egevej,8680,27,9.771258,56.083831
955646,Egevej,8680,28,9.774328,56.082952
955647,Egevej,8680,29,9.771132,56.083757
955648,Egevej,8680,30,9.77476,56.083078
955649,Egevej,8680,31,9.771008,56.083684
955650,Egevej,8680,32,9.7751219,56.0831989
955651,Egevej,8680,33,9.770885,56.083608
955652,Egevej,8680,34,9.774624,56.083331
955653,Egevej,8680,36,9.774193,56.083426
955654,Egevej,8680,38,9.773823,56.08351
955655,Egevej,8680,40,9.773366,56.083518
955656,Egevej,8680,42,9.773016,56.083634
955657,Egevej,8680,44,9.772514,56.083738
955658,Egevej,8680,46,9.772171,56.083818
955659,Egevej,8680,48,9.77178,56.084
955660,Egevej,8680,50,9.771181,56.084249
955661,Egevej,8680,52,9.771067,56.084175
955662,Egevej,8680,54,9.770953,56.084104
955663,Egevej,8680,56,9.7708354,56.0840365
955664,Egevej,8680,58,9.770722,56.083969
955665,Egevej,8680,60,9.770607,56.083901
955666,Siim Bygade,8680,106,9.778678,56.085862
955667,Siim Bygade,8680,108,9.778523,56.085621
955668,Siim Bygade,8680,110,9.779346,56.085746
955669,Siim Bygade,8680,112,9.779085,56.085429
955670,Siim Bygade,8680,114,9.779309,56.085288
955671,Siim Bygade,8680,116,9.780467,56.085149
955672,Siim Bygade,8680,118,9.780742,56.085015
955673,Siim Bygade,8680,120A,9.780284,56.084868
955674,Siim Bygade,8680,120B,9.78056,56.084738
955675,Siim Bygade,8680,120C,9.780855,56.08458
955676,Siim Bygade,8680,122,9.781175,56.084749
955677,Siim Bygade,8680,123,9.779054,56.086071
955678,Siim Bygade,8680,124,9.781592,56.08483
955679,Siim Bygade,8680,125,9.779437,56.085921
955680,Siim Bygade,8680,127,9.779811,56.085708
955681,Siim Bygade,8680,128,9.782847,56.084479
955682,Siim Bygade,8680,129,9.780385,56.085436
955683,Siim Bygade,8680,131,9.780661,56.085319
955684,Siim Bygade,8680,133,9.780922,56.085103
955685,Siim Bygade,8680,137,9.781862,56.084931
955686,Siim Bygade,8680,139,9.782285,56.084986
955687,Siim Bygade,8680,139A,9.783199,56.084674
955688,Siim Bygade,8680,139B,9.783457,56.084588
955689,Siim Bygade,8680,141,9.784012,56.084536
955690,Vadestedet,8680,1,9.780411,56.08343
955691,Vadestedet,8680,2,9.780359,56.083374
955692,Vadestedet,8680,3,9.780301,56.083329
955693,Vadestedet,8680,4,9.780243,56.08327
955694,Vadestedet,8680,5,9.780203,56.083221
955695,Vadestedet,8680,6,9.779974,56.083151
955696,Vadestedet,8680,7,9.779847,56.08317
955697,Vadestedet,8680,8,9.779798,56.083259
955698,Vadestedet,8680,9,9.779861,56.083325
955699,Vadestedet,8680,10,9.779911,56.083381
955700,Vadestedet,8680,11,9.779982,56.083465
955701,Vadestedet,8680,12,9.78006,56.083614
955702,Vadestedet,8680,13,9.780119,56.083679
955703,Vadestedet,8680,14,9.780182,56.083747
955704,Vadestedet,8680,15,9.780248,56.083798
955705,Vadestedet,8680,16,9.780396,56.083876
955706,Vadestedet,8680,17,9.780412,56.083928
955707,Vadestedet,8680,18,9.780636,56.083963
955708,Vadestedet,8680,19,9.780693,56.083829
955709,Vadestedet,8680,20,9.780668,56.083765
955710,Vadestedet,8680,21,9.780629,56.083722
955711,Vadestedet,8680,22,9.780477,56.08358
955712,Ildervej,8680,1,9.766231,56.083251
955713,Ildervej,8680,3,9.766629,56.083449
955714,Ildervej,8680,4,9.766457,56.083007
955715,Ildervej,8680,5,9.766777,56.083237
955716,Ildervej,8680,6,9.766744,56.082803
955717,Ildervej,8680,7,9.766952,56.083074
955718,Ildervej,8680,8,9.766929,56.082631
955719,Ildervej,8680,9,9.767137,56.082911
955720,Ildervej,8680,10,9.767114,56.082457
955721,Ildervej,8680,11,9.767322,56.082737
955722,Ildervej,8680,12,9.767295,56.082284
955723,Ildervej,8680,13,9.76747,56.082581
955724,Ildervej,8680,15,9.767643,56.082421
955725,Ildervej,8680,17,9.767833,56.082244
955726,Ildervej,8680,22,9.76708,56.081771
955727,Ildervej,8680,24,9.767263,56.081874
955728,Ildervej,8680,26,9.767545,56.082025
955729,Kamillevej,8680,1A,9.777745,56.085844
955730,Kamillevej,8680,1B,9.777729,56.085779
955731,Kamillevej,8680,1C,9.777724,56.085714
955732,Kamillevej,8680,1D,9.777552,56.085674
955733,Kamillevej,8680,1E,9.777438,56.0857
955734,Kamillevej,8680,1F,9.777242,56.085737
955735,Kamillevej,8680,1G,9.777233,56.085802
955736,Kamillevej,8680,1H,9.777248,56.085872
955737,Kamillevej,8680,2,9.777859,56.086307
955738,Kamillevej,8680,4,9.777984,56.086533
955739,Kamillevej,8680,5,9.777425,56.086235
955740,Kamillevej,8680,6,9.777987,56.08676
955741,Kamillevej,8680,7,9.777466,56.086491
955742,Kamillevej,8680,8,9.778014,56.087051
955743,Kamillevej,8680,9,9.777499,56.086783
955744,Kamillevej,8680,10,9.778039,56.08729
955745,Kamillevej,8680,11,9.777531,56.087017
955746,Kamillevej,8680,12A,9.778169,56.087524
955747,Kamillevej,8680,12B,9.778236,56.087618
955748,Kamillevej,8680,13,9.777458,56.087358
955749,Kamillevej,8680,15A,9.777446,56.08757
955750,Kamillevej,8680,15B,9.777622,56.087662
955751,Julsøvænget,8680,1,9.76569,56.085806
955752,Julsøvænget,8680,2,9.765089,56.086032
955753,Julsøvænget,8680,3,9.765619,56.0859
955754,Julsøvænget,8680,4,9.765245,56.085874
955755,Julsøvænget,8680,5,9.765584,56.085975
955756,Julsøvænget,8680,6,9.765389,56.085749
955757,Julsøvænget,8680,7,9.765659,56.086021
955758,Julsøvænget,8680,8,9.765494,56.085638
955759,Julsøvænget,8680,9,9.765794,56.086034
955760,Julsøvænget,8680,10,9.765689,56.085486
955761,Julsøvænget,8680,11,9.766001,56.086018
955762,Julsøvænget,8680,12,9.765923,56.085636
955763,Julsøvænget,8680,14,9.766015,56.085791
955764,Julsøvænget,8680,16,9.766095,56.085935
955765,Sanatorievej,8680,2,9.765293,56.083066
955766,Sanatorievej,8680,3,9.765098,56.082757
955767,Sanatorievej,8680,4,9.764869,56.083054
955768,Sanatorievej,8680,5,9.764824,56.082717
955769,Sanatorievej,8680,6,9.764687,56.082929
955770,Sanatorievej,8680,7,9.764542,56.082675
955771,Sanatorievej,8680,8A,9.764229,56.08301
955772,Sanatorievej,8680,8B,9.763577,56.082923
955773,Sanatorievej,8680,8C,9.762971,56.082799
955774,Sanatorievej,8680,9,9.764661,56.082304
955775,Sanatorievej,8680,10A,9.763923,56.082839
955776,Sanatorievej,8680,10B,9.762596,56.082579
955777,Sanatorievej,8680,11,9.764644,56.082138
955778,Sanatorievej,8680,12A,9.763973,56.082583
955779,Sanatorievej,8680,12B,9.763628,56.082545
955780,Sanatorievej,8680,12C,9.763009,56.082468
955781,Sanatorievej,8680,12D,9.762758,56.082348
955782,Sanatorievej,8680,12E,9.762455,56.082411
955783,Sanatorievej,8680,14A,9.764029,56.082289
955784,Sanatorievej,8680,14B,9.763456,56.082183
955785,Sanatorievej,8680,14C,9.762963,56.082181
955786,Sanatorievej,8680,14D,9.762431,56.082065
955787,Sanatorievej,8680,16A,9.764228,56.081977
955788,Sanatorievej,8680,16B,9.763778,56.081968
955789,Sanatorievej,8680,16C,9.762922,56.081911
955790,Mossøvænget,8680,1,9.765018,56.087321
955791,Mossøvænget,8680,2,9.76496,56.087079
955792,Mossøvænget,8680,3,9.765243,56.087231
955793,Mossøvænget,8680,4,9.76489,56.086931
955794,Mossøvænget,8680,5,9.765569,56.087104
955795,Mossøvænget,8680,6,9.764799,56.086737
955796,Mossøvænget,8680,7,9.765938,56.086958
955797,Mossøvænget,8680,8,9.764765,56.086573
955798,Mossøvænget,8680,10,9.765119,56.086487
955799,Mossøvænget,8680,12,9.765223,56.086689
955800,Mossøvænget,8680,14,9.765253,56.086844
955801,Mossøvænget,8680,16,9.765705,56.086798
955802,Skærsbrovej,8680,1A,9.784868,56.085877
955803,Skærsbrovej,8680,1B,9.784438,56.086021
955804,Skærsbrovej,8680,3,9.784189,56.085624
955805,Skærsbrovej,8680,3A,9.783656,56.085266
955806,Skærsbrovej,8680,3B,9.783906,56.085156
955807,Skærsbrovej,8680,3C,9.783724,56.084922
955808,Skærsbrovej,8680,4,9.781903,56.084565
955809,Skærsbrovej,8680,5,9.783379,56.085042
955810,Skærsbrovej,8680,5A,9.783017,56.084884
955811,Skærsbrovej,8680,6,9.781904,56.0843
955812,Skærsbrovej,8680,7A,9.782412,56.084043
955813,Skærsbrovej,8680,7B,9.782244,56.08409
955814,Skærsbrovej,8680,8,9.781537,56.084326
955815,Skærsbrovej,8680,9,9.77888,56.083778
955816,Skærsbrovej,8680,10,9.781199,56.084408
955817,Skærsbrovej,8680,13,9.781293,56.08317
955818,Skærsbrovej,8680,15,9.7794,56.080256
955819,Rimmersvej,8680,1,9.695013,56.067861
955820,Rimmersvej,8680,2,9.694527,56.067439
955821,Rimmersvej,8680,3,9.695166,56.068097
955822,Rimmersvej,8680,4,9.694468,56.06722
955823,Rimmersvej,8680,5,9.695304,56.068333
955824,Rimmersvej,8680,6,9.694833,56.067166
955825,Rimmersvej,8680,7,9.695874,56.068193
955826,Rimmersvej,8680,8,9.695029,56.067467
955827,Rimmersvej,8680,9,9.695589,56.06802
955828,Rimmersvej,8680,10,9.695471,56.067358
955829,Rimmersvej,8680,11,9.695473,56.067776
955830,Rimmersvej,8680,12,9.695831,56.067305
955831,Rimmersvej,8680,13,9.696004,56.067675
955832,Rimmersvej,8680,14,9.695369,56.067039
955833,Rimmersvej,8680,15,9.696019,56.067908
955834,Rimmersvej,8680,16,9.695861,56.066906
955835,Rimmersvej,8680,17,9.696336,56.068227
955836,Rimmersvej,8680,18,9.695496,56.066569
955837,Rimmersvej,8680,20,9.69634,56.066627
955838,Rimmersvej,8680,21,9.696889,56.067978
955839,Rimmersvej,8680,22,9.696308,56.066921
955840,Rimmersvej,8680,23,9.696628,56.067786
955841,Rimmersvej,8680,24,9.696631,56.06723
955842,Rimmersvej,8680,25,9.696629,56.067573
955843,Rimmersvej,8680,26,9.697195,56.067143
955844,Rimmersvej,8680,27,9.69739,56.067518
955845,Rimmersvej,8680,28,9.697153,56.066862
955846,Rimmersvej,8680,29,9.697418,56.067749
955847,Rimmersvej,8680,30,9.697098,56.066592
955848,Rimmersvej,8680,31,9.697441,56.068031
955849,Rimmersvej,8680,32,9.697813,56.066472
955850,Rimmersvej,8680,33A,9.697933,56.068131
955851,Rimmersvej,8680,33B,9.697923,56.068293
955852,Rimmersvej,8680,34,9.697606,56.066701
955853,Rimmersvej,8680,35A,9.698422,56.068175
955854,Rimmersvej,8680,35B,9.698386,56.068291
955855,Rimmersvej,8680,36,9.697687,56.066916
955856,Rimmersvej,8680,37A,9.698342,56.067995
955857,Rimmersvej,8680,37B,9.698633,56.068005
955858,Rimmersvej,8680,38,9.697753,56.067162
955859,Rimmersvej,8680,39A,9.697871,56.067876
955860,Rimmersvej,8680,39B,9.698103,56.067876
955861,Rimmersvej,8680,40,9.698172,56.067264
955862,Rimmersvej,8680,41A,9.697847,56.067607
955863,Rimmersvej,8680,41B,9.698101,56.06761
955864,Rimmersvej,8680,42,9.698365,56.06709
955865,Rimmersvej,8680,43,9.698576,56.067736
955866,Rimmersvej,8680,44,9.698427,56.066926
955867,Rimmersvej,8680,46,9.698412,56.066755
955868,Rimmersvej,8680,48,9.698493,56.066553
955869,Rimmersvej,8680,50,9.698362,56.066357
955870,Rimmersvej,8680,52,9.698625,56.066296
955871,Rimmersvej,8680,54,9.698941,56.066243
955872,Rimmersvej,8680,56,9.699226,56.066164
955873,Rimmersvej,8680,58,9.699559,56.066245
955874,Rimmersvej,8680,60,9.699366,56.066445
955875,Rimmersvej,8680,62,9.69914,56.066635
955876,Rimmersvej,8680,64,9.699081,56.066823
955877,Rimmersvej,8680,66,9.698917,56.066984
955878,Rimmersvej,8680,68,9.698716,56.067192
955879,Rimmersvej,8680,70,9.698713,56.067381
955880,Skovvænget,8680,1,9.767627,56.080638
955881,Skovvænget,8680,2,9.768246,56.080565
955882,Skovvænget,8680,3,9.767702,56.081072
955883,Skovvænget,8680,4,9.76825,56.080931
955884,Skovvænget,8680,5,9.767775,56.081371
955885,Skovvænget,8680,6,9.768255,56.081139
955886,Skovvænget,8680,7,9.76802,56.081653
955887,Skovvænget,8680,8,9.768466,56.08167
955888,Skovvænget,8680,9,9.768271,56.081923
955889,Skovvænget,8680,10,9.768824,56.081365
955890,Skovvænget,8680,11,9.77001,56.079888
955891,Skovvænget,8680,12,9.769045,56.081128
955892,Skovvænget,8680,13,9.769654,56.080011
955893,Skovvænget,8680,14,9.769259,56.08087
955894,Skovvænget,8680,15,9.76917,56.080089
955895,Skovvænget,8680,16,9.769486,56.080645
955896,Skovvænget,8680,17,9.769613,56.079625
955897,Skovvænget,8680,18,9.769663,56.080345
955898,Skovvænget,8680,19,9.769189,56.079389
955899,Skovvænget,8680,20,9.769312,56.080265
955900,Skovvænget,8680,21,9.768876,56.079429
955901,Skovvænget,8680,22,9.768761,56.080371
955902,Skovvænget,8680,23,9.768563,56.079588
955903,Skovvænget,8680,24,9.768801,56.078789
955904,Skovvænget,8680,25,9.768333,56.079728
955905,Skovvænget,8680,27,9.768631,56.080178
955906,Skovvænget,8680,29,9.768268,56.080234
955907,Skovvænget,8680,31,9.767833,56.080334
955908,Fugldalen,8680,1,9.77521,56.080307
955909,Fugldalen,8680,2,9.7747733,56.0802741
955910,Fugldalen,8680,3,9.775687,56.08022
955911,Fugldalen,8680,4,9.7750209,56.0800885
955912,Fugldalen,8680,5,9.776169,56.0801963
955913,Fugldalen,8680,6,9.775351,56.079957
955914,Fugldalen,8680,7,9.7766833,56.0801068
955915,Fugldalen,8680,8,9.775688,56.079888
955916,Fugldalen,8680,9,9.777231,56.080175
955917,Fugldalen,8680,10,9.77611,56.079838
955918,Fugldalen,8680,11,9.7778219,56.0802491
955919,Fugldalen,8680,12,9.776479,56.079847
955920,Fugldalen,8680,13,9.778117,56.08052
955921,Fugldalen,8680,14,9.7768691,56.0798871
955922,Fugldalen,8680,15,9.776584,56.080376
955923,Fugldalen,8680,16,9.777334,56.07994
955924,Fugldalen,8680,18,9.777898,56.080017
955925,Fugldalen,8680,20,9.778263,56.080135
955926,Fugldalen,8680,22,9.778549,56.080174
955927,Fugldalen,8680,24,9.778631,56.080438
955928,Fugldalen,8680,26,9.77874,56.08065
955929,Fugldalen,8680,28,9.778732,56.080853
955930,Fugldalen,8680,30,9.77839,56.08077
955931,Fugldalen,8680,32,9.777857,56.080795
955932,Fugldalen,8680,34,9.777482,56.080875
955933,Fugldalen,8680,36,9.77702,56.080808
955934,Fugldalen,8680,38,9.776664,56.080662
955935,Fugldalen,8680,40,9.776213,56.080585
955936,Fugldalen,8680,42,9.775925,56.080431
955937,Akacievej,8680,1,9.768455,56.090056
955938,Akacievej,8680,3,9.768488,56.089881
955939,Akacievej,8680,4,9.767405,56.090143
955940,Akacievej,8680,5,9.768573,56.089736
955941,Akacievej,8680,6,9.767719,56.090074
955942,Akacievej,8680,7,9.76866,56.089585
955943,Akacievej,8680,8,9.767927,56.089969
955944,Akacievej,8680,9,9.7687102,56.0894495
955945,Akacievej,8680,10,9.768074,56.089807
955946,Akacievej,8680,11,9.769061,56.08936
955947,Akacievej,8680,12,9.768175,56.089604
955948,Akacievej,8680,13A,9.769062,56.089106
955949,Akacievej,8680,13B,9.769433,56.089196
955950,Akacievej,8680,14,9.768278,56.089442
955951,Akacievej,8680,15,9.769037,56.088876
955952,Akacievej,8680,16,9.768393,56.089266
955953,Akacievej,8680,18,9.768487,56.088993
955954,Akacievej,8680,20,9.76876,56.088705
955955,Ny Kirkevej,8680,1,9.765639,56.090579
955956,Ny Kirkevej,8680,3,9.7654,56.090375
955957,Ny Kirkevej,8680,5,9.765297,56.090282
955958,Ny Kirkevej,8680,6,9.76492,56.090333
955959,Ny Kirkevej,8680,7,9.765228,56.090138
955960,Ny Kirkevej,8680,8,9.764702,56.090217
955961,Ny Kirkevej,8680,9,9.765013,56.090036
955962,Ny Kirkevej,8680,10,9.764554,56.090023
955963,Ny Kirkevej,8680,11,9.764882,56.089932
955964,Ny Kirkevej,8680,12,9.764402,56.089892
955965,Ny Kirkevej,8680,13,9.764715,56.089791
955966,Ny Kirkevej,8680,14,9.764146,56.089745
955967,Ny Kirkevej,8680,15,9.764808,56.089635
955968,Ny Kirkevej,8680,16,9.763969,56.089593
955969,Ny Kirkevej,8680,17,9.764582,56.089566
955970,Ny Kirkevej,8680,18,9.763537,56.089216
955971,Ny Kirkevej,8680,19,9.764283,56.089429
955972,Ny Kirkevej,8680,20,9.763303,56.089295
955973,Ny Kirkevej,8680,22,9.763032,56.089387
955974,Ny Kirkevej,8680,23,9.763971,56.08913
955975,Ny Kirkevej,8680,25,9.764559,56.088977
955976,Ny Kirkevej,8680,26,9.762582,56.089295
955977,Ny Kirkevej,8680,27,9.7647818,56.0889046
955978,Ny Kirkevej,8680,28,9.762988,56.089159
955979,Ny Kirkevej,8680,29,9.764928,56.088856
955980,Ny Kirkevej,8680,30,9.76336,56.089035
955981,Ny Kirkevej,8680,31,9.7649142,56.0885185
955982,Ny Kirkevej,8680,33,9.764683,56.088615
955983,Ny Kirkevej,8680,35A,9.764169,56.08868
955984,Ny Kirkevej,8680,35B,9.764062,56.088544
955985,Ny Kirkevej,8680,35C,9.7642229,56.0885055
955986,Ny Kirkevej,8680,35D,9.76433,56.088641
955987,Ny Kirkevej,8680,37A,9.764055,56.08859
955988,Ny Kirkevej,8680,37B,9.764104,56.088652
955989,Ny Kirkevej,8680,39,9.764001,56.088757
955990,Ny Kirkevej,8680,41,9.763906,56.08878
955991,Ny Kirkevej,8680,43,9.763588,56.088938
955992,Købmandsgården,8680,1,9.756624,56.092093
955993,Købmandsgården,8680,3,9.756759,56.092059
955994,Købmandsgården,8680,4,9.756807,56.09207
955995,Købmandsgården,8680,5,9.756855,56.092082
955996,Købmandsgården,8680,6,9.756904,56.092093
955997,Købmandsgården,8680,8,9.756996,56.092098
955998,Købmandsgården,8680,9,9.757062,56.092113
955999,Købmandsgården,8680,10,9.75652,56.092133
956000,Købmandsgården,8680,11,9.756551,56.09209
956001,Købmandsgården,8680,12,9.75659,56.092045
956002,Købmandsgården,8680,13,9.756625,56.09199
956003,Købmandsgården,8680,14,9.756706,56.092015
956004,Købmandsgården,8680,15,9.75674,56.092025
956005,Købmandsgården,8680,16,9.756785,56.092034
956006,Købmandsgården,8680,17,9.756843,56.092043
956007,Købmandsgården,8680,18,9.756889,56.092057
956008,Købmandsgården,8680,19,9.756922,56.092064
956009,Købmandsgården,8680,20,9.756953,56.092071
956010,Købmandsgården,8680,21,9.757097,56.092114
956011,Anemonevej,8680,2A,9.775548,56.085915
956012,Anemonevej,8680,2B,9.775819,56.085918
956013,Anemonevej,8680,2C,9.776089,56.085923
956014,Anemonevej,8680,2D,9.776373,56.085908
956015,Anemonevej,8680,2E,9.776642,56.085912
956016,Anemonevej,8680,3,9.774846,56.086204
956017,Anemonevej,8680,6,9.77553,56.086515
956018,Anemonevej,8680,7,9.774964,56.086741
956019,Anemonevej,8680,8,9.775429,56.086739
956020,Anemonevej,8680,9,9.774985,56.086951
956021,Anemonevej,8680,10,9.775402,56.086952
956022,Anemonevej,8680,11,9.774922,56.087163
956023,Anemonevej,8680,12,9.775419,56.087185
956024,Anemonevej,8680,13,9.774935,56.087406
956025,Anemonevej,8680,14,9.775436,56.087435
956026,Anemonevej,8680,15,9.775013,56.087607
956027,Anemonevej,8680,16,9.775497,56.087671
956028,Boeletvej,8680,1,9.785103,56.089116
956029,Boeletvej,8680,2A,9.783729,56.086624
956030,Boeletvej,8680,2B,9.784504,56.086503
956031,Boeletvej,8680,4B,9.785067,56.085153
956032,Boeletvej,8680,5,9.785259,56.088535
956033,Boeletvej,8680,17,9.78537,56.086702
956034,Boeletvej,8680,25,9.78591,56.085469
956035,Boeletvej,8680,27,9.785855,56.084262
956036,Boeletvej,8680,29,9.786769,56.084238
956037,Boeletvej,8680,31,9.787426,56.084062
956038,Boeletvej,8680,33,9.785695,56.083859
956039,Boeletvej,8680,35,9.785462,56.083347
956040,Ydunsvej,8680,1A,9.771701,56.094421
956041,Ydunsvej,8680,1B,9.771752,56.09434
956042,Ydunsvej,8680,2,9.771277,56.09427
956043,Ydunsvej,8680,3,9.771853,56.094097
956044,Ydunsvej,8680,4,9.771413,56.094075
956045,Ydunsvej,8680,5,9.772059,56.093884
956046,Ydunsvej,8680,6,9.77155,56.093881
956047,Ydunsvej,8680,7,9.772155,56.093661
956048,Ydunsvej,8680,8,9.771631,56.09368
956049,Ydunsvej,8680,9,9.772355,56.093477
956050,Ydunsvej,8680,10A,9.771746,56.09348
956051,Ydunsvej,8680,10B,9.771706,56.093384
956052,Ydunsvej,8680,12,9.772039,56.093298
956053,Kornblomstvej,8680,2,9.775649,56.086183
956054,Kornblomstvej,8680,3,9.776214,56.086468
956055,Kornblomstvej,8680,4,9.776082,56.086192
956056,Kornblomstvej,8680,5,9.776215,56.086708
956057,Kornblomstvej,8680,7,9.776232,56.08694
956058,Kornblomstvej,8680,9,9.776253,56.087179
956059,Kornblomstvej,8680,10,9.776638,56.086243
956060,Kornblomstvej,8680,11,9.776248,56.087439
956061,Kornblomstvej,8680,12,9.776651,56.086537
956062,Kornblomstvej,8680,13,9.776323,56.08764
956063,Kornblomstvej,8680,14,9.776756,56.086789
956064,Kornblomstvej,8680,16,9.776681,56.087084
956065,Kornblomstvej,8680,18,9.776803,56.087347
956066,Kornblomstvej,8680,20,9.776812,56.08766
956067,Industrivej,8680,2,9.778592,56.089278
956068,Industrivej,8680,4,9.779463,56.089162
956069,Industrivej,8680,5,9.778629,56.089709
956070,Industrivej,8680,6,9.780225,56.089205
956071,Industrivej,8680,6A,9.780353,56.088775
956072,Industrivej,8680,7,9.779332,56.0896
956073,Industrivej,8680,8,9.781281,56.088999
956074,Industrivej,8680,9,9.780051,56.089607
956075,Industrivej,8680,10A,9.781931,56.08891
956076,Industrivej,8680,10B,9.782678,56.088843
956077,Industrivej,8680,11,9.780751,56.089473
956078,Industrivej,8680,12,9.783551,56.088671
956079,Industrivej,8680,14,9.783672,56.088064
956080,Industrivej,8680,14B,9.783828,56.087642
956081,Industrivej,8680,16,9.783971,56.087228
956082,Industrivej,8680,18,9.783939,56.086954
956083,Fyrrevej,8680,1,9.769395,56.082546
956084,Fyrrevej,8680,2,9.769939,56.082079
956085,Fyrrevej,8680,3,9.768961,56.082954
956086,Fyrrevej,8680,4,9.770625,56.081505
956087,Fyrrevej,8680,5,9.769612,56.083365
956088,Fyrrevej,8680,6,9.77106,56.081127
956089,Fyrrevej,8680,7,9.770033,56.083023
956090,Fyrrevej,8680,9,9.770358,56.082753
956091,Fyrrevej,8680,11,9.770315,56.082386
956092,Fyrrevej,8680,13,9.770869,56.082018
956093,Fyrrevej,8680,15,9.771252,56.081662
956094,Fyrrevej,8680,19,9.771936,56.080969
956095,Fyrrevej,8680,21,9.772153,56.080251
956096,Fyrrevej,8680,23,9.771386,56.080563
956097,Alleen,8680,1A,9.761097,56.094431
956098,Alleen,8680,1B,9.7613628,56.0945612
956099,Alleen,8680,3,9.761779,56.094602
956100,Alleen,8680,4,9.761945,56.094429
956101,Alleen,8680,5,9.762287,56.0947395
956102,Alleen,8680,6,9.762728,56.094617
956103,Alleen,8680,7,9.762516,56.094893
956104,Alleen,8680,8,9.76294,56.094662
956105,Alleen,8680,10,9.764357,56.094854
956106,Alleen,8680,11,9.763787,56.095113
956107,Alleen,8680,12,9.7648,56.094745
956108,Alleen,8680,13,9.764183,56.095104
956109,Alleen,8680,14,9.765031,56.094632
956110,Alleen,8680,15,9.764629,56.095082
956111,Skanseparken,8680,1A,9.770954,56.091961
956112,Skanseparken,8680,1B,9.770912,56.092026
956113,Skanseparken,8680,3A,9.77077,56.092136
956114,Skanseparken,8680,3B,9.770726,56.092201
956115,Skanseparken,8680,5A,9.770588,56.09231
956116,Skanseparken,8680,5B,9.770547,56.092374
956117,Skanseparken,8680,5C,9.770505,56.092438
956118,Skanseparken,8680,7A,9.770729,56.092499
956119,Skanseparken,8680,7B,9.770844,56.092523
956120,Skanseparken,8680,9A,9.771223,56.092506
956121,Skanseparken,8680,9B,9.771179,56.092572
956122,Skanseparken,8680,11A,9.771059,56.092331
956123,Skanseparken,8680,11B,9.771173,56.092354
956124,Skanseparken,8680,11C,9.771286,56.092377
956125,Skanseparken,8680,13A,9.771482,56.09202
956126,Skanseparken,8680,13B,9.77143,56.0921
956127,Skanseparken,8680,13C,9.771378,56.092179
956128,Skanseparken,8680,15A,9.771644,56.092152
956129,Skanseparken,8680,15B,9.771785,56.092182
956130,Skanseparken,8680,17A,9.772095,56.092228
956131,Skanseparken,8680,17B,9.772044,56.092307
956132,Skanseparken,8680,17C,9.771994,56.092387
956133,Skanseparken,8680,19A,9.771818,56.092506
956134,Skanseparken,8680,19B,9.771767,56.092585
956135,Skanseparken,8680,21A,9.771785,56.09273
956136,Skanseparken,8680,21B,9.771968,56.092766
956137,Skanseparken,8680,23A,9.772229,56.092789
956138,Skanseparken,8680,23B,9.772372,56.092818
956139,Skanseparken,8680,25A,9.77234,56.092617
956140,Skanseparken,8680,25B,9.772484,56.092646
956141,Skanseparken,8680,27A,9.772349,56.092359
956142,Skanseparken,8680,27B,9.772491,56.092389
956143,Skanseparken,8680,27C,9.772633,56.092419
956144,Skanseparken,8680,29A,9.77246,56.092187
956145,Skanseparken,8680,29B,9.772603,56.092216
956146,Skanseparken,8680,29C,9.772745,56.092246
956147,Søvænget,8680,2,9.756094,56.095148
956148,Søvænget,8680,3,9.75596,56.0955719
956149,Søvænget,8680,4,9.756293,56.095362
956150,Søvænget,8680,5,9.755579,56.09574
956151,Søvænget,8680,6,9.756705,56.095239
956152,Søvænget,8680,7,9.755157,56.095861
956153,Søvænget,8680,8,9.757056,56.095368
956154,Søvænget,8680,9,9.755325,56.095962
956155,Søvænget,8680,10,9.75672,56.095516
956156,Søvænget,8680,12,9.756379,56.095666
956157,Søvænget,8680,14,9.756081,56.095892
956158,Søvænget,8680,16,9.7556349,56.0961432
956160,Ravnsøvej,8680,3,9.82959,56.090444
956161,Ravnsøvej,8680,4,9.825351,56.094148
956162,Ravnsøvej,8680,7,9.823239,56.103637
956163,Ravnsøvej,8680,12A,9.826536,56.105569
956164,Ravnsøvej,8680,12B,9.827954,56.106066
956165,Ravnsøvej,8680,13,9.822614,56.105743
956166,Ravnsøvej,8680,14,9.822913,56.105978
956167,Ravnsøvej,8680,15,9.820233,56.105215
956168,Ravnsøvej,8680,18,9.8219758,56.1082095
956169,Ravnsøvej,8680,19,9.817253,56.106774
956170,Ravnsøvej,8680,21,9.819043,56.109974
956171,Ravnsøvej,8680,22,9.819578,56.1098
956172,Ravnsøvej,8680,23,9.81864,56.110496
956173,Ravnsøvej,8680,24,9.819577,56.11007
956174,Ravnsøvej,8680,25,9.8186823,56.1107041
956175,Ravnsøvej,8680,26,9.819543,56.110678
956176,Ravnsøvej,8680,27,9.817661,56.110499
956177,Ravnsøvej,8680,28,9.8189141,56.1107773
956178,Ravnsøvej,8680,29,9.817912,56.110978
956179,Ravnsøvej,8680,30,9.818834,56.110885
956180,Ravnsøvej,8680,31,9.817891,56.111048
956181,Ravnsøvej,8680,32,9.818714,56.111116
956182,Ravnsøvej,8680,33,9.818264,56.111128
956183,Ravnsøvej,8680,34,9.81869,56.111215
956184,Ravnsøvej,8680,36,9.818629,56.111514
956185,Ravnsøvej,8680,37,9.818252,56.111545
956186,Ravnsøvej,8680,40,9.818402,56.112186
956187,Ravnsøvej,8680,41,9.818181,56.11257
956188,Ravnsøvej,8680,42,9.818545,56.112571
956189,Ravnsøvej,8680,43,9.818272,56.112864
956190,Ravnsøvej,8680,45,9.817797,56.113065
956191,Ravnsøvej,8680,46,9.818903,56.113046
956192,Ravnsøvej,8680,47,9.8179226,56.1131876
956193,Ravnsøvej,8680,48B,9.819044,56.113053
956194,Ravnsøvej,8680,48C,9.820052,56.11273
956195,Ravnsøvej,8680,49,9.818106,56.113178
956196,Ravnsøvej,8680,50,9.819423,56.113709
956197,Ravnsøvej,8680,51,9.818417,56.113321
956198,Ravnsøvej,8680,52,9.81954,56.114015
956199,Ravnsøvej,8680,53,9.818194,56.113769
956200,Ravnsøvej,8680,54,9.820524,56.114342
956201,Ravnsøvej,8680,56,9.822552,56.115117
956202,Ravnsøvej,8680,57,9.817828,56.114537
956203,Ravnsøvej,8680,62,9.8187558,56.1132281
956204,Ravnsøvej,8680,63,9.812033,56.123933
956205,Ravnsøvej,8680,64,9.818718,56.113467
956206,Ravnsøvej,8680,65,9.808678,56.126074
956207,Ravnsøvej,8680,66,9.818581,56.113771
956209,Ravnsøvej,8680,68,9.818592,56.114064
956215,Ravnsøvej,8680,80,9.8177,56.118795
956216,Ravnsøvej,8680,82,9.82379,56.119902
956217,Ravnsøvej,8680,84,9.817385,56.119366
956218,Ravnsøvej,8680,86,9.816152,56.120736
956226,Maagevej,8680,2,9.762814,56.096219
956227,Maagevej,8680,3,9.762172,56.09626
956228,Maagevej,8680,4,9.762735,56.096405
956229,Maagevej,8680,5,9.762093,56.096335
956230,Maagevej,8680,6,9.762641,56.096495
956231,Maagevej,8680,7,9.762014,56.09641
956232,Maagevej,8680,8,9.762581,56.096553
956233,Maagevej,8680,9,9.761936,56.096485
956234,Maagevej,8680,10,9.762497,56.096632
956235,Maagevej,8680,11,9.761852,56.09656
956236,Maagevej,8680,12,9.762424,56.096704
956237,Maagevej,8680,14,9.76236,56.096765
956274,Enghavevej,8680,4,9.757362,56.091382
956275,Enghavevej,8680,6,9.757066,56.091312
956276,Enghavevej,8680,9,9.756785,56.090987
956277,Enghavevej,8680,11,9.756595,56.091261
956278,Enghavevej,8680,13,9.756476,56.091387
956279,Enghavevej,8680,15,9.756188,56.091657
956280,Enghavevej,8680,17,9.756134,56.09183
956281,Enghavevej,8680,19,9.755974,56.091919
956282,Enghavevej,8680,21,9.755892,56.092013
956283,Enghavevej,8680,23,9.755236,56.091986
956284,Enghavevej,8680,25,9.7558,56.092225
956285,Enghavevej,8680,27,9.755428,56.092279
956286,Baldersvej,8680,1,9.768311,56.093945
956287,Baldersvej,8680,2,9.768433,56.093731
956288,Baldersvej,8680,3,9.768583,56.094112
956289,Baldersvej,8680,4,9.768958,56.09383
956290,Baldersvej,8680,5,9.768998,56.094143
956291,Baldersvej,8680,6,9.769598,56.093981
956292,Baldersvej,8680,7,9.769345,56.09422
956293,Baldersvej,8680,8,9.770057,56.094058
956294,Baldersvej,8680,9,9.769702,56.094313
956295,Baldersvej,8680,10,9.770691,56.094193
956296,Baldersvej,8680,11,9.770066,56.094364
956297,Baldersvej,8680,13,9.770414,56.094426
956298,Baldersvej,8680,15,9.770794,56.09446
956352,Birkhedevej,8680,1,9.739924,56.097075
956353,Birkhedevej,8680,2A,9.740123,56.099336
956354,Birkhedevej,8680,2C,9.739258,56.09942
956355,Birkhedevej,8680,3,9.738004,56.096444
956356,Birkhedevej,8680,4,9.738386,56.098685
956357,Birkhedevej,8680,7,9.734309,56.096452
956358,Birkhedevej,8680,9,9.731971,56.096448
956359,Birkhedevej,8680,10,9.733361,56.096575
956360,Birkhedevej,8680,11,9.729676,56.096698
956361,Birkhedevej,8680,12,9.73263,56.096824
956362,Birkhedevej,8680,14,9.731354,56.096986
956363,Birkhedevej,8680,15,9.725086,56.097158
956364,Birkhedevej,8680,16,9.728243,56.097166
956365,Birkhedevej,8680,19,9.726353,56.101212
956366,Birkhedevej,8680,20,9.7283309,56.0976701
956367,Birkhedevej,8680,21,9.726878,56.103479
956368,Birkhedevej,8680,21B,9.722557,56.106716
956369,Birkhedevej,8680,22,9.729149,56.101662
956370,Birkhedevej,8680,24,9.731258,56.102498
956371,Birkhedevej,8680,25,9.730978,56.111886
956372,Birkhedevej,8680,27,9.731084,56.112086
956373,Birkhedevej,8680,30,9.728483,56.102204
956374,Birkhedevej,8680,32,9.729046,56.103993
956375,Birkhedevej,8680,40A,9.731341,56.111845
956376,Birkhedevej,8680,40B,9.731426,56.111842
956377,Egernvej,8680,3,9.765503,56.081595
956378,Egernvej,8680,4,9.765492,56.081918
956379,Egernvej,8680,5,9.765604,56.08129
956380,Egernvej,8680,6,9.765216,56.081838
956381,Egernvej,8680,8,9.764908,56.081797
956382,Egernvej,8680,10,9.764953,56.081576
956383,Egernvej,8680,12,9.7650576,56.0812547
956384,Egernvej,8680,14,9.765144,56.081037
956385,Egernvej,8680,16,9.765439,56.081016
956386,Egernvej,8680,18,9.765713,56.081058
956387,Egernvej,8680,20,9.766167,56.081132
956388,Egernvej,8680,22,9.766482,56.081139
956389,Brunhøjvej,8680,2,9.777789,56.090256
956390,Brunhøjvej,8680,3,9.778346,56.090053
956391,Brunhøjvej,8680,4,9.777635,56.090007
956392,Brunhøjvej,8680,5,9.778424,56.089762
956393,Brunhøjvej,8680,6,9.776706,56.089883
956394,Brunhøjvej,8680,6B,9.776605,56.089607
956395,Brunhøjvej,8680,7,9.778251,56.089309
956396,Brunhøjvej,8680,8,9.777749,56.0894
956397,Brunhøjvej,8680,9,9.778582,56.0888
956398,Brunhøjvej,8680,9A,9.778591,56.088128
956399,Brunhøjvej,8680,10,9.777702,56.089023
956400,Brunhøjvej,8680,11,9.778783,56.087444
956401,Brunhøjvej,8680,13,9.778796,56.086903
956402,Brunhøjvej,8680,15,9.779013,56.086431
956403,Lynghovedvej,8680,1,9.776015,56.088339
956404,Lynghovedvej,8680,3,9.776004,56.088216
956405,Lynghovedvej,8680,5,9.775758,56.088212
956406,Lynghovedvej,8680,7,9.77554,56.088219
956407,Lynghovedvej,8680,8,9.776601,56.088288
956408,Lynghovedvej,8680,9,9.775245,56.088221
956409,Lynghovedvej,8680,10,9.776434,56.088809
956410,Lynghovedvej,8680,11,9.775023,56.088168
956411,Lynghovedvej,8680,12,9.77617,56.089134
956412,Lynghovedvej,8680,13,9.774766,56.088174
956413,Lynghovedvej,8680,14,9.775991,56.089138
956414,Lynghovedvej,8680,15,9.774556,56.088123
956415,Lynghovedvej,8680,16,9.775749,56.089172
956416,Lynghovedvej,8680,17,9.77443,56.088216
956417,Lynghovedvej,8680,18,9.775565,56.089177
956418,Lynghovedvej,8680,19,9.77434,56.088333
956419,Lynghovedvej,8680,20,9.775313,56.08916
956420,Lynghovedvej,8680,21,9.774559,56.088389
956421,Lynghovedvej,8680,22,9.775115,56.089166
956422,Lynghovedvej,8680,23,9.774799,56.088448
956423,Lynghovedvej,8680,24,9.774838,56.089205
956424,Lynghovedvej,8680,25,9.775101,56.08842
956425,Lynghovedvej,8680,26,9.774645,56.089249
956426,Lynghovedvej,8680,27,9.775245,56.088615
956427,Lynghovedvej,8680,29,9.77526,56.088743
956428,Lynghovedvej,8680,31,9.775378,56.088854
956429,Lynghovedvej,8680,33,9.775628,56.088846
956430,Lynghovedvej,8680,35,9.775716,56.088719
956431,Lynghovedvej,8680,37,9.7757,56.088597
956432,Lynghovedvej,8680,39,9.775721,56.088419
956433,Lynghovedvej,8680,41,9.775503,56.088426
956434,Ægirsvej,8680,3,9.770854,56.093884
956435,Ægirsvej,8680,4,9.770301,56.093852
956436,Ægirsvej,8680,5,9.771023,56.093664
956437,Ægirsvej,8680,6,9.770444,56.093657
956438,Ægirsvej,8680,7,9.771058,56.093363
956439,Ægirsvej,8680,8,9.770593,56.093444
956440,Ægirsvej,8680,9,9.77147,56.093158
956441,Ægirsvej,8680,10,9.770727,56.09325
956442,Ægirsvej,8680,11,9.771388,56.092964
956443,Ægirsvej,8680,12,9.770826,56.093023
956444,Ægirsvej,8680,14,9.770974,56.092864
956445,Vibevej,8680,1,9.757287,56.095557
956446,Vibevej,8680,2,9.757944,56.095708
956447,Vibevej,8680,3,9.757202,56.095793
956448,Vibevej,8680,4,9.757503,56.096036
956449,Vibevej,8680,5,9.756793,56.095859
956450,Vibevej,8680,6,9.757319,56.096212
956451,Vibevej,8680,7,9.756631,56.096026
956452,Vibevej,8680,8,9.756758,56.096432
956453,Vibevej,8680,9,9.756493,56.096143
956454,Vibevej,8680,11,9.756267,56.096308
956455,Strungesvej,8680,1,9.759969,56.092944
956456,Strungesvej,8680,3,9.760128,56.092793
956457,Strungesvej,8680,5,9.760499,56.092645
956458,Strungesvej,8680,6,9.759705,56.092234
956459,Strungesvej,8680,6B,9.759833,56.092213
956460,Strungesvej,8680,6C,9.759904,56.092202
956461,Strungesvej,8680,7,9.760646,56.092613
956462,Strungesvej,8680,8,9.760256,56.09251
956463,Strungesvej,8680,9,9.760954,56.092562
956464,Strungesvej,8680,10,9.76048,56.092458
956465,Strungesvej,8680,12,9.760749,56.092389
956466,Strungesvej,8680,14,9.761102,56.092189
956467,Skæphøj,8680,2,9.784311,56.081452
956468,Skæphøj,8680,3,9.781162,56.081344
956469,Skæphøj,8680,4,9.784106,56.081762
956470,Skæphøj,8680,5,9.781273,56.081345
956471,Skæphøj,8680,6,9.784059,56.081985
956472,Skæphøj,8680,7,9.781173,56.081252
956473,Skæphøj,8680,8,9.783907,56.082287
956474,Skæphøj,8680,9,9.781266,56.081253
956475,Skæphøj,8680,10,9.783795,56.082452
956476,Skæphøj,8680,11,9.781172,56.081082
956477,Skæphøj,8680,12,9.783325,56.082461
956478,Skæphøj,8680,13,9.781288,56.081079
956479,Skæphøj,8680,14,9.783181,56.082158
956480,Skæphøj,8680,15,9.781176,56.080996
956481,Skæphøj,8680,16,9.783226,56.081889
956482,Skæphøj,8680,17,9.781287,56.080994
956483,Skæphøj,8680,18,9.783273,56.081666
956484,Skæphøj,8680,19,9.780776,56.081114
956485,Skæphøj,8680,20,9.783543,56.081428
956486,Skæphøj,8680,22,9.782338,56.081596
956487,Skæphøj,8680,23,9.780861,56.081115
956488,Skæphøj,8680,24,9.782516,56.081567
956489,Skæphøj,8680,25,9.78069,56.081114
956490,Skæphøj,8680,26,9.782693,56.081537
956491,Skæphøj,8680,27,9.780216,56.080944
956492,Skæphøj,8680,28,9.782501,56.081766
956493,Skæphøj,8680,29,9.780309,56.080945
956494,Skæphøj,8680,30,9.782668,56.081738
956495,Skæphøj,8680,31,9.780212,56.081044
956496,Skæphøj,8680,32,9.782596,56.081946
956497,Skæphøj,8680,33,9.780305,56.081041
956498,Skæphøj,8680,34,9.782337,56.081988
956499,Skæphøj,8680,35,9.780295,56.081172
956500,Skæphøj,8680,36,9.782151,56.082019
956501,Skæphøj,8680,37,9.780388,56.081173
956502,Skæphøj,8680,38,9.78199,56.081851
956503,Skæphøj,8680,39,9.780296,56.081267
956504,Skæphøj,8680,40,9.781799,56.081882
956505,Skæphøj,8680,41,9.780395,56.081271
956506,Skæphøj,8680,42,9.781607,56.081914
956507,Skæphøj,8680,43,9.780381,56.081397
956508,Skæphøj,8680,44,9.782001,56.081652
956509,Skæphøj,8680,45,9.780483,56.081398
956510,Skæphøj,8680,46,9.781811,56.081684
956511,Skæphøj,8680,47,9.780383,56.081495
956512,Skæphøj,8680,48,9.781621,56.081715
956513,Skæphøj,8680,49,9.780473,56.081496
956514,Skæphøj,8680,50,9.781666,56.08217
956515,Skæphøj,8680,52,9.781882,56.0822
956516,Skæphøj,8680,54,9.782098,56.082228
956517,Skæphøj,8680,56,9.782314,56.082258
956518,Skæphøj,8680,58,9.782525,56.082286
956519,Skæphøj,8680,60,9.7825,56.082433
956520,Skæphøj,8680,62,9.782247,56.082418
956521,Skæphøj,8680,64,9.782029,56.082367
956522,Skæphøj,8680,66,9.781814,56.082326
956523,Skæphøj,8680,68,9.781261,56.082233
956524,Skæphøj,8680,70,9.78101,56.08225
956525,Skæphøj,8680,72,9.780759,56.082268
956526,Skæphøj,8680,74,9.780729,56.082142
956527,Skæphøj,8680,76,9.780982,56.082122
956528,Skæphøj,8680,78,9.781199,56.082102
956529,Skæphøj,8680,80,9.781205,56.081831
956530,Skæphøj,8680,82,9.781024,56.08185
956531,Skæphøj,8680,84,9.780843,56.081866
956532,Skæphøj,8680,86,9.780662,56.081883
956533,Skæphøj,8680,88,9.78051,56.081762
956534,Skæphøj,8680,90,9.780728,56.081746
956535,Skæphøj,8680,92,9.780944,56.08173
956536,Skæphøj,8680,94,9.781125,56.081714
956542,Lundhøjvej,8680,16,9.81014,56.07866
956543,Lundhøjvej,8680,18,9.803267,56.079724
956544,Lundhøjvej,8680,20,9.797385,56.080786
956545,Gudrunsvej,8680,1,9.764302,56.090854
956546,Gudrunsvej,8680,3,9.764119,56.090652
956547,Gudrunsvej,8680,4,9.76377,56.090763
956548,Gudrunsvej,8680,7,9.763883,56.090378
956549,Gudrunsvej,8680,8,9.763368,56.090419
956550,Gudrunsvej,8680,9,9.763568,56.090218
956551,Gudrunsvej,8680,10,9.763136,56.090261
956552,Gudrunsvej,8680,11,9.763418,56.090039
956553,Gudrunsvej,8680,12,9.762924,56.090058
956554,Gudrunsvej,8680,13,9.763291,56.089888
956555,Gudrunsvej,8680,14,9.762415,56.090063
956556,Gudrunsvej,8680,15,9.762805,56.089537
956557,Gudrunsvej,8680,16,9.762345,56.089618
956558,Fredensvej,8680,4,9.757974,56.092573
956559,Fredensvej,8680,6,9.757912,56.092646
956560,Fredensvej,8680,8,9.757832,56.092732
956561,Fredensvej,8680,10,9.757721,56.092854
956562,Fredensvej,8680,12,9.757694,56.092942
956563,Fredensvej,8680,14,9.757559,56.093044
956564,Fredensvej,8680,16,9.757497,56.09315
956565,Fredensvej,8680,18,9.757362,56.093236
956566,Fredensvej,8680,20,9.7572913,56.0932981
956567,Fredensvej,8680,22,9.757132,56.093421
956568,Fredensvej,8680,26,9.756946,56.0936
956569,Fasanvej,8680,1,9.770115,56.097304
956570,Fasanvej,8680,2A,9.770462,56.097376
956571,Fasanvej,8680,2B,9.770837,56.097418
956572,Fasanvej,8680,2C,9.771062,56.097764
956573,Fasanvej,8680,2D,9.770398,56.097579
956574,Fasanvej,8680,3,9.769986,56.097647
956575,Fasanvej,8680,4,9.770724,56.097783
956576,Fasanvej,8680,5,9.769921,56.09796
956577,Fasanvej,8680,6,9.770392,56.09796
956578,Fasanvej,8680,7,9.769959,56.098314
956579,Fasanvej,8680,8,9.770285,56.098218
956580,Ellemosen,8680,1,9.783076,56.091215
956581,Ellemosen,8680,2,9.783249,56.090984
956582,Ellemosen,8680,4,9.782782,56.090961
956583,Ellemosen,8680,5,9.781833,56.091019
956584,Ellemosen,8680,7,9.782203,56.091467
956585,Ellemosen,8680,9,9.780761,56.091198
956586,Ellemosen,8680,11,9.781107,56.091736
956587,Ellemosen,8680,13,9.779321,56.0914
956588,Ellemosen,8680,13A,9.780458,56.09205
956589,Lyngvej,8680,2,9.74133,56.099809
956590,Lyngvej,8680,3,9.739402,56.103303
956591,Lyngvej,8680,4,9.741463,56.099979
956592,Lyngvej,8680,6,9.7437519,56.1004707
956593,Lyngvej,8680,8,9.739141,56.10409
956594,Lyngvej,8680,9,9.736597,56.110489
956595,Lyngvej,8680,11,9.736164,56.111254
956596,Lyngvej,8680,12,9.744627,56.101597
956597,Lyngvej,8680,14,9.744851,56.103641
956598,Lyngvej,8680,18,9.74842,56.103343
956599,Lyngvej,8680,20A,9.7487092,56.1040865
956600,Lyngvej,8680,20B,9.748835,56.104107
956601,Lyngvej,8680,22,9.7381477,56.1069851
956602,Lyngvej,8680,24,9.738004,56.107205
956603,Kærmindevej,8680,1,9.771802,56.085349
956604,Kærmindevej,8680,2,9.772456,56.085856
956605,Kærmindevej,8680,3,9.771676,56.085368
956606,Kærmindevej,8680,4,9.772076,56.085847
956607,Kærmindevej,8680,5,9.771364,56.085521
956608,Kærmindevej,8680,7,9.771143,56.085593
956609,Kærmindevej,8680,8,9.771255,56.085864
956610,Kærmindevej,8680,9,9.770814,56.085701
956611,Kærmindevej,8680,11,9.770656,56.085805
956612,Kærmindevej,8680,13,9.770365,56.08596
956613,Frejasvej,8680,3A,9.77438,56.091557
956614,Frejasvej,8680,3B,9.774463,56.09147
956615,Frejasvej,8680,3C,9.7745,56.091374
956616,Frejasvej,8680,4,9.774471,56.091819
956617,Frejasvej,8680,5,9.77394,56.091441
956618,Frejasvej,8680,6,9.774066,56.09173
956619,Frejasvej,8680,7,9.773542,56.091397
956620,Frejasvej,8680,8,9.773671,56.091712
956621,Frejasvej,8680,9,9.773366,56.091361
956622,Bragesvej,8680,1,9.76758,56.094691
956623,Bragesvej,8680,2,9.767795,56.094479
956624,Bragesvej,8680,3,9.767941,56.0948
956625,Bragesvej,8680,4,9.768249,56.09455
956626,Bragesvej,8680,5,9.768285,56.094824
956627,Bragesvej,8680,6,9.768593,56.094613
956628,Bragesvej,8680,7,9.768702,56.09491
956629,Bragesvej,8680,8,9.7689,56.094625
956630,Bragesvej,8680,10,9.769237,56.094604
956631,Bragesvej,8680,12,9.769553,56.094735
956632,Bakkelyvej,8680,1,9.779855,56.085046
956633,Bakkelyvej,8680,2,9.782033,56.082926
956634,Bakkelyvej,8680,3,9.78656,56.08341
956635,Bakkelyvej,8680,5,9.789183,56.082963
956636,Bakkelyvej,8680,7,9.790017,56.083097
956637,Bakkelyvej,8680,9,9.791194,56.083257
956638,Bakkelyvej,8680,11,9.792088,56.08345
956639,Bakkelyvej,8680,13,9.793183,56.083625
956640,Bakkelyvej,8680,17,9.795687,56.08449
956641,Tippethøj,8680,1,9.785299,56.082704
956642,Tippethøj,8680,2,9.784509,56.080852
956643,Tippethøj,8680,4,9.7840905,56.080865
956644,Tippethøj,8680,6,9.783729,56.08087
956645,Tippethøj,8680,7,9.784394,56.075219
956646,Tippethøj,8680,8,9.783771,56.080545
956647,Tippethøj,8680,9,9.78487,56.080604
956648,Tippethøj,8680,10,9.7832595,56.0805195
956649,Tippethøj,8680,11,9.784665,56.080427
956650,Tippethøj,8680,12,9.783053,56.080764
956651,Tippethøj,8680,13,9.784274,56.08039
956652,Tippethøj,8680,14,9.782706,56.080693
956653,Tippethøj,8680,15,9.783962,56.080323
956654,Tippethøj,8680,16,9.78227,56.080715
956655,Tippethøj,8680,17,9.783151,56.080202
956656,Tippethøj,8680,18,9.782133,56.080508
956657,Tippethøj,8680,19,9.782797,56.080107
956658,Tippethøj,8680,20,9.782056,56.080325
956659,Tippethøj,8680,21,9.782298,56.08006
956660,Tippethøj,8680,22,9.781362,56.080222
956661,Tippethøj,8680,23,9.7819748,56.0799181
956662,Tippethøj,8680,24,9.7811804,56.0805557
956663,Tippethøj,8680,25,9.781275,56.080048
956664,Tippethøj,8680,26,9.7808634,56.0806095
956665,Tippethøj,8680,27,9.781221,56.07978
956666,Tippethøj,8680,28,9.780384,56.080498
956667,Tippethøj,8680,29,9.780676,56.079745
956668,Tippethøj,8680,30,9.780408,56.080317
956669,Tippethøj,8680,31,9.780209,56.079784
956670,Tippethøj,8680,32,9.780333,56.080051
956671,Tulstrupvej,8680,1,9.734538,56.112084
956672,Tulstrupvej,8680,3A,9.734899,56.111784
956673,Tulstrupvej,8680,3B,9.734833,56.112481
956674,Tulstrupvej,8680,5,9.73542,56.112034
956675,Tulstrupvej,8680,6,9.747224,56.112557
956676,Tulstrupvej,8680,7,9.736133,56.112038
956677,Tulstrupvej,8680,8,9.742251,56.111403
956678,Tulstrupvej,8680,9,9.738891,56.112534
956679,Tulstrupvej,8680,10,9.745345,56.109163
956680,Tulstrupvej,8680,15,9.752394,56.112013
956681,Tulstrupvej,8680,16A,9.752533,56.11135
956682,Tulstrupvej,8680,16B,9.752331,56.111463
956683,Tulstrupvej,8680,17,9.75301,56.111857
956684,Tulstrupvej,8680,18,9.753217,56.111327
956685,Tulstrupvej,8680,19,9.754201,56.111359
956686,Tulstrupvej,8680,20,9.753795,56.111179
956687,Tulstrupvej,8680,21,9.7545985,56.1111697
956688,Tulstrupvej,8680,21B,9.755125,56.111119
956689,Tulstrupvej,8680,22,9.754352,56.1110332
956690,Tulstrupvej,8680,23,9.755672,56.110936
956691,Tulstrupvej,8680,25,9.755743,56.111362
956692,Tulstrupvej,8680,25A,9.756013,56.111565
956693,Tulstrupvej,8680,25B,9.756006,56.111293
956694,Tulstrupvej,8680,25C,9.756196,56.111387
956695,Tulstrupvej,8680,26,9.755183,56.107055
956696,Tulstrupvej,8680,27,9.756802,56.110836
956697,Tulstrupvej,8680,28,9.752897,56.105456
956698,Tulstrupvej,8680,29,9.757152,56.110645
956699,Tulstrupvej,8680,30,9.753875,56.105038
956700,Tulstrupvej,8680,31,9.757485,56.110682
956701,Tulstrupvej,8680,33,9.757913,56.110692
956702,Tulstrupvej,8680,35,9.758527,56.111047
956703,Tulstrupvej,8680,36,9.756169,56.109828
956704,Tulstrupvej,8680,37,9.759446,56.110699
956705,Tulstrupvej,8680,39,9.759661,56.111106
956706,Tulstrupvej,8680,40,9.75842,56.110378
956707,Tulstrupvej,8680,41,9.760132,56.110807
956708,Tulstrupvej,8680,42,9.761984,56.106152
956709,Tulstrupvej,8680,43,9.760438,56.110877
956710,Tulstrupvej,8680,44,9.760347,56.106062
956711,Tulstrupvej,8680,45,9.760884,56.111046
956712,Tulstrupvej,8680,47,9.760718,56.111324
956713,Tulstrupvej,8680,48,9.760016,56.110598
956714,Tulstrupvej,8680,49,9.760733,56.111619
956715,Tulstrupvej,8680,50A,9.760472,56.110529
956716,Tulstrupvej,8680,50B,9.76083,56.110469
956717,Tulstrupvej,8680,51,9.760795,56.111841
956718,Tulstrupvej,8680,53,9.761482,56.111049
956719,Tulstrupvej,8680,55,9.7612085,56.1112499
956720,Tulstrupvej,8680,55B,9.761322,56.111619
956721,Tulstrupvej,8680,56,9.770454,56.108965
956722,Tulstrupvej,8680,57,9.771062,56.109166
956723,Tulstrupvej,8680,58,9.769931,56.107434
956724,Tulstrupvej,8680,59,9.771897,56.108912
956725,Tulstrupvej,8680,59A,9.771415,56.109023
956726,Tulstrupvej,8680,60,9.771043,56.106841
956727,Tulstrupvej,8680,61,9.772236,56.108876
956728,Tulstrupvej,8680,62,9.771965,56.107318
956729,Tulstrupvej,8680,63,9.772484,56.108682
956730,Tulstrupvej,8680,64,9.77228,56.108397
956731,Tulstrupvej,8680,65,9.7733043,56.1084836
956732,Tulstrupvej,8680,66,9.772782,56.108243
956733,Tulstrupvej,8680,67,9.773654,56.108409
956734,Tulstrupvej,8680,68,9.773551,56.108045
956735,Tulstrupvej,8680,69,9.7740272,56.1085481
956736,Tulstrupvej,8680,70,9.773718,56.108017
956737,Tulstrupvej,8680,71,9.773961,56.108285
956738,Tulstrupvej,8680,72,9.774033,56.107905
956739,Tulstrupvej,8680,73,9.774757,56.108033
956740,Tulstrupvej,8680,75A,9.774622,56.108541
956741,Tulstrupvej,8680,75B,9.775898,56.108493
956742,Tulstrupvej,8680,76,9.778287,56.107332
956743,Tulstrupvej,8680,77,9.776328,56.107937
956744,Tulstrupvej,8680,78,9.781167,56.10673
956745,Tulstrupvej,8680,80,9.782534,56.107261
956746,Tulstrupvej,8680,87,9.785689,56.108096
956747,Tulstrupvej,8680,89,9.786308,56.107721
956748,Tulstrupvej,8680,90,9.784134,56.107234
956749,Tulstrupvej,8680,91,9.787129,56.108071
956750,Tulstrupvej,8680,94,9.78628,56.10734
956751,Tulstrupvej,8680,97,9.791933,56.108656
956752,Tulstrupvej,8680,98,9.794587,56.108516
956753,Tulstrupvej,8680,99,9.793009,56.10886
956754,Tulstrupvej,8680,102,9.796589,56.108555
956755,Tulstrupvej,8680,103,9.795971,56.10935
956756,Tulstrupvej,8680,104,9.796698,56.108244
956757,Tulstrupvej,8680,105,9.796525,56.109458
956758,Tulstrupvej,8680,108,9.796897,56.107217
956759,Tulstrupvej,8680,111,9.816501,56.111232
956760,Tulstrupvej,8680,112,9.798446,56.103372
956761,Tulstrupvej,8680,114,9.807193,56.108657
956762,Tulstrupvej,8680,117,9.819689,56.1125
956763,Tulstrupvej,8680,118,9.815982,56.1108542
956764,Tulstrupvej,8680,125,9.83519,56.117674
956765,Tulstrupvej,8680,126,9.816877,56.110988
956766,Tulstrupvej,8680,127,9.835827,56.120173
956767,Tulstrupvej,8680,128,9.81724,56.111191
956768,Tulstrupvej,8680,129,9.838592,56.119618
956769,Tulstrupvej,8680,130,9.819868,56.111939
956770,Tulstrupvej,8680,131,9.840346,56.119479
956771,Tulstrupvej,8680,134,9.837691,56.115057
956772,Tulstrupvej,8680,136,9.851267,56.115769
956773,Ringvej,8680,1,9.733475,56.111627
956774,Ringvej,8680,2,9.733446,56.112111
956775,Ringvej,8680,3,9.733109,56.111959
956776,Ringvej,8680,5,9.732825,56.111992
956777,Ringvej,8680,8,9.732467,56.112183
956778,Ringvej,8680,9,9.732332,56.111926
956779,Ringvej,8680,10,9.731214,56.112677
956780,Ringvej,8680,11,9.732349,56.112052
956781,Ringvej,8680,12,9.730352,56.112369
956782,Ringvej,8680,13,9.732048,56.11197
956783,Ringvej,8680,15,9.731619,56.112113
956784,Ringvej,8680,17,9.730233,56.112223
956785,Ringvej,8680,18,9.729796,56.113071
956786,Ringvej,8680,18A,9.730541,56.112916
956787,Ringvej,8680,19,9.729712,56.112101
956788,Ringvej,8680,20,9.730671,56.113237
956789,Ringvej,8680,21,9.72936,56.112392
956790,Ringvej,8680,22,9.731491,56.112879
956791,Ringvej,8680,23,9.729234,56.112539
956792,Ringvej,8680,24,9.731839,56.112744
956793,Ringvej,8680,24A,9.731847,56.112658
956794,Ringvej,8680,24B,9.731831,56.11283
956795,Ringvej,8680,24C,9.731704,56.112885
956796,Ringvej,8680,25,9.728687,56.112798
956797,Ringvej,8680,27,9.728675,56.113238
956798,Ringvej,8680,29,9.7294284,56.1131381
956799,Ringvej,8680,31,9.729653,56.113178
956800,Ringvej,8680,33,9.730399,56.113577
956801,Ringvej,8680,35,9.730981,56.113465
956802,Ringvej,8680,35A,9.731636,56.113343
956803,Ringvej,8680,37,9.732423,56.112916
956804,Ringvej,8680,39A,9.732143,56.112724
956805,Ringvej,8680,39B,9.732133,56.112584
956806,Ringvej,8680,41,9.732347,56.112417
956807,Alling Gyde,8680,1,9.732873,56.112258
956808,Alling Gyde,8680,3,9.732989,56.112512
956809,Alling Gyde,8680,4,9.73323,56.112345
956810,Alling Gyde,8680,6,9.733181,56.112628
956811,Alling Gyde,8680,7,9.732842,56.113155
956812,Alling Gyde,8680,8A,9.733132,56.112901
956813,Alling Gyde,8680,8B,9.733089,56.113096
956814,Alling Gyde,8680,10,9.733135,56.113369
956815,Alling Gyde,8680,12,9.733246,56.113866
956816,Skovsrodvej,8680,3,9.756885,56.111331
956817,Skovsrodvej,8680,4,9.757187,56.110914
956818,Skovsrodvej,8680,5,9.75694,56.111524
956819,Skovsrodvej,8680,6,9.757194,56.11135
956820,Skovsrodvej,8680,9,9.757039,56.111949
956821,Skovsrodvej,8680,10,9.75761,56.111715
956822,Skovsrodvej,8680,11,9.756484,56.111568
956823,Skovsrodvej,8680,13,9.756177,56.112324
956824,Skovsrodvej,8680,20,9.757152,56.114662
956825,Skovsrodvej,8680,22,9.758038,56.119285
956826,Skovsrodvej,8680,23,9.75613,56.123943
956827,Skovsrodvej,8680,24,9.756521,56.123572
956828,Skovsrodvej,8680,26,9.756596,56.123971
956829,Skovsrodvej,8680,28,9.760183,56.126915
956830,Skovsrodvej,8680,30,9.758806,56.127031
956832,Skovsrodvej,8680,32,9.757981,56.129647
956834,Skovsrodvej,8680,34,9.759374,56.130817
956836,Skovsrodvej,8680,36,9.763667,56.136145
956849,Oksevejen,8680,2A,9.770472,56.109421
956850,Oksevejen,8680,2B,9.770792,56.109295
956851,Oksevejen,8680,4,9.769463,56.113748
956852,Oksevejen,8680,6,9.767716,56.11496
956853,Oksevejen,8680,7,9.744713,56.120928
956854,Oksevejen,8680,8,9.751295,56.119627
956855,Oksevejen,8680,9,9.742715,56.122231
956856,Oksevejen,8680,12,9.75097,56.119596
956857,Oksevejen,8680,16,9.749549,56.121377
956858,Oksevejen,8680,18,9.748796,56.12243
956859,Oksevejen,8680,20,9.746469,56.12269
956860,Munkevej,8680,1,9.747805,56.053147
956861,Munkevej,8680,2,9.748566,56.052364
956862,Munkevej,8680,3,9.748264,56.053004
956863,Munkevej,8680,5,9.750647,56.052269
956864,Munkevej,8680,6,9.749588,56.051802
956865,Munkevej,8680,8,9.750012,56.052327
956866,Munkevej,8680,12,9.750508,56.05185
956867,Munkevej,8680,14,9.751457,56.051834
956868,Munkevej,8680,16,9.752443,56.051773
956869,Munkevej,8680,18,9.752284,56.051464
956870,Svanevej,8680,1,9.769115,56.097621
956871,Svanevej,8680,2,9.769616,56.097465
956872,Svanevej,8680,3,9.769045,56.097773
956873,Svanevej,8680,4,9.769583,56.097681
956874,Svanevej,8680,5,9.769002,56.098001
956875,Svanevej,8680,6,9.76945,56.097994
956876,Svanevej,8680,7,9.768921,56.098309
956877,Svanevej,8680,8,9.769359,56.098256
956878,Siimtoften,8680,2,9.755564,56.093493
956879,Siimtoften,8680,3,9.754822,56.093445
956880,Siimtoften,8680,4,9.754336,56.094224
956881,Siimtoften,8680,13,9.751626,56.095371
956882,Siimtoften,8680,15,9.749257,56.09559
956883,Siimtoften,8680,17,9.747848,56.095547
956884,Lokesvej,8680,1,9.765317,56.096068
956885,Lokesvej,8680,2,9.765876,56.096048
956886,Lokesvej,8680,3,9.765576,56.096269
956887,Lokesvej,8680,4,9.766286,56.096091
956888,Lokesvej,8680,5,9.765839,56.096422
956889,Lokesvej,8680,6,9.766359,56.096347
956890,Lokesvej,8680,7,9.76613,56.09655
956891,Lokesvej,8680,8,9.766648,56.0965
956892,Lokesvej,8680,9,9.766455,56.096707
956893,Heimdalsvej,8680,3,9.769658,56.093657
956894,Heimdalsvej,8680,4,9.769205,56.093634
956895,Heimdalsvej,8680,5,9.769872,56.093439
956896,Heimdalsvej,8680,6,9.769296,56.093442
956897,Heimdalsvej,8680,7,9.769991,56.093155
956898,Heimdalsvej,8680,8,9.76951,56.093282
956899,Heimdalsvej,8680,9,9.770159,56.092941
956900,Heimdalsvej,8680,10,9.769609,56.093037
956901,Heimdalsvej,8680,12,9.769646,56.092837
956902,Lærkevej,8680,5,9.75957,56.09665
956903,Lærkevej,8680,6,9.760027,56.096843
956904,Lærkevej,8680,7,9.759418,56.096759
956905,Lærkevej,8680,8,9.759617,56.097007
956906,Lærkevej,8680,9A,9.758903,56.09674
956907,Lærkevej,8680,9B,9.758876,56.096943
956908,Lærkevej,8680,10,9.759559,56.097212
956909,Lærkevej,8680,14,9.759128,56.097066
956910,P. Steffensens Vej,8680,10,9.756921,56.093689
956911,P. Steffensens Vej,8680,12,9.7573746,56.0938439
956912,P. Steffensens Vej,8680,14,9.757428,56.094068
956913,Skovstien,8680,4,9.759023,56.095161
956914,Skovstien,8680,5,9.758017,56.09468
956915,Skovstien,8680,6,9.758794,56.095027
956916,Skovstien,8680,7,9.757943,56.094718
956917,Skovstien,8680,8,9.758506,56.094904
956918,Skovstien,8680,10,9.758107,56.09509
956919,V Stendersvej,8680,1,9.757735,56.096506
956920,V Stendersvej,8680,2,9.759326,56.096208
956921,V Stendersvej,8680,3,9.758069,56.096632
956922,V Stendersvej,8680,4,9.758956,56.096419
956923,V Stendersvej,8680,6,9.75862,56.096578
956924,V Stendersvej,8680,8,9.758456,56.096766
956925,Sagavej,8680,1,9.769315,56.092449
956926,Sagavej,8680,2,9.769499,56.092265
956927,Sagavej,8680,3,9.769897,56.092544
956928,Sagavej,8680,4,9.769866,56.092305
956929,Sagavej,8680,5,9.770466,56.092755
956930,Sagavej,8680,6,9.770193,56.092345
956931,Hejrevej,8680,2,9.760847,56.09676
956932,Hejrevej,8680,4,9.760605,56.096819
956933,Hejrevej,8680,6,9.760628,56.097103
956934,Hejrevej,8680,8,9.760009,56.097355
956935,Hejrevej,8680,10,9.760103,56.097499
956936,Hejrevej,8680,12,9.760498,56.097349
956937,Gefionsvej,8680,3,9.774064,56.092348
956938,Gefionsvej,8680,4,9.773888,56.092525
956939,Gefionsvej,8680,5,9.773737,56.092231
956940,Gefionsvej,8680,6,9.773466,56.092477
956941,Gefionsvej,8680,7,9.773286,56.092201
956942,Gefionsvej,8680,8,9.773165,56.092485
956943,Frigsvej,8680,3,9.773505,56.093043
956944,Frigsvej,8680,4,9.773038,56.093218
956945,Frigsvej,8680,5,9.773255,56.09294
956946,Frigsvej,8680,6,9.772651,56.093182
956947,Frigsvej,8680,7,9.772881,56.092872
956948,Frigsvej,8680,8,9.772259,56.093083
956949,Birkevej,8680,4,9.758734,56.094241
956950,Birkevej,8680,5,9.758483,56.09446
956951,Birkevej,8680,6,9.759026,56.094325
956952,Birkevej,8680,7,9.758673,56.094633
956953,Birkevej,8680,8,9.759236,56.094465
956954,Birkevej,8680,9,9.759015,56.094667
956955,Allingvej,8680,2,9.756862,56.094141
956956,Allingvej,8680,3,9.756539,56.09388
956957,Allingvej,8680,5,9.756205,56.094246
956958,Allingvej,8680,6,9.756406,56.094513
956959,Allingvej,8680,7,9.755982,56.094435
956960,Allingvej,8680,9,9.755783,56.094576
956961,Allingvej,8680,11,9.7555561,56.0947463
956962,Allingvej,8680,13,9.755393,56.09485
956963,Møllevej,8680,2,9.761004,56.091455
956964,Møllevej,8680,4,9.760918,56.091389
956965,Møllevej,8680,5,9.760222,56.090829
956966,Møllevej,8680,6,9.76081,56.091291
956967,Møllevej,8680,7,9.760029,56.090685
956968,Møllevej,8680,8,9.76067,56.091207
956969,Møllevej,8680,10,9.760462,56.091147
956970,Møllevej,8680,12,9.760224,56.091082
956971,Møllevej,8680,14,9.760164,56.091138
956972,Møllevej,8680,20,9.760068,56.091267
956973,Møllevej,8680,22,9.759852,56.090958
956974,Liebingsplads,8680,2,9.759369,56.09286
956975,Liebingsplads,8680,4,9.759634,56.092935
956976,Liebingsplads,8680,6,9.759841,56.093098
956977,Liebingsplads,8680,8,9.759729,56.093264
956978,Liebingsplads,8680,10,9.759633,56.093386
956979,Ternevej,8680,6,9.761062,56.09542
956980,Ternevej,8680,8,9.760943,56.095622
956981,Ternevej,8680,10,9.760838,56.095831
956982,Ternevej,8680,12,9.760539,56.096018
956983,Søvangsvej,8680,6,9.754856,56.09229
956984,Søvangsvej,8680,8,9.754934,56.092225
956985,Søvangsvej,8680,10,9.755047,56.092135
956986,Odinsvej,8680,1,9.773152,56.090864
956987,Odinsvej,8680,2,9.773872,56.091127
956988,Odinsvej,8680,4,9.774209,56.09117
956989,Odinsvej,8680,6,9.774427,56.091161
956990,Kyhnsmindevej,8680,4,9.769613,56.089913
956991,Kyhnsmindevej,8680,6,9.769715,56.089746
956992,Kyhnsmindevej,8680,8,9.769826,56.089566
956993,Kyhnsmindevej,8680,10,9.769936,56.08936
956994,Skimminghøj,8680,2,9.753649,56.093241
956995,Parallelvej,8680,1,9.779371,56.090512
956996,Parallelvej,8680,2,9.783304,56.089695
956997,Parallelvej,8680,5,9.780047,56.09046
956998,Parallelvej,8680,9A,9.781111,56.090263
956999,Parallelvej,8680,9B,9.781676,56.090159
957000,Parallelvej,8680,9C,9.782002,56.090054
957001,Parallelvej,8680,11,9.782386,56.089984
957002,Mjølnersvej,8680,3,9.769101,56.095888
957003,Mjølnersvej,8680,4,9.770614,56.095488
957004,Mjølnersvej,8680,5,9.769464,56.095755
957005,Bakkefaldet,8680,2,9.76533,56.092821
957006,Bakkefaldet,8680,3,9.765759,56.093153
957007,Bakkefaldet,8680,4,9.765814,56.092903
957008,Tværvej,8680,3,9.766893,56.088577
957009,Tværvej,8680,4,9.766712,56.088762
957010,Tværvej,8680,6,9.766359,56.088667
957011,Sønder Egevej,8680,2,9.763663,56.097768
957012,Smøgen,8680,1,9.760195,56.091674
957013,Smøgen,8680,3,9.760163,56.091617
957014,Smøgen,8680,5,9.760101,56.091507
957015,Skaftesvej,8680,3,9.76212,56.088957
957016,Skaftesvej,8680,5,9.763017,56.08865
957017,Skaftesvej,8680,6,9.764171,56.08792
957018,Skaftesvej,8680,7,9.763867,56.088245
957019,Skaftesvej,8680,9,9.764553,56.088031
957183,Ilsøvej,8680,1,9.819447,56.109197
957184,Ilsøvej,8680,2B,9.818076,56.108745
957185,Ilsøvej,8680,3,9.81955,56.10899
957186,Ilsøvej,8680,4,9.818858,56.109106
957187,Ilsøvej,8680,5,9.820045,56.108711
957188,Ilsøvej,8680,6,9.819001,56.108819
957189,Ilsøvej,8680,7,9.820491,56.108538
957190,Ilsøvej,8680,8,9.819151,56.108595
957191,Ilsøvej,8680,9,9.821012,56.108446
957192,Ilsøvej,8680,10,9.820003,56.108347
957193,Ilsøvej,8680,11,9.821305,56.10812
957194,Ilsøvej,8680,12,9.820577,56.108155
964560,Agervej,8680,3,9.816618,56.127905
964561,Agervej,8680,4,9.819305,56.124199
964562,Agervej,8680,6,9.821387,56.126138
964563,Agervej,8680,7,9.820986,56.129439
964564,Agervej,8680,8,9.827019,56.123173
964565,Agervej,8680,9,9.824216,56.127302
964566,Agervej,8680,11,9.827847,56.124738
964573,Østermarksvej,8680,3,9.839739,56.078937
964574,Østermarksvej,8680,5,9.840685,56.078747
964576,Østermarksvej,8680,8,9.842419,56.0784
964577,Østermarksvej,8680,8A,9.844175,56.077956
964586,Kielsgaardsvej,8680,5,9.808362,56.116678
964587,Kielsgaardsvej,8680,6,9.812211,56.119177
964588,Kielsgaardsvej,8680,7,9.807425,56.117079
964589,Kielsgaardsvej,8680,9,9.803593,56.119919
964590,Kielsgaardsvej,8680,10,9.804397,56.119645
964591,Kielsgaardsvej,8680,11,9.803435,56.120241
964592,Kielsgaardsvej,8680,13,9.80094,56.121057
964593,Kielsgaardsvej,8680,14,9.80262,56.127701
964594,Kielsgaardsvej,8680,15,9.800774,56.123487
964595,Kielsgaardsvej,8680,16,9.799942,56.12486
964596,Kielsgaardsvej,8680,18,9.796892,56.124836
964597,Kielsgaardsvej,8680,20,9.796151,56.124805
964598,Kielsgaardsvej,8680,21,9.793969,56.124419
964599,Kielsgaardsvej,8680,22,9.793986,56.12462
964600,Kielsgaardsvej,8680,24,9.793329,56.124659
964601,Kielsgaardsvej,8680,25,9.78773,56.124134
964602,Kielsgaardsvej,8680,27,9.786355,56.123868
964603,Kielsgaardsvej,8680,29,9.779651,56.12349
964604,Kielsgaardsvej,8680,30,9.789259,56.126052
964605,Kielsgaardsvej,8680,31,9.777422,56.124857
964606,Kielsgaardsvej,8680,32,9.787695,56.128667
964607,Kielsgaardsvej,8680,33,9.774768,56.125307
964608,Kielsgaardsvej,8680,34A,9.785725,56.126955
964609,Kielsgaardsvej,8680,35,9.768592,56.125381
964610,Kielsgaardsvej,8680,36A,9.776555,56.129296
964611,Kielsgaardsvej,8680,36B,9.775859,56.129374
964612,Kielsgaardsvej,8680,37,9.763836,56.128973
964613,Kielsgaardsvej,8680,38,9.762399,56.132495
964614,Kielsgaardsvej,8680,39,9.751125,56.133717
964615,Kielsgaardsvej,8680,40,9.75739,56.135282
964616,Kielsgaardsvej,8680,41,9.748155,56.131349
964617,Kielsgaardsvej,8680,42,9.753027,56.134186
964618,Kielsgaardsvej,8680,44,9.74816,56.133793
964619,Kielsgaardsvej,8680,46,9.740148,56.132745
964620,Kielsgaardsvej,8680,48,9.738583,56.130083
964621,Gildebakken,8680,1,9.814671,56.112096
964622,Gildebakken,8680,2,9.815161,56.112025
964623,Gildebakken,8680,3,9.815197,56.112331
964624,Gildebakken,8680,4,9.815413,56.111819
964625,Gildebakken,8680,5,9.815703,56.112476
964626,Gildebakken,8680,6,9.815729,56.111628
964627,Gildebakken,8680,7,9.816561,56.112408
964628,Gildebakken,8680,8,9.815988,56.111491
964629,Gildebakken,8680,10,9.8162984,56.1116112
964630,Gildebakken,8680,12,9.816024,56.111745
964631,Gildebakken,8680,14,9.815766,56.111926
964632,Gildebakken,8680,16,9.815535,56.1121338
964633,Gildebakken,8680,17,9.817232,56.112362
964634,Gildebakken,8680,21,9.817462,56.111807
964635,Hyllingvej,8680,1,9.821088,56.109714
964636,Hyllingvej,8680,2A,9.820728,56.10932
964637,Hyllingvej,8680,2B,9.821041,56.10931
964638,Hyllingvej,8680,2C,9.821057,56.109181
964639,Hyllingvej,8680,3,9.82079,56.109748
964640,Hyllingvej,8680,4,9.821492,56.109291
964641,Hyllingvej,8680,4A,9.827913,56.108126
964642,Hyllingvej,8680,5,9.831059,56.111994
964643,Hyllingvej,8680,6,9.835205,56.109199
964644,Hyllingvej,8680,10,9.837488,56.109136
964645,Hyllingvej,8680,14,9.842699,56.111837
964646,Hyllingvej,8680,16,9.845741,56.112038
964647,Grønnevej,8680,3,9.783509,56.120399
964648,Grønnevej,8680,4,9.779889,56.121859
964649,Grønnevej,8680,6,9.778415,56.120093
964650,Grønnevej,8680,8,9.777095,56.121793
964651,Grønnevej,8680,9,9.778509,56.118108
964652,Grønnevej,8680,12,9.768527,56.122056
964653,Grønnevej,8680,13,9.77043,56.119961
964654,Grønnevej,8680,15,9.770479,56.119087
964655,Grønnevej,8680,17,9.765523,56.121605
964656,Præstebakken,8680,1,9.784266,56.104445
964657,Præstebakken,8680,3,9.783707,56.105078
964658,Præstebakken,8680,3A,9.78356,56.105064
964659,Præstebakken,8680,3B,9.783792,56.105067
964660,Præstebakken,8680,3C,9.783607,56.105232
964661,Præstebakken,8680,5,9.783969,56.105497
964662,Præstebakken,8680,11,9.779037,56.106214
964663,Skæggeskovvej,8680,1,9.794753,56.109373
964664,Skæggeskovvej,8680,3,9.791646,56.111164
964665,Skæggeskovvej,8680,4,9.795801,56.11005
964666,Skæggeskovvej,8680,6,9.803779,56.113055
964667,Skæggeskovvej,8680,8,9.793425,56.116993
964668,Skæggeskovvej,8680,10,9.793443,56.124247
964669,Skovbakkevej,8680,7,9.820853,56.103033
964670,Skovbakkevej,8680,12,9.821113,56.102198
964839,Stenmårvej,8680,1,9.765131,56.083462
964840,Stenmårvej,8680,3,9.764815,56.083508
964841,Stenmårvej,8680,4,9.764642,56.083776
964842,Stenmårvej,8680,5,9.764466,56.083456
964843,Stenmårvej,8680,6,9.764168,56.083634
964844,Stenmårvej,8680,7,9.764133,56.083393
964845,Stenmårvej,8680,8,9.763606,56.083574
964846,Stenmårvej,8680,9,9.7637151,56.0833735
964847,Følfodvej,8680,1,9.774828,56.085918
964848,Følfodvej,8680,3,9.774338,56.085893
964849,Følfodvej,8680,4,9.774267,56.086168
964850,Følfodvej,8680,5,9.773871,56.085884
964851,Følfodvej,8680,6,9.773599,56.086161
964852,Følfodvej,8680,7,9.773455,56.08588
964853,Følfodvej,8680,8,9.772973,56.086078
964854,Følfodvej,8680,9,9.772984,56.085904
964855,Gudensøvænget,8680,1,9.7661,56.086277
964856,Gudensøvænget,8680,2,9.766375,56.08621
964857,Gudensøvænget,8680,3,9.766221,56.086411
964858,Gudensøvænget,8680,4,9.76677,56.086182
964859,Gudensøvænget,8680,5,9.766414,56.086474
964860,Gudensøvænget,8680,6,9.76698,56.08627
964861,Gudensøvænget,8680,7,9.766692,56.086366
964862,Fyrrestien,8680,1,9.773409,56.080517
964863,Fyrrestien,8680,3,9.773029,56.080829
964864,Fyrrestien,8680,7,9.772304,56.081444
964865,Langebakke,8680,2,9.740688,56.08274
964866,Langebakke,8680,3,9.744083,56.079717
964867,Langebakke,8680,4,9.740152,56.080344
964868,Langebakke,8680,5,9.742208,56.079292
964869,Langebakke,8680,6,9.742156,56.077858
964870,Langebakke,8680,7,9.747157,56.076274
964871,Langebakke,8680,8,9.74266,56.077065
964872,Langebakke,8680,9,9.748017,56.076499
964873,Langebakke,8680,10,9.743139,56.07664
964874,Langebakke,8680,12,9.733862,56.074441
1221780,Hemstokvej,8680,14,9.843575,56.075746
1221782,Hemstokvej,8680,15,9.847053,56.080897
1221784,Hemstokvej,8680,16,9.847506,56.079921
1221786,Hemstokvej,8680,17,9.851666,56.082914
1221787,Hemstokvej,8680,18,9.854629,56.083638
1221846,Bavnebjergvej,8680,1,9.832685,56.079221
1221847,Bavnebjergvej,8680,2,9.834044,56.079909
1221848,Bavnebjergvej,8680,3,9.831607,56.079992
1221849,Bavnebjergvej,8680,4,9.83328,56.082165
1221850,Bavnebjergvej,8680,5,9.8286,56.080187
1221851,Bavnebjergvej,8680,6,9.829029,56.083045
1221852,Bavnebjergvej,8680,7,9.826926,56.081735
1221853,Bavnebjergvej,8680,8,9.821977,56.084156
1221854,Bavnebjergvej,8680,9,9.825725,56.082145
1240096,Skærsåvej,8680,1,9.769955,56.077741
1240100,Skærsåvej,8680,3,9.771271,56.079092
1240101,Skærsåvej,8680,4,9.772418,56.077186
1240104,Skærsåvej,8680,5,9.770737,56.079435
1240109,Skærsåvej,8680,6,9.77166,56.078495
1240110,Skærsåvej,8680,7,9.773891,56.079464
1240175,Skovagervej,8680,2,9.790351,56.092161
1240217,Maglehøjvej,8680,6,9.792318,56.084307
1240218,Maglehøjvej,8680,8,9.790906,56.084097
1240219,Maglehøjvej,8680,10,9.790595,56.084706
1240304,Kløftehøj,8680,1,9.791872,56.082609
1240307,Kløftehøj,8680,2,9.790682,56.082666
1240309,Kløftehøj,8680,4,9.791047,56.082039
1240312,Kløftehøj,8680,5,9.794446,56.082693
1240313,Kløftehøj,8680,6,9.792329,56.082175
1240315,Kløftehøj,8680,7,9.794775,56.082232
1240316,Kløftehøj,8680,8,9.793155,56.082173
1240319,Kløftehøj,8680,10,9.79371,56.081655
1446659,Ryvej,8680,37,9.634079,56.100301
1446660,Ryvej,8680,37A,9.633793,56.09982
1446661,Ryvej,8680,37B,9.634973,56.099884
1446662,Ryvej,8680,38,9.635581,56.098453
1509542,Klosterfælled,8680,2,9.72478,56.059016
1509543,Klosterfælled,8680,3,9.725024,56.059465
1509544,Klosterfælled,8680,5,9.725653,56.059388
1509545,Klosterfælled,8680,6,9.725133,56.058778
1509546,Klosterfælled,8680,7,9.726086,56.059152
1509547,Klosterfælled,8680,8,9.726,56.058676
1509548,Klosterfælled,8680,9,9.726729,56.059087
1509549,Klosterfælled,8680,10,9.726582,56.058524
1509550,Klosterfælled,8680,11,9.727529,56.059079
1509551,Klosterfælled,8680,12,9.727122,56.058411
1509552,Klosterfælled,8680,13,9.728386,56.059138
1509553,Klosterfælled,8680,14,9.728014,56.058161
1509554,Klosterfælled,8680,15,9.729623,56.058882
1509555,Klosterfælled,8680,16,9.727715,56.057613
1509556,Klosterfælled,8680,17,9.728845,56.058556
1509557,Klosterfælled,8680,18,9.728744,56.05796
1509558,Klosterfælled,8680,19,9.729989,56.058273
1509559,Klosterfælled,8680,20,9.728679,56.057401
1509560,Klosterfælled,8680,21,9.730264,56.058748
1509561,Klosterfælled,8680,22,9.729344,56.05771
1509562,Klosterfælled,8680,23,9.73092,56.058565
1509563,Klosterfælled,8680,24,9.729704,56.057144
1509564,Klosterfælled,8680,25,9.730599,56.058129
1509565,Klosterfælled,8680,26,9.730244,56.057643
1509566,Klosterfælled,8680,27,9.726801,56.057898
1509567,Klosterfælled,8680,28,9.726107,56.058031
1509568,Klosterfælled,8680,29,9.72537,56.058169
1509569,Klosterfælled,8680,30,9.724562,56.058176
1509570,Klosterfælled,8680,31,9.723983,56.058596
1509571,Klosterfælled,8680,32,9.723627,56.058304
1509627,Odderholm,8680,2,9.723666,56.058728
1509628,Odderholm,8680,4,9.724363,56.058848
1509629,Odderholm,8680,9,9.724093,56.059879
1509630,Odderholm,8680,10,9.725213,56.059736
1509631,Odderholm,8680,11,9.724801,56.060852
1509632,Odderholm,8680,12,9.72736,56.05981
1509633,Odderholm,8680,14,9.727625,56.059615
1509634,Odderholm,8680,15,9.725954,56.060568
1509635,Odderholm,8680,16,9.728727,56.059537
1509636,Odderholm,8680,18,9.729434,56.059399
1509637,Odderholm,8680,20,9.730217,56.059231
1509638,Odderholm,8680,21,9.7278431,56.0602145
1509639,Odderholm,8680,22,9.730931,56.059083
1509640,Odderholm,8680,23,9.728737,56.060263
1509641,Odderholm,8680,24,9.731619,56.058945
1509642,Odderholm,8680,25,9.7293423,56.0601424
1509643,Odderholm,8680,26,9.732015,56.059424
1509644,Odderholm,8680,28,9.731402,56.059442
1509645,Odderholm,8680,29,9.729959,56.060526
1509646,Odderholm,8680,30,9.730746,56.059448
1509647,Odderholm,8680,31,9.730302,56.060941
1509648,Odderholm,8680,32,9.729872,56.059916
1509649,Odderholm,8680,33,9.730911,56.061103
1509650,Odderholm,8680,34,9.730339,56.060035
1509651,Odderholm,8680,35,9.731445,56.061277
1509652,Odderholm,8680,36,9.730869,56.060374
1509653,Odderholm,8680,38,9.731547,56.059818
1509654,Odderholm,8680,40,9.732598,56.059887
1509655,Odderholm,8680,42,9.731857,56.060455
1509656,Odderholm,8680,44,9.731116,56.060692
1510124,Nyvej,8680,1,9.698812,56.076972
1510125,Nyvej,8680,4,9.699767,56.077649
1510126,Nyvej,8680,5,9.6984752,56.0774573
1510127,Nyvej,8680,6,9.699909,56.077727
1510128,Nyvej,8680,7,9.698089,56.077576
1510129,Nyvej,8680,8,9.699954,56.078007
1510130,Nyvej,8680,9,9.69944,56.077378
1510131,Nyvej,8680,10,9.700096,56.078185
1510132,Nyvej,8680,11,9.699436,56.077638
1510133,Nyvej,8680,12,9.700229,56.078441
1510134,Nyvej,8680,12B,9.700306,56.078704
1510135,Nyvej,8680,12C,9.700454,56.078933
1510136,Nyvej,8680,13,9.699514,56.077775
1510137,Nyvej,8680,14,9.701227,56.079447
1510138,Nyvej,8680,15,9.6994864,56.0780783
1510139,Nyvej,8680,16,9.700848,56.079763
1510140,Nyvej,8680,17,9.699535,56.078214
1510141,Nyvej,8680,18,9.700704,56.08002
1510142,Nyvej,8680,19,9.699196,56.078321
1510143,Nyvej,8680,21,9.6997,56.078571
1510144,Nyvej,8680,22,9.700532,56.080876
1510145,Nyvej,8680,23,9.699186,56.078506
1510146,Nyvej,8680,25,9.700405,56.079392
1510147,Nyvej,8680,27,9.700206,56.079953
1510148,Nyvej,8680,29,9.700209,56.080238
1510149,Nyvej,8680,33,9.700067,56.080497
1510150,Nyvej,8680,35,9.6998117,56.0807045
1510151,Nyvej,8680,37,9.6997433,56.0809751
1510496,Lindholmvej,8680,1,9.747938,56.051306
1510497,Lindholmvej,8680,5,9.747513,56.050277
1510498,Lindholmvej,8680,6,9.736443,56.049603
1510499,Lindholmvej,8680,7B,9.743383,56.049925
1510500,Lindholmvej,8680,8,9.733766,56.047991
1510501,Lindholmvej,8680,9,9.740603,56.049214
1510502,Lindholmvej,8680,11,9.734528,56.047947
1510503,Lindholmvej,8680,13,9.734051,56.047704
1510504,Lindholmvej,8680,15,9.732806,56.046575
1510505,Lindholmvej,8680,17,9.731512,56.046569
1510506,Lindholmvej,8680,19,9.728315,56.046503
1510507,Lindholmvej,8680,21,9.719822,56.047375
1510508,Lindholmvej,8680,33,9.706877,56.042572
1510509,Lindholmvej,8680,35,9.713038,56.047932
1510510,Lindholmvej,8680,39,9.716813,56.050028
1510511,Lindholmvej,8680,41,9.711963,56.050271
1510512,Lindholmvej,8680,43,9.719441,56.053715
1510513,Lindholmvej,8680,45,9.71535,56.054262
1537681,Bøgedalsvej,8680,3,9.668559,56.104136
1537682,Bøgedalsvej,8680,5,9.667229,56.105233
1537683,Bøgedalsvej,8680,6,9.667021,56.111432
1537684,Bøgedalsvej,8680,8,9.66683,56.111221
1537685,Bøgedalsvej,8680,12,9.666339,56.111297
1537686,Bøgedalsvej,8680,14,9.666523,56.113549
1537687,Bøgedalsvej,8680,18,9.657341,56.113597
1537688,Bøgedalsvej,8680,21,9.652485,56.114787
1537689,Bøgedalsvej,8680,22,9.665973,56.116475
1537690,Bøgedalsvej,8680,23,9.641094,56.113305
1537691,Bøgedalsvej,8680,24,9.654028,56.115021
1537692,Bøgedalsvej,8680,26,9.653444,56.114994
1537693,Bøgedalsvej,8680,28,9.646563,56.116755
1537694,Bøgedalsvej,8680,30,9.647577,56.11823
1537695,Bøgedalsvej,8680,32,9.647879,56.11951
1537696,Bøgedalsvej,8680,32A,9.648396,56.119371
1537697,Bøgedalsvej,8680,32B,9.648098,56.11902
1537698,Bøgedalsvej,8680,36,9.651357,56.118476
1537699,Bøgedalsvej,8680,38,9.651599,56.118042
1537700,Bøgedalsvej,8680,40,9.654817,56.117912
1537701,Bøgedalsvej,8680,42,9.65543,56.118015
1537702,Bøgedalsvej,8680,44,9.655878,56.118072
1913793,Pressalitvej,8680,1,9.793012,56.086439
1913794,Pressalitvej,8680,1A,9.796237,56.086082
1913795,Burmlundvej,8680,2,9.704681,56.077623
1913796,Burmlundvej,8680,4,9.712627,56.076727
1913810,Knudhulevej,8680,4,9.784012,56.091864
1913827,Højkolvej,8680,19,9.630775,56.079842
1913829,Højkolvej,8680,21,9.63898,56.078719
1913830,Højkolvej,8680,21A,9.639686,56.078843
1913831,Højkolvej,8680,23,9.636102,56.078242
1913832,Højkolvej,8680,24,9.639963,56.069385
1913833,Højkolvej,8680,25,9.640519,56.080104
1913834,Højkolvej,8680,27,9.640772,56.080366
1913835,Højkolvej,8680,29,9.639987,56.080558
1913836,Højkolvej,8680,31,9.6411,56.080447
1913837,Højkolvej,8680,33,9.642153,56.073414
2041933,Tønningsletvej,8680,1,9.645278,56.098894
2041934,Tønningsletvej,8680,2,9.647024,56.097971
2041935,Tønningsletvej,8680,3,9.642146,56.099461
2041936,Tønningsletvej,8680,4,9.639654,56.100837
2041937,Tønningsletvej,8680,5A,9.641868,56.099736
2041938,Tønningsletvej,8680,6A,9.639494,56.101481
2041939,Tønningsletvej,8680,7,9.641115,56.099654
2041940,Tønningsletvej,8680,8,9.635769,56.105282
2041941,Tønningsletvej,8680,9,9.640578,56.0996
2041942,Tønningsletvej,8680,11,9.640051,56.099917
2041943,Tønningsletvej,8680,13,9.637849,56.102659
2041944,Tønningsletvej,8680,15,9.636728,56.103337
2042966,Vesterled,8680,1,9.639433,56.100255
2042967,Vesterled,8680,4,9.638033,56.100395
2042969,Vesterled,8680,6,9.6376466,56.100282
2042971,Vesterled,8680,8,9.6372923,56.1003184
2042974,Vesterled,8680,10,9.6368646,56.1002746
2042975,Vesterled,8680,12,9.636573,56.100277
2042977,Vesterled,8680,14,9.636227,56.100331
2042979,Vesterled,8680,16,9.6357758,56.1002284
2042981,Vesterled,8680,18,9.635497,56.100298
2042983,Vesterled,8680,19,9.637403,56.100069
2042985,Vesterled,8680,19A,9.6376886,56.1000978
2042986,Vesterled,8680,21,9.636961,56.099963
2042989,Vesterled,8680,23,9.6361713,56.0999964
2043635,Melbjergvej,8680,1,9.658203,56.092834
2043636,Melbjergvej,8680,1A,9.657843,56.092824
2043637,Melbjergvej,8680,3,9.657256,56.091533
2043638,Melbjergvej,8680,4,9.651462,56.094046
2043639,Melbjergvej,8680,5,9.655969,56.091256
2043640,Melbjergvej,8680,6,9.643208,56.093496
2043641,Melbjergvej,8680,9,9.639837,56.089947
2043642,Melbjergvej,8680,11,9.636835,56.08909
2044429,Knøsvej,8680,1,9.643738,56.108978
2044430,Knøsvej,8680,3,9.642467,56.106903
2044431,Knøsvej,8680,4,9.657469,56.106669
2044432,Knøsvej,8680,5,9.650569,56.109761
2044433,Knøsvej,8680,7,9.6452224,56.1115135
2044649,Nørreskovvej,8680,3,9.667327,56.09561
2044650,Nørreskovvej,8680,5,9.667838,56.095472
2044651,Nørreskovvej,8680,7,9.668229,56.095574
2044652,Nørreskovvej,8680,9,9.667416,56.096188
2044653,Nørreskovvej,8680,11,9.66365,56.096699
2045839,Ny Himmelbjergvej,8680,1,9.670329,56.091881
2045843,Ny Himmelbjergvej,8680,3,9.671898,56.095305
2045845,Ny Himmelbjergvej,8680,4,9.672492,56.093385
2045847,Ny Himmelbjergvej,8680,5,9.671984,56.095497
2045849,Ny Himmelbjergvej,8680,6,9.680075,56.096694
2045852,Ny Himmelbjergvej,8680,7,9.672389,56.095804
2046229,Julsøvej,8680,10,9.686971,56.10902
2046232,Julsøvej,8680,14,9.68473,56.109788
2046233,Julsøvej,8680,16,9.684433,56.109839
2046234,Julsøvej,8680,22,9.680486,56.112417
2046962,Skovsbjergvej,8680,3A,9.698788,56.077757
2046963,Skovsbjergvej,8680,3B,9.698394,56.077873
2046965,Skovsbjergvej,8680,4,9.699108,56.077892
2046967,Skovsbjergvej,8680,5A,9.697897,56.077998
2046969,Skovsbjergvej,8680,5B,9.697575,56.078041
2046970,Skovsbjergvej,8680,6,9.698643,56.078002
2046972,Skovsbjergvej,8680,7A,9.697066,56.078083
2046974,Skovsbjergvej,8680,7B,9.696831,56.077837
2046975,Skovsbjergvej,8680,8,9.698371,56.078546
2046976,Skovsbjergvej,8680,9,9.697256,56.077605
2046980,Skovsbjergvej,8680,10,9.697699,56.078608
2046982,Skovsbjergvej,8680,12,9.698081,56.078196
2046983,Skovsbjergvej,8680,14,9.697591,56.07823
2046985,Skovsbjergvej,8680,16,9.695166,56.078547
2046988,Skovsbjergvej,8680,18,9.694468,56.078693
2046990,Skovsbjergvej,8680,20,9.691422,56.079534
2046991,Skovsbjergvej,8680,22,9.691117,56.080266
2074968,Hjarsbækvej,8680,1,9.695733,56.071829
2074969,Hjarsbækvej,8680,2,9.694112,56.072866
2074970,Hjarsbækvej,8680,3,9.694947,56.070312
2074971,Hjarsbækvej,8680,4,9.69502,56.071849
2074972,Hjarsbækvej,8680,5,9.693499,56.070327
2074973,Hjarsbækvej,8680,6,9.694574,56.071616
2074974,Hjarsbækvej,8680,7,9.692476,56.070192
2074975,Hjarsbækvej,8680,12,9.683738,56.069902
2074976,Hjarsbækvej,8680,14,9.684483,56.070906
2074977,Hjarsbækvej,8680,16,9.681223,56.070462
2074978,Hjarsbækvej,8680,20,9.676597,56.069383
2074979,Hjarsbækvej,8680,21,9.685139,56.068995
2074980,Hjarsbækvej,8680,22,9.664461,56.069453
2074981,Hjarsbækvej,8680,24,9.663498,56.068678
2074982,Hjarsbækvej,8680,25,9.674124,56.063646
2074983,Hjarsbækvej,8680,28,9.659528,56.0707882
2074984,Hjarsbækvej,8680,29,9.657233,56.065126
2074985,Hjarsbækvej,8680,30,9.658059,56.070712
2074986,Hjarsbækvej,8680,31,9.653954,56.068425
2074987,Hjarsbækvej,8680,32,9.657566,56.070731
2074988,Hjarsbækvej,8680,34,9.654269,56.070683
2074989,Hjarsbækvej,8680,37,9.64311,56.072814
2074990,Hjarsbækvej,8680,38,9.649128,56.073005
2074991,Hjarsbækvej,8680,40,9.648542,56.072601
2075525,Skovstedvej,8680,1A,9.694013,56.065742
2075526,Skovstedvej,8680,3,9.695049,56.065628
2075527,Skovstedvej,8680,5,9.695229,56.065926
2075528,Skovstedvej,8680,6,9.696319,56.065573
2075529,Skovstedvej,8680,7,9.695455,56.066194
2075530,Skovstedvej,8680,8,9.696845,56.065841
2075531,Skovstedvej,8680,9,9.695637,56.065652
2075532,Skovstedvej,8680,10,9.697394,56.065844
2075533,Skovstedvej,8680,11,9.696061,56.065876
2075534,Skovstedvej,8680,12,9.69791,56.065695
2075535,Skovstedvej,8680,13,9.696332,56.066059
2075536,Skovstedvej,8680,14,9.698197,56.065573
2075537,Skovstedvej,8680,15,9.696711,56.066077
2075538,Skovstedvej,8680,16,9.698621,56.065456
2075539,Skovstedvej,8680,17,9.696905,56.066282
2075540,Skovstedvej,8680,18,9.69906,56.065395
2075541,Skovstedvej,8680,19,9.697635,56.066115
2075542,Skovstedvej,8680,21,9.698015,56.065916
2075543,Skovstedvej,8680,23,9.698546,56.065823
2075544,Skovstedvej,8680,25,9.698987,56.065813
2075545,Skovstedvej,8680,27,9.69928,56.065838
2075811,Lille Vangs Vej,8680,1,9.695944,56.069242
2075812,Lille Vangs Vej,8680,2,9.6958,56.068926
2075813,Lille Vangs Vej,8680,3,9.696187,56.069541
2075814,Lille Vangs Vej,8680,4,9.695733,56.0687
2075815,Lille Vangs Vej,8680,5,9.696552,56.069474
2075816,Lille Vangs Vej,8680,6,9.696141,56.068542
2075817,Lille Vangs Vej,8680,7,9.696435,56.069163
2075818,Lille Vangs Vej,8680,8,9.696293,56.06885
2075819,Lille Vangs Vej,8680,9,9.696636,56.069142
2075820,Lille Vangs Vej,8680,10,9.696811,56.068792
2075821,Lille Vangs Vej,8680,11,9.696961,56.069125
2075822,Lille Vangs Vej,8680,12,9.696606,56.068524
2075823,Lille Vangs Vej,8680,13,9.697201,56.069131
2075824,Lille Vangs Vej,8680,14,9.697257,56.06854
2075825,Lille Vangs Vej,8680,15,9.697559,56.069152
2075826,Lille Vangs Vej,8680,16,9.697269,56.068824
2075827,Lille Vangs Vej,8680,17,9.697339,56.069424
2075828,Lille Vangs Vej,8680,18,9.69774,56.068859
2075829,Lille Vangs Vej,8680,20,9.697843,56.068569
2075830,Lille Vangs Vej,8680,22,9.698222,56.068633
2075921,Søvej,8680,1A,9.730054,56.1134
2075922,Søvej,8680,1B,9.729792,56.11364
2075923,Søvej,8680,1C,9.729388,56.113596
2075924,Søvej,8680,1D,9.729274,56.113912
2075925,Søvej,8680,3,9.729814,56.113853
2075926,Søvej,8680,4,9.730254,56.113881
2075927,Søvej,8680,5,9.729776,56.114171
2075928,Søvej,8680,7,9.714649,56.119417
2075929,Søvej,8680,10,9.729655,56.118616
2075930,Søvej,8680,14,9.723649,56.119774
2075931,Søvej,8680,16A,9.718719,56.120539
2075932,Søvej,8680,16B,9.718241,56.120674
2075933,Søvej,8680,18,9.717908,56.120678
2075934,Søvej,8680,20,9.717642,56.120761
2075935,Søvej,8680,22,9.717008,56.120945
2075936,Søvej,8680,24,9.716599,56.121035
2075937,Søvej,8680,26,9.715931,56.12056
2075938,Søvej,8680,28,9.715382,56.120569
2075939,Søvej,8680,34,9.714896,56.120309
2075940,Søvej,8680,38,9.714148,56.119744
2075941,Søvej,8680,40A,9.714146,56.119479
2075942,Søvej,8680,40B,9.714206,56.119311
2075943,Søvej,8680,42,9.714265,56.119146
2075944,Søvej,8680,44,9.714268,56.118941
2075945,Søvej,8680,46,9.714345,56.118745
2075946,Jægergårdsvej,8680,3,9.700493,56.077577
2075947,Jægergårdsvej,8680,5,9.700536,56.077765
2075948,Jægergårdsvej,8680,6,9.700862,56.077695
2075949,Jægergårdsvej,8680,7,9.700672,56.077984
2075950,Jægergårdsvej,8680,8A,9.701028,56.077961
2075951,Jægergårdsvej,8680,8B,9.70118,56.077937
2075952,Jægergårdsvej,8680,8C,9.701266,56.077924
2075953,Jægergårdsvej,8680,8D,9.70142,56.0779
2075954,Jægergårdsvej,8680,9,9.700497,56.07823
2075955,Jægergårdsvej,8680,10A,9.701344,56.078119
2075956,Jægergårdsvej,8680,10B,9.701939,56.078343
2075957,Jægergårdsvej,8680,11,9.700871,56.07837
2075958,Jægergårdsvej,8680,12A,9.701596,56.07828
2075959,Jægergårdsvej,8680,12B,9.701287,56.078378
2075960,Jægergårdsvej,8680,14,9.701518,56.07861
2075961,Jægergårdsvej,8680,15,9.701302,56.078891
2075962,Jægergårdsvej,8680,15A,9.701311,56.078996
2075963,Jægergårdsvej,8680,15B,9.701328,56.078805
2075964,Jægergårdsvej,8680,15C,9.701098,56.07881
2075965,Jægergårdsvej,8680,15D,9.700906,56.07888
2075966,Jægergårdsvej,8680,15E,9.700906,56.07899
2075967,Jægergårdsvej,8680,15F,9.701078,56.07907
2079814,Gammel Saltenvej,8680,2,9.6887774,56.0599786
2079816,Gammel Saltenvej,8680,3,9.685129,56.058546
2079818,Gammel Saltenvej,8680,5,9.680499,56.061057
2079820,Gammel Saltenvej,8680,7,9.6758948,56.0605731
2079822,Gammel Saltenvej,8680,11,9.686547,56.0578749
2079987,Engvej,8680,3,9.712513,56.060212
2079988,Engvej,8680,4A,9.710173,56.061208
2079990,Engvej,8680,5A,9.708569,56.058537
2079992,Engvej,8680,5B,9.705821,56.058797
2079994,Engvej,8680,6,9.707805,56.060388
2079996,Engvej,8680,7,9.704564,56.058215
2079997,Engvej,8680,9,9.699938,56.058348
2079998,Engvej,8680,13,9.693551,56.058324
2079999,Engvej,8680,15,9.691658,56.058822
2080470,Slotsgårdsvej,8680,1,9.6999587,56.079174
2080472,Slotsgårdsvej,8680,3,9.699386,56.078926
2080474,Slotsgårdsvej,8680,5,9.698569,56.079093
2080476,Slotsgårdsvej,8680,7,9.698301,56.079227
2081316,Fjeldevej,8680,2,9.694974,56.078817
2081317,Fjeldevej,8680,4,9.694262,56.079782
2081318,Fjeldevej,8680,6,9.694096,56.080127
2082409,Bomholtvej,8680,10,9.733809,56.127354
2082410,Bomholtvej,8680,12,9.734697,56.127564
2083371,Stejlehøjvej,8680,1,9.695614,56.07047
2083372,Stejlehøjvej,8680,2,9.695397,56.070844
2083373,Stejlehøjvej,8680,3,9.695294,56.070518
2083374,Stejlehøjvej,8680,4,9.695569,56.071053
2083375,Stejlehøjvej,8680,5,9.694799,56.070639
2083376,Stejlehøjvej,8680,6,9.69563,56.071212
2083377,Stejlehøjvej,8680,7,9.694536,56.070722
2083378,Stejlehøjvej,8680,8,9.695403,56.071329
2083379,Stejlehøjvej,8680,9,9.694679,56.070964
2083380,Stejlehøjvej,8680,10,9.695063,56.071372
2083383,Stejlehøjvej,8680,11,9.6948373,56.0712155
2085804,Kastaniealle,8680,3,9.698252,56.076302
2085805,Kastaniealle,8680,4,9.696024,56.076374
2085806,Kastaniealle,8680,5,9.697666,56.076432
2085807,Kastaniealle,8680,6A,9.695969,56.076153
2085808,Kastaniealle,8680,6B,9.69553,56.076162
2085809,Kastaniealle,8680,6C,9.695593,56.076386
2085810,Kastaniealle,8680,7,9.697316,56.076459
2085811,Kastaniealle,8680,8A,9.695878,56.07583
2085812,Kastaniealle,8680,8B,9.695996,56.075649
2085814,Kastaniealle,8680,9,9.697111,56.076436
2085819,Kastaniealle,8680,10,9.6959667,56.0753438
2085821,Kastaniealle,8680,12,9.695994,56.075094
2085824,Kastaniealle,8680,13,9.6963277,56.0755487
2085826,Kastaniealle,8680,14,9.694771,56.07529
2085827,Kastaniealle,8680,15,9.696312,56.075346
2085829,Kastaniealle,8680,17,9.696272,56.075133
2086632,Oudalsvej,8680,3,9.754638,56.127267
2086635,Oudalsvej,8680,4,9.751969,56.128237
2086637,Oudalsvej,8680,7,9.750479,56.125331
2087409,Himmelbjergvej,8680,3,9.692827,56.089322
2087413,Himmelbjergvej,8680,6,9.692293,56.090378
2087414,Himmelbjergvej,8680,7,9.687712,56.091756
2087417,Himmelbjergvej,8680,8,9.690041,56.092029
2087418,Himmelbjergvej,8680,9,9.686141,56.093553
2087421,Himmelbjergvej,8680,11,9.681444,56.096692
2087424,Himmelbjergvej,8680,12,9.687883,56.092748
2087425,Himmelbjergvej,8680,14,9.688646,56.092954
2087427,Himmelbjergvej,8680,16,9.687576,56.093548
2087428,Himmelbjergvej,8680,20,9.68803,56.103043
2087429,Himmelbjergvej,8680,22,9.6865,56.103021
2087903,Kirkebakken,8680,1,9.703495,56.079083
2087905,Kirkebakken,8680,2,9.701662,56.079095
2087908,Kirkebakken,8680,3,9.702169,56.078809
2088086,Gyden,8680,1,9.700002,56.075686
2088087,Gyden,8680,3,9.700416,56.0756
2088088,Gyden,8680,4,9.699179,56.075368
2088089,Gyden,8680,6,9.699404,56.07511
2088090,Gyden,8680,7,9.699528,56.07536
2088091,Gyden,8680,8,9.699418,56.075
2088092,Gyden,8680,9A,9.700526,56.075448
2088093,Gyden,8680,9B,9.699625,56.075186
2088094,Gyden,8680,11,9.700122,56.075127
2088095,Gyden,8680,13,9.699746,56.074916
2088334,Skolebakken,8680,1,9.697304,56.075546
2088335,Skolebakken,8680,3,9.697169,56.075305
2088336,Skolebakken,8680,4,9.696919,56.075558
2088338,Skolebakken,8680,6,9.696884,56.074989
2088340,Skolebakken,8680,7,9.69735,56.074942
2088341,Skolebakken,8680,8,9.696657,56.07483
2088343,Skolebakken,8680,9,9.69739,56.074815
2088344,Skolebakken,8680,13,9.697177,56.074522
2088345,Skolebakken,8680,14,9.696243,56.074663
2089528,Storesand,8680,3,9.6977923,56.0754427
2089530,Storesand,8680,4,9.69792,56.075573
2089532,Storesand,8680,6,9.697322,56.075889
2089534,Storesand,8680,7,9.696964,56.075819
2089535,Storesand,8680,8,9.696996,56.076052
2089538,Storesand,8680,9,9.696484,56.0759101
2089540,Storesand,8680,10,9.696677,56.076594
2089541,Storesand,8680,15,9.6959335,56.0766378
2089542,Storesand,8680,17,9.695331,56.077025
2091296,Munkedalsvej,8680,2,9.748913,56.091339
2091299,Munkedalsvej,8680,3,9.706857,56.10232
2091300,Munkedalsvej,8680,4,9.722056,56.10222
2091302,Munkedalsvej,8680,6,9.69592,56.109924
2091799,Hedelundvej,8680,1,9.692152,56.069425
2091800,Hedelundvej,8680,3,9.691131,56.068721
2091801,Hedelundvej,8680,5,9.690775,56.068695
2091802,Hedelundvej,8680,7,9.690123,56.068557
2091803,Hedelundvej,8680,9,9.690123,56.06823
2091806,Hedelundvej,8680,11,9.690594,56.067894
2091808,Hedelundvej,8680,13,9.691061,56.067866
2091809,Hedelundvej,8680,15,9.691429,56.067908
2091811,Hedelundvej,8680,17,9.691847,56.068204
2091813,Hedelundvej,8680,19,9.691909,56.068432
2091815,Hedelundvej,8680,21,9.691636,56.068701
2091817,Hedelundvej,8680,28,9.690552,56.067688
2091819,Hedelundvej,8680,30,9.690461,56.067441
2091821,Hedelundvej,8680,32,9.690862,56.067412
2091823,Hedelundvej,8680,34,9.690865,56.067565
2091824,Hedelundvej,8680,36,9.69163,56.067588
2091826,Hedelundvej,8680,38,9.691471,56.067369
2091829,Hedelundvej,8680,40,9.691941,56.067346
2091830,Hedelundvej,8680,42,9.69203,56.06764
2091832,Hedelundvej,8680,44,9.692016,56.067828
2091835,Hedelundvej,8680,46,9.692222,56.068186
2091836,Hedelundvej,8680,48,9.692302,56.068441
2091838,Hedelundvej,8680,50,9.692214,56.068673
2093707,Fyrreskrænten,8680,1,9.700066,56.070899
2093711,Fyrreskrænten,8680,2,9.700215,56.070677
2093713,Fyrreskrænten,8680,3,9.700403,56.07109
2093714,Fyrreskrænten,8680,4,9.700602,56.070649
2093715,Fyrreskrænten,8680,5,9.700722,56.071433
2093716,Fyrreskrænten,8680,6,9.700923,56.070838
2093717,Fyrreskrænten,8680,7,9.700956,56.071383
2093718,Fyrreskrænten,8680,8,9.700934,56.071034
2093719,Fyrreskrænten,8680,10,9.701241,56.071157
2093749,Galgebakken,8680,2,9.703285,56.077164
2093751,Galgebakken,8680,4,9.703701,56.077281
2093754,Galgebakken,8680,5,9.704871,56.076675
2093757,Galgebakken,8680,6,9.704333,56.077361
2093759,Galgebakken,8680,7,9.705348,56.076558
2093762,Galgebakken,8680,8,9.704293,56.077006
2093763,Galgebakken,8680,8B,9.704291,56.076253
2093764,Galgebakken,8680,9,9.70552,56.076287
2093765,Galgebakken,8680,10A,9.703879,56.075179
2093766,Galgebakken,8680,10B,9.704001,56.075186
2093767,Galgebakken,8680,10C,9.703873,56.075283
2093768,Galgebakken,8680,10D,9.703702,56.075324
2093769,Galgebakken,8680,11,9.705246,56.075939
2093770,Galgebakken,8680,12,9.709492,56.072993
2093771,Galgebakken,8680,13,9.704961,56.075716
2095587,Tinghusvej,8680,2,9.703589,56.084967
2095590,Tinghusvej,8680,4,9.704655,56.088103
2095592,Tinghusvej,8680,5,9.702185,56.085288
2095594,Tinghusvej,8680,7,9.699984,56.085803
2095595,Tinghusvej,8680,9,9.696612,56.087727
2095597,Tinghusvej,8680,11,9.694444,56.088348
2096123,Præstegårdsvej,8680,1,9.702558,56.07943
2096126,Præstegårdsvej,8680,2,9.704377,56.079471
2096128,Præstegårdsvej,8680,3,9.701764,56.079546
2096130,Præstegårdsvej,8680,5,9.701285,56.080008
2096131,Præstegårdsvej,8680,10,9.702102,56.080439
2096134,Præstegårdsvej,8680,14A,9.701551,56.080207
2096136,Præstegårdsvej,8680,14B,9.701267,56.080352
2096137,Præstegårdsvej,8680,16,9.701035,56.080478
2096780,Stenhusvej,8680,1,9.691699,56.094349
2096801,Hejnæsvej,8680,3,9.721213,56.063591
2096802,Hejnæsvej,8680,4,9.737981,56.067547
2096803,Hejnæsvej,8680,5,9.725539,56.06523
2096804,Hejnæsvej,8680,7,9.728348,56.065949
2096806,Hejnæsvej,8680,11,9.750709,56.070181
2096807,Hejnæsvej,8680,12,9.762003,56.066522
2096808,Hejnæsvej,8680,13,9.751059,56.076691
2097400,Ulvedalen,8680,4,9.675755,56.097625
2098129,Fæstibakke,8680,2,9.682231,56.081394
2098130,Fæstibakke,8680,3,9.686218,56.082955
2098131,Fæstibakke,8680,5,9.684281,56.08299
2098132,Fæstibakke,8680,7,9.681405,56.082923
2098133,Fæstibakke,8680,9,9.683283,56.083821
2098134,Fæstibakke,8680,11,9.681019,56.085633
2114230,Vessøvej,8680,23,9.786614,56.082221
2114239,Vessøvej,8680,25,9.786415,56.082242
2114247,Vessøvej,8680,27,9.786175,56.082251
2114249,Vessøvej,8680,29,9.786005,56.08227
2114257,Vessøvej,8680,31,9.78607,56.082557
2114262,Vessøvej,8680,32,9.788008,56.080842
2114271,Vessøvej,8680,33,9.786328,56.082552
2114277,Vessøvej,8680,34,9.787472,56.080835
2114281,Vessøvej,8680,35,9.786497,56.082534
2114294,Vessøvej,8680,36,9.786855,56.080728
2114301,Vessøvej,8680,37,9.786737,56.082485
2114313,Vessøvej,8680,38,9.787194,56.080565
2114326,Vessøvej,8680,39,9.786907,56.082467
2114328,Vessøvej,8680,40,9.787481,56.080305
2114337,Vessøvej,8680,41,9.787109,56.082407
2114341,Vessøvej,8680,42,9.787865,56.080155
2114350,Vessøvej,8680,43,9.78702,56.082239
2114359,Vessøvej,8680,44,9.7881834,56.080425
2114361,Vessøvej,8680,45,9.786976,56.082147
2114367,Vessøvej,8680,46,9.788553,56.08073
2114369,Vessøvej,8680,51,9.78719,56.081403
2114375,Vessøvej,8680,53,9.787362,56.081665
2114379,Vessøvej,8680,55,9.787495,56.081976
2114380,Vessøvej,8680,57,9.78761,56.082148
2114383,Vessøvej,8680,59,9.788094,56.082024
2114385,Vessøvej,8680,61,9.788438,56.082
2114389,Vessøvej,8680,63,9.788136,56.081756
2114392,Vessøvej,8680,65,9.787782,56.081501
2114395,Vessøvej,8680,67,9.788517,56.081212
2114398,Vessøvej,8680,69,9.788212,56.081282
2114400,Vessøvej,8680,71,9.788626,56.08163
2114405,Vessøvej,8680,73,9.788828,56.081874
2114411,Vessøvej,8680,75,9.789312,56.081765
2114414,Vessøvej,8680,77,9.789619,56.081622
2114418,Vessøvej,8680,79,9.789308,56.08135
2114421,Vessøvej,8680,81,9.789044,56.081148
2167439,Gammel Ryevej,8680,32,9.7001348,56.0569475
2167456,Gammel Ryevej,8680,34,9.700202,56.0571483
2167468,Gammel Ryevej,8680,36,9.700208,56.057227
2167480,Gammel Ryevej,8680,38,9.7003237,56.0573374
2167488,Gammel Ryevej,8680,40,9.7000785,56.0573158
2167494,Gammel Ryevej,8680,42,9.6976664,56.0575537
2167499,Gammel Ryevej,8680,44,9.6950667,56.0572234
2167506,Gammel Ryevej,8680,46,9.6937189,56.0575702
2167511,Gammel Ryevej,8680,48,9.6928289,56.057259
2167519,Gammel Ryevej,8680,50,9.6904819,56.0574044
2167526,Gammel Ryevej,8680,52,9.6896985,56.057242
2167527,Gammel Ryevej,8680,71,9.6902985,56.0582507
2181712,Haldursvej,8680,1,9.773504,56.094802
2181713,Haldursvej,8680,3,9.773395,56.094913
2181714,Haldursvej,8680,5,9.773295,56.095025
2181715,Haldursvej,8680,7,9.77319,56.095137
2181716,Haldursvej,8680,9,9.773087,56.095248
2181717,Haldursvej,8680,10,9.773931,56.09465
2181718,Haldursvej,8680,11,9.772951,56.095391
2181719,Haldursvej,8680,12,9.773736,56.09508
2181720,Haldursvej,8680,13,9.772848,56.095502
2181721,Haldursvej,8680,14,9.773656,56.095188
2181722,Haldursvej,8680,15,9.772743,56.095614
2181723,Haldursvej,8680,16,9.773529,56.095304
2181724,Haldursvej,8680,17,9.772612,56.095758
2181725,Haldursvej,8680,18,9.773423,56.095417
2181726,Haldursvej,8680,19,9.772507,56.095871
2181727,Haldursvej,8680,20,9.773367,56.095626
2181728,Haldursvej,8680,21,9.772404,56.095982
2181729,Haldursvej,8680,22,9.773286,56.095734
2181730,Haldursvej,8680,23,9.771494,56.096379
2181731,Haldursvej,8680,24,9.773185,56.095845
2181732,Haldursvej,8680,26,9.773055,56.095961
2181733,Haldursvej,8680,28,9.772948,56.096074
2181734,Haldursvej,8680,30,9.77242,56.096349
2181818,Hedevej,8680,1,9.702926,56.067258
2181819,Hedevej,8680,2,9.702831,56.067727
2181821,Hedevej,8680,3,9.702762,56.067117
2181824,Hedevej,8680,4,9.702437,56.067963
2181825,Hedevej,8680,5,9.702495,56.066929
2181828,Hedevej,8680,6,9.702315,56.068197
2181829,Hedevej,8680,7,9.702132,56.066767
2181831,Hedevej,8680,8,9.701763,56.06795
2181834,Hedevej,8680,9,9.7018,56.066622
2181835,Hedevej,8680,10,9.701306,56.067837
2181838,Hedevej,8680,11,9.702015,56.066339
2181840,Hedevej,8680,12,9.700942,56.067763
2181842,Hedevej,8680,13,9.702433,56.066288
2181843,Hedevej,8680,14,9.701256,56.067283
2181844,Hedevej,8680,15,9.702767,56.066377
2181845,Hedevej,8680,16,9.701723,56.067346
2181846,Hedevej,8680,17,9.702911,56.06658
2181847,Hedevej,8680,18,9.701996,56.067528
2181849,Hedevej,8680,19,9.702964,56.066814
2181851,Hedevej,8680,20,9.702455,56.067613
2181852,Hedevej,8680,21,9.703418,56.06711
2181855,Hedevej,8680,23,9.703547,56.067339
2181856,Hedevej,8680,25,9.703473,56.067499
2182348,Kildebjerg Skovvej,8680,1,9.789269,56.09334
2182351,Kildebjerg Skovvej,8680,3,9.790358,56.093743
2182353,Kildebjerg Skovvej,8680,5,9.790146,56.093864
2182356,Kildebjerg Skovvej,8680,7,9.78995,56.094142
2182357,Kildebjerg Skovvej,8680,9,9.789907,56.094475
2182360,Kildebjerg Skovvej,8680,11,9.789656,56.094621
2182361,Kildebjerg Skovvej,8680,13,9.789589,56.094899
2182362,Kildebjerg Skovvej,8680,15,9.790064,56.09482
2182363,Kildebjerg Skovvej,8680,17,9.790522,56.094668
2182364,Kildebjerg Skovvej,8680,19,9.790372,56.094459
2182365,Kildebjerg Skovvej,8680,21,9.790446,56.094199
2182366,Kildebjerg Skovvej,8680,23,9.790625,56.093961
2182367,Kildebjerg Skovvej,8680,25,9.790896,56.093812
2182368,Kildebjerg Skovvej,8680,27,9.791964,56.094029
2182369,Kildebjerg Skovvej,8680,29,9.791813,56.09416
2182370,Kildebjerg Skovvej,8680,31,9.79162,56.094352
2182371,Kildebjerg Skovvej,8680,33,9.791415,56.094529
2182372,Kildebjerg Skovvej,8680,35,9.791492,56.094715
2182373,Kildebjerg Skovvej,8680,37,9.791913,56.094636
2182374,Kildebjerg Skovvej,8680,39,9.792158,56.094452
2182375,Kildebjerg Skovvej,8680,41,9.792367,56.094261
2182376,Kildebjerg Skovvej,8680,43,9.792561,56.094088
2182377,Kildebjerg Skovvej,8680,45,9.793585,56.094316
2182378,Kildebjerg Skovvej,8680,47,9.793673,56.09446
2182379,Kildebjerg Skovvej,8680,49,9.793867,56.094637
2182380,Kildebjerg Skovvej,8680,51,9.794289,56.094804
2182381,Kildebjerg Skovvej,8680,53,9.794379,56.095039
2182382,Kildebjerg Skovvej,8680,55,9.794814,56.095086
2182383,Kildebjerg Skovvej,8680,57,9.795142,56.094843
2182384,Kildebjerg Skovvej,8680,59,9.794771,56.094696
2182385,Kildebjerg Skovvej,8680,61,9.7945,56.094605
2182386,Kildebjerg Skovvej,8680,63,9.79419,56.094496
2183459,Rugaards Skovvej,8680,6,9.78802,56.093006
2183460,Rugaards Skovvej,8680,8,9.78812,56.093232
2183461,Rugaards Skovvej,8680,10,9.788255,56.093502
2183462,Rugaards Skovvej,8680,12,9.788373,56.093675
2183463,Rugaards Skovvej,8680,14,9.787744,56.093699
2183464,Rugaards Skovvej,8680,16,9.787514,56.093537
2183465,Rugaards Skovvej,8680,18,9.787679,56.093343
2183466,Rugaards Skovvej,8680,20,9.78769,56.09318
2183467,Rugaards Skovvej,8680,22,9.787677,56.092961
2183468,Rugaards Skovvej,8680,24,9.78683,56.092982
2183469,Rugaards Skovvej,8680,26,9.786373,56.093054
2183470,Rugaards Skovvej,8680,28,9.786213,56.093254
2183471,Rugaards Skovvej,8680,30,9.786159,56.093506
2183472,Rugaards Skovvej,8680,32,9.78621,56.093705
2183473,Rugaards Skovvej,8680,34,9.785892,56.093943
2183474,Rugaards Skovvej,8680,36,9.78548,56.094027
2183475,Rugaards Skovvej,8680,38,9.785442,56.093787
2183476,Rugaards Skovvej,8680,40,9.785559,56.093596
2183477,Rugaards Skovvej,8680,42,9.785694,56.093328
2183478,Rugaards Skovvej,8680,44,9.785639,56.093313
2183479,Rugaards Skovvej,8680,46,9.785512,56.093331
2183480,Rugaards Skovvej,8680,48,9.785475,56.093267
2183481,Rugaards Skovvej,8680,50,9.785436,56.093257
2183482,Rugaards Skovvej,8680,52,9.785397,56.093246
2183483,Rugaards Skovvej,8680,53,9.787939,56.092597
2183484,Rugaards Skovvej,8680,54,9.785358,56.093236
2183485,Rugaards Skovvej,8680,55,9.787783,56.092609
2183486,Rugaards Skovvej,8680,56,9.785857,56.093114
2183487,Rugaards Skovvej,8680,57,9.787631,56.092618
2183488,Rugaards Skovvej,8680,58,9.785782,56.093094
2183489,Rugaards Skovvej,8680,59,9.787482,56.092619
2183490,Rugaards Skovvej,8680,60,9.785635,56.093107
2183491,Rugaards Skovvej,8680,61,9.787331,56.092614
2183492,Rugaards Skovvej,8680,62,9.785585,56.09304
2183493,Rugaards Skovvej,8680,64,9.785532,56.093026
2183494,Rugaards Skovvej,8680,66,9.78548,56.093012
2183495,Rugaards Skovvej,8680,68,9.785428,56.092998
2183496,Rugaardsvej,8680,1,9.78491,56.090534
2183497,Rugaardsvej,8680,5,9.784662,56.090991
2183498,Rugaardsvej,8680,7,9.784544,56.091355
2183583,Sønder Ege Strandpark,8680,1,9.7628708,56.0976974
2183584,Sønder Ege Strandpark,8680,1A,9.7631873,56.0975746
2183585,Sønder Ege Strandpark,8680,3,9.7626637,56.0976296
2183586,Sønder Ege Strandpark,8680,5,9.762467,56.0975676
2183587,Sønder Ege Strandpark,8680,7,9.762063,56.097433
2183588,Sønder Ege Strandpark,8680,9,9.76186,56.097366
2183589,Sønder Ege Strandpark,8680,11,9.761656,56.0972966
2183590,Sønder Ege Strandpark,8680,13,9.761337,56.0973905
2183591,Sønder Ege Strandpark,8680,15,9.76155,56.097464
2183592,Sønder Ege Strandpark,8680,17,9.7617583,56.0975317
2183593,Sønder Ege Strandpark,8680,19,9.7621733,56.0976729
2183594,Sønder Ege Strandpark,8680,21,9.7623773,56.0977464
2183595,Sønder Ege Strandpark,8680,23,9.7625849,56.0978084
2183596,Sønder Ege Strandpark,8680,25,9.7622195,56.0980924
2183597,Sønder Ege Strandpark,8680,27,9.7620353,56.098013
2183598,Sønder Ege Strandpark,8680,29,9.7618386,56.097951
2183599,Sønder Ege Strandpark,8680,31,9.7614374,56.0977867
2183600,Sønder Ege Strandpark,8680,33,9.7612461,56.0977074
2183601,Sønder Ege Strandpark,8680,35,9.7610543,56.0976338
2183602,Sønder Ege Strandpark,8680,37,9.7607255,56.0977163
2183603,Sønder Ege Strandpark,8680,39,9.7609283,56.0977956
2183604,Sønder Ege Strandpark,8680,41,9.7613023,56.0979486
2183605,Sønder Ege Strandpark,8680,43,9.7615032,56.0980278
2183606,Sønder Ege Strandpark,8680,45,9.761701,56.098105
2183607,Sønder Ege Strandpark,8680,47,9.762078,56.098253
2183608,Sønder Ege Strandpark,8680,49,9.7622802,56.0983336
2183609,Selvejervej,8680,1,9.753505,56.111598
2183610,Selvejervej,8680,3,9.753646,56.111839
2183611,Selvejervej,8680,4,9.753964,56.111735
2183612,Selvejervej,8680,5,9.753681,56.112109
2183613,Selvejervej,8680,6,9.754013,56.112075
2183614,Selvejervej,8680,7,9.753685,56.112343
2183615,Selvejervej,8680,8,9.754129,56.112305
2185925,Rugaarden,8680,1,9.786953,56.090447
2185926,Rugaarden,8680,2,9.786073,56.089894
2185927,Rugaarden,8680,3,9.787367,56.0908
2185928,Rugaarden,8680,4,9.787035,56.089626
2185929,Rugaarden,8680,5,9.787852,56.09076
2185930,Rugaarden,8680,6,9.787991,56.089152
2185931,Rugaarden,8680,8,9.789903,56.088886
2185932,Rugaarden,8680,10,9.789081,56.089346
2185934,Rugaarden,8680,12,9.788102,56.089693
2185935,Rugaarden,8680,14,9.787595,56.090023
2185936,Rugaarden,8680,16,9.788351,56.08994
2185937,Rugaarden,8680,18,9.788786,56.089732
2185938,Rugaarden,8680,18B,9.789459,56.089754
2185939,Rugaarden,8680,20,9.789015,56.090044
2185940,Rugaarden,8680,22,9.790028,56.089754
2185942,Rugaarden,8680,100,9.789977,56.091027
2186037,Bytorvet,8680,22,9.758658,56.092211
2186038,Bytorvet,8680,24,9.758732,56.092354
2186039,Bytorvet,8680,26,9.758808,56.092469
2186040,Bytorvet,8680,28,9.758895,56.092535
2186041,Møllesvinget,8680,1,9.704165,56.076479
2186042,Møllesvinget,8680,3,9.703663,56.076526
2186043,Møllesvinget,8680,4,9.703372,56.076793
2186044,Møllesvinget,8680,5,9.703318,56.076545
2186045,Møllesvinget,8680,6,9.702995,56.076734
2186046,Møllesvinget,8680,7,9.703465,56.076293
2186047,Møllesvinget,8680,8,9.702544,56.076527
2186048,Møllesvinget,8680,9,9.704209,56.076038
2186049,Møllesvinget,8680,10,9.702751,56.076297
2186050,Møllesvinget,8680,12,9.70305,56.076056
2186051,Møllesvinget,8680,14,9.704017,56.075807
2190075,Haardalen,8680,1,9.783863,56.079116
2190076,Haardalen,8680,3,9.783971,56.078896
2190077,Haardalen,8680,5,9.784033,56.078626
2190078,Haardalen,8680,7,9.784041,56.078292
2190079,Haardalen,8680,9,9.784342,56.078078
2190080,Haardalen,8680,11,9.784486,56.077888
2190081,Haardalen,8680,13,9.783958,56.077827
2190082,Haardalen,8680,15,9.783712,56.078029
2190083,Haardalen,8680,17,9.783735,56.07824
2190084,Haardalen,8680,19,9.783708,56.07858
2190085,Haardalen,8680,21,9.78365,56.078859
2190086,Haardalen,8680,23,9.783582,56.079042
2190087,Haardalen,8680,25,9.782444,56.078938
2190088,Haardalen,8680,27,9.782723,56.078694
2190089,Haardalen,8680,29,9.782806,56.07847
2190090,Haardalen,8680,31,9.782773,56.078188
2190091,Haardalen,8680,33,9.782694,56.077996
2190092,Haardalen,8680,35,9.782863,56.07771
2190093,Haardalen,8680,37,9.782416,56.077753
2190094,Haardalen,8680,39,9.782213,56.07793
2190095,Haardalen,8680,41,9.782225,56.078195
2190096,Haardalen,8680,43,9.78236,56.078452
2190097,Haardalen,8680,45,9.782237,56.078694
2190098,Haardalen,8680,47,9.782146,56.078896
2190099,Haardalen,8680,49,9.781294,56.078916
2190100,Haardalen,8680,51,9.781233,56.078664
2190101,Haardalen,8680,53,9.781336,56.078421
2190102,Haardalen,8680,55,9.781349,56.078089
2190103,Haardalen,8680,57,9.781226,56.077817
2190104,Haardalen,8680,59,9.780755,56.077873
2190105,Haardalen,8680,61,9.780809,56.078085
2190106,Haardalen,8680,63,9.780808,56.078472
2190107,Haardalen,8680,65,9.7807,56.078622
2190108,Haardalen,8680,67,9.780675,56.078852
2190109,Haardalen,8680,69,9.779764,56.078584
2190110,Haardalen,8680,71,9.779755,56.078915
2190118,Skovlunden,8680,3,9.692343,56.071052
2190119,Skovlunden,8680,5,9.692208,56.071234
2190120,Skovlunden,8680,7,9.692192,56.071436
2190121,Skovlunden,8680,9,9.692545,56.071555
2190122,Skovlunden,8680,10,9.692765,56.071293
2190123,Skovlunden,8680,11,9.6927,56.071735
2190124,Skovlunden,8680,12,9.693021,56.071448
2190125,Skovlunden,8680,13,9.693073,56.071825
2190126,Skovlunden,8680,14,9.693306,56.071534
2190127,Skovlunden,8680,15,9.69339,56.071975
2190128,Skovlunden,8680,16,9.69355,56.071718
2190129,Skovlunden,8680,17,9.693612,56.072136
2190130,Skovlunden,8680,18,9.693802,56.071894
2190131,Skovlunden,8680,19,9.693913,56.072257
2190132,Skovlunden,8680,20,9.694055,56.07195
2190133,Skovlunden,8680,22,9.694274,56.072152
2191213,Vessøvej,8680,32A,9.787711,56.080584
2198634,Rodelundvej,8680,4E,9.751243,56.091681
2215863,Bøgedalsvej,8680,16,9.665165,56.114024
2215864,Bøgedalsvej,8680,20,9.660671,56.111505
2216938,Parallelvej,8680,9 B,9.7816134,56.0901485
2219412,Rugaarden,8680,21A,9.7893876,56.0912282
2219413,Rugaarden,8680,21B,9.789409,56.091178
2219414,Rugaarden,8680,21C,9.789431,56.091129
2219415,Rugaarden,8680,23A,9.78898,56.091033
2219416,Rugaarden,8680,23B,9.789038,56.090982
2219417,Rugaarden,8680,23C,9.789064,56.0909312
2219418,Rugaarden,8680,23D,9.789091,56.09088
2219419,Rugaarden,8680,25A,9.7886029,56.0911469
2219420,Rugaarden,8680,25B,9.788541,56.091186
2219421,Rugaarden,8680,25C,9.788479,56.091226
2219422,Rugaarden,8680,25D,9.788417,56.091266
2219423,Rugaarden,8680,27A,9.789034,56.091436
2219424,Rugaarden,8680,27B,9.788975,56.091475
2219425,Rugaarden,8680,27C,9.788916,56.091514
2219426,Rugaarden,8680,29A,9.789511,56.091673
2219427,Rugaarden,8680,29B,9.789453,56.091712
2219428,Rugaarden,8680,29C,9.7893938,56.0917514
2219543,Skovagervej,8680,34,9.792664,56.090303
2219544,Skovagervej,8680,199,9.805881,56.094886
2219545,Skovagervej,8680,200,9.80613,56.09117
2219546,Rugaards Skovvej,8680,1A,9.788837,56.092364
2219547,Rugaards Skovvej,8680,1B,9.788895,56.092325
2219548,Rugaards Skovvej,8680,1C,9.788954,56.092286
2219549,Rugaards Skovvej,8680,3A,9.7884919,56.092131
2219550,Rugaards Skovvej,8680,3B,9.7885534,56.0920903
2219551,Rugaards Skovvej,8680,3C,9.7886143,56.0920497
2219552,Rugaards Skovvej,8680,3D,9.788676,56.09201
2219553,Rugaards Skovvej,8680,5A,9.788143,56.091885
2219554,Rugaards Skovvej,8680,5B,9.788202,56.091846
2219555,Rugaards Skovvej,8680,5C,9.788261,56.091807
2219556,Rugaards Skovvej,8680,7A,9.787727,56.091686
2219557,Rugaards Skovvej,8680,7B,9.7877864,56.0916467
2219558,Rugaards Skovvej,8680,7C,9.787845,56.091609
2219559,Rugaards Skovvej,8680,9A,9.787544,56.091855
2219560,Rugaards Skovvej,8680,9B,9.787457,56.091877
2219561,Rugaards Skovvej,8680,9C,9.787371,56.091898
2219562,Rugaards Skovvej,8680,9D,9.7872847,56.0919202
2219563,Rugaards Skovvej,8680,11A,9.7879184,56.0920656
2219564,Rugaards Skovvej,8680,11B,9.787835,56.092087
2219565,Rugaards Skovvej,8680,11C,9.787753,56.092108
2219566,Rugaards Skovvej,8680,13A,9.787426,56.092133
2219567,Rugaards Skovvej,8680,13B,9.7873308,56.0921326
2219568,Rugaards Skovvej,8680,13C,9.787237,56.092132
2219569,Rugaards Skovvej,8680,13D,9.787142,56.092132
2219570,Rugaards Skovvej,8680,15A,9.787536,56.092377
2219571,Rugaards Skovvej,8680,15B,9.787442,56.092376
2219572,Rugaards Skovvej,8680,15C,9.787347,56.092376
2219573,Rugaards Skovvej,8680,15D,9.787253,56.092376
2219574,Rugaards Skovvej,8680,17A,9.788132,56.09228
2219575,Rugaards Skovvej,8680,17B,9.788046,56.092302
2219576,Rugaards Skovvej,8680,17C,9.78796,56.092323
2219577,Rugaards Skovvej,8680,17D,9.787874,56.092345
2219578,Rugaards Skovvej,8680,19A,9.788446,56.092478
2219579,Rugaards Skovvej,8680,19B,9.78836,56.092499
2219580,Rugaards Skovvej,8680,19C,9.788273,56.092521
2219581,Rugaards Skovvej,8680,19D,9.788187,56.092543
2224426,Klostervej,8680,3B,9.760938,56.088832
2224427,Klostervej,8680,8D,9.757033,56.091589
2224603,Thorsvej,8680,32E,9.777206,56.093948
2224604,Stadionalle,8680,15C,9.764331,56.092753
2224605,Stadionalle,8680,24,9.764683,56.092668
2224606,Kyhnsvej,8680,13B,9.756144,56.092312
2224607,Kyhnsvej,8680,28,9.752755,56.092182
2224619,Enghavevej,8680,9A,9.756665,56.091155
2224620,Tulstrupvej,8680,65B,9.773318,56.10887
2224621,Tulstrupvej,8680,65C,9.773943,56.108858
2224622,Ringvej,8680,10A,9.731207,56.112567
2224623,Ringvej,8680,27A,9.728644,56.113548
2224625,Oksevejen,8680,10A,9.751946,56.120833
2224626,Oksevejen,8680,10B,9.752057,56.12072
2224627,Munkevej,8680,5A,9.750383,56.052472
2224706,Hyllingvej,8680,2D,9.821912,56.109073
2227130,Vessøvej,8680,4,9.785846,56.080312
2227131,Vessøvej,8680,6,9.785987,56.080325
2227132,Vessøvej,8680,8,9.786127,56.080338
2227133,Vessøvej,8680,10,9.786268,56.08035
2227134,Vessøvej,8680,12,9.786408,56.080363
2227135,Vessøvej,8680,14,9.786548,56.080376
2227136,Vessøvej,8680,16,9.78669,56.080387
2227137,Vessøvej,8680,18,9.786277,56.080603
2227138,Vessøvej,8680,20,9.786203,56.080662
2227139,Vessøvej,8680,22,9.786129,56.080721
2227140,Vessøvej,8680,24,9.786055,56.080781
2227141,Vessøvej,8680,26,9.785982,56.080841
2227142,Vessøvej,8680,28,9.785906,56.080905
2230867,Odderholm,8680,5,9.723509,56.059346
2230868,Odderholm,8680,27,9.729327,56.060435
2234972,Knudhulevej,8680,6,9.788051,56.095176
2236143,Tønningsletvej,8680,5B,9.641504,56.099641
2236710,Stejlehøjvej,8680,12,9.695002,56.07085
2237746,Bytorvet,8680,2,9.758627,56.093157
2237747,Bytorvet,8680,4,9.758519,56.092893
2237748,Bytorvet,8680,10,9.758153,56.092715
2237749,Bytorvet,8680,18,9.758376,56.092586
2237750,Bytorvet,8680,20,9.758196,56.09243
2240655,Skovbakkevej,8680,5,9.809865,56.093147
2251358,Gammel Ryevej,8680,64L,9.707132,56.055521
2253584,Fugldalen,8680,15B,9.777267,56.080423
2253597,Hjarsbækvej,8680,1B,9.695639,56.07171
2253598,Hjarsbækvej,8680,20A,9.676134,56.069322
2253599,Hjarsbækvej,8680,29A,9.656979,56.065098
2253602,Horsensvej,8680,35,9.696487,56.064267
2253620,Jægergårdsvej,8680,6A,9.700993,56.077492
2253621,Kildebjerg Skovvej,8680,24,9.792109,56.093694
2253622,Kildebjerg Skovvej,8680,26,9.792206,56.093486
2253623,Kildebjerg Skovvej,8680,28,9.79227,56.093317
2253624,Kildebjerg Skovvej,8680,30,9.792525,56.093145
2253625,Kildebjerg Skovvej,8680,32,9.792616,56.093041
2253626,Kildebjerg Skovvej,8680,34,9.792607,56.092755
2253627,Kildebjerg Skovvej,8680,36,9.79299,56.092677
2253628,Kildebjerg Skovvej,8680,38,9.793301,56.092711
2253629,Kildebjerg Skovvej,8680,40,9.793266,56.092933
2253630,Kildebjerg Skovvej,8680,42,9.79318,56.093087
2253631,Kildebjerg Skovvej,8680,44,9.792974,56.093231
2253632,Kildebjerg Skovvej,8680,46,9.792755,56.093405
2253633,Kildebjerg Skovvej,8680,48,9.792675,56.093616
2253634,Kildebjerg Skovvej,8680,50,9.792579,56.0938
2253635,Kildebjerg Skovvej,8680,52,9.793693,56.093967
2253636,Kildebjerg Skovvej,8680,54,9.793726,56.093833
2253637,Kildebjerg Skovvej,8680,56,9.793851,56.093661
2253638,Kildebjerg Skovvej,8680,58,9.793819,56.09337
2253639,Kildebjerg Skovvej,8680,60,9.794038,56.093347
2253640,Kildebjerg Skovvej,8680,62,9.794329,56.093435
2253641,Kildebjerg Skovvej,8680,64,9.794495,56.093525
2253642,Kildebjerg Skovvej,8680,66,9.794607,56.093723
2253643,Kildebjerg Skovvej,8680,68,9.794277,56.09386
2253644,Kildebjerg Skovvej,8680,70,9.794322,56.094101
2253645,Kildebjerg Skovvej,8680,72,9.795105,56.094207
2253646,Kildebjerg Skovvej,8680,74,9.795185,56.094104
2253647,Kildebjerg Skovvej,8680,76,9.795154,56.093845
2253648,Kildebjerg Skovvej,8680,78,9.795391,56.093649
2253649,Kildebjerg Skovvej,8680,80,9.795774,56.093822
2253650,Kildebjerg Skovvej,8680,82,9.795753,56.094002
2253651,Kildebjerg Skovvej,8680,84,9.795667,56.094162
2253652,Kildebjerg Skovvej,8680,86,9.795467,56.094298
2253656,Lille Vangs Vej,8680,19,9.6981164,56.0690579
2253682,Randersvej,8680,117A,9.786716,56.117084
2253684,Ravnsøvej,8680,40A,9.818596,56.112237
2253686,Rodelundvej,8680,7A,9.7281,56.08174
2253687,Rodelundvej,8680,41A,9.665482,56.090514
2253689,Skovagervej,8680,193,9.8006875,56.0975672
2253690,Skovagervej,8680,195,9.805755,56.097578
2253691,Skærsbrovej,8680,15A,9.779265,56.080422
2253702,Søvej,8680,48,9.71489,56.117756
2253704,Thorsvej,8680,32H,9.77529,56.09373
2253706,Tinghusvej,8680,4A,9.704124,56.088285
2253732,Rugaarden,8680,30,9.790621,56.090144
2253733,Rugaarden,8680,32,9.793004,56.088101
