idx,street,postcode,housenumber,lon,lat
788599,Gammel Jernbanevej,8763,5,9.6128786,55.8722406
1884942,Cikorievej,8763,1,9.609406,55.870104
1884943,Cikorievej,8763,2,9.609645,55.870418
1884944,Cikorievej,8763,3,9.608897,55.870357
1884945,Cikorievej,8763,4,9.60943,55.870583
1884946,Cikorievej,8763,5,9.608495,55.87052
1884947,Cikorievej,8763,6,9.6090847,55.870688
1884948,Cikorievej,8763,8,9.608754,55.870823
1884949,Cikorievej,8763,9,9.60746,55.870817
1884950,Cikorievej,8763,10,9.608427,55.870914
1884951,Cikorievej,8763,11,9.607239,55.870611
1884952,Cikorievej,8763,12,9.60812,55.871054
1884953,Cikorievej,8763,13,9.606994,55.87031
1884954,Cikorievej,8763,14,9.607717,55.871152
1884955,Cikorievej,8763,15,9.606795,55.870066
1884956,Cikorievej,8763,16,9.607433,55.871287
1884957,Cikorievej,8763,17,9.606526,55.869774
1884958,Cikorievej,8763,18,9.607242,55.871112
1884959,Cikorievej,8763,19,9.606443,55.86949
1884960,Cikorievej,8763,20,9.606979,55.870918
1884961,Cikorievej,8763,22,9.606701,55.87065
1884962,Cikorievej,8763,24,9.606528,55.870476
1884963,Cikorievej,8763,26,9.606402,55.870249
1884964,Cikorievej,8763,28,9.606304,55.87009
1884965,Cikorievej,8763,30,9.606157,55.869862
1884966,Cikorievej,8763,32,9.606039,55.869708
1884967,Cikorievej,8763,34,9.605922,55.869516
1884991,Gyvelvej,8763,2,9.6120957,55.8715836
1884992,Gyvelvej,8763,3,9.6136655,55.8719012
1884993,Gyvelvej,8763,4,9.6126015,55.8714877
1884994,Gyvelvej,8763,5,9.6142294,55.8718381
1884995,Gyvelvej,8763,6,9.613052,55.8714094
1884996,Gyvelvej,8763,7,9.6139934,55.8716688
1884997,Gyvelvej,8763,8,9.6130487,55.871177
1884998,Gyvelvej,8763,9,9.6143232,55.8714925
1884999,Gyvelvej,8763,10,9.6130108,55.8709105
1885000,Gyvelvej,8763,11,9.6149721,55.8716388
1885001,Gyvelvej,8763,12,9.6130472,55.870668
1885002,Gyvelvej,8763,13,9.614729,55.871365
1885003,Gyvelvej,8763,14,9.6131883,55.8704125
1885004,Gyvelvej,8763,15,9.6145437,55.8711934
1885005,Gyvelvej,8763,16,9.6133539,55.8702238
1885006,Gyvelvej,8763,17,9.6141615,55.8712427
1885007,Gyvelvej,8763,18,9.6136615,55.8700103
1885008,Gyvelvej,8763,19,9.6136359,55.8712615
1885009,Gyvelvej,8763,20,9.6139998,55.869865
1885010,Gyvelvej,8763,21A,9.6138421,55.8708928
1885011,Gyvelvej,8763,21B,9.6140395,55.8708953
1885012,Gyvelvej,8763,22,9.6144203,55.8697497
1885013,Gyvelvej,8763,23A,9.6134851,55.8708512
1885014,Gyvelvej,8763,23B,9.613622,55.870873
1885015,Gyvelvej,8763,25,9.6135226,55.8705837
1885016,Gyvelvej,8763,26,9.614681,55.86959
1885017,Gyvelvej,8763,27,9.6138025,55.8703632
1885018,Gyvelvej,8763,29,9.6142887,55.8703607
1885019,Gyvelvej,8763,31,9.61424,55.8700861
1885020,Gyvelvej,8763,33,9.6146509,55.8699876
1885021,Bellisvej,8763,1,9.610124,55.870754
1885022,Bellisvej,8763,2,9.610421,55.87108
1885023,Bellisvej,8763,3,9.609835,55.870878
1885024,Bellisvej,8763,4,9.6102,55.871169
1885025,Bellisvej,8763,5,9.609568,55.870975
1885026,Bellisvej,8763,6,9.609872,55.871283
1885027,Bellisvej,8763,7,9.609295,55.871096
1885028,Bellisvej,8763,8,9.609502,55.871395
1885029,Bellisvej,8763,9,9.608981,55.871213
1885030,Bellisvej,8763,10,9.609206,55.871532
1885031,Bellisvej,8763,11,9.60871,55.871312
1885032,Bellisvej,8763,12,9.608804,55.871564
1885033,Bellisvej,8763,13,9.608416,55.871397
1885034,Bellisvej,8763,14,9.608498,55.8718
1885035,Bellisvej,8763,15,9.608117,55.871505
1885036,Bellisvej,8763,16,9.6081941,55.8719058
1885037,Bellisvej,8763,17,9.60771,55.871634
1885053,Kildevej,8763,1,9.6099628,55.8738207
1885054,Kildevej,8763,2,9.6103711,55.8739409
1885055,Kildevej,8763,3,9.609313,55.873765
1885056,Kildevej,8763,3A,9.609422,55.874021
1885057,Kildevej,8763,4,9.610574,55.874453
1885058,Kildevej,8763,5,9.6087775,55.8741948
1885059,Kildevej,8763,6,9.6100802,55.8740845
1885060,Kildevej,8763,7,9.6079746,55.8744845
1885061,Kildevej,8763,8,9.6098288,55.8742134
1885062,Kildevej,8763,11,9.6077045,55.8741498
1885063,Kildevej,8763,14,9.6089568,55.87453
1885064,Møllesvinget,8763,1,9.6127556,55.874222
1885065,Møllesvinget,8763,3,9.6130421,55.8743583
1885066,Møllesvinget,8763,4,9.613642,55.8743676
1885067,Møllesvinget,8763,5,9.6133494,55.874561
1885068,Møllesvinget,8763,6,9.614078,55.8745881
1885069,Møllesvinget,8763,7,9.6136379,55.8747238
1885070,Møllesvinget,8763,8,9.6142968,55.8747526
1885071,Møllesvinget,8763,9,9.613902,55.874879
1885072,Møllesvinget,8763,10,9.6145092,55.8749294
1885073,Møllesvinget,8763,11,9.6141552,55.8750509
1885074,Møllesvinget,8763,12,9.6148053,55.8750913
1885075,Møllesvinget,8763,13,9.6143703,55.8752252
1885076,Møllesvinget,8763,14,9.6153376,55.8749437
1885077,Møllesvinget,8763,15,9.6139774,55.8753942
1885086,Honum Skovvej,8763,16,9.644449,55.869506
1885087,Honum Skovvej,8763,17,9.642536,55.868132
1885088,Honum Skovvej,8763,18,9.6392255,55.8704885
1885089,Honum Skovvej,8763,20,9.6372582,55.8701228
1885090,Honum Skovvej,8763,21,9.6360202,55.8678959
1885091,Honum Skovvej,8763,22,9.6348971,55.8686975
1885092,Honum Skovvej,8763,24,9.629458,55.869576
1885093,Honum Skovvej,8763,25,9.626728,55.8679257
1885094,Honum Skovvej,8763,26,9.6253044,55.8702069
1885095,Honum Skovvej,8763,28,9.6214247,55.8701578
1885096,Honum Skovvej,8763,29,9.6206787,55.8703232
1885097,Honum Skovvej,8763,30,9.6207804,55.8705852
1885098,Honum Skovvej,8763,31,9.619797,55.8708727
1885099,Erantisvej,8763,2,9.608005,55.870652
1885100,Erantisvej,8763,3,9.608168,55.87034
1885101,Erantisvej,8763,4,9.607743,55.870488
1885102,Erantisvej,8763,5,9.6078991,55.8700644
1885103,Erantisvej,8763,6,9.6076,55.870256
1885104,Erantisvej,8763,7,9.607843,55.869848
1885105,Erantisvej,8763,8,9.607414,55.87012
1885106,Erantisvej,8763,9,9.607683,55.869558
1885107,Erantisvej,8763,10,9.607325,55.869903
1885108,Erantisvej,8763,11,9.6075338,55.8692868
1885109,Erantisvej,8763,12,9.607177,55.869667
1885110,Erantisvej,8763,14,9.607087,55.869483
1885111,Erantisvej,8763,16,9.607061,55.869292
1885112,Kornelvej,8763,2A,9.610153,55.868309
1885113,Kornelvej,8763,2B,9.610107,55.868149
1885114,Kornelvej,8763,2C,9.610058,55.867988
1885115,Kornelvej,8763,3A,9.61083,55.868731
1885116,Kornelvej,8763,3B,9.610966,55.868711
1885117,Kornelvej,8763,3C,9.611096,55.868691
1885118,Kornelvej,8763,3D,9.611226,55.868671
1885119,Kornelvej,8763,3E,9.611556,55.868535
1885120,Kornelvej,8763,3F,9.6115944,55.8686168
1885121,Kornelvej,8763,3G,9.61164,55.868715
1885122,Kornelvej,8763,4,9.610617,55.868125
1885123,Kornelvej,8763,5,9.610835,55.868363
1885124,Kornelvej,8763,6,9.611034,55.868064
1885125,Kornelvej,8763,7,9.611223,55.868306
1885126,Kornelvej,8763,8,9.611412,55.868004
1885127,Kornelvej,8763,9,9.611508,55.868286
1885128,Kornelvej,8763,10,9.6118312,55.8679428
1885129,Kornelvej,8763,11,9.611996,55.868174
1885130,Kornelvej,8763,12,9.612155,55.867788
1885131,Kornelvej,8763,13,9.612692,55.8680396
1885132,Kornelvej,8763,15,9.612235,55.868164
1885133,Fruens Vej,8763,2,9.610719,55.883399
1885134,Fruens Vej,8763,3,9.609454,55.882874
1885135,Fruens Vej,8763,4,9.6085519,55.883358
1885136,Fruens Vej,8763,6,9.6068123,55.8831822
1885137,Fruens Vej,8763,7,9.606485,55.882808
1885138,Fruens Vej,8763,8,9.6043685,55.8832408
1885139,Fruens Vej,8763,10,9.6031151,55.8830759
1885140,Fruens Vej,8763,11,9.602569,55.882684
1885141,Fruens Vej,8763,12,9.60055,55.882986
1885142,Fruens Vej,8763,13,9.5985922,55.8825463
1885143,Fruens Vej,8763,14,9.597849,55.8828218
1885144,Fruens Vej,8763,15,9.5972053,55.8818376
1885145,Fruens Vej,8763,16,9.5964016,55.8827993
1885146,Hybenvej,8763,1,9.6112826,55.8705339
1885147,Hybenvej,8763,2,9.610349,55.87038
1885148,Hybenvej,8763,3,9.6109167,55.8706834
1885149,Hybenvej,8763,4,9.610283,55.87033
1885150,Hybenvej,8763,5,9.6111182,55.870852
1885151,Hybenvej,8763,6,9.610226,55.870271
1885152,Hybenvej,8763,7,9.6115906,55.8707915
1885153,Hybenvej,8763,8,9.610169,55.870215
1885154,Hybenvej,8763,9,9.6118044,55.8709827
1885155,Hybenvej,8763,10,9.610325,55.870127
1885156,Hybenvej,8763,11,9.611458,55.871104
1885157,Hybenvej,8763,12,9.610442,55.870081
1885158,Hybenvej,8763,12A,9.61003,55.870104
1885159,Hybenvej,8763,12B,9.60994,55.870031
1885160,Hybenvej,8763,12C,9.609807,55.869955
1885161,Hybenvej,8763,12D,9.609937,55.869904
1885162,Hybenvej,8763,12E,9.609972,55.86985
1885163,Hybenvej,8763,12F,9.61009,55.869804
1885164,Hybenvej,8763,13A,9.6115648,55.8713255
1885165,Hybenvej,8763,13B,9.611645,55.871385
1885166,Hybenvej,8763,13C,9.6117285,55.8714512
1885167,Hybenvej,8763,14,9.610571,55.87003
1885168,Hybenvej,8763,15,9.612015,55.8712069
1885169,Hybenvej,8763,16,9.610688,55.869983
1885170,Hybenvej,8763,17,9.6124553,55.8712072
1885171,Hybenvej,8763,18,9.610791,55.869978
1885172,Hybenvej,8763,19,9.612273,55.870895
1885173,Hybenvej,8763,20,9.610907,55.869932
1885174,Hybenvej,8763,20B,9.610945,55.8698794
1885175,Hybenvej,8763,21,9.6120165,55.8707098
1885176,Hybenvej,8763,22,9.61099,55.870139
1885177,Hybenvej,8763,23,9.6116553,55.8704433
1885178,Hybenvej,8763,24,9.610919,55.870167
1885179,Hybenvej,8763,25,9.612142,55.870234
1885180,Hybenvej,8763,26,9.610802,55.870214
1885181,Hybenvej,8763,27,9.612571,55.870172
1885182,Hybenvej,8763,28,9.6115715,55.8700546
1885183,Hybenvej,8763,29,9.612874,55.8699859
1885184,Hybenvej,8763,30,9.611913,55.8700067
1885185,Hybenvej,8763,32,9.6123231,55.8699223
1885186,Hybenvej,8763,33A,9.6132612,55.8696856
1885187,Hybenvej,8763,33B,9.6134001,55.869745
1885188,Hybenvej,8763,34,9.6125588,55.8697741
1885189,Hybenvej,8763,35A,9.6134331,55.8695391
1885190,Hybenvej,8763,35B,9.6136087,55.8695849
1885191,Hybenvej,8763,36,9.6127683,55.8696263
1885192,Hybenvej,8763,37A,9.6135487,55.8693724
1885193,Hybenvej,8763,37B,9.6137564,55.8694081
1885194,Hybenvej,8763,38,9.6129665,55.8694265
1885195,Hybenvej,8763,39A,9.6136113,55.8691978
1885196,Hybenvej,8763,39B,9.6137508,55.8692175
1885197,Hybenvej,8763,40,9.6131045,55.8691425
1885198,Hybenvej,8763,41,9.6136993,55.8689285
1885199,Hybenvej,8763,42,9.613248,55.868888
1885200,Hybenvej,8763,43,9.6138937,55.8689431
1885201,Hybenvej,8763,44,9.613334,55.868641
1885202,Hybenvej,8763,45,9.6141464,55.8689287
1885203,Hybenvej,8763,46,9.6133889,55.8683893
1885204,Hybenvej,8763,47,9.6143208,55.8688973
1885205,Hybenvej,8763,48,9.613709,55.8683179
1885206,Hybenvej,8763,49,9.614332,55.8687567
1885207,Hybenvej,8763,50,9.6141837,55.8684027
1885208,Hybenvej,8763,51,9.614304,55.8686551
1885209,Hybenvej,8763,53,9.6140321,55.8686198
1885210,Hybenvej,8763,55,9.6138535,55.8686643
1885211,Anemonevej,8763,1,9.61089,55.871331
1885212,Anemonevej,8763,3,9.610588,55.871443
1885213,Anemonevej,8763,4,9.611025,55.871733
1885214,Anemonevej,8763,5,9.610242,55.871579
1885215,Anemonevej,8763,6,9.610661,55.871809
1885216,Anemonevej,8763,7,9.609872,55.871739
1885217,Anemonevej,8763,8,9.6103595,55.8718376
1885218,Anemonevej,8763,9,9.609537,55.871841
1885219,Anemonevej,8763,10,9.610121,55.872009
1885220,Anemonevej,8763,11,9.6092208,55.871987
1885221,Anemonevej,8763,12,9.609745,55.872169
1885222,Anemonevej,8763,13,9.608935,55.872061
1885223,Anemonevej,8763,15,9.608572,55.872209
1885224,Hovedgaden,8763,1,9.6109867,55.8737631
1885225,Hovedgaden,8763,1A,9.6111524,55.8737511
1885226,Hovedgaden,8763,2,9.6106339,55.8736201
1885227,Hovedgaden,8763,3A,9.61135,55.873768
1885228,Hovedgaden,8763,3B,9.611463,55.873756
1885229,Hovedgaden,8763,4,9.610977,55.8735948
1885230,Hovedgaden,8763,5,9.6116789,55.8736951
1885231,Hovedgaden,8763,6,9.6111567,55.8735706
1885232,Hovedgaden,8763,7,9.6120299,55.873606
1885233,Hovedgaden,8763,8,9.6113848,55.8735442
1885234,Hovedgaden,8763,9,9.6122468,55.8735768
1885235,Hovedgaden,8763,10,9.6115408,55.8735222
1885236,Hovedgaden,8763,11,9.6124806,55.8735479
1885237,Hovedgaden,8763,13,9.6126502,55.873524
1885238,Hovedgaden,8763,14,9.6118902,55.8734831
1885239,Hovedgaden,8763,15,9.6129466,55.8734732
1885240,Hovedgaden,8763,16,9.6120951,55.8734633
1885241,Hovedgaden,8763,17,9.6132765,55.8734546
1885242,Hovedgaden,8763,17B,9.6131908,55.8734816
1885243,Hovedgaden,8763,17C,9.6133851,55.8734604
1885244,Hovedgaden,8763,17D,9.61335,55.873496
1885245,Hovedgaden,8763,17E,9.6133732,55.8735566
1885246,Hovedgaden,8763,17F,9.6133628,55.8736463
1885247,Hovedgaden,8763,18,9.6123552,55.8734299
1885248,Hovedgaden,8763,19,9.614572,55.873249
1885249,Hovedgaden,8763,20,9.6125415,55.8733958
1885250,Hovedgaden,8763,21,9.614685,55.873193
1885251,Hovedgaden,8763,22,9.6127099,55.8733811
1885252,Hovedgaden,8763,23,9.6148094,55.8731535
1885253,Hovedgaden,8763,24,9.612874,55.873358
1885254,Hovedgaden,8763,25,9.614993,55.873084
1885255,Hovedgaden,8763,27,9.6152961,55.8729841
1885256,Hovedgaden,8763,28,9.6130239,55.8733356
1885257,Hovedgaden,8763,29,9.616161,55.872664
1885258,Hovedgaden,8763,30,9.613247,55.8733042
1885259,Hovedgaden,8763,32,9.6134716,55.8733275
1885260,Hovedgaden,8763,33,9.616885,55.872431
1885261,Hovedgaden,8763,34,9.6136716,55.8733242
1885262,Hovedgaden,8763,36,9.6142175,55.8731163
1885263,Hovedgaden,8763,38,9.6143023,55.8730834
1885264,Hovedgaden,8763,40A,9.6144622,55.8730471
1885265,Hovedgaden,8763,40B,9.6145639,55.873008
1885266,Hovedgaden,8763,42,9.6148982,55.8729399
1885267,Hovedgaden,8763,44,9.615328,55.8728291
1885268,Hovedgaden,8763,46,9.6156705,55.8726564
1885269,Hovedgaden,8763,48,9.616178,55.87244
1885270,Hovedgaden,8763,50,9.6165415,55.8722867
1885271,Hovedgaden,8763,52,9.617104,55.872018
1885290,Raskvej,8763,31,9.5701962,55.8797179
1885291,Raskvej,8763,33,9.5717361,55.8792818
1885292,Raskvej,8763,35,9.5729679,55.8791336
1885293,Raskvej,8763,37,9.5755005,55.878572
1885294,Raskvej,8763,39,9.5767702,55.8786732
1885295,Raskvej,8763,40,9.5763512,55.877154
1885296,Raskvej,8763,41,9.5783359,55.8813121
1885297,Raskvej,8763,43,9.5793511,55.8826837
1885298,Raskvej,8763,45,9.5837676,55.8764166
1885299,Raskvej,8763,47,9.5850334,55.8766151
1885300,Raskvej,8763,48,9.5865414,55.8750102
1885301,Raskvej,8763,50,9.58744,55.8738414
1885302,Raskvej,8763,52,9.594503,55.8745646
1885303,Raskvej,8763,52A,9.5960604,55.8727827
1885304,Raskvej,8763,56,9.5949194,55.8740229
1885305,Raskvej,8763,58,9.5964068,55.8748739
1885306,Boring,8763,1,9.601767,55.869226
1885307,Boring,8763,2,9.601072,55.869949
1885308,Boring,8763,3,9.600739,55.869043
1885309,Boring,8763,4,9.600593,55.869652
1885310,Boring,8763,6,9.600529,55.869333
1885311,Boring,8763,8,9.599139,55.871168
1885312,Boring,8763,9,9.599944,55.86894
1885313,Boring,8763,10,9.599188,55.869322
1885314,Boring,8763,11,9.598771,55.869181
1885315,Boring,8763,12,9.598835,55.869352
1885316,Boring,8763,13,9.598401,55.869157
1885317,Boring,8763,14,9.598547,55.869368
1885318,Boring,8763,16,9.598122,55.869332
1885319,Boring,8763,17,9.597982,55.869161
1885320,Boring,8763,18,9.597857,55.869396
1885321,Boring,8763,19,9.59757,55.869094
1885322,Boring,8763,20,9.597546,55.869651
1885323,Boring,8763,21,9.597272,55.868996
1885324,Boring,8763,22,9.597272,55.869487
1885325,Boring,8763,23,9.59777,55.868424
1885326,Boring,8763,24,9.596901,55.871269
1885327,Boring,8763,26,9.596896,55.869339
1885328,Boring,8763,28,9.596633,55.869301
1885329,Boring,8763,29,9.597048,55.868787
1885330,Boring,8763,30,9.596287,55.869452
1885331,Boring,8763,32,9.595756,55.869421
1885332,Boring,8763,33,9.592175,55.863823
1885333,Boring,8763,34,9.594144,55.869161
1885334,Boring,8763,35,9.588204,55.868182
1885335,Boring,8763,36,9.586964,55.869416
1885336,Boring,8763,37,9.577138,55.869022
1885337,Boring,8763,38,9.583542,55.870112
1885338,Boring,8763,39,9.582301,55.870333
1885339,Boring,8763,40,9.584677,55.873092
1885340,Boring,8763,42,9.582477,55.871371
1885341,Boring,8763,44,9.582002,55.87405
1885342,Boring,8763,45,9.579766,55.872523
1885343,Boring,8763,47,9.577789,55.872877
1885344,Boring,8763,49,9.574135,55.873299
1885345,Boring,8763,51,9.569202,55.876073
1885346,Boring,8763,53,9.574436,55.874932
1885347,Boring,8763,55,9.574655,55.875862
1885348,Møllersmindevej,8763,1,9.60421,55.869658
1885349,Møllersmindevej,8763,2,9.60466,55.86922
1885350,Møllersmindevej,8763,2A,9.604681,55.868958
1885351,Møllersmindevej,8763,4,9.604483,55.868614
1885352,Møllersmindevej,8763,8,9.606677,55.868816
1885353,Møllersmindevej,8763,8A,9.607565,55.868762
1885354,Møllersmindevej,8763,8B,9.607495,55.868687
1885355,Møllersmindevej,8763,8C,9.607396,55.868617
1885356,Møllersmindevej,8763,8D,9.607316,55.868531
1885357,Møllersmindevej,8763,8E,9.607076,55.868552
1885358,Møllersmindevej,8763,8F,9.606911,55.868575
1885359,Møllersmindevej,8763,8G,9.606752,55.868613
1885360,Møllersmindevej,8763,8H,9.606561,55.868639
1885361,Møllersmindevej,8763,8I,9.606292,55.868696
1885362,Møllersmindevej,8763,8J,9.606331,55.868786
1885363,Møllersmindevej,8763,8K,9.606402,55.868881
1885364,Møllersmindevej,8763,8L,9.606447,55.868984
1885365,Møllersmindevej,8763,8M,9.606661,55.869012
1885366,Møllersmindevej,8763,8N,9.606834,55.868988
1885367,Møllersmindevej,8763,8O,9.607003,55.868949
1885368,Møllersmindevej,8763,8P,9.60719,55.868923
1885369,Møllersmindevej,8763,8Q,9.607073,55.868723
1885370,Møllersmindevej,8763,10,9.607949,55.868351
1885371,Møllersmindevej,8763,12,9.608806,55.868561
1885372,Møllersmindevej,8763,14A,9.611247,55.866935
1885373,Møllersmindevej,8763,14B,9.611233,55.866741
1885374,Møllersmindevej,8763,15,9.610133,55.869013
1885375,Møllersmindevej,8763,16,9.6105291,55.8661572
1885376,Møllersmindevej,8763,17,9.610076,55.868572
1885377,Møllersmindevej,8763,24,9.6112864,55.8654038
1885378,Møllersmindevej,8763,28,9.612374,55.866771
1885379,Møllersmindevej,8763,29,9.613024,55.867071
1885380,Møllersmindevej,8763,30,9.613648,55.866633
1885381,Møllersmindevej,8763,31,9.613556,55.867714
1885382,Møllersmindevej,8763,35,9.61421,55.867828
1885383,Møllersmindevej,8763,37,9.614471,55.867558
1885384,Møllersmindevej,8763,39,9.614018,55.866893
1885394,Lindbækvej,8763,14,9.642441,55.87981
1885395,Lindbækvej,8763,16,9.638006,55.881725
1885396,Lindbækvej,8763,17,9.63788,55.878701
1885397,Lindbækvej,8763,20,9.6363817,55.8820983
1885398,Lindbækvej,8763,21,9.6355654,55.8825327
1885399,Lindbækvej,8763,22,9.6359936,55.8828095
1885400,Lindbækvej,8763,23,9.6351948,55.8828625
1885401,Lindbækvej,8763,24,9.6356021,55.8831532
1885402,Honumvej,8763,2A,9.611041,55.873852
1885403,Honumvej,8763,2B,9.61106,55.8739
1885404,Honumvej,8763,2D,9.611113,55.873794
1885405,Honumvej,8763,3,9.6108323,55.874221
1885406,Honumvej,8763,4,9.6115011,55.8741048
1885407,Honumvej,8763,5,9.6110444,55.8743067
1885408,Honumvej,8763,8,9.612156,55.87441
1885409,Honumvej,8763,10,9.6124296,55.8745568
1885410,Honumvej,8763,12,9.612731,55.874743
1885411,Honumvej,8763,14,9.612864,55.8749
1885412,Honumvej,8763,16,9.6132628,55.8749986
1885413,Honumvej,8763,18,9.6135537,55.8752323
1885414,Honumvej,8763,21,9.6191096,55.8790876
1885415,Honumvej,8763,23,9.6193847,55.8818853
1885416,Honumvej,8763,24,9.6205147,55.8792727
1885417,Honumvej,8763,26,9.6273918,55.8808129
1885418,Honumvej,8763,27,9.628103,55.881401
1885419,Honumvej,8763,28,9.6310027,55.8816061
1885420,Honumvej,8763,30,9.6320348,55.8775354
1885421,Honumvej,8763,32,9.6316557,55.8818123
1885422,Honumvej,8763,34,9.6317609,55.8820343
1885423,Honumvej,8763,35,9.630524,55.882829
1885424,Honumvej,8763,36,9.6318417,55.8822511
1885425,Honumvej,8763,37,9.631767,55.882575
1885426,Honumvej,8763,38,9.6324288,55.882697
1885427,Honumvej,8763,39,9.6319543,55.8829089
1885428,Honumvej,8763,40,9.6335422,55.8829053
1885429,Honumvej,8763,41,9.6330787,55.8833035
1885430,Honumvej,8763,42,9.6344056,55.8828142
1885431,Honumvej,8763,44,9.640653,55.884579
1885432,Honumvej,8763,45,9.635279,55.8834361
1885433,Honumvej,8763,46,9.6356882,55.8835388
1885434,Honumvej,8763,48,9.6371514,55.8858047
1885435,Skovbrynet,8763,1,9.6083455,55.8749508
1885436,Skovbrynet,8763,2,9.6087709,55.8747536
1885437,Skovbrynet,8763,3,9.608387,55.875308
1885438,Skovbrynet,8763,4,9.6087957,55.8750805
1885439,Skovbrynet,8763,5,9.6084628,55.8755145
1885440,Skovbrynet,8763,7,9.6085492,55.8756196
1885441,Skovbrynet,8763,8,9.6089807,55.8752734
1885442,Skovbrynet,8763,10,9.6091039,55.8754572
1885443,Skovbrynet,8763,12,9.6092237,55.8756346
1885444,Skovbrynet,8763,14,9.6093642,55.8758493
1885445,Skovbrynet,8763,16,9.6096146,55.8759751
1885446,Skovbrynet,8763,16A,9.6101205,55.876071
1885447,Skovbrynet,8763,18,9.6095115,55.8763374
1885448,Skovbrynet,8763,20,9.6097749,55.8765196
1885449,Skovbrynet,8763,22,9.6106144,55.8774048
1885450,Skovbrynet,8763,24,9.610495,55.878647
1885451,Kalhavevej,8763,3,9.6163166,55.8721791
1885452,Kalhavevej,8763,4,9.6157623,55.8721086
1885453,Kalhavevej,8763,5,9.6162211,55.8721126
1885454,Kalhavevej,8763,6,9.6154241,55.8718113
1885455,Kalhavevej,8763,7,9.6160593,55.8720014
1885456,Kalhavevej,8763,9,9.615922,55.8719086
1885457,Kalhavevej,8763,10,9.615122,55.8714474
1885458,Kalhavevej,8763,11,9.6165584,55.8713267
1885459,Kalhavevej,8763,13,9.6157608,55.8713954
1885460,Kalhavevej,8763,14,9.614591,55.8708513
1885461,Kalhavevej,8763,15,9.6155187,55.8711259
1885462,Kalhavevej,8763,16,9.6150093,55.8707137
1885463,Kalhavevej,8763,17,9.6159972,55.8703777
1885464,Kalhavevej,8763,18,9.615169,55.8702233
1885465,Kalhavevej,8763,19,9.6159272,55.8697207
1885466,Kalhavevej,8763,20,9.6150345,55.8698831
1885467,Kalhavevej,8763,22,9.614526,55.869345
1885468,Kalhavevej,8763,22A,9.6150642,55.8690337
1885469,Kalhavevej,8763,24,9.61484,55.868645
1885470,Kalhavevej,8763,25,9.6151459,55.867769
1885471,Kalhavevej,8763,26,9.614462,55.865718
1885472,Kalhavevej,8763,27,9.6187249,55.8668154
1885473,Kalhavevej,8763,28,9.6109365,55.8628029
1885474,Kalhavevej,8763,30,9.6112679,55.8615514
1885475,Kalhavevej,8763,31,9.6159022,55.8648021
1885476,Kalhavevej,8763,32,9.6153722,55.8634052
1885477,Kalhavevej,8763,33,9.616715,55.864079
1885478,Kalhavevej,8763,34,9.616651,55.8637041
1885479,Kalhavevej,8763,36,9.61689,55.863169
1885480,Kalhavevej,8763,37,9.6183616,55.8632835
1885504,Jasminvej,8763,1A,9.611322,55.869718
1885505,Jasminvej,8763,1B,9.61139,55.86983
1885506,Jasminvej,8763,2,9.610817,55.869675
1885507,Jasminvej,8763,3A,9.611597,55.869649
1885508,Jasminvej,8763,3B,9.611773,55.869621
1885509,Jasminvej,8763,3C,9.611919,55.869597
1885510,Jasminvej,8763,4,9.610745,55.869619
1885511,Jasminvej,8763,6,9.610527,55.869626
1885512,Jasminvej,8763,7A,9.612108,55.869375
1885513,Jasminvej,8763,7B,9.612357,55.869486
1885514,Jasminvej,8763,8,9.610617,55.86959
1885515,Jasminvej,8763,9,9.612347,55.869226
1885516,Jasminvej,8763,10,9.61068,55.869566
1885517,Jasminvej,8763,11,9.6124819,55.8689575
1885518,Jasminvej,8763,12,9.610502,55.869465
1885519,Jasminvej,8763,13,9.612677,55.868761
1885520,Jasminvej,8763,14,9.610391,55.869509
1885521,Jasminvej,8763,15,9.612481,55.868487
1885522,Jasminvej,8763,16,9.610353,55.869694
1885523,Jasminvej,8763,17,9.612127,55.868606
1885524,Jasminvej,8763,18,9.609993,55.869669
1885525,Jasminvej,8763,19,9.612095,55.868892
1885526,Jasminvej,8763,20,9.609872,55.869716
1885527,Jasminvej,8763,21,9.6119535,55.8691326
1885528,Jasminvej,8763,22,9.6097638,55.8697588
1885529,Jasminvej,8763,23A,9.610999,55.869352
1885530,Jasminvej,8763,23B,9.611039,55.869408
1885531,Jasminvej,8763,23C,9.611191,55.869385
1885532,Jasminvej,8763,23D,9.611349,55.869361
1885533,Jasminvej,8763,23E,9.611503,55.869338
1885534,Jasminvej,8763,23F,9.611441,55.869217
1885535,Jasminvej,8763,23G,9.611285,55.869241
1885536,Jasminvej,8763,23H,9.6111399,55.8692632
1885537,Jasminvej,8763,23I,9.610974,55.869288
1885538,Jasminvej,8763,24,9.609623,55.869648
1885539,Jasminvej,8763,25B,9.610855,55.869056
1885540,Jasminvej,8763,25C,9.610978,55.869037
1885541,Jasminvej,8763,25D,9.611111,55.869017
1885542,Jasminvej,8763,25E,9.61125,55.868996
1885543,Jasminvej,8763,25F,9.611384,55.868976
1885544,Jasminvej,8763,25G,9.611531,55.868953
1885545,Jasminvej,8763,25H,9.611467,55.868834
1885546,Jasminvej,8763,25I,9.611303,55.868859
1885547,Jasminvej,8763,25J,9.611154,55.868881
1885548,Jasminvej,8763,25K,9.611038,55.868899
1885549,Jasminvej,8763,25L,9.610928,55.868916
1885550,Jasminvej,8763,25M,9.610799,55.868935
1885551,Jasminvej,8763,26,9.609737,55.869602
1885552,Jasminvej,8763,28,9.60985,55.869558
1885553,Bryggervej,8763,1,9.611167,55.872359
1885554,Bryggervej,8763,1A,9.610696,55.872426
1885555,Bryggervej,8763,3,9.611397,55.872759
1885556,Bryggervej,8763,4,9.611596,55.872916
1885557,Bryggervej,8763,5,9.610951,55.872733
1885558,Bryggervej,8763,6,9.611357,55.872934
1885559,Bryggervej,8763,7,9.61036,55.872852
1885560,Bryggervej,8763,8,9.611162,55.872951
1885561,Bryggervej,8763,9,9.6101,55.872909
1885562,Bryggervej,8763,10,9.610967,55.873
1885563,Bryggervej,8763,11,9.609858,55.872953
1885564,Bryggervej,8763,12,9.610457,55.873047
1885565,Skolebakken,8763,1,9.6106859,55.8748323
1885566,Skolebakken,8763,3,9.6117476,55.8752367
1885567,Skolebakken,8763,4,9.6094325,55.874902
1885568,Skolebakken,8763,5,9.611076,55.8757959
1885569,Skolebakken,8763,6,9.6099089,55.8749897
1885570,Skolebakken,8763,7,9.6105198,55.876
1885571,Skolebakken,8763,8,9.6101282,55.8751346
1885572,Skolebakken,8763,10,9.6101823,55.875286
1885573,Skolebakken,8763,12,9.6104784,55.8753716
1885574,Skolebakken,8763,14,9.6107254,55.875537
1885584,Mejerivej,8763,3,9.615213,55.873248
1885585,Mejerivej,8763,4,9.615427,55.87315
1885586,Mejerivej,8763,5,9.615284,55.873409
1885587,Mejerivej,8763,6,9.6162912,55.8731517
1885588,Mejerivej,8763,7A,9.6158366,55.8734966
1885589,Mejerivej,8763,7B,9.616016,55.873543
1885590,Mejerivej,8763,7C,9.616231,55.87362
1885591,Mejerivej,8763,7D,9.6161814,55.8737297
1885592,Mejerivej,8763,8,9.6170409,55.8731577
1885593,Mejerivej,8763,10,9.6166556,55.8735959
1885594,Mejerivej,8763,12,9.616706,55.873726
1885595,Gartnervænget,8763,3,9.614601,55.872676
1885596,Gartnervænget,8763,4,9.614355,55.872762
1885597,Gartnervænget,8763,5,9.614396,55.872556
1885598,Gartnervænget,8763,6,9.614175,55.872603
1885599,Gartnervænget,8763,7,9.614116,55.872312
1885600,Gartnervænget,8763,8,9.61405,55.872492
1885601,Gartnervænget,8763,10,9.613264,55.872504
1885602,Gartnervænget,8763,12,9.613854,55.87232
1885621,Skovbyvej,8763,1,9.5976614,55.8832458
1885622,Skovbyvej,8763,2,9.5987175,55.8858112
1885623,Skovbyvej,8763,3,9.598412,55.886619
1885624,Skovbyvej,8763,4,9.5991983,55.8863379
1885625,Skovbyvej,8763,5,9.5991893,55.8877244
1885626,Skovbyvej,8763,6,9.599723,55.887102
1885627,Skovbyvej,8763,7,9.599629,55.888037
1885628,Skovbyvej,8763,8,9.601416,55.88845
1885629,Skovbyvej,8763,9,9.6011524,55.8895829
1885630,Skovbyvej,8763,10,9.603499,55.890169
1885631,Skovbyvej,8763,11,9.603348,55.890603
1885632,Skovbyvej,8763,12,9.6046698,55.8908807
1885633,Skovbyvej,8763,13,9.6046017,55.891601
1885634,Skovbyvej,8763,14,9.6054292,55.8910425
1885635,Skovbyvej,8763,15,9.6056571,55.8919957
1885636,Skovbyvej,8763,16,9.6079971,55.8920639
1885637,Skovbyvej,8763,17,9.6073332,55.8927214
1885638,Skovbyvej,8763,19,9.6095029,55.8934953
1885639,Skovbyvej,8763,21,9.6119172,55.8944642
1885640,Skovbyvej,8763,23,9.6125749,55.894668
1885641,Skovbyvej,8763,25,9.6085452,55.8972527
1885642,Honum Byvej,8763,1,9.63059,55.88598
1885643,Honum Byvej,8763,2,9.6298735,55.8860286
1885644,Honum Byvej,8763,4,9.63044,55.884795
1885645,Honum Byvej,8763,5,9.6313513,55.884223
1885646,Honum Byvej,8763,6,9.631082,55.8840491
1885647,Honum Byvej,8763,8,9.63133,55.88374
1885648,Honum Byvej,8763,10,9.6307277,55.8838597
1885649,Honum Byvej,8763,10A,9.631123,55.8833656
1885650,Honum Byvej,8763,11,9.6318258,55.883571
1885651,Honum Byvej,8763,12,9.6316649,55.8833002
1885652,Honum Byvej,8763,14,9.6319059,55.8832611
1885653,Honum Byvej,8763,14A,9.631251,55.883427
1885654,Dahliavej,8763,3,9.609051,55.869908
1885655,Dahliavej,8763,4,9.608762,55.870121
1885656,Dahliavej,8763,5,9.608886,55.869645
1885657,Dahliavej,8763,6,9.608619,55.869942
1885658,Dahliavej,8763,7,9.608739,55.869366
1885659,Dahliavej,8763,8,9.608482,55.869716
1885660,Dahliavej,8763,9,9.608668,55.86911
1885661,Dahliavej,8763,10,9.608387,55.869509
1885662,Dahliavej,8763,12,9.608281,55.869308
1885663,Dahliavej,8763,14,9.60822,55.869138
1885664,Stationspladsen,8763,1,9.6140694,55.8736089
1885665,Stationspladsen,8763,3,9.6145129,55.8738316
1885666,Stationspladsen,8763,4,9.6147153,55.8734005
1885667,Stationspladsen,8763,5,9.6149761,55.8740973
1885668,Stationspladsen,8763,7A,9.6150832,55.8743065
1885669,Stationspladsen,8763,7B,9.6155676,55.8745418
1885670,Stationspladsen,8763,7C,9.6157724,55.8744027
1885671,Stationspladsen,8763,7D,9.6165798,55.8745507
1885672,Stationspladsen,8763,9,9.6147737,55.8737459
1885713,Skanderborgvej,8763,75,9.5964693,55.8613192
1885714,Skanderborgvej,8763,76,9.6048758,55.8628079
1885715,Skanderborgvej,8763,82,9.614874,55.8829755
1885716,Skanderborgvej,8763,84,9.619563,55.884475
1885717,Skanderborgvej,8763,85,9.6381336,55.8906422
1885718,Skanderborgvej,8763,87,9.6388533,55.8925306
1885724,Peter Hansens Vej,8763,3,9.6154627,55.8738411
1885725,Peter Hansens Vej,8763,4A,9.615548,55.873564
1885726,Peter Hansens Vej,8763,4C,9.616091,55.873716
1885727,Peter Hansens Vej,8763,5,9.6158082,55.8739239
1885728,Peter Hansens Vej,8763,7,9.6160952,55.8739957
1885729,Peter Hansens Vej,8763,9,9.61642,55.8740758
1885730,Peter Hansens Vej,8763,11,9.6167414,55.8741555
1885731,Peter Hansens Vej,8763,13,9.6171305,55.8742433
1885738,Møllebakken,8763,2,9.6142176,55.8739978
1885739,Møllebakken,8763,4,9.614362,55.874384
1885740,Møllebakken,8763,5,9.6130444,55.8738483
1885741,Møllebakken,8763,6,9.6137589,55.8740784
1885742,Møllebakken,8763,7,9.6128077,55.8738882
1885743,Møllebakken,8763,9,9.6126015,55.8739162
1885744,Møllebakken,8763,11,9.6124078,55.8739458
1885745,Møllebakken,8763,12,9.6118523,55.8742674
1885746,Møllebakken,8763,13,9.6119554,55.8740237
1885747,Boringvej,8763,3,9.610409,55.87339
1885748,Boringvej,8763,4,9.609634,55.873393
1885749,Boringvej,8763,5,9.610173,55.873207
1885750,Boringvej,8763,7,9.610021,55.873117
1885751,Boringvej,8763,11,9.609015,55.87252
1885752,Boringvej,8763,14,9.605186,55.870234
1885753,Gl Ålevej,8763,2,9.5999204,55.8753237
1885754,Gl Ålevej,8763,4,9.6002812,55.8752375
1885755,Gl Ålevej,8763,6,9.6011347,55.8752201
1885756,Gl Ålevej,8763,8,9.6014669,55.8752148
1885757,Gl Ålevej,8763,10,9.6016867,55.8748104
1885758,Gl Ålevej,8763,12,9.606054,55.873835
1885759,Krogen,8763,2,9.5967457,55.8832338
1885760,Krogen,8763,4,9.59248,55.885322
1885761,Krogen,8763,6,9.5898037,55.8857004
1885762,Krogen,8763,8,9.589012,55.886263
1885763,Gammel Jernbanevej,8763,1,9.6138738,55.8730737
1885764,Gammel Jernbanevej,8763,3,9.6137239,55.8730112
1885765,Gammel Jernbanevej,8763,5,9.6127632,55.8722052
1885766,Gammel Jernbanevej,8763,6,9.6120553,55.8723582
1885767,Gammel Jernbanevej,8763,8,9.611864,55.872028
1885768,Gammel Jernbanevej,8763,8A,9.6116476,55.8718772
1885769,Gammel Jernbanevej,8763,8B,9.6112846,55.8720457
1885770,Gammel Jernbanevej,8763,10,9.6113794,55.8716542
1885771,Gammel Jernbanevej,8763,15,9.6093904,55.8691453
1885811,Skovhusvej,8763,23,9.6422997,55.8746064
1885813,Skovhusvej,8763,25,9.6412217,55.8761411
1886025,Enggårdsvej,8763,1,9.613765,55.884728
1886029,Enggårdsvej,8763,2,9.6164547,55.8864738
1886032,Enggårdsvej,8763,3,9.6127292,55.8870192
1886035,Enggårdsvej,8763,5,9.6144484,55.8873038
1886037,Enggårdsvej,8763,7,9.6153395,55.892311
1886040,Enggårdsvej,8763,7B,9.616005,55.8978816
1886042,Enggårdsvej,8763,8,9.6191262,55.8930823
1886044,Enggårdsvej,8763,9,9.615296,55.8963327
1886047,Enggårdsvej,8763,15,9.618049,55.901209
1886048,Enggårdsvej,8763,16,9.6231948,55.9009615
1886053,Enggårdsvej,8763,17,9.6210732,55.9033889
1886057,Enggårdsvej,8763,18,9.6265313,55.9032034
1886058,Enggårdsvej,8763,19,9.622153,55.909354
1886060,Enggårdsvej,8763,21,9.6221831,55.9101233
1886061,Enggårdsvej,8763,21A,9.622164,55.9099
1886062,Enggårdsvej,8763,23,9.622398,55.913166
1886064,Enggårdsvej,8763,24,9.631754,55.913789
1886066,Enggårdsvej,8763,25,9.623842,55.9175067
1886069,Enggårdsvej,8763,27,9.6272244,55.9207565
1886070,Enggårdsvej,8763,29,9.6252271,55.9175234
1886177,Rask Skovvej,8763,2,9.5958658,55.8809483
1886182,Rask Skovvej,8763,3,9.5963828,55.8800596
1886184,Rask Skovvej,8763,4,9.595316,55.879085
1886198,Rask Markvej,8763,2,9.61744,55.889983
1886200,Rask Markvej,8763,3,9.6190052,55.8909983
1886202,Rask Markvej,8763,4,9.6216555,55.8895531
1886204,Rask Markvej,8763,5,9.6230099,55.8913665
1886206,Rask Markvej,8763,6,9.6244632,55.8892718
1886208,Rask Markvej,8763,7,9.627275,55.889048
1886240,Mølletoften,8763,3,9.6151691,55.8722534
1886243,Mølletoften,8763,5,9.6148233,55.872002
1886738,Bjerggårdsvej,8763,18,9.602676,55.898927
1886739,Bjerggårdsvej,8763,19,9.601281,55.900498
1886740,Lupinvej,8763,1,9.606199,55.868392
1886741,Lupinvej,8763,2,9.605987,55.868981
1886742,Lupinvej,8763,3,9.606385,55.868366
1886743,Lupinvej,8763,4,9.60563,55.869167
1886744,Lupinvej,8763,5,9.607106,55.868291
1886745,Lupinvej,8763,6,9.6054,55.868921
1886746,Lupinvej,8763,7,9.6069753,55.8681509
1886747,Lupinvej,8763,8,9.6053247,55.8687111
1886748,Lupinvej,8763,9,9.606871,55.86804
1886749,Lupinvej,8763,10,9.605148,55.868414
1886750,Lupinvej,8763,11,9.606745,55.867906
1886751,Lupinvej,8763,12,9.6049778,55.86827
1886752,Lupinvej,8763,13,9.60658,55.867751
1886753,Lupinvej,8763,14,9.605397,55.868159
1886754,Lupinvej,8763,15,9.606399,55.867799
1886755,Lupinvej,8763,16,9.605578,55.868096
1886756,Lupinvej,8763,17,9.606127,55.867872
1886757,Lupinvej,8763,18,9.605746,55.868567
1886758,Lupinvej,8763,19,9.60596,55.867916
1886759,Lupinvej,8763,21,9.60629,55.868163
1886760,Lupinvej,8763,23,9.606106,55.868188
1886771,Fruens Kirkevej,8763,19,9.638551,55.886256
1886772,Vandværksvej,8763,3,9.6121784,55.8731624
1886773,Vandværksvej,8763,4,9.6119873,55.873145
1886774,Vandværksvej,8763,4A,9.6117235,55.8732
1960868,Nørre Snedevej,8763,114,9.638672,55.89654
1960869,Nørre Snedevej,8763,115,9.63732,55.894645
1960870,Nørre Snedevej,8763,116,9.6373357,55.8963857
1960871,Nørre Snedevej,8763,117,9.6356533,55.8947864
1960872,Nørre Snedevej,8763,118,9.633675,55.900068
1960873,Nørre Snedevej,8763,119,9.6338149,55.8932288
1960874,Nørre Snedevej,8763,121,9.631569,55.895575
1960875,Nørre Snedevej,8763,122,9.63009,55.896295
1960876,Nørre Snedevej,8763,124,9.6262393,55.8968189
1960877,Nørre Snedevej,8763,126,9.6236976,55.8992864
1960878,Nørre Snedevej,8763,128,9.6231719,55.8973897
1960879,Nørre Snedevej,8763,130,9.621509,55.89771
1960880,Nørre Snedevej,8763,131,9.61595,55.899087
1960881,Nørre Snedevej,8763,133,9.615669,55.899176
1960882,Nørre Snedevej,8763,135,9.6152938,55.8991345
1960883,Nørre Snedevej,8763,137,9.6144752,55.8997155
1960884,Nørre Snedevej,8763,139,9.609153,55.8992624
1960885,Nørre Snedevej,8763,140,9.6096645,55.9019738
1960886,Nørre Snedevej,8763,142,9.608336,55.9028295
2093796,Kodallundvej,8763,4,9.6391304,55.90473
2093797,Kodallundvej,8763,6,9.6366226,55.9048327
2093798,Kodallundvej,8763,7,9.6327293,55.904728
2093799,Kodallundvej,8763,8,9.637589,55.907022
2093800,Kodallundvej,8763,9,9.636809,55.907728
2093801,Kodallundvej,8763,10,9.6389636,55.9096757
2093802,Kodallundvej,8763,12,9.6429793,55.9107267
2093803,Kodallundvej,8763,13,9.636824,55.914841
2093804,Kodallundvej,8763,15,9.6387473,55.916348
2096639,Bjerresmøllevej,8763,15,9.615861,55.908851
2096640,Bjerresmøllevej,8763,16,9.609709,55.904181
2096641,Bjerresmøllevej,8763,16B,9.609714,55.904503
2096642,Bjerresmøllevej,8763,18,9.609752,55.903927
2096643,Bjerresmøllevej,8763,19,9.610152,55.903472
2096644,Bjerresmøllevej,8763,20,9.609707,55.90374
2096645,Bjerresmøllevej,8763,22,9.609639,55.903552
2101242,Honum Markvej,8763,1,9.628394,55.889813
2101243,Honum Markvej,8763,2,9.634203,55.890613
2101244,Honum Markvej,8763,4,9.6299147,55.8912271
2101245,Honum Markvej,8763,5,9.6272261,55.8935759
2164718,Stenkærgård,8763,2,9.6090133,55.8673472
2164724,Stenkærgård,8763,4,9.6085162,55.867482
2164725,Stenkærgård,8763,6,9.6081875,55.867633
2164730,Stenkærgård,8763,8,9.6079118,55.8677437
2164739,Stenkærgård,8763,10,9.607597,55.86781
2164745,Stenkærgård,8763,12,9.607347,55.867897
2164747,Stenkærgård,8763,14,9.607044,55.867573
2164755,Stenkærgård,8763,16,9.607358,55.867434
2164757,Stenkærgård,8763,18,9.607671,55.867424
2164764,Stenkærgård,8763,20,9.607957,55.867326
2164769,Stenkærgård,8763,22,9.607627,55.867047
2164772,Stenkærgård,8763,24,9.607769,55.866823
2164778,Stenkærgård,8763,26,9.608241,55.866929
2164782,Stenkærgård,8763,28,9.608698,55.867117
2164787,Stenkærgård,8763,30,9.606839,55.866673
2164791,Stenkærgård,8763,32,9.606759,55.8669041
2164795,Stenkærgård,8763,34,9.606469,55.867058
2164803,Stenkærgård,8763,36,9.606201,55.867319
2164808,Stenkærgård,8763,38,9.606134,55.867501
2164816,Stenkærgård,8763,40,9.605627,55.867423
2164831,Stenkærgård,8763,44,9.605475,55.867051
2164838,Stenkærgård,8763,46,9.6055088,55.8667577
2164844,Stenkærgård,8763,48,9.605631,55.866517
2164853,Stenkærgård,8763,50,9.606129,55.866544
2190758,Enggårdsvej,8763,7L,9.6150132,55.8935516
2191438,Nørre Snedevej,8763,127L,9.623797,55.896466
2198146,Hovedgaden,8763,17G,9.61326,55.873642
2234680,Kildevej,8763,3B,9.609549,55.873968
2234681,Kildevej,8763,3C,9.6093492,55.8741025
2234682,Kildevej,8763,3D,9.609252,55.874008
2234685,Raskvej,8763,54,9.596096,55.874504
2234686,Raskvej,8763,59,9.5739458,55.8831631
2234687,Raskvej,8763,61,9.598793,55.875363
2234688,Boring,8763,35B,9.580734,55.8669
2234689,Skovbrynet,8763,26,9.612757,55.878987
2234692,Skovbyvej,8763,6L,9.600044,55.887557
2234693,Skanderborgvej,8763,83L,9.6350184,55.8882228
2236942,Honum Markvej,8763,1L,9.628967,55.892037
2237539,Stenkærgård,8763,3,9.6084152,55.8662978
2237540,Stenkærgård,8763,5,9.608272,55.865934
2237541,Stenkærgård,8763,7,9.607708,55.865705
2237542,Stenkærgård,8763,11,9.606784,55.865596
2237543,Stenkærgård,8763,13,9.606369,55.865584
2237544,Stenkærgård,8763,15,9.605955,55.865584
2237545,Stenkærgård,8763,17,9.605966,55.865788
2237546,Stenkærgård,8763,19,9.606338,55.865968
2237547,Stenkærgård,8763,21,9.6068067,55.86607
2237548,Stenkærgård,8763,23,9.607322,55.866166
2237549,Stenkærgård,8763,25,9.607829,55.866222
2254822,Peter Hansens Vej,8763,17,9.619814,55.875042
