idx,street,postcode,housenumber,lon,lat
567973,Bjerrelide,8783,14,9.859688,55.800597
568155,Bjerrevej,8783,275,9.845607,55.803492
568156,Bjerrevej,8783,277,9.8457674,55.8028297
568157,Bjerrevej,8783,279,9.845361,55.80278
579369,Purhøjvej,8783,58,9.870242,55.802841
579371,Purhøjvej,8783,62,9.86796,55.802236
788124,Apotekerbakken,8783,17,9.8530566,55.7545879
790426,Skovlunden,8783,1,9.860703,55.784344
790427,Skovlunden,8783,3,9.861107,55.784218
790428,Skovlunden,8783,5,9.8615522,55.7840876
790429,Skovlunden,8783,7,9.862096,55.784062
790430,Skovlunden,8783,9,9.8626395,55.7839632
790431,Skovlunden,8783,11,9.862708,55.78369
790432,Skovlunden,8783,13,9.862641,55.783404
790433,Skovlunden,8783,15,9.862773,55.78306
790434,Skovlunden,8783,17,9.8618296,55.7831254
790435,Skovlunden,8783,19,9.861995,55.783389
790436,Skovlunden,8783,21,9.862061,55.783671
790437,Skovlunden,8783,23,9.861581,55.783756
790438,Skovlunden,8783,27,9.861333,55.783197
790439,Skovlunden,8783,29,9.860552,55.78331
790440,Skovlunden,8783,31,9.86072,55.783562
790441,Skovlunden,8783,33,9.860861,55.78385
790442,Skovlunden,8783,25,9.8613604,55.7834891
797250,Bråvej,8783,23,9.829587,55.769458
797251,Bråvej,8783,24,9.830198,55.768865
797252,Bråvej,8783,24B,9.830388,55.768885
797253,Bråvej,8783,25,9.833833,55.768498
797417,Stenderupvej,8783,18,9.8423791,55.7944005
797418,Stenderupvej,8783,27,9.8416309,55.794594
1818367,Bjerrevej,8783,285,9.844887,55.800368
1818370,Bjerrevej,8783,287,9.843747,55.798168
1818373,Bjerrevej,8783,289,9.843646,55.797858
1818375,Bjerrevej,8783,293,9.844472,55.793338
1818379,Bjerrevej,8783,294,9.843182,55.803252
1818381,Bjerrevej,8783,295,9.844668,55.793161
1818385,Bjerrevej,8783,296,9.844452,55.802174
1818388,Bjerrevej,8783,297,9.844869,55.793011
1818392,Bjerrevej,8783,297A,9.845158,55.79348
1818395,Bjerrevej,8783,298,9.841859,55.802361
1818399,Bjerrevej,8783,299,9.845058,55.792893
1818400,Bjerrevej,8783,300,9.842987,55.79923
1818404,Bjerrevej,8783,301,9.845431,55.792728
1818406,Bjerrevej,8783,303,9.845693,55.792615
1818409,Bjerrevej,8783,304,9.842602,55.796363
1818411,Bjerrevej,8783,304A,9.842844,55.796209
1818414,Bjerrevej,8783,304B,9.842856,55.796115
1818417,Bjerrevej,8783,305,9.845979,55.792488
1818418,Bjerrevej,8783,306,9.842581,55.794819
1818422,Bjerrevej,8783,307,9.846417,55.792287
1818424,Bjerrevej,8783,308,9.842812,55.794491
1818427,Bjerrevej,8783,309,9.846505,55.79226
1818430,Bjerrevej,8783,310,9.843174,55.793237
1818432,Bjerrevej,8783,311,9.846864,55.792145
1818433,Bjerrevej,8783,312,9.844575,55.792605
1818435,Bjerrevej,8783,313,9.847106,55.792077
1818437,Bjerrevej,8783,314,9.845069,55.792367
1818440,Bjerrevej,8783,315,9.847294,55.791909
1818441,Bjerrevej,8783,316,9.845288,55.792191
1818444,Bjerrevej,8783,317,9.847477,55.791826
1818445,Bjerrevej,8783,318,9.845941,55.791766
1818446,Bjerrevej,8783,318A,9.846127,55.792044
1818448,Bjerrevej,8783,318B,9.846279,55.791989
1818450,Bjerrevej,8783,319,9.848069,55.792065
1818451,Bjerrevej,8783,320,9.8468,55.791793
1818452,Bjerrevej,8783,321,9.847682,55.791687
1818454,Bjerrevej,8783,322,9.847386,55.791479
1818455,Bjerrevej,8783,322A,9.846967,55.791638
1818456,Bjerrevej,8783,323,9.84847,55.791328
1818457,Bjerrevej,8783,324,9.847505,55.791357
1818459,Bjerrevej,8783,325,9.84891,55.790319
1818460,Bjerrevej,8783,326,9.847408,55.791159
1818461,Bjerrevej,8783,327,9.849077,55.789792
1818462,Bjerrevej,8783,328,9.848399,55.789697
1818463,Bjerrevej,8783,329,9.849263,55.78965
1818464,Bjerrevej,8783,330,9.849928,55.787582
1818465,Bjerrevej,8783,331,9.849995,55.788959
1818466,Bjerrevej,8783,332,9.850153,55.787402
1818467,Bjerrevej,8783,333,9.85041,55.787956
1818468,Bjerrevej,8783,334,9.850763,55.78664
1818469,Bjerrevej,8783,335,9.850575,55.787738
1818470,Bjerrevej,8783,336,9.850808,55.78637
1818471,Bjerrevej,8783,336B,9.850463,55.786378
1818472,Bjerrevej,8783,337,9.850728,55.787493
1818473,Bjerrevej,8783,338,9.851307,55.785875
1818474,Bjerrevej,8783,339,9.850836,55.787295
1818475,Bjerrevej,8783,340,9.833321,55.779971
1818476,Bjerrevej,8783,341,9.850975,55.787108
1818477,Bjerrevej,8783,342,9.840277,55.778863
1818478,Bjerrevej,8783,343,9.851077,55.786956
1818479,Bjerrevej,8783,344,9.852085,55.785301
1818480,Bjerrevej,8783,345,9.851173,55.786734
1818481,Bjerrevej,8783,346,9.853404,55.784899
1818482,Bjerrevej,8783,347,9.851812,55.786368
1818484,Bjerrevej,8783,348,9.853707,55.78476
1818486,Bjerrevej,8783,349,9.852441,55.785799
1818487,Bjerrevej,8783,350,9.854618,55.784009
1818489,Bjerrevej,8783,350N,9.855462,55.783876
1818491,Bjerrevej,8783,351,9.852705,55.785669
1818492,Bjerrevej,8783,352,9.859524,55.770539
1818493,Bjerrevej,8783,353,9.853438,55.785259
1818494,Bjerrevej,8783,354,9.881235,55.766585
1818496,Bjerrevej,8783,355,9.85412,55.784984
1818497,Bjerrevej,8783,356,9.881808,55.766268
1818500,Bjerrevej,8783,357,9.854555,55.784859
1818502,Bjerrevej,8783,359A,9.854823,55.784554
1818504,Bjerrevej,8783,359B,9.85502,55.784486
1818506,Bjerrevej,8783,359C,9.855367,55.784594
1818509,Bjerrevej,8783,361,9.856651,55.783979
1818512,Bjerrevej,8783,365,9.867334,55.778162
1818518,Bjerrevej,8783,371,9.867432,55.770427
1818525,Bjerrevej,8783,375,9.877437,55.768539
1818529,Bjerrevej,8783,377,9.880474,55.767427
1818532,Bjerrevej,8783,379,9.882471,55.766513
1818536,Bjerrevej,8783,381,9.885007,55.770546
1818537,Bjerrevej,8783,383,9.884333,55.766532
1818541,Bjerrevej,8783,385,9.886052,55.765892
1818544,Bjerrevej,8783,387,9.886527,55.765764
1827680,Søndergade,8783,1,9.853157,55.751541
1827683,Søndergade,8783,2A,9.8527523,55.7532883
1827685,Søndergade,8783,2B,9.8526,55.753322
1827686,Søndergade,8783,3,9.853096,55.751314
1827689,Søndergade,8783,4A,9.853008,55.753458
1827694,Søndergade,8783,4B,9.853062,55.753504
1827697,Søndergade,8783,4C,9.853112,55.753558
1827701,Søndergade,8783,5,9.852484,55.751288
1827704,Søndergade,8783,6,9.852846,55.753724
1827705,Søndergade,8783,7,9.852668,55.751447
1827708,Søndergade,8783,8,9.852473,55.753415
1827709,Søndergade,8783,9,9.852681,55.751623
1827711,Søndergade,8783,10,9.8510978,55.7542544
1827715,Søndergade,8783,11,9.852586,55.7518862
1827717,Søndergade,8783,12A,9.850901,55.754368
1827720,Søndergade,8783,12B,9.851117,55.754553
1827722,Søndergade,8783,12C,9.851158,55.754598
1827723,Søndergade,8783,12D,9.851227,55.754653
1827725,Søndergade,8783,13,9.852479,55.752593
1827726,Søndergade,8783,14,9.850476,55.754413
1827727,Søndergade,8783,15,9.8524147,55.7528593
1827731,Søndergade,8783,16A,9.850276,55.754604
1827734,Søndergade,8783,16B,9.850327,55.754745
1827735,Søndergade,8783,17,9.852274,55.753098
1827736,Søndergade,8783,18,9.850176,55.754862
1827737,Søndergade,8783,19,9.852187,55.753237
1827738,Søndergade,8783,20,9.849966,55.755139
1827739,Søndergade,8783,21,9.850339,55.754132
1827740,Søndergade,8783,21B,9.8514132,55.7533148
1827741,Søndergade,8783,21C,9.850707,55.753196
1827745,Søndergade,8783,21D,9.850368,55.752792
1827748,Søndergade,8783,21F,9.849483,55.752711
1827752,Søndergade,8783,21G,9.849469,55.752888
1827756,Søndergade,8783,21H,9.849502,55.753009
1827758,Søndergade,8783,21I,9.84954,55.753149
1827762,Søndergade,8783,21K,9.849481,55.751999
1827764,Søndergade,8783,21L,9.849997,55.752007
1827765,Søndergade,8783,21M,9.849971,55.751606
1827766,Søndergade,8783,21N,9.850454,55.75172
1827767,Søndergade,8783,22,9.849568,55.755411
1827768,Søndergade,8783,23,9.849629,55.754582
1827769,Søndergade,8783,24A,9.849237,55.755603
1827770,Søndergade,8783,24B,9.848906,55.755696
1827771,Søndergade,8783,24C,9.848979,55.755767
1827772,Søndergade,8783,24D,9.849003,55.755813
1827773,Søndergade,8783,24E,9.849063,55.75586
1827774,Søndergade,8783,25,9.848925,55.754659
1827775,Søndergade,8783,26,9.8484715,55.7558483
1827776,Søndergade,8783,27,9.849193,55.754872
1827777,Søndergade,8783,28,9.8481064,55.7559428
1827778,Søndergade,8783,28A,9.8479424,55.7559899
1827779,Søndergade,8783,29,9.849064,55.755104
1827780,Søndergade,8783,30A,9.847643,55.756122
1827782,Søndergade,8783,30B,9.84742,55.756359
1827787,Søndergade,8783,31,9.849626,55.754958
1827790,Søndergade,8783,32,9.846735,55.756362
1827792,Søndergade,8783,32A,9.846969,55.756617
1827793,Søndergade,8783,33,9.849493,55.755242
1827794,Søndergade,8783,34A,9.8461339,55.7565372
1827795,Søndergade,8783,34B,9.8463251,55.7564784
1827796,Søndergade,8783,34C,9.846394,55.756543
1827797,Søndergade,8783,34D,9.84645,55.756634
1827798,Søndergade,8783,34E,9.846502,55.756701
1827799,Søndergade,8783,34F,9.846568,55.756782
1827800,Søndergade,8783,34G,9.846209,55.756864
1827801,Søndergade,8783,34H,9.845956,55.756925
1827802,Søndergade,8783,34J,9.845952,55.756796
1827803,Søndergade,8783,34K,9.846205,55.756714
1827804,Søndergade,8783,34L,9.845894,55.756685
1827805,Søndergade,8783,34M,9.845807,55.756576
1827806,Søndergade,8783,35,9.8491092,55.755424
1827807,Søndergade,8783,37,9.848911,55.755497
1827808,Søndergade,8783,38,9.845185,55.756832
1827809,Søndergade,8783,39,9.8486157,55.7555885
1827810,Søndergade,8783,40,9.843406,55.757078
1827811,Søndergade,8783,41,9.848337,55.755656
1827812,Søndergade,8783,42,9.842964,55.757099
1827813,Søndergade,8783,43A,9.847915,55.755732
1827814,Søndergade,8783,43B,9.84814,55.755665
1827815,Søndergade,8783,43C,9.848082,55.755585
1827816,Søndergade,8783,43D,9.848104,55.755619
1827817,Søndergade,8783,43E,9.847992,55.755651
1827818,Søndergade,8783,43F,9.847898,55.755626
1827819,Søndergade,8783,44,9.8426535,55.7572052
1827820,Søndergade,8783,46,9.842189,55.757206
1827821,Søndergade,8783,47,9.84729,55.755904
1827822,Søndergade,8783,48,9.841917,55.757292
1827823,Søndergade,8783,49,9.846869,55.756001
1827825,Søndergade,8783,50,9.841516,55.757279
1827826,Søndergade,8783,51,9.8466026,55.7560452
1827828,Søndergade,8783,52,9.841173,55.757289
1827830,Søndergade,8783,53A,9.846327,55.755527
1827832,Søndergade,8783,53B,9.846027,55.75595
1827835,Søndergade,8783,53C,9.846062,55.756159
1827837,Søndergade,8783,54,9.840402,55.75758
1827839,Søndergade,8783,55,9.845615,55.756247
1827841,Søndergade,8783,56,9.839539,55.757529
1827843,Søndergade,8783,57,9.843839,55.75643
1827845,Søndergade,8783,58,9.83891,55.7576449
1827848,Søndergade,8783,59,9.843113,55.756804
1827849,Søndergade,8783,60,9.8387021,55.7576981
1827851,Søndergade,8783,61,9.842813,55.7568
1827853,Søndergade,8783,62,9.83829,55.757838
1827855,Søndergade,8783,63,9.842064,55.756958
1827857,Søndergade,8783,64,9.837555,55.758384
1827858,Søndergade,8783,66,9.8304102,55.7593727
1827859,Søndergade,8783,68,9.8301249,55.7594294
1827860,Søndergade,8783,69,9.839092,55.756413
1827861,Søndergade,8783,70,9.8297719,55.7594678
1827862,Søndergade,8783,71,9.839461,55.757375
1827863,Søndergade,8783,72,9.8288836,55.75971
1827864,Søndergade,8783,73,9.8392352,55.7574126
1827865,Søndergade,8783,74,9.8284033,55.7597199
1827866,Søndergade,8783,75,9.8383161,55.7574707
1827867,Søndergade,8783,76,9.828073,55.759784
1827868,Søndergade,8783,77,9.838054,55.757204
1827869,Søndergade,8783,78,9.8276771,55.7598392
1827870,Søndergade,8783,79,9.8289178,55.759328
1827871,Søndergade,8783,81,9.8285758,55.7593861
1827872,Søndergade,8783,83,9.8280269,55.7594582
1837626,Bråskovvej,8783,2,9.853315,55.784301
1837631,Bråskovvej,8783,2B,9.847352,55.779209
1837634,Bråskovvej,8783,3,9.846976,55.773614
1837636,Bråskovvej,8783,4,9.849065,55.779842
1837642,Bråskovvej,8783,5,9.842217,55.772606
1837647,Bråskovvej,8783,6,9.843648,55.78018
1837651,Bråskovvej,8783,7,9.841901,55.772337
1837659,Bråskovvej,8783,8,9.844581,55.778722
1837661,Bråskovvej,8783,9,9.841752,55.771927
1837668,Bråskovvej,8783,10,9.845555,55.778024
1837675,Bråskovvej,8783,11,9.837176,55.768165
1837676,Bråskovvej,8783,12,9.843856,55.777552
1837682,Bråskovvej,8783,13,9.841367,55.767768
1837688,Bråskovvej,8783,14,9.842405,55.776378
1837693,Bråskovvej,8783,15,9.834791,55.766915
1837696,Bråskovvej,8783,16,9.845648,55.776617
1837702,Bråskovvej,8783,17,9.834251,55.766617
1837705,Bråskovvej,8783,18,9.843321,55.774498
1837712,Bråskovvej,8783,19,9.832022,55.764414
1837714,Bråskovvej,8783,20,9.841526,55.772799
1837719,Bråskovvej,8783,21,9.831812,55.764276
1837725,Bråskovvej,8783,22,9.840709,55.77246
1837728,Bråskovvej,8783,23,9.831707,55.764144
1837733,Bråskovvej,8783,24,9.833425,55.766401
1837738,Bråskovvej,8783,25,9.829918,55.762537
1837742,Bråskovvej,8783,26,9.831784,55.764731
1837745,Bråskovvej,8783,27,9.82963,55.762391
1837751,Bråskovvej,8783,28,9.831473,55.76446
1837753,Bråskovvej,8783,28A,9.829981,55.764805
1837757,Bråskovvej,8783,29,9.82942,55.762253
1837763,Bråskovvej,8783,30,9.830922,55.764025
1837767,Bråskovvej,8783,31,9.829069,55.76193
1837774,Bråskovvej,8783,32,9.829272,55.762644
1837784,Bråskovvej,8783,34,9.828887,55.76248
1837788,Bråskovvej,8783,35,9.829655,55.761279
1837795,Bråskovvej,8783,36,9.828367,55.761948
1837799,Bråskovvej,8783,37,9.828491,55.761402
1837807,Bråskovvej,8783,38,9.827806,55.761887
1837815,Bråskovvej,8783,39,9.828319,55.761256
1837816,Bråskovvej,8783,40,9.828347,55.761722
1837823,Bråskovvej,8783,40B,9.826639,55.762203
1837831,Bråskovvej,8783,40C,9.82611,55.761904
1837834,Bråskovvej,8783,41,9.828161,55.761121
1837842,Bråskovvej,8783,42A,9.826693,55.761784
1837845,Bråskovvej,8783,42B,9.827041,55.761656
1837848,Bråskovvej,8783,43,9.828072,55.761036
1837851,Bråskovvej,8783,44,9.827439,55.761514
1837854,Bråskovvej,8783,45,9.827943,55.760915
1837857,Bråskovvej,8783,46,9.827736,55.761333
1837860,Bråskovvej,8783,47,9.827828,55.760811
1837862,Bråskovvej,8783,48,9.827739,55.76106
1837866,Bråskovvej,8783,49,9.827665,55.760666
1837871,Bråskovvej,8783,50,9.827562,55.760901
1837873,Bråskovvej,8783,51,9.827525,55.760542
1837878,Bråskovvej,8783,51A,9.82744,55.760266
1837883,Bråskovvej,8783,52,9.82741,55.760763
1837885,Bråskovvej,8783,53,9.827025,55.760092
1837890,Bråskovvej,8783,54,9.827041,55.760642
1837894,Bråskovvej,8783,55,9.826895,55.759978
1837896,Bråskovvej,8783,56,9.827055,55.760456
1837903,Bråskovvej,8783,58,9.826752,55.760339
1837907,Bråskovvej,8783,59,9.825675,55.756401
1837910,Bråskovvej,8783,59B,9.826444,55.757773
1837913,Bråskovvej,8783,60,9.826394,55.760107
1837916,Bråskovvej,8783,61,9.819835,55.747181
1837919,Bråskovvej,8783,62,9.826148,55.759921
1837923,Bråskovvej,8783,63,9.816312,55.74402
1837925,Bråskovvej,8783,64,9.825974,55.759772
1837929,Bråskovvej,8783,65,9.816458,55.743422
1837934,Bråskovvej,8783,66,9.823806,55.758774
1837936,Bråskovvej,8783,67,9.815704,55.742439
1837941,Bråskovvej,8783,69,9.821226,55.741506
1837945,Bråskovvej,8783,70,9.815706,55.743754
1837946,Bråskovvej,8783,71,9.815695,55.737947
1837950,Bråskovvej,8783,73,9.819912,55.738383
1837952,Bråskovvej,8783,74,9.811513,55.738747
1837954,Bråskovvej,8783,75,9.81328,55.737828
1837955,Bråskovvej,8783,76,9.812854,55.738221
1837959,Bråskovvej,8783,78,9.812096,55.736849
1837962,Bråskovvej,8783,80,9.81147,55.73522
1887888,Skovparken,8783,1,9.8585401,55.7529935
1887889,Skovparken,8783,2,9.8580701,55.7528828
1887890,Skovparken,8783,3,9.8590322,55.7528597
1887891,Skovparken,8783,4,9.857726,55.752655
1887892,Skovparken,8783,5,9.859469,55.7527764
1887893,Skovparken,8783,6,9.8574388,55.7524176
1887894,Skovparken,8783,7,9.8598911,55.7526892
1887895,Skovparken,8783,8,9.857788,55.752277
1887896,Skovparken,8783,9,9.8602085,55.7525817
1887897,Skovparken,8783,10,9.8581115,55.7524936
1887898,Skovparken,8783,11,9.8606751,55.75244
1887899,Skovparken,8783,12,9.8584357,55.7527143
1887900,Skovparken,8783,13,9.860962,55.75271
1887901,Skovparken,8783,14,9.859106,55.7525416
1887902,Skovparken,8783,15,9.861122,55.752492
1887903,Skovparken,8783,16,9.8588976,55.7523733
1887904,Skovparken,8783,17,9.86136,55.752373
1887905,Skovparken,8783,18,9.8584864,55.7521879
1887906,Skovparken,8783,19,9.8610395,55.7522673
1887907,Skovparken,8783,20,9.8581819,55.7520698
1887908,Skovparken,8783,22,9.8584337,55.7519206
1887909,Skovparken,8783,23,9.863492,55.752232
1887910,Skovparken,8783,24,9.8587538,55.7518063
1887911,Skovparken,8783,25,9.864028,55.752166
1887912,Skovparken,8783,26,9.8589165,55.7520398
1887913,Skovparken,8783,27,9.864309,55.751895
1887914,Skovparken,8783,28,9.8592992,55.7522626
1887915,Skovparken,8783,29,9.864002,55.751753
1887916,Skovparken,8783,30,9.8596329,55.7524537
1887918,Skovparken,8783,31,9.863847,55.751518
1887920,Skovparken,8783,32,9.8602705,55.7522007
1887921,Skovparken,8783,33,9.863576,55.751885
1887923,Skovparken,8783,34,9.860037,55.752066
1887924,Skovparken,8783,35,9.863242,55.751958
1887925,Skovparken,8783,36,9.8597267,55.7519509
1887928,Skovparken,8783,38,9.8594572,55.7517321
1887929,Skovparken,8783,40,9.858964,55.751614
1887930,Skovparken,8783,42,9.859238,55.75147
1887932,Skovparken,8783,44,9.8594847,55.7513454
1887934,Skovparken,8783,46,9.8599105,55.7514851
1887936,Skovparken,8783,48,9.8599951,55.7517451
1887937,Skovparken,8783,50,9.8602905,55.751915
1887939,Skovparken,8783,52,9.8605524,55.7520472
1887940,Skovparken,8783,54,9.861077,55.751819
1887943,Skovparken,8783,56,9.8608091,55.7515644
1887945,Skovparken,8783,58,9.860615,55.751339
1887947,Skovparken,8783,60,9.860346,55.75117
1887950,Skovparken,8783,62,9.860681,55.750732
1887952,Skovparken,8783,64,9.8610963,55.7505444
1887955,Skovparken,8783,66,9.861444,55.750431
1887959,Skovparken,8783,68,9.861997,55.750158
1887962,Skovparken,8783,72,9.8627302,55.7502224
1887963,Skovparken,8783,74,9.862922,55.750507
1887966,Skovparken,8783,76,9.863115,55.7507373
1887970,Skovparken,8783,78,9.863271,55.750935
1887972,Skovparken,8783,80,9.863679,55.751181
1887975,Skovparken,8783,82,9.862259,55.750596
1887977,Skovparken,8783,84,9.861026,55.751226
1887979,Skovparken,8783,86,9.861372,55.751346
1887983,Skovparken,8783,88,9.861442,55.751532
1887984,Skovparken,8783,90,9.86163,55.75171
1887987,Skovparken,8783,92,9.862375,55.751666
1887989,Skovparken,8783,94,9.862301,55.751409
1887992,Skovparken,8783,96,9.862042,55.751206
1887994,Skovparken,8783,98,9.8614094,55.7508125
1887996,Skovparken,8783,100,9.861805,55.750715
1887999,Skovparken,8783,102,9.862256,55.750868
1888002,Skovparken,8783,104,9.862525,55.7510002
1888004,Skovparken,8783,106,9.862828,55.751139
1888008,Skovparken,8783,108,9.86295,55.751335
1888010,Skovparken,8783,110,9.863036,55.751553
1888404,Bjerrelide,8783,1,9.860765,55.792439
1888407,Bjerrelide,8783,2,9.866641,55.792779
1888409,Bjerrelide,8783,3,9.860113,55.793102
1888412,Bjerrelide,8783,4,9.866611,55.792479
1888413,Bjerrelide,8783,5,9.862177,55.796316
1888416,Bjerrelide,8783,6,9.864001,55.795458
1888417,Bjerrelide,8783,7,9.854049,55.799474
1888418,Bjerrelide,8783,8,9.864873,55.796472
1888421,Bjerrelide,8783,10,9.861964,55.798268
1888422,Bjerrelide,8783,12,9.86137,55.7999
1888512,Kejservej,8783,1,9.8514698,55.7985336
1888519,Kejservej,8783,2,9.846542,55.795334
1888521,Kejservej,8783,4,9.848337,55.796407
1888526,Kejservej,8783,6,9.8509375,55.7953789
1888530,Kejservej,8783,8,9.8512333,55.793463
1888555,Purhøjvej,8783,64,9.8702229,55.7958438
1888556,Purhøjvej,8783,66,9.869564,55.791996
1888557,Purhøjvej,8783,66A,9.8696203,55.7908273
1888558,Purhøjvej,8783,68,9.8695823,55.7902345
1888559,Purhøjvej,8783,69,9.8757805,55.7996211
1888560,Purhøjvej,8783,69B,9.8661685,55.7833316
1888561,Purhøjvej,8783,71,9.8703338,55.7913683
1888562,Purhøjvej,8783,73,9.871494,55.7901372
1915078,Bøgeskovvejen,8783,11,9.896646,55.747123
1915079,Bøgeskovvejen,8783,12,9.888101,55.749661
1915080,Bøgeskovvejen,8783,13,9.895058,55.743433
1915081,Bøgeskovvejen,8783,15,9.889142,55.747954
1915376,Ravnholtvej,8783,22,9.8907083,55.7669891
1915378,Ravnholtvej,8783,24,9.8913122,55.771054
1915379,Ravnholtvej,8783,24B,9.8916506,55.7711707
1915381,Ravnholtvej,8783,26,9.8911328,55.7705212
1915383,Ravnholtvej,8783,28,9.8899033,55.766993
1915386,Ravnholtvej,8783,33,9.890652,55.766274
1915387,Ravnholtvej,8783,35,9.8894522,55.766577
1915554,Gramvej,8783,1,9.864578,55.775212
1915555,Gramvej,8783,1A,9.8633731,55.7749092
1915556,Gramvej,8783,1B,9.8634572,55.7752114
1915557,Gramvej,8783,1C,9.8639679,55.77481
1915558,Gramvej,8783,2,9.8710033,55.7754189
1915559,Gramvej,8783,3,9.866256,55.775084
1915560,Gramvej,8783,3A,9.865495,55.775079
1915561,Gramvej,8783,3D,9.8677874,55.7755498
1915562,Gramvej,8783,3E,9.8677429,55.7757833
1915563,Gramvej,8783,3F,9.8678557,55.7757966
1915564,Gramvej,8783,4,9.8762406,55.775657
1915565,Gramvej,8783,5,9.8691592,55.7756691
1915566,Gramvej,8783,6,9.8824758,55.7769784
1915567,Gramvej,8783,7,9.8735915,55.775762
1915568,Gramvej,8783,9,9.874804,55.776954
1915569,Gramvej,8783,10,9.8845365,55.7771228
1915570,Gramvej,8783,11,9.8800473,55.7827797
1915571,Gramvej,8783,12,9.8855148,55.7772712
1915572,Gramvej,8783,12A,9.8852564,55.7768354
1915573,Gramvej,8783,12B,9.8854536,55.7768153
1915574,Gramvej,8783,13,9.8800574,55.7842572
1915576,Gramvej,8783,15,9.8856243,55.7808494
1915578,Gramvej,8783,17,9.8859721,55.7794929
1923407,Nørregade,8783,1,9.861292,55.7561803
1923410,Nørregade,8783,2,9.8619198,55.7562349
1923412,Nørregade,8783,3,9.8615802,55.7563364
1923415,Nørregade,8783,5,9.8616967,55.7565248
1923417,Nørregade,8783,6,9.862371,55.756763
1923419,Nørregade,8783,7,9.8618227,55.7566527
1923423,Nørregade,8783,7A,9.8619454,55.7568618
1923424,Nørregade,8783,8,9.8626642,55.7570432
1923426,Nørregade,8783,9A,9.861716,55.757175
1923427,Nørregade,8783,9B,9.862121,55.757135
1923430,Nørregade,8783,10A,9.8627684,55.7572711
1923432,Nørregade,8783,10B,9.8628822,55.7572381
1923434,Nørregade,8783,10C,9.8629908,55.7572099
1923436,Nørregade,8783,10D,9.86311,55.7571748
1923438,Nørregade,8783,11,9.8621905,55.7573093
1923440,Nørregade,8783,12A,9.862908,55.757445
1923442,Nørregade,8783,12B,9.863122,55.7574025
1923444,Nørregade,8783,12C,9.863109,55.757462
1923446,Nørregade,8783,12D,9.863129,55.757534
1923447,Nørregade,8783,13,9.8625682,55.7574993
1923449,Nørregade,8783,14,9.863273,55.7576794
1923453,Nørregade,8783,15,9.8627331,55.7576937
1923454,Nørregade,8783,16,9.8632847,55.7578849
1923457,Nørregade,8783,17,9.8628991,55.7578918
1923459,Nørregade,8783,18,9.8633967,55.7580344
1923463,Nørregade,8783,19,9.86298,55.7579904
1923465,Nørregade,8783,20,9.8634543,55.7582056
1923466,Nørregade,8783,21,9.8632132,55.7584143
1923469,Nørregade,8783,22,9.8635924,55.7583891
1923470,Nørregade,8783,23,9.8634712,55.7587098
1923472,Nørregade,8783,24,9.8637465,55.758613
1923475,Nørregade,8783,26,9.8649539,55.758224
1923476,Nørregade,8783,27,9.8641333,55.7595603
1923478,Nørregade,8783,28,9.864433,55.75889
1923480,Nørregade,8783,28B,9.865051,55.759378
1923482,Nørregade,8783,29,9.8642738,55.7597314
1923485,Nørregade,8783,30,9.864439,55.759519
1923486,Nørregade,8783,31,9.8644327,55.7599036
1923488,Nørregade,8783,32,9.8645626,55.7596673
1923489,Nørregade,8783,33,9.8645666,55.7600766
1923492,Nørregade,8783,33B,9.8640513,55.7604153
1923494,Nørregade,8783,34,9.8646348,55.7597532
1923497,Nørregade,8783,35,9.864648,55.7602561
1923500,Nørregade,8783,36,9.8647175,55.7598813
1923503,Nørregade,8783,37,9.8647842,55.7605661
1923506,Nørregade,8783,38,9.8649222,55.7601551
1923508,Nørregade,8783,39,9.8650215,55.7606675
1923510,Nørregade,8783,40,9.8653133,55.760371
1923512,Nørregade,8783,40A,9.8686573,55.7596257
1923514,Nørregade,8783,41,9.8650909,55.7607538
1923516,Nørregade,8783,42,9.8654135,55.7606208
1923518,Nørregade,8783,43,9.8652227,55.7609498
1923520,Nørregade,8783,44,9.8654798,55.7608534
1923522,Nørregade,8783,45,9.8653444,55.7611143
1923524,Nørregade,8783,46,9.8656045,55.7610121
1923526,Nørregade,8783,47,9.8654778,55.7612771
1923527,Nørregade,8783,48,9.8657421,55.7611893
1923529,Nørregade,8783,49,9.8656716,55.761609
1923532,Nørregade,8783,50,9.8659188,55.7613458
1923533,Nørregade,8783,51,9.8658917,55.7619276
1923535,Nørregade,8783,52,9.8660873,55.7615636
1923537,Nørregade,8783,53,9.8648783,55.7671205
1923541,Nørregade,8783,54,9.8662116,55.761721
1923545,Nørregade,8783,55,9.8659789,55.7676009
1923546,Nørregade,8783,56,9.8663009,55.7618446
1923548,Nørregade,8783,57,9.8659683,55.7678874
1923551,Nørregade,8783,59G,9.8655572,55.7680646
1957981,Grønningen,8783,1,9.8580149,55.7569607
1957982,Grønningen,8783,2,9.8587283,55.7571427
1957983,Grønningen,8783,3,9.8577267,55.7570009
1957984,Grønningen,8783,4,9.8590584,55.7570739
1957985,Grønningen,8783,5,9.8574132,55.7570106
1957986,Grønningen,8783,6,9.8594986,55.757005
1957987,Grønningen,8783,7,9.8571728,55.7570261
1957988,Grønningen,8783,8,9.8598647,55.7569361
1957989,Grønningen,8783,9,9.8569296,55.7570613
1957990,Grønningen,8783,10,9.8604066,55.7568324
1957991,Grønningen,8783,11,9.8567525,55.7571522
1957992,Grønningen,8783,12,9.8608802,55.7567533
1957993,Grønningen,8783,13,9.8568961,55.7572953
1957994,Grønningen,8783,14,9.8611018,55.756954
1957995,Grønningen,8783,15,9.8573146,55.7573262
1957996,Grønningen,8783,16,9.8605485,55.7571167
1957997,Grønningen,8783,17,9.8575912,55.7572347
1957998,Grønningen,8783,18,9.8602366,55.7571091
1957999,Grønningen,8783,19,9.8578483,55.7571986
1958000,Grønningen,8783,20,9.8597963,55.7571866
1958001,Grønningen,8783,21,9.8581281,55.7571967
1958002,Grønningen,8783,22,9.859385,55.75726
1958003,Grønningen,8783,23,9.8582564,55.7574154
1958004,Grønningen,8783,24,9.8589647,55.7573363
1958005,Grønningen,8783,25,9.8580137,55.7574807
1958006,Grønningen,8783,26,9.8592055,55.7578854
1958007,Grønningen,8783,27,9.8576761,55.7575244
1958008,Grønningen,8783,28,9.8595471,55.7578125
1958009,Grønningen,8783,29,9.8574318,55.7575902
1958010,Grønningen,8783,30,9.8598994,55.7577402
1958011,Grønningen,8783,31,9.8574253,55.7577605
1958012,Grønningen,8783,32,9.8603417,55.757641
1958013,Grønningen,8783,33,9.8575314,55.7578798
1958014,Grønningen,8783,34,9.8606675,55.7575716
1958015,Grønningen,8783,35,9.857851,55.757778
1958016,Grønningen,8783,36,9.861047,55.7574917
1958017,Grønningen,8783,37,9.8582041,55.7577471
1958018,Grønningen,8783,38,9.861361,55.7573926
1958019,Grønningen,8783,39,9.8584064,55.7576788
1958020,Grønningen,8783,40,9.8616927,55.7576989
1958021,Grønningen,8783,41,9.8585729,55.75788
1958022,Grønningen,8783,42,9.8612287,55.7577025
1958023,Grønningen,8783,43,9.8583151,55.757977
1958024,Grønningen,8783,44,9.860884,55.757775
1958025,Grønningen,8783,45,9.8579952,55.7580301
1958026,Grønningen,8783,46,9.8604838,55.7578565
1958027,Grønningen,8783,47,9.8577331,55.7580892
1958028,Grønningen,8783,48,9.8601265,55.7579337
1958029,Grønningen,8783,49,9.8578145,55.7582191
1958030,Grønningen,8783,50,9.8597354,55.7580138
1958031,Grønningen,8783,51,9.8579724,55.7583778
1958032,Grønningen,8783,52,9.8593717,55.7580893
1958033,Grønningen,8783,53,9.8581343,55.7585434
1958034,Grønningen,8783,55,9.8582862,55.7586571
1958035,Grønningen,8783,57,9.8585947,55.7585982
1958036,Grønningen,8783,59,9.8587986,55.7585137
1958037,Grønningen,8783,61,9.8590857,55.7583665
1958038,Grønningen,8783,63,9.8587535,55.7581659
1958039,Grønningen,8783,65,9.8585128,55.7582345
1958040,Grønningen,8783,67,9.8583518,55.7582742
2002155,Skerrildgårdvej,8783,12,9.8815432,55.7464411
2002156,Skerrildgårdvej,8783,13,9.876634,55.746908
2002157,Skerrildgårdvej,8783,14,9.8827157,55.7472462
2002158,Skerrildgårdvej,8783,15A,9.8748592,55.7460471
2002159,Skerrildgårdvej,8783,15B,9.8747818,55.7460931
2002160,Skerrildgårdvej,8783,16,9.8840578,55.7482883
2002161,Skerrildgårdvej,8783,17,9.872405,55.7454271
2002162,Skerrildgårdvej,8783,18,9.885197,55.749615
2002163,Skerrildgårdvej,8783,19,9.869063,55.7453628
2002164,Skerrildgårdvej,8783,21,9.8796422,55.7455155
2002165,Skerrildgårdvej,8783,23,9.882214,55.747603
2002166,Skerrildgårdvej,8783,25,9.8807624,55.7486029
2002167,Skerrildgårdvej,8783,27,9.8827915,55.7494828
2002297,Nebsager Kirkevej,8783,1,9.8618259,55.7560042
2002298,Nebsager Kirkevej,8783,2,9.8617178,55.755781
2002299,Nebsager Kirkevej,8783,3,9.8621466,55.7559213
2002300,Nebsager Kirkevej,8783,4,9.8618755,55.755655
2002301,Nebsager Kirkevej,8783,5,9.863329,55.755562
2002302,Nebsager Kirkevej,8783,6,9.8622153,55.7555733
2002303,Nebsager Kirkevej,8783,7,9.863443,55.755537
2002304,Nebsager Kirkevej,8783,8,9.8628493,55.755395
2002305,Nebsager Kirkevej,8783,8K,9.8645295,55.7550684
2002306,Nebsager Kirkevej,8783,10,9.8650071,55.7546603
2002307,Nebsager Kirkevej,8783,11,9.865005,55.756076
2002308,Nebsager Kirkevej,8783,12,9.866498,55.754418
2002309,Nebsager Kirkevej,8783,13,9.8837086,55.7505431
2002310,Nebsager Kirkevej,8783,14,9.867469,55.754268
2002311,Nebsager Kirkevej,8783,15,9.8843124,55.7503078
2002312,Nebsager Kirkevej,8783,20,9.869409,55.753665
2002313,Nebsager Kirkevej,8783,22,9.8701859,55.7503653
2002314,Nebsager Kirkevej,8783,24,9.8691931,55.7484106
2002315,Nebsager Kirkevej,8783,26,9.8701733,55.7478304
2002316,Nebsager Kirkevej,8783,28,9.872982,55.75269
2002317,Nebsager Kirkevej,8783,30,9.873501,55.75243
2002318,Nebsager Kirkevej,8783,32,9.874667,55.753392
2002345,Lhombrevej,8783,4,9.876329,55.742206
2002346,Lhombrevej,8783,6,9.8764258,55.7419996
2002347,Bredmadevej,8783,1,9.876007,55.756635
2002348,Bredmadevej,8783,2,9.883874,55.75461
2002349,Bredmadevej,8783,3,9.874907,55.758307
2002350,Bredmadevej,8783,4,9.881323,55.758235
2002351,Bredmadevej,8783,5,9.870772,55.761076
2002352,Bredmadevej,8783,6,9.887993,55.758887
2002353,Bredmadevej,8783,8,9.886082,55.756199
2002354,Bredmadevej,8783,10,9.88833,55.756904
2002355,Bredmadevej,8783,12,9.877647,55.760597
2002367,Smedevej,8783,1,9.8740688,55.7568041
2005813,Bakkealle,8783,1,9.858419,55.785352
2005819,Bakkealle,8783,2,9.859023,55.785338
2005821,Bakkealle,8783,3A,9.858135,55.785434
2005825,Bakkealle,8783,3B,9.857889,55.785481
2005828,Bakkealle,8783,4,9.859471,55.785214
2005829,Bakkealle,8783,5A,9.858559,55.785595
2005833,Bakkealle,8783,5B,9.858414,55.785662
2005834,Bakkealle,8783,6,9.859155,55.785535
2005837,Bakkealle,8783,7,9.858118,55.785758
2005838,Bakkealle,8783,8,9.859607,55.785476
2005840,Bakkealle,8783,9,9.858767,55.785858
2005842,Bakkealle,8783,10,9.859236,55.78581
2005844,Bakkealle,8783,11,9.858259,55.786044
2005845,Bakkealle,8783,12,9.859702,55.785799
2005847,Bakkealle,8783,13,9.85877,55.786127
2005850,Bakkealle,8783,14,9.859412,55.786111
2005851,Bakkealle,8783,15,9.858443,55.786239
2005856,Bakkealle,8783,16,9.859964,55.786063
2005859,Bakkealle,8783,17,9.85911,55.78641
2005861,Bakkealle,8783,18,9.859628,55.786285
2005865,Bakkealle,8783,19,9.858612,55.78657
2005867,Bakkealle,8783,20,9.859979,55.786211
2005870,Bakkealle,8783,21,9.858866,55.786793
2005874,Bakkealle,8783,22,9.860204,55.786474
2005876,Bakkealle,8783,23,9.85932,55.786728
2005881,Bakkealle,8783,24,9.859695,55.786631
2005893,Holmen,8783,1,9.8555553,55.7848577
2005894,Holmen,8783,2,9.855723,55.784337
2005895,Holmen,8783,3,9.8556978,55.7850171
2005896,Holmen,8783,3K,9.856095,55.78561
2005897,Holmen,8783,4,9.8559,55.7847119
2005898,Holmen,8783,5,9.8564746,55.7862278
2005899,Holmen,8783,6,9.8563739,55.7850812
2005900,Holmen,8783,8,9.8565839,55.7852916
2005903,Holmen,8783,12A,9.8569827,55.7856911
2005905,Holmen,8783,12B,9.8568619,55.7857223
2005908,Holmen,8783,14A,9.8568227,55.7858827
2005909,Holmen,8783,14B,9.8568455,55.7859707
2005912,Holmen,8783,16,9.8569523,55.7863237
2005975,Neder Bjerrevej,8783,1,9.8568066,55.7855934
2005979,Neder Bjerrevej,8783,2,9.8581486,55.7850782
2005983,Neder Bjerrevej,8783,3,9.8570847,55.7855089
2005987,Neder Bjerrevej,8783,4,9.8586093,55.7850323
2005990,Neder Bjerrevej,8783,5,9.8572975,55.7854455
2005995,Neder Bjerrevej,8783,6,9.8590233,55.7850127
2005999,Neder Bjerrevej,8783,7,9.86096,55.785078
2006003,Neder Bjerrevej,8783,8,9.8594725,55.7847075
2006006,Neder Bjerrevej,8783,9,9.868579,55.787788
2006010,Neder Bjerrevej,8783,10,9.8602004,55.7847451
2006015,Neder Bjerrevej,8783,10B,9.859707,55.784433
2006016,Neder Bjerrevej,8783,11,9.869901,55.788273
2006022,Neder Bjerrevej,8783,12,9.8608339,55.7846208
2006026,Neder Bjerrevej,8783,13,9.8695175,55.7897812
2006027,Neder Bjerrevej,8783,14,9.8611691,55.7845467
2006033,Neder Bjerrevej,8783,16,9.8615731,55.7844375
2006036,Neder Bjerrevej,8783,18,9.862017,55.784423
2006039,Neder Bjerrevej,8783,20,9.8623985,55.7843727
2006044,Neder Bjerrevej,8783,22,9.8626967,55.7843136
2006047,Neder Bjerrevej,8783,22P,9.8652972,55.7841214
2006052,Neder Bjerrevej,8783,24,9.8635839,55.7843354
2006055,Neder Bjerrevej,8783,26,9.8649967,55.7844092
2006057,Neder Bjerrevej,8783,28,9.8663957,55.7838016
2006062,Neder Bjerrevej,8783,30,9.870049,55.789563
2006140,Dybdalsvej,8783,1,9.854676,55.786195
2006143,Dybdalsvej,8783,1A,9.853659,55.785805
2006145,Dybdalsvej,8783,3,9.854937,55.78634
2006148,Dybdalsvej,8783,5A,9.855095,55.786531
2006150,Dybdalsvej,8783,5B,9.854981,55.786619
2006154,Dybdalsvej,8783,6,9.854595,55.785739
2006156,Dybdalsvej,8783,7,9.855536,55.786558
2006157,Dybdalsvej,8783,8,9.855801,55.786359
2006159,Dybdalsvej,8783,10,9.856131,55.786461
2006163,Dybdalsvej,8783,11,9.856322,55.786894
2006165,Dybdalsvej,8783,12,9.856568,55.786623
2006168,Dybdalsvej,8783,13,9.856809,55.787113
2006170,Dybdalsvej,8783,13A,9.857231,55.788029
2006175,Dybdalsvej,8783,14,9.857042,55.786749
2006178,Dybdalsvej,8783,14B,9.857141,55.78691
2006180,Dybdalsvej,8783,14C,9.857234,55.786964
2006184,Dybdalsvej,8783,15,9.8575518,55.7891745
2006188,Dybdalsvej,8783,16,9.85762,55.78713
2006191,Dybdalsvej,8783,17,9.857867,55.789233
2006197,Dybdalsvej,8783,18,9.857904,55.787277
2006201,Dybdalsvej,8783,20,9.858206,55.787623
2006203,Dybdalsvej,8783,24,9.858463,55.788134
2006206,Dybdalsvej,8783,26,9.858208,55.788726
2006209,Dybdalsvej,8783,28,9.858321,55.789294
2006290,Dalvej,8783,1,9.853069,55.789868
2006291,Dalvej,8783,2,9.850241,55.78834
2006292,Dalvej,8783,3,9.854842,55.789751
2006293,Dalvej,8783,4,9.850594,55.788454
2006294,Dalvej,8783,5,9.858301,55.78984
2006295,Dalvej,8783,6,9.851042,55.788508
2006296,Dalvej,8783,7A,9.858577,55.790301
2006297,Dalvej,8783,8,9.851603,55.788705
2006298,Dalvej,8783,9,9.8653,55.790718
2006299,Dalvej,8783,10,9.857636,55.789668
2006300,Dalvej,8783,11,9.868905,55.790259
2006358,Buen,8783,1,9.855628,55.786824
2006362,Buen,8783,2,9.856338,55.787288
2006365,Buen,8783,3,9.855324,55.786992
2006371,Buen,8783,4,9.855998,55.787378
2006375,Buen,8783,5,9.855009,55.787093
2006379,Buen,8783,6,9.855408,55.787305
2006381,Buen,8783,7,9.854685,55.787136
2006384,Buen,8783,8,9.855136,55.787422
2006388,Buen,8783,9,9.854298,55.787201
2006391,Buen,8783,10,9.85477,55.78742
2006396,Buen,8783,11,9.853878,55.787182
2006399,Buen,8783,12,9.85445,55.787523
2006403,Buen,8783,14,9.854131,55.787439
2006405,Buen,8783,16,9.853577,55.787383
2006427,Bjerre Vinkelvej,8783,1,9.853904,55.786097
2006428,Bjerre Vinkelvej,8783,2,9.854161,55.786372
2006429,Bjerre Vinkelvej,8783,3,9.853642,55.786333
2006430,Bjerre Vinkelvej,8783,4,9.854043,55.786613
2006431,Bjerre Vinkelvej,8783,5,9.85358,55.786502
2006432,Bjerre Vinkelvej,8783,6,9.854018,55.786795
2006433,Bjerre Vinkelvej,8783,7,9.853474,55.786691
2006434,Bjerre Vinkelvej,8783,8,9.853909,55.786969
2006435,Bjerre Vinkelvej,8783,9,9.853387,55.786874
2006436,Bjerre Vinkelvej,8783,10,9.853372,55.787585
2006437,Bjerre Vinkelvej,8783,11,9.853249,55.787046
2006438,Bjerre Vinkelvej,8783,13,9.853127,55.787244
2006439,Bjerre Vinkelvej,8783,15,9.852992,55.787527
2006460,Højvangen,8783,1,9.851712,55.788335
2006461,Højvangen,8783,2,9.8511576,55.788259
2006462,Højvangen,8783,3,9.851969,55.78793
2006463,Højvangen,8783,4,9.850874,55.788104
2006464,Højvangen,8783,5,9.852109,55.787753
2006466,Højvangen,8783,6,9.8510322,55.7879086
2006469,Højvangen,8783,7,9.8519042,55.7872986
2006471,Højvangen,8783,8,9.851405,55.787982
2006474,Højvangen,8783,10,9.851115,55.787703
2006476,Højvangen,8783,12,9.851614,55.787719
2007270,Søren Nielsens Vej,8783,1,9.8574556,55.7863053
2007271,Søren Nielsens Vej,8783,2,9.857734,55.785718
2007272,Søren Nielsens Vej,8783,3,9.8574347,55.7864803
2007273,Søren Nielsens Vej,8783,4,9.8577841,55.7861471
2007275,Søren Nielsens Vej,8783,5,9.857694,55.786794
2007278,Søren Nielsens Vej,8783,6,9.8579409,55.7864157
2007280,Søren Nielsens Vej,8783,7,9.8579698,55.7869533
2007282,Søren Nielsens Vej,8783,8,9.8580781,55.7866656
2007284,Søren Nielsens Vej,8783,10,9.8582225,55.7868698
2007316,Kaubækvej,8783,1,9.8632203,55.784134
2007321,Kaubækvej,8783,3,9.8632296,55.7838958
2007324,Kaubækvej,8783,5,9.8632477,55.7834951
2007329,Kaubækvej,8783,7,9.863373,55.783033
2008503,Møllevej,8783,1,9.8555595,55.7565014
2008511,Møllevej,8783,2,9.8562394,55.7561951
2008515,Møllevej,8783,3,9.8559676,55.7565515
2008517,Møllevej,8783,4,9.8568015,55.7561769
2008524,Møllevej,8783,5,9.8562619,55.7565357
2008527,Møllevej,8783,6,9.8572701,55.7561603
2008529,Møllevej,8783,7,9.8565287,55.7564762
2008532,Møllevej,8783,8,9.8577591,55.7561101
2008536,Møllevej,8783,9,9.8567261,55.75648
2008538,Møllevej,8783,10,9.8580827,55.7561223
2008541,Møllevej,8783,11,9.8570257,55.7564946
2008544,Møllevej,8783,12,9.8584589,55.7560933
2008547,Møllevej,8783,13,9.8573439,55.756454
2008550,Møllevej,8783,14,9.8587912,55.756047
2008554,Møllevej,8783,15,9.8576786,55.7564398
2008557,Møllevej,8783,16,9.8590488,55.7560349
2008559,Møllevej,8783,17,9.8579671,55.756418
2008565,Møllevej,8783,18,9.8593577,55.7560167
2008568,Møllevej,8783,19,9.85849,55.7564359
2008570,Møllevej,8783,20,9.8597523,55.7559976
2008575,Møllevej,8783,21,9.8590175,55.7563959
2008577,Møllevej,8783,21B,9.8592348,55.7566012
2008580,Møllevej,8783,22,9.8612462,55.7558988
2008583,Møllevej,8783,23,9.8595886,55.7563013
2008588,Møllevej,8783,25,9.8598335,55.7565752
2008591,Møllevej,8783,27,9.8600332,55.7563113
2008593,Møllevej,8783,29,9.8602138,55.7565361
2008597,Møllevej,8783,31,9.8606363,55.7565239
2008600,Møllevej,8783,33,9.8605129,55.7562242
2008602,Møllevej,8783,35,9.8607684,55.7561763
2008607,Møllevej,8783,37,9.861089,55.756168
2008658,Bråskovhusvej,8783,1,9.826894,55.76235
2008663,Bråskovhusvej,8783,2,9.828786,55.76211
2008667,Bråskovhusvej,8783,4,9.828366,55.762222
2008671,Bråskovhusvej,8783,6,9.828021,55.762353
2008676,Bråskovhusvej,8783,8,9.827719,55.762424
2008681,Bråskovhusvej,8783,10,9.827505,55.76248
2008689,Bråskovhusvej,8783,12,9.826738,55.762846
2008692,Bråskovhusvej,8783,14,9.82621,55.762841
2008880,Nørremarksvej,8783,2,9.8470518,55.7590692
2008883,Nørremarksvej,8783,2B,9.8473229,55.7589917
2008886,Nørremarksvej,8783,3,9.846017,55.75877
2008888,Nørremarksvej,8783,4,9.847746,55.760252
2008891,Nørremarksvej,8783,5,9.8370205,55.7610119
2008893,Nørremarksvej,8783,6,9.8469529,55.7600291
2008896,Nørremarksvej,8783,8,9.8477886,55.7608283
2008899,Nørremarksvej,8783,10,9.8466837,55.7615729
2008902,Nørremarksvej,8783,12,9.8486189,55.761712
2008904,Nørremarksvej,8783,14,9.847245,55.762774
2008906,Nørremarksvej,8783,16,9.8452355,55.7595948
2008909,Nørremarksvej,8783,18,9.8391709,55.7621273
2008912,Nørremarksvej,8783,20,9.840737,55.763454
2008916,Nørremarksvej,8783,22,9.8396074,55.7638171
2008920,Nørremarksvej,8783,24,9.842874,55.765158
2008926,Nørremarksvej,8783,24B,9.834342,55.762082
2008928,Nørremarksvej,8783,26,9.8335436,55.7624263
2008933,Nørremarksvej,8783,26B,9.8332495,55.7625722
2008937,Nørremarksvej,8783,28,9.8325,55.7628426
2008940,Nørremarksvej,8783,30,9.833621,55.764629
2008992,Apotekerbakken,8783,1,9.8553938,55.7560874
2008993,Apotekerbakken,8783,1B,9.855118,55.756052
2008994,Apotekerbakken,8783,2,9.854766,55.756311
2008995,Apotekerbakken,8783,3,9.854983,55.755919
2008996,Apotekerbakken,8783,4,9.854199,55.756007
2008997,Apotekerbakken,8783,5,9.85476,55.755744
2008998,Apotekerbakken,8783,6,9.853826,55.755716
2008999,Apotekerbakken,8783,6A,9.853737,55.755797
2009000,Apotekerbakken,8783,7,9.854664,55.755581
2009001,Apotekerbakken,8783,9,9.854505,55.75541
2009002,Apotekerbakken,8783,13,9.853861,55.755056
2009003,Apotekerbakken,8783,15,9.85363,55.754916
2009004,Apotekerbakken,8783,15B,9.853465,55.754761
2009005,Apotekerbakken,8783,16,9.853363,55.755041
2009006,Apotekerbakken,8783,17,9.853089,55.75462
2009007,Apotekerbakken,8783,18,9.853207,55.754917
2009008,Apotekerbakken,8783,19,9.852799,55.754447
2009009,Apotekerbakken,8783,21,9.852498,55.754278
2009010,Apotekerbakken,8783,22,9.852692,55.754667
2009011,Apotekerbakken,8783,23,9.8520301,55.7539754
2009012,Apotekerbakken,8783,24,9.852425,55.754462
2009015,Apotekerbakken,8783,26,9.851922,55.754186
2009073,Bakkevej,8783,2,9.855082,55.756627
2009074,Bakkevej,8783,3,9.853504,55.756418
2009076,Bakkevej,8783,3A,9.85361,55.756338
2009079,Bakkevej,8783,3B,9.853364,55.756354
2009082,Bakkevej,8783,5,9.852819,55.756466
2009083,Bakkevej,8783,6,9.854329,55.756669
2009084,Bakkevej,8783,7,9.852328,55.75648
2009085,Bakkevej,8783,8,9.853468,55.756752
2009086,Bakkevej,8783,10,9.853054,55.756798
2009087,Bakkevej,8783,11,9.851782,55.756474
2009088,Bakkevej,8783,12,9.852665,55.756808
2009089,Bakkevej,8783,13,9.851318,55.756121
2009090,Bakkevej,8783,14,9.852338,55.756854
2009091,Bakkevej,8783,15,9.851339,55.756451
2009092,Bakkevej,8783,17,9.850856,55.756439
2009094,Bakkevej,8783,18,9.849795,55.756716
2009095,Bakkevej,8783,18B,9.849701,55.756966
2009098,Bakkevej,8783,19,9.850399,55.756367
2009099,Bakkevej,8783,20A,9.849424,55.75742
2009102,Bakkevej,8783,20B,9.848918,55.757107
2009104,Bakkevej,8783,21,9.849974,55.75628
2009108,Bakkevej,8783,22,9.849226,55.756257
2009110,Bakkevej,8783,22B,9.848797,55.756332
2009113,Bakkevej,8783,23,9.849459,55.756137
2009116,Bakkevej,8783,24,9.848876,55.755989
2009119,Bakkevej,8783,25,9.849145,55.755926
2009239,Bjørnkærvej,8783,1,9.863165,55.759391
2009240,Bjørnkærvej,8783,2,9.863336,55.759671
2009244,Bjørnkærvej,8783,3,9.862475,55.759588
2009247,Bjørnkærvej,8783,4,9.86294,55.759752
2009249,Bjørnkærvej,8783,6,9.862607,55.759864
2009250,Bjørnkærvej,8783,8A,9.862073,55.760011
2009254,Bjørnkærvej,8783,8B,9.861617,55.760192
2009257,Bjørnkærvej,8783,10,9.86198,55.761259
2009262,Bjørnkærvej,8783,16,9.859302,55.761288
2009263,Bjørnkærvej,8783,20,9.858371,55.762941
2009264,Bjørnkærvej,8783,22,9.856885,55.761901
2009266,Bjørnkærvej,8783,24,9.857074,55.765618
2009269,Bjørnkærvej,8783,26,9.853872,55.763311
2009271,Bjørnkærvej,8783,28,9.852486,55.763815
2009272,Bjørnkærvej,8783,30,9.851849,55.763717
2009296,Skovalle,8783,1,9.854006,55.75449
2009298,Skovalle,8783,2,9.853637,55.754383
2009300,Skovalle,8783,3,9.854395,55.75454
2009302,Skovalle,8783,4,9.853776,55.75418
2009303,Skovalle,8783,5,9.8547542,55.7544245
2009304,Skovalle,8783,6,9.854002,55.754109
2009305,Skovalle,8783,7,9.854698,55.754179
2009306,Skovalle,8783,8,9.85415,55.754005
2009307,Skovalle,8783,9,9.855093,55.754121
2009310,Skovalle,8783,10,9.854361,55.753942
2009311,Skovalle,8783,11,9.855238,55.753955
2009313,Skovalle,8783,12,9.85451,55.753838
2009314,Skovalle,8783,13,9.8555592,55.7538438
2009316,Skovalle,8783,14,9.85472,55.753774
2009318,Skovalle,8783,15,9.855941,55.753614
2009320,Skovalle,8783,16,9.854869,55.753669
2009323,Skovalle,8783,18,9.855389,55.753593
2009362,Birkevej,8783,1,9.858568,55.75504
2009364,Birkevej,8783,2,9.857822,55.755112
2009366,Birkevej,8783,3,9.858235,55.754954
2009368,Birkevej,8783,4,9.857617,55.754999
2009372,Birkevej,8783,5,9.858094,55.75483
2009374,Birkevej,8783,6A,9.857448,55.754765
2009378,Birkevej,8783,6B,9.857524,55.75483
2009380,Birkevej,8783,7,9.857973,55.754656
2009383,Birkevej,8783,8A,9.857187,55.754863
2009385,Birkevej,8783,8B,9.857262,55.754928
2009391,Birkevej,8783,9,9.857697,55.754538
2009395,Birkevej,8783,10A,9.856983,55.754802
2009399,Birkevej,8783,10B,9.857114,55.754754
2009405,Birkevej,8783,11,9.857546,55.754389
2009406,Birkevej,8783,12A,9.856838,55.754672
2009410,Birkevej,8783,12B,9.856964,55.754624
2009413,Birkevej,8783,13,9.857398,55.754234
2009416,Birkevej,8783,14A,9.856686,55.754542
2009419,Birkevej,8783,14B,9.856812,55.754496
2009423,Birkevej,8783,15,9.857403,55.754034
2009426,Birkevej,8783,16A,9.856981,55.754404
2009429,Birkevej,8783,16B,9.857034,55.754451
2009432,Birkevej,8783,18,9.856902,55.754267
2009470,Hornsyld Industrivej,8783,1,9.8659109,55.7623616
2009472,Hornsyld Industrivej,8783,2,9.8600357,55.7639368
2009475,Hornsyld Industrivej,8783,3,9.865419,55.762513
2009476,Hornsyld Industrivej,8783,3B,9.864736,55.762154
2009480,Hornsyld Industrivej,8783,3C,9.864328,55.761574
2009485,Hornsyld Industrivej,8783,3D,9.864303,55.761187
2009486,Hornsyld Industrivej,8783,3F,9.863529,55.760628
2009490,Hornsyld Industrivej,8783,4,9.857055,55.7608536
2009491,Hornsyld Industrivej,8783,5,9.8643793,55.7626904
2009494,Hornsyld Industrivej,8783,5B,9.863567,55.761349
2009495,Hornsyld Industrivej,8783,6,9.8559041,55.7609143
2009498,Hornsyld Industrivej,8783,7,9.8635218,55.7627007
2009499,Hornsyld Industrivej,8783,9,9.8627946,55.7624202
2009502,Hornsyld Industrivej,8783,11,9.8625764,55.7619429
2009505,Hornsyld Industrivej,8783,15,9.8618724,55.7622644
2009507,Hornsyld Industrivej,8783,17,9.8621718,55.7626579
2009512,Hornsyld Industrivej,8783,17P,9.8610202,55.7626408
2009515,Hornsyld Industrivej,8783,18,9.8549084,55.7593287
2009519,Hornsyld Industrivej,8783,20,9.854141,55.7583393
2009522,Hornsyld Industrivej,8783,27,9.857627,55.758983
2009527,Hornsyld Industrivej,8783,29,9.856492,55.759257
2009529,Hornsyld Industrivej,8783,31,9.8567807,55.758629
2009533,Hornsyld Industrivej,8783,33,9.856317,55.758201
2009535,Hornsyld Industrivej,8783,35,9.855665,55.758407
2009537,Hornsyld Industrivej,8783,37,9.855475,55.758112
2009571,Bøgevej,8783,1,9.857813,55.753543
2009572,Bøgevej,8783,3,9.857342,55.7537
2009578,Bøgevej,8783,4,9.856297,55.754539
2009580,Bøgevej,8783,5,9.85674,55.753462
2009584,Bøgevej,8783,7,9.856534,55.753661
2009588,Bøgevej,8783,11,9.856796,55.753987
2009591,Bøgevej,8783,13,9.856375,55.754167
2009593,Bøgevej,8783,15,9.856007,55.754336
2009596,Bøgevej,8783,17,9.855735,55.754434
2009598,Bøgevej,8783,19,9.855498,55.754546
2009600,Bøgevej,8783,21,9.855183,55.754696
2009601,Bøgevej,8783,23,9.854913,55.754818
2009604,Bøgevej,8783,25,9.85462,55.75494
2009605,Bøgevej,8783,27,9.854348,55.755081
2009620,Duelunden,8783,1A,9.860083,55.754808
2009621,Duelunden,8783,1B,9.859953,55.754858
2009623,Duelunden,8783,2,9.859764,55.754599
2009624,Duelunden,8783,3A,9.860169,55.754985
2009627,Duelunden,8783,3B,9.860283,55.755082
2009628,Duelunden,8783,4,9.860053,55.754489
2009629,Duelunden,8783,5,9.860552,55.755208
2009632,Duelunden,8783,6,9.860398,55.754357
2009634,Duelunden,8783,7,9.860906,55.755051
2009635,Duelunden,8783,8,9.860652,55.754259
2009637,Duelunden,8783,9,9.861148,55.754962
2009639,Duelunden,8783,11,9.861257,55.75479
2009641,Duelunden,8783,13,9.861443,55.754921
2009644,Duelunden,8783,15,9.861179,55.75464
2009646,Duelunden,8783,17,9.860981,55.754734
2009648,Duelunden,8783,19,9.860628,55.754786
2009650,Duelunden,8783,21,9.860763,55.754938
2009652,Duelunden,8783,23,9.860543,55.754611
2009654,Duelunden,8783,25,9.860921,55.754467
2009714,Engparken,8783,1,9.8527226,55.7553525
2009717,Engparken,8783,2,9.8536412,55.7553736
2009719,Engparken,8783,3,9.8525321,55.7551271
2009722,Engparken,8783,4,9.8532226,55.7555491
2009723,Engparken,8783,5,9.8523318,55.7553042
2009726,Engparken,8783,6,9.8527951,55.7556339
2009727,Engparken,8783,7,9.8522138,55.7551676
2009729,Engparken,8783,8,9.8530248,55.755954
2009730,Engparken,8783,9,9.8523339,55.7550322
2009731,Engparken,8783,10,9.8531698,55.7560863
2009732,Engparken,8783,11,9.8521636,55.7549268
2009734,Engparken,8783,13,9.8520117,55.7550028
2009735,Engparken,8783,15,9.8518997,55.7551046
2009736,Engparken,8783,17,9.8517909,55.7552544
2009738,Engparken,8783,19,9.8517611,55.7553867
2009740,Engparken,8783,21,9.8517939,55.7555294
2009741,Engparken,8783,23,9.8521698,55.7555076
2009742,Engparken,8783,25,9.8519923,55.7555882
2009744,Engparken,8783,27,9.8518083,55.7556593
2009745,Engparken,8783,29,9.8522747,55.7556212
2009746,Engparken,8783,31,9.852048,55.755765
2009762,Egevej,8783,1,9.8596036,55.7551368
2009763,Egevej,8783,2,9.859533,55.7554628
2009764,Egevej,8783,3,9.8588543,55.7552133
2009765,Egevej,8783,4,9.8591446,55.7554483
2009766,Egevej,8783,5A,9.8579697,55.7552625
2009767,Egevej,8783,5B,9.857752,55.7552868
2009768,Egevej,8783,6,9.8588887,55.755479
2009769,Egevej,8783,7A,9.8568764,55.7552097
2009770,Egevej,8783,7B,9.8564546,55.7549636
2009771,Tværvej,8783,1,9.8426039,55.7580049
2009772,Tværvej,8783,2,9.8428924,55.7576496
2009773,Egevej,8783,7C,9.8563683,55.7553449
2009774,Egevej,8783,8,9.8585758,55.7554742
2009775,Tværvej,8783,3,9.841949,55.758322
2009776,Tværvej,8783,4,9.8429895,55.7577931
2009777,Egevej,8783,10,9.8582724,55.7554945
2009778,Tværvej,8783,5,9.840374,55.758753
2009781,Tværvej,8783,7,9.839817,55.759031
2009782,Tværvej,8783,9,9.8396212,55.7587672
2009783,Egevej,8783,12,9.8579653,55.7555148
2009786,Tværvej,8783,11,9.839549,55.758592
2009787,Tværvej,8783,13,9.839313,55.758335
2009789,Egevej,8783,14,9.8576216,55.7556356
2009791,Tværvej,8783,15,9.839338,55.758092
2009793,Tværvej,8783,17,9.839662,55.757866
2009794,Egevej,8783,16,9.8572784,55.7556115
2009795,Tværvej,8783,19,9.839865,55.758115
2009798,Tværvej,8783,21,9.840219,55.758428
2009799,Egevej,8783,18,9.8569543,55.7556444
2009800,Tværvej,8783,23,9.840524,55.758303
2009804,Egevej,8783,20,9.8566302,55.7556772
2009805,Tværvej,8783,25,9.840358,55.757973
2009806,Tværvej,8783,27,9.840698,55.757798
2009808,Egevej,8783,22,9.8562914,55.7556886
2009810,Tværvej,8783,29,9.841041,55.757788
2009811,Tværvej,8783,31,9.841261,55.757986
2009813,Egevej,8783,24,9.8559926,55.7556922
2009814,Tværvej,8783,33,9.8417422,55.7579821
2009817,Tværvej,8783,35,9.8414212,55.7576967
2009818,Tværvej,8783,37,9.841836,55.757595
2009820,Egevej,8783,26,9.8556506,55.755722
2009822,Tværvej,8783,39,9.842394,55.757672
2009823,Egevej,8783,28,9.8554897,55.7555184
2009824,Egevej,8783,30,9.8552452,55.7553423
2009871,Lindevej,8783,1,9.855767,55.751539
2009872,Lindevej,8783,2,9.860064,55.7558
2009873,Lindevej,8783,3,9.8528388,55.7499348
2009874,Lindevej,8783,4,9.8600247,55.7553959
2009875,Lindevej,8783,5,9.855332,55.74776
2009876,Lindevej,8783,6,9.8594552,55.7549236
2009877,Lindevej,8783,7,9.8517437,55.7474071
2009878,Lindevej,8783,8,9.8592915,55.7547812
2009879,Lindevej,8783,10,9.8591297,55.7546559
2009880,Lindevej,8783,12,9.8589385,55.7544956
2009881,Lindevej,8783,14A,9.8587825,55.7543164
2009882,Lindevej,8783,14B,9.8586331,55.7542017
2009883,Lindevej,8783,16,9.8584604,55.7540362
2009884,Lindevej,8783,18,9.8582855,55.7539216
2009885,Lindevej,8783,20,9.8580477,55.7537654
2009886,Lindevej,8783,22,9.8571645,55.7530462
2009887,Lindevej,8783,24,9.8522877,55.7509582
2009888,Lindevej,8783,24A,9.8525949,55.7510812
2009889,Lindevej,8783,24B,9.8522516,55.751121
2009890,Lindevej,8783,24C,9.8521458,55.7509956
2009891,Lindevej,8783,24D,9.8520771,55.7507912
2009892,Lindevej,8783,24E,9.8524277,55.7507512
2009893,Lindevej,8783,24F,9.8525521,55.7509315
2009894,Lindevej,8783,26,9.8522983,55.7505857
2009895,Lindevej,8783,28,9.851113,55.750163
2009926,Bakkedraget,8783,1,9.851104,55.75684
2009928,Bakkedraget,8783,2,9.851894,55.757038
2009929,Bakkedraget,8783,3,9.851419,55.757036
2009935,Bakkedraget,8783,4,9.852003,55.757243
2009936,Bakkedraget,8783,5,9.851476,55.757283
2009939,Bakkedraget,8783,6,9.852617,55.757254
2009942,Bakkedraget,8783,7,9.850878,55.757408
2009944,Bakkedraget,8783,8,9.853158,55.757174
2009946,Bakkedraget,8783,9,9.850648,55.757202
2009950,Bakkedraget,8783,10A,9.85351,55.757362
2009952,Bakkedraget,8783,10B,9.853607,55.757614
2009955,Bakkedraget,8783,11,9.850337,55.756993
2009958,Bakkedraget,8783,12,9.85312,55.757483
2009960,Bakkedraget,8783,13,9.850079,55.757129
2009964,Bakkedraget,8783,14,9.852526,55.757521
2009966,Bakkedraget,8783,15,9.850241,55.757359
2009969,Bakkedraget,8783,17,9.850503,55.757565
2009971,Bakkedraget,8783,19,9.850638,55.75778
2009975,Bakkedraget,8783,21,9.851053,55.757715
2009977,Bakkedraget,8783,23,9.851624,55.757586
2010041,Industrivænget,8783,1,9.848903,55.75877
2010042,Industrivænget,8783,2,9.849956,55.758686
2010044,Industrivænget,8783,4,9.850806,55.759606
2010045,Industrivænget,8783,7,9.84984,55.759506
2010047,Industrivænget,8783,9,9.850636,55.760424
2010049,Industrivænget,8783,9B,9.8500211,55.7609558
2010051,Industrivænget,8783,11,9.8512094,55.7607253
2010081,Kildevangen,8783,1,9.851929,55.7519606
2010086,Kildevangen,8783,2,9.8525305,55.7523159
2010087,Kildevangen,8783,3,9.851657,55.751766
2010092,Kildevangen,8783,4,9.8519476,55.7522967
2010098,Kildevangen,8783,5,9.8516064,55.7515713
2010103,Kildevangen,8783,6,9.8516898,55.7526258
2010107,Kildevangen,8783,7,9.8515968,55.7513396
2010110,Kildevangen,8783,8,9.8516116,55.7528101
2010114,Kildevangen,8783,9,9.8514434,55.7510997
2010117,Kildevangen,8783,10,9.8513364,55.7524071
2010120,Kildevangen,8783,11,9.8516178,55.7508556
2010124,Kildevangen,8783,12,9.8514833,55.7521861
2010130,Kildevangen,8783,14,9.8512861,55.7519384
2010138,Kildevangen,8783,16,9.851274,55.7517734
2010146,Kildevangen,8783,18,9.8512033,55.7515832
2010149,Kildevangen,8783,20,9.8510266,55.7513706
2010154,Kildevangen,8783,22,9.8509626,55.7511323
2010221,Eliselunden,8783,1,9.853311,55.752167
2010222,Eliselunden,8783,2,9.8534294,55.7519264
2010225,Eliselunden,8783,3,9.853662,55.75228
2010227,Eliselunden,8783,4,9.853708,55.751748
2010230,Eliselunden,8783,5,9.853842,55.752446
2010232,Eliselunden,8783,6,9.8538852,55.7521072
2010234,Eliselunden,8783,7,9.854518,55.752599
2010236,Eliselunden,8783,8,9.854028,55.751877
2010237,Eliselunden,8783,9,9.854808,55.752746
2010240,Eliselunden,8783,10,9.854392,55.752042
2010241,Eliselunden,8783,12,9.8547308,55.7521589
2010242,Eliselunden,8783,14,9.855049,55.752259
2010244,Eliselunden,8783,16,9.855368,55.752447
2010245,Eliselunden,8783,18,9.855056,55.752621
2010262,Posthusvej,8783,1,9.8635516,55.7589589
2010264,Posthusvej,8783,2,9.8632732,55.7591692
2010266,Posthusvej,8783,2B,9.863602,55.7591618
2010268,Posthusvej,8783,3,9.863301,55.7589766
2010270,Posthusvej,8783,5,9.8628078,55.7590253
2010271,Posthusvej,8783,7,9.8626323,55.758824
2010288,Snebærvej,8783,1,9.858661,55.75371
2010290,Snebærvej,8783,2,9.858434,55.753524
2010292,Snebærvej,8783,3,9.858688,55.753755
2010293,Snebærvej,8783,4,9.858335,55.75344
2010296,Snebærvej,8783,5,9.858715,55.753802
2010297,Snebærvej,8783,6,9.858345,55.753317
2010299,Snebærvej,8783,7,9.858766,55.753846
2010301,Snebærvej,8783,8,9.858511,55.753295
2010303,Snebærvej,8783,9,9.858859,55.753871
2010305,Snebærvej,8783,10,9.859015,55.753382
2010307,Snebærvej,8783,11,9.8589,55.753732
2010308,Snebærvej,8783,12,9.859366,55.753281
2010309,Snebærvej,8783,13,9.8589685,55.7537683
2010310,Snebærvej,8783,15,9.859002,55.753819
2010311,Snebærvej,8783,17,9.85935,55.753644
2010312,Snebærvej,8783,19,9.859599,55.753552
2010313,Snebærvej,8783,21,9.859754,55.753413
2010335,Bækkelunden,8783,1,9.852952,55.752979
2010337,Bækkelunden,8783,2,9.852876,55.752815
2010338,Bækkelunden,8783,3,9.853094,55.753118
2010340,Bækkelunden,8783,4,9.852997,55.752646
2010342,Bækkelunden,8783,5,9.853442,55.7530592
2010345,Bækkelunden,8783,6,9.853108,55.752495
2010347,Bækkelunden,8783,7,9.853344,55.753184
2010350,Bækkelunden,8783,8,9.853134,55.752413
2010351,Bækkelunden,8783,9,9.853236,55.753258
2010355,Bækkelunden,8783,10,9.85344,55.7525301
2010356,Bækkelunden,8783,11,9.853469,55.753349
2010358,Bækkelunden,8783,12,9.853742,55.752642
2010360,Bækkelunden,8783,13,9.853349,55.753454
2010361,Bækkelunden,8783,14,9.854044,55.752754
2010363,Bækkelunden,8783,15,9.8538351,55.7531715
2010365,Bækkelunden,8783,16,9.853343,55.752892
2010368,Bækkelunden,8783,18,9.853619,55.752936
2010370,Bækkelunden,8783,20,9.853934,55.752907
2010373,Bækkelunden,8783,22,9.85406,55.753074
2010374,Bækkelunden,8783,24,9.854345,55.752867
2010426,Lindeparken,8783,1,9.8594897,55.7541731
2010427,Lindeparken,8783,2,9.8593058,55.7542737
2010428,Lindeparken,8783,3,9.8596055,55.7540199
2010429,Lindeparken,8783,4,9.8591803,55.7541652
2010430,Lindeparken,8783,6,9.8590403,55.7540592
2010431,Lindeparken,8783,7,9.8600335,55.7541017
2010432,Lindeparken,8783,8,9.859185,55.753972
2010434,Lindeparken,8783,9,9.8602273,55.7540283
2010436,Lindeparken,8783,10,9.8593825,55.7539297
2010438,Lindeparken,8783,11,9.86042,55.7539551
2010439,Lindeparken,8783,12,9.859553,55.7538656
2010442,Lindeparken,8783,14,9.8597433,55.7538155
2010446,Lindeparken,8783,16,9.8599317,55.7537664
2010448,Lindeparken,8783,20,9.8599171,55.7540173
2010451,Lindeparken,8783,22,9.8601096,55.7539444
2010454,Lindeparken,8783,24,9.8602997,55.7538714
2010499,Stadionvej,8783,1,9.8613163,55.7555086
2010500,Stadionvej,8783,2,9.8609609,55.755673
2010503,Stadionvej,8783,3,9.8611186,55.7553523
2010504,Stadionvej,8783,4,9.8608661,55.755592
2010505,Stadionvej,8783,5,9.8616119,55.7551836
2010506,Stadionvej,8783,6,9.8607319,55.7554756
2010507,Stadionvej,8783,8,9.860641,55.755394
2010529,Byskov Banke,8783,1,9.834443,55.752927
2010533,Byskov Banke,8783,1B,9.835991,55.753865
2010534,Byskov Banke,8783,2,9.828053,55.751898
2010537,Byskov Banke,8783,3,9.835708,55.751542
2010540,Byskov Banke,8783,4,9.832646,55.749664
2013175,Hornumkærvej,8783,1A,9.804958,55.735863
2013176,Hornumkærvej,8783,1B,9.805262,55.735782
2013177,Hornumkærvej,8783,2,9.8106609,55.735349
2013178,Hornumkærvej,8783,3,9.8028601,55.7370874
2013179,Hornumkærvej,8783,4,9.8077306,55.7365001
2013180,Hornumkærvej,8783,4B,9.8050709,55.7372452
2013181,Hornumkærvej,8783,5,9.7996731,55.7373729
2013182,Hornumkærvej,8783,6,9.802377,55.737934
2013183,Hornumkærvej,8783,7,9.79131,55.737395
2013184,Hornumkærvej,8783,8,9.8009434,55.7398207
2013185,Hornumkærvej,8783,9,9.789816,55.737134
2013186,Hornumkærvej,8783,10,9.790847,55.738538
2015537,Hornumvej,8783,1,9.813974,55.7437931
2015539,Hornumvej,8783,2,9.8135395,55.7444091
2015540,Hornumvej,8783,2B,9.8126958,55.7444868
2015543,Hornumvej,8783,3,9.8125882,55.7439049
2015544,Hornumvej,8783,4,9.8116781,55.7443454
2015547,Hornumvej,8783,5,9.8114233,55.7440406
2015549,Hornumvej,8783,6,9.8102491,55.7447153
2015552,Hornumvej,8783,7,9.811018,55.744098
2015553,Hornumvej,8783,8,9.808891,55.7452812
2015559,Hornumvej,8783,9,9.8099918,55.7443011
2015561,Hornumvej,8783,10,9.808295,55.745588
2015562,Hornumvej,8783,11,9.809296,55.7444213
2015565,Hornumvej,8783,12,9.8078295,55.7452667
2015569,Hornumvej,8783,13,9.8088789,55.7442418
2015571,Hornumvej,8783,14,9.807384,55.7453731
2015572,Hornumvej,8783,15,9.8079727,55.7446651
2015575,Hornumvej,8783,15B,9.807092,55.7448683
2015577,Hornumvej,8783,16,9.8068389,55.7455963
2015578,Hornumvej,8783,17,9.806796,55.7450243
2015583,Hornumvej,8783,18,9.7982696,55.7520006
2015586,Hornumvej,8783,19,9.8066361,55.7453315
2015587,Hornumvej,8783,21K,9.8059138,55.745239
2015589,Hornumvej,8783,23,9.8052685,55.7452884
2015592,Hornumvej,8783,25,9.8031167,55.7461104
2015595,Hornumvej,8783,27B,9.792615,55.745821
2015597,Hornumvej,8783,29,9.7933891,55.7449879
2015600,Hornumvej,8783,31,9.7922039,55.7448144
2018602,Tirsbækvej,8783,1,9.84361,55.745456
2018604,Tirsbækvej,8783,2A,9.836019,55.747048
2018605,Tirsbækvej,8783,2B,9.836313,55.746354
2018607,Tirsbækvej,8783,3,9.824068,55.744573
2018608,Tirsbækvej,8783,4,9.829489,55.746589
2018609,Tirsbækvej,8783,5,9.8234327,55.7437819
2018610,Tirsbækvej,8783,7,9.8196774,55.7437657
2021419,Kærhusvej,8783,2,9.809465,55.744078
2021421,Kærhusvej,8783,4,9.8098205,55.7438722
2021424,Kærhusvej,8783,10,9.808551,55.7392134
2026297,Dalbyvej,8783,1,9.819577,55.77213
2026410,Jordemodervej,8783,1,9.880227,55.761845
2026411,Jordemodervej,8783,3,9.880943,55.76544
2026412,Jordemodervej,8783,5,9.8778069,55.7632601
2026413,Jordemodervej,8783,7,9.875722,55.764149
2036968,Hyllerødvej,8783,1,9.8643331,55.7371106
2036969,Hyllerødvej,8783,2,9.865668,55.740329
2036970,Hyllerødvej,8783,6,9.8611812,55.7424513
2036971,Hyllerødvej,8783,8,9.8605885,55.7455965
2038055,Urlevvej,8783,1,9.8248781,55.7593723
2038056,Urlevvej,8783,2A,9.825623,55.760079
2038057,Urlevvej,8783,3,9.817036,55.761994
2038058,Urlevvej,8783,3A,9.8117124,55.7617802
2038059,Urlevvej,8783,4A,9.8251943,55.7596507
2038060,Urlevvej,8783,4B,9.8247799,55.7597376
2038061,Urlevvej,8783,6,9.8243777,55.7599052
2038063,Urlevvej,8783,6A,9.822444,55.7604246
2038064,Urlevvej,8783,6B,9.8217583,55.7608041
2038065,Urlevvej,8783,8,9.8200515,55.7611031
2038066,Urlevvej,8783,10,9.8167336,55.7624506
2039986,Pilevangen,8783,1,9.827128,55.76273
2039987,Pilevangen,8783,2,9.8276926,55.7628497
2039988,Pilevangen,8783,3,9.8274516,55.7631214
2039989,Pilevangen,8783,4,9.8285051,55.7630911
2039990,Pilevangen,8783,5,9.8270901,55.7631793
2039991,Pilevangen,8783,6,9.8279141,55.7630686
2039992,Pilevangen,8783,7,9.8268347,55.7632972
2039993,Pilevangen,8783,8,9.8279754,55.7632596
2039994,Pilevangen,8783,9,9.8265306,55.7633824
2039995,Pilevangen,8783,10,9.8286345,55.7633778
2039996,Pilevangen,8783,12,9.8282535,55.763597
2039997,Pilevangen,8783,14,9.8278227,55.7637098
2039998,Pilevangen,8783,16,9.8271893,55.7638446
2039999,Pilevangen,8783,18,9.8276654,55.7634334
2040000,Pilevangen,8783,20,9.8273053,55.7634765
2040001,Pilevangen,8783,22,9.8269955,55.7635573
2040002,Pilevangen,8783,24,9.8267382,55.7636813
2040566,Hornum Østermarksvej,8783,1,9.8251136,55.7427624
2040567,Hornum Østermarksvej,8783,2,9.8253651,55.7423607
2040568,Hornum Østermarksvej,8783,3,9.8291238,55.7421093
2040569,Hornum Østermarksvej,8783,4,9.8314988,55.7414371
2040570,Hornum Østermarksvej,8783,5,9.832422,55.743213
2040571,Hornum Østermarksvej,8783,6,9.8372492,55.7414997
2040572,Hornum Østermarksvej,8783,8,9.8387755,55.7404753
2040573,Hornum Østermarksvej,8783,12,9.838055,55.741702
2040574,Hornum Østermarksvej,8783,14,9.8371336,55.7428911
2040576,Hornum Østermarksvej,8783,16,9.837225,55.743273
2040813,Brå Møllevej,8783,1,9.820917,55.769636
2040814,Brå Møllevej,8783,2,9.821853,55.771514
2040815,Brå Møllevej,8783,3,9.820513,55.769038
2040816,Brå Møllevej,8783,4,9.820795,55.7701
2040817,Brå Møllevej,8783,5,9.819637,55.767225
2040818,Brå Møllevej,8783,6,9.818499,55.769469
2040819,Brå Møllevej,8783,7,9.816712,55.763921
2040820,Brå Møllevej,8783,8,9.819623,55.768709
2040821,Brå Møllevej,8783,9,9.810275,55.767205
2040822,Brå Møllevej,8783,10,9.820007,55.767878
2040823,Brå Møllevej,8783,12,9.817649,55.768845
2040824,Brå Møllevej,8783,14,9.817833,55.766055
2045592,Tinghusvej,8783,1,9.8588812,55.7748514
2045593,Tinghusvej,8783,2,9.8515408,55.7691462
2045594,Tinghusvej,8783,4,9.8546544,55.7707879
2045595,Tinghusvej,8783,6,9.8599155,55.7733576
2045970,Gram Møllevej,8783,2,9.8865035,55.7760869
2150658,Bjerre Skovvej,8783,2,9.8831574,55.7901204
2158499,Krohaven,8783,1,9.8476187,55.755649
2158516,Krohaven,8783,2,9.8478038,55.7553681
2158526,Krohaven,8783,3,9.8480959,55.7551321
2158534,Krohaven,8783,4,9.8479003,55.7553479
2158545,Krohaven,8783,5,9.8481994,55.7551078
2158549,Krohaven,8783,6,9.8477634,55.7553176
2158557,Krohaven,8783,7,9.848068,55.7550763
2158567,Krohaven,8783,8,9.8478552,55.7552975
2158573,Krohaven,8783,9,9.8481517,55.7550569
2158584,Krohaven,8783,10,9.8477703,55.7551449
2158588,Krohaven,8783,11,9.84793,55.7549037
2158597,Krohaven,8783,12,9.8476763,55.7551678
2158606,Krohaven,8783,13,9.848018,55.7548855
2158611,Krohaven,8783,14,9.8477367,55.7550972
2158616,Krohaven,8783,15,9.8478912,55.7548504
2158622,Krohaven,8783,16,9.8476436,55.7551161
2158630,Krohaven,8783,17,9.8479793,55.7548285
2158635,Krohaven,8783,18,9.8476425,55.754955
2158640,Krohaven,8783,20,9.847546,55.754977
2158647,Krohaven,8783,22,9.8475955,55.7549007
2158650,Krohaven,8783,24,9.847499,55.7549222
2167445,Ved Smedebækken,8783,1,9.830011,55.763406
2189640,Bjerrevej,8783,359D,9.855166,55.784535
2189641,Bjerrevej,8783,359E,9.855002,55.784545
2189828,Bjerre Skovvej,8783,2S,9.8800305,55.7923626
2189833,Gramvej,8783,11B,9.882123,55.78202
2189834,Bråskovvej,8783,2A,9.85286,55.783856
2189835,Nørremarksvej,8783,1,9.846352,55.758192
2189836,Nørremarksvej,8783,3B,9.8424239,55.7595934
2189837,Søndergade,8783,53D,9.846007,55.756294
2189838,Ved Smedebækken,8783,2,9.829842,55.763415
2189839,Ved Smedebækken,8783,3,9.82962,55.763431
2189840,Ved Smedebækken,8783,4,9.829469,55.763453
2189841,Ved Smedebækken,8783,5,9.829304,55.7634839
2189842,Ved Smedebækken,8783,6,9.829125,55.7635196
2189843,Ved Smedebækken,8783,7,9.829088,55.763351
2189844,Ved Smedebækken,8783,8,9.829244,55.763332
2189845,Ved Smedebækken,8783,9,9.829405,55.763313
2189846,Ved Smedebækken,8783,10,9.829559,55.763288
2189847,Ved Smedebækken,8783,11,9.829408,55.76309
2189848,Ved Smedebækken,8783,12,9.829235,55.763109
2189849,Ved Smedebækken,8783,13,9.82912,55.763127
2189850,Ved Smedebækken,8783,14,9.828998,55.763148
2189851,Ved Smedebækken,8783,15,9.8294442,55.7628791
2189852,Ved Smedebækken,8783,16,9.829244,55.762931
2189853,Ved Smedebækken,8783,17,9.829086,55.762946
2189854,Ved Smedebækken,8783,18,9.828961,55.762967
2189855,Vestergårdsmarken,8783,1,9.8349857,55.7588448
2189856,Industrivænget,8783,14,9.851456,55.760012
2189857,Nebsager Kirkevej,8783,28C,9.871518,55.75333
2189858,Nebsager Kirkevej,8783,30B,9.87286,55.75134
2198512,Bråskovvej,8783,31,9.8290596,55.7617186
2225370,Vestergårdsmarken,8783,2,9.83531,55.758473
2225371,Vestergårdsmarken,8783,32,9.835645,55.758836
2225372,Vestergårdsmarken,8783,34,9.83613,55.758793
2225373,Vestergårdsmarken,8783,36,9.836462,55.758778
2225374,Vestergårdsmarken,8783,38,9.836962,55.758662
2225375,Vestergårdsmarken,8783,40,9.836924,55.758814
2225376,Vestergårdsmarken,8783,42,9.836497,55.75893
2225377,Vestergårdsmarken,8783,44,9.836169,55.758973
2225378,Vestergårdsmarken,8783,46,9.83572,55.75907
2254742,Bjerre Skovvej,8783,2A,9.8888091,55.7913046
2254761,Hornsyld Industrivej,8783,39,9.854395,55.757715
2254763,Højvangen,8783,7A,9.852447,55.787572
2254821,Nørremarksvej,8783,3A,9.845494,55.759083
2254855,Urlevvej,8783,2,9.825914,55.760309
