idx,street,postcode,housenumber,lon,lat
821453,Udbyhøjvej,8970,595,10.2012,56.597586
821454,Udbyhøjvej,8970,597,10.208899,56.59691
821455,Udbyhøjvej,8970,601,10.213858,56.599718
821456,Udbyhøjvej,8970,602,10.213492,56.598958
821457,Udbyhøjvej,8970,603,10.214545,56.599784
821458,Udbyhøjvej,8970,605,10.215424,56.600287
821459,Udbyhøjvej,8970,611,10.22638,56.606631
821460,Udbyhøjvej,8970,613,10.226489,56.60698
821461,Udbyhøjvej,8970,615,10.226497,56.607214
821462,Udbyhøjvej,8970,617,10.226326,56.607988
821463,Udbyhøjvej,8970,619,10.227135,56.608321
821464,Udbyhøjvej,8970,620,10.227674,56.608352
821465,Udbyhøjvej,8970,621,10.226367,56.608733
821466,Udbyhøjvej,8970,622,10.227971,56.608466
821467,Udbyhøjvej,8970,623,10.226901,56.60862
821468,Udbyhøjvej,8970,624,10.228295,56.6084
821469,Udbyhøjvej,8970,625,10.227438,56.608597
821470,Udbyhøjvej,8970,626,10.228523,56.608389
821471,Udbyhøjvej,8970,628,10.228737,56.608476
821472,Udbyhøjvej,8970,629,10.228287,56.608643
821473,Udbyhøjvej,8970,630,10.229029,56.608446
821474,Udbyhøjvej,8970,631A,10.228629,56.608648
821475,Udbyhøjvej,8970,631B,10.228598,56.608693
821476,Udbyhøjvej,8970,631C,10.228794,56.608718
821477,Udbyhøjvej,8970,631D,10.228809,56.608682
821478,Udbyhøjvej,8970,633A,10.228912,56.609346
821479,Udbyhøjvej,8970,633B,10.228615,56.609717
821480,Udbyhøjvej,8970,633C,10.229056,56.609767
821481,Udbyhøjvej,8970,635,10.229349,56.609764
821482,Udbyhøjvej,8970,637,10.229422,56.609485
821483,Udbyhøjvej,8970,639A,10.229267,56.609244
821484,Udbyhøjvej,8970,639B,10.229413,56.609215
821485,Udbyhøjvej,8970,640,10.2304,56.60899
821486,Udbyhøjvej,8970,641A,10.2295702,56.6088994
821487,Udbyhøjvej,8970,641B,10.2294747,56.6089694
821488,Udbyhøjvej,8970,642,10.230708,56.60896
821489,Udbyhøjvej,8970,643,10.229746,56.608925
821490,Udbyhøjvej,8970,645,10.229949,56.609156
821491,Udbyhøjvej,8970,647,10.230473,56.609744
821492,Udbyhøjvej,8970,649,10.231383,56.609672
821493,Udbyhøjvej,8970,650,10.2321,56.60918
821494,Udbyhøjvej,8970,652,10.232377,56.609177
821495,Udbyhøjvej,8970,653,10.232107,56.609404
821496,Udbyhøjvej,8970,654,10.232654,56.609165
821497,Udbyhøjvej,8970,655,10.232701,56.609623
821498,Udbyhøjvej,8970,657,10.233609,56.609497
821499,Udbyhøjvej,8970,658,10.233336,56.609105
821500,Udbyhøjvej,8970,659,10.233683,56.611752
821501,Udbyhøjvej,8970,660,10.23384,56.609091
821502,Udbyhøjvej,8970,662,10.23428,56.609068
821503,Udbyhøjvej,8970,668,10.242324,56.610426
821504,Udbyhøjvej,8970,673,10.246362,56.6153
821505,Udbyhøjvej,8970,674,10.247968,56.615554
821506,Udbyhøjvej,8970,675,10.245175,56.615869
821507,Udbyhøjvej,8970,682,10.252702,56.617797
821508,Udbyhøjvej,8970,684,10.253925,56.617821
821509,Udbyhøjvej,8970,685,10.254621,56.618173
821510,Udbyhøjvej,8970,686,10.254936,56.617829
821511,Udbyhøjvej,8970,688,10.262009,56.617344
821512,Udbyhøjvej,8970,689,10.287735,56.621977
821513,Udbyhøjvej,8970,690,10.285053,56.621241
821514,Udbyhøjvej,8970,691,10.289703,56.622316
821515,Udbyhøjvej,8970,692,10.288313,56.62172
821516,Udbyhøjvej,8970,692A,10.287855,56.616881
821517,Udbyhøjvej,8970,694,10.290966,56.622087
821518,Udbyhøjvej,8970,699,10.296018,56.623032
1659435,Grovevej,8970,4,10.112637,56.636112
1659436,Grovevej,8970,5,10.10001,56.63311
1659437,Grovevej,8970,6,10.108892,56.638935
1659438,Grovevej,8970,7,10.106341,56.636886
1659439,Grovevej,8970,8,10.111516,56.640925
1659440,Grovevej,8970,9,10.10523,56.640163
1659441,Grovevej,8970,10,10.112436,56.639465
1659442,Grovevej,8970,11,10.103315,56.641309
1659443,Grovevej,8970,13,10.103357,56.641901
1659444,Grovevej,8970,15,10.101657,56.638721
1735364,Vinstrupvej,8970,2,10.180844,56.612309
1735365,Vinstrupvej,8970,4,10.181391,56.611037
1735366,Vinstrupvej,8970,8,10.181975,56.61202
1735367,Vinstrupvej,8970,10,10.182907,56.611589
1735368,Vinstrupvej,8970,10A,10.182825,56.61159
1735369,Vinstrupvej,8970,10B,10.182988,56.611579
1735370,Vinstrupvej,8970,15,10.189598,56.612442
1735371,Vinstrupvej,8970,21,10.194482,56.611811
1735725,Brændstensvej,8970,3,10.199291,56.61906
1735726,Brændstensvej,8970,4,10.199054,56.618784
1735727,Brændstensvej,8970,5,10.199707,56.618823
1735728,Brændstensvej,8970,6,10.198427,56.618538
1735729,Brændstensvej,8970,7,10.199631,56.618482
1735730,Brændstensvej,8970,8,10.198976,56.618389
1735731,Brændstensvej,8970,9,10.199525,56.61824
1735732,Brændstensvej,8970,10,10.198334,56.618189
1735733,Brændstensvej,8970,11,10.199486,56.618025
1735734,Brændstensvej,8970,12,10.198772,56.618122
1735735,Brændstensvej,8970,13,10.199428,56.617756
1735736,Brændstensvej,8970,14,10.198323,56.617857
1735737,Brændstensvej,8970,15,10.198907,56.61777
1738307,Kirkebakken,8970,1,10.221476,56.63234
1738309,Kirkebakken,8970,2,10.221829,56.632696
1738312,Kirkebakken,8970,3,10.22151,56.632896
1738314,Kirkebakken,8970,4,10.222069,56.633044
1738316,Kirkebakken,8970,5,10.221003,56.633351
1738318,Kirkebakken,8970,7,10.220833,56.633658
1738320,Kirkebakken,8970,9,10.221309,56.633752
1738321,Kirkebakken,8970,11,10.220811,56.633964
1738323,Kirkebakken,8970,13,10.220343,56.634112
1738324,Kirkebakken,8970,16,10.219113,56.634897
1738327,Kirkebakken,8970,18,10.218415,56.635496
1738330,Kirkebakken,8970,22,10.217954,56.635366
1738331,Kirkebakken,8970,24,10.216589,56.635011
1740344,Østerled,8970,1,10.297418,56.612999
1740346,Østerled,8970,3,10.298054,56.613011
1740349,Østerled,8970,5,10.298592,56.613014
1740351,Østerled,8970,6,10.298252,56.612622
1740353,Østerled,8970,7,10.299096,56.612982
1740355,Østerled,8970,8,10.298627,56.612609
1740357,Østerled,8970,9,10.299453,56.612933
1740359,Østerled,8970,10,10.298985,56.612597
1740362,Østerled,8970,11,10.299958,56.612946
1740363,Østerled,8970,12,10.299408,56.612592
1740366,Østerled,8970,13,10.300398,56.612959
1740368,Østerled,8970,14,10.299864,56.612578
1740369,Østerled,8970,15,10.300776,56.613036
1740372,Østerled,8970,16,10.300305,56.612601
1740373,Østerled,8970,17,10.301327,56.612958
1740376,Østerled,8970,18A,10.300713,56.612623
1740378,Østerled,8970,18B,10.300742,56.612542
1740380,Østerled,8970,18C,10.300756,56.61247
1740382,Østerled,8970,19,10.301831,56.612926
1740385,Østerled,8970,20,10.301169,56.612619
1740386,Østerled,8970,21,10.302239,56.61294
1740388,Østerled,8970,22,10.301609,56.612623
1740391,Østerled,8970,24,10.302096,56.612564
1743148,Skallehusene,8970,1,10.329227,56.621661
1743149,Skallehusene,8970,3,10.32753,56.620894
1743150,Skallehusene,8970,5,10.327908,56.620971
1743151,Skallehusene,8970,7,10.328399,56.621037
1743152,Skallehusene,8970,9,10.328871,56.621032
1743153,Skallehusene,8970,11,10.329194,56.620948
1743154,Skallehusene,8970,13,10.329506,56.621017
1743155,Skallehusene,8970,15,10.329832,56.621004
1743156,Skallehusene,8970,17,10.330193,56.621081
1743157,Skallehusene,8970,19,10.330514,56.620934
1743158,Skallehusene,8970,21,10.330837,56.62085
1743159,Skallehusene,8970,23,10.331098,56.620865
1743160,Skallehusene,8970,25,10.331374,56.620835
1743161,Skallehusene,8970,27,10.331795,56.620759
1743162,Lærkebakken,8970,1,10.199757,56.649703
1743163,Lærkebakken,8970,2,10.199947,56.650537
1743164,Lærkebakken,8970,3,10.199489,56.649472
1743165,Lærkebakken,8970,4,10.199729,56.650359
1743166,Lærkebakken,8970,6,10.199592,56.650136
1743167,Lærkebakken,8970,8,10.199391,56.649967
1743168,Lærkebakken,8970,10,10.199206,56.649807
1743169,Lærkebakken,8970,12,10.198922,56.649594
1745866,Landevejen,8970,5,10.149673,56.671282
1745871,Landevejen,8970,7,10.153097,56.667723
1745872,Landevejen,8970,8,10.145361,56.670536
1745876,Landevejen,8970,10,10.146189,56.668486
1745878,Landevejen,8970,11,10.156349,56.664426
1745880,Landevejen,8970,12,10.147397,56.666823
1745881,Landevejen,8970,13,10.157105,56.663889
1745883,Landevejen,8970,14,10.150938,56.666878
1745885,Landevejen,8970,14B,10.150291,56.668135
1745887,Landevejen,8970,15,10.157762,56.66153
1745889,Landevejen,8970,16,10.150548,56.666072
1745891,Landevejen,8970,18,10.151992,56.665984
1745893,Landevejen,8970,20,10.153341,56.661237
1745898,Madsdige,8970,2,10.233976,56.652693
1745899,Madsdige,8970,4,10.235341,56.652535
1745900,Madsdige,8970,6,10.237897,56.652393
1746933,Isaksvej,8970,1,10.195496,56.654712
1746935,Isaksvej,8970,3,10.195174,56.654841
1746936,Isaksvej,8970,5,10.193434,56.65502
1747081,Hjorthsvej,8970,1,10.204009,56.652618
1747082,Hjorthsvej,8970,2,10.203361,56.652741
1747083,Hjorthsvej,8970,3,10.203953,56.652394
1747084,Hjorthsvej,8970,4,10.203453,56.652569
1747085,Hjorthsvej,8970,5,10.203866,56.652206
1747086,Hjorthsvej,8970,6,10.20322,56.652428
1747087,Hjorthsvej,8970,7,10.203971,56.651926
1747088,Hjorthsvej,8970,8,10.203229,56.652176
1747089,Hjorthsvej,8970,10,10.203207,56.651997
1747214,Doktorbakken,8970,1,10.197935,56.652937
1747215,Doktorbakken,8970,2,10.197605,56.652293
1747216,Doktorbakken,8970,4,10.19795,56.652362
1747217,Doktorbakken,8970,6,10.198338,56.652268
1747693,Marsvej,8970,1,10.195783,56.649876
1747698,Marsvej,8970,2,10.196727,56.649813
1747704,Marsvej,8970,3,10.196085,56.650116
1747711,Marsvej,8970,4,10.1968662,56.650097
1747714,Marsvej,8970,5,10.196255,56.650339
1747721,Marsvej,8970,6,10.19715,56.650294
1747726,Marsvej,8970,7,10.196423,56.650508
1747731,Marsvej,8970,8,10.197402,56.650507
1747733,Marsvej,8970,9,10.196595,56.6508
1747735,Marsvej,8970,10,10.197734,56.650702
1748199,Vandværksvej,8970,1,10.1932,56.652767
1748200,Vandværksvej,8970,2,10.192982,56.652589
1748202,Vandværksvej,8970,3,10.19359,56.652727
1748204,Vandværksvej,8970,4,10.193372,56.652523
1748205,Vandværksvej,8970,5,10.19411,56.652668
1748208,Vandværksvej,8970,6,10.193712,56.652456
1748209,Vandværksvej,8970,7,10.194437,56.652701
1748212,Vandværksvej,8970,8,10.1942657,56.6524508
1749423,Vognmandsgade,8970,1,10.112047,56.674962
1749424,Vognmandsgade,8970,2,10.112561,56.675326
1749427,Vognmandsgade,8970,3,10.112166,56.675513
1749430,Vognmandsgade,8970,4,10.112557,56.675618
1749433,Vognmandsgade,8970,5,10.112218,56.675875
1749434,Vognmandsgade,8970,6,10.112616,56.675799
1749438,Vognmandsgade,8970,7,10.111961,56.676333
1749440,Vognmandsgade,8970,8,10.112605,56.675971
1749443,Vognmandsgade,8970,9,10.11232,56.67634
1749445,Vognmandsgade,8970,10,10.112657,56.676155
1749449,Vognmandsgade,8970,11,10.112533,56.676358
1749450,Vognmandsgade,8970,12,10.113281,56.675871
1749453,Vognmandsgade,8970,13,10.111524,56.676853
1749457,Vognmandsgade,8970,14,10.114087,56.675939
1749459,Vognmandsgade,8970,15,10.11387,56.676257
1749461,Vognmandsgade,8970,16,10.11495,56.67574
1749462,Vognmandsgade,8970,17,10.1151,56.676162
1749464,Vognmandsgade,8970,18,10.115279,56.675676
1749466,Vognmandsgade,8970,20,10.11527,56.675644
1749467,Vognmandsgade,8970,22,10.115256,56.675607
1751460,Rylevej,8970,3,10.295172,56.617848
1751461,Rylevej,8970,5,10.294748,56.617825
1751463,Rylevej,8970,7,10.294307,56.617794
1751465,Rylevej,8970,8,10.29516,56.61845
1751468,Rylevej,8970,9,10.293882,56.617771
1751469,Rylevej,8970,10,10.295055,56.618217
1751471,Rylevej,8970,11,10.293391,56.617696
1751474,Rylevej,8970,12,10.294801,56.618418
1751475,Rylevej,8970,13,10.293271,56.617993
1751477,Rylevej,8970,14,10.294344,56.618413
1751479,Rylevej,8970,16,10.294386,56.618188
1751480,Rylevej,8970,18,10.293863,56.618149
1751481,Rylevej,8970,20,10.293788,56.618338
1751482,Rylevej,8970,22,10.293265,56.61829
1752088,Toftevejen,8970,1,10.228278,56.607394
1752089,Toftevejen,8970,3,10.2287,56.607336
1752092,Toftevejen,8970,5,10.228962,56.607487
1752094,Toftevejen,8970,11,10.230251,56.606943
1752096,Toftevejen,8970,13,10.230578,56.606958
1752098,Toftevejen,8970,14,10.230543,56.6034
1752100,Toftevejen,8970,16,10.231844,56.606316
1752102,Toftevejen,8970,16A,10.232164,56.606151
1752104,Toftevejen,8970,16B,10.232883,56.605695
1752106,Toftevejen,8970,17A,10.231693,56.606677
1752108,Toftevejen,8970,17B,10.231795,56.606811
1752110,Toftevejen,8970,17C,10.232022,56.606836
1752112,Toftevejen,8970,17D,10.23212,56.60679
1752113,Toftevejen,8970,17E,10.232068,56.606709
1752114,Toftevejen,8970,18,10.232358,56.606581
1752115,Toftevejen,8970,19,10.232158,56.606969
1752116,Toftevejen,8970,21,10.231964,56.607016
1752117,Toftevejen,8970,22,10.232836,56.60725
1752118,Toftevejen,8970,23,10.232261,56.607121
1752119,Toftevejen,8970,25,10.232083,56.607167
1752120,Toftevejen,8970,27,10.232364,56.607281
1752121,Toftevejen,8970,29,10.23217,56.607319
1752122,Toftevejen,8970,31,10.232368,56.607398
1753153,Søndermarksvej,8970,1,10.114174,56.664647
1753154,Søndermarksvej,8970,2,10.108999,56.667354
1753155,Søndermarksvej,8970,3,10.112409,56.658836
1753156,Søndermarksvej,8970,4,10.112706,56.664609
1753157,Søndermarksvej,8970,6,10.109919,56.663434
1753158,Søndermarksvej,8970,8,10.110831,56.659931
1753254,Hummelbækvej,8970,2,10.313051,56.630077
1753256,Hummelbækvej,8970,5,10.312406,56.629815
1753258,Hummelbækvej,8970,8,10.311819,56.63045
1753261,Hummelbækvej,8970,9,10.311451,56.630032
1754860,Tværvej,8970,2,10.196105,56.65282
1754861,Tværvej,8970,4,10.196397,56.65279
1754862,Tværvej,8970,6,10.196788,56.652741
1754863,Tværvej,8970,8,10.197112,56.652684
1754864,Tværvej,8970,10,10.197358,56.652718
1755121,Ved Dammen,8970,1,10.233107,56.609089
1755122,Ved Dammen,8970,3,10.232886,56.608804
1755124,Ved Dammen,8970,4,10.232698,56.6090467
1755126,Ved Dammen,8970,5,10.232892,56.608471
1755129,Ved Dammen,8970,6,10.232383,56.60888
1755131,Ved Dammen,8970,7,10.233027,56.608128
1755132,Ved Dammen,8970,9,10.233212,56.607812
1755133,Ved Dammen,8970,9A,10.233205,56.607588
1755135,Ved Dammen,8970,13,10.231728,56.607261
1755137,Ved Dammen,8970,17,10.23095,56.60752
1755140,Ved Dammen,8970,18,10.230982,56.607879
1755141,Ved Dammen,8970,19,10.230701,56.607747
1755143,Ved Dammen,8970,20,10.230772,56.607926
1755144,Ved Dammen,8970,21,10.230444,56.607867
1755145,Ved Dammen,8970,21A,10.230573,56.607829
1755146,Ved Dammen,8970,21B,10.230396,56.607885
1755147,Ved Dammen,8970,22,10.2305,56.608073
1755148,Ved Dammen,8970,23,10.230024,56.607978
1755149,Ved Dammen,8970,25,10.229784,56.608089
1755150,Ved Dammen,8970,27,10.229644,56.608306
1755151,Ved Dammen,8970,28A,10.229818,56.608636
1755152,Ved Dammen,8970,28B,10.229903,56.608752
1755153,Ved Dammen,8970,31,10.229357,56.608479
1755944,Stenhøjvej,8970,1,10.221243,56.634211
1755945,Stenhøjvej,8970,2,10.221949,56.633881
1755948,Stenhøjvej,8970,3,10.221276,56.63475
1755951,Stenhøjvej,8970,4,10.222933,56.634041
1755953,Stenhøjvej,8970,5,10.221562,56.635025
1755956,Stenhøjvej,8970,6,10.221808,56.634556
1755959,Stenhøjvej,8970,7,10.221719,56.63532
1755960,Stenhøjvej,8970,8,10.222133,56.634534
1755962,Stenhøjvej,8970,10,10.221818,56.634852
1755963,Stenhøjvej,8970,15,10.222166,56.636556
1755964,Stenhøjvej,8970,16,10.222834,56.636028
1755965,Stenhøjvej,8970,17,10.222419,56.636796
1755966,Stenhøjvej,8970,19,10.222653,56.637
1755967,Stenhøjvej,8970,22,10.223924,56.637455
1755968,Stenhøjvej,8970,23,10.223302,56.637407
1755969,Stenhøjvej,8970,24,10.224211,56.637767
1755971,Stenhøjvej,8970,25,10.221524,56.637865
1755973,Stenhøjvej,8970,27,10.223608,56.637773
1755975,Stenhøjvej,8970,29,10.223894,56.638048
1755977,Stenhøjvej,8970,31,10.224961,56.639296
1756614,Borgergade,8970,2,10.211397,56.595582
1756616,Borgergade,8970,3,10.211814,56.596899
1756618,Borgergade,8970,4,10.213086,56.595943
1756620,Borgergade,8970,7,10.212312,56.596688
1756621,Borgergade,8970,8,10.213553,56.596801
1756622,Borgergade,8970,11,10.212382,56.596849
1756623,Borgergade,8970,12,10.212794,56.596988
1756624,Borgergade,8970,13,10.212309,56.59711
1756627,Borgergade,8970,14,10.212736,56.597223
1756628,Borgergade,8970,15,10.212154,56.597363
1756629,Borgergade,8970,17,10.211812,56.597348
1756632,Borgergade,8970,21,10.211137,56.597633
1756635,Borgergade,8970,22,10.213693,56.597591
1756636,Borgergade,8970,24,10.212616,56.597547
1756637,Borgergade,8970,25,10.211894,56.597887
1756640,Borgergade,8970,27,10.212109,56.598001
1756642,Borgergade,8970,28,10.212606,56.597745
1756643,Borgergade,8970,30,10.213106,56.59809
1756646,Borgergade,8970,31,10.21178,56.598382
1756647,Borgergade,8970,34,10.212489,56.598168
1756649,Borgergade,8970,38,10.212644,56.598913
1757837,Strandvej,8970,1,10.312387,56.628818
1757838,Strandvej,8970,5,10.313228,56.62862
1757840,Strandvej,8970,7,10.31371,56.628399
1757842,Strandvej,8970,10,10.311587,56.622662
1757845,Strandvej,8970,14,10.31591,56.624171
1757846,Strandvej,8970,18,10.317808,56.623459
1757847,Strandvej,8970,20,10.313416,56.616668
1757849,Strandvej,8970,22,10.3174377,56.6220885
1757851,Strandvej,8970,36,10.324031,56.621021
1757852,Strandvej,8970,38,10.323844,56.620825
1757853,Strandvej,8970,40,10.324359,56.620622
1757854,Strandvej,8970,42,10.324531,56.620881
1757855,Strandvej,8970,44,10.325141,56.620614
1757856,Strandvej,8970,46,10.325035,56.620381
1757857,Strandvej,8970,48,10.325656,56.620429
1758638,Festpladsen,8970,1,10.196915,56.653675
1758642,Festpladsen,8970,2,10.197363,56.654416
1758644,Festpladsen,8970,3,10.196546,56.653876
1758647,Festpladsen,8970,4,10.19721,56.654229
1761739,Ved Kirken,8970,1,10.15636,56.643411
1761740,Ved Kirken,8970,2,10.157253,56.642235
1761743,Ved Kirken,8970,3,10.158052,56.642766
1761744,Ved Kirken,8970,4,10.157281,56.642594
1761969,Skægsbjergvej,8970,12,10.234694,56.606782
1761970,Skægsbjergvej,8970,31,10.246099,56.602374
1761973,Skægsbjergvej,8970,34,10.245984,56.601359
1761976,Skægsbjergvej,8970,37,10.253009,56.600489
1761979,Skægsbjergvej,8970,41,10.253049,56.602205
1762448,Kondrupvej,8970,27,10.14338,56.62726
1762449,Kondrupvej,8970,28,10.133951,56.622674
1762450,Kondrupvej,8970,29,10.146023,56.62949
1762451,Kondrupvej,8970,30,10.142483,56.626172
1762452,Kondrupvej,8970,31,10.141945,56.629923
1762453,Kondrupvej,8970,32,10.142822,56.626582
1762454,Kondrupvej,8970,33,10.143666,56.632953
1762455,Kondrupvej,8970,34,10.143331,56.626712
1762456,Kondrupvej,8970,35,10.138262,56.633218
1762458,Kondrupvej,8970,36,10.146471,56.627051
1762460,Kondrupvej,8970,37,10.144032,56.634271
1762461,Kondrupvej,8970,38,10.150359,56.631095
1762462,Kondrupvej,8970,40,10.152639,56.632628
1763064,Krogen,8970,1,10.326677,56.620723
1763065,Krogen,8970,3,10.32691,56.620874
1763066,Krogen,8970,5,10.327313,56.621202
1763067,Krogen,8970,7,10.327649,56.621504
1763215,Havnøvej,8970,1,10.32115,56.622067
1763216,Havnøvej,8970,2,10.320671,56.622351
1763217,Havnøvej,8970,3,10.321355,56.621885
1763218,Havnøvej,8970,4,10.320345,56.621905
1763219,Havnøvej,8970,5,10.321711,56.62181
1763220,Havnøvej,8970,6,10.320651,56.621785
1763221,Havnøvej,8970,7,10.322178,56.621634
1763223,Havnøvej,8970,8,10.321005,56.621655
1763225,Havnøvej,8970,9,10.322552,56.621621
1763226,Havnøvej,8970,10,10.321325,56.62149
1763227,Havnøvej,8970,11,10.322722,56.62135
1763229,Havnøvej,8970,12,10.321681,56.621406
1763231,Havnøvej,8970,13,10.323125,56.621219
1763232,Havnøvej,8970,14,10.322035,56.621276
1763235,Havnøvej,8970,15,10.323398,56.621109
1763237,Havnøvej,8970,16,10.322387,56.621093
1763238,Havnøvej,8970,18,10.322757,56.620954
1763241,Havnøvej,8970,20,10.323011,56.620762
1763242,Havnøvej,8970,22,10.323397,56.620615
1763244,Havnøvej,8970,24,10.32375,56.620449
1763247,Havnøvej,8970,26,10.324318,56.62038
1763512,Udbynedervej,8970,1,10.22927,56.653952
1763514,Udbynedervej,8970,3,10.234804,56.656584
1763517,Udbynedervej,8970,4,10.239309,56.655659
1763520,Udbynedervej,8970,5,10.228172,56.658312
1763524,Udbynedervej,8970,5B,10.235183,56.657703
1763526,Udbynedervej,8970,6,10.235664,56.657923
1763530,Udbynedervej,8970,7,10.235181,56.658135
1763532,Udbynedervej,8970,8,10.235695,56.65839
1763535,Udbynedervej,8970,9,10.235223,56.658422
1763539,Udbynedervej,8970,10,10.235509,56.65867
1763541,Udbynedervej,8970,11,10.235263,56.658637
1763542,Udbynedervej,8970,12,10.235518,56.658958
1763543,Udbynedervej,8970,14,10.236168,56.658889
1763544,Udbynedervej,8970,15,10.234561,56.659129
1763545,Udbynedervej,8970,16,10.236037,56.659348
1763546,Udbynedervej,8970,17,10.235161,56.65951
1763547,Udbynedervej,8970,17B,10.235183,56.659698
1763548,Udbynedervej,8970,18,10.235675,56.66025
1763549,Udbynedervej,8970,19,10.235107,56.659852
1763550,Udbynedervej,8970,20,10.236918,56.660849
1763551,Udbynedervej,8970,21,10.23522,56.660327
1763552,Udbynedervej,8970,23A,10.235605,56.660628
1763553,Udbynedervej,8970,24,10.238898,56.66153
1763554,Udbynedervej,8970,25,10.23595,56.660688
1763555,Udbynedervej,8970,26,10.238227,56.661968
1763556,Udbynedervej,8970,27,10.235033,56.66058
1763557,Udbynedervej,8970,28,10.237971,56.662132
1763558,Udbynedervej,8970,29,10.234589,56.660962
1763560,Udbynedervej,8970,30,10.23793,56.662357
1763562,Udbynedervej,8970,31,10.237012,56.661234
1763565,Udbynedervej,8970,32,10.237964,56.662402
1763566,Udbynedervej,8970,33,10.237309,56.661348
1763569,Udbynedervej,8970,34,10.238102,56.662616
1763570,Udbynedervej,8970,35,10.237563,56.661624
1763573,Udbynedervej,8970,36,10.238123,56.662786
1763576,Udbynedervej,8970,37,10.237519,56.661777
1763577,Udbynedervej,8970,38,10.238239,56.663325
1763578,Udbynedervej,8970,39,10.23714,56.66214
1763579,Udbynedervej,8970,40,10.238342,56.663494
1763580,Udbynedervej,8970,41,10.237682,56.662252
1763581,Udbynedervej,8970,42,10.238463,56.663691
1763582,Udbynedervej,8970,43,10.237642,56.662549
1763583,Udbynedervej,8970,44,10.238713,56.66385
1763586,Udbynedervej,8970,45,10.237321,56.662687
1763587,Udbynedervej,8970,49,10.237656,56.662953
1763588,Udbynedervej,8970,51,10.236441,56.663225
1763589,Udbynedervej,8970,53,10.237506,56.663359
1763893,Færgevej,8970,1,10.296485,56.62238
1763895,Færgevej,8970,4,10.295935,56.622521
1763897,Færgevej,8970,5,10.296747,56.619565
1763898,Færgevej,8970,7,10.296735,56.61873
1763901,Færgevej,8970,9,10.29671,56.618496
1763902,Færgevej,8970,11,10.296811,56.618118
1763904,Færgevej,8970,12,10.295883,56.618146
1763906,Færgevej,8970,13,10.296635,56.617725
1763908,Færgevej,8970,14,10.295886,56.617759
1763910,Færgevej,8970,15,10.305206,56.618632
1763911,Færgevej,8970,17,10.296552,56.617222
1763914,Færgevej,8970,19,10.296819,56.616932
1763916,Færgevej,8970,21,10.296893,56.616707
1763917,Færgevej,8970,23,10.297049,56.616498
1763918,Færgevej,8970,25,10.297727,56.616303
1763919,Færgevej,8970,27,10.297057,56.616247
1763920,Færgevej,8970,28,10.296091,56.617083
1763921,Færgevej,8970,30,10.29624,56.616668
1763922,Færgevej,8970,31,10.297502,56.615928
1763923,Færgevej,8970,32,10.29623,56.616381
1763924,Færgevej,8970,33,10.296809,56.615683
1763925,Færgevej,8970,34,10.296284,56.616039
1763926,Færgevej,8970,35,10.296785,56.61545
1763927,Færgevej,8970,36,10.29632,56.615679
1763928,Færgevej,8970,37,10.297071,56.615249
1763929,Færgevej,8970,38,10.296423,56.615337
1763930,Færgevej,8970,39,10.297179,56.61505
1763931,Færgevej,8970,40,10.296381,56.615059
1763932,Færgevej,8970,41,10.297221,56.614852
1763933,Færgevej,8970,44,10.2963,56.614143
1763934,Færgevej,8970,44A,10.29668,56.614292
1763935,Færgevej,8970,44B,10.296668,56.6144
1763936,Færgevej,8970,45,10.297308,56.614555
1763937,Færgevej,8970,47,10.297179,56.614107
1763938,Færgevej,8970,48,10.296764,56.613428
1763939,Færgevej,8970,50,10.296642,56.613196
1763940,Færgevej,8970,52,10.296847,56.612987
1763941,Færgevej,8970,54,10.296874,56.6127446
1763942,Færgevej,8970,54A,10.296856,56.612772
1763943,Færgevej,8970,54B,10.296644,56.612765
1763945,Færgevej,8970,56,10.296881,56.612556
1763946,Færgevej,8970,58,10.296893,56.612412
1763947,Færgevej,8970,59,10.297286,56.612615
1763948,Færgevej,8970,60,10.296936,56.612259
1763949,Færgevej,8970,61,10.297591,56.612333
1763950,Færgevej,8970,62,10.296689,56.612162
1763951,Færgevej,8970,64,10.297044,56.612069
1763952,Færgevej,8970,65,10.297637,56.611775
1763953,Færgevej,8970,67,10.297907,56.611098
1763954,Færgevej,8970,68,10.297071,56.61144
1763956,Færgevej,8970,69,10.298179,56.610494
1763957,Færgevej,8970,74,10.297629,56.610122
1763958,Færgevej,8970,76,10.297244,56.60983
1763959,Færgevej,8970,80,10.298951,56.609717
1763987,Galgevangsvej,8970,3,10.184092,56.633303
1763988,Galgevangsvej,8970,8,10.179523,56.633706
1763989,Galgevangsvej,8970,10,10.175301,56.635291
1763990,Galgevangsvej,8970,11,10.177704,56.633939
1764658,Åmøllevej,8970,2,10.1151945,56.6748221
1764659,Åmøllevej,8970,4,10.115544,56.67499
1764660,Åmøllevej,8970,5,10.115599,56.675994
1764662,Åmøllevej,8970,6,10.115639,56.675235
1764663,Åmøllevej,8970,7,10.115232,56.676431
1764664,Åmøllevej,8970,8,10.115854,56.67564
1764666,Åmøllevej,8970,8B,10.1165477,56.6755
1764667,Åmøllevej,8970,9,10.115235,56.676706
1764668,Åmøllevej,8970,10,10.116771,56.67548
1764669,Åmøllevej,8970,11,10.114655,56.676894
1764670,Åmøllevej,8970,12,10.116218,56.675849
1764672,Åmøllevej,8970,13,10.114794,56.67709
1764674,Åmøllevej,8970,14,10.116164,56.676076
1764675,Åmøllevej,8970,15A,10.111784,56.677177
1764676,Åmøllevej,8970,15B,10.11212,56.677087
1764678,Åmøllevej,8970,16,10.115731,56.676603
1764679,Åmøllevej,8970,17,10.114556,56.677275
1764680,Åmøllevej,8970,18,10.115107,56.677214
1764681,Åmøllevej,8970,19,10.114276,56.677446
1764682,Åmøllevej,8970,20,10.114743,56.677536
1764683,Åmøllevej,8970,21,10.114021,56.677713
1764684,Åmøllevej,8970,22,10.114365,56.677861
1764685,Åmøllevej,8970,23,10.113677,56.678023
1764686,Åmøllevej,8970,24A,10.114285,56.678097
1764687,Åmøllevej,8970,25,10.113393,56.677743
1764689,Åmøllevej,8970,27,10.111802,56.677789
1764691,Åmøllevej,8970,29,10.113148,56.678333
1765325,Hedevej,8970,1,10.221916,56.594509
1765326,Hedevej,8970,2,10.221574,56.593515
1765328,Hedevej,8970,4,10.223656,56.594438
1765330,Hedevej,8970,5,10.223186,56.595503
1765332,Hedevej,8970,7,10.223173,56.596123
1765334,Hedevej,8970,8,10.224018,56.596061
1765335,Hedevej,8970,10,10.22452,56.596981
1765336,Hedevej,8970,13,10.224041,56.598289
1765338,Hedevej,8970,15,10.224919,56.59872
1765340,Hedevej,8970,20,10.226368,56.600234
1765342,Hedevej,8970,22,10.226881,56.600983
1765343,Hedevej,8970,24,10.22697,56.601216
1765344,Hedevej,8970,28,10.227067,56.602446
1765346,Hedevej,8970,29,10.226519,56.602379
1765347,Hedevej,8970,31,10.226136,56.602626
1765348,Hedevej,8970,33,10.225815,56.602773
1765349,Hedevej,8970,36,10.225577,56.603449
1765350,Hedevej,8970,37,10.225038,56.602915
1765351,Hedevej,8970,38,10.22529,56.603658
1765352,Hedevej,8970,39,10.224949,56.603186
1765353,Hedevej,8970,40,10.224934,56.603743
1765354,Hedevej,8970,41,10.224594,56.603297
1765594,Havndalvej,8970,47,10.090924,56.648783
1765596,Havndalvej,8970,49,10.096492,56.647175
1765598,Havndalvej,8970,51,10.097592,56.649996
1765599,Havndalvej,8970,52,10.105022,56.645333
1765600,Havndalvej,8970,53,10.102142,56.646113
1765601,Havndalvej,8970,54,10.105794,56.643751
1765602,Havndalvej,8970,55,10.100222,56.648744
1765603,Havndalvej,8970,56,10.116602,56.643947
1765604,Havndalvej,8970,57,10.104069,56.646112
1765605,Havndalvej,8970,59A,10.104605,56.647391
1765606,Havndalvej,8970,59B,10.104011,56.647365
1765607,Havndalvej,8970,61,10.106887,56.648846
1765709,Bavnehøjvej,8970,5,10.20023,56.624011
1765710,Bavnehøjvej,8970,9,10.199164,56.626905
1765712,Bavnehøjvej,8970,15,10.19757,56.631117
1765714,Bavnehøjvej,8970,19,10.197426,56.631702
1766480,Fjordvej,8970,8,10.232264,56.582188
1766483,Fjordvej,8970,14,10.23313,56.580283
1766485,Fjordvej,8970,17,10.234041,56.579771
1766487,Fjordvej,8970,21,10.234208,56.582402
1766727,Havnevej,8970,3,10.298369,56.612226
1766728,Havnevej,8970,4,10.298175,56.611796
1766729,Havnevej,8970,5,10.298858,56.61223
1766730,Havnevej,8970,7,10.299248,56.612207
1766731,Havnevej,8970,8,10.299297,56.611722
1766732,Havnevej,8970,9,10.299999,56.612245
1766733,Havnevej,8970,10,10.299884,56.611743
1766734,Havnevej,8970,11,10.300502,56.612167
1766735,Havnevej,8970,12,10.300651,56.61178
1766736,Havnevej,8970,13,10.300908,56.612145
1766737,Havnevej,8970,14,10.30122,56.611738
1766738,Havnevej,8970,15,10.3013,56.612159
1766739,Havnevej,8970,16,10.301824,56.611767
1766740,Havnevej,8970,17,10.302036,56.61225
1766741,Havnevej,8970,18,10.302591,56.611795
1766742,Havnevej,8970,19,10.302718,56.61218
1766743,Havnevej,8970,20,10.303192,56.611744
1766744,Havnevej,8970,21,10.303349,56.612057
1766745,Havnevej,8970,22A,10.303649,56.611766
1766746,Havnevej,8970,22B,10.303647,56.611721
1766747,Havnevej,8970,22C,10.303662,56.611685
1766748,Havnevej,8970,22D,10.303661,56.611649
1766749,Havnevej,8970,22E,10.304059,56.611843
1766750,Havnevej,8970,24,10.304641,56.61172
1766751,Havnevej,8970,25,10.304067,56.612085
1766752,Havnevej,8970,26,10.305068,56.611814
1766753,Havnevej,8970,27,10.304359,56.612055
1766754,Havnevej,8970,29,10.30432,56.612343
1766755,Havnevej,8970,31,10.304759,56.612294
1766756,Havnevej,8970,33,10.30475,56.612042
1766757,Havnevej,8970,35,10.305141,56.612029
1766758,Havnevej,8970,37,10.305422,56.612009
1766759,Havnevej,8970,58,10.305525,56.611639
1766761,Havnevej,8970,60,10.306126,56.611591
1766762,Havnevej,8970,62,10.305345,56.611551
1766781,Stenkildevej,8970,1,10.217123,56.666264
1766783,Stenkildevej,8970,2,10.215609,56.665362
1766788,Stenkildevej,8970,3,10.216292,56.665796
1766789,Stenkildevej,8970,5,10.228822,56.663247
1766793,Stenkildevej,8970,6,10.228878,56.662267
1766794,Stenkildevej,8970,7,10.229655,56.662772
1766795,Stenkildevej,8970,8,10.233358,56.661738
1766796,Stenkildevej,8970,8B,10.234006,56.661606
1766797,Stenkildevej,8970,9,10.234092,56.661757
1766798,Stenkildevej,8970,10,10.234877,56.6613
1766799,Stenkildevej,8970,11,10.234726,56.661688
1766800,Stenkildevej,8970,12,10.235485,56.660944
1766801,Stenkildevej,8970,13,10.234945,56.661875
1766802,Stenkildevej,8970,14,10.235811,56.660923
1766803,Stenkildevej,8970,15,10.234718,56.661931
1766806,Stenkildevej,8970,17,10.232204,56.665388
1766809,Stenkildevej,8970,19,10.235637,56.661598
1766812,Stenkildevej,8970,21,10.236359,56.661232
1766819,Stenkildevej,8970,25,10.236715,56.661138
1766820,Stenkildevej,8970,27,10.2368,56.661236
1767476,Fuglsøgårdsvej,8970,1,10.214211,56.666535
1767477,Fuglsøgårdsvej,8970,3,10.212167,56.666923
1767478,Fuglsøgårdsvej,8970,5,10.207962,56.67116
1767479,Fuglsøgårdsvej,8970,7,10.207632,56.671037
1767480,Fuglsøgårdsvej,8970,99,10.21386,56.675415
1767680,Grønnevej,8970,1,10.115997,56.674466
1767681,Grønnevej,8970,2,10.115698,56.673971
1767682,Grønnevej,8970,3,10.116118,56.674276
1767699,Granlyvej,8970,1,10.116158,56.676809
1767700,Granlyvej,8970,2,10.116428,56.676559
1767701,Granlyvej,8970,3,10.116817,56.677996
1767702,Granlyvej,8970,5,10.118499,56.68063
1767927,Kirkegyden,8970,5,10.195715,56.620919
1767928,Kirkegyden,8970,6,10.195357,56.62094
1767929,Kirkegyden,8970,7,10.195677,56.620748
1768099,Dalbyovervej,8970,88,10.198583,56.618851
1768100,Dalbyovervej,8970,94,10.198643,56.61921
1768101,Dalbyovervej,8970,96,10.198522,56.61949
1768102,Dalbyovervej,8970,98,10.198581,56.619822
1768359,Pedersmindevej,8970,1,10.154107,56.643863
1768361,Pedersmindevej,8970,2A,10.153338,56.64378
1768363,Pedersmindevej,8970,2B,10.15345,56.643716
1768364,Pedersmindevej,8970,3,10.15397,56.643667
1768365,Pedersmindevej,8970,4,10.153626,56.643589
1768366,Pedersmindevej,8970,5,10.15431,56.643556
1768367,Pedersmindevej,8970,6,10.152915,56.643263
1768368,Pedersmindevej,8970,7,10.154437,56.643447
1768369,Pedersmindevej,8970,8A,10.153651,56.643346
1768370,Pedersmindevej,8970,8B,10.15422,56.643287
1768371,Pedersmindevej,8970,8C,10.153949,56.643505
1768372,Pedersmindevej,8970,9,10.154823,56.643263
1768373,Pedersmindevej,8970,10,10.154624,56.643158
1768374,Pedersmindevej,8970,11,10.154927,56.643469
1768375,Pedersmindevej,8970,12A,10.154865,56.643039
1768376,Pedersmindevej,8970,12B,10.155263,56.642747
1768377,Pedersmindevej,8970,13,10.155593,56.6434
1768378,Pedersmindevej,8970,14,10.155491,56.642206
1768379,Pedersmindevej,8970,15,10.155941,56.642516
1768380,Pedersmindevej,8970,16,10.155615,56.641971
1768381,Pedersmindevej,8970,18,10.15565,56.641513
1768382,Pedersmindevej,8970,20,10.155588,56.64057
1768384,Pedersmindevej,8970,22,10.153435,56.640006
1768385,Pedersmindevej,8970,24,10.155125,56.640359
1768615,Overgårdsvej,8970,1,10.235801,56.668102
1768617,Overgårdsvej,8970,2,10.242807,56.666792
1768619,Overgårdsvej,8970,4,10.245756,56.671605
1768621,Overgårdsvej,8970,5,10.242307,56.674426
1768623,Overgårdsvej,8970,5B,10.242429,56.67463
1768625,Overgårdsvej,8970,6,10.253493,56.671645
1768626,Overgårdsvej,8970,7,10.246684,56.67351
1768627,Overgårdsvej,8970,8,10.256409,56.669698
1768628,Overgårdsvej,8970,10,10.24704,56.673407
1768629,Overgårdsvej,8970,12,10.266428,56.686527
1768630,Overgårdsvej,8970,12B,10.267612,56.686315
1768631,Overgårdsvej,8970,14,10.267145,56.686987
1768632,Overgårdsvej,8970,16,10.267323,56.686932
1768633,Overgårdsvej,8970,18,10.24991,56.68222
1768634,Overgårdsvej,8970,20,10.24998,56.682345
1768635,Overgårdsvej,8970,24,10.249738,56.683425
1768636,Overgårdsvej,8970,26,10.24988,56.683613
1768637,Overgårdsvej,8970,28,10.249663,56.684226
1768638,Overgårdsvej,8970,30,10.248924,56.683505
1768639,Overgårdsvej,8970,32,10.248961,56.683631
1768640,Overgårdsvej,8970,34,10.248965,56.68373
1768641,Overgårdsvej,8970,36,10.248508,56.683752
1768642,Overgårdsvej,8970,38,10.248671,56.683742
1768643,Overgårdsvej,8970,40,10.246671,56.68448
1768644,Overgårdsvej,8970,42,10.24675,56.684884
1768645,Overgårdsvej,8970,44,10.247084,56.685608
1768983,Vestervangsvej,8970,3,10.220386,56.634453
1768985,Vestervangsvej,8970,4,10.220557,56.634694
1768987,Vestervangsvej,8970,5,10.219731,56.634369
1768990,Vestervangsvej,8970,6,10.21984,56.634701
1768992,Vestervangsvej,8970,9,10.219662,56.633723
1768993,Vestervangsvej,8970,10,10.218814,56.634217
1768994,Vestervangsvej,8970,13,10.218615,56.633123
1768995,Vestervangsvej,8970,15,10.218406,56.632199
1768996,Vestervangsvej,8970,20,10.215753,56.629287
1768997,Vestervangsvej,8970,25,10.216491,56.628408
1768998,Vestervangsvej,8970,37,10.218248,56.625264
1768999,Vestervangsvej,8970,40,10.217074,56.623218
1769012,Østre Alle,8970,1,10.202105,56.651711
1769013,Østre Alle,8970,2,10.202013,56.651388
1769014,Østre Alle,8970,3,10.203114,56.651647
1769015,Østre Alle,8970,4,10.201991,56.651209
1769016,Østre Alle,8970,5,10.203927,56.651576
1769017,Østre Alle,8970,6,10.201835,56.650923
1769018,Østre Alle,8970,8,10.202725,56.65122
1769019,Østre Alle,8970,10,10.203328,56.651187
1770479,Kronjydevej,8970,1,10.19275,56.652978
1770481,Kronjydevej,8970,2,10.192483,56.653313
1770483,Kronjydevej,8970,3,10.192394,56.651535
1770484,Kronjydevej,8970,4,10.192423,56.652954
1770485,Kronjydevej,8970,4A,10.192405,56.652919
1770486,Kronjydevej,8970,4B,10.192436,56.652855
1770487,Kronjydevej,8970,4C,10.192211,56.652956
1770488,Kronjydevej,8970,4D,10.192057,56.65296
1770489,Kronjydevej,8970,6,10.192266,56.65265
1770490,Kronjydevej,8970,8,10.19218,56.652507
1770491,Kronjydevej,8970,9,10.192778,56.651214
1770492,Kronjydevej,8970,10,10.192126,56.652328
1770493,Kronjydevej,8970,11,10.192301,56.651158
1770494,Kronjydevej,8970,12,10.192099,56.652005
1770495,Kronjydevej,8970,13,10.192276,56.650898
1770496,Kronjydevej,8970,14,10.192028,56.651817
1770497,Kronjydevej,8970,15,10.19217,56.650638
1770498,Kronjydevej,8970,16,10.191973,56.651611
1770499,Kronjydevej,8970,17,10.191872,56.650499
1770500,Kronjydevej,8970,18,10.191532,56.651615
1770501,Kronjydevej,8970,20,10.19149,56.651319
1770502,Kronjydevej,8970,22,10.191813,56.651208
1770503,Kronjydevej,8970,24,10.191605,56.650832
1770504,Kronjydevej,8970,26,10.19156,56.650411
1771553,Nebstrupvej,8970,1,10.115005,56.674344
1771554,Nebstrupvej,8970,2,10.11429,56.674517
1771555,Nebstrupvej,8970,3,10.114982,56.674219
1771556,Nebstrupvej,8970,4,10.114323,56.674327
1771558,Nebstrupvej,8970,5,10.115051,56.673922
1771559,Nebstrupvej,8970,6,10.114172,56.673593
1771560,Nebstrupvej,8970,7,10.115807,56.673697
1771561,Nebstrupvej,8970,8,10.121773,56.665067
1771562,Nebstrupvej,8970,9,10.115204,56.673606
1771563,Nebstrupvej,8970,10,10.120936,56.664959
1771564,Nebstrupvej,8970,11,10.115233,56.673351
1771565,Nebstrupvej,8970,12,10.124044,56.664515
1771566,Nebstrupvej,8970,13,10.115467,56.673169
1771567,Nebstrupvej,8970,14,10.12459,56.660971
1771568,Nebstrupvej,8970,15,10.116068,56.673316
1771569,Nebstrupvej,8970,16,10.121427,56.661251
1771570,Nebstrupvej,8970,17,10.116444,56.673195
1771571,Nebstrupvej,8970,18,10.121562,56.659688
1771573,Nebstrupvej,8970,18B,10.130928,56.661102
1771574,Nebstrupvej,8970,19,10.117642,56.673501
1771576,Nebstrupvej,8970,20A,10.134171,56.659515
1771577,Nebstrupvej,8970,20B,10.127076,56.653893
1771578,Nebstrupvej,8970,21,10.128429,56.66965
1771579,Nebstrupvej,8970,22,10.135419,56.659911
1771580,Nebstrupvej,8970,23,10.125315,56.670473
1771581,Nebstrupvej,8970,24,10.137118,56.660094
1771582,Nebstrupvej,8970,25,10.131644,56.671654
1771584,Nebstrupvej,8970,26,10.137802,56.6607
1771585,Nebstrupvej,8970,27,10.122068,56.668703
1771586,Nebstrupvej,8970,28,10.141671,56.661081
1771587,Nebstrupvej,8970,29,10.12291,56.66671
1771588,Nebstrupvej,8970,30,10.14975,56.655867
1771590,Nebstrupvej,8970,31,10.124558,56.665146
1771591,Nebstrupvej,8970,32,10.154303,56.658531
1771592,Nebstrupvej,8970,33,10.133702,56.66262
1771593,Nebstrupvej,8970,35,10.143651,56.662089
1771594,Nebstrupvej,8970,37,10.14909,56.660402
1771596,Nebstrupvej,8970,41,10.153246,56.660345
1772069,Under Bakken,8970,4,10.311844,56.629614
1772070,Under Bakken,8970,5,10.309312,56.630854
1772071,Under Bakken,8970,9,10.309133,56.633695
1772072,Under Bakken,8970,13,10.312258,56.634965
1772073,Under Bakken,8970,16,10.31629,56.633691
1772074,Under Bakken,8970,17,10.307378,56.63764
1772075,Under Bakken,8970,20,10.314919,56.635521
1772076,Under Bakken,8970,21,10.314218,56.637388
1772077,Under Bakken,8970,25,10.308536,56.640467
1772078,Under Bakken,8970,26,10.31624,56.640224
1772079,Under Bakken,8970,27,10.313549,56.639273
1772080,Under Bakken,8970,33,10.31647,56.644471
1772081,Under Bakken,8970,37,10.320964,56.646607
1772082,Under Bakken,8970,41,10.324476,56.646758
1772083,Under Bakken,8970,43,10.328383,56.646115
1772084,Under Bakken,8970,47,10.329755,56.646154
1772085,Under Bakken,8970,49,10.332649,56.645916
1772086,Under Bakken,8970,51,10.337307,56.64619
1772087,Under Bakken,8970,55,10.34041,56.645851
1772088,Under Bakken,8970,57,10.341624,56.645604
1772091,Under Bakken,8970,67,10.351932,56.644262
1772243,Råby Møllevej,8970,6,10.25082,56.609649
1772244,Råby Møllevej,8970,9,10.251799,56.60972
1772245,Råby Møllevej,8970,10,10.25011,56.609396
1772246,Råby Møllevej,8970,12,10.249503,56.608773
1772247,Råby Møllevej,8970,17,10.25259,56.609002
1772248,Råby Møllevej,8970,18,10.250901,56.608184
1772249,Fynsvej,8970,3,10.176351,56.648224
1772253,Lyshøj Møllevej,8970,1,10.209523,56.652115
1772254,Lyshøj Møllevej,8970,2,10.209799,56.650558
1772255,Lyshøj Møllevej,8970,3,10.20996,56.651509
1772256,Lyshøj Møllevej,8970,4,10.210305,56.651083
1772257,Lyshøj Møllevej,8970,5,10.211118,56.651003
1772258,Lyshøj Møllevej,8970,5B,10.211092,56.651193
1772259,Lyshøj Møllevej,8970,6,10.211059,56.65069
1772260,Lyshøj Møllevej,8970,7,10.211575,56.65082
1772261,Lyshøj Møllevej,8970,8,10.211351,56.650642
1772262,Lyshøj Møllevej,8970,9,10.212088,56.650743
1772263,Lyshøj Møllevej,8970,10,10.211693,56.650603
1772264,Lyshøj Møllevej,8970,11,10.212443,56.650604
1772265,Lyshøj Møllevej,8970,12,10.226921,56.649411
1772266,Lyshøj Møllevej,8970,13,10.213012,56.650545
1772268,Lyshøj Møllevej,8970,14,10.230917,56.649426
1772269,Lyshøj Møllevej,8970,15,10.213453,56.650558
1772275,Lyshøj Møllevej,8970,17B,10.217116,56.654413
1772279,Lyshøj Møllevej,8970,17C,10.215075,56.655367
1772282,Lyshøj Møllevej,8970,19,10.220087,56.654995
1772283,Lyshøj Møllevej,8970,21,10.216275,56.654637
1772287,Lyshøj Møllevej,8970,23,10.220956,56.654618
1772289,Lyshøj Møllevej,8970,25,10.214452,56.650693
1772292,Lyshøj Møllevej,8970,27,10.215039,56.650687
1772296,Lyshøj Møllevej,8970,29,10.2156041,56.650709
1772297,Lyshøj Møllevej,8970,31,10.225463,56.650234
1772738,Vesterskovmark,8970,1,10.218689,56.675853
1772739,Vesterskovmark,8970,2,10.219186,56.670026
1772740,Vesterskovmark,8970,3,10.21899,56.67709
1772741,Vesterskovmark,8970,4,10.221916,56.671671
1772742,Vesterskovmark,8970,5,10.21888,56.677711
1772743,Vesterskovmark,8970,6,10.22445,56.679876
1772744,Vesterskovmark,8970,7,10.215791,56.67811
1772745,Vesterskovmark,8970,8,10.227898,56.679321
1772746,Vesterskovmark,8970,9,10.222396,56.676913
1772747,Vesterskovmark,8970,10,10.229302,56.679496
1772748,Vesterskovmark,8970,11,10.223837,56.680089
1772749,Vesterskovmark,8970,12,10.22995,56.679831
1772750,Vesterskovmark,8970,13,10.224499,56.680388
1772751,Vesterskovmark,8970,14,10.23081,56.679866
1772752,Vesterskovmark,8970,15,10.228774,56.679833
1772753,Vesterskovmark,8970,17,10.230976,56.681752
1772865,Nordbakken,8970,2,10.332486,56.62094
1772866,Nordbakken,8970,3,10.332127,56.621384
1772867,Nordbakken,8970,4,10.332925,56.620908
1772868,Nordbakken,8970,5,10.332798,56.621467
1772869,Nordbakken,8970,6,10.333365,56.620913
1772870,Nordbakken,8970,7,10.333192,56.621552
1772871,Nordbakken,8970,8,10.333712,56.621026
1772872,Nordbakken,8970,9,10.333684,56.621628
1772873,Nordbakken,8970,10,10.33424,56.621209
1772874,Nordbakken,8970,11,10.334303,56.621612
1772875,Nordbakken,8970,12,10.33455,56.621232
1773040,Klattrupgade,8970,1,10.194675,56.653525
1773041,Klattrupgade,8970,2,10.195583,56.653858
1773042,Klattrupgade,8970,2A,10.19573,56.653857
1773043,Klattrupgade,8970,3,10.195028,56.653854
1773044,Klattrupgade,8970,4,10.195717,56.653956
1773045,Klattrupgade,8970,5,10.195359,56.654004
1773046,Klattrupgade,8970,6,10.195833,56.654035
1773047,Klattrupgade,8970,7,10.195559,56.654119
1773048,Klattrupgade,8970,8,10.195967,56.654124
1773049,Klattrupgade,8970,9,10.195742,56.654252
1773050,Klattrupgade,8970,10,10.196084,56.654222
1773051,Klattrupgade,8970,11,10.195926,56.654385
1773052,Klattrupgade,8970,12,10.196691,56.654333
1773053,Klattrupgade,8970,13,10.196045,56.654528
1773054,Klattrupgade,8970,14,10.196906,56.654429
1773055,Klattrupgade,8970,15,10.196279,56.654705
1773056,Klattrupgade,8970,16,10.197043,56.654617
1773057,Klattrupgade,8970,17,10.19648,56.654865
1773058,Klattrupgade,8970,18,10.197212,56.654831
1773059,Klattrupgade,8970,19,10.196698,56.65506
1773060,Klattrupgade,8970,20,10.197462,56.654999
1773061,Klattrupgade,8970,21,10.197015,56.6553
1773062,Klattrupgade,8970,22,10.199689,56.656793
1773063,Klattrupgade,8970,23,10.196562,56.655915
1773064,Klattrupgade,8970,24,10.204004,56.656526
1773065,Klattrupgade,8970,25,10.198184,56.656142
1773066,Klattrupgade,8970,26,10.204385,56.656729
1773067,Klattrupgade,8970,27,10.195589,56.656113
1773068,Klattrupgade,8970,28,10.2048472,56.6580186
1773069,Klattrupgade,8970,29,10.200297,56.658458
1773070,Klattrupgade,8970,30,10.204464,56.657672
1773071,Klattrupgade,8970,31,10.197364,56.660642
1773072,Klattrupgade,8970,32,10.206055,56.65895
1773073,Klattrupgade,8970,33,10.205212,56.660136
1773074,Klattrupgade,8970,34,10.215223,56.657927
1773075,Klattrupgade,8970,35,10.214456,56.665544
1773076,Klattrupgade,8970,36,10.212851,56.663835
1773077,Klattrupgade,8970,37,10.214642,56.66574
1773078,Klattrupgade,8970,38,10.214567,56.664941
1773079,Klattrupgade,8970,40,10.215063,56.665646
1773124,Vinkelvej,8970,1,10.240618,56.589697
1773127,Vinkelvej,8970,3,10.237946,56.592644
1773128,Vinkelvej,8970,4,10.241252,56.58916
1773130,Vinkelvej,8970,7,10.243046,56.592736
1773132,Vinkelvej,8970,9,10.245045,56.592106
1773134,Vinkelvej,8970,10,10.245343,56.591258
1774001,Stadionvej,8970,3,10.209419,56.601972
1774002,Stadionvej,8970,4,10.209568,56.602581
1774003,Stadionvej,8970,5,10.208293,56.602432
1774004,Stadionvej,8970,7,10.208423,56.603446
1774005,Stadionvej,8970,9,10.206938,56.604907
1774006,Stadionvej,8970,11,10.20659,56.605207
1774007,Stadionvej,8970,13,10.200955,56.604776
1774008,Stadionvej,8970,15,10.206192,56.605498
1774009,Stadionvej,8970,16,10.206434,56.605954
1774010,Stadionvej,8970,18,10.205102,56.607611
1774011,Stadionvej,8970,19,10.20152,56.607682
1774012,Stadionvej,8970,20,10.207402,56.607688
1774013,Stadionvej,8970,24,10.20469,56.607966
1774014,Stadionvej,8970,28,10.201704,56.610915
1774015,Stadionvej,8970,30,10.203059,56.617128
1774016,Stadionvej,8970,32,10.202563,56.617429
1774017,Stadionvej,8970,35,10.201762,56.617356
1774018,Stadionvej,8970,37,10.202295,56.617711
1774019,Stadionvej,8970,39,10.202121,56.617874
1774805,Søringen,8970,1,10.202674,56.653188
1774808,Søringen,8970,2,10.204573,56.654949
1774810,Søringen,8970,3,10.202271,56.653866
1774812,Søringen,8970,3A,10.198589,56.654918
1774816,Søringen,8970,4,10.207407,56.65378
1774819,Søringen,8970,6C,10.203156,56.655327
1774821,Søringen,8970,8,10.198177,56.655397
1774824,Søringen,8970,10,10.198075,56.655272
1774828,Søringen,8970,98,10.203059,56.6541438
1774829,Søringen,8970,99,10.210917,56.654402
1774973,Orionvej,8970,2,10.19592,56.64956
1774976,Orionvej,8970,4,10.195832,56.649336
1774978,Orionvej,8970,6,10.195778,56.649175
1774979,Orionvej,8970,8,10.193567,56.647876
1775371,Fiskerstræde,8970,3,10.300476,56.611422
1775372,Fiskerstræde,8970,4,10.299921,56.61141
1775373,Fiskerstræde,8970,5,10.301272,56.61136
1775374,Fiskerstræde,8970,6,10.299433,56.611424
1775375,Fiskerstræde,8970,7,10.301796,56.611435
1775548,Skolevej,8970,1,10.202072,56.653239
1775551,Skolevej,8970,4,10.2024934,56.6534597
1775850,Hestehaven,8970,3,10.24162,56.651521
1775852,Hestehaven,8970,5,10.241448,56.650768
1775853,Hestehaven,8970,7,10.240328,56.647437
1775854,Hestehaven,8970,9,10.240149,56.646477
1775857,Hestehaven,8970,11,10.23873,56.645467
1775945,Ternevej,8970,1,10.297218,56.61381
1775946,Ternevej,8970,2,10.297383,56.613404
1775948,Ternevej,8970,3,10.297674,56.613814
1775951,Ternevej,8970,4,10.297885,56.613318
1775953,Ternevej,8970,5,10.29808,56.613783
1775955,Ternevej,8970,6,10.298277,56.613332
1775958,Ternevej,8970,7,10.298488,56.613779
1775959,Ternevej,8970,8,10.298734,56.613354
1775965,Tønagervej,8970,79,10.178833,56.611062
1775966,Tønagervej,8970,80,10.17967,56.610209
1775967,Tønagervej,8970,82,10.180299,56.61156
1775968,Tønagervej,8970,84,10.180348,56.61208
1776127,Vellinggårdsvej,8970,1,10.195468,56.652278
1776129,Vellinggårdsvej,8970,2,10.195818,56.653038
1776131,Vellinggårdsvej,8970,2A,10.195622,56.653022
1776134,Vellinggårdsvej,8970,2B,10.195492,56.653032
1776135,Vellinggårdsvej,8970,2C,10.195362,56.653043
1776137,Vellinggårdsvej,8970,2D,10.195248,56.653053
1776139,Vellinggårdsvej,8970,2E,10.195134,56.653063
1776141,Vellinggårdsvej,8970,2F,10.195532,56.652762
1776142,Vellinggårdsvej,8970,2G,10.195385,56.652764
1776143,Vellinggårdsvej,8970,2H,10.195256,56.652801
1776144,Vellinggårdsvej,8970,2I,10.195211,56.652802
1776145,Vellinggårdsvej,8970,2K,10.194996,56.652831
1776146,Vellinggårdsvej,8970,2L,10.194998,56.652884
1776147,Vellinggårdsvej,8970,2M,10.195016,56.652938
1776148,Vellinggårdsvej,8970,2N,10.195309,56.652935
1776149,Vellinggårdsvej,8970,2P,10.195312,56.652522
1776150,Vellinggårdsvej,8970,3,10.195251,56.652127
1776151,Vellinggårdsvej,8970,4,10.194845,56.652185
1776152,Vellinggårdsvej,8970,5,10.195116,56.651985
1776153,Vellinggårdsvej,8970,6,10.194645,56.652043
1776154,Vellinggårdsvej,8970,7,10.194918,56.651403
1776155,Vellinggårdsvej,8970,8,10.194505,56.651757
1776156,Vellinggårdsvej,8970,9,10.194608,56.650885
1776157,Vellinggårdsvej,8970,10,10.194365,56.651462
1776158,Vellinggårdsvej,8970,11,10.192302,56.647591
1776159,Vellinggårdsvej,8970,12,10.194295,56.651283
1776160,Vellinggårdsvej,8970,13,10.194847,56.645536
1776161,Vellinggårdsvej,8970,14,10.19362,56.651083
1776163,Vellinggårdsvej,8970,15,10.193362,56.641885
1776165,Vellinggårdsvej,8970,16,10.191905,56.649464
1776167,Vellinggårdsvej,8970,16B,10.191853,56.64835
1776170,Vellinggårdsvej,8970,17,10.188762,56.639242
1776172,Vellinggårdsvej,8970,18,10.190569,56.645892
1776174,Vellinggårdsvej,8970,20,10.190115,56.645447
1776175,Vellinggårdsvej,8970,22,10.189616,56.644104
1776325,Grejsvang,8970,3,10.227023,56.608862
1776326,Grejsvang,8970,4,10.227838,56.608889
1776327,Grejsvang,8970,5,10.225784,56.609853
1776328,Grejsvang,8970,6,10.227812,56.609079
1776329,Grejsvang,8970,8,10.228055,56.609561
1776330,Grejsvang,8970,10,10.228082,56.609866
1776331,Grejsvang,8970,12,10.227725,56.609915
1776332,Grejsvang,8970,14,10.227734,56.609681
1776333,Grejsvang,8970,16,10.227189,56.609974
1776334,Grejsvang,8970,30,10.217905,56.613587
1776335,Grejsvang,8970,38,10.213117,56.613688
1776336,Grejsvang,8970,41,10.210947,56.61361
1776337,Grejsvang,8970,43,10.206473,56.613295
1776338,Grejsvang,8970,45,10.206258,56.615237
1776339,Grejsvang,8970,49,10.206197,56.615885
1776341,Grejsvang,8970,51,10.206155,56.616101
1776343,Grejsvang,8970,53,10.206032,56.616327
1776345,Grejsvang,8970,55,10.206023,56.616578
1776347,Grejsvang,8970,57,10.206017,56.616875
1776350,Grejsvang,8970,61,10.206059,56.617189
1776351,Grejsvang,8970,63,10.206051,56.617432
1776354,Grejsvang,8970,65,10.20486,56.617389
1776357,Grejsvang,8970,67,10.205535,56.617607
1776358,Grejsvang,8970,71,10.206028,56.617746
1776651,Kløvervænget,8970,1,10.202225,56.649859
1776652,Kløvervænget,8970,2,10.202559,56.650592
1776653,Kløvervænget,8970,3,10.202369,56.650271
1776654,Kløvervænget,8970,4,10.202233,56.650631
1776655,Kløvervænget,8970,5,10.202011,56.65031
1776656,Kløvervænget,8970,6,10.201825,56.650617
1776657,Kløvervænget,8970,7,10.201572,56.65035
1776658,Kløvervænget,8970,8,10.201354,56.650676
1776659,Kløvervænget,8970,9A,10.201067,56.650373
1776661,Kløvervænget,8970,9B,10.200908,56.650483
1777119,Saturnvej,8970,1,10.194975,56.649605
1777120,Saturnvej,8970,2,10.194262,56.649747
1777121,Saturnvej,8970,3,10.195299,56.649503
1777122,Saturnvej,8970,4,10.193872,56.649786
1777123,Saturnvej,8970,5,10.195111,56.649253
1777124,Saturnvej,8970,6,10.193801,56.649581
1777125,Saturnvej,8970,7,10.194689,56.64932
1777126,Saturnvej,8970,8,10.193613,56.649349
1777127,Saturnvej,8970,10,10.193935,56.649193
1777128,Saturnvej,8970,12,10.194105,56.649425
1777151,Rolighedsvej,8970,1,10.204465,56.646953
1777152,Rolighedsvej,8970,2,10.196411,56.651146
1777153,Rolighedsvej,8970,4A,10.19595,56.652049
1777154,Rolighedsvej,8970,4B,10.195949,56.652013
1777155,Rolighedsvej,8970,4C,10.195948,56.651977
1777156,Rolighedsvej,8970,4D,10.196007,56.6523
1777157,Rolighedsvej,8970,4E,10.1962,56.652217
1777158,Rolighedsvej,8970,6,10.196354,56.651928
1777159,Rolighedsvej,8970,8,10.196744,56.651888
1777160,Rolighedsvej,8970,10,10.196987,56.651823
1777161,Rolighedsvej,8970,12,10.197212,56.651713
1777162,Rolighedsvej,8970,14,10.197566,56.651584
1777163,Rolighedsvej,8970,16,10.197969,56.651418
1777164,Rolighedsvej,8970,18,10.19821,56.651317
1777165,Rolighedsvej,8970,20,10.198468,56.651216
1777166,Rolighedsvej,8970,22,10.198743,56.651141
1777167,Rolighedsvej,8970,24,10.200263,56.650201
1777168,Rolighedsvej,8970,26,10.200878,56.65007
1777169,Rolighedsvej,8970,28,10.201833,56.647796
1777170,Rolighedsvej,8970,30,10.200034,56.644534
1777171,Rolighedsvej,8970,32,10.19954,56.642346
1777172,Rolighedsvej,8970,34,10.200801,56.641984
1777173,Håndværkervænget,8970,1A,10.184133,56.652323
1777174,Håndværkervænget,8970,1B,10.184451,56.652069
1777175,Håndværkervænget,8970,2A,10.183643,56.651789
1777176,Håndværkervænget,8970,2B,10.183568,56.651475
1777177,Håndværkervænget,8970,3,10.184248,56.651837
1777178,Håndværkervænget,8970,4,10.183528,56.651215
1777179,Håndværkervænget,8970,5,10.184269,56.651442
1777180,Håndværkervænget,8970,7,10.184242,56.651118
1777181,Håndværkervænget,8970,9,10.184203,56.650903
1777302,Dalbynedervej,8970,1,10.213781,56.650106
1777303,Dalbynedervej,8970,2,10.212996,56.65006
1777304,Dalbynedervej,8970,3,10.213784,56.649711
1777305,Dalbynedervej,8970,4,10.21274,56.649694
1777306,Dalbynedervej,8970,5,10.213228,56.649141
1777307,Dalbynedervej,8970,6,10.212601,56.649435
1777308,Dalbynedervej,8970,8,10.207826,56.648547
1777309,Dalbynedervej,8970,10,10.20668,56.647893
1777310,Dalbynedervej,8970,12,10.210444,56.643705
1777311,Dalbynedervej,8970,14,10.209318,56.639601
1777618,Kronborgvej,8970,3,10.199464,56.619921
1777619,Kronborgvej,8970,4,10.198983,56.6197211
1777620,Kronborgvej,8970,4A,10.198872,56.619747
1777621,Kronborgvej,8970,4B,10.198953,56.619719
1777622,Kronborgvej,8970,4C,10.199033,56.619692
1777623,Kronborgvej,8970,4D,10.199114,56.619673
1777624,Kronborgvej,8970,5,10.199818,56.619774
1777625,Kronborgvej,8970,6,10.199387,56.619545
1777626,Kronborgvej,8970,7,10.20038,56.619481
1777627,Kronborgvej,8970,9,10.200735,56.619379
1777628,Kronborgvej,8970,10,10.199772,56.619343
1777629,Kronborgvej,8970,12,10.200192,56.619222
1777630,Kronborgvej,8970,13,10.201073,56.619241
1777631,Kronborgvej,8970,14,10.200595,56.619093
1777632,Kronborgvej,8970,15,10.201315,56.619167
1777633,Kronborgvej,8970,16,10.201128,56.618926
1777634,Kronborgvej,8970,17,10.201704,56.619127
1777635,Kronborgvej,8970,18,10.201709,56.618758
1777636,Kronborgvej,8970,19,10.201912,56.61899
1777637,Kronborgvej,8970,20,10.202628,56.618453
1777638,Kronborgvej,8970,21,10.202138,56.618934
1777639,Kronborgvej,8970,22,10.202573,56.618265
1777640,Kronborgvej,8970,23,10.20243,56.618868
1777641,Kronborgvej,8970,24,10.202435,56.618024
1777642,Kronborgvej,8970,26,10.202771,56.617823
1777643,Kronborgvej,8970,27,10.202882,56.618756
1777644,Kronborgvej,8970,29,10.203273,56.618752
1777645,Kronborgvej,8970,31,10.203757,56.618568
1777646,Kronborgvej,8970,32,10.203376,56.61788
1777647,Kronborgvej,8970,33,10.20318,56.618367
1777648,Kronborgvej,8970,34,10.203467,56.617654
1777649,Kronborgvej,8970,35A,10.203202,56.618034
1777650,Kronborgvej,8970,35B,10.203349,56.618051
1777651,Kronborgvej,8970,36,10.203605,56.617904
1777652,Kronborgvej,8970,37A,10.203545,56.618067
1777653,Kronborgvej,8970,37B,10.203643,56.618075
1777654,Kronborgvej,8970,38,10.204015,56.617972
1777655,Kronborgvej,8970,38A,10.20403,56.617954
1777656,Kronborgvej,8970,38B,10.204129,56.617971
1777657,Kronborgvej,8970,38C,10.204243,56.617988
1777658,Kronborgvej,8970,39,10.203921,56.618117
1777659,Kronborgvej,8970,40,10.204597,56.61785
1777660,Kronborgvej,8970,41,10.204577,56.618237
1777661,Kronborgvej,8970,42,10.205828,56.618117
1777662,Kronborgvej,8970,43,10.205311,56.618256
1777663,Kronborgvej,8970,44,10.205071,56.617881
1777664,Kronborgvej,8970,45A,10.205818,56.618323
1777665,Kronborgvej,8970,45B,10.205802,56.618314
1777666,Kronborgvej,8970,46,10.205132,56.617764
1777667,Kronborgvej,8970,48,10.205336,56.618005
1777668,Kronborgvej,8970,50,10.20538,56.617869
1777669,Kronborgvej,8970,52,10.20561,56.617912
1777670,Kronborgvej,8970,54,10.205806,56.617928
1777671,Kronborgvej,8970,56,10.206018,56.617953
1777672,Kronborgvej,8970,58,10.206481,56.618164
1777673,Kronborgvej,8970,60,10.207935,56.618258
1777674,Kronborgvej,8970,75,10.222888,56.62459
1777675,Kronborgvej,8970,77,10.223063,56.622459
1777676,Kronborgvej,8970,79,10.223383,56.620236
1777993,Norup Østermark,8970,1,10.116827,56.6766
1777994,Norup Østermark,8970,2,10.126122,56.67715
1777995,Norup Østermark,8970,3,10.122917,56.678729
1777996,Norup Østermark,8970,4,10.127262,56.678307
1777998,Norup Østermark,8970,6,10.126938,56.678652
1777999,Norup Østermark,8970,8,10.129336,56.679067
1778000,Norup Østermark,8970,10,10.126586,56.679557
1778001,Norup Østermark,8970,12,10.1316141,56.6811027
1778002,Norup Østermark,8970,12A,10.130457,56.681121
1778003,Norup Østermark,8970,12B,10.131492,56.680672
1779077,Kærvej,8970,1,10.187834,56.654858
1779078,Kærvej,8970,2,10.187951,56.662736
1779437,Hømundingen,8970,6,10.241271,56.600176
1779438,Hømundingen,8970,10,10.2426,56.59948
1779439,Hømundingen,8970,19,10.245778,56.597552
1779440,Hømundingen,8970,30,10.249535,56.595421
1779728,Splitad,8970,2,10.180561,56.613166
1779729,Splitad,8970,4,10.179737,56.613407
1779730,Splitad,8970,15,10.174807,56.619411
1779731,Splitad,8970,21,10.174983,56.622437
1779732,Splitad,8970,29,10.176336,56.624544
1779733,Splitad,8970,33,10.177843,56.6248
1779734,Splitad,8970,40,10.179013,56.626765
1779735,Splitad,8970,45,10.178496,56.628999
1779736,Splitad,8970,51,10.176968,56.63019
1779737,Splitad,8970,53,10.177905,56.632535
1779766,Tuerne,8970,1,10.269662,56.65989
1779767,Tuerne,8970,3,10.275572,56.663379
1779768,Tuerne,8970,5,10.27919,56.664699
1779769,Tuerne,8970,7,10.279158,56.66522
1779770,Tuerne,8970,9,10.292494,56.66537
1779942,Sletten,8970,2,10.246431,56.652982
1779943,Sletten,8970,4,10.247182,56.655975
1779944,Sletten,8970,6,10.247438,56.657303
1779945,Sletten,8970,8,10.247915,56.6579
1779946,Sletten,8970,10,10.24874,56.658188
1779947,Sletten,8970,12,10.248154,56.659073
1780319,Sjællandsvej,8970,10,10.171214,56.647046
1780618,Sødring Bygade,8970,2,10.312361,56.629007
1780619,Sødring Bygade,8970,3,10.312443,56.629473
1780620,Sødring Bygade,8970,4,10.31304,56.629296
1780621,Sødring Bygade,8970,6,10.313389,56.629499
1780622,Sødring Bygade,8970,8,10.314246,56.629777
1780623,Sødring Bygade,8970,9,10.313437,56.629948
1780624,Sødring Bygade,8970,10,10.314719,56.629763
1780625,Sødring Bygade,8970,11,10.314208,56.630065
1780626,Sødring Bygade,8970,12,10.31496,56.629671
1780627,Sødring Bygade,8970,13,10.314549,56.630053
1780628,Sødring Bygade,8970,14,10.314751,56.629296
1780629,Sødring Bygade,8970,15,10.314449,56.63044
1780630,Sødring Bygade,8970,16,10.315312,56.629479
1780631,Sødring Bygade,8970,17,10.314445,56.630611
1780632,Sødring Bygade,8970,18,10.315547,56.629198
1780633,Sødring Bygade,8970,21,10.31544,56.631283
1780634,Sødring Bygade,8970,22,10.316237,56.628688
1780635,Sødring Bygade,8970,23,10.316551,56.633697
1780636,Sødring Bygade,8970,24,10.315633,56.628873
1780637,Sødring Bygade,8970,25,10.315391,56.630817
1780638,Sødring Bygade,8970,25A,10.315725,56.631047
1780639,Sødring Bygade,8970,26,10.315605,56.628523
1780640,Sødring Bygade,8970,27,10.315331,56.630503
1780641,Sødring Bygade,8970,31,10.315258,56.629803
1780642,Sødring Bygade,8970,33,10.315677,56.629663
1780643,Sødring Bygade,8970,35,10.316386,56.629413
1780644,Sødring Bygade,8970,41,10.317265,56.629395
1780645,Sødring Bygade,8970,43,10.316603,56.628647
1780957,Skovgårdsvej,8970,1,10.117769,56.650512
1780958,Skovgårdsvej,8970,2,10.118884,56.650962
1780959,Skovgårdsvej,8970,5,10.117221,56.652647
1781388,Fasanbakken,8970,1,10.199129,56.650967
1781389,Fasanbakken,8970,2A,10.198485,56.650721
1781390,Fasanbakken,8970,2B,10.198186,56.650563
1781391,Fasanbakken,8970,3,10.199008,56.650743
1781392,Fasanbakken,8970,4,10.197963,56.650205
1781393,Fasanbakken,8970,5,10.198855,56.650556
1781394,Fasanbakken,8970,6,10.197778,56.650019
1781395,Fasanbakken,8970,7,10.198685,56.650351
1781396,Fasanbakken,8970,8,10.19759,56.64976
1781397,Fasanbakken,8970,9,10.198516,56.650146
1781398,Fasanbakken,8970,11,10.198297,56.649933
1781399,Fasanbakken,8970,13,10.198095,56.649737
1781534,Birkebakken,8970,1,10.200351,56.652995
1781535,Birkebakken,8970,2,10.199766,56.652524
1781536,Birkebakken,8970,3,10.200194,56.652664
1781537,Birkebakken,8970,4,10.19969,56.652192
1781538,Birkebakken,8970,4A,10.199297,56.65216
1781539,Birkebakken,8970,5,10.200182,56.652295
1781540,Birkebakken,8970,6,10.198925,56.652263
1781541,Birkebakken,8970,7A,10.200111,56.652098
1781542,Birkebakken,8970,7B,10.199958,56.651893
1781543,Birkebakken,8970,8,10.19945,56.651826
1781544,Birkebakken,8970,11,10.200029,56.651569
1781545,Birkebakken,8970,13,10.200125,56.651523
1781546,Birkebakken,8970,15,10.200222,56.651486
1781845,Jyllandsvej,8970,1,10.173753,56.64782
1781846,Jyllandsvej,8970,7,10.172076,56.647487
1781847,Jyllandsvej,8970,9,10.170697,56.647194
1782249,Fortunet,8970,1,10.152427,56.64493
1782250,Fortunet,8970,2,10.15283,56.644765
1782251,Fortunet,8970,4,10.152752,56.6449
1782252,Fortunet,8970,10,10.152757,56.645574
1782515,Elmelundsvej,8970,2,10.206378,56.618507
1782516,Elmelundsvej,8970,4,10.206294,56.618948
1782517,Elmelundsvej,8970,5,10.205936,56.618942
1782518,Elmelundsvej,8970,6,10.206402,56.619243
1782519,Elmelundsvej,8970,8,10.206403,56.619782
1782520,Elmelundsvej,8970,10,10.206262,56.619972
1782521,Elmelundsvej,8970,12,10.206597,56.620247
1782846,Trudsholmvej,8970,1,10.197788,56.622049
1782847,Trudsholmvej,8970,3,10.197685,56.622391
1782848,Trudsholmvej,8970,5,10.198695,56.622372
1782849,Trudsholmvej,8970,8,10.198098,56.624112
1782850,Trudsholmvej,8970,18,10.18737,56.634898
1782851,Trudsholmvej,8970,18A,10.186162,56.635386
1782852,Trudsholmvej,8970,21,10.184038,56.636286
1782853,Trudsholmvej,8970,23,10.182457,56.63578
1782854,Trudsholmvej,8970,24,10.181595,56.641584
1782855,Trudsholmvej,8970,26,10.180961,56.642156
1782856,Trudsholmvej,8970,27,10.183979,56.639063
1782857,Trudsholmvej,8970,30,10.180278,56.645352
1782858,Trudsholmvej,8970,34,10.180079,56.646288
1782859,Trudsholmvej,8970,35,10.174204,56.647354
1782860,Trudsholmvej,8970,38,10.173932,56.648961
1782861,Trudsholmvej,8970,39,10.173257,56.648239
1782862,Trudsholmvej,8970,40,10.173602,56.649368
1782863,Trudsholmvej,8970,41,10.172788,56.648882
1783114,Plantagen,8970,1,10.192743,56.652241
1783115,Plantagen,8970,2,10.192602,56.651919
1783116,Plantagen,8970,3,10.193115,56.652148
1783117,Plantagen,8970,4,10.192993,56.651897
1783118,Plantagen,8970,5,10.193474,56.652162
1783119,Plantagen,8970,6,10.193302,56.651867
1783120,Plantagen,8970,7,10.193798,56.652096
1783121,Plantagen,8970,8,10.193659,56.65181
1783122,Plantagen,8970,9,10.194139,56.65203
1783123,Plantagen,8970,10,10.193968,56.651789
1784121,Lærkevangen,8970,1,10.12088,56.675071
1784122,Lærkevangen,8970,2,10.121467,56.675194
1784123,Lærkevangen,8970,3,10.120835,56.675401
1784124,Lærkevangen,8970,4,10.121834,56.675166
1784125,Lærkevangen,8970,5,10.121309,56.675455
1784126,Lærkevangen,8970,6,10.122273,56.675263
1784127,Lærkevangen,8970,7,10.12192,56.675582
1784128,Lærkevangen,8970,8,10.122741,56.675264
1784129,Lærkevangen,8970,9,10.122479,56.675627
1784130,Lærkevangen,8970,10,10.123177,56.675338
1784131,Lærkevangen,8970,11,10.123018,56.67577
1785196,Midtvasen,8970,1,10.297073,56.611017
1785198,Midtvasen,8970,3,10.296631,56.61095
1785201,Midtvasen,8970,4,10.296513,56.611329
1785203,Midtvasen,8970,5,10.295961,56.610894
1785206,Midtvasen,8970,9,10.295308,56.610856
1785208,Midtvasen,8970,13,10.294817,56.610807
1785209,Midtvasen,8970,14,10.294361,56.611279
1785212,Midtvasen,8970,16,10.293508,56.611099
1785214,Midtvasen,8970,17,10.29451,56.610864
1785216,Midtvasen,8970,19A,10.294231,56.610813
1785218,Midtvasen,8970,21,10.293145,56.610034
1785220,Midtvasen,8970,26,10.288795,56.610519
1785532,Havnøholmvej,8970,1,10.320175,56.622616
1785533,Havnøholmvej,8970,3,10.320182,56.622365
1785534,Havnøholmvej,8970,5,10.319737,56.622208
1785535,Havnøholmvej,8970,7,10.319777,56.621965
1785536,Havnøholmvej,8970,20,10.319455,56.620216
1785940,Udbyneder Østergade,8970,1,10.236467,56.66053
1785941,Udbyneder Østergade,8970,2,10.235873,56.66032
1785942,Udbyneder Østergade,8970,4,10.236133,56.6603
1785943,Udbyneder Østergade,8970,6,10.236427,56.660297
1785944,Udbyneder Østergade,8970,8,10.23675,56.660204
1785945,Udbyneder Østergade,8970,10,10.237079,56.659787
1785946,Udbyneder Østergade,8970,12,10.237221,56.660136
1785947,Udbyneder Østergade,8970,14,10.238944,56.659948
1786030,Møgelvangsvej,8970,1,10.198085,56.620114
1786031,Møgelvangsvej,8970,2,10.198608,56.620163
1786032,Møgelvangsvej,8970,5,10.197923,56.620655
1786033,Møgelvangsvej,8970,7,10.197476,56.620938
1786034,Møgelvangsvej,8970,8,10.198455,56.62047
1786035,Møgelvangsvej,8970,9,10.197477,56.621486
1786036,Møgelvangsvej,8970,10,10.198495,56.620694
1786037,Møgelvangsvej,8970,11,10.198401,56.621854
1786038,Møgelvangsvej,8970,12,10.198469,56.62091
1786039,Møgelvangsvej,8970,13,10.199124,56.622027
1786040,Møgelvangsvej,8970,14,10.198332,56.621226
1786041,Møgelvangsvej,8970,15,10.199535,56.622158
1786042,Møgelvangsvej,8970,16,10.198584,56.621448
1786043,Møgelvangsvej,8970,17,10.199933,56.62236
1786044,Møgelvangsvej,8970,18,10.199906,56.621516
1786045,Møgelvangsvej,8970,19,10.200283,56.6226
1786046,Møgelvangsvej,8970,20,10.200683,56.621338
1786047,Møgelvangsvej,8970,22,10.201185,56.621764
1786048,Møgelvangsvej,8970,25,10.2017,56.624122
1786049,Møgelvangsvej,8970,26,10.200238,56.622232
1786050,Møgelvangsvej,8970,30,10.202169,56.622447
1786051,Møgelvangsvej,8970,30A,10.204328,56.622713
1786052,Møgelvangsvej,8970,32,10.203687,56.624561
1789214,Norupvej,8970,39,10.1044,56.675689
1789216,Norupvej,8970,41,10.104858,56.675616
1789218,Norupvej,8970,43,10.105195,56.675488
1789221,Norupvej,8970,45,10.105508,56.675495
1789222,Norupvej,8970,47,10.1059,56.676058
1789224,Norupvej,8970,48,10.10451,56.675376
1789227,Norupvej,8970,49,10.105768,56.675479
1789228,Norupvej,8970,50,10.105275,56.675253
1789231,Norupvej,8970,51,10.106092,56.675466
1789232,Norupvej,8970,52,10.105554,56.675258
1789234,Norupvej,8970,53A,10.106496,56.676059
1789236,Norupvej,8970,53B,10.106675,56.675528
1789238,Norupvej,8970,54,10.105939,56.675206
1789239,Norupvej,8970,55,10.107156,56.675623
1789241,Norupvej,8970,56,10.106327,56.675109
1789243,Norupvej,8970,57,10.10715,56.675264
1789245,Norupvej,8970,58,10.106886,56.67509
1789248,Norupvej,8970,59,10.10763,56.675254
1789249,Norupvej,8970,60,10.107336,56.674798
1789251,Norupvej,8970,61,10.10791,56.675203
1789253,Norupvej,8970,62,10.107995,56.674894
1789254,Norupvej,8970,63,10.108224,56.675346
1789256,Norupvej,8970,64,10.108349,56.674851
1789259,Norupvej,8970,65,10.112445,56.674865
1789260,Norupvej,8970,67,10.112727,56.674848
1789261,Norupvej,8970,68,10.108788,56.674735
1789262,Norupvej,8970,69,10.112992,56.67479
1789263,Norupvej,8970,70,10.11065,56.674693
1789264,Norupvej,8970,71,10.113313,56.674771
1789265,Norupvej,8970,73,10.113724,56.674753
1789266,Norupvej,8970,75,10.114536,56.674789
1789267,Norupvej,8970,76,10.112898,56.674596
1789268,Norupvej,8970,78A,10.113295,56.674569
1789269,Norupvej,8970,78B,10.113834,56.674537
1789270,Norupvej,8970,79,10.115967,56.674764
1789271,Norupvej,8970,80,10.114591,56.674554
1789272,Norupvej,8970,80B,10.114693,56.674537
1789273,Norupvej,8970,80E,10.114688,56.674491
1789274,Norupvej,8970,81A,10.116581,56.674713
1789275,Norupvej,8970,81B,10.117216,56.674811
1789276,Norupvej,8970,82,10.115416,56.674516
1789277,Norupvej,8970,83,10.117529,56.674756
1789278,Norupvej,8970,84,10.115614,56.674474
1789279,Norupvej,8970,85,10.117817,56.674866
1789280,Norupvej,8970,86,10.116215,56.674448
1789281,Norupvej,8970,87,10.118095,56.67486
1789282,Norupvej,8970,92,10.136574,56.672581
1789283,Norupvej,8970,94,10.139018,56.672205
1789284,Norupvej,8970,96,10.139187,56.674237
1789285,Norupvej,8970,98,10.140589,56.672888
1789286,Norupvej,8970,99,10.123559,56.67589
1789287,Norupvej,8970,100,10.143994,56.672929
1789288,Norupvej,8970,101,10.130561,56.675907
1789289,Norupvej,8970,102,10.143551,56.67329
1789290,Norupvej,8970,103,10.135573,56.675441
1789291,Norupvej,8970,104,10.144759,56.67325
1789293,Norupvej,8970,105,10.137032,56.67608
1789294,Norupvej,8970,107,10.136365,56.67528
1789406,Østerbro,8970,1,10.193183,56.653791
1789407,Østerbro,8970,2,10.19312,56.653352
1789408,Østerbro,8970,3,10.193305,56.653512
1789409,Østerbro,8970,4A,10.193248,56.65327
1789410,Østerbro,8970,4B,10.193362,56.653268
1789411,Østerbro,8970,4C,10.193266,56.653323
1789412,Østerbro,8970,4D,10.193364,56.653313
1789413,Østerbro,8970,4E,10.193267,56.65335
1789414,Østerbro,8970,4F,10.193365,56.653349
1789415,Østerbro,8970,5,10.193696,56.653499
1789416,Østerbro,8970,6A,10.193525,56.653282
1789417,Østerbro,8970,6B,10.193648,56.653243
1789418,Østerbro,8970,7,10.19393,56.653667
1789419,Østerbro,8970,8A,10.193821,56.653336
1789420,Østerbro,8970,8B,10.193836,56.653291
1789421,Østerbro,8970,9,10.193972,56.65346
1789422,Østerbro,8970,10,10.193815,56.653129
1789423,Østerbro,8970,11,10.194168,56.653476
1789424,Østerbro,8970,12A,10.194033,56.653325
1789426,Østerbro,8970,12B,10.194114,56.653315
1789428,Østerbro,8970,12C,10.194212,56.653314
1789429,Østerbro,8970,13A,10.194282,56.653457
1789431,Østerbro,8970,13B,10.194412,56.653447
1789433,Østerbro,8970,14A,10.194255,56.653143
1789435,Østerbro,8970,14B,10.194325,56.653286
1789438,Østerbro,8970,16,10.194521,56.653275
1789440,Østerbro,8970,18,10.194798,56.653264
1789441,Østerbro,8970,20A,10.195298,56.6532
1789446,Østerbro,8970,20E,10.195265,56.653071
1789448,Østerbro,8970,20F,10.195542,56.653059
1789450,Østerbro,8970,21,10.196041,56.653395
1789452,Østerbro,8970,22A,10.195515,56.653266
1789453,Østerbro,8970,22B,10.195562,56.653202
1789455,Østerbro,8970,22C,10.195645,56.653247
1789457,Østerbro,8970,22D,10.195742,56.653201
1789459,Østerbro,8970,22E,10.195825,56.653245
1789461,Østerbro,8970,23,10.196017,56.653638
1789463,Østerbro,8970,24,10.196181,56.65317
1789465,Østerbro,8970,25,10.196595,56.653354
1789467,Østerbro,8970,26,10.196442,56.653158
1789468,Østerbro,8970,27,10.197198,56.653348
1789470,Østerbro,8970,28,10.196746,56.652984
1789473,Østerbro,8970,29,10.197544,56.653471
1789474,Østerbro,8970,31,10.198242,56.653356
1789477,Østerbro,8970,32,10.197095,56.65317
1789478,Østerbro,8970,33A,10.198539,56.653452
1789480,Østerbro,8970,33B,10.19852,56.653372
1789483,Østerbro,8970,33C,10.198485,56.653282
1789484,Østerbro,8970,33D,10.198631,56.653272
1789487,Østerbro,8970,34,10.197355,56.653149
1789488,Østerbro,8970,35,10.198843,56.653279
1789490,Østerbro,8970,36,10.19864,56.653029
1789493,Østerbro,8970,37,10.199332,56.653247
1789494,Østerbro,8970,38,10.199032,56.653043
1789496,Østerbro,8970,39A,10.200326,56.653229
1789497,Østerbro,8970,39B,10.200345,56.6533
1789500,Østerbro,8970,39C,10.200363,56.653363
1789502,Østerbro,8970,39D,10.200382,56.653435
1789503,Østerbro,8970,39E,10.200399,56.653479
1789505,Østerbro,8970,39F,10.200418,56.653542
1789507,Østerbro,8970,40,10.199255,56.652888
1789509,Østerbro,8970,40A,10.199245,56.653077
1789510,Østerbro,8970,40B,10.199342,56.653058
1789512,Østerbro,8970,41,10.200525,56.653837
1789514,Østerbro,8970,42,10.199618,56.653029
1789516,Østerbro,8970,43,10.200852,56.653358
1789518,Østerbro,8970,43A,10.200834,56.653817
1789520,Østerbro,8970,43B,10.200756,56.653404
1789521,Østerbro,8970,44,10.199911,56.65299
1789524,Østerbro,8970,45,10.201164,56.653921
1789525,Østerbro,8970,45B,10.201043,56.653195
1789528,Østerbro,8970,46,10.200661,56.652974
1789530,Østerbro,8970,47,10.201354,56.653236
1789531,Østerbro,8970,48,10.200988,56.652953
1789533,Østerbro,8970,50,10.201312,56.65294
1789535,Østerbro,8970,52,10.201687,56.652928
1789537,Østerbro,8970,54,10.201996,56.652916
1789539,Østerbro,8970,56,10.202273,56.652904
1789540,Østerbro,8970,58,10.202693,56.652774
1791828,Bjerrevej,8970,1,10.238148,56.661061
1791829,Bjerrevej,8970,2,10.237367,56.66062
1791830,Bjerrevej,8970,3,10.238843,56.660848
1791831,Bjerrevej,8970,4,10.238121,56.660729
1791832,Bjerrevej,8970,5,10.249898,56.661159
1791833,Bjerrevej,8970,6,10.239046,56.660567
1791834,Bjerrevej,8970,7,10.281795,56.659245
1791835,Bjerrevej,8970,8,10.248912,56.65975
1791836,Bjerrevej,8970,9,10.282896,56.659485
1791837,Bjerrevej,8970,10,10.281948,56.657994
1791838,Bjerrevej,8970,11,10.283549,56.659972
1791839,Bjerrevej,8970,13,10.285188,56.660207
1791840,Bjerrevej,8970,14,10.282653,56.659047
1791841,Bjerrevej,8970,15,10.28449,56.659828
1791842,Bjerrevej,8970,16,10.283522,56.659182
1791843,Bjerrevej,8970,17,10.303364,56.660719
1791844,Bjerrevej,8970,18,10.284297,56.659417
1793379,Brunengevej,8970,1,10.289964,56.648621
1793380,Brunengevej,8970,2,10.253982,56.646572
1793381,Brunengevej,8970,4,10.255007,56.644513
1793382,Brunengevej,8970,6,10.257087,56.647718
1793383,Brunengevej,8970,10,10.262566,56.646234
1793384,Brunengevej,8970,12,10.263638,56.642692
1793385,Brunengevej,8970,14,10.261134,56.641944
1793386,Brunengevej,8970,16,10.277447,56.645831
1793387,Søndervej,8970,1,10.182243,56.651865
1793388,Søndervej,8970,2,10.181655,56.651835
1793389,Søndervej,8970,3,10.1819,56.65132
1794620,Smedegade,8970,1,10.114838,56.675073
1794623,Smedegade,8970,2,10.114863,56.675505
1794627,Smedegade,8970,3,10.114751,56.675311
1794630,Smedegade,8970,4,10.114507,56.675586
1794634,Smedegade,8970,5,10.114261,56.675475
1794638,Smedegade,8970,6,10.11397,56.675685
1799741,Venusvej,8970,1,10.193309,56.648983
1799744,Venusvej,8970,2,10.193334,56.648749
1799749,Venusvej,8970,3,10.193664,56.648872
1799750,Venusvej,8970,5,10.194217,56.648831
1799755,Venusvej,8970,7,10.194784,56.648691
1799756,Venusvej,8970,9,10.195002,56.648895
1799759,Venusvej,8970,11,10.195478,56.64898
1799764,Venusvej,8970,13,10.195468,56.648666
1799765,Venusvej,8970,14,10.192911,56.648286
1799769,Venusvej,8970,15,10.195153,56.648507
1799770,Venusvej,8970,16,10.192893,56.648223
1799775,Venusvej,8970,18,10.192891,56.648161
1799777,Venusvej,8970,20,10.192889,56.648089
1799780,Venusvej,8970,22,10.193313,56.648139
1799782,Venusvej,8970,24,10.193394,56.648084
1799785,Venusvej,8970,26,10.193386,56.648327
1799790,Venusvej,8970,28,10.193531,56.648271
1799793,Venusvej,8970,30,10.193998,56.648608
1799795,Venusvej,8970,32,10.1945,56.648496
1799799,Venusvej,8970,34,10.194184,56.64831
1799802,Venusvej,8970,36,10.194571,56.648162
1799805,Venusvej,8970,38,10.194879,56.648088
1799808,Venusvej,8970,40,10.195066,56.648337
1800218,Engvej,8970,1,10.192185,56.654214
1800220,Engvej,8970,2,10.19229,56.655974
1801282,Jydestien,8970,1,10.191739,56.653014
1801284,Jydestien,8970,2,10.191942,56.653219
1801286,Jydestien,8970,3,10.191234,56.653019
1801287,Jydestien,8970,4,10.189969,56.653247
1801290,Jydestien,8970,5,10.19099,56.653022
1801291,Jydestien,8970,6,10.18995,56.653157
1801294,Jydestien,8970,7,10.190594,56.652909
1801296,Jydestien,8970,8,10.190228,56.653182
1801297,Jydestien,8970,9,10.190207,56.653029
1801299,Jydestien,8970,10,10.190424,56.653189
1801301,Jydestien,8970,11,10.18957,56.653017
1801303,Jydestien,8970,12,10.190703,56.653258
1801305,Jydestien,8970,13,10.189478,56.653198
1801308,Jydestien,8970,14,10.1907,56.653159
1801309,Jydestien,8970,15,10.189331,56.653199
1801311,Jydestien,8970,16,10.190978,56.653184
1801313,Jydestien,8970,17,10.189168,56.653192
1801315,Jydestien,8970,18,10.189828,56.653446
1801941,Karl Poulsensvej,8970,1,10.201626,56.652569
1801945,Karl Poulsensvej,8970,2,10.201285,56.652608
1801948,Karl Poulsensvej,8970,3,10.201573,56.652417
1801952,Karl Poulsensvej,8970,4,10.201215,56.652465
1801954,Karl Poulsensvej,8970,5,10.201519,56.652274
1801957,Karl Poulsensvej,8970,6,10.200997,56.652261
1801961,Karl Poulsensvej,8970,7,10.201465,56.652094
1801964,Karl Poulsensvej,8970,8,10.200943,56.65209
1801966,Karl Poulsensvej,8970,9,10.201411,56.651942
1801970,Karl Poulsensvej,8970,10,10.200904,56.65192
1801971,Karl Poulsensvej,8970,11,10.201382,56.651538
1801975,Karl Poulsensvej,8970,12,10.200893,56.651579
1801977,Karl Poulsensvej,8970,13,10.201291,56.651261
1801978,Karl Poulsensvej,8970,14,10.200803,56.65131
1801979,Karl Poulsensvej,8970,15,10.201202,56.651028
1801980,Karl Poulsensvej,8970,16,10.200681,56.651042
1801981,Karl Poulsensvej,8970,18,10.200606,56.650755
1802197,Kalvevasen,8970,5,10.301212,56.623832
1802199,Kalvevasen,8970,8,10.302979,56.623552
1802200,Kalvevasen,8970,10,10.3010255,56.6210133
1802201,Kalvevasen,8970,12,10.30181,56.620824
1802202,Kalvevasen,8970,14,10.303934,56.623839
1802203,Kalvevasen,8970,16,10.304552,56.623302
1802204,Kalvevasen,8970,18,10.305122,56.623773
1802205,Kalvevasen,8970,20,10.306627,56.624413
1802206,Kalvevasen,8970,21,10.309798,56.627964
1802207,Kalvevasen,8970,22,10.304776,56.624612
1802208,Kalvevasen,8970,23,10.310147,56.62814
1802209,Kalvevasen,8970,25,10.310613,56.628432
1802210,Kalvevasen,8970,26,10.306032,56.625569
1802211,Kalvevasen,8970,28,10.306348,56.625763
1802213,Kalvevasen,8970,30,10.306955,56.625874
1802214,Kalvevasen,8970,34,10.30769,56.626396
1802216,Kalvevasen,8970,36,10.308688,56.626503
1802217,Kalvevasen,8970,38,10.310132,56.627709
1803060,Heden,8970,1,10.261395,56.657575
1803061,Heden,8970,2,10.260549,56.656649
1803062,Heden,8970,2A,10.260888,56.656556
1803063,Heden,8970,2B,10.260739,56.656504
1803064,Heden,8970,3,10.265968,56.655795
1803065,Heden,8970,4,10.260674,56.655525
1803066,Heden,8970,5,10.261369,56.654853
1803067,Heden,8970,5B,10.261872,56.654776
1803068,Heden,8970,6,10.260352,56.653686
1803069,Heden,8970,7,10.26088,56.654373
1803070,Heden,8970,8,10.257191,56.651832
1803071,Heden,8970,9,10.262108,56.653022
1803072,Heden,8970,11,10.260113,56.652386
1803680,Vesterbro,8970,1,10.192583,56.653375
1803681,Vesterbro,8970,2,10.192605,56.653554
1803684,Vesterbro,8970,3,10.191394,56.653431
1803685,Vesterbro,8970,4,10.19236,56.653566
1803687,Vesterbro,8970,5,10.190987,56.653462
1803689,Vesterbro,8970,6,10.192036,56.653605
1803690,Vesterbro,8970,7,10.190726,56.653473
1803692,Vesterbro,8970,8A,10.191807,56.653589
1803694,Vesterbro,8970,8B,10.191725,56.65359
1803696,Vesterbro,8970,9,10.190466,56.653476
1803698,Vesterbro,8970,10,10.191069,56.653811
1803699,Vesterbro,8970,10A,10.191504,56.653637
1803702,Vesterbro,8970,10B,10.191533,56.653717
1803703,Vesterbro,8970,10C,10.191009,56.65365
1803705,Vesterbro,8970,10F,10.191255,56.653666
1803708,Vesterbro,8970,11A,10.190205,56.653478
1803709,Vesterbro,8970,11B,10.190041,56.653471
1803711,Vesterbro,8970,12,10.19046,56.653808
1803713,Vesterbro,8970,13,10.189158,56.653407
1803715,Vesterbro,8970,13B,10.188661,56.653134
1803716,Vesterbro,8970,14,10.189982,56.653669
1803718,Vesterbro,8970,15,10.188652,56.653394
1803721,Vesterbro,8970,16,10.18941,56.653621
1803722,Vesterbro,8970,17,10.188356,56.653307
1803724,Vesterbro,8970,18,10.18871,56.653681
1803726,Vesterbro,8970,19,10.18811,56.653265
1803728,Vesterbro,8970,20,10.187871,56.653456
1803731,Vesterbro,8970,21,10.187799,56.653232
1803732,Vesterbro,8970,22,10.187264,56.653336
1803734,Vesterbro,8970,23,10.187504,56.653199
1803735,Vesterbro,8970,24,10.186433,56.653353
1803738,Vesterbro,8970,25,10.187258,56.653147
1803740,Vesterbro,8970,26,10.185407,56.654467
1803741,Vesterbro,8970,27,10.186994,56.65306
1803744,Vesterbro,8970,28,10.184538,56.652751
1803746,Vesterbro,8970,29,10.186699,56.652991
1803749,Vesterbro,8970,30,10.184159,56.652637
1803753,Vesterbro,8970,31,10.18642,56.652948
1803755,Vesterbro,8970,32,10.183624,56.652732
1803760,Vesterbro,8970,33,10.186091,56.652862
1803762,Vesterbro,8970,34,10.18174,56.65249
1803768,Vesterbro,8970,35,10.18568,56.652749
1803774,Vesterbro,8970,36,10.179258,56.651848
1803778,Vesterbro,8970,37,10.185222,56.652708
1803783,Vesterbro,8970,38,10.172842,56.650103
1803785,Vesterbro,8970,39,10.184778,56.652596
1803794,Vesterbro,8970,41A,10.184398,56.652456
1803802,Vesterbro,8970,43,10.183497,56.65232
1803810,Vesterbro,8970,45,10.18305,56.652118
1803820,Vesterbro,8970,47,10.1825,56.652267
1803824,Vesterbro,8970,48,10.168546,56.648832
1803828,Vesterbro,8970,48B,10.16699,56.648092
1803830,Vesterbro,8970,49,10.182107,56.652226
1803836,Vesterbro,8970,50,10.165703,56.64761
1803841,Vesterbro,8970,51,10.181927,56.6522
1803844,Vesterbro,8970,53,10.181566,56.652132
1803850,Vesterbro,8970,55,10.181104,56.651957
1803853,Vesterbro,8970,57,10.180775,56.651879
1803859,Vesterbro,8970,59,10.179365,56.651623
1803863,Vesterbro,8970,61,10.178408,56.651272
1803865,Vesterbro,8970,63,10.175034,56.650316
1803868,Vesterbro,8970,65,10.171539,56.649109
1803870,Vesterbro,8970,67,10.169831,56.648721
1803874,Vesterbro,8970,69,10.16812,56.648234
1803878,Vesterbro,8970,73,10.165226,56.64694
1803880,Vesterbro,8970,75,10.163866,56.646737
1803883,Vesterbro,8970,77,10.16375,56.646693
1807560,Granvænget,8970,1,10.20219,56.649275
1807566,Granvænget,8970,2,10.201694,56.64955
1807568,Granvænget,8970,3,10.201814,56.649234
1807569,Granvænget,8970,4,10.201127,56.64969
1807570,Granvænget,8970,5,10.201243,56.64923
1807571,Granvænget,8970,6,10.200676,56.649856
1807572,Granvænget,8970,7,10.200935,56.649305
1807573,Granvænget,8970,8,10.200554,56.649614
1808447,Trehøje,8970,3,10.229077,56.600369
1808449,Trehøje,8970,4,10.228421,56.59874
1808452,Trehøje,8970,7,10.234716,56.600978
1808453,Trehøje,8970,8,10.233769,56.598912
1808456,Trehøje,8970,10,10.23407,56.598136
1808459,Trehøje,8970,11,10.23707,56.601215
1808461,Trehøje,8970,12,10.232411,56.597209
1808463,Trehøje,8970,14,10.237853,56.598278
1808466,Trehøje,8970,16,10.237068,56.598178
1808468,Trehøje,8970,18,10.236915,56.597497
1809148,Semvej,8970,33,10.107424,56.630164
1809150,Semvej,8970,35,10.109041,56.6308192
1809152,Semvej,8970,37,10.114347,56.630928
1811646,Binderupvej,8970,5,10.233174,56.642144
1811652,Binderupvej,8970,6,10.233378,56.641387
1811658,Binderupvej,8970,9,10.235136,56.642295
1811661,Binderupvej,8970,10,10.235659,56.641328
1813200,Bygaden,8970,1,10.16055,56.64551
1813203,Bygaden,8970,2,10.155751,56.644827
1813206,Bygaden,8970,2B,10.156876,56.644835
1813209,Bygaden,8970,3,10.158457,56.644784
1813210,Bygaden,8970,4,10.154442,56.644678
1813213,Bygaden,8970,5,10.1579,56.644708
1813214,Bygaden,8970,6,10.153959,56.644341
1813215,Bygaden,8970,7A,10.157324,56.644534
1813216,Bygaden,8970,7B,10.156997,56.644501
1813217,Bygaden,8970,8,10.153679,56.64428
1813218,Bygaden,8970,9,10.156223,56.644248
1813219,Bygaden,8970,9B,10.155374,56.644247
1813220,Bygaden,8970,10,10.153401,56.644229
1813221,Bygaden,8970,11,10.154918,56.644251
1813222,Bygaden,8970,12,10.15304,56.644178
1813223,Bygaden,8970,13,10.154229,56.644132
1813224,Bygaden,8970,14,10.151911,56.644027
1813225,Bygaden,8970,15,10.153673,56.644056
1813226,Bygaden,8970,16,10.151552,56.644022
1813227,Bygaden,8970,17,10.1527798,56.6439051
1813228,Bygaden,8970,17A,10.15282,56.64392
1813229,Bygaden,8970,17B,10.152737,56.643867
1813230,Bygaden,8970,18,10.151355,56.643996
1813231,Bygaden,8970,19,10.152411,56.643861
1813232,Bygaden,8970,20,10.151045,56.643981
1813233,Bygaden,8970,21,10.151805,56.643768
1813234,Bygaden,8970,22,10.150515,56.644265
1813235,Bygaden,8970,23,10.150971,56.643703
1813236,Bygaden,8970,24,10.149418,56.644113
1813237,Bygaden,8970,26,10.149143,56.643639
1813238,Bygaden,8970,98,10.156888,56.644682
1813239,Bygaden,8970,99,10.155933,56.642777
1814125,Nyvasen,8970,2,10.29573,56.617473
1814126,Nyvasen,8970,3A,10.295651,56.616585
1814127,Nyvasen,8970,4,10.295212,56.617578
1814128,Nyvasen,8970,5,10.295113,56.617058
1814129,Nyvasen,8970,6,10.294622,56.617467
1814130,Nyvasen,8970,8,10.294131,56.617427
1814131,Nyvasen,8970,10,10.293785,56.617314
1814132,Nyvasen,8970,12,10.293394,56.617309
1814133,Nyvasen,8970,25,10.268687,56.614347
1814621,Laursensvej,8970,1,10.190714,56.648433
1814627,Laursensvej,8970,2,10.192305,56.648723
1814631,Laursensvej,8970,4,10.191229,56.648725
1814635,Laursensvej,8970,4B,10.191569,56.649162
1814637,Laursensvej,8970,6,10.189895,56.648818
1814639,Laursensvej,8970,8,10.189284,56.648599
1814655,Troldhusvej,8970,1,10.1481,56.672358
1814656,Troldhusvej,8970,2,10.153651,56.671435
1814657,Troldhusvej,8970,3,10.149382,56.672494
1814658,Troldhusvej,8970,4,10.157157,56.670585
1814659,Troldhusvej,8970,5,10.169766,56.675148
1814660,Troldhusvej,8970,6,10.165884,56.669093
1814661,Troldhusvej,8970,7,10.176605,56.676699
1814664,Troldhusvej,8970,8,10.167353,56.671611
1814668,Troldhusvej,8970,10,10.170447,56.672434
1814671,Troldhusvej,8970,11,10.180433,56.675335
1814673,Troldhusvej,8970,12,10.174198,56.674932
1814678,Troldhusvej,8970,14,10.178085,56.672521
1814679,Troldhusvej,8970,16,10.175272,56.672399
1814683,Troldhusvej,8970,18,10.180407,56.675043
1814684,Troldhusvej,8970,19,10.17963,56.675177
1814770,Grønningen,8970,1,10.116054,56.677033
1814772,Grønningen,8970,2,10.116383,56.677442
1814773,Grønningen,8970,3,10.11588,56.677315
1814774,Grønningen,8970,4,10.116536,56.677482
1814776,Grønningen,8970,5,10.115731,56.677499
1814777,Grønningen,8970,6,10.116645,56.677629
1814778,Grønningen,8970,7,10.115622,56.677748
1814780,Grønningen,8970,8,10.116569,56.67771
1814781,Grønningen,8970,9A,10.115479,56.678044
1814782,Grønningen,8970,9B,10.115339,56.678314
1814784,Grønningen,8970,9C,10.11502,56.678511
1814785,Grønningen,8970,10,10.116504,56.677843
1814786,Grønningen,8970,11,10.115799,56.678555
1814787,Grønningen,8970,12,10.116448,56.67793
1814788,Grønningen,8970,14,10.116194,56.678019
1814790,Grønningen,8970,15,10.116534,56.678681
1814792,Grønningen,8970,16,10.116131,56.678102
1814793,Grønningen,8970,18,10.1159,56.67831
1814795,Grønningen,8970,20,10.116052,56.678315
1814796,Grønningen,8970,22,10.116319,56.678196
1814797,Grønningen,8970,24,10.116465,56.678214
1814799,Grønningen,8970,26,10.116659,56.678444
1816541,Kirkevej,8970,1A,10.199068,56.653681
1816544,Kirkevej,8970,1B,10.199001,56.653691
1816546,Kirkevej,8970,1C,10.19879,56.653666
1816549,Kirkevej,8970,1D,10.198661,56.653685
1816552,Kirkevej,8970,1E,10.198515,56.653731
1816554,Kirkevej,8970,1F,10.198426,56.65375
1816559,Kirkevej,8970,1G,10.198409,56.653975
1816560,Kirkevej,8970,1H,10.198555,56.653964
1816563,Kirkevej,8970,1I,10.198669,56.653954
1816566,Kirkevej,8970,1J,10.198767,56.653944
1816567,Kirkevej,8970,1K,10.198864,56.653934
1816570,Kirkevej,8970,1L,10.199059,56.653915
1816572,Kirkevej,8970,1M,10.199173,56.653904
1816574,Kirkevej,8970,2A,10.199901,56.6537
1816576,Kirkevej,8970,2B,10.199903,56.653763
1816578,Kirkevej,8970,2C,10.199983,56.653825
1816580,Kirkevej,8970,2D,10.200001,56.653888
1816582,Kirkevej,8970,2E,10.199974,56.653942
1816583,Kirkevej,8970,2F,10.200122,56.653932
1816585,Kirkevej,8970,2G,10.200135,56.653895
1816587,Kirkevej,8970,2H,10.200249,56.653885
1816591,Kirkevej,8970,2J,10.200231,56.65384
1816593,Kirkevej,8970,2K,10.200134,56.653859
1816597,Kirkevej,8970,2L,10.200053,56.653878
1816599,Kirkevej,8970,2M,10.2000754,56.6538153
1816603,Kirkevej,8970,2N,10.199982,56.653699
1816604,Kirkevej,8970,2O,10.2,56.653753
1816607,Kirkevej,8970,2P,10.199622,56.653649
1816609,Kirkevej,8970,2R,10.199703,56.653639
1816611,Kirkevej,8970,2S,10.199784,56.653629
1816614,Kirkevej,8970,2T,10.199882,56.653619
1816615,Kirkevej,8970,2U,10.199947,56.653619
1816618,Kirkevej,8970,2V,10.200061,56.653608
1816620,Kirkevej,8970,2X,10.200158,56.653598
1816621,Kirkevej,8970,3,10.199164,56.65412
1816623,Kirkevej,8970,4,10.199684,56.654079
1816625,Kirkevej,8970,5,10.199957,56.654454
1816634,Søkærvej,8970,1,10.136772,56.659534
1816636,Søkærvej,8970,2,10.136122,56.659421
1816638,Søkærvej,8970,3,10.137109,56.659373
1816641,Søkærvej,8970,4,10.137191,56.658868
1816643,Søkærvej,8970,5,10.137742,56.659422
1816644,Søkærvej,8970,6,10.137811,56.658895
1816648,Søkærvej,8970,7,10.139225,56.658438
1816650,Søkærvej,8970,8,10.135302,56.652918
1816656,Søkærvej,8970,9,10.138957,56.658255
1816663,Søkærvej,8970,10,10.130967,56.652602
1816665,Søkærvej,8970,11,10.140015,56.653615
1816673,Søkærvej,8970,13,10.138882,56.649651
1816879,Sødringholmvej,8970,6,10.318455,56.629391
1816884,Sødringholmvej,8970,8,10.317634,56.628762
1816888,Sødringholmvej,8970,10,10.320824,56.62907
1816891,Sødringholmvej,8970,12,10.321008,56.628277
1816936,Østervangsvej,8970,11,10.238519,56.631075
1816939,Østervangsvej,8970,21,10.247253,56.630961
1816942,Østervangsvej,8970,23,10.246594,56.631237
1816944,Østervangsvej,8970,23A,10.247177,56.631618
1816949,Østervangsvej,8970,27,10.246834,56.633086
1816951,Østervangsvej,8970,30,10.248732,56.630326
1816954,Østervangsvej,8970,31,10.247581,56.631991
1816956,Østervangsvej,8970,32,10.259368,56.632016
1816959,Østervangsvej,8970,34,10.284983,56.631161
1816961,Østervangsvej,8970,35,10.248098,56.631357
1816966,Østervangsvej,8970,36,10.249339,56.628469
1816967,Østervangsvej,8970,38,10.248386,56.628236
1816970,Østervangsvej,8970,59,10.278195,56.634834
1818733,Klosterstræde,8970,3,10.230295,56.607787
1818737,Klosterstræde,8970,4,10.229935,56.607728
1818740,Klosterstræde,8970,5,10.23021,56.60768
1818744,Klosterstræde,8970,6,10.229767,56.607586
1818749,Klosterstræde,8970,7,10.230141,56.607573
1818751,Klosterstræde,8970,8,10.22963,56.607371
1818757,Klosterstræde,8970,9,10.230085,56.60734
1818759,Klosterstræde,8970,10,10.229492,56.607148
1818762,Klosterstræde,8970,11,10.229949,56.607162
1819168,Tinghøjvej,8970,1,10.198011,56.619836
1819169,Tinghøjvej,8970,4,10.197744,56.620153
1819172,Tinghøjvej,8970,6,10.197145,56.620258
1819175,Tinghøjvej,8970,8,10.194839,56.62002
1819176,Tinghøjvej,8970,8A,10.195191,56.62034
1819179,Tinghøjvej,8970,11,10.193171,56.618787
1819183,Tinghøjvej,8970,18,10.185576,56.615122
1819184,Tinghøjvej,8970,20,10.184647,56.616173
1819188,Tinghøjvej,8970,30,10.181992,56.61308
1819189,Tinghøjvej,8970,32,10.181529,56.612851
1819192,Tinghøjvej,8970,34,10.181945,56.613656
1819197,Tinghøjvej,8970,35,10.181601,56.612554
1819198,Tinghøjvej,8970,36,10.181047,56.61308
1819202,Tinghøjvej,8970,38,10.181251,56.612818
1819203,Tinghøjvej,8970,40,10.180213,56.612459
1819207,Tinghøjvej,8970,42,10.179652,56.612249
1819212,Tinghøjvej,8970,43,10.179015,56.611671
1819213,Tinghøjvej,8970,46,10.178779,56.612204
1819217,Tinghøjvej,8970,48,10.178191,56.612415
1819218,Tinghøjvej,8970,56,10.168965,56.612278
1819221,Tinghøjvej,8970,57,10.169106,56.611046
1819222,Tinghøjvej,8970,62,10.165047,56.612036
1821168,Vesterled,8970,1,10.29703,56.611665
1821169,Vesterled,8970,3,10.296393,56.611626
1821171,Vesterled,8970,4,10.296501,56.611904
1821172,Vesterled,8970,5,10.296001,56.611595
1821173,Vesterled,8970,6,10.296239,56.611871
1821174,Vesterled,8970,8,10.295681,56.611852
1821609,Mågevej,8970,4,10.297655,56.61421
1821611,Mågevej,8970,5,10.298382,56.61449
1821612,Mågevej,8970,6,10.298079,56.614214
1821614,Mågevej,8970,8,10.298405,56.614229
1824451,Fuglsø Mark,8970,1,10.205035,56.663282
1824452,Fuglsø Mark,8970,2,10.206221,56.663127
1824453,Fuglsø Mark,8970,3,10.202399,56.664017
1824454,Fuglsø Mark,8970,4,10.204842,56.663895
1824455,Fuglsø Mark,8970,5,10.199929,56.66538
1824456,Fuglsø Mark,8970,6,10.201235,56.665385
1824457,Fuglsø Mark,8970,7,10.197784,56.666685
1824459,Fuglsø Mark,8970,8,10.198371,56.667165
1825499,Hvilhusevej,8970,24,10.230074,56.584959
1825501,Hvilhusevej,8970,30,10.232803,56.585255
1825504,Hvilhusevej,8970,31,10.234621,56.586073
1825507,Hvilhusevej,8970,35,10.235901,56.58588
1825508,Hvilhusevej,8970,36,10.237652,56.585153
1825512,Hvilhusevej,8970,41,10.237874,56.58595
1825518,Hvilhusevej,8970,56,10.242537,56.583526
1825520,Hvilhusevej,8970,60,10.243537,56.585867
1825521,Hvilhusevej,8970,61,10.243199,56.586472
1825526,Hvilhusevej,8970,62,10.244841,56.585899
1825527,Hvilhusevej,8970,66,10.2445,56.587915
1825529,Hvilhusevej,8970,68,10.244748,56.588047
1825531,Hvilhusevej,8970,75,10.245386,56.590107
1825533,Hvilhusevej,8970,84,10.248287,56.592639
1825537,Hvilhusevej,8970,87,10.24884,56.593613
1825539,Hvilhusevej,8970,90,10.251856,56.59467
1825541,Hvilhusevej,8970,91,10.249443,56.594613
1825542,Hvilhusevej,8970,92,10.251186,56.595126
1825544,Hvilhusevej,8970,93,10.25038,56.595376
1825546,Hvilhusevej,8970,94A,10.259324,56.593004
1825548,Hvilhusevej,8970,95,10.250668,56.596182
1825549,Hvilhusevej,8970,96,10.25206,56.597399
1825551,Hvilhusevej,8970,98,10.252797,56.598533
1825552,Hvilhusevej,8970,99,10.251896,56.598371
1825553,Hvilhusevej,8970,102,10.253345,56.599821
1826624,Hamborgvej,8970,1,10.21046,56.649806
1826631,Hamborgvej,8970,1A,10.211013,56.649756
1826638,Hamborgvej,8970,2,10.208791,56.650155
1826641,Hamborgvej,8970,4,10.20772,56.649806
1826763,Udbyovergade,8970,2,10.211618,56.650316
1826765,Udbyovergade,8970,4,10.210918,56.650341
1826768,Udbyovergade,8970,6,10.211152,56.650015
1826770,Udbyovergade,8970,8,10.210242,56.64961
1826772,Udbyovergade,8970,10,10.21094,56.649514
1826774,Udbyovergade,8970,12,10.211312,56.649402
1826776,Udbyovergade,8970,14,10.211811,56.6492
1826778,Udbyovergade,8970,16,10.211933,56.648929
1827307,Stjernevej,8970,2,10.194956,56.650019
1827308,Stjernevej,8970,4,10.195239,56.650214
1827309,Stjernevej,8970,6,10.195426,56.650445
1827310,Stjernevej,8970,8,10.195596,56.650668
1827311,Stjernevej,8970,10,10.195651,56.650857
1828790,Demstrupvej,8970,1,10.254382,56.600628
1828791,Demstrupvej,8970,3,10.255254,56.601374
1828792,Demstrupvej,8970,5,10.25544,56.602082
1828793,Demstrupvej,8970,7,10.255843,56.602949
1828794,Demstrupvej,8970,9,10.256136,56.603908
1828795,Demstrupvej,8970,11,10.255794,56.604891
1828796,Demstrupvej,8970,13,10.257622,56.605986
1828797,Demstrupvej,8970,17,10.259101,56.607831
1828798,Demstrupvej,8970,19,10.259157,56.609026
1828799,Demstrupvej,8970,21,10.259774,56.609927
1828800,Demstrupvej,8970,23,10.258942,56.610385
1828801,Demstrupvej,8970,26,10.260713,56.613664
1828802,Demstrupvej,8970,27,10.258427,56.614029
1828803,Demstrupvej,8970,31,10.257386,56.615055
1828804,Demstrupvej,8970,35,10.25694,56.61585
1828805,Demstrupvej,8970,38,10.249936,56.623351
1828806,Demstrupvej,8970,39,10.256144,56.616918
1828807,Demstrupvej,8970,42A,10.251368,56.624253
1828808,Demstrupvej,8970,42B,10.251062,56.624364
1828809,Demstrupvej,8970,50,10.223288,56.632915
1828810,Demstrupvej,8970,52,10.223081,56.633097
1828811,Demstrupvej,8970,54,10.22283,56.632874
1828812,Demstrupvej,8970,55,10.223049,56.632109
1828813,Demstrupvej,8970,56,10.222692,56.633154
1828814,Demstrupvej,8970,57,10.222821,56.632596
1828815,Demstrupvej,8970,58,10.222363,56.633553
1828816,Demstrupvej,8970,59,10.221739,56.633442
1828817,Demstrupvej,8970,60,10.222021,56.633592
1828952,Mergelvang,8970,1,10.202297,56.61674
1828955,Mergelvang,8970,2,10.201908,56.616304
1828956,Mergelvang,8970,3,10.202782,56.616628
1828959,Mergelvang,8970,4,10.202357,56.616359
1828962,Mergelvang,8970,5A,10.202675,56.616853
1828963,Mergelvang,8970,5B,10.202806,56.616852
1828965,Mergelvang,8970,5C,10.202952,56.616833
1828967,Mergelvang,8970,6,10.202756,56.616331
1828969,Mergelvang,8970,7,10.203613,56.616611
1828971,Mergelvang,8970,8,10.203178,56.616282
1829846,Kilevej,8970,3,10.180163,56.651606
1829847,Kilevej,8970,5,10.179783,56.651448
1829883,Blindgyden,8970,1,10.151983,56.644251
1829885,Blindgyden,8970,2,10.152312,56.644356
1829887,Blindgyden,8970,3,10.151718,56.644676
2104578,Fl. Junckers Vej,8970,1,10.215629,56.666503
2104579,Fl. Junckers Vej,8970,2,10.216061,56.66623
2104580,Fl. Junckers Vej,8970,5,10.227735,56.670967
2104581,Fl. Junckers Vej,8970,7,10.231792,56.672751
2104582,Fl. Junckers Vej,8970,8,10.224696,56.669352
2104583,Fl. Junckers Vej,8970,9,10.2367,56.675622
2104584,Fl. Junckers Vej,8970,10,10.226531,56.670053
2104585,Fl. Junckers Vej,8970,11,10.234223,56.675727
2104586,Fl. Junckers Vej,8970,12,10.23415,56.670993
2104587,Fl. Junckers Vej,8970,14,10.238207,56.674789
2104588,Fl. Junckers Vej,8970,16,10.237065,56.676283
2146894,Amdalsvej,8970,2,10.160332,56.617687
2146897,Amdalsvej,8970,4,10.163157,56.616825
2146899,Amdalsvej,8970,6,10.165999,56.615963
2146900,Amdalsvej,8970,10,10.171781,56.6143
2151600,Havndalvej,8970,58,10.125837,56.642999
2151605,Havndalvej,8970,60,10.127362,56.642734
2151608,Havndalvej,8970,62,10.130335,56.642356
2151615,Havndalvej,8970,64,10.138547,56.636738
2151619,Havndalvej,8970,64B,10.138536,56.636927
2151625,Havndalvej,8970,65,10.12705,56.643222
2151635,Havndalvej,8970,67,10.129079,56.642907
2151641,Havndalvej,8970,69,10.131711,56.644743
2151644,Havndalvej,8970,71,10.134632,56.642092
2151650,Havndalvej,8970,73,10.136427,56.643783
2151656,Havndalvej,8970,75,10.138234,56.642033
2153382,Landevejen,8970,9,10.158163,56.666645
2153388,Landevejen,8970,17,10.162755,56.649874
2153391,Landevejen,8970,19,10.162073,56.644131
2153394,Landevejen,8970,21,10.16181,56.641941
2153398,Landevejen,8970,23,10.159194,56.633735
2153400,Landevejen,8970,25A,10.1664,56.625285
2153403,Landevejen,8970,25B,10.165386,56.62516
2153405,Landevejen,8970,27,10.157941,56.621581
2153411,Landevejen,8970,29,10.157611,56.621432
2160788,Knolden,8970,1,10.152113,56.643181
2160794,Knolden,8970,2,10.151256,56.643413
2160804,Knolden,8970,4,10.151936,56.642706
2161537,Gammel Vinkelvej,8970,1,10.192678,56.653796
2161557,Gammel Vinkelvej,8970,3,10.192681,56.653904
2161563,Gammel Vinkelvej,8970,5,10.192929,56.654018
2161577,Gammel Vinkelvej,8970,7,10.193109,56.654017
2161582,Gammel Vinkelvej,8970,9,10.193498,56.653941
2161593,Gammel Vinkelvej,8970,11,10.193985,56.653864
2161606,Gammel Vinkelvej,8970,13,10.193979,56.653685
2161609,Gammel Vinkelvej,8970,15,10.194523,56.65385
2197558,Udbyhøjvej,8970,604,10.218815,56.600874
2197559,Udbyhøjvej,8970,661,10.242265,56.611623
2197560,Udbyhøjvej,8970,686B,10.25574,56.617497
2210368,Havndalvej,8970,63,10.125639,56.64769
2227365,Østerbro,8970,6C,10.193547,56.653373
2227366,Østerbro,8970,6D,10.193669,56.653366
2227367,Østerbro,8970,20,10.195099,56.653193
2227368,Østerbro,8970,22,10.195725,56.65324
2227594,Kronborgvej,8970,28,10.203374,56.617305
2233148,Strandvej,8970,6,10.313221,56.626545
2233149,Strandvej,8970,23,10.324515,56.622283
2233150,Strandvej,8970,50,10.326793,56.619869
2233209,Skægsbjergvej,8970,39,10.252431,56.601735
2233224,Udbynedervej,8970,23,10.235576,56.660583
2233271,Havnevej,8970,6,10.298813,56.611403
2233273,Stenkildevej,8970,6A,10.233349,56.661297
2233524,Under Bakken,8970,41B,10.324488,56.655521
2233525,Under Bakken,8970,45,10.338347,56.655766
2233526,Under Bakken,8970,53,10.349392,56.659429
2233527,Under Bakken,8970,63,10.352084,56.646677
2233528,Under Bakken,8970,71,10.355692,56.641777
2233561,Grejsvang,8970,59,10.204658,56.61669
2233562,Grejsvang,8970,60,10.207367,56.616799
2233589,Splitad,8970,4A,10.179594,56.613704
2233597,Sødring Bygade,8970,47,10.31593,56.628026
2233613,Birkebakken,8970,17,10.199703,56.651205
2233782,Kalvevasen,8970,6,10.302179,56.623516
2233783,Kalvevasen,8970,17,10.301852,56.627751
2233784,Kalvevasen,8970,32,10.307257,56.626131
2233785,Kalvevasen,8970,40,10.312248,56.6281
2233971,Hvilhusevej,8970,79,10.245734,56.590778
2253174,Håndværkervænget,8970,6,10.183467,56.650856
2253175,Håndværkervænget,8970,8,10.183315,56.650408
2253178,Kirkebakken,8970,22A,10.21786,56.635421
2253224,Østerled,8970,4,10.297664,56.612571
2253248,Trudsholm Alle,8970,4,10.169139,56.652844
2253249,Trudsholm Alle,8970,6,10.171467,56.652764
2253250,Trudsholm Alle,8970,8,10.17249,56.653031
2253251,Trudsholm Alle,8970,10,10.172413,56.6533
2253252,Trudsholm Alle,8970,16,10.170212,56.655405
