idx,street,postcode,housenumber,lon,lat
820129,Hadsundvej,8983,402,10.095798,56.539952
820130,Hadsundvej,8983,403,10.094783,56.540284
820131,Hadsundvej,8983,408,10.100164,56.543031
820132,Hadsundvej,8983,409,10.099414,56.545203
820133,Hadsundvej,8983,411,10.09214,56.545105
820134,Hadsundvej,8983,412,10.099737,56.544005
820135,Hadsundvej,8983,415,10.088382,56.545066
820136,Hadsundvej,8983,417,10.09412,56.545492
820137,Hadsundvej,8983,420,10.104121,56.548775
820138,Hadsundvej,8983,421,10.101521,56.547206
820139,Hadsundvej,8983,425A,10.089285,56.548176
820140,Hadsundvej,8983,425C,10.090316,56.549551
820141,Hadsundvej,8983,427,10.102179,56.549109
820142,Hadsundvej,8983,428,10.103994,56.551676
820143,Hadsundvej,8983,451,10.106982,56.570994
820144,Hadsundvej,8983,481,10.107376,56.572248
820145,Hadsundvej,8983,482,10.110936,56.572648
820146,Hadsundvej,8983,484,10.116375,56.571638
820147,Hadsundvej,8983,485,10.103049,56.573455
820148,Hadsundvej,8983,503,10.107894,56.575496
820149,Hadsundvej,8983,508,10.119203,56.580318
820150,Hadsundvej,8983,509,10.108286,56.578332
820151,Hadsundvej,8983,510,10.120059,56.581182
820152,Hadsundvej,8983,513,10.116738,56.579541
820153,Hadsundvej,8983,514,10.121836,56.5829
820154,Hadsundvej,8983,517,10.117434,56.580487
820155,Hadsundvej,8983,520,10.123692,56.584564
820156,Hadsundvej,8983,529,10.118802,56.581059
820157,Hadsundvej,8983,535,10.122066,56.584057
820158,Hadsundvej,8983,537,10.122515,56.584386
820159,Hadsundvej,8983,539,10.122701,56.584627
820160,Hadsundvej,8983,541,10.122984,56.58484
820161,Hadsundvej,8983,548,10.124606,56.585741
820162,Hadsundvej,8983,549,10.123957,56.585792
820163,Hadsundvej,8983,551,10.124177,56.586078
820164,Hadsundvej,8983,553,10.124731,56.586657
820165,Hadsundvej,8983,554,10.125792,56.586719
820166,Hadsundvej,8983,555,10.124871,56.586988
820167,Hadsundvej,8983,576,10.134953,56.594147
820168,Hadsundvej,8983,580,10.138056,56.597138
820169,Hadsundvej,8983,584,10.138751,56.59803
820170,Hadsundvej,8983,589,10.139855,56.600086
820171,Hadsundvej,8983,590,10.143576,56.600869
820172,Hadsundvej,8983,593,10.136862,56.604004
820173,Hadsundvej,8983,595,10.141837,56.60262
820174,Hadsundvej,8983,597,10.141861,56.603392
820175,Hadsundvej,8983,601,10.144961,56.605205
820176,Hadsundvej,8983,603,10.147315,56.607601
820177,Hadsundvej,8983,611,10.150121,56.609884
820178,Hadsundvej,8983,615,10.151322,56.610789
820179,Hadsundvej,8983,619,10.151286,56.611742
820180,Hadsundvej,8983,620,10.152406,56.611615
821379,Udbyhøjvej,8983,501,10.173112,56.561811
821380,Udbyhøjvej,8983,504,10.18464,56.564941
821381,Udbyhøjvej,8983,506,10.181415,56.565376
821382,Udbyhøjvej,8983,510,10.185489,56.571789
821383,Udbyhøjvej,8983,511,10.184802,56.572208
821384,Udbyhøjvej,8983,512,10.185388,56.572194
821385,Udbyhøjvej,8983,513,10.185239,56.572635
821386,Udbyhøjvej,8983,514,10.185842,56.572684
821387,Udbyhøjvej,8983,515,10.1855136,56.5731347
821388,Udbyhøjvej,8983,516,10.186138,56.573045
821389,Udbyhøjvej,8983,517,10.186036,56.57367
821390,Udbyhøjvej,8983,518,10.186265,56.573165
821391,Udbyhøjvej,8983,519,10.184769,56.573754
821392,Udbyhøjvej,8983,520,10.186402,56.573388
821393,Udbyhøjvej,8983,521,10.185334,56.574108
821394,Udbyhøjvej,8983,522,10.186889,56.573869
821395,Udbyhøjvej,8983,523,10.186164,56.574127
821396,Udbyhøjvej,8983,525,10.18604,56.574317
821397,Udbyhøjvej,8983,526,10.186747,56.574526
821398,Udbyhøjvej,8983,527,10.186015,56.574551
821399,Udbyhøjvej,8983,529,10.185956,56.574758
821400,Udbyhøjvej,8983,530,10.186744,56.574957
821401,Udbyhøjvej,8983,531,10.186046,56.575036
821402,Udbyhøjvej,8983,532,10.186991,56.575063
821403,Udbyhøjvej,8983,533,10.186344,56.575186
821404,Udbyhøjvej,8983,534,10.187007,56.575566
821405,Udbyhøjvej,8983,535,10.186416,56.575392
821406,Udbyhøjvej,8983,536,10.187111,56.575753
821407,Udbyhøjvej,8983,537,10.186485,56.575535
821408,Udbyhøjvej,8983,538,10.187184,56.576004
821409,Udbyhøjvej,8983,539,10.186537,56.575642
821410,Udbyhøjvej,8983,540,10.18727,56.576174
821411,Udbyhøjvej,8983,541,10.186661,56.575946
821412,Udbyhøjvej,8983,542,10.18734,56.576317
821413,Udbyhøjvej,8983,543,10.186796,56.576098
821414,Udbyhøjvej,8983,545,10.186866,56.576268
821415,Udbyhøjvej,8983,546,10.187461,56.57655
821416,Udbyhøjvej,8983,548,10.187631,56.576773
821417,Udbyhøjvej,8983,549,10.18738,56.577072
821418,Udbyhøjvej,8983,550,10.187704,56.577024
821419,Udbyhøjvej,8983,551,10.187321,56.577279
821420,Udbyhøjvej,8983,552,10.187973,56.5773
821421,Udbyhøjvej,8983,553,10.187769,56.577553
821422,Udbyhøjvej,8983,555A,10.187865,56.57767
821423,Udbyhøjvej,8983,555B,10.187912,56.577748
821424,Udbyhøjvej,8983,557,10.187931,56.578046
821425,Udbyhøjvej,8983,559,10.188189,56.578474
821426,Udbyhøjvej,8983,561,10.188308,56.578644
821427,Udbyhøjvej,8983,562,10.189369,56.578742
821428,Udbyhøjvej,8983,563,10.188542,56.578849
821429,Udbyhøjvej,8983,565,10.188698,56.579126
821430,Udbyhøjvej,8983,566,10.189327,56.579461
821431,Udbyhøjvej,8983,566A,10.189293,56.579416
821432,Udbyhøjvej,8983,566B,10.189441,56.579469
821433,Udbyhøjvej,8983,570,10.19015,56.580271
821434,Udbyhøjvej,8983,572,10.190323,56.580583
821435,Udbyhøjvej,8983,573,10.189626,56.580186
821436,Udbyhøjvej,8983,574,10.190598,56.581057
821437,Udbyhøjvej,8983,575,10.189243,56.580423
821438,Udbyhøjvej,8983,576,10.190394,56.581284
821439,Udbyhøjvej,8983,578,10.190415,56.581436
821440,Udbyhøjvej,8983,580,10.190454,56.581651
821441,Udbyhøjvej,8983,582,10.191032,56.581906
821442,Udbyhøjvej,8983,583,10.189926,56.581432
821443,Udbyhøjvej,8983,584,10.191058,56.58223
821444,Udbyhøjvej,8983,585A,10.189984,56.581728
821445,Udbyhøjvej,8983,585B,10.189984,56.58171
821446,Udbyhøjvej,8983,587,10.193107,56.585256
821447,Udbyhøjvej,8983,588,10.198924,56.588452
821448,Udbyhøjvej,8983,589,10.199293,56.589842
821449,Udbyhøjvej,8983,591,10.202431,56.593774
821450,Udbyhøjvej,8983,592,10.204626,56.593177
821451,Udbyhøjvej,8983,593,10.204282,56.594106
821452,Udbyhøjvej,8983,594,10.205126,56.593532
1071013,Skaldhøjvej,8983,30,10.032896,56.563913
1071014,Skaldhøjvej,8983,31,10.030537,56.566314
1071015,Skaldhøjvej,8983,32,10.037461,56.569545
1073263,Haldvej,8983,5,10.106823,56.554409
1073264,Haldvej,8983,5B,10.106327,56.554144
1073265,Haldvej,8983,6,10.106766,56.553565
1073266,Haldvej,8983,7,10.1077,56.554375
1073267,Haldvej,8983,8A,10.107824,56.553601
1073268,Haldvej,8983,8B,10.108008,56.553788
1073269,Haldvej,8983,9,10.108091,56.554371
1073270,Haldvej,8983,10,10.108294,56.554091
1073271,Haldvej,8983,11A,10.108345,56.554719
1073272,Haldvej,8983,11B,10.108835,56.554787
1073273,Haldvej,8983,12,10.108723,56.554303
1073274,Haldvej,8983,13,10.109274,56.554792
1073275,Haldvej,8983,14,10.10915,56.554433
1073276,Haldvej,8983,15,10.109421,56.554808
1073277,Haldvej,8983,16,10.109678,56.554698
1073278,Haldvej,8983,17,10.109802,56.555081
1073279,Haldvej,8983,18A,10.110135,56.55473
1073282,Haldvej,8983,18B,10.110128,56.555054
1073284,Haldvej,8983,18C,10.11021,56.555098
1073286,Haldvej,8983,19,10.109805,56.555703
1073288,Haldvej,8983,20,10.110207,56.55552
1073289,Haldvej,8983,21,10.109746,56.55592
1073292,Haldvej,8983,22,10.110148,56.555727
1073293,Haldvej,8983,23,10.109719,56.556091
1073295,Haldvej,8983,24,10.110151,56.555835
1073297,Haldvej,8983,26,10.110252,56.555969
1073300,Haldvej,8983,27,10.109573,56.556676
1073302,Haldvej,8983,28,10.110502,56.556155
1073304,Haldvej,8983,30,10.110047,56.556169
1073306,Haldvej,8983,32,10.110249,56.556418
1073308,Haldvej,8983,34,10.110064,56.556779
1073309,Haldvej,8983,35,10.108135,56.558126
1073310,Haldvej,8983,36,10.109865,56.557203
1073311,Haldvej,8983,37,10.107467,56.558644
1073312,Haldvej,8983,38,10.11093,56.557445
1073313,Haldvej,8983,40,10.110254,56.557712
1073314,Haldvej,8983,42,10.110335,56.558259
1073315,Haldvej,8983,44,10.109637,56.557754
1073316,Haldvej,8983,46,10.109102,56.557812
1073317,Haldvej,8983,48,10.109305,56.558089
1073318,Haldvej,8983,52,10.107943,56.559341
1073319,Haldvej,8983,54,10.107331,56.55958
1073320,Haldvej,8983,56,10.10711,56.55978
1073321,Haldvej,8983,58,10.106951,56.559934
1073322,Haldvej,8983,61,10.10649,56.559731
1073323,Haldvej,8983,62,10.106259,56.560749
1073324,Haldvej,8983,63,10.106186,56.559914
1074807,Tvedevej,8983,2A,10.110665,56.555076
1074808,Tvedevej,8983,2C,10.111069,56.55554
1074809,Tvedevej,8983,3,10.111222,56.555754
1074810,Tvedevej,8983,4,10.111213,56.555439
1074811,Tvedevej,8983,5,10.112318,56.555942
1074812,Tvedevej,8983,6,10.111511,56.555625
1074813,Tvedevej,8983,7,10.112585,56.556182
1074814,Tvedevej,8983,8,10.111715,56.555381
1074815,Tvedevej,8983,9,10.113186,56.55614
1074817,Tvedevej,8983,10A,10.111934,56.555631
1074818,Tvedevej,8983,10B,10.112934,56.555334
1074820,Tvedevej,8983,11,10.113414,56.556165
1074823,Tvedevej,8983,12,10.112688,56.55583
1074824,Tvedevej,8983,13,10.113579,56.556236
1074826,Tvedevej,8983,14,10.113292,56.55587
1074828,Tvedevej,8983,15,10.114545,56.556982
1074829,Tvedevej,8983,16,10.113862,56.555892
1074831,Tvedevej,8983,17,10.115177,56.556913
1074834,Tvedevej,8983,18,10.114285,56.555897
1074835,Tvedevej,8983,19,10.116306,56.556562
1074838,Tvedevej,8983,19A,10.117672,56.55637
1074839,Tvedevej,8983,20,10.115537,56.555877
1074841,Tvedevej,8983,21,10.120037,56.556214
1074843,Tvedevej,8983,22,10.115407,56.555878
1074844,Tvedevej,8983,35,10.131075,56.555651
1074847,Tvedevej,8983,38,10.130008,56.555027
1074848,Tvedevej,8983,39,10.132376,56.557513
1074850,Tvedevej,8983,45,10.132367,56.556111
1074851,Tvedevej,8983,54,10.141596,56.55139
1074853,Tvedevej,8983,55,10.138089,56.55543
1074855,Tvedevej,8983,56,10.140269,56.550558
1074857,Tvedevej,8983,58,10.138574,56.550439
1074859,Tvedevej,8983,60,10.141841,56.549268
1074861,Tvedevej,8983,62,10.136457,56.546011
1074863,Tvedevej,8983,64,10.135028,56.546105
1074865,Tvedevej,8983,66,10.139587,56.544095
1074867,Tvedevej,8983,71,10.149238,56.555049
1639841,Guldgaden,8983,1,10.062088,56.601592
1639843,Guldgaden,8983,2,10.061592,56.601911
1639845,Guldgaden,8983,4,10.061586,56.601722
1639847,Guldgaden,8983,6,10.061661,56.60147
1639849,Guldgaden,8983,10,10.061665,56.601038
1639851,Guldgaden,8983,11,10.062265,56.600377
1639853,Guldgaden,8983,12,10.061863,56.600525
1639856,Guldgaden,8983,13,10.062308,56.600153
1639857,Guldgaden,8983,14,10.062019,56.60029
1639859,Guldgaden,8983,16,10.062107,56.599965
1639861,Guldgaden,8983,17,10.062453,56.599504
1639863,Guldgaden,8983,20,10.061572,56.598874
1639864,Guldgaden,8983,22,10.061698,56.59872
1643881,Kirkegade,8983,2,10.063277,56.600441
1643883,Kirkegade,8983,3,10.063428,56.599999
1643885,Kirkegade,8983,5,10.063668,56.599871
1643886,Kirkegade,8983,7,10.063482,56.59963
1643888,Kirkegade,8983,8,10.063264,56.59939
1643891,Kirkegade,8983,9,10.063592,56.599486
1643892,Kirkegade,8983,10A,10.063133,56.59878
1643896,Kirkegade,8983,11,10.063936,56.598962
1643899,Kirkegade,8983,13,10.063892,56.598558
1643957,Munkebovej,8983,1,10.106498,56.595122
1643961,Munkebovej,8983,3,10.105793,56.594967
1643963,Munkebovej,8983,5,10.105337,56.594944
1643964,Munkebovej,8983,9,10.103682,56.594599
1643967,Munkebovej,8983,13,10.101786,56.594382
1643969,Munkebovej,8983,15,10.100361,56.59355
1643971,Munkebovej,8983,16,10.100027,56.594937
1643974,Munkebovej,8983,17,10.100095,56.594469
1643975,Munkebovej,8983,20,10.097398,56.594916
1643977,Munkebovej,8983,24,10.093587,56.594688
1643980,Munkebovej,8983,28,10.090583,56.595002
1643981,Munkebovej,8983,32,10.088551,56.595119
1643984,Munkebovej,8983,37,10.084296,56.594994
1643986,Munkebovej,8983,41,10.081418,56.595936
1643988,Munkebovej,8983,45,10.079136,56.5968
1648954,Bjergene,8983,3,10.091632,56.61104
1648957,Bjergene,8983,7,10.08767,56.613231
1648959,Bjergene,8983,8,10.094228,56.61179
1648963,Bjergene,8983,9,10.093555,56.613323
1648966,Bjergene,8983,10,10.096517,56.61254
1648968,Bjergene,8983,15,10.10152,56.613792
1648972,Bjergene,8983,18,10.100331,56.614934
1648973,Bjergene,8983,22,10.096456,56.617277
1648977,Bjergene,8983,24,10.097539,56.614725
1648980,Bjergene,8983,30,10.093789,56.61465
1651678,Frederiksbergvej,8983,1,10.123368,56.585142
1651679,Frederiksbergvej,8983,1A,10.123569,56.585355
1651680,Frederiksbergvej,8983,2,10.123709,56.585669
1651681,Frederiksbergvej,8983,3,10.123061,56.585225
1651682,Frederiksbergvej,8983,4,10.12343,56.585581
1651683,Frederiksbergvej,8983,5,10.122698,56.585085
1651684,Frederiksbergvej,8983,6,10.123117,56.585476
1651685,Frederiksbergvej,8983,7,10.122402,56.584989
1651686,Frederiksbergvej,8983,8,10.122773,56.58539
1651687,Frederiksbergvej,8983,9,10.122188,56.584892
1651688,Frederiksbergvej,8983,10,10.122395,56.585303
1651689,Frederiksbergvej,8983,11,10.121975,56.58484
1651690,Frederiksbergvej,8983,12,10.122148,56.585198
1651691,Frederiksbergvej,8983,13,10.121762,56.584797
1651692,Frederiksbergvej,8983,14,10.121901,56.585101
1651693,Frederiksbergvej,8983,15,10.121397,56.584575
1651694,Frederiksbergvej,8983,16,10.121588,56.584996
1651695,Frederiksbergvej,8983,18,10.121342,56.584917
1651696,Frederiksbergvej,8983,20,10.120863,56.584688
1651697,Frederiksbergvej,8983,21,10.120183,56.584281
1651698,Frederiksbergvej,8983,22,10.12029,56.584585
1651699,Frederiksbergvej,8983,23,10.119593,56.584151
1651700,Frederiksbergvej,8983,24,10.120011,56.584516
1651701,Frederiksbergvej,8983,25,10.118591,56.583855
1651702,Frederiksbergvej,8983,26,10.119585,56.584412
1651703,Frederiksbergvej,8983,28,10.118748,56.584204
1651704,Frederiksbergvej,8983,34,10.117104,56.585306
1651705,Frederiksbergvej,8983,37,10.114542,56.58346
1651706,Frederiksbergvej,8983,38,10.11284,56.584248
1651707,Frederiksbergvej,8983,41,10.111549,56.583541
1651708,Frederiksbergvej,8983,42,10.10907,56.583401
1651709,Frederiksbergvej,8983,47,10.107421,56.582697
1651710,Frederiksbergvej,8983,48,10.105666,56.582793
1651711,Frederiksbergvej,8983,49,10.105263,56.582375
1651712,Frederiksbergvej,8983,51,10.103595,56.582147
1651713,Frederiksbergvej,8983,53,10.103007,56.582071
1651714,Frederiksbergvej,8983,54,10.103196,56.582402
1651715,Frederiksbergvej,8983,57,10.100213,56.577226
1651716,Frederiksbergvej,8983,59,10.100201,56.580758
1651717,Frederiksbergvej,8983,60,10.095506,56.585049
1651718,Frederiksbergvej,8983,63,10.094715,56.580195
1651720,Frederiksbergvej,8983,64,10.094374,56.580809
1651724,Frederiksbergvej,8983,65,10.092978,56.578665
1651725,Frederiksbergvej,8983,71,10.087329,56.581096
1651728,Frederiksbergvej,8983,72,10.088366,56.581338
1654877,Ruhøjvej,8983,3,10.075991,56.569226
1654881,Ruhøjvej,8983,5,10.074679,56.567719
1654882,Ruhøjvej,8983,7,10.073065,56.568903
1654883,Ruhøjvej,8983,9,10.069368,56.569274
1654886,Ruhøjvej,8983,10,10.065277,56.570226
1654887,Ruhøjvej,8983,11,10.065402,56.569425
1654888,Ruhøjvej,8983,12,10.060955,56.570452
1654891,Ruhøjvej,8983,30,10.037661,56.575096
1655622,Højagervej,8983,1,10.061654,56.601218
1655623,Højagervej,8983,4,10.061203,56.601393
1655624,Højagervej,8983,6A,10.060735,56.600966
1655625,Højagervej,8983,6B,10.060658,56.600544
1655626,Højagervej,8983,8,10.061157,56.599767
1655627,Højagervej,8983,10,10.06118,56.599425
1659489,Fiilsvej,8983,5,10.102059,56.571298
1659491,Fiilsvej,8983,6,10.101652,56.57185
1659493,Fiilsvej,8983,9,10.09889,56.572045
1659495,Fiilsvej,8983,13,10.095892,56.571362
1659496,Fiilsvej,8983,17,10.095331,56.57222
1659498,Fiilsvej,8983,20,10.091148,56.572796
1659998,Stolsbjergvej,8983,3,10.106253,56.594531
1659999,Stolsbjergvej,8983,5,10.105495,56.594251
1660001,Stolsbjergvej,8983,6,10.104685,56.594384
1660003,Stolsbjergvej,8983,10,10.100586,56.59008
1660004,Stolsbjergvej,8983,11,10.100612,56.588741
1660005,Stolsbjergvej,8983,19,10.090264,56.583379
1660007,Stolsbjergvej,8983,20,10.090177,56.583721
1660009,Stolsbjergvej,8983,21,10.088692,56.583042
1660514,Højtoftevej,8983,4,10.106102,56.597722
1660515,Højtoftevej,8983,7,10.096816,56.598227
1660516,Højtoftevej,8983,12,10.10149,56.604349
1660517,Højtoftevej,8983,16,10.099893,56.605459
1660518,Højtoftevej,8983,20,10.097866,56.606906
1661114,Vasen,8983,1,10.061387,56.602748
1661115,Vasen,8983,7,10.061682,56.603392
1661592,Ma Hulevej,8983,5,10.062625,56.599242
1735927,Degnebakken,8983,1,10.189758,56.58695
1735929,Degnebakken,8983,2,10.188579,56.587285
1735932,Degnebakken,8983,3,10.189073,56.586948
1735934,Degnebakken,8983,4,10.188527,56.58764
1735935,Degnebakken,8983,5,10.188618,56.586961
1735937,Degnebakken,8983,6,10.188502,56.587924
1735941,Degnebakken,8983,7,10.188163,56.587001
1735942,Degnebakken,8983,9,10.188077,56.587353
1735946,Degnebakken,8983,11,10.188052,56.587635
1735947,Degnebakken,8983,13,10.187817,56.587894
1736325,Blenstrupvej,8983,2,10.116373,56.57985
1736328,Blenstrupvej,8983,9,10.111864,56.583196
1736330,Blenstrupvej,8983,13,10.111331,56.583875
1736332,Blenstrupvej,8983,15,10.10836,56.58586
1736335,Blenstrupvej,8983,17,10.108335,56.588322
1736337,Blenstrupvej,8983,19,10.104544,56.588428
1736339,Blenstrupvej,8983,21,10.103356,56.58958
1736341,Blenstrupvej,8983,23,10.104565,56.589174
1736342,Blenstrupvej,8983,25,10.105038,56.588612
1736344,Blenstrupvej,8983,27,10.110257,56.589455
1736347,Blenstrupvej,8983,29,10.109689,56.589541
1736348,Blenstrupvej,8983,30,10.110334,56.59153
1736351,Blenstrupvej,8983,31,10.10675,56.590376
1736352,Blenstrupvej,8983,33,10.110947,56.589665
1736354,Blenstrupvej,8983,34,10.109748,56.592667
1736357,Blenstrupvej,8983,35,10.109536,56.592103
1736360,Blenstrupvej,8983,39,10.107913,56.593375
1736362,Blenstrupvej,8983,41A,10.107588,56.593962
1736365,Blenstrupvej,8983,41B,10.107618,56.593881
1736366,Blenstrupvej,8983,43,10.106843,56.594113
1736371,Blenstrupvej,8983,45,10.10695,56.594426
1736993,Kjeldsbakken,8983,1,10.125155,56.614056
1736994,Kjeldsbakken,8983,4,10.125685,56.6138
1736995,Kjeldsbakken,8983,18,10.138139,56.610174
1736996,Kjeldsbakken,8983,24,10.1409289,56.6105891
1736997,Kjeldsbakken,8983,25,10.141961,56.610768
1736998,Kjeldsbakken,8983,32,10.147547,56.609359
1736999,Kjeldsbakken,8983,35,10.148789,56.609986
1737000,Kjeldsbakken,8983,37,10.150188,56.611006
1737001,Kjeldsbakken,8983,39,10.150563,56.610491
1740602,Højgårdsvej,8983,1,10.12814,56.587947
1740603,Højgårdsvej,8983,3,10.127591,56.588077
1740604,Højgårdsvej,8983,4,10.128975,56.588101
1740605,Højgårdsvej,8983,5,10.127926,56.588389
1740606,Højgårdsvej,8983,6,10.12941,56.588474
1740607,Højgårdsvej,8983,7,10.128378,56.588277
1740608,Højgårdsvej,8983,9,10.128578,56.588428
1740609,Højgårdsvej,8983,10,10.1301,56.589232
1740610,Højgårdsvej,8983,11,10.128176,56.588623
1740611,Højgårdsvej,8983,13,10.128394,56.588816
1740612,Højgårdsvej,8983,14,10.13077,56.589846
1740613,Højgårdsvej,8983,15,10.128879,56.588686
1740614,Højgårdsvej,8983,17,10.129083,56.588962
1740615,Højgårdsvej,8983,18,10.131374,56.590433
1740616,Højgårdsvej,8983,19,10.129346,56.589068
1740617,Højgårdsvej,8983,20,10.131642,56.5907
1740618,Højgårdsvej,8983,21,10.129517,56.589318
1740619,Højgårdsvej,8983,23,10.129701,56.589496
1740620,Højgårdsvej,8983,25,10.129902,56.589683
1740621,Højgårdsvej,8983,27,10.130184,56.589869
1740622,Højgårdsvej,8983,29,10.130207,56.590102
1740623,Højgårdsvej,8983,31,10.130409,56.590298
1740624,Højgårdsvej,8983,33,10.130723,56.590457
1740625,Højgårdsvej,8983,35,10.130957,56.590652
1740626,Højgårdsvej,8983,37,10.131226,56.590937
1740627,Højgårdsvej,8983,39,10.131606,56.591141
1742132,Bakkevænget,8983,1A,10.183302,56.583598
1742133,Bakkevænget,8983,1B,10.183862,56.583483
1742134,Bakkevænget,8983,1C,10.184458,56.583496
1742135,Bakkevænget,8983,1D,10.184914,56.583495
1742136,Bakkevænget,8983,1E,10.185015,56.583199
1742137,Bakkevænget,8983,1F,10.184505,56.583189
1742139,Bakkevænget,8983,1G,10.183929,56.583227
1742141,Bakkevænget,8983,1H,10.182434,56.583417
1742584,Teglgade,8983,3,10.127914,56.586367
1742585,Teglgade,8983,4,10.126982,56.586214
1742586,Teglgade,8983,5,10.127337,56.586139
1742587,Teglgade,8983,6,10.127122,56.586015
1742588,Teglgade,8983,8,10.127311,56.585807
1742589,Teglgade,8983,10,10.127549,56.585589
1743177,Roensgårdsvej,8983,4,10.130993,56.587507
1743178,Roensgårdsvej,8983,5,10.129985,56.586905
1743179,Roensgårdsvej,8983,6,10.130459,56.587611
1743180,Roensgårdsvej,8983,7,10.129972,56.587029
1743181,Roensgårdsvej,8983,8,10.129698,56.587762
1743182,Roensgårdsvej,8983,9,10.129959,56.587179
1743183,Roensgårdsvej,8983,10,10.129903,56.587526
1743184,Roensgårdsvej,8983,11,10.129584,56.587206
1743187,Roensgårdsvej,8983,12,10.129348,56.587495
1743189,Roensgårdsvej,8983,13,10.129581,56.587134
1743192,Roensgårdsvej,8983,14,10.1294303,56.5876298
1743194,Roensgårdsvej,8983,15,10.127982,56.587544
1743196,Roensgårdsvej,8983,16,10.129293,56.587819
1743199,Roensgårdsvej,8983,17,10.127594,56.587655
1743202,Roensgårdsvej,8983,18,10.129049,56.587831
1743203,Roensgårdsvej,8983,20,10.128946,56.58767
1743206,Roensgårdsvej,8983,22,10.128927,56.587562
1743208,Roensgårdsvej,8983,24,10.128539,56.587673
1743211,Roensgårdsvej,8983,31,10.111612,56.594025
1743213,Roensgårdsvej,8983,35,10.110032,56.594013
1744060,Tjørnegårdsvej,8983,7,10.126557,56.569749
1744062,Tjørnegårdsvej,8983,8,10.123982,56.570194
1744064,Tjørnegårdsvej,8983,10,10.12323,56.570066
1744065,Tjørnegårdsvej,8983,11,10.122727,56.569586
1744067,Tjørnegårdsvej,8983,20,10.116781,56.569388
1744070,Tjørnegårdsvej,8983,23,10.116182,56.568944
1744071,Tjørnegårdsvej,8983,26,10.113641,56.568868
1744072,Tjørnegårdsvej,8983,29,10.112791,56.567644
1744705,Kærby Møllevej,8983,2,10.064104,56.600883
1744706,Kærby Møllevej,8983,3,10.0633,56.60124
1744709,Kærby Møllevej,8983,4,10.063836,56.601209
1744710,Kærby Møllevej,8983,6,10.06363,56.601399
1744713,Kærby Møllevej,8983,8,10.063686,56.60165
1744715,Kærby Møllevej,8983,9,10.061536,56.602253
1744717,Kærby Møllevej,8983,12,10.063006,56.602366
1744718,Kærby Møllevej,8983,14,10.063105,56.601835
1744720,Kærby Møllevej,8983,16,10.062122,56.602221
1744722,Kærby Møllevej,8983,18,10.061902,56.602519
1744724,Kærby Møllevej,8983,20,10.060865,56.602699
1744726,Kærby Møllevej,8983,22,10.060161,56.60257
1744728,Kærby Møllevej,8983,25,10.050989,56.600213
1744731,Kærby Møllevej,8983,29,10.04808,56.599267
1744732,Kærby Møllevej,8983,30,10.042581,56.599484
1744734,Kærby Møllevej,8983,51,10.036417,56.594468
1744736,Kærby Møllevej,8983,53,10.035913,56.593924
1744738,Kærby Møllevej,8983,54,10.031715,56.592836
1744741,Kærby Møllevej,8983,55,10.033477,56.592965
1744742,Kærby Møllevej,8983,61,10.027222,56.588102
1744744,Kærby Møllevej,8983,65,10.027071,56.586729
1744746,Kærby Møllevej,8983,67,10.026517,56.58614
1744748,Kærby Møllevej,8983,71,10.027029,56.585795
1744749,Kærby Møllevej,8983,72,10.014461,56.595583
1744751,Kærby Møllevej,8983,73,10.026245,56.585711
1744753,Kærby Møllevej,8983,75,10.02624,56.585496
1744755,Kærby Møllevej,8983,80,10.026688,56.587622
1744756,Kærby Møllevej,8983,82,10.026143,56.586737
1744758,Kærby Møllevej,8983,84,10.025793,56.586461
1744761,Kærby Møllevej,8983,85,10.030837,56.584532
1744763,Kærby Møllevej,8983,88,10.02616,56.58617
1744765,Kærby Møllevej,8983,89,10.038683,56.583883
1744767,Kærby Møllevej,8983,90,10.025336,56.585809
1744769,Kærby Møllevej,8983,92,10.02597,56.585786
1744770,Kærby Møllevej,8983,93,10.04953,56.579893
1744773,Kærby Møllevej,8983,94,10.025674,56.585653
1744775,Kærby Møllevej,8983,96,10.025866,56.585526
1744776,Kærby Møllevej,8983,97,10.033407,56.582651
1744779,Kærby Møllevej,8983,98,10.025891,56.585256
1744780,Kærby Møllevej,8983,100,10.025695,56.58462
1744783,Kærby Møllevej,8983,101,10.02866,56.581082
1744785,Kærby Møllevej,8983,102,10.025585,56.584172
1747804,Abildgårdsvej,8983,2,10.13155,56.588911
1747809,Abildgårdsvej,8983,3,10.131413,56.588665
1747811,Abildgårdsvej,8983,4,10.131591,56.589002
1747816,Abildgårdsvej,8983,5,10.13098,56.588713
1747820,Abildgårdsvej,8983,6,10.131333,56.588918
1747822,Abildgårdsvej,8983,7,10.130603,56.588634
1747826,Abildgårdsvej,8983,8,10.13122,56.588928
1747830,Abildgårdsvej,8983,9,10.130119,56.588786
1747832,Abildgårdsvej,8983,10,10.131152,56.589015
1747835,Abildgårdsvej,8983,11,10.129726,56.588846
1747837,Abildgårdsvej,8983,12,10.130944,56.588946
1747841,Abildgårdsvej,8983,14,10.130807,56.588956
1747845,Abildgårdsvej,8983,16,10.130793,56.589041
1747847,Abildgårdsvej,8983,18,10.130495,56.589013
1748026,Granstien,8983,1,10.18759,56.584284
1748031,Granstien,8983,2,10.187634,56.584643
1748034,Granstien,8983,3,10.187118,56.584289
1748036,Granstien,8983,4,10.18748,56.58495
1748039,Granstien,8983,5,10.186679,56.584302
1748042,Granstien,8983,6,10.187153,56.5849
1748045,Granstien,8983,7,10.186237,56.584234
1748047,Granstien,8983,8,10.187114,56.584684
1748052,Granstien,8983,10,10.186589,56.584563
1748522,Østermarksvej,8983,1,10.131451,56.58594
1748524,Østermarksvej,8983,2,10.131125,56.585916
1748526,Østermarksvej,8983,3,10.131792,56.585874
1748529,Østermarksvej,8983,4,10.131186,56.585799
1748531,Østermarksvej,8983,5A,10.131914,56.585648
1748532,Østermarksvej,8983,5B,10.132011,56.585602
1748535,Østermarksvej,8983,6,10.131408,56.585599
1748537,Østermarksvej,8983,7,10.132051,56.585854
1748539,Østermarksvej,8983,9,10.132269,56.585528
1748540,Østermarksvej,8983,10,10.132021,56.585387
1748543,Østermarksvej,8983,11,10.133011,56.585297
1748544,Østermarksvej,8983,11A,10.132995,56.585288
1748546,Østermarksvej,8983,11B,10.132835,56.585388
1748548,Østermarksvej,8983,11C,10.133307,56.585393
1748550,Østermarksvej,8983,11D,10.133065,56.585467
1748552,Østermarksvej,8983,11E,10.132887,56.585496
1748553,Østermarksvej,8983,11F,10.132881,56.585316
1748554,Østermarksvej,8983,13,10.134214,56.585771
1748556,Østermarksvej,8983,15,10.134677,56.585479
1748558,Østermarksvej,8983,16,10.133776,56.585048
1748559,Østermarksvej,8983,17,10.134867,56.58528
1748562,Østermarksvej,8983,19,10.13478,56.58511
1748563,Østermarksvej,8983,20,10.135439,56.58488
1748565,Østermarksvej,8983,23,10.135225,56.585124
1748566,Østermarksvej,8983,24A,10.136079,56.584451
1748568,Østermarksvej,8983,24B,10.136399,56.584251
1748570,Østermarksvej,8983,25,10.13548,56.585112
1748572,Østermarksvej,8983,26,10.136499,56.584888
1748573,Østermarksvej,8983,27,10.135766,56.585415
1748575,Østermarksvej,8983,28,10.137349,56.584988
1748577,Østermarksvej,8983,29,10.136032,56.585575
1748578,Østermarksvej,8983,32,10.139386,56.58505
1748581,Østermarksvej,8983,33,10.136784,56.585163
1748582,Østermarksvej,8983,34,10.139859,56.585054
1748583,Østermarksvej,8983,35,10.138169,56.585726
1748584,Østermarksvej,8983,36,10.140595,56.585165
1748585,Østermarksvej,8983,38,10.141785,56.585217
1748586,Østermarksvej,8983,47,10.146069,56.585824
1748587,Østermarksvej,8983,53,10.150199,56.586163
1748588,Østermarksvej,8983,57,10.151672,56.586428
1748590,Østermarksvej,8983,58,10.152882,56.58604
1748593,Østermarksvej,8983,63,10.155834,56.58674
1748594,Østermarksvej,8983,67,10.161486,56.592635
1748597,Østermarksvej,8983,69,10.162212,56.59138
1748599,Østermarksvej,8983,71,10.15907,56.588722
1748600,Østermarksvej,8983,71A,10.158829,56.589381
1748603,Østermarksvej,8983,75,10.159078,56.585802
1748604,Østermarksvej,8983,76A,10.158682,56.585105
1748606,Østermarksvej,8983,76B,10.16077,56.585229
1748609,Østermarksvej,8983,77,10.16025,56.5858
1748610,Østermarksvej,8983,79,10.161516,56.585645
1748611,Østermarksvej,8983,81,10.162408,56.585547
1748612,Østermarksvej,8983,83,10.163258,56.585637
1748613,Østermarksvej,8983,85,10.163809,56.585587
1748614,Østermarksvej,8983,89,10.166502,56.585239
1753778,Skolebakken,8983,1,10.188575,56.579872
1753779,Skolebakken,8983,5,10.188166,56.580344
1753985,Engvej,8983,7,10.20558,56.579125
1753986,Engvej,8983,10,10.2064,56.577787
1753987,Engvej,8983,11,10.210753,56.57646
1753988,Engvej,8983,13,10.213514,56.574735
1753989,Engvej,8983,19,10.214845,56.573114
1753990,Engvej,8983,23,10.213595,56.572686
1754305,Lervangen,8983,2,10.187193,56.575267
1754306,Lervangen,8983,3,10.187591,56.575506
1754307,Lervangen,8983,4,10.187516,56.575175
1754308,Lervangen,8983,5,10.187899,56.575458
1754309,Lervangen,8983,6,10.187411,56.574942
1754310,Lervangen,8983,7,10.188399,56.575328
1754311,Lervangen,8983,8,10.187751,56.574885
1754312,Lervangen,8983,10,10.188003,56.575134
1754313,Lervangen,8983,12,10.188375,56.575076
1756135,Salbakken,8983,7,10.107904,56.557437
1756136,Salbakken,8983,9,10.108308,56.556813
1756137,Salbakken,8983,10,10.108527,56.556506
1756139,Salbakken,8983,12,10.108954,56.556636
1756140,Salbakken,8983,13,10.110432,56.557108
1756141,Salbakken,8983,15,10.110915,56.556916
1756146,Salbakken,8983,17,10.111158,56.556904
1756147,Salbakken,8983,18,10.110569,56.556775
1756148,Salbakken,8983,21,10.111237,56.556832
1756149,Salbakken,8983,22,10.110905,56.556574
1757224,Salstræde,8983,2,10.107455,56.556578
1757226,Salstræde,8983,4,10.107387,56.55648
1757525,Præstebakken,8983,1,10.189118,56.587334
1757527,Præstebakken,8983,2,10.189669,56.587256
1757529,Præstebakken,8983,3,10.189142,56.587576
1757531,Præstebakken,8983,4,10.190085,56.587522
1757532,Præstebakken,8983,5,10.189071,56.5879
1757534,Præstebakken,8983,6,10.190638,56.587517
1757535,Præstebakken,8983,7,10.189655,56.587823
1757536,Præstebakken,8983,8,10.191029,56.587513
1757538,Præstebakken,8983,9,10.190257,56.587826
1757540,Præstebakken,8983,11,10.1906,56.587859
1757541,Præstebakken,8983,13,10.191137,56.587853
1759678,Krogagervej,8983,1,10.123056,56.614695
1759682,Krogagervej,8983,2,10.122884,56.614939
1759685,Krogagervej,8983,4,10.122604,56.614852
1759688,Krogagervej,8983,5,10.122615,56.614672
1759691,Krogagervej,8983,6,10.121934,56.614786
1759692,Krogagervej,8983,7,10.122305,56.614657
1759695,Krogagervej,8983,9,10.122092,56.614614
1759697,Krogagervej,8983,10,10.120837,56.614625
1759699,Krogagervej,8983,11,10.121862,56.614571
1759701,Krogagervej,8983,13,10.121534,56.614493
1759703,Krogagervej,8983,15,10.121206,56.614424
1759704,Krogagervej,8983,16,10.118194,56.614487
1759705,Krogagervej,8983,17,10.120896,56.6144
1759706,Krogagervej,8983,21,10.120114,56.614407
1759707,Krogagervej,8983,23,10.119767,56.61424
1759708,Krogagervej,8983,27,10.119246,56.614262
1759709,Krogagervej,8983,29,10.118787,56.614177
1759712,Krogagervej,8983,31,10.11841,56.61409
1759714,Krogagervej,8983,33,10.118454,56.613937
1759716,Krogagervej,8983,35,10.118446,56.613677
1759717,Krogagervej,8983,36,10.117758,56.612434
1759718,Krogagervej,8983,40,10.117388,56.611494
1759719,Krogagervej,8983,44,10.117391,56.610505
1759720,Krogagervej,8983,48,10.11715,56.609501
1759721,Krogagervej,8983,50,10.111221,56.608449
1759722,Krogagervej,8983,52,10.108697,56.608545
1759723,Krogagervej,8983,54,10.107043,56.608172
1759724,Krogagervej,8983,55,10.113887,56.602693
1759725,Krogagervej,8983,56,10.109054,56.605081
1759726,Krogagervej,8983,58,10.106969,56.605109
1759728,Krogagervej,8983,60,10.112088,56.602458
1759731,Krogagervej,8983,62,10.110052,56.603024
1759733,Krogagervej,8983,68,10.107086,56.599645
1759734,Krogagervej,8983,69,10.10827,56.598916
1759736,Krogagervej,8983,70,10.10699,56.598595
1759737,Krogagervej,8983,72,10.107438,56.598294
1759741,Krogagervej,8983,74,10.106421,56.598079
1759742,Krogagervej,8983,75,10.107687,56.597349
1759745,Krogagervej,8983,76,10.106828,56.5975
1759746,Krogagervej,8983,77,10.107228,56.597254
1759748,Krogagervej,8983,78,10.106707,56.59725
1759750,Krogagervej,8983,79,10.10792,56.596978
1759751,Krogagervej,8983,81,10.106995,56.596537
1759755,Krogagervej,8983,82,10.106394,56.596022
1759756,Krogagervej,8983,83,10.107796,56.595497
1759758,Krogagervej,8983,85,10.106819,56.595524
1759812,Kirkestien,8983,1,10.18963,56.579251
1761801,Slotsgården,8983,1,10.136135,56.585214
1761803,Slotsgården,8983,2,10.13633,56.585213
1761805,Slotsgården,8983,3,10.136072,56.585296
1761806,Slotsgården,8983,4,10.136431,56.585302
1761807,Slotsgården,8983,5,10.13609,56.585341
1761808,Slotsgården,8983,6,10.136467,56.585427
1761809,Slotsgården,8983,10,10.136283,56.585815
1761929,Hammergårdsvej,8983,1,10.131317,56.587469
1761931,Hammergårdsvej,8983,2,10.132297,56.587541
1761937,Hammergårdsvej,8983,4,10.132261,56.58799
1761940,Hammergårdsvej,8983,5,10.131732,56.588273
1761942,Hammergårdsvej,8983,7,10.131789,56.588551
1761943,Hammergårdsvej,8983,13,10.132099,56.589654
1761945,Hammergårdsvej,8983,17,10.132152,56.590318
1761948,Hammergårdsvej,8983,19,10.132114,56.590687
1761950,Hammergårdsvej,8983,20,10.132654,56.591371
1761951,Hammergårdsvej,8983,21,10.132061,56.591083
1761953,Hammergårdsvej,8983,22,10.132551,56.591725
1762418,Kondrupvej,8983,1A,10.123462,56.615213
1762419,Kondrupvej,8983,3,10.124456,56.615231
1762421,Kondrupvej,8983,4,10.124611,56.614942
1762425,Kondrupvej,8983,6,10.125367,56.61516
1762427,Kondrupvej,8983,7,10.124807,56.615506
1762429,Kondrupvej,8983,8,10.1257,56.61539
1762432,Kondrupvej,8983,9,10.125067,56.615504
1762433,Kondrupvej,8983,10,10.126645,56.615382
1762434,Kondrupvej,8983,13,10.125347,56.6156
1762436,Kondrupvej,8983,14,10.127794,56.616216
1762438,Kondrupvej,8983,16,10.128161,56.6165
1762440,Kondrupvej,8983,17,10.126165,56.615709
1762441,Kondrupvej,8983,18,10.12848,56.616821
1762442,Kondrupvej,8983,20,10.128909,56.616448
1762443,Kondrupvej,8983,21,10.126594,56.615876
1762444,Kondrupvej,8983,22,10.129306,56.616669
1762445,Kondrupvej,8983,24,10.129083,56.616833
1762446,Kondrupvej,8983,25,10.127144,56.616285
1762447,Kondrupvej,8983,26,10.128765,56.617105
1764992,Stangerumvej,8983,2,10.187251,56.579705
1764993,Stangerumvej,8983,3,10.186668,56.579801
1764994,Stangerumvej,8983,6,10.186815,56.580357
1764995,Stangerumvej,8983,8,10.187131,56.580569
1764996,Stangerumvej,8983,9,10.186256,56.580703
1764997,Stangerumvej,8983,12,10.186223,56.582249
1764998,Stangerumvej,8983,14,10.187456,56.582111
1764999,Stangerumvej,8983,15,10.185244,56.582177
1765000,Stangerumvej,8983,16,10.186026,56.583212
1765001,Stangerumvej,8983,26,10.18584,56.58767
1765002,Stangerumvej,8983,28,10.185072,56.58969
1765003,Stangerumvej,8983,36,10.178489,56.595836
1765004,Stangerumvej,8983,49,10.168401,56.594565
1765005,Stangerumvej,8983,50,10.165442,56.599481
1765006,Stangerumvej,8983,51,10.164627,56.599461
1765008,Stangerumvej,8983,54,10.169821,56.601497
1765010,Stangerumvej,8983,56,10.163284,56.601891
1765436,Østergade,8983,2,10.187171,56.573525
1765437,Østergade,8983,3,10.187708,56.574041
1765438,Østergade,8983,4,10.18766,56.573538
1765439,Østergade,8983,5,10.188027,56.574334
1765440,Østergade,8983,7,10.18831,56.574565
1765441,Østergade,8983,8,10.188509,56.574132
1765442,Østergade,8983,9,10.188334,56.574807
1765443,Østergade,8983,10,10.188864,56.574578
1765444,Østergade,8983,14,10.189207,56.575131
1765445,Østergade,8983,14A,10.189223,56.575131
1765446,Østergade,8983,14B,10.189353,56.575103
1765447,Østergade,8983,14C,10.189288,56.575122
1765448,Østergade,8983,15,10.189361,56.575885
1765449,Østergade,8983,17,10.189574,56.576458
1765450,Østergade,8983,18,10.189866,56.57588
1765451,Østergade,8983,19,10.189726,56.576609
1765452,Østergade,8983,22,10.189874,56.576149
1765453,Østergade,8983,26,10.190157,56.576362
1765454,Østergade,8983,30,10.190327,56.576576
1767250,Vorhøjvej,8983,2,10.0854,56.557374
1767251,Vorhøjvej,8983,4,10.085785,56.559429
1767252,Vorhøjvej,8983,8,10.089051,56.560406
1767253,Vorhøjvej,8983,10,10.083866,56.56117
1767254,Vorhøjvej,8983,12,10.084541,56.562602
1768067,Dalbyovervej,8983,1,10.191134,56.583101
1768068,Dalbyovervej,8983,2,10.191341,56.583458
1768069,Dalbyovervej,8983,3,10.190572,56.583321
1768070,Dalbyovervej,8983,7,10.189374,56.584061
1768072,Dalbyovervej,8983,8,10.190316,56.583998
1768075,Dalbyovervej,8983,9B,10.189976,56.585097
1768077,Dalbyovervej,8983,10,10.190306,56.584187
1768080,Dalbyovervej,8983,12,10.190362,56.584429
1768081,Dalbyovervej,8983,13,10.190421,56.586222
1768083,Dalbyovervej,8983,14,10.190607,56.584965
1768084,Dalbyovervej,8983,15,10.190785,56.5865
1768085,Dalbyovervej,8983,16,10.190762,56.585233
1768086,Dalbyovervej,8983,17,10.191021,56.58674
1768087,Dalbyovervej,8983,19,10.191176,56.587009
1768088,Dalbyovervej,8983,40,10.192022,56.588788
1768089,Dalbyovervej,8983,42,10.191688,56.589007
1768090,Dalbyovervej,8983,43,10.185031,56.597229
1768091,Dalbyovervej,8983,44,10.193015,56.58957
1768092,Dalbyovervej,8983,45,10.187905,56.597444
1768093,Dalbyovervej,8983,46,10.191923,56.590038
1768094,Dalbyovervej,8983,48,10.192312,56.591032
1768095,Dalbyovervej,8983,50,10.191455,56.590186
1768096,Dalbyovervej,8983,51A,10.188263,56.601601
1768097,Dalbyovervej,8983,51B,10.189905,56.601477
1768098,Dalbyovervej,8983,55,10.190134,56.603074
1769604,Ærteholmsvej,8983,1A,10.134494,56.584789
1769605,Ærteholmsvej,8983,1B,10.134534,56.584501
1769606,Ærteholmsvej,8983,2,10.132788,56.584904
1769607,Ærteholmsvej,8983,3,10.13487,56.584291
1769608,Ærteholmsvej,8983,4,10.13271,56.584473
1769609,Ærteholmsvej,8983,5,10.135207,56.584145
1769610,Ærteholmsvej,8983,7,10.135379,56.583918
1769612,Ærteholmsvej,8983,8,10.134186,56.584307
1769615,Ærteholmsvej,8983,9,10.135453,56.583666
1769616,Ærteholmsvej,8983,10,10.134362,56.584179
1769619,Ærteholmsvej,8983,11,10.134812,56.582899
1769620,Ærteholmsvej,8983,13,10.134864,56.582486
1769621,Ærteholmsvej,8983,21,10.134946,56.580868
1769622,Ærteholmsvej,8983,50,10.129499,56.57673
1769623,Ærteholmsvej,8983,60,10.128421,56.574431
1772417,Tørringvej,8983,4,10.190174,56.579983
1772418,Tørringvej,8983,5,10.190888,56.580452
1772419,Tørringvej,8983,6,10.190602,56.580158
1772420,Tørringvej,8983,7,10.191512,56.580608
1772421,Tørringvej,8983,9,10.191973,56.580783
1772422,Tørringvej,8983,10,10.191781,56.580372
1772423,Tørringvej,8983,11,10.192261,56.58114
1772424,Tørringvej,8983,13,10.192977,56.581124
1772425,Tørringvej,8983,15,10.194,56.581537
1772426,Tørringvej,8983,18,10.19864,56.581546
1772427,Tørringvej,8983,19,10.198332,56.582115
1772428,Tørringvej,8983,21,10.207603,56.583373
1772430,Tørringvej,8983,23,10.215844,56.585979
1772431,Tørringvej,8983,25,10.215717,56.585064
1772432,Tørringvej,8983,26,10.216111,56.584674
1772433,Tørringvej,8983,27,10.216205,56.585032
1772434,Tørringvej,8983,28,10.217608,56.58412
1772435,Tørringvej,8983,29,10.216954,56.585043
1772436,Tørringvej,8983,32,10.218194,56.584105
1772437,Tørringvej,8983,33,10.217298,56.58512
1772438,Tørringvej,8983,35,10.217502,56.584876
1772439,Tørringvej,8983,36,10.219433,56.584156
1772441,Tørringvej,8983,37,10.218162,56.585148
1772442,Tørringvej,8983,39,10.218886,56.584871
1772443,Tørringvej,8983,41,10.219421,56.585306
1772444,Tørringvej,8983,44,10.220439,56.584065
1773705,Alsagervej,8983,1,10.132902,56.590904
1773706,Alsagervej,8983,2,10.133755,56.590582
1773707,Alsagervej,8983,4,10.133264,56.59047
1773708,Alsagervej,8983,5,10.134366,56.590837
1773709,Alsagervej,8983,6,10.132906,56.590509
1773710,Alsagervej,8983,8,10.132801,56.590231
1773711,Alsagervej,8983,10,10.132807,56.589908
1773712,Alsagervej,8983,11A,10.133817,56.58936
1773713,Alsagervej,8983,11B,10.134088,56.589168
1773714,Alsagervej,8983,11C,10.134315,56.589139
1773715,Alsagervej,8983,11D,10.134609,56.589182
1773716,Alsagervej,8983,11E,10.134887,56.589233
1773717,Alsagervej,8983,11F,10.134647,56.58937
1773718,Alsagervej,8983,11G,10.134391,56.589498
1773719,Alsagervej,8983,11H,10.134033,56.589501
1773720,Alsagervej,8983,12,10.133317,56.590092
1773721,Alsagervej,8983,13,10.133504,56.589237
1773722,Alsagervej,8983,14,10.133806,56.590105
1773723,Alsagervej,8983,15,10.133065,56.589268
1773724,Alsagervej,8983,16,10.133684,56.58981
1773725,Alsagervej,8983,17,10.132629,56.589415
1773726,Alsagervej,8983,18,10.133273,56.589688
1773727,Alsagervej,8983,20,10.132832,56.589656
1773848,Søndergårdsvej,8983,1,10.133977,56.570778
1773849,Søndergårdsvej,8983,2,10.132904,56.570823
1773850,Søndergårdsvej,8983,11,10.138933,56.568899
1773851,Søndergårdsvej,8983,14,10.140073,56.566202
1773852,Søndergårdsvej,8983,15,10.140451,56.567282
1773853,Søndergårdsvej,8983,18,10.143333,56.56478
1773854,Søndergårdsvej,8983,19,10.144299,56.564978
1773855,Søndergårdsvej,8983,21,10.15087,56.561628
1773856,Søndergårdsvej,8983,24,10.143687,56.559781
1773857,Søndergårdsvej,8983,25,10.151321,56.558803
1773858,Søndergårdsvej,8983,26,10.143597,56.559503
1773914,Bryggervænget,8983,1,10.191529,56.586192
1773915,Bryggervænget,8983,2,10.191263,56.585642
1773916,Bryggervænget,8983,3,10.192062,56.586789
1773917,Bryggervænget,8983,4,10.19213,56.585768
1773918,Bryggervænget,8983,5,10.192503,56.587256
1773919,Bryggervænget,8983,6,10.192516,56.586636
1773920,Bryggervænget,8983,8,10.192866,56.586894
1774690,Borups Vænge,8983,1,10.187642,56.579199
1774691,Borups Vænge,8983,2,10.187007,56.579205
1774692,Borups Vænge,8983,3,10.187821,56.579206
1774693,Borups Vænge,8983,4,10.187004,56.579115
1774694,Borups Vænge,8983,5,10.187669,56.579037
1774695,Borups Vænge,8983,6,10.187034,56.579034
1774696,Borups Vænge,8983,7,10.187849,56.579044
1774697,Borups Vænge,8983,8,10.187273,56.578861
1774698,Borups Vænge,8983,9,10.187697,56.578865
1774699,Borups Vænge,8983,10,10.187191,56.578843
1774700,Borups Vænge,8983,11,10.18786,56.578882
1774701,Borups Vænge,8983,12,10.187045,56.578845
1774702,Borups Vænge,8983,14,10.186914,56.578828
1774703,Borups Vænge,8983,16,10.1872669,56.5787015
1774704,Borups Vænge,8983,18,10.18733,56.5786
1774705,Borups Vænge,8983,20,10.18736,56.578527
1774989,Kappelagervej,8983,1,10.131876,56.58926
1774990,Kappelagervej,8983,3,10.131388,56.589292
1774991,Kappelagervej,8983,4,10.131609,56.589577
1774992,Kappelagervej,8983,5,10.130951,56.589359
1774993,Kappelagervej,8983,6,10.13117,56.589617
1774994,Kappelagervej,8983,7,10.13048,56.589408
1775519,Markleddet,8983,4,10.187316,56.603074
1775522,Markleddet,8983,6,10.184263,56.603373
1775523,Markleddet,8983,10,10.17953,56.603625
1775525,Markleddet,8983,14,10.174126,56.604269
1775527,Markleddet,8983,16,10.173549,56.60564
1775919,Skomagerbakken,8983,4,10.111166,56.556078
1775920,Skomagerbakken,8983,5,10.110838,56.555964
1775921,Skomagerbakken,8983,7,10.111076,56.556312
1775922,Skomagerbakken,8983,9,10.110896,56.556296
1775923,Skomagerbakken,8983,11,10.111134,56.556626
1775930,Tønagervej,8983,2,10.131991,56.587103
1775931,Tønagervej,8983,4,10.132478,56.587063
1775933,Tønagervej,8983,6,10.132641,56.587061
1775934,Tønagervej,8983,7,10.134299,56.587531
1775936,Tønagervej,8983,8,10.132821,56.587087
1775938,Tønagervej,8983,9,10.134637,56.587384
1775941,Tønagervej,8983,10,10.13419,56.587164
1775942,Tønagervej,8983,11,10.135893,56.58802
1775944,Tønagervej,8983,12,10.134747,56.586965
1775947,Tønagervej,8983,35,10.140569,56.59025
1775949,Tønagervej,8983,44,10.14314,56.591278
1775950,Tønagervej,8983,45,10.142691,56.591516
1775952,Tønagervej,8983,48,10.145094,56.592338
1775954,Tønagervej,8983,52,10.146611,56.593519
1775956,Tønagervej,8983,53A,10.148255,56.597538
1775957,Tønagervej,8983,53B,10.148389,56.597032
1775960,Tønagervej,8983,54,10.152678,56.596994
1775961,Tønagervej,8983,55,10.148886,56.597339
1775962,Tønagervej,8983,58,10.158327,56.600634
1775963,Tønagervej,8983,61,10.158725,56.603542
1775964,Tønagervej,8983,67,10.166551,56.604286
1776448,Kondrups Vænge,8983,1,10.109272,56.559158
1776449,Kondrups Vænge,8983,2,10.109376,56.558825
1776450,Kondrups Vænge,8983,3,10.109214,56.559411
1776451,Kondrups Vænge,8983,4,10.109386,56.558627
1776452,Kondrups Vænge,8983,5,10.109055,56.55969
1776453,Kondrups Vænge,8983,6,10.109446,56.558456
1776454,Kondrups Vænge,8983,7,10.109342,56.559904
1776455,Kondrups Vænge,8983,8,10.109757,56.558489
1776457,Kondrups Vænge,8983,9,10.109494,56.560091
1776458,Kondrups Vænge,8983,10,10.109814,56.558794
1776460,Kondrups Vænge,8983,12A,10.1098243,56.5590552
1776462,Kondrups Vænge,8983,12B,10.109928,56.559359
1776464,Kondrups Vænge,8983,14,10.109904,56.559647
1776465,Kondrups Vænge,8983,16,10.109945,56.559916
1776467,Kondrups Vænge,8983,18,10.109985,56.560176
1776468,Kondrups Vænge,8983,20,10.11014,56.560471
1776470,Kondrups Vænge,8983,22,10.1097867,56.5584998
1776628,Blokhøj,8983,1,10.189757,56.580706
1776629,Blokhøj,8983,2,10.189574,56.581094
1776632,Blokhøj,8983,3,10.189415,56.580718
1776633,Blokhøj,8983,5,10.188972,56.580596
1776634,Blokhøj,8983,6,10.189693,56.581281
1776635,Blokhøj,8983,7,10.18909,56.580748
1776636,Blokhøj,8983,8,10.189486,56.581418
1776637,Blokhøj,8983,9,10.189144,56.580882
1776638,Blokhøj,8983,11,10.189164,56.581008
1776639,Blokhøj,8983,13,10.189274,56.581393
1776640,Blokhøj,8983,15,10.189359,56.581527
1777292,Hvidkløvervej,8983,1,10.182463,56.580182
1777293,Hvidkløvervej,8983,2,10.18288,56.580484
1777294,Hvidkløvervej,8983,3,10.182191,56.580347
1777295,Hvidkløvervej,8983,4,10.182607,56.58063
1777296,Hvidkløvervej,8983,5,10.181903,56.580502
1777297,Hvidkløvervej,8983,6,10.182301,56.580741
1777298,Hvidkløvervej,8983,7,10.181582,56.580658
1777299,Hvidkløvervej,8983,8,10.18203,56.580923
1777300,Hvidkløvervej,8983,9,10.181295,56.580831
1777301,Hvidkløvervej,8983,10,10.181808,56.581114
1777743,Stoubyvej,8983,1,10.186627,56.576414
1777744,Stoubyvej,8983,2,10.186602,56.576675
1777745,Stoubyvej,8983,5,10.185658,56.576136
1777746,Stoubyvej,8983,11,10.185169,56.576661
1777747,Stoubyvej,8983,15,10.184684,56.576253
1777748,Stoubyvej,8983,17,10.184755,56.576423
1777749,Stoubyvej,8983,19,10.184854,56.576485
1777750,Stoubyvej,8983,21,10.184467,56.576596
1777751,Stoubyvej,8983,23,10.183227,56.576491
1777752,Stoubyvej,8983,45,10.172317,56.575867
1777753,Stoubyvej,8983,46,10.166918,56.574453
1777754,Stoubyvej,8983,47,10.171918,56.575583
1777755,Stoubyvej,8983,49,10.167546,56.574213
1777756,Stoubyvej,8983,51,10.165879,56.573987
1777757,Stoubyvej,8983,52,10.161359,56.574712
1777758,Stoubyvej,8983,53,10.163618,56.572453
1777759,Stoubyvej,8983,60,10.156414,56.573212
1777760,Stoubyvej,8983,80,10.139241,56.572095
1777761,Stoubyvej,8983,81,10.140256,56.571214
1777762,Stoubyvej,8983,82,10.134978,56.571586
1777763,Stoubyvej,8983,85,10.13374,56.571022
1777764,Stoubyvej,8983,86,10.1329,56.571237
1777945,Dyrbyvej,8983,56,10.024468,56.580793
1777948,Dyrbyvej,8983,58,10.025583,56.582303
1778005,Tjørnevej,8983,1,10.18468,56.577142
1778006,Tjørnevej,8983,2,10.185254,56.577366
1778007,Tjørnevej,8983,3,10.183691,56.577164
1778008,Tjørnevej,8983,4,10.185287,56.577819
1778009,Tjørnevej,8983,5,10.184828,56.577734
1778010,Tjørnevej,8983,6,10.185278,56.578071
1778011,Tjørnevej,8983,7,10.184891,56.578183
1778012,Tjørnevej,8983,8,10.185383,56.578277
1778013,Tjørnevej,8983,9,10.1848,56.578399
1778014,Tjørnevej,8983,10,10.185015,56.578505
1779441,Semvej,8983,45,10.124711,56.63035
1779442,Semvej,8983,47,10.125749,56.630205
1780522,Åløbet,8983,2,10.187926,56.578387
1780523,Åløbet,8983,4,10.187436,56.578347
1780524,Åløbet,8983,5,10.185702,56.577043
1780525,Åløbet,8983,5A,10.186464,56.577467
1780526,Åløbet,8983,5B,10.186332,56.577396
1780527,Åløbet,8983,5C,10.186216,56.577334
1780528,Åløbet,8983,5D,10.1861,56.577264
1780529,Åløbet,8983,5E,10.185968,56.577202
1780530,Åløbet,8983,5F,10.185819,56.57714
1780531,Åløbet,8983,6,10.186892,56.578145
1780532,Åløbet,8983,10,10.186164,56.577757
1780533,Åløbet,8983,12,10.185882,56.577571
1781235,Gyvelvej,8983,1,10.184188,56.579115
1781236,Gyvelvej,8983,2,10.185036,56.579161
1781237,Gyvelvej,8983,3,10.184585,56.579335
1781238,Gyvelvej,8983,4,10.185029,56.579457
1781239,Gyvelvej,8983,6,10.185021,56.579727
1781240,Gyvelvej,8983,7,10.184567,56.579794
1781241,Gyvelvej,8983,8,10.185012,56.57996
1781242,Gyvelvej,8983,11,10.184517,56.580271
1781243,Gyvelvej,8983,12,10.185076,56.580436
1781244,Gyvelvej,8983,13,10.184556,56.580468
1781245,Gyvelvej,8983,14,10.185018,56.580652
1781246,Gyvelvej,8983,15,10.184499,56.580729
1781247,Gyvelvej,8983,17,10.184539,56.58098
1781248,Gyvelvej,8983,19,10.184483,56.581268
1781249,Gyvelvej,8983,21,10.184462,56.581619
1781967,Hybenvej,8983,3,10.130916,56.585486
1781968,Hybenvej,8983,4,10.130614,56.585714
1781969,Hybenvej,8983,5,10.130589,56.585409
1781970,Hybenvej,8983,6,10.130521,56.585885
1781971,Hybenvej,8983,7A,10.13014,56.585116
1781972,Hybenvej,8983,7B,10.130125,56.585143
1781973,Hybenvej,8983,7C,10.130109,56.585161
1781974,Hybenvej,8983,7D,10.130077,56.585189
1781975,Hybenvej,8983,7E,10.130062,56.585216
1781976,Hybenvej,8983,7F,10.13003,56.585243
1781977,Hybenvej,8983,7G,10.130015,56.585279
1781978,Hybenvej,8983,8,10.130449,56.585634
1781979,Hybenvej,8983,9,10.129512,56.585356
1781980,Hybenvej,8983,10A,10.130104,56.585548
1781981,Hybenvej,8983,10B,10.130077,56.585636
1781982,Hybenvej,8983,10C,10.130015,56.585735
1781983,Hybenvej,8983,10D,10.12995,56.585846
1781984,Hybenvej,8983,10E,10.129771,56.585886
1781985,Hybenvej,8983,10F,10.129591,56.585862
1781986,Hybenvej,8983,10G,10.129592,56.585752
1781987,Hybenvej,8983,10H,10.129719,56.585672
1781988,Hybenvej,8983,10I,10.129861,56.585566
1781989,Hybenvej,8983,10K,10.129875,56.585496
1781990,Hybenvej,8983,11,10.129088,56.585854
1781991,Hybenvej,8983,12,10.130089,56.586132
1781992,Hybenvej,8983,13,10.129406,56.586156
1781993,Hybenvej,8983,14,10.130113,56.586401
1782114,Fosevej,8983,4,10.123166,56.615683
1782115,Fosevej,8983,6,10.123379,56.616247
1782116,Fosevej,8983,7,10.122428,56.616067
1782117,Fosevej,8983,9A,10.122422,56.616965
1782118,Fosevej,8983,9B,10.12246,56.617145
1782119,Fosevej,8983,12,10.120303,56.620794
1782120,Fosevej,8983,16,10.119817,56.621436
1782121,Fosevej,8983,20,10.119123,56.622242
1782122,Fosevej,8983,25,10.123339,56.623704
1782123,Fosevej,8983,30,10.125163,56.624739
1782124,Fosevej,8983,31,10.125068,56.626032
1782125,Fosevej,8983,32,10.127171,56.624838
1782126,Fosevej,8983,34,10.125835,56.626521
1782127,Fosevej,8983,36,10.127039,56.62642
1782128,Fosevej,8983,38,10.126702,56.627699
1782129,Fosevej,8983,42,10.126031,56.629826
1782316,Lærkevej,8983,1,10.134618,56.584033
1782317,Lærkevej,8983,3,10.134541,56.583639
1782318,Lærkevej,8983,4,10.134111,56.583957
1782319,Lærkevej,8983,6,10.133977,56.583841
1782381,Kærbyvej,8983,1,10.105313,56.560658
1782382,Kærbyvej,8983,6,10.100772,56.562846
1782383,Kærbyvej,8983,8,10.098047,56.566554
1782384,Kærbyvej,8983,14,10.093943,56.565287
1782385,Kærbyvej,8983,16,10.093909,56.565818
1782386,Kærbyvej,8983,17,10.091891,56.565018
1782387,Kærbyvej,8983,18,10.093066,56.566499
1782388,Kærbyvej,8983,20,10.093963,56.567111
1782389,Kærbyvej,8983,21,10.086719,56.566473
1782390,Kærbyvej,8983,22,10.096685,56.568408
1782391,Kærbyvej,8983,29,10.08564,56.566043
1782392,Kærbyvej,8983,30,10.086138,56.569498
1782393,Kærbyvej,8983,33,10.085177,56.570054
1782394,Kærbyvej,8983,34,10.086262,56.570431
1782395,Kærbyvej,8983,35,10.083848,56.571368
1782396,Kærbyvej,8983,37,10.083599,56.572341
1782397,Kærbyvej,8983,41,10.082843,56.574351
1782398,Kærbyvej,8983,44,10.084553,56.576295
1782399,Kærbyvej,8983,45,10.081844,56.575851
1782400,Kærbyvej,8983,49,10.080895,56.577953
1782401,Kærbyvej,8983,49A,10.080562,56.578854
1782402,Kærbyvej,8983,51,10.080395,56.579269
1782403,Kærbyvej,8983,54,10.080426,56.582072
1782404,Kærbyvej,8983,55,10.078395,56.582215
1782405,Kærbyvej,8983,59,10.074681,56.584458
1782406,Kærbyvej,8983,63,10.064796,56.58554
1782407,Kærbyvej,8983,65,10.065106,56.582671
1782408,Kærbyvej,8983,65B,10.065305,56.582211
1782409,Kærbyvej,8983,65C,10.065336,56.582139
1782410,Kærbyvej,8983,65D,10.065301,56.582059
1782411,Kærbyvej,8983,65E,10.065315,56.581996
1782412,Kærbyvej,8983,67,10.065563,56.587896
1782413,Kærbyvej,8983,69,10.075573,56.587747
1782414,Kærbyvej,8983,72,10.077079,56.597186
1782455,Sparrehusevej,8983,4,10.025772,56.587458
1782456,Sparrehusevej,8983,7,10.023578,56.587009
1782457,Sparrehusevej,8983,8,10.024345,56.587677
1782458,Sparrehusevej,8983,9,10.022511,56.586686
1782459,Sparrehusevej,8983,14,10.015763,56.587055
1782952,Bolettevej,8983,1,10.109626,56.556244
1782953,Bolettevej,8983,2,10.109632,56.556442
1782954,Bolettevej,8983,3,10.109447,56.556255
1782955,Bolettevej,8983,4,10.109339,56.556435
1782956,Bolettevej,8983,6,10.108977,56.556295
1782957,Bolettevej,8983,8,10.108814,56.556287
1782958,Bolettevej,8983,10,10.108922,56.556107
1782959,Bolettevej,8983,12,10.108776,56.556117
1782960,Bolettevej,8983,14,10.109015,56.555944
1782961,Bolettevej,8983,16,10.10898,56.555846
1784904,Akseltorv,8983,1,10.131015,56.586052
1784905,Akseltorv,8983,1A,10.1311082,56.5863459
1784906,Akseltorv,8983,2,10.131328,56.586184
1784907,Akseltorv,8983,3,10.130952,56.586133
1784908,Akseltorv,8983,4A,10.1314,56.586408
1784909,Akseltorv,8983,4B,10.131382,56.586363
1784910,Akseltorv,8983,4C,10.131365,56.586318
1784911,Akseltorv,8983,4D,10.131347,56.586273
1784912,Akseltorv,8983,4E,10.131855,56.586376
1784913,Akseltorv,8983,4F,10.131819,56.586287
1784914,Akseltorv,8983,5,10.130825,56.58626
1784915,Akseltorv,8983,6,10.131618,56.586621
1784916,Akseltorv,8983,7,10.130616,56.586334
1784917,Akseltorv,8983,8,10.13205,56.586786
1784918,Akseltorv,8983,10,10.131762,56.586832
1784919,Akseltorv,8983,12,10.130971,56.586762
1784947,Birkevej,8983,1,10.185875,56.581012
1784948,Birkevej,8983,3,10.185305,56.581
1785070,Østendalsvej,8983,1,10.062492,56.600915
1785071,Østendalsvej,8983,2,10.062289,56.60062
1785072,Østendalsvej,8983,3,10.063238,56.600791
1785073,Østendalsvej,8983,6,10.063784,56.60049
1785074,Østendalsvej,8983,7,10.064787,56.60085
1785075,Østendalsvej,8983,14,10.069496,56.600909
1785076,Østendalsvej,8983,16,10.07,56.60085
1785077,Østendalsvej,8983,17,10.070369,56.601251
1785078,Østendalsvej,8983,18,10.070261,56.600893
1785079,Østendalsvej,8983,19,10.071946,56.601139
1785080,Østendalsvej,8983,20,10.07133,56.600668
1785081,Østendalsvej,8983,29,10.083699,56.602583
1785082,Østendalsvej,8983,30,10.085871,56.602222
1785083,Østendalsvej,8983,31,10.085226,56.603009
1785084,Østendalsvej,8983,33,10.085938,56.602832
1785085,Østendalsvej,8983,37,10.087145,56.604026
1785086,Østendalsvej,8983,38,10.089779,56.604416
1785087,Østendalsvej,8983,46,10.095664,56.608497
1785088,Østendalsvej,8983,55,10.100834,56.610941
1785089,Østendalsvej,8983,57,10.100159,56.611818
1785090,Østendalsvej,8983,61,10.103259,56.613641
1785091,Østendalsvej,8983,62,10.105843,56.612837
1785092,Østendalsvej,8983,65,10.105872,56.613834
1785093,Østendalsvej,8983,66,10.109611,56.613531
1785094,Østendalsvej,8983,69,10.108515,56.616739
1785095,Østendalsvej,8983,70,10.111448,56.613937
1785096,Østendalsvej,8983,74,10.112785,56.613979
1785097,Østendalsvej,8983,76,10.113425,56.614144
1785098,Østendalsvej,8983,83,10.119096,56.614686
1785099,Østendalsvej,8983,85,10.119308,56.614711
1785100,Østendalsvej,8983,89,10.119734,56.614788
1785101,Østendalsvej,8983,91,10.119967,56.614948
1785102,Østendalsvej,8983,93,10.120148,56.615
1785103,Østendalsvej,8983,95,10.120409,56.615034
1785104,Østendalsvej,8983,97,10.120559,56.615122
1785105,Østendalsvej,8983,99,10.120724,56.61521
1785106,Østendalsvej,8983,101,10.12107,56.615324
1785107,Østendalsvej,8983,103,10.121743,56.615507
1785575,Kirkevej,8983,1A,10.189917,56.578054
1785576,Kirkevej,8983,1B,10.19094,56.577963
1785577,Kirkevej,8983,1C,10.190917,56.578772
1785578,Kirkevej,8983,2,10.190309,56.577556
1785579,Kirkevej,8983,3,10.191573,56.577894
1785580,Kirkevej,8983,4,10.192394,56.577599
1785583,Skolevangen,8983,2,10.127407,56.615806
1785584,Skolevangen,8983,3,10.128294,56.616058
1785585,Skolevangen,8983,4,10.12814,56.615746
1785586,Skolevangen,8983,5,10.129206,56.616041
1785587,Skolevangen,8983,6,10.12882,56.615676
1785588,Skolevangen,8983,7,10.130046,56.6158
1785589,Skolevangen,8983,8,10.129336,56.615699
1785590,Skolevangen,8983,9,10.130162,56.615314
1785591,Skolevangen,8983,11,10.130249,56.614936
1785592,Skolevangen,8983,15,10.13054,56.614313
1785593,Skolevangen,8983,19,10.13099,56.613563
1785594,Skolevangen,8983,21,10.13111,56.613221
1785595,Skolevangen,8983,27,10.132153,56.611064
1785596,Skolevangen,8983,32,10.135208,56.606984
1785663,Søren Bangsvej,8983,1,10.132482,56.585562
1785664,Søren Bangsvej,8983,3,10.132559,56.585966
1785665,Søren Bangsvej,8983,4,10.133188,56.585753
1785666,Søren Bangsvej,8983,5,10.132911,56.586322
1785667,Søren Bangsvej,8983,6,10.133307,56.58595
1785668,Søren Bangsvej,8983,7,10.133128,56.586473
1785669,Søren Bangsvej,8983,8,10.133427,56.586147
1785670,Søren Bangsvej,8983,9,10.133248,56.586696
1785671,Søren Bangsvej,8983,10,10.133613,56.586369
1785672,Søren Bangsvej,8983,11,10.133305,56.586938
1785673,Søren Bangsvej,8983,12,10.133716,56.586539
1785674,Søren Bangsvej,8983,13,10.133473,56.587134
1785675,Søren Bangsvej,8983,14,10.133918,56.58678
1785676,Søren Bangsvej,8983,16,10.133957,56.586977
1785686,Nørregade,8983,1,10.112052,56.556869
1785687,Nørregade,8983,2,10.111951,56.556754
1785688,Nørregade,8983,3,10.11228,56.556867
1785689,Nørregade,8983,4,10.112162,56.556752
1785690,Nørregade,8983,5,10.112475,56.556857
1785691,Nørregade,8983,6,10.112601,56.556748
1785692,Nørregade,8983,7,10.112919,56.556862
1785693,Nørregade,8983,8,10.112999,56.55643
1785852,Kærvejen,8983,1,10.188707,56.577868
1785853,Kærvejen,8983,2,10.188211,56.577316
1785854,Kærvejen,8983,3,10.189021,56.577505
1785855,Kærvejen,8983,4,10.188412,56.577295
1785856,Kærvejen,8983,6,10.188752,56.577229
1785857,Kærvejen,8983,7,10.190456,56.577042
1785858,Kærvejen,8983,8,10.189128,56.577271
1785859,Kærvejen,8983,9,10.1906012,56.5770135
1785860,Kærvejen,8983,10,10.189332,56.577035
1785861,Kærvejen,8983,11,10.190698,56.576986
1785862,Kærvejen,8983,12,10.189556,56.576916
1785863,Kærvejen,8983,13,10.190306,56.576954
1785864,Kærvejen,8983,14,10.189879,56.576841
1785865,Kærvejen,8983,17,10.191219,56.576478
1785866,Kærvejen,8983,24,10.19059,56.575109
1785867,Kærvejen,8983,30,10.198612,56.573451
1785868,Kærvejen,8983,31,10.199708,56.573135
1785869,Kærvejen,8983,33,10.204182,56.573577
1785870,Kærvejen,8983,35,10.200375,56.572589
1785871,Kærvejen,8983,37,10.201011,56.572116
1785872,Kærvejen,8983,40,10.199626,56.568993
1785873,Kærvejen,8983,42,10.204377,56.569469
1785874,Kærvejen,8983,51,10.210795,56.571158
1785875,Kærvejen,8983,52,10.210316,56.568819
1785876,Kærvejen,8983,54,10.21303,56.56624
1785877,Kærvejen,8983,55,10.21553,56.570609
1785878,Kærvejen,8983,56,10.214487,56.566495
1785879,Kærvejen,8983,58,10.215393,56.566855
1785880,Kærvejen,8983,60,10.215065,56.567271
1785881,Kærvejen,8983,63,10.214562,56.567833
1785897,Salvænget,8983,2A,10.107796,56.55653
1785898,Salvænget,8983,2B,10.107794,56.556458
1785899,Salvænget,8983,4A,10.107707,56.556297
1785900,Salvænget,8983,4B,10.107672,56.556181
1785901,Salvænget,8983,6,10.10783,56.556027
1785902,Salvænget,8983,8,10.107652,56.556055
1785903,Salvænget,8983,10,10.10749,56.556075
1786012,Rishøjvej,8983,2,10.126396,56.607046
1786013,Rishøjvej,8983,6,10.126367,56.606624
1786014,Rishøjvej,8983,7,10.125144,56.606024
1786015,Rishøjvej,8983,11,10.122869,56.605658
1786016,Rishøjvej,8983,13,10.121512,56.6055
1786017,Rishøjvej,8983,17,10.120596,56.605364
1797101,Hammervænget,8983,1A,10.132495,56.588743
1797105,Hammervænget,8983,1B,10.132481,56.588815
1797109,Hammervænget,8983,1C,10.132484,56.588896
1797112,Hammervænget,8983,2,10.132325,56.588475
1797118,Hammervænget,8983,4A,10.132553,56.588482
1797123,Hammervænget,8983,4B,10.132707,56.588472
1797127,Hammervænget,8983,5,10.132587,56.589074
1797129,Hammervænget,8983,6,10.132975,56.58846
1797134,Hammervænget,8983,7,10.13259,56.589164
1797135,Hammervænget,8983,8,10.133301,56.588448
1797137,Hammervænget,8983,9,10.132626,56.589308
1797138,Hammervænget,8983,10,10.133163,56.588728
1797139,Hammervænget,8983,12,10.133202,56.588952
1797143,Hedager,8983,2,10.151707,56.610579
1797146,Hedager,8983,5,10.152852,56.610209
1797148,Hedager,8983,11,10.156993,56.608697
1799005,Skelvangsvej,8983,1,10.132044,56.589969
1799008,Skelvangsvej,8983,3,10.13154,56.59
1799011,Skelvangsvej,8983,4,10.131844,56.590366
1799015,Skelvangsvej,8983,5,10.131021,56.590086
1802177,Mariagergyden,8983,1,10.107886,56.55573
1802179,Mariagergyden,8983,5,10.10821,56.556239
1802180,Mariagergyden,8983,7,10.108423,56.556291
1802181,Mariagergyden,8983,8,10.108402,56.556138
1802183,Mariagergyden,8983,9,10.108359,56.556336
1802331,Toften,8983,3,10.18757,56.575857
1802335,Toften,8983,5,10.188202,56.575779
1802338,Toften,8983,8,10.188621,56.575631
1802339,Toften,8983,9,10.188973,56.575951
1802342,Toften,8983,10,10.189003,56.575655
1803539,Bakkegårdsvej,8983,3,10.189132,56.582707
1803540,Bakkegårdsvej,8983,4,10.188589,56.583969
1803543,Bakkegårdsvej,8983,9,10.1865,56.583792
1803545,Bakkegårdsvej,8983,10,10.18078,56.584682
1803547,Bakkegårdsvej,8983,11,10.186103,56.583598
1806026,Elmegårdsvej,8983,3,10.130664,56.587951
1806027,Elmegårdsvej,8983,4,10.131258,56.588206
1806029,Elmegårdsvej,8983,5,10.130225,56.587964
1806030,Elmegårdsvej,8983,6,10.130918,56.588272
1806032,Elmegårdsvej,8983,7,10.129917,56.588002
1806034,Elmegårdsvej,8983,8,10.130528,56.588293
1806035,Elmegårdsvej,8983,9,10.129722,56.588022
1806037,Elmegårdsvej,8983,10,10.130155,56.588342
1806039,Elmegårdsvej,8983,11,10.129551,56.588042
1806040,Elmegårdsvej,8983,12,10.129716,56.588364
1806042,Elmegårdsvej,8983,13,10.1293455,56.5880619
1807949,Kirkehøjvej,8983,1,10.190315,56.587089
1807950,Kirkehøjvej,8983,3,10.190391,56.586899
1807951,Kirkehøjvej,8983,4,10.18962,56.586709
1807952,Kirkehøjvej,8983,5,10.190254,56.586685
1807953,Kirkehøjvej,8983,6,10.189127,56.586688
1807954,Kirkehøjvej,8983,7,10.189921,56.586501
1807955,Kirkehøjvej,8983,8,10.188594,56.586701
1807956,Kirkehøjvej,8983,9,10.189882,56.586266
1807957,Kirkehøjvej,8983,10,10.188268,56.586704
1807958,Kirkehøjvej,8983,11,10.189557,56.586278
1807959,Kirkehøjvej,8983,13,10.189411,56.586298
1807960,Kirkehøjvej,8983,15,10.189282,56.586317
1807964,Kirkehøjvej,8983,17,10.189152,56.586336
1807966,Kirkehøjvej,8983,19,10.189006,56.586355
1807969,Kirkehøjvej,8983,21,10.18858,56.58627
1807972,Kirkehøjvej,8983,23,10.188467,56.586289
1807976,Kirkehøjvej,8983,25,10.188353,56.586308
1807979,Kirkehøjvej,8983,27,10.18824,56.586327
1807981,Kirkehøjvej,8983,29,10.188127,56.586346
1808020,Spentrupvej,8983,1,10.109847,56.555452
1808022,Spentrupvej,8983,3,10.109455,56.55541
1808027,Spentrupvej,8983,4,10.108828,56.555658
1808028,Spentrupvej,8983,6,10.108288,56.555582
1808030,Spentrupvej,8983,8,10.108261,56.555753
1808033,Spentrupvej,8983,10,10.107449,56.555814
1808035,Spentrupvej,8983,12,10.106938,56.555909
1808039,Spentrupvej,8983,13,10.107441,56.555509
1808042,Spentrupvej,8983,15,10.10699,56.555585
1808045,Spentrupvej,8983,17,10.106679,56.555633
1808048,Spentrupvej,8983,19,10.10621,56.555727
1808050,Spentrupvej,8983,21,10.105824,56.555748
1808054,Spentrupvej,8983,23,10.105326,56.555537
1808057,Spentrupvej,8983,28,10.103257,56.555995
1808060,Spentrupvej,8983,34,10.094583,56.556467
1808065,Spentrupvej,8983,35,10.092669,56.555541
1808067,Spentrupvej,8983,43,10.084698,56.555593
1808071,Spentrupvej,8983,51,10.077018,56.553261
1808076,Spentrupvej,8983,52,10.074963,56.555354
1808079,Spentrupvej,8983,54,10.068374,56.55825
1808082,Spentrupvej,8983,56,10.068763,56.554167
1811131,Sognevej,8983,1,10.123936,56.614714
1811132,Sognevej,8983,3,10.123963,56.614543
1811136,Sognevej,8983,4,10.123393,56.61454
1811140,Sognevej,8983,5,10.124072,56.614345
1811142,Sognevej,8983,6,10.123615,56.614313
1811145,Sognevej,8983,7,10.124376,56.61418
1811147,Sognevej,8983,8,10.123723,56.614123
1811149,Sognevej,8983,9,10.124611,56.613864
1811152,Sognevej,8983,10,10.122924,56.613564
1811154,Sognevej,8983,11,10.125161,56.613724
1811158,Sognevej,8983,13A,10.125433,56.612994
1811161,Sognevej,8983,13B,10.125841,56.613026
1811163,Sognevej,8983,13C,10.125601,56.613172
1811165,Sognevej,8983,15,10.1258004,56.6121827
1811167,Sognevej,8983,15A,10.125783,56.612173
1811170,Sognevej,8983,19,10.126016,56.610697
1811176,Sognevej,8983,21,10.125912,56.610474
1811178,Sognevej,8983,24,10.125815,56.608875
1811182,Sognevej,8983,26,10.125949,56.608452
1811184,Sognevej,8983,28,10.125801,56.60786
1811185,Sognevej,8983,29,10.126626,56.608194
1811186,Sognevej,8983,32,10.12694,56.606691
1811187,Sognevej,8983,33,10.127418,56.606893
1811188,Sognevej,8983,34,10.127599,56.605858
1811192,Sognevej,8983,37,10.129318,56.605052
1811193,Sognevej,8983,38,10.129782,56.599864
1811196,Sognevej,8983,40,10.1257079,56.5989742
1811202,Sognevej,8983,49,10.135332,56.600271
1811205,Sognevej,8983,51,10.133955,56.598334
1811208,Sognevej,8983,59,10.134695,56.595857
1811212,Sognevej,8983,61,10.134559,56.595651
1811375,Vestergade,8983,1,10.128753,56.586638
1811378,Vestergade,8983,2,10.13056,56.58664
1811380,Vestergade,8983,3,10.129663,56.586585
1811386,Vestergade,8983,4A,10.130382,56.586668
1811390,Vestergade,8983,4B,10.130303,56.58675
1811393,Vestergade,8983,5,10.129826,56.586602
1811400,Vestergade,8983,7,10.129472,56.586749
1811406,Vestergade,8983,9,10.127922,56.586637
1811410,Vestergade,8983,11,10.127593,56.586532
1811415,Vestergade,8983,12,10.129156,56.587048
1811418,Vestergade,8983,13,10.126905,56.586386
1811421,Vestergade,8983,14,10.128831,56.587096
1811428,Vestergade,8983,15,10.126643,56.586334
1811430,Vestergade,8983,16,10.128473,56.587081
1811433,Vestergade,8983,18,10.128243,56.58702
1811438,Vestergade,8983,19,10.126217,56.586248
1811440,Vestergade,8983,20,10.127996,56.586933
1811445,Vestergade,8983,21,10.126037,56.586223
1811451,Vestergade,8983,22,10.12752,56.586802
1811454,Vestergade,8983,23,10.125889,56.586152
1811459,Vestergade,8983,24,10.12647,56.586533
1811463,Vestergade,8983,25,10.125724,56.586073
1811465,Vestergade,8983,26A,10.126304,56.586436
1811470,Vestergade,8983,26B,10.126206,56.586428
1811472,Vestergade,8983,27,10.126516,56.585886
1811478,Vestergade,8983,28,10.125961,56.586403
1811484,Vestergade,8983,29,10.126823,56.585802
1811486,Vestergade,8983,30,10.125553,56.586353
1811491,Vestergade,8983,31,10.12515,56.585952
1812360,Nørreled,8983,2,10.190396,56.582407
1812361,Nørreled,8983,3,10.188846,56.581775
1812362,Nørreled,8983,4,10.19057,56.582737
1812364,Nørreled,8983,5,10.190054,56.582383
1812367,Nørreled,8983,6,10.190462,56.582945
1812369,Nørreled,8983,7,10.188627,56.583089
1812372,Nørreled,8983,8,10.190532,56.583097
1812374,Nørreled,8983,9,10.189982,56.582707
1812376,Nørreled,8983,11,10.189988,56.582896
1812377,Nørreled,8983,13,10.189915,56.583157
1812381,Nørreled,8983,15,10.189973,56.583453
1817316,Skrænten,8983,1,10.185996,56.579655
1817323,Skrænten,8983,2,10.186364,56.579965
1817327,Skrænten,8983,3,10.185857,56.579916
1817333,Skrænten,8983,4,10.186406,56.580297
1817338,Skrænten,8983,5,10.185865,56.580159
1817340,Skrænten,8983,7,10.185793,56.580447
1817346,Skrænten,8983,9,10.185783,56.580663
1818554,Kildebakken,8983,1,10.190732,56.58376
1818561,Kildebakken,8983,2,10.191069,56.583604
1818566,Kildebakken,8983,3,10.191116,56.584071
1818572,Kildebakken,8983,4,10.191582,56.583878
1818578,Kildebakken,8983,6,10.191588,56.584057
1819227,Tinghøjvej,8983,79,10.154185,56.610628
1819231,Tinghøjvej,8983,80,10.154253,56.611256
1819233,Tinghøjvej,8983,81,10.153747,56.610686
1819235,Tinghøjvej,8983,82,10.153874,56.611655
1819237,Tinghøjvej,8983,83,10.153273,56.610636
1819239,Tinghøjvej,8983,84,10.152822,56.611359
1821404,Mercurvej,8983,1,10.133061,56.592403
1821405,Mercurvej,8983,2,10.133404,56.591879
1821407,Mercurvej,8983,2A,10.132751,56.592008
1821409,Mercurvej,8983,6,10.133482,56.591222
1821410,Mercurvej,8983,8,10.13354,56.590979
1821411,Mercurvej,8983,10,10.134244,56.591656
1821412,Mercurvej,8983,12,10.135126,56.591621
1824118,Hald Møllevej,8983,2,10.112056,56.555917
1824119,Hald Møllevej,8983,3,10.111353,56.555779
1824121,Hald Møllevej,8983,4,10.111933,56.556161
1824122,Hald Møllevej,8983,5,10.111453,56.556426
1824124,Hald Møllevej,8983,6,10.111856,56.556296
1824127,Hald Møllevej,8983,8,10.111796,56.556449
1824128,Hald Møllevej,8983,10,10.111751,56.556585
1824130,Hald Møllevej,8983,14,10.111825,56.556889
1824133,Hald Møllevej,8983,15,10.111877,56.557554
1824135,Hald Møllevej,8983,16,10.112078,56.55722
1824137,Hald Møllevej,8983,17,10.111547,56.557873
1824139,Hald Møllevej,8983,18,10.1125,56.557719
1824141,Hald Møllevej,8983,20,10.113444,56.557738
1824143,Hald Møllevej,8983,24,10.116067,56.557319
1824145,Hald Møllevej,8983,40,10.126114,56.567453
1824147,Hald Møllevej,8983,42,10.126341,56.567954
1824148,Hald Møllevej,8983,43,10.126991,56.569035
1824150,Hald Møllevej,8983,44,10.128357,56.569544
1824151,Hald Møllevej,8983,45,10.12829,56.570021
1824152,Hald Møllevej,8983,46,10.129697,56.57025
1824153,Hald Møllevej,8983,47,10.128884,56.570294
1824154,Hald Møllevej,8983,48,10.130888,56.570356
1824155,Hald Møllevej,8983,49,10.129866,56.570465
1824156,Hald Møllevej,8983,50,10.13217,56.570758
1824177,Rødkløvervej,8983,4,10.183211,56.580157
1824178,Rødkløvervej,8983,5,10.183293,56.580686
1824179,Rødkløvervej,8983,6,10.183631,56.580045
1824180,Rødkløvervej,8983,7,10.183259,56.581154
1824181,Rødkløvervej,8983,8,10.183702,56.580233
1824182,Rødkløvervej,8983,9,10.182867,56.58114
1824183,Rødkløvervej,8983,10,10.18356,56.580388
1824184,Rødkløvervej,8983,11,10.182577,56.581241
1824185,Rødkløvervej,8983,12,10.183748,56.580682
1824186,Rødkløvervej,8983,13,10.182192,56.581398
1824187,Rødkløvervej,8983,14,10.183741,56.58097
1824188,Rødkløvervej,8983,16,10.183733,56.581239
1824194,Rosenvej,8983,1,10.132028,56.58509
1824196,Rosenvej,8983,3,10.130938,56.585118
1824199,Rosenvej,8983,5,10.130738,56.584958
1824200,Rosenvej,8983,7,10.13049,56.584844
1824203,Rosenvej,8983,9,10.130331,56.58498
1824645,Grønvangen,8983,1,10.189209,56.576236
1824650,Grønvangen,8983,2,10.189243,56.576775
1824654,Grønvangen,8983,3,10.189063,56.576247
1824658,Grønvangen,8983,4,10.188745,56.576493
1824660,Grønvangen,8983,5,10.188852,56.576258
1824666,Grønvangen,8983,6,10.18875,56.576645
1824669,Grønvangen,8983,7,10.18869,56.576268
1824672,Grønvangen,8983,8,10.188852,56.576779
1824675,Grønvangen,8983,9,10.18849,56.576127
1824676,Grønvangen,8983,10,10.188841,56.576932
1824680,Grønvangen,8983,11,10.188344,56.576146
1824682,Grønvangen,8983,13,10.188085,56.576202
1824683,Grønvangen,8983,15,10.188072,56.576301
1824687,Grønvangen,8983,17,10.188125,56.576427
1824690,Grønvangen,8983,19,10.188127,56.576516
1824691,Grønvangen,8983,21,10.188164,56.576651
1824693,Grønvangen,8983,23,10.188167,56.576732
1824698,Grønvangen,8983,25,10.188235,56.57683
1824699,Grønvangen,8983,27,10.18824,56.576991
1824702,Grønvangen,8983,29,10.188422,56.57708
1824855,Udsigten,8983,2,10.190614,56.584678
1824857,Udsigten,8983,3,10.191175,56.584906
1824859,Udsigten,8983,4,10.191216,56.584654
1824861,Udsigten,8983,5,10.191299,56.585228
1824863,Udsigten,8983,6,10.191192,56.58443
1824865,Udsigten,8983,8,10.191826,56.584388
1824867,Udsigten,8983,10,10.191836,56.584702
1824870,Udsigten,8983,12,10.191828,56.584963
1824871,Udsigten,8983,14,10.192013,56.58515
1825482,Hvilhusevej,8983,1,10.22143,56.585017
1825485,Hvilhusevej,8983,5,10.22288,56.585524
1825486,Hvilhusevej,8983,9,10.22126,56.584767
1825489,Hvilhusevej,8983,11,10.221784,56.58487
1825490,Hvilhusevej,8983,13,10.223074,56.584992
1825491,Hvilhusevej,8983,14,10.224025,56.584695
1825493,Hvilhusevej,8983,15,10.223753,56.585336
1825494,Hvilhusevej,8983,17A,10.224663,56.585291
1825497,Hvilhusevej,8983,17B,10.224665,56.586487
1827148,Kildebakkevej,8983,1,10.108587,56.559102
1827149,Kildebakkevej,8983,3,10.108447,56.559345
1827150,Kildebakkevej,8983,7,10.10788,56.560518
1827151,Kildebakkevej,8983,16,10.109738,56.566189
1827152,Kildebakkevej,8983,19,10.109691,56.568481
1827153,Kildebakkevej,8983,20,10.111796,56.569765
1827156,Kildebakkevej,8983,21,10.110752,56.569684
1827158,Kildebakkevej,8983,22,10.112179,56.570076
1827161,Kildebakkevej,8983,28,10.118769,56.571131
1827163,Kildebakkevej,8983,34,10.111787,56.573916
1827508,Valmuevej,8983,1,10.220126,56.584958
1827510,Valmuevej,8983,3,10.220376,56.585144
1827512,Valmuevej,8983,5,10.22038,56.58527
1827514,Valmuevej,8983,11,10.219719,56.585977
1827516,Valmuevej,8983,14,10.220181,56.586673
1827517,Valmuevej,8983,17,10.219055,56.587089
1827518,Valmuevej,8983,18,10.222711,56.587852
1827519,Valmuevej,8983,20,10.220268,56.588865
1827520,Valmuevej,8983,22,10.22097,56.589424
1827521,Valmuevej,8983,23,10.219063,56.589353
1827522,Valmuevej,8983,28,10.223206,56.590067
1827523,Valmuevej,8983,31,10.21766,56.590813
1827524,Valmuevej,8983,32,10.22491,56.591919
1827525,Valmuevej,8983,35,10.220137,56.592379
1827897,Gjerlevvej,8983,2,10.188938,56.580031
1827898,Gjerlevvej,8983,3A,10.188761,56.579583
1827899,Gjerlevvej,8983,3B,10.18879,56.579484
1827900,Gjerlevvej,8983,3C,10.188738,56.579359
1827901,Gjerlevvej,8983,3D,10.188751,56.579269
1827902,Gjerlevvej,8983,3E,10.188444,56.579335
1827903,Gjerlevvej,8983,3F,10.188457,56.579236
1827904,Gjerlevvej,8983,3G,10.188134,56.57932
1827905,Gjerlevvej,8983,3H,10.188163,56.57922
1827906,Gjerlevvej,8983,3I,10.18822,56.579481
1827907,Gjerlevvej,8983,3K,10.188041,56.579473
1827908,Gjerlevvej,8983,3L,10.188398,56.579448
1827909,Gjerlevvej,8983,5,10.187779,56.579431
1827910,Gjerlevvej,8983,6,10.188379,56.579847
1827911,Gjerlevvej,8983,8,10.188118,56.579841
1827912,Gjerlevvej,8983,10,10.187917,56.579654
1827913,Gjerlevvej,8983,12,10.187759,56.579835
1827914,Gjerlevvej,8983,13,10.186447,56.579003
1827915,Gjerlevvej,8983,15,10.185701,56.578561
1827916,Gjerlevvej,8983,16,10.186689,56.57945
1827917,Gjerlevvej,8983,18,10.185968,56.579286
1827918,Gjerlevvej,8983,19,10.184498,56.578627
1827919,Gjerlevvej,8983,20,10.186075,56.579079
1827920,Gjerlevvej,8983,21,10.18416,56.578738
1827921,Gjerlevvej,8983,22,10.185863,56.579054
1827922,Gjerlevvej,8983,23,10.18345,56.578942
1827923,Gjerlevvej,8983,24,10.185699,56.579019
1827924,Gjerlevvej,8983,26,10.185315,56.578709
1827925,Gjerlevvej,8983,32,10.183768,56.579235
1827926,Gjerlevvej,8983,34,10.183464,56.5794
1827927,Gjerlevvej,8983,36,10.183241,56.579537
1827928,Gjerlevvej,8983,38,10.183018,56.57971
1827929,Gjerlevvej,8983,40,10.182664,56.579848
1827930,Gjerlevvej,8983,50,10.17849,56.582242
1828498,Alleen,8983,2,10.17398,56.584342
1828499,Alleen,8983,7,10.169668,56.586009
1828500,Alleen,8983,9,10.170775,56.586519
1828501,Alleen,8983,10,10.1740028,56.5879359
1828610,Syrenvej,8983,4,10.18782,56.580212
1828611,Syrenvej,8983,5,10.188042,56.580003
1828612,Syrenvej,8983,6,10.187477,56.580161
1828613,Syrenvej,8983,7,10.187453,56.579928
1828614,Syrenvej,8983,8,10.187166,56.580128
1828615,Syrenvej,8983,9,10.187225,56.579912
1828616,Syrenvej,8983,11,10.187078,56.579905
1828818,Dalsvinget,8983,7,10.18762,56.585246
1828819,Dalsvinget,8983,9,10.187166,56.585322
1828820,Dalsvinget,8983,10,10.187765,56.585711
1828821,Dalsvinget,8983,11,10.186693,56.585299
1828822,Dalsvinget,8983,12,10.187803,56.585891
1828823,Dalsvinget,8983,13,10.186554,56.584995
1828824,Dalsvinget,8983,14,10.187751,56.586322
1828825,Dalsvinget,8983,15,10.186179,56.58499
1828826,Dalsvinget,8983,16,10.187091,56.586023
1828827,Dalsvinget,8983,17,10.18617,56.585223
1828828,Dalsvinget,8983,18,10.187099,56.586293
1828829,Dalsvinget,8983,20,10.186655,56.586153
1828830,Dalsvinget,8983,21,10.185052,56.585396
1828831,Dalsvinget,8983,22,10.186697,56.585937
1828832,Dalsvinget,8983,23,10.184631,56.585463
1828833,Dalsvinget,8983,24,10.186753,56.585658
1828834,Dalsvinget,8983,25,10.185191,56.585673
1828835,Dalsvinget,8983,26,10.186186,56.585726
1828836,Dalsvinget,8983,27,10.185585,56.585777
1828837,Dalsvinget,8983,28,10.186079,56.585943
1829318,Tværgade,8983,7,10.186528,56.577933
1829319,Tværgade,8983,9,10.186227,56.578197
1829322,Tværgade,8983,11,10.185976,56.578505
2090221,Kraghs Vej,8983,3,10.108811,56.553969
2090223,Kraghs Vej,8983,4,10.108417,56.553847
2090225,Kraghs Vej,8983,5,10.108868,56.553708
2090226,Kraghs Vej,8983,6,10.108411,56.55364
2090228,Kraghs Vej,8983,7,10.108992,56.5535
2090230,Kraghs Vej,8983,8,10.108437,56.553416
2090231,Kraghs Vej,8983,9,10.10897,56.553294
2090233,Kraghs Vej,8983,10,10.108562,56.553244
2090235,Kraghs Vej,8983,11,10.109078,56.553086
2090236,Kraghs Vej,8983,12,10.108587,56.553001
2099239,Villatoften,8983,3,10.105855,56.553016
2099240,Villatoften,8983,5,10.105638,56.55283
2099241,Villatoften,8983,7,10.105307,56.552626
2099242,Villatoften,8983,9,10.104891,56.552333
2099243,Villatoften,8983,11,10.104643,56.552191
2099244,Villatoften,8983,13,10.104441,56.55196
2099748,Lillegade,8983,4,10.109273,56.554199
2099749,Lillegade,8983,6,10.109629,56.554142
2099750,Lillegade,8983,8,10.110138,56.554281
2099751,Lillegade,8983,9,10.110767,56.55468
2099752,Lillegade,8983,10,10.11128,56.554414
2099753,Lillegade,8983,12,10.11239,56.555096
2147841,Chr. Lynges Vej,8983,1,10.136084,56.586796
2147845,Chr. Lynges Vej,8983,2,10.135777,56.586871
2147859,Chr. Lynges Vej,8983,3,10.136278,56.58674
2147865,Chr. Lynges Vej,8983,4,10.135631,56.586926
2147875,Chr. Lynges Vej,8983,5,10.136143,56.586571
2147886,Chr. Lynges Vej,8983,6,10.135528,56.586693
2147890,Chr. Lynges Vej,8983,7,10.136041,56.586428
2147903,Chr. Lynges Vej,8983,8,10.135492,56.586586
2147906,Chr. Lynges Vej,8983,10,10.135623,56.586432
2190510,Dalsvinget,8983,19,10.187355,56.585616
2197555,Udbyhøjvej,8983,558,10.188735,56.578245
2197556,Udbyhøjvej,8983,560,10.189068,56.578466
2197557,Udbyhøjvej,8983,577A,10.189651,56.580437
2199260,Hadsundvej,8983,426,10.104,56.551344
2210363,Kærbyvej,8983,20A,10.085931,56.568511
2210364,Kærbyvej,8983,24,10.096191,56.569894
2210365,Fosevej,8983,26,10.122897,56.623444
2210366,Spentrupvej,8983,60,10.068367,56.557414
2210369,Gjerlevvej,8983,46,10.180976,56.582081
2227630,Østermarksvej,8983,18A,10.133861,56.584867
2227631,Østermarksvej,8983,40,10.142601,56.58529
2227632,Østermarksvej,8983,42,10.147205,56.584079
2232220,Kærbybrovej,8983,32,10.05887,56.607684
2232221,Kærbybrovej,8983,34,10.061135,56.605971
2232222,Kærbybrovej,8983,38,10.063807,56.602485
2232223,Kærbybrovej,8983,56,10.070384,56.600622
2232224,Kærbybrovej,8983,57,10.068145,56.60172
2232225,Kærbybrovej,8983,59,10.069333,56.601458
2232226,Kærbybrovej,8983,60,10.070749,56.600269
2232227,Kærbybrovej,8983,61,10.069608,56.601402
2232228,Kærbybrovej,8983,62,10.070691,56.599964
2232229,Kærbybrovej,8983,63,10.06998,56.6013
2232230,Kærbybrovej,8983,71,10.071773,56.599613
2232231,Kærbybrovej,8983,75,10.072654,56.598527
2232232,Kirkegade,8983,10,10.062545,56.59874
2232287,Frederiksbergvej,8983,36,10.117235,56.58809
2232325,Ruhøjvej,8983,1,10.078687,56.566157
2233178,Krogagervej,8983,8,10.121398,56.61472
2233245,Stangerumvej,8983,10,10.18751,56.581087
2233253,Østergade,8983,24,10.190007,56.57622
2233340,Ærteholmsvej,8983,17,10.136718,56.582415
2233341,Ærteholmsvej,8983,19,10.135588,56.577295
2233654,Kærvejen,8983,51A,10.225079,56.571629
2233655,Kærvejen,8983,84,10.223859,56.55988
2233656,Kærvejen,8983,88,10.229795,56.555787
2233657,Kærvejen,8983,92,10.21546,56.57096
2233658,Kærvejen,8983,96,10.229817,56.555958
2233759,Hedager,8983,1,10.152537,56.610553
2233838,Vestergade,8983,1A,10.128741,56.586637
2233962,Rødkløvervej,8983,18,10.183243,56.581711
2253150,Elmegårdsvej,8983,1A,10.1313942,56.5878937
2253151,Elmegårdsvej,8983,1B,10.131203,56.58791
2253179,Kirkestien,8983,2,10.189417,56.579047
2253213,Tvedevej,8983,17A,10.11497,56.556729
