idx,street,postcode,housenumber,lon,lat
683108,Luneborgvej,9382,307,9.847569,57.214572
683109,Luneborgvej,9382,311,9.840336,57.216094
683110,Luneborgvej,9382,313,9.838636,57.216436
685724,Albert Dams Vej,9382,3,9.95528,57.195794
685725,Albert Dams Vej,9382,6,9.955132,57.196131
685726,Albert Dams Vej,9382,7,9.954249,57.196013
685727,Albert Dams Vej,9382,8,9.954691,57.196196
685728,Albert Dams Vej,9382,9,9.953874,57.196078
685729,Albert Dams Vej,9382,10,9.954369,57.1962944
685730,Albert Dams Vej,9382,11,9.953338,57.196189
685731,Albert Dams Vej,9382,12,9.954028,57.19633
685732,Albert Dams Vej,9382,14,9.953621,57.196404
685733,Albert Dams Vej,9382,16A,9.953837,57.196724
685734,Albert Dams Vej,9382,16B,9.954004,57.196688
685735,Albert Dams Vej,9382,18A,9.954522,57.196839
685736,Albert Dams Vej,9382,18B,9.954578,57.196919
685737,Albert Dams Vej,9382,20A,9.954443,57.197157
685738,Albert Dams Vej,9382,20B,9.954277,57.197193
685739,Albert Dams Vej,9382,22A,9.953796,57.197162
685740,Albert Dams Vej,9382,22B,9.953701,57.197092
685741,Albert Dams Vej,9382,24A,9.953458,57.196909
685742,Albert Dams Vej,9382,24B,9.953366,57.196839
685743,Albert Dams Vej,9382,26A,9.953122,57.196655
685744,Albert Dams Vej,9382,26B,9.953018,57.196577
685745,Albert Dams Vej,9382,28A,9.952833,57.196357
685746,Albert Dams Vej,9382,28B,9.952777,57.196264
686355,Arendrupsvej,9382,1,9.943463,57.19673
686356,Arendrupsvej,9382,2,9.943512,57.19649
686357,Arendrupsvej,9382,3,9.943495,57.196341
686358,Arendrupsvej,9382,4,9.943539,57.196188
686359,Arendrupsvej,9382,5,9.943543,57.195923
686360,Arendrupsvej,9382,6,9.943132,57.195873
686361,Arendrupsvej,9382,7,9.94357,57.195627
686362,Arendrupsvej,9382,8,9.943489,57.195443
686363,Arendrupsvej,9382,9,9.94351,57.195249
686364,Arendrupsvej,9382,10,9.943513,57.195052
686365,Arendrupsvej,9382,11,9.943516,57.19486
686366,Arendrupsvej,9382,12,9.943519,57.19471
686600,Askvej,9382,1,9.954293,57.19334
686601,Askvej,9382,2,9.954286,57.192553
686602,Askvej,9382,3,9.954434,57.193561
686603,Askvej,9382,6,9.954695,57.193192
687111,Barbaraskvej,9382,12,9.886829,57.21735
687112,Barbaraskvej,9382,15,9.884925,57.215666
687113,Barbaraskvej,9382,24,9.880255,57.213307
687114,Barbaraskvej,9382,33,9.87512,57.210534
687115,Barbaraskvej,9382,34,9.87331,57.211619
687692,Bilgårdsvej,9382,1,9.954783,57.194724
687693,Bilgårdsvej,9382,3,9.955102,57.194848
687694,Bilgårdsvej,9382,5,9.955245,57.194982
687695,Bilgårdsvej,9382,9,9.955488,57.195296
687696,Bilgårdsvej,9382,11,9.955714,57.195665
687697,Bilgårdsvej,9382,12,9.957559,57.19474
687698,Bilgårdsvej,9382,13,9.955877,57.195981
687699,Bilgårdsvej,9382,15,9.955993,57.196228
687700,Bilgårdsvej,9382,16,9.957751,57.195173
687701,Bilgårdsvej,9382,18,9.957487,57.19514
687702,Bilgårdsvej,9382,20,9.957279,57.194918
687703,Bilgårdsvej,9382,22,9.957118,57.194616
687704,Bilgårdsvej,9382,23,9.956812,57.196762
687705,Bilgårdsvej,9382,24,9.956702,57.194678
687706,Bilgårdsvej,9382,25,9.957746,57.196828
687707,Bilgårdsvej,9382,26,9.95685,57.195016
687708,Bilgårdsvej,9382,28,9.956867,57.195203
687709,Bilgårdsvej,9382,30,9.956499,57.195188
687710,Bilgårdsvej,9382,32,9.956373,57.194995
687711,Bilgårdsvej,9382,34,9.956125,57.194737
687712,Bilgårdsvej,9382,36,9.95574,57.194979
687713,Bilgårdsvej,9382,38,9.955888,57.195217
687714,Bilgårdsvej,9382,40,9.956085,57.195413
687715,Bilgårdsvej,9382,42,9.956353,57.195618
687716,Bilgårdsvej,9382,44,9.956713,57.195565
687717,Bilgårdsvej,9382,46,9.957117,57.19558
687718,Bilgårdsvej,9382,48,9.957424,57.195566
687719,Bilgårdsvej,9382,50,9.957932,57.195798
687720,Bilgårdsvej,9382,52,9.957893,57.195998
687721,Bilgårdsvej,9382,54,9.957838,57.196177
687722,Bilgårdsvej,9382,56,9.957311,57.195869
687723,Bilgårdsvej,9382,58,9.956976,57.195876
687724,Bilgårdsvej,9382,60,9.956627,57.195863
687725,Bilgårdsvej,9382,62,9.956337,57.19587
687726,Bilgårdsvej,9382,64,9.956622,57.196315
687727,Bilgårdsvej,9382,66,9.956914,57.196318
687728,Bilgårdsvej,9382,68,9.957287,57.196318
687729,Bilgårdsvej,9382,70,9.957902,57.196378
688951,Brandborgvej,9382,2,9.959174,57.196153
688952,Brandborgvej,9382,3,9.959279,57.196457
688953,Brandborgvej,9382,4,9.959505,57.196081
688954,Brandborgvej,9382,5,9.959642,57.196381
688955,Brandborgvej,9382,6,9.959791,57.196005
688956,Brandborgvej,9382,7,9.959835,57.196649
688957,Brandborgvej,9382,8,9.960023,57.196001
688958,Brandborgvej,9382,9,9.960016,57.196349
689290,Brændskovvej,9382,1,9.916063,57.210424
689291,Brændskovvej,9382,4,9.916678,57.210801
689292,Brændskovvej,9382,5,9.915328,57.210858
689293,Brændskovvej,9382,6,9.915967,57.210995
689294,Brændskovvej,9382,8,9.915444,57.211232
689295,Brændskovvej,9382,9,9.914529,57.211286
689296,Brændskovvej,9382,10,9.915284,57.211842
689297,Brændskovvej,9382,11,9.913797,57.211447
689298,Brændskovvej,9382,12,9.914383,57.212418
689299,Brændskovvej,9382,13,9.913013,57.211282
689300,Brændskovvej,9382,14,9.914009,57.213315
689301,Brændskovvej,9382,15,9.908722,57.212055
689302,Brændskovvej,9382,17,9.90979,57.213322
689303,Brændskovvej,9382,19,9.911736,57.214152
692464,Dunbirkevej,9382,2,9.954914,57.193469
692465,Dunbirkevej,9382,3,9.955317,57.193706
692466,Dunbirkevej,9382,4,9.955336,57.193372
692467,Dunbirkevej,9382,5,9.955731,57.193625
692468,Dunbirkevej,9382,6,9.955615,57.193309
692469,Dunbirkevej,9382,7,9.95598,57.193569
692470,Dunbirkevej,9382,8,9.955974,57.193228
692471,Dunbirkevej,9382,9,9.956308,57.193499
692472,Dunbirkevej,9382,10,9.956333,57.193183
692473,Dunbirkevej,9382,11,9.956561,57.193459
692474,Dunbirkevej,9382,12,9.956628,57.193114
692475,Dunbirkevej,9382,13,9.956891,57.193317
692476,Dunbirkevej,9382,14,9.957255,57.192977
692477,Dunbirkevej,9382,15,9.957303,57.193357
692478,Dunbirkevej,9382,17,9.957509,57.193323
692479,Dunbirkevej,9382,19,9.957948,57.193268
694948,Forsøgsvej,9382,3,9.953767,57.191832
694949,Forsøgsvej,9382,5,9.953425,57.191322
694950,Forsøgsvej,9382,7,9.953331,57.19118
694951,Forsøgsvej,9382,20,9.951388,57.190028
694952,Forsøgsvej,9382,24,9.951425,57.187922
694953,Forsøgsvej,9382,25,9.952555,57.187965
694954,Forsøgsvej,9382,27,9.95342,57.187363
694955,Forsøgsvej,9382,29,9.954199,57.186821
694956,Forsøgsvej,9382,30,9.9544102,57.1861831
696205,Gammel Skolevej,9382,1,9.954144,57.19232
696206,Gammel Skolevej,9382,2,9.953975,57.192033
696207,Gammel Skolevej,9382,3,9.954419,57.19229
696208,Gammel Skolevej,9382,4,9.954503,57.191774
696209,Gammel Skolevej,9382,5,9.954734,57.192078
696210,Gammel Skolevej,9382,7,9.955163,57.191981
696211,Gammel Skolevej,9382,8,9.955326,57.191142
696212,Gammel Skolevej,9382,9,9.955318,57.191719
696213,Gammel Skolevej,9382,10,9.954136,57.188862
696214,Gammel Skolevej,9382,12,9.95519,57.189582
696215,Gammel Skolevej,9382,13,9.956089,57.19126
696216,Gammel Skolevej,9382,14,9.956276,57.190553
696217,Gammel Skolevej,9382,16,9.956793,57.190284
696218,Gammel Skolevej,9382,16A,9.957304,57.190114
696219,Gammel Skolevej,9382,18,9.957665,57.190143
696220,Gammel Skolevej,9382,20,9.957857,57.190076
696221,Gammel Skolevej,9382,22,9.958337,57.190034
696309,Gammel Vråvej,9382,31,9.93448,57.178888
696310,Gammel Vråvej,9382,32,9.941412,57.18336
696311,Gammel Vråvej,9382,40,9.936309,57.186835
696312,Gammel Vråvej,9382,42,9.934655,57.187714
696313,Gammel Vråvej,9382,55,9.928787,57.19003
696314,Gammel Vråvej,9382,65,9.926658,57.192263
696315,Gammel Vråvej,9382,66,9.924359,57.193266
696316,Gammel Vråvej,9382,67,9.923769,57.192441
697823,Grundtvig Sørensens Vej,9382,1,9.939379,57.197723
697824,Grundtvig Sørensens Vej,9382,2A,9.939297,57.198029
697825,Grundtvig Sørensens Vej,9382,2B,9.939224,57.198004
697826,Grundtvig Sørensens Vej,9382,2C,9.939141,57.198029
697827,Grundtvig Sørensens Vej,9382,3,9.939241,57.197789
697828,Grundtvig Sørensens Vej,9382,4,9.938441,57.19803
697829,Grundtvig Sørensens Vej,9382,5,9.938724,57.197756
697830,Grundtvig Sørensens Vej,9382,6,9.937807,57.197981
697831,Grundtvig Sørensens Vej,9382,7,9.938241,57.197701
697832,Grundtvig Sørensens Vej,9382,8,9.936807,57.198086
697833,Grundtvig Sørensens Vej,9382,9,9.93793,57.197688
697834,Grundtvig Sørensens Vej,9382,10,9.93549,57.198066
697835,Grundtvig Sørensens Vej,9382,11,9.937571,57.197649
697836,Grundtvig Sørensens Vej,9382,12,9.934679,57.197993
697837,Grundtvig Sørensens Vej,9382,15,9.93484,57.197234
699310,Hammelmosevej,9382,10,9.949993,57.196562
699311,Hammelmosevej,9382,12,9.950157,57.196504
699312,Hammelmosevej,9382,14,9.950629,57.196337
699313,Hammelmosevej,9382,16,9.950785,57.196281
699314,Hammelmosevej,9382,18,9.950551,57.196139
699315,Hammelmosevej,9382,20,9.950445,57.196049
699316,Hammelmosevej,9382,22,9.950746,57.19593
699317,Hammelmosevej,9382,24,9.95091,57.195872
699318,Hammelmosevej,9382,26,9.951203,57.195769
699319,Hammelmosevej,9382,28,9.951365,57.195711
699320,Hammelmosevej,9382,30,9.951633,57.195825
699321,Hammelmosevej,9382,32,9.951514,57.196063
699322,Hammelmosevej,9382,34,9.951678,57.196005
699323,Hammelmosevej,9382,40,9.951717,57.197039
699324,Hammelmosevej,9382,42,9.951717,57.196937
699325,Hammelmosevej,9382,44,9.951719,57.196848
699326,Hammelmosevej,9382,46,9.951384,57.197015
699327,Hammelmosevej,9382,48,9.951387,57.196937
699328,Hammelmosevej,9382,50,9.951388,57.196846
699329,Hammelmosevej,9382,52,9.951056,57.196908
699330,Hammelmosevej,9382,54,9.951057,57.196791
699331,Hammelmosevej,9382,56,9.950708,57.196624
699332,Hammelmosevej,9382,58,9.950812,57.196629
699333,Hammelmosevej,9382,60,9.950953,57.196624
699334,Hammelmosevej,9382,62,9.951076,57.196631
699335,Hammelmosevej,9382,64,9.95123,57.196633
699336,Hammelmosevej,9382,66,9.951606,57.19659
699337,Hammelmosevej,9382,68,9.951621,57.196293
699338,Hammelmosevej,9382,70,9.951842,57.196291
699339,Hammelmosevej,9382,72,9.951999,57.196292
699340,Hammelmosevej,9382,74,9.951971,57.19647
699341,Hammelmosevej,9382,76,9.95213,57.196471
699342,Hammelmosevej,9382,78,9.952301,57.196471
699343,Hammelmosevej,9382,80,9.95222,57.196652
699344,Hammelmosevej,9382,82,9.952392,57.196645
699345,Hammelmosevej,9382,84,9.952512,57.196653
699346,Hammelmosevej,9382,86,9.952219,57.19683
699347,Hammelmosevej,9382,88,9.952402,57.196832
699348,Hammelmosevej,9382,90,9.952546,57.196825
699349,Hammelmosevej,9382,92,9.952214,57.19701
699350,Hammelmosevej,9382,94,9.952408,57.197011
699351,Hammelmosevej,9382,96,9.952598,57.197012
699352,Hammelmosevej,9382,98,9.95297,57.197143
699353,Hammelmosevej,9382,100,9.953185,57.197144
699354,Hammelmosevej,9382,102,9.952777,57.197258
699355,Hammelmosevej,9382,104,9.952775,57.197369
699356,Hammelmosevej,9382,106,9.952474,57.197253
699357,Hammelmosevej,9382,108,9.952476,57.197345
699358,Hammelmosevej,9382,110,9.952424,57.197428
699359,Hammelmosevej,9382,112,9.952427,57.197517
699360,Hammelmosevej,9382,114,9.952178,57.197258
699361,Hammelmosevej,9382,116,9.952177,57.197347
699679,Harestien,9382,1,9.943403,57.197602
699680,Harestien,9382,3,9.94336,57.198055
699681,Harestien,9382,4,9.943333,57.198198
699682,Harestien,9382,5,9.943344,57.198368
699683,Harestien,9382,6,9.943337,57.198529
699684,Harestien,9382,9,9.943296,57.198933
699685,Harestien,9382,10,9.943085,57.19904
699686,Harestien,9382,11,9.943196,57.199203
699687,Harestien,9382,13,9.943253,57.199487
699688,Harestien,9382,15,9.943052,57.199735
700122,Hedensvej,9382,1,9.959237,57.195234
700123,Hedensvej,9382,2,9.959177,57.194981
700124,Hedensvej,9382,3,9.959552,57.195177
700125,Hedensvej,9382,4,9.959547,57.194821
700126,Hedensvej,9382,5,9.959799,57.195136
700127,Hedensvej,9382,6,9.959909,57.194785
700128,Hedensvej,9382,7,9.960112,57.19503
700129,Hedensvej,9382,8,9.960198,57.194737
700130,Hedestien,9382,3,9.959483,57.194185
700131,Hedestien,9382,5,9.959902,57.194212
700263,Hejbækvej,9382,8,9.918117,57.203867
700264,Hejbækvej,9382,10,9.916848,57.204204
700265,Hejbækvej,9382,14,9.915184,57.204745
700266,Hejbækvej,9382,15,9.914231,57.204326
700267,Hejbækvej,9382,18,9.913794,57.204715
700268,Hejbækvej,9382,19,9.913422,57.202866
700269,Hejbækvej,9382,21,9.912584,57.203557
700270,Hejbækvej,9382,22,9.911749,57.204453
700271,Hejbækvej,9382,27,9.905119,57.200893
700272,Hejbækvej,9382,29,9.900215,57.199871
700273,Hejbækvej,9382,31,9.895319,57.19869
700274,Hejbækvej,9382,34,9.899253,57.20223
700275,Hejbækvej,9382,36,9.894322,57.201124
700276,Hejbækvej,9382,90,9.880174,57.198569
701405,Hjallerupvej,9382,15,9.971799,57.193994
701406,Hjallerupvej,9382,58,9.994037,57.190917
701407,Hjallerupvej,9382,60,9.997237,57.190383
701408,Hjallerupvej,9382,70,10.002449,57.189437
703611,Jens Thises Vej,9382,1,9.953686,57.194403
703612,Jens Thises Vej,9382,2,9.95419,57.19464
703613,Jens Thises Vej,9382,3,9.953751,57.194739
703614,Jens Thises Vej,9382,4,9.954375,57.194859
703615,Jens Thises Vej,9382,5,9.953844,57.195111
703616,Jens Thises Vej,9382,6,9.954357,57.195208
703617,Jens Thises Vej,9382,7,9.954051,57.1955
703618,Jens Thises Vej,9382,8,9.954446,57.195361
703619,Jens Thises Vej,9382,9,9.954152,57.195661
703620,Jens Thises Vej,9382,10,9.954553,57.195541
703621,Jens Thises Vej,9382,12,9.954666,57.195709
703622,Jens Thises Vej,9382,14,9.954781,57.195887
704947,Kildekrogen,9382,1,9.947477,57.194884
705371,Klitgårdsvej,9382,1,9.946353,57.197188
705372,Klitgårdsvej,9382,2,9.946356,57.196765
705373,Klitgårdsvej,9382,3,9.946705,57.197109
705374,Klitgårdsvej,9382,4,9.946709,57.196692
705375,Klitgårdsvej,9382,5,9.947082,57.196895
705376,Klitgårdsvej,9382,6,9.946536,57.196424
705377,Klitgårdsvej,9382,7,9.947493,57.19687
705378,Klitgårdsvej,9382,8,9.94693,57.196297
705379,Klitgårdsvej,9382,9,9.947807,57.196638
705380,Klitgårdsvej,9382,10,9.947192,57.19654
705381,Klitgårdsvej,9382,11,9.948072,57.196515
705382,Klitgårdsvej,9382,12,9.94751,57.196405
705383,Klitgårdsvej,9382,14,9.947848,57.19629
705384,Klitgårdsvej,9382,20,9.949957,57.195434
705385,Klitgårdsvej,9382,21,9.950429,57.195634
705386,Klitgårdsvej,9382,22,9.950342,57.19532
705387,Klitgårdsvej,9382,23,9.950668,57.195515
705388,Klitgårdsvej,9382,24,9.950094,57.195062
705389,Klitgårdsvej,9382,25,9.951105,57.195451
705390,Klitgårdsvej,9382,26,9.950489,57.194932
705391,Klitgårdsvej,9382,27,9.952171,57.196065
705392,Klitgårdsvej,9382,28,9.950782,57.195149
705393,Klitgårdsvej,9382,30,9.951278,57.19489
705394,Klitgårdsvej,9382,34,9.951821,57.194785
705395,Klitgårdsvej,9382,36,9.952499,57.19486
705396,Klitgårdsvej,9382,37,9.95323,57.195129
705397,Klitgårdsvej,9382,38,9.953093,57.19486
705398,Klitgårdsvej,9382,39,9.953452,57.195124
705399,Klitgårdsvej,9382,40,9.95341,57.194872
707378,Kæragerholmvej,9382,4,9.928186,57.195128
707379,Kæragerholmvej,9382,5,9.9307303,57.1998191
707380,Kæragerholmvej,9382,6,9.923407,57.190323
707381,Kæragerholmvej,9382,9,9.932132,57.198443
707382,Kæragerholmvej,9382,20,9.912265,57.18841
707383,Kæragerholmvej,9382,25,9.911375,57.187438
707851,Langesvej,9382,1,9.946498,57.194974
707852,Langesvej,9382,2,9.946292,57.195158
707853,Langesvej,9382,3,9.946244,57.194996
707854,Langesvej,9382,4,9.945977,57.195265
707855,Langesvej,9382,5,9.945762,57.195057
709738,Luneborgvej,9382,1,9.959729,57.193105
709739,Luneborgvej,9382,2,9.958323,57.193507
709740,Luneborgvej,9382,6,9.957812,57.193883
709741,Luneborgvej,9382,10,9.95739,57.194334
709742,Luneborgvej,9382,14,9.957175,57.193833
709743,Luneborgvej,9382,16A,9.956741,57.193912
709744,Luneborgvej,9382,16B,9.956784,57.193992
709745,Luneborgvej,9382,16C,9.956832,57.194078
709746,Luneborgvej,9382,16D,9.956879,57.194157
709747,Luneborgvej,9382,16E,9.956912,57.194224
709748,Luneborgvej,9382,16F,9.956956,57.194303
709749,Luneborgvej,9382,16G,9.956305,57.194083
709750,Luneborgvej,9382,18,9.955202,57.19416
709751,Luneborgvej,9382,19,9.954651,57.193979
709752,Luneborgvej,9382,20,9.954747,57.194207
709753,Luneborgvej,9382,21,9.954018,57.194047
709754,Luneborgvej,9382,22,9.954184,57.194252
709755,Luneborgvej,9382,23,9.953694,57.194061
709756,Luneborgvej,9382,24,9.953355,57.194297
709757,Luneborgvej,9382,25,9.953384,57.194073
709758,Luneborgvej,9382,26,9.95306,57.194314
709759,Luneborgvej,9382,27,9.953174,57.194078
709760,Luneborgvej,9382,28,9.952801,57.194324
709761,Luneborgvej,9382,29,9.952742,57.194105
709762,Luneborgvej,9382,30,9.952529,57.194406
709763,Luneborgvej,9382,31,9.95224,57.193967
709764,Luneborgvej,9382,32,9.95195,57.194334
709765,Luneborgvej,9382,33,9.952037,57.194113
709766,Luneborgvej,9382,34,9.951138,57.194342
709767,Luneborgvej,9382,34A,9.951433,57.194528
709768,Luneborgvej,9382,35,9.950397,57.194188
709769,Luneborgvej,9382,36,9.950832,57.194356
709770,Luneborgvej,9382,37,9.950099,57.19429
709771,Luneborgvej,9382,38,9.950441,57.194481
709772,Luneborgvej,9382,39,9.949908,57.194359
709773,Luneborgvej,9382,40,9.950168,57.194571
709774,Luneborgvej,9382,41,9.949641,57.194454
709775,Luneborgvej,9382,42,9.949925,57.194642
709776,Luneborgvej,9382,43,9.949429,57.19457
709777,Luneborgvej,9382,44,9.949734,57.194743
709778,Luneborgvej,9382,45,9.949148,57.194617
709779,Luneborgvej,9382,45A,9.948921,57.194427
709780,Luneborgvej,9382,46,9.949546,57.194815
709781,Luneborgvej,9382,47,9.948906,57.194713
709782,Luneborgvej,9382,48,9.949363,57.194895
709783,Luneborgvej,9382,49,9.948665,57.194827
709784,Luneborgvej,9382,50,9.949105,57.194975
709785,Luneborgvej,9382,51,9.948402,57.194986
709786,Luneborgvej,9382,51A,9.947991,57.19471
709787,Luneborgvej,9382,52,9.948929,57.195062
709788,Luneborgvej,9382,53,9.948116,57.19507
709789,Luneborgvej,9382,55,9.947764,57.19524
709790,Luneborgvej,9382,57,9.947438,57.19536
709791,Luneborgvej,9382,59,9.947189,57.195458
709792,Luneborgvej,9382,60,9.947358,57.195625
709793,Luneborgvej,9382,61,9.946755,57.195625
709794,Luneborgvej,9382,62,9.947107,57.19572
709795,Luneborgvej,9382,63,9.94641,57.195742
709796,Luneborgvej,9382,64,9.946855,57.195811
709797,Luneborgvej,9382,65,9.946099,57.195879
709798,Luneborgvej,9382,66,9.946545,57.19593
709799,Luneborgvej,9382,67A,9.945879,57.195984
709800,Luneborgvej,9382,67B,9.945782,57.196019
709801,Luneborgvej,9382,67C,9.945717,57.196047
709802,Luneborgvej,9382,67D,9.945611,57.196035
709803,Luneborgvej,9382,67E,9.945567,57.196
709804,Luneborgvej,9382,67F,9.94552,57.19597
709805,Luneborgvej,9382,67G,9.945489,57.195945
709806,Luneborgvej,9382,67H,9.945654,57.196087
709807,Luneborgvej,9382,68,9.946484,57.196184
709808,Luneborgvej,9382,68A,9.946299,57.196045
709809,Luneborgvej,9382,68B,9.94641,57.196126
709810,Luneborgvej,9382,69,9.945433,57.19614
709811,Luneborgvej,9382,70,9.946022,57.196147
709812,Luneborgvej,9382,71,9.945262,57.196206
709813,Luneborgvej,9382,72,9.945783,57.19624
709814,Luneborgvej,9382,73,9.94502,57.196297
709815,Luneborgvej,9382,74,9.945521,57.196349
709816,Luneborgvej,9382,75,9.94468,57.196434
709817,Luneborgvej,9382,76,9.945007,57.196536
709818,Luneborgvej,9382,77,9.944557,57.196481
709819,Luneborgvej,9382,78,9.944217,57.196855
709820,Luneborgvej,9382,79,9.943395,57.196945
709821,Luneborgvej,9382,81,9.942977,57.197094
709822,Luneborgvej,9382,82,9.943238,57.197222
709823,Luneborgvej,9382,83,9.942808,57.197168
709824,Luneborgvej,9382,84,9.942802,57.197386
709825,Luneborgvej,9382,85,9.942241,57.19706
709826,Luneborgvej,9382,86,9.942607,57.197455
709827,Luneborgvej,9382,87,9.942351,57.197334
709828,Luneborgvej,9382,88,9.942181,57.197596
709829,Luneborgvej,9382,89,9.941978,57.19743
709830,Luneborgvej,9382,90,9.941811,57.19768
709831,Luneborgvej,9382,92,9.941311,57.19776
709832,Luneborgvej,9382,93,9.941184,57.197308
709833,Luneborgvej,9382,94,9.940885,57.197804
709834,Luneborgvej,9382,95,9.940824,57.197496
709835,Luneborgvej,9382,96,9.940474,57.197874
709836,Luneborgvej,9382,97,9.940547,57.197585
709837,Luneborgvej,9382,98,9.94019,57.198003
709838,Luneborgvej,9382,99,9.940172,57.197631
709839,Luneborgvej,9382,100,9.939508,57.198164
709840,Luneborgvej,9382,101,9.938573,57.198395
709841,Luneborgvej,9382,103,9.938132,57.198516
709842,Luneborgvej,9382,105A,9.937692,57.198735
709843,Luneborgvej,9382,106,9.939005,57.198521
709844,Luneborgvej,9382,108,9.938696,57.198727
709845,Luneborgvej,9382,110,9.938248,57.198934
709846,Luneborgvej,9382,112,9.937938,57.199028
709847,Luneborgvej,9382,114,9.937433,57.199309
709848,Luneborgvej,9382,115,9.93504,57.200229
709849,Luneborgvej,9382,116,9.937262,57.199468
709850,Luneborgvej,9382,118,9.937059,57.199642
709851,Luneborgvej,9382,125,9.934201,57.200743
709852,Luneborgvej,9382,128,9.935433,57.202457
709853,Luneborgvej,9382,134,9.937763,57.207794
709854,Luneborgvej,9382,150,9.927843,57.204631
709855,Luneborgvej,9382,158,9.926076,57.207793
709856,Luneborgvej,9382,160,9.924131,57.208062
709857,Luneborgvej,9382,162,9.924033,57.206649
709858,Luneborgvej,9382,163,9.920497,57.20598
709859,Luneborgvej,9382,164,9.922699,57.207297
709860,Luneborgvej,9382,167,9.920441,57.207451
709861,Luneborgvej,9382,169,9.921518,57.207555
709862,Luneborgvej,9382,177,9.920416,57.208094
709863,Luneborgvej,9382,179,9.919835,57.208476
709864,Luneborgvej,9382,180,9.920989,57.208911
709865,Luneborgvej,9382,188,9.917557,57.209982
709866,Luneborgvej,9382,190,9.917252,57.210153
709867,Luneborgvej,9382,191,9.915551,57.209823
709868,Luneborgvej,9382,199,9.910135,57.209001
709869,Luneborgvej,9382,200,9.90994,57.209965
709870,Luneborgvej,9382,201,9.910934,57.206796
709871,Luneborgvej,9382,202,9.909712,57.210827
709872,Luneborgvej,9382,203,9.910945,57.206554
709873,Luneborgvej,9382,204,9.90872,57.211589
709874,Luneborgvej,9382,215,9.897948,57.208332
709875,Luneborgvej,9382,220,9.895418,57.210459
709876,Luneborgvej,9382,221,9.89477,57.2098
709877,Luneborgvej,9382,235,9.886094,57.207908
709878,Luneborgvej,9382,237,9.885256,57.207134
709879,Luneborgvej,9382,241,9.883591,57.207427
709880,Luneborgvej,9382,249,9.879369,57.206399
709881,Luneborgvej,9382,250,9.877784,57.206643
709882,Luneborgvej,9382,254,9.873767,57.207634
709883,Luneborgvej,9382,255,9.877158,57.205854
709884,Luneborgvej,9382,260,9.872713,57.205505
709885,Luneborgvej,9382,270,9.86641,57.206887
709886,Luneborgvej,9382,270A,9.86681,57.20715
709887,Luneborgvej,9382,271,9.865213,57.206748
709888,Luneborgvej,9382,272,9.866042,57.207522
709889,Luneborgvej,9382,274,9.865448,57.207526
709890,Luneborgvej,9382,275,9.864427,57.207689
709891,Luneborgvej,9382,276,9.86603,57.207877
709892,Luneborgvej,9382,278,9.865045,57.207841
709893,Luneborgvej,9382,282,9.862444,57.209788
709894,Luneborgvej,9382,284,9.861731,57.21049
709895,Luneborgvej,9382,285,9.859402,57.211047
709896,Luneborgvej,9382,290,9.857797,57.211978
709897,Luneborgvej,9382,292,9.856498,57.214351
709898,Luneborgvej,9382,296,9.856978,57.212106
709899,Luneborgvej,9382,298,9.855464,57.212552
709900,Luneborgvej,9382,300,9.855084,57.212842
709901,Luneborgvej,9382,301,9.853047,57.212729
709902,Luneborgvej,9382,304,9.84917,57.214999
709903,Luneborgvej,9382,305,9.841837,57.211088
709904,Luneborgvej,9382,306,9.850066,57.215335
709905,Luneborgvej,9382,308,9.848581,57.2158
709906,Luneborgvej,9382,308A,9.848701,57.216592
709907,Luneborgvej,9382,310,9.848367,57.214961
709908,Luneborgvej,9382,314,9.846466,57.215267
710730,Magnus Rix Vej,9382,2,9.944701,57.198003
710731,Magnus Rix Vej,9382,3,9.944496,57.197795
710732,Magnus Rix Vej,9382,4,9.944029,57.198036
710733,Magnus Rix Vej,9382,5,9.943984,57.197861
710734,Magnus Rix Vej,9382,6,9.944074,57.198165
710735,Magnus Rix Vej,9382,8,9.944001,57.198321
710736,Magnus Rix Vej,9382,10,9.944034,57.198448
712504,Mølledamsvej,9382,2,9.942632,57.197881
712505,Mølledamsvej,9382,3,9.942199,57.198138
712506,Mølledamsvej,9382,4,9.942601,57.198143
712507,Mølledamsvej,9382,5,9.942242,57.198337
712797,Nejstvej,9382,73,9.946127,57.214062
712798,Nejstvej,9382,125,9.936482,57.214831
714660,Nørre Halne Engvej,9382,10,9.864687,57.205746
716616,Pogevej,9382,5,9.94491,57.19565
719551,Rødbøgevej,9382,1,9.955803,57.191654
719552,Rødbøgevej,9382,2,9.956212,57.191459
719553,Rødbøgevej,9382,3,9.95604,57.191892
719554,Rødbøgevej,9382,4,9.956441,57.191634
719555,Rødbøgevej,9382,5,9.956359,57.192127
719556,Rødbøgevej,9382,6,9.956572,57.191786
719557,Rødbøgevej,9382,7,9.956732,57.192434
719558,Rødbøgevej,9382,8,9.956786,57.191921
719559,Rødbøgevej,9382,9,9.956846,57.192584
719560,Rødbøgevej,9382,10,9.95705,57.192045
719561,Rødbøgevej,9382,11,9.957078,57.19282
719562,Rødbøgevej,9382,12,9.957182,57.192238
719563,Rødbøgevej,9382,14,9.957296,57.192425
719564,Rødbøgevej,9382,16,9.957523,57.192548
719565,Rødbøgevej,9382,18,9.957576,57.192728
719566,Rødbøgevej,9382,20,9.95786,57.192835
722153,Skovmarkvej,9382,5,9.923011,57.203716
722154,Skovmarkvej,9382,15,9.919394,57.202044
722155,Skovmarkvej,9382,20,9.91683,57.201419
722156,Skovmarkvej,9382,21,9.917288,57.201068
722157,Skovmarkvej,9382,32,9.901089,57.197306
722158,Skovmarkvej,9382,35,9.902061,57.194898
722159,Skovmarkvej,9382,37,9.897124,57.193765
722160,Skovmarkvej,9382,50,9.885474,57.193999
722556,Smalskiftevej,9382,2,9.883794,57.207902
722557,Smalskiftevej,9382,30,9.878448,57.215233
722558,Smalskiftevej,9382,38,9.878188,57.218765
722559,Smalskiftevej,9382,44,9.872414,57.219068
722560,Smalskiftevej,9382,46,9.871583,57.218619
722561,Smalskiftevej,9382,50,9.870369,57.217512
724430,Stenisengevej,9382,15,9.905911,57.215309
724431,Stenisengevej,9382,16,9.932041,57.215694
724432,Stenisengevej,9382,19,9.907807,57.215608
724433,Stenisengevej,9382,25,9.91126,57.215911
724434,Stenisengevej,9382,25A,9.905906,57.222607
724435,Stenisengevej,9382,35,9.917506,57.217123
724436,Stenisengevej,9382,39,9.919388,57.21869
724437,Stenisengevej,9382,41,9.921032,57.218259
724438,Stenisengevej,9382,43,9.92234,57.221249
724439,Stenisengevej,9382,45,9.922392,57.218362
724440,Stenisengevej,9382,53,9.926028,57.220901
724459,Stidsholtvej,9382,30,9.985967,57.184936
724460,Stidsholtvej,9382,39,9.983828,57.187458
724461,Stidsholtvej,9382,40,9.985238,57.189432
724462,Stidsholtvej,9382,40A,9.986015,57.189851
726457,Sølvpoppelvej,9382,1,9.9550027,57.1929608
726458,Sølvpoppelvej,9382,2,9.954698,57.19271
726459,Sølvpoppelvej,9382,4,9.95508,57.192589
726460,Sølvpoppelvej,9382,5,9.955389,57.19293
726461,Sølvpoppelvej,9382,6,9.955372,57.192498
726462,Sølvpoppelvej,9382,7,9.955554,57.192795
726463,Sølvpoppelvej,9382,8,9.955817,57.192365
726464,Sølvpoppelvej,9382,9,9.955852,57.192692
726465,Sølvpoppelvej,9382,10,9.956079,57.192282
726466,Sølvpoppelvej,9382,11,9.956175,57.192589
726867,Søndervang,9382,1,9.946498,57.194625
726868,Søndervang,9382,3,9.945798,57.194655
726869,Søndervang,9382,5,9.94506,57.194699
729512,Tylstrup Hedevej,9382,4,9.928803,57.204211
729513,Tylstrup Hedevej,9382,11,9.928684,57.206928
729514,Tylstrup Hedevej,9382,17,9.929303,57.209278
729515,Tylstrup Hedevej,9382,21,9.927157,57.210864
729516,Tylstrup Hedevej,9382,22,9.931001,57.211192
729517,Tylstrup Hedevej,9382,25,9.926895,57.212268
729518,Tylstrup Hedevej,9382,26,9.92783,57.213286
729519,Tylstrup Hedevej,9382,30,9.92493,57.213386
729520,Tylstrup Hedevej,9382,38,9.919775,57.213583
729521,Tylstrup Landevej,9382,2,9.961752,57.179778
729522,Tylstrup Landevej,9382,10,9.963858,57.181281
729523,Tylstrup Landevej,9382,12,9.966567,57.182153
729524,Tylstrup Landevej,9382,15,9.960584,57.182761
729525,Tylstrup Landevej,9382,20,9.963172,57.184092
729526,Tylstrup Landevej,9382,50,9.962293,57.194534
729527,Tylstrup Landevej,9382,56,9.963535,57.196398
729528,Tylstrup Landevej,9382,66,9.963207,57.199614
729529,Tylstrup Landevej,9382,80,9.962769,57.204105
729530,Tylstrup Landevej,9382,84,9.977312,57.20059
729531,Tylstrup Landevej,9382,86,9.963594,57.206124
729532,Tylstrup Landevej,9382,90,9.962952,57.207519
729533,Tylstrup Nørrehede,9382,2,9.961548,57.208271
729534,Tylstrup Nørrehede,9382,5,9.958106,57.206021
729535,Tylstrup Nørrehede,9382,9,9.956696,57.206946
729536,Tylstrup Nørrehede,9382,12,9.957277,57.209503
729537,Tylstrup Nørrehede,9382,15,9.953577,57.208629
729538,Tylstrup Nørrehede,9382,19,9.950973,57.209107
729539,Tylstrup Nørrehede,9382,25,9.948151,57.21135
729540,Tylstrup Nørrehede,9382,30,9.952579,57.212124
729541,Tylstrupparken,9382,1,9.957404,57.198193
729542,Tylstrupparken,9382,2,9.95735,57.198519
729543,Tylstrupparken,9382,3,9.957403,57.197971
729544,Tylstrupparken,9382,4,9.957173,57.198733
729545,Tylstrupparken,9382,5,9.95739,57.197751
729546,Tylstrupparken,9382,6,9.957245,57.198954
729547,Tylstrupparken,9382,7,9.956871,57.197496
729548,Tylstrupparken,9382,8,9.957223,57.199119
729549,Tylstrupparken,9382,9,9.956771,57.197694
729550,Tylstrupparken,9382,10,9.956708,57.199047
729551,Tylstrupparken,9382,11,9.956899,57.197984
729552,Tylstrupparken,9382,12,9.956638,57.198896
729553,Tylstrupparken,9382,13,9.956946,57.198154
729554,Tylstrupparken,9382,14,9.956679,57.198651
729555,Tylstrupparken,9382,15,9.956216,57.197857
729556,Tylstrupparken,9382,16,9.9569281,57.1984407
729557,Tylstrupparken,9382,17,9.956243,57.197764
729558,Tylstrupparken,9382,19,9.956253,57.197684
729559,Tylstrupparken,9382,21,9.956278,57.197556
729560,Tylstrupparken,9382,23,9.95621,57.197464
729561,Tylstrupparken,9382,25,9.956035,57.197426
729562,Tylstrupparken,9382,27,9.955878,57.197432
729563,Tylstrupparken,9382,29,9.955705,57.197436
729564,Tylstrupparken,9382,31,9.955543,57.197445
729565,Tylstrupparken,9382,33,9.955392,57.19745
729566,Tylstrupparken,9382,35,9.955235,57.197456
729567,Tylstrupparken,9382,37,9.955039,57.197465
729568,Tylstrupparken,9382,39,9.954728,57.197439
729569,Tylstrupparken,9382,41,9.954723,57.197532
729570,Tylstrupparken,9382,43,9.954749,57.197613
729571,Tylstrupparken,9382,45,9.954812,57.197686
729572,Tylstrupparken,9382,47,9.954975,57.197679
729573,Tylstrupparken,9382,49,9.955133,57.197673
729574,Tylstrupparken,9382,51,9.9553,57.197663
729575,Tylstrupparken,9382,53,9.955471,57.197696
729576,Tylstrupparken,9382,55,9.955491,57.197756
729577,Tylstrupparken,9382,57,9.955528,57.197841
729578,Tylstrupparken,9382,59,9.955544,57.197935
729579,Tylstrupparken,9382,61,9.955121,57.198
729580,Tylstrupparken,9382,63,9.954971,57.197966
729581,Tylstrupparken,9382,65,9.954825,57.19793
729582,Tylstrupparken,9382,73,9.953982,57.197767
729583,Tylstrupparken,9382,75,9.95382,57.197806
729584,Tylstrupparken,9382,77,9.953661,57.197845
729585,Tylstrupparken,9382,79,9.953439,57.197905
729586,Tylstrupparken,9382,85,9.95348,57.198255
729587,Tylstrupvej,9382,1,9.959401,57.186355
729588,Tylstrupvej,9382,1A,9.959257,57.186733
729589,Tylstrupvej,9382,4,9.960406,57.187683
729590,Tylstrupvej,9382,8,9.960218,57.189078
729591,Tylstrupvej,9382,11,9.959209,57.190045
729592,Tylstrupvej,9382,12,9.959924,57.190509
729593,Tylstrupvej,9382,26,9.959371,57.192129
729594,Tylstrupvej,9382,28,9.959496,57.192336
729595,Tylstrupvej,9382,30,9.959382,57.192438
729596,Tylstrupvej,9382,32,9.959196,57.19263
729597,Tylstrupvej,9382,34,9.959212,57.192893
729598,Tylstrupvej,9382,35,9.958651,57.192911
729599,Tylstrupvej,9382,36,9.959369,57.193476
729600,Tylstrupvej,9382,37,9.95855,57.193733
729601,Tylstrupvej,9382,38,9.959017,57.193923
729602,Tylstrupvej,9382,39,9.958298,57.193964
729603,Tylstrupvej,9382,40,9.958918,57.194147
729604,Tylstrupvej,9382,41,9.958272,57.194242
729605,Tylstrupvej,9382,42,9.95903,57.194424
729606,Tylstrupvej,9382,43,9.95843,57.194405
729607,Tylstrupvej,9382,44,9.958953,57.19464
729608,Tylstrupvej,9382,45,9.958326,57.194771
729609,Tylstrupvej,9382,46,9.958788,57.194942
729610,Tylstrupvej,9382,47,9.958268,57.195165
729611,Tylstrupvej,9382,48,9.958703,57.195371
729612,Tylstrupvej,9382,49,9.958231,57.195415
729613,Tylstrupvej,9382,50,9.958687,57.195568
729614,Tylstrupvej,9382,54,9.958621,57.195957
729615,Tylstrupvej,9382,56,9.958832,57.196177
729616,Tylstrupvej,9382,58,9.958652,57.196351
729617,Tylstrupvej,9382,60,9.958524,57.196588
729618,Tylstrupvej,9382,62,9.958777,57.196895
729619,Tylstrupvej,9382,70,9.95831,57.1976
729620,Tylstrupvej,9382,80,9.957692,57.20051
729621,Tylstrupvej,9382,85,9.959961,57.204934
729889,Ultvedparken,9382,2,9.946675,57.198716
729890,Ultvedparken,9382,4,9.946216,57.198673
729891,Ultvedparken,9382,6,9.946003,57.198298
729892,Ultvedparken,9382,8,9.946514,57.198392
729893,Ultvedparken,9382,10,9.947004,57.198519
729894,Ultvedparken,9382,12,9.947618,57.198263
729895,Ultvedparken,9382,14,9.947062,57.198084
729896,Ultvedparken,9382,16,9.946676,57.197989
729897,Ultvedparken,9382,18,9.946547,57.197712
729898,Ultvedparken,9382,20,9.947048,57.197423
729899,Ultvedparken,9382,22,9.947129,57.197727
729900,Ultvedparken,9382,24,9.947549,57.197923
729901,Ultvedparken,9382,26,9.948079,57.19807
729902,Ultvedparken,9382,28,9.948505,57.197886
729903,Ultvedparken,9382,30,9.948242,57.197686
729904,Ultvedparken,9382,32,9.947925,57.197442
729905,Ultvedparken,9382,34,9.947602,57.197208
729906,Ultvedparken,9382,36,9.947906,57.197053
729907,Ultvedparken,9382,38,9.948345,57.197285
729908,Ultvedparken,9382,40,9.948619,57.197538
729909,Ultvedparken,9382,42,9.948907,57.197761
729910,Ultvedparken,9382,56,9.950638,57.197662
729911,Ultvedparken,9382,58,9.950868,57.197861
729912,Ultvedparken,9382,60,9.950356,57.197925
729913,Ultvedparken,9382,62,9.950209,57.197767
729914,Ultvedparken,9382,64,9.949833,57.198
729915,Ultvedparken,9382,66,9.949931,57.198163
729916,Ultvedparken,9382,68,9.949589,57.198305
729917,Ultvedparken,9382,70,9.949364,57.198077
729918,Ultvedparken,9382,72,9.948968,57.198305
729919,Ultvedparken,9382,74,9.949096,57.198492
729920,Ultvedparken,9382,76,9.948732,57.198642
729921,Ultvedparken,9382,78,9.94851,57.198389
729922,Ultvedparken,9382,80,9.947939,57.198648
729923,Ultvedparken,9382,82,9.948167,57.198768
729924,Ultvedparken,9382,84,9.947755,57.198944
729925,Ultvedparken,9382,86,9.947421,57.198826
729926,Ultvedparken,9382,88,9.948559,57.199087
729927,Ultvedparken,9382,90,9.948983,57.198952
729928,Ultvedparken,9382,92,9.949344,57.198838
729929,Ultvedparken,9382,94,9.949696,57.198691
729930,Ultvedparken,9382,96,9.950044,57.198563
729931,Ultvedparken,9382,98,9.950467,57.198447
729932,Ultvedparken,9382,100,9.950758,57.198308
729933,Ultvedparken,9382,102,9.951158,57.198171
729934,Ultvedparken,9382,106,9.951842,57.198203
729935,Ultvedparken,9382,108,9.951557,57.198432
729936,Ultvedparken,9382,110,9.951732,57.198628
729937,Ultvedparken,9382,112,9.951372,57.198974
729938,Ultvedparken,9382,114,9.951192,57.198837
729939,Ultvedparken,9382,116,9.951134,57.198608
729940,Ultvedparken,9382,118,9.950654,57.198802
729941,Ultvedparken,9382,120,9.950826,57.199028
729942,Ultvedparken,9382,122,9.950368,57.199039
729943,Ultvedparken,9382,124,9.950241,57.19892
729944,Ultvedparken,9382,126,9.949672,57.199073
729945,Ultvedvej,9382,3,9.945292,57.197339
729946,Ultvedvej,9382,4,9.945654,57.196754
729947,Ultvedvej,9382,5,9.945339,57.197656
729948,Ultvedvej,9382,6,9.945649,57.197073
729949,Ultvedvej,9382,7,9.945273,57.197795
729950,Ultvedvej,9382,8,9.945603,57.197246
729951,Ultvedvej,9382,9,9.945383,57.198004
729952,Ultvedvej,9382,10,9.945681,57.197497
729953,Ultvedvej,9382,11,9.945371,57.198294
729954,Ultvedvej,9382,12,9.945771,57.19763
729955,Ultvedvej,9382,14,9.945819,57.19787
729956,Ultvedvej,9382,35,9.945815,57.199877
729957,Ultvedvej,9382,36,9.947095,57.200679
729958,Ultvedvej,9382,38,9.946791,57.201164
729959,Ultvedvej,9382,40,9.946314,57.20139
729960,Ultvedvej,9382,45,9.943772,57.200395
729961,Ultvedvej,9382,46,9.943639,57.20245
731600,Vestergårdsgade,9382,1,9.947078,57.195199
731601,Vestergårdsgade,9382,2,9.94671,57.19528
731602,Vestergårdsgade,9382,3,9.94702,57.194965
731603,Vestergårdsgade,9382,5,9.946971,57.194782
731604,Vestergårdsgade,9382,10,9.946298,57.194352
731605,Vestergårdsgade,9382,15,9.946249,57.192121
731606,Vestergårdsgade,9382,16,9.94493,57.191951
731607,Vestergårdsgade,9382,17,9.946054,57.191455
732210,Vildmosevej,9382,350,9.894495,57.21765
732211,Vildmosevej,9382,351,9.898976,57.21827
732212,Vildmosevej,9382,351A,9.895268,57.227942
733323,Vrå Mark,9382,1,9.932786,57.187997
733324,Vrå Mark,9382,7,9.929599,57.187466
733325,Vrå Mark,9382,9,9.928268,57.187448
733326,Vrå Mark,9382,15,9.925647,57.187171
733327,Vrå Mark,9382,17,9.924258,57.185654
733328,Vrå Mark,9382,23,9.923451,57.188513
733329,Vrå Mark,9382,25,9.923338,57.189442
1276398,Ålborgvej,9382,440,9.961705,57.2144222
1276401,Ålborgvej,9382,447,9.9635295,57.2112775
1276404,Ålborgvej,9382,471,9.9628735,57.2079954
1276405,Ålborgvej,9382,477,9.9649361,57.2079768
1276408,Ålborgvej,9382,493,9.9763206,57.2058141
1276410,Ålborgvej,9382,499,9.9765243,57.2055767
1792422,Luneborgvej,9382,22B,9.954171,57.194342
1792423,Luneborgvej,9382,22C,9.954174,57.19439
1792426,Luneborgvej,9382,22D,9.954179,57.194432
1792427,Luneborgvej,9382,105C,9.9366962,57.1984689
1792429,Luneborgvej,9382,105E,9.936282,57.199032
1792432,Luneborgvej,9382,107,9.936656,57.19924
1792434,Luneborgvej,9382,109,9.936332,57.199606
1792436,Luneborgvej,9382,222,9.894286,57.210181
1792438,Luneborgvej,9382,229,9.893316,57.203629
1877064,Manna Mosevej,9382,480,9.8357071,57.2309233
1880570,Taffelgårdsvej,9382,16,9.8905566,57.23131
1880573,Taffelgårdsvej,9382,40,9.888185,57.231658
1880574,Taffelgårdsvej,9382,64,9.8848926,57.2316894
1880577,Taffelgårdsvej,9382,88,9.8809151,57.2318975
1880578,Taffelgårdsvej,9382,115,9.8750368,57.2310052
1880581,Taffelgårdsvej,9382,168,9.8668322,57.2315449
1880582,Taffelgårdsvej,9382,174,9.8603414,57.2316431
1880583,Taffelgårdsvej,9382,185,9.8589512,57.230865
1880584,Taffelgårdsvej,9382,214,9.8539781,57.2311621
1880585,Taffelgårdsvej,9382,227,9.851899,57.230643
1880586,Taffelgårdsvej,9382,230,9.850265,57.231236
1880587,Taffelgårdsvej,9382,246,9.8473,57.2311853
1880588,Taffelgårdsvej,9382,263,9.8464002,57.2304219
1880589,Taffelgårdsvej,9382,280,9.8438676,57.2311963
1880590,Taffelgårdsvej,9382,295,9.841732,57.2303136
1880591,Taffelgårdsvej,9382,300,9.8392015,57.2309236
1975692,Tylstrupparken,9382,67,9.954601,57.197878
1975694,Tylstrupparken,9382,69,9.954436,57.197838
1975695,Tylstrupparken,9382,71,9.954275,57.197801
1975697,Tylstrupparken,9382,81,9.95342,57.198024
1975700,Tylstrupparken,9382,83,9.953405,57.198123
1975701,Tylstrupparken,9382,87,9.953584,57.198339
1975704,Tylstrupparken,9382,89,9.953685,57.198416
1975705,Tylstrupparken,9382,91,9.95379,57.198499
1975706,Tylstrupparken,9382,93,9.953902,57.198586
1975707,Tylstrupparken,9382,95,9.953998,57.198662
1975708,Tylstrupparken,9382,97,9.954102,57.198741
1975709,Tylstrupparken,9382,99,9.954217,57.19883
1975710,Tylstrupparken,9382,101,9.954331,57.198924
1975711,Tylstrupparken,9382,103,9.95467,57.198739
1975712,Tylstrupparken,9382,105,9.954566,57.198655
1975713,Tylstrupparken,9382,107,9.954445,57.198563
1975714,Tylstrupparken,9382,109,9.954337,57.198474
1975715,Tylstrupparken,9382,111,9.954234,57.198392
1975716,Tylstrupparken,9382,113,9.954112,57.198296
1975717,Tylstrupparken,9382,115,9.954016,57.198041
1975718,Tylstrupparken,9382,117,9.954181,57.198081
1975719,Tylstrupparken,9382,119,9.954331,57.198115
1975720,Tylstrupparken,9382,121,9.954563,57.198168
1975721,Tylstrupparken,9382,123,9.95472,57.198204
1975722,Tylstrupparken,9382,125,9.954874,57.198239
1975724,Tylstrupparken,9382,127,9.955105,57.198267
1975726,Tylstrupparken,9382,129,9.955299,57.198274
1975728,Tylstrupparken,9382,131,9.955451,57.19828
1975730,Tylstrupparken,9382,133,9.955682,57.198233
1975731,Tylstrupparken,9382,135,9.955827,57.198185
1975732,Tylstrupparken,9382,137,9.95597,57.198136
1996963,Bilgårdsvej,9382,14,9.957675,57.194943
1996964,Bilgårdsvej,9382,17,9.956209,57.196428
1996965,Bilgårdsvej,9382,19A,9.9557765,57.1966013
1996966,Bilgårdsvej,9382,19B,9.9558441,57.196853
1996967,Bilgårdsvej,9382,19C,9.955598,57.1968935
1996968,Bilgårdsvej,9382,19E,9.954741,57.196581
1996969,Bilgårdsvej,9382,19F,9.9550115,57.1968045
1996970,Bilgårdsvej,9382,19G,9.9550691,57.196921
1996972,Bilgårdsvej,9382,21A,9.9552111,57.1971253
1996973,Bilgårdsvej,9382,21B,9.9554694,57.1971156
1996974,Bilgårdsvej,9382,21C,9.955782,57.197102
1996975,Bilgårdsvej,9382,21D,9.9560907,57.1970908
1996976,Bilgårdsvej,9382,21E,9.9563878,57.1970797
1996977,Bilgårdsvej,9382,21F,9.9566988,57.1970685
1996978,Bilgårdsvej,9382,22B,9.9572032,57.1943604
2002067,Tylstrupvej,9382,72,9.958145,57.198339
2010729,Vestermarksvej,9382,57,10.036949,57.200135
2030789,Kraghedevej,9382,7,9.9667737,57.217544
2030790,Kraghedevej,9382,9,9.9671856,57.217466
2030793,Kraghedevej,9382,51,9.9767236,57.2155503
2030797,Kraghedevej,9382,64,9.974866,57.2111712
2030803,Kraghedevej,9382,116,9.9855667,57.2090125
2030805,Kraghedevej,9382,149,9.9902406,57.2076785
2030806,Kraghedevej,9382,159,9.9941851,57.2053678
2030807,Kraghedevej,9382,163,9.995131,57.205985
2030808,Kraghedevej,9382,164,9.9931801,57.2053179
2030809,Kraghedevej,9382,166,9.9935774,57.2052071
2030810,Kraghedevej,9382,168,9.9938504,57.2051893
2030811,Kraghedevej,9382,185,9.9984532,57.2079586
2030813,Kraghedevej,9382,186,9.9989493,57.2048303
2030818,Kraghedevej,9382,187,9.9988263,57.2052768
2030820,Kraghedevej,9382,194,10.0009422,57.2048122
2030824,Kraghedevej,9382,200,10.0024019,57.2047675
2030826,Kraghedevej,9382,209,10.0041332,57.2084312
2030830,Kraghedevej,9382,210,10.0044925,57.2045929
2030834,Kraghedevej,9382,211,10.0042608,57.2048692
2030837,Kraghedevej,9382,215,10.0055497,57.2046846
2030838,Kraghedevej,9382,216,10.0057429,57.2040558
2030839,Kraghedevej,9382,217,10.0060484,57.2046138
2030841,Kraghedevej,9382,219,10.0066661,57.2045437
2030842,Kraghedevej,9382,221,10.0074112,57.2045161
2030845,Kraghedevej,9382,223,10.0092781,57.2099922
2030846,Kraghedevej,9382,225,10.0088288,57.2043494
2030848,Kraghedevej,9382,230,10.0099248,57.2037976
2030849,Kraghedevej,9382,261,10.0164733,57.2052217
2030850,Kraghedevej,9382,278,10.018982,57.201995
2030851,Kraghedevej,9382,306,10.0255925,57.2021323
2030852,Kraghedevej,9382,311,10.0227014,57.2056969
2030853,Kraghedevej,9382,323,10.02838,57.2029076
2030856,Kraghedevej,9382,327,10.0313784,57.2025943
2075764,Hammelmosevej,9382,85,9.952098,57.19872
2078891,Grundtvig Sørensens Vej,9382,2D,9.939128,57.198114
2078892,Grundtvig Sørensens Vej,9382,2E,9.939039,57.198163
2080554,Mosbjerggårdsvej,9382,9,10.0049857,57.2032926
2080556,Mosbjerggårdsvej,9382,62,10.0004908,57.1982153
2080557,Mosbjerggårdsvej,9382,64,10.0002428,57.1982627
2080562,Mosbjerggårdsvej,9382,72,10.0005118,57.1982036
2082153,Enighedsvej,9382,2,9.993266,57.2050833
2082155,Enighedsvej,9382,5,9.9934871,57.2045325
2082156,Enighedsvej,9382,8,9.993047,57.204342
2082158,Enighedsvej,9382,9,9.9934144,57.2040832
2082159,Enighedsvej,9382,10,9.9929689,57.2039369
2082161,Enighedsvej,9382,11,9.9934238,57.2036622
2082163,Enighedsvej,9382,13,9.9934277,57.2032774
2082165,Enighedsvej,9382,14,9.9929128,57.2033789
2082166,Enighedsvej,9382,15,9.9933438,57.2028138
2082168,Enighedsvej,9382,17,9.9933042,57.2024436
2082170,Enighedsvej,9382,20,9.9927511,57.2025697
2082171,Enighedsvej,9382,39,9.9929932,57.201322
2082527,Ultvedvej,9382,1,9.944857,57.197265
2083425,Arendrupsvej,9382,23,9.939725,57.19478
2083426,Arendrupsvej,9382,25,9.939705,57.194967
2085530,Frihedsvej,9382,1,9.992677,57.203132
2085540,Frihedsvej,9382,11,9.9916225,57.203199
2086503,Vesterholtvej,9382,7,9.9907205,57.205235
2086504,Vesterholtvej,9382,19,9.9883523,57.2052783
2086505,Vesterholtvej,9382,35,9.9861801,57.2060488
2086885,Stenisengevej,9382,25B,9.904955,57.225058
2086886,Stenisengevej,9382,25D,9.910745,57.221171
2086888,Stenisengevej,9382,25H,9.91368,57.224637
2086889,Stenisengevej,9382,25K,9.91273,57.227088
2087479,Birkholtvej,9382,28,9.9912053,57.2111267
2087480,Birkholtvej,9382,64,9.9977096,57.2133773
2089894,Gammel Vråvej,9382,35A,9.9271904,57.1742672
2089895,Gammel Vråvej,9382,35B,9.9258657,57.1764385
2089896,Gammel Vråvej,9382,35C,9.9252214,57.1784949
2089897,Gammel Vråvej,9382,35D,9.9241758,57.1806268
2089898,Gammel Vråvej,9382,35E,9.9231991,57.182732
2089899,Gammel Vråvej,9382,35F,9.9221191,57.1736576
2089900,Gammel Vråvej,9382,35G,9.9211465,57.1757757
2089901,Gammel Vråvej,9382,35H,9.9201532,57.1778637
2089902,Gammel Vråvej,9382,35K,9.9191762,57.1799905
2089903,Gammel Vråvej,9382,35L,9.9181526,57.1821147
2089904,Gammel Vråvej,9382,35M,9.9128686,57.1815187
2089905,Gammel Vråvej,9382,35P,9.9171044,57.1730527
2089906,Gammel Vråvej,9382,35R,9.9162925,57.1751108
2089907,Gammel Vråvej,9382,35S,9.9148138,57.1772791
2091009,Hejbækvej,9382,28,9.903182,57.205865
2091010,Hejbækvej,9382,30,9.898211,57.204837
2091011,Hejbækvej,9382,32,9.904155,57.20337
2092217,Pogevej,9382,4,9.9444406,57.1963961
2092218,Pogevej,9382,6,9.9444413,57.1963441
2092219,Pogevej,9382,8,9.9444435,57.1962768
2092220,Pogevej,9382,10,9.944447,57.1962234
2092221,Pogevej,9382,12,9.9444519,57.1961584
2092952,Skovmarkvej,9382,28,9.906053,57.198443
2092953,Skovmarkvej,9382,36,9.896242,57.196138
2093024,Nejstvej,9382,47,9.954096,57.2144923
2093025,Nejstvej,9382,55,9.9513871,57.2148481
2093026,Nejstvej,9382,64,9.9516607,57.217907
2093027,Nejstvej,9382,71,9.9483105,57.21578
2093028,Nejstvej,9382,105,9.9431502,57.2183883
2093029,Nejstvej,9382,110,9.9440175,57.2191121
2093030,Nejstvej,9382,114,9.9419566,57.2199558
2093031,Nejstvej,9382,116,9.94093,57.219253
2093032,Nejstvej,9382,120,9.939561,57.2198833
2093033,Nejstvej,9382,121,9.9385157,57.2143552
2093114,Forsøgsvej,9382,26,9.953948,57.186419
2093115,Forsøgsvej,9382,30A,9.9544123,57.186196
2093116,Forsøgsvej,9382,30B,9.9543846,57.1860696
2093117,Forsøgsvej,9382,30C,9.954072,57.1858755
2093648,Vestergårdsgade,9382,12A,9.944762,57.194113
2097061,Stenisengevej,9382,20,9.9345445,57.219069
2097710,Nørre Halne Engvej,9382,8,9.864658,57.205957
2097712,Nørre Halne Engvej,9382,14,9.864505,57.205394
2097713,Nørre Halne Engvej,9382,20,9.864117,57.204909
2097717,Kæragerholmvej,9382,7,9.930355,57.199015
2097721,Kæragerholmvej,9382,30,9.906342,57.185556
2098055,Vittenbergvej,9382,16,10.0162762,57.2015
2098059,Vittenbergvej,9382,19,10.0175111,57.2006869
2098061,Vittenbergvej,9382,20,10.0137697,57.200861
2098063,Vittenbergvej,9382,48,10.016556,57.197372
2098064,Vittenbergvej,9382,60,10.018122,57.1963602
2098450,Skarvadvej,9382,160,10.0293518,57.2066448
2098452,Skarvadvej,9382,227,10.0288213,57.1988032
2098455,Skarvadvej,9382,240,10.0272176,57.1967083
2098457,Skarvadvej,9382,241,10.0297164,57.1967982
2098459,Skarvadvej,9382,301,10.024743,57.1912426
2098460,Skarvadvej,9382,303,10.0245263,57.1906432
2100346,Rolighedsvej,9382,7,10.0308081,57.2015047
2100347,Rolighedsvej,9382,19,10.0328071,57.1998682
2100349,Rolighedsvej,9382,31,10.0305473,57.1988517
2100350,Rolighedsvej,9382,47,10.031778,57.196078
2100351,Rolighedsvej,9382,64,10.0294655,57.1951391
2100352,Rolighedsvej,9382,67,10.030556,57.1945369
2100707,Skovengvej,9382,4,9.9476407,57.2167118
2100708,Skovengvej,9382,8,9.9477793,57.2174666
2100709,Skovengvej,9382,20,9.947997,57.218838
2100710,Skovengvej,9382,21,9.9468058,57.2187798
2120903,Luneborgvej,9382,338,9.8388728,57.2168916
2120907,Luneborgvej,9382,340,9.8384516,57.2169929
2229309,Vildmosevej,9382,351B,9.896221,57.225491
2229310,Vildmosevej,9382,351C,9.90011,57.226505
2229311,Vildmosevej,9382,351D,9.897177,57.223039
2229312,Vildmosevej,9382,351E,9.901064,57.224054
2235756,Tylstrupvej,9382,12A,9.960001,57.190239
2236641,Grundtvig Sørensens Vej,9382,13D,9.936577,57.197562
2236642,Grundtvig Sørensens Vej,9382,13E,9.936352,57.197497
2236643,Grundtvig Sørensens Vej,9382,13F,9.936258,57.197627
2236701,Ultvedvej,9382,15,9.945402,57.198656
2236754,Stenisengevej,9382,25E,9.909795,57.223622
2236830,Nejstvej,9382,95,9.9445069,57.217278
2236832,Forsøgsvej,9382,4,9.95339,57.19206
2237143,Hirtshalsmotorvejen,9382,74,9.936811,57.22314
2237144,Hirtshalsmotorvejen,9382,77,9.942007,57.221617
2237145,Hirtshalsmotorvejen,9382,79,9.941374,57.220788
2255946,Ålborgvej,9382,410,9.947033,57.225696
2255947,Ålborgvej,9382,412,9.951616,57.224325
2255948,Ålborgvej,9382,414,9.956195,57.222957
2255949,Ålborgvej,9382,416,9.96078,57.221584
