idx,street,postcode,housenumber,lon,lat
1276766,Jerslevvej,9740,325,10.0334548,57.2825123
1276767,Jerslevvej,9740,345,10.0396694,57.2843554
1276768,Jerslevvej,9740,375,10.0437067,57.2855098
1276769,Jerslevvej,9740,475,10.0640715,57.2891129
1276770,Jerslevvej,9740,485,10.0696175,57.2900393
1865906,Trangetvej,9740,693,10.166192,57.330484
1865909,Trangetvej,9740,715,10.1623927,57.3273345
1919166,Klæstrupvej,9740,2,10.0364385,57.2823568
1919169,Klæstrupvej,9740,4,10.0368312,57.2820983
1919170,Klæstrupvej,9740,5,10.0389425,57.2822481
1919172,Klæstrupvej,9740,7,10.039417,57.282151
1919175,Klæstrupvej,9740,8,10.0408112,57.2816857
1919176,Klæstrupvej,9740,13,10.0448642,57.2822708
1919179,Klæstrupvej,9740,40,10.0482969,57.2801747
1919180,Klæstrupvej,9740,50,10.050643,57.279976
1919182,Klæstrupvej,9740,51,10.0511817,57.281653
1919185,Klæstrupvej,9740,52,10.0514022,57.2813939
1919186,Klæstrupvej,9740,53,10.0514647,57.281629
1919188,Klæstrupvej,9740,54,10.0517524,57.2813173
1919190,Klæstrupvej,9740,55,10.0517726,57.2816537
1919192,Klæstrupvej,9740,56,10.0523239,57.2812789
1919194,Klæstrupvej,9740,57,10.0521267,57.281643
1919196,Klæstrupvej,9740,58,10.0534546,57.2813293
1919198,Klæstrupvej,9740,59,10.052529,57.2816488
1919200,Klæstrupvej,9740,60,10.0536,57.281547
1919202,Klæstrupvej,9740,60A,10.0536051,57.2814474
1919203,Klæstrupvej,9740,61,10.0528418,57.2816739
1919206,Klæstrupvej,9740,63,10.0531627,57.281718
1919211,Klæstrupvej,9740,65,10.0534416,57.2817316
1919213,Klæstrupvej,9740,66,10.0540906,57.2815087
1919216,Klæstrupvej,9740,67,10.0538182,57.2817618
1919217,Klæstrupvej,9740,68,10.0543426,57.281591
1919222,Klæstrupvej,9740,69,10.0541934,57.2818216
1919226,Klæstrupvej,9740,70,10.0546201,57.2816298
1919227,Klæstrupvej,9740,70A,10.0548457,57.2816325
1919231,Klæstrupvej,9740,71,10.0545164,57.2818109
1919234,Klæstrupvej,9740,72,10.0550663,57.2816466
1919237,Klæstrupvej,9740,73,10.0549859,57.2818359
1919241,Klæstrupvej,9740,74,10.0556651,57.2816996
1919243,Klæstrupvej,9740,75,10.0555653,57.281899
1919245,Klæstrupvej,9740,76,10.0562285,57.2817424
1919246,Klæstrupvej,9740,77,10.0557951,57.2819511
1919249,Klæstrupvej,9740,77A,10.0560545,57.2821138
1919251,Klæstrupvej,9740,78,10.0568322,57.2817368
1919252,Klæstrupvej,9740,79,10.056421,57.281992
1919256,Klæstrupvej,9740,80,10.0572455,57.2817298
1919257,Klæstrupvej,9740,80A,10.0567622,57.2812984
1919259,Klæstrupvej,9740,81,10.0567311,57.282006
1919263,Klæstrupvej,9740,83,10.0570449,57.2820102
1919264,Klæstrupvej,9740,84,10.058223,57.2816062
1919266,Klæstrupvej,9740,85,10.0574201,57.2820025
1919268,Klæstrupvej,9740,86,10.058658,57.2817227
1919271,Klæstrupvej,9740,87,10.057703,57.2819908
1919273,Klæstrupvej,9740,89,10.0581672,57.2819866
1919274,Klæstrupvej,9740,92,10.060676,57.281629
1919275,Klæstrupvej,9740,109,10.0635026,57.2818957
1919276,Klæstrupvej,9740,109A,10.0638012,57.281902
1919277,Klæstrupvej,9740,111,10.0641433,57.2818595
1919278,Klæstrupvej,9740,112,10.0645473,57.2774121
1919279,Klæstrupvej,9740,113,10.0645219,57.2818541
1919280,Klæstrupvej,9740,114,10.0667922,57.2767916
1919281,Klæstrupvej,9740,115,10.0650506,57.2819814
1919282,Klæstrupvej,9740,117,10.0654009,57.2818373
1919283,Klæstrupvej,9740,119,10.065762,57.281888
1919284,Klæstrupvej,9740,121,10.0661396,57.2818957
1919285,Klæstrupvej,9740,123,10.0664372,57.2818429
1919286,Klæstrupvej,9740,132,10.072871,57.281082
1919288,Klæstrupvej,9740,140,10.07224,57.280668
1927989,Serritslevvej,9740,262,10.0458037,57.3113011
1927990,Serritslevvej,9740,296,10.0476975,57.3106034
1927991,Serritslevvej,9740,301,10.0508251,57.310445
1927992,Serritslevvej,9740,321,10.0546188,57.3111389
1927993,Serritslevvej,9740,324,10.0572283,57.3092728
1927994,Serritslevvej,9740,339,10.0614884,57.3113339
1927995,Serritslevvej,9740,341,10.061007,57.312212
1927996,Serritslevvej,9740,362,10.0626209,57.3090856
1927997,Serritslevvej,9740,363,10.0655833,57.3130071
1927998,Serritslevvej,9740,382,10.0664891,57.3075601
1927999,Serritslevvej,9740,389,10.07012,57.3101197
1928000,Serritslevvej,9740,392,10.0701853,57.3069788
1928001,Serritslevvej,9740,408,10.0748382,57.3086632
1928002,Serritslevvej,9740,421,10.0761057,57.3095132
1928003,Serritslevvej,9740,452,10.0799968,57.3087725
1928004,Serritslevvej,9740,473,10.0836229,57.3091811
1928005,Serritslevvej,9740,475,10.0845485,57.3090176
1928006,Serritslevvej,9740,494,10.087673,57.307709
1944044,Mylundvej,9740,9,10.1628586,57.303977
1944048,Mylundvej,9740,13,10.1631534,57.3047391
1944049,Mylundvej,9740,15,10.1626864,57.3049791
1944054,Mylundvej,9740,17,10.1631057,57.3049633
1944057,Mylundvej,9740,18,10.1635153,57.3044389
1944059,Mylundvej,9740,19,10.1630669,57.3050959
1944062,Mylundvej,9740,20,10.1635642,57.3045944
1944064,Mylundvej,9740,21,10.1631125,57.3052517
1944067,Mylundvej,9740,22,10.1636089,57.3047067
1944068,Mylundvej,9740,23,10.1632722,57.3053833
1944071,Mylundvej,9740,24,10.1637739,57.3048495
1944072,Mylundvej,9740,25,10.1634853,57.3054572
1944074,Mylundvej,9740,26,10.164301,57.3052621
1944077,Mylundvej,9740,30,10.164313,57.3057201
1944079,Mylundvej,9740,32,10.1641928,57.3059299
1944081,Mylundvej,9740,45,10.1632785,57.3080812
1944083,Mylundvej,9740,53,10.1648084,57.308716
1944084,Mylundvej,9740,55,10.1646679,57.3084721
1944085,Mylundvej,9740,57,10.1642249,57.3088263
1944086,Mylundvej,9740,66,10.1666127,57.3085262
1944087,Mylundvej,9740,68,10.165544,57.3088593
1944088,Mylundvej,9740,75,10.1660878,57.3117373
1944089,Mylundvej,9740,85,10.1657748,57.3130919
1944090,Mylundvej,9740,86,10.1669043,57.3121152
1944091,Mylundvej,9740,89,10.165403,57.313587
1944094,Mylundvej,9740,91,10.165353,57.314391
1944101,Mylundvej,9740,96,10.168545,57.314986
1944103,Mylundvej,9740,109,10.1637076,57.3152428
1944104,Mylundvej,9740,117,10.1626431,57.3162861
1944105,Mylundvej,9740,123,10.164801,57.317168
1944106,Mylundvej,9740,148,10.1679574,57.3197754
1944107,Mylundvej,9740,209,10.1751353,57.3226811
1944108,Mylundvej,9740,225,10.1789704,57.3232849
1944109,Mylundvej,9740,235,10.1810021,57.3235033
1944110,Mylundvej,9740,255,10.1838977,57.3250408
1944111,Mylundvej,9740,271,10.1872494,57.3265708
1944112,Mylundvej,9740,276,10.1893336,57.3257629
1963170,Borgergade,9740,1,10.0919774,57.2848883
1963171,Borgergade,9740,2,10.0923796,57.2849953
1963172,Borgergade,9740,3,10.0916473,57.2849269
1963173,Borgergade,9740,4,10.0921052,57.2851911
1963174,Borgergade,9740,5,10.0915926,57.2849343
1963175,Borgergade,9740,6A,10.0919197,57.2850513
1963176,Borgergade,9740,6B,10.0918217,57.2850733
1963177,Borgergade,9740,7,10.0915217,57.2849445
1963178,Borgergade,9740,8,10.0915548,57.285121
1963179,Borgergade,9740,9,10.0914556,57.2849539
1963180,Borgergade,9740,10,10.0913576,57.2851552
1963181,Borgergade,9740,11,10.091245,57.285028
1963182,Borgergade,9740,12,10.0910268,57.2852063
1963183,Borgergade,9740,13,10.0909111,57.2850308
1963184,Borgergade,9740,14,10.0907931,57.2852318
1963185,Borgergade,9740,16,10.0904511,57.2851673
1963186,Borgergade,9740,17,10.0906341,57.2849516
1963187,Borgergade,9740,18,10.0903611,57.2850899
1963188,Borgergade,9740,19,10.090567,57.2849224
1963189,Borgergade,9740,20,10.0902396,57.2849754
1963190,Borgergade,9740,21,10.0904988,57.2848884
1963191,Borgergade,9740,22,10.0901179,57.2847603
1963192,Borgergade,9740,25,10.0903712,57.284719
1963193,Borgergade,9740,26,10.0899947,57.2845591
1963194,Borgergade,9740,28,10.0895716,57.2845666
1963195,Borgergade,9740,29,10.0902596,57.2843554
1963196,Borgergade,9740,30,10.0895772,57.2842812
1963197,Borgergade,9740,31,10.0902707,57.284197
1963198,Borgergade,9740,32,10.0893155,57.2839695
1963199,Borgergade,9740,33,10.0902686,57.2840322
1963200,Borgergade,9740,34,10.0884877,57.2836659
1963201,Borgergade,9740,35,10.0903485,57.2836162
1963202,Borgergade,9740,36,10.0890179,57.2830598
1963203,Borgergade,9740,37,10.089392,57.283005
1963204,Borgergade,9740,38,10.088718,57.282951
1963205,Borgergade,9740,39,10.0893313,57.2828519
1963206,Borgergade,9740,40,10.0888024,57.2826327
1963207,Borgergade,9740,41,10.089317,57.282672
1963208,Borgergade,9740,42,10.0887069,57.2824097
1963209,Borgergade,9740,43,10.0891516,57.2824417
1963210,Borgergade,9740,44,10.0885872,57.2821868
1963211,Borgergade,9740,45,10.089147,57.2822336
1963212,Borgergade,9740,46,10.0884855,57.2819833
1963213,Borgergade,9740,48,10.0883888,57.2818047
1963214,Borgergade,9740,51,10.0887825,57.2816528
1963215,Borgergade,9740,53,10.0886106,57.2814826
1963255,Østermarkvej,9740,85,10.18882,57.2718462
1963257,Østermarkvej,9740,111,10.1935241,57.2710457
1963258,Østermarkvej,9740,112,10.1939862,57.2704638
1963261,Østermarkvej,9740,112A,10.1918009,57.2683216
1963429,Bastholmvej,9740,56,10.1030818,57.3201134
1963430,Bastholmvej,9740,63,10.0939893,57.3233157
1963431,Bastholmvej,9740,67,10.0945985,57.3237256
1963457,Anlægsvej,9740,2,10.0905439,57.2853237
1963458,Anlægsvej,9740,3,10.0899935,57.2853379
1963460,Anlægsvej,9740,4,10.0904018,57.2853952
1963462,Anlægsvej,9740,5,10.0897849,57.2854153
1963463,Anlægsvej,9740,6,10.0904429,57.2856448
1963464,Anlægsvej,9740,7,10.0893554,57.2855386
1963465,Anlægsvej,9740,8,10.0901464,57.2856899
1963466,Anlægsvej,9740,9,10.088869,57.2857228
1963467,Anlægsvej,9740,11,10.0884065,57.2858031
1963469,Anlægsvej,9740,12,10.0896347,57.2857708
1963470,Anlægsvej,9740,13,10.0874793,57.2857438
1963471,Anlægsvej,9740,14,10.089229,57.2858798
1963472,Anlægsvej,9740,20,10.087952,57.2871779
1963473,Anlægsvej,9740,23,10.085431,57.284898
1963474,Anlægsvej,9740,32,10.0858624,57.2861147
1963476,Anlægsvej,9740,34,10.0837231,57.2862371
1963477,Anlægsvej,9740,50,10.0808984,57.2874136
1963479,Anlægsvej,9740,52,10.0790348,57.2861672
1963506,Palægade,9740,2,10.0929303,57.2849915
1963507,Palægade,9740,3,10.0926703,57.285049
1963508,Palægade,9740,4,10.0934403,57.2849316
1963509,Palægade,9740,4A,10.0930546,57.2850623
1963510,Palægade,9740,4B,10.0931541,57.285039
1963511,Palægade,9740,4C,10.0932305,57.2850139
1963512,Palægade,9740,5,10.092798,57.285143
1963513,Palægade,9740,6,10.0931419,57.2851618
1963514,Palægade,9740,7,10.0929179,57.285258
1963515,Palægade,9740,8,10.0932684,57.2852661
1963516,Palægade,9740,8A,10.0933899,57.2852703
1963517,Palægade,9740,9,10.0930662,57.2853844
1963518,Palægade,9740,11A,10.0932124,57.2855169
1963519,Palægade,9740,11B,10.093025,57.285534
1963520,Palægade,9740,13,10.0933126,57.2856542
1963521,Palægade,9740,15,10.093404,57.2857893
1963522,Palægade,9740,16,10.093648,57.2856974
1963523,Palægade,9740,17,10.0933931,57.2859519
1963524,Palægade,9740,19,10.0932982,57.2861268
1963525,Palægade,9740,21,10.093205,57.28626
1963526,Palægade,9740,23,10.0931267,57.2863463
1963527,Palægade,9740,24,10.0935728,57.2861994
1963528,Palægade,9740,25,10.0929116,57.2864668
1963529,Palægade,9740,26,10.09352,57.286313
1963530,Palægade,9740,27,10.092766,57.2864624
1963531,Palægade,9740,30,10.0930507,57.2867156
1963532,Palægade,9740,32,10.0928687,57.2868759
1963533,Palægade,9740,34,10.0927794,57.286995
1963534,Palægade,9740,36,10.092668,57.2871238
1963535,Palægade,9740,37,10.0921951,57.2872743
1963536,Palægade,9740,38,10.0925652,57.2872494
1963537,Palægade,9740,39,10.0920516,57.287403
1963538,Palægade,9740,40,10.0925017,57.2873821
1963539,Palægade,9740,41,10.091968,57.28754
1963540,Palægade,9740,42,10.0923735,57.2875104
1963543,Palægade,9740,43,10.0918564,57.2877378
1963546,Palægade,9740,44,10.0922609,57.2876578
1963552,Palægade,9740,45,10.0917727,57.287908
1963557,Palægade,9740,47,10.0915034,57.2880917
1963561,Palægade,9740,48,10.092098,57.287874
1963564,Palægade,9740,50,10.0920123,57.2879963
1963568,Palægade,9740,54,10.0919342,57.2881604
1963575,Palægade,9740,56,10.0915673,57.2884219
1963796,Ærøgade,9740,1,10.0936297,57.2855237
1963798,Ærøgade,9740,5,10.094182,57.2856345
1963800,Ærøgade,9740,6,10.0943036,57.2855191
1963801,Ærøgade,9740,7,10.0944532,57.2856805
1963803,Ærøgade,9740,9,10.0947273,57.285713
1963805,Ærøgade,9740,11,10.0949522,57.2857183
1963807,Ærøgade,9740,12,10.0947718,57.2855757
1963808,Ærøgade,9740,13,10.0953875,57.285832
1963811,Ærøgade,9740,14,10.0950144,57.2855544
1963812,Ærøgade,9740,16,10.0952658,57.2855459
1963813,Ærøgade,9740,16A,10.0954804,57.2852699
1963815,Ærøgade,9740,18,10.0957885,57.2854604
1963817,Ærøgade,9740,19,10.096327,57.285482
1963818,Ærøgade,9740,20,10.0960084,57.2853953
1963819,Ærøgade,9740,21,10.0966009,57.2854193
1963821,Ærøgade,9740,22,10.0962337,57.2852399
1963822,Ærøgade,9740,23,10.0969928,57.2853114
1963823,Ærøgade,9740,24,10.0965631,57.2851587
1963824,Ærøgade,9740,25,10.0974363,57.2852523
1963825,Ærøgade,9740,26,10.0968863,57.285064
1963828,Ærøgade,9740,28,10.0972392,57.2850061
1963829,Ærøgade,9740,30,10.0976178,57.2849389
1963830,Ærøgade,9740,31,10.098587,57.285194
1963831,Ærøgade,9740,32,10.09822,57.2849232
1963833,Ærøgade,9740,34,10.0986701,57.2849444
1963834,Ærøgade,9740,40,10.0995497,57.284928
1963836,Ærøgade,9740,42,10.1003111,57.2848423
1963838,Ærøgade,9740,44,10.1008051,57.2846963
1963839,Ærøgade,9740,46,10.1012548,57.284603
1963842,Ærøgade,9740,48,10.1016591,57.2844846
1963844,Ærøgade,9740,50,10.1021823,57.2843469
1963854,Fejøgade,9740,2,10.0940514,57.2853666
1963855,Fejøgade,9740,5,10.0946115,57.285371
1963856,Fejøgade,9740,6,10.0946029,57.2852791
1963880,Brødholtvej,9740,5,10.108742,57.313998
1963882,Brødholtvej,9740,8,10.1116086,57.3139452
1963883,Brødholtvej,9740,10,10.1177531,57.3132833
1963885,Brødholtvej,9740,40,10.123493,57.316382
1963886,Brødholtvej,9740,54,10.1186031,57.3183366
1963887,Brødholtvej,9740,61,10.116057,57.319805
1963889,Brødholtvej,9740,100,10.1250396,57.3217442
1963890,Brødholtvej,9740,120,10.1281186,57.3240816
1963891,Brødholtvej,9740,122,10.1286039,57.3244211
1963892,Brødholtvej,9740,139,10.1280752,57.3262519
1963894,Brødholtvej,9740,155,10.125378,57.3282552
1964116,Rosavej,9740,1,10.1671284,57.2705974
1964118,Rosavej,9740,5,10.167732,57.2697777
1964120,Rosavej,9740,6A,10.1672197,57.2699763
1964122,Rosavej,9740,7,10.1676364,57.2696023
1964125,Rosavej,9740,8,10.167291,57.2697813
1964126,Rosavej,9740,9,10.1673905,57.2692836
1964128,Rosavej,9740,10,10.1671791,57.2695746
1964356,Dybvadvej,9740,1,10.1694742,57.271845
1964357,Dybvadvej,9740,50,10.1788479,57.2747694
1964358,Dybvadvej,9740,74,10.183731,57.2766401
1964359,Dybvadvej,9740,81,10.183231,57.282835
1964363,Dybvadvej,9740,100,10.1892641,57.2767091
1964368,Dybvadvej,9740,102,10.1894249,57.2767073
1964370,Dybvadvej,9740,124,10.194025,57.278451
1964375,Dybvadvej,9740,124A,10.1948922,57.2784327
1964377,Dybvadvej,9740,164,10.199577,57.282077
1964382,Dybvadvej,9740,172,10.2032104,57.2828081
1964386,Dybvadvej,9740,181,10.2175065,57.2862158
1964410,Vangkærsvej,9740,28,10.0617342,57.3016996
1964411,Vangkærsvej,9740,54,10.063423,57.298217
1964464,Bakkevej,9740,9,10.1275956,57.280271
1964465,Bakkevej,9740,16,10.1290905,57.2802768
1964466,Bakkevej,9740,18,10.1304247,57.2802255
1964467,Bakkevej,9740,25,10.128685,57.2827618
1964606,Sønder Ringgade,9740,2,10.0773253,57.2813292
1964608,Sønder Ringgade,9740,6,10.0782754,57.2812578
1964612,Sønder Ringgade,9740,10,10.0796431,57.2812864
1964616,Sønder Ringgade,9740,16,10.0826018,57.2812207
1964618,Sønder Ringgade,9740,17,10.082793,57.282014
1964621,Sønder Ringgade,9740,18,10.083448,57.281206
1964625,Sønder Ringgade,9740,19,10.0824053,57.2817168
1964626,Sønder Ringgade,9740,24,10.085029,57.2811537
1964630,Sønder Ringgade,9740,39,10.0857298,57.2814064
1964634,Sønder Ringgade,9740,42,10.088356,57.280753
1964639,Sønder Ringgade,9740,44,10.0888629,57.2810919
1964640,Sønder Ringgade,9740,46,10.0892231,57.2810197
1964644,Sønder Ringgade,9740,50,10.090154,57.280972
1964645,Sønder Ringgade,9740,52,10.0905999,57.2810423
1964649,Sønder Ringgade,9740,54,10.0910337,57.2810385
1964653,Sønder Ringgade,9740,56,10.091472,57.2081024
1964655,Sønder Ringgade,9740,58,10.0919075,57.2810137
1964658,Sønder Ringgade,9740,59,10.0891395,57.2814919
1964660,Sønder Ringgade,9740,61,10.0893985,57.2814092
1964662,Sønder Ringgade,9740,105,10.0996888,57.2812219
1964711,Tingtrævej,9740,24,10.0419295,57.278654
1964712,Tingtrævej,9740,43,10.0437761,57.2760502
1964713,Tingtrævej,9740,59,10.044515,57.2744061
1964911,Konvalvej,9740,5,10.1013467,57.3114461
1964914,Konvalvej,9740,7,10.1009353,57.3114221
1964917,Konvalvej,9740,8,10.1007377,57.3116927
1964919,Konvalvej,9740,14,10.0994596,57.3121918
1964989,Skagensvej,9740,6,10.0365436,57.2864622
1965021,Mærkmosevej,9740,33,10.1845977,57.2726709
1965022,Mærkmosevej,9740,40,10.1837371,57.2715212
1965023,Mærkmosevej,9740,61,10.1860478,57.2687493
1965170,Arkonavej,9740,3,10.1625131,57.3039052
1965171,Arkonavej,9740,5,10.162147,57.303814
1965172,Arkonavej,9740,7,10.1621413,57.3036035
1965281,Margrethevej,9740,1,10.1634389,57.2702557
1965282,Margrethevej,9740,2,10.163679,57.270228
1965285,Margrethevej,9740,3,10.1633086,57.2706807
1965286,Margrethevej,9740,4,10.163625,57.2705619
1965287,Margrethevej,9740,5,10.1632568,57.2710202
1965290,Margrethevej,9740,6,10.1635856,57.2708845
1965291,Margrethevej,9740,7,10.1630862,57.2712967
1965292,Margrethevej,9740,8,10.1636992,57.2710943
1965293,Margrethevej,9740,9,10.1626981,57.2712022
1965294,Margrethevej,9740,10,10.163521,57.271252
1965295,Margrethevej,9740,12,10.163751,57.271522
1965296,Margrethevej,9740,14,10.1631946,57.2715881
1965297,Margrethevej,9740,16,10.1627337,57.271594
1965298,Margrethevej,9740,18,10.1623606,57.2714618
1965299,Margrethevej,9740,20,10.161986,57.2714809
1965300,Margrethevej,9740,22,10.1614724,57.2715603
1965301,Margrethevej,9740,24,10.1610668,57.2714802
1965302,Samsøgade,9740,6,10.0922846,57.2839406
1965303,Samsøgade,9740,8,10.0928549,57.2838382
1965304,Samsøgade,9740,9,10.0931173,57.2840977
1965305,Samsøgade,9740,10,10.0927367,57.2837492
1965306,Samsøgade,9740,11,10.0932949,57.2839745
1965307,Samsøgade,9740,12,10.092568,57.2836671
1965308,Samsøgade,9740,13,10.0935701,57.2838841
1965309,Samsøgade,9740,14,10.0927249,57.2835992
1965310,Samsøgade,9740,16,10.0928913,57.2835249
1965311,Samsøgade,9740,18,10.0932066,57.2836695
1965313,Samsøgade,9740,19,10.0941298,57.2831148
1965314,Samsøgade,9740,20,10.0930553,57.2837408
1965316,Samsøgade,9740,21,10.0941411,57.2827261
1965574,Boulevarden,9740,3,10.0921318,57.2853101
1965580,Boulevarden,9740,5A,10.0921459,57.2854855
1965581,Boulevarden,9740,5B,10.092144,57.285569
1965585,Boulevarden,9740,6,10.0923791,57.2853268
1965586,Boulevarden,9740,7,10.0921703,57.2857045
1965588,Boulevarden,9740,7A,10.0916297,57.2857161
1965591,Boulevarden,9740,8,10.0923941,57.2854848
1965592,Boulevarden,9740,9,10.0921771,57.2858477
1965595,Boulevarden,9740,10,10.092402,57.28563
1965596,Boulevarden,9740,11,10.0921323,57.2860059
1965598,Boulevarden,9740,12,10.0924357,57.2858258
1965600,Boulevarden,9740,13,10.0921478,57.2862533
1965601,Boulevarden,9740,14,10.0924445,57.2859594
1965602,Boulevarden,9740,15,10.0921689,57.2864683
1965603,Boulevarden,9740,16,10.092455,57.2861456
1965604,Boulevarden,9740,18,10.0925258,57.2863004
1965605,Boulevarden,9740,19,10.0920412,57.2867789
1965606,Boulevarden,9740,20,10.0926435,57.2864319
1965607,Boulevarden,9740,21,10.0921651,57.2869598
1965608,Boulevarden,9740,22,10.092545,57.286596
1965609,Boulevarden,9740,23,10.0922033,57.287065
1965731,Hjabelundvej,9740,165,10.1296563,57.3296809
1965733,Hjabelundvej,9740,176,10.122447,57.3301315
1965774,Nedre Klæstrupvej,9740,16,10.063311,57.283841
1965776,Nedre Klæstrupvej,9740,24,10.0630629,57.2846198
1965777,Nedre Klæstrupvej,9740,26,10.0636897,57.2847153
1965779,Nedre Klæstrupvej,9740,30,10.0625567,57.285084
1965796,Baunevej,9740,2,10.0896098,57.2861754
1965797,Baunevej,9740,3,10.089847,57.286377
1965798,Baunevej,9740,5,10.0902748,57.2863469
1965799,Baunevej,9740,6,10.090757,57.286091
1965800,Baunevej,9740,7,10.0907682,57.2863508
1965801,Baunevej,9740,9,10.0911885,57.2863582
1965802,Baunevej,9740,10,10.0912179,57.2860622
1965811,Egebakvej,9740,20,10.0959762,57.3185695
1965813,Egebakvej,9740,40,10.0936645,57.3199728
1965814,Egebakvej,9740,79,10.0876139,57.3209566
1965815,Egebakvej,9740,119,10.0872454,57.3235593
1965903,Egelundsvej,9740,3,10.1141498,57.2795962
1965904,Egelundsvej,9740,9,10.1137774,57.2790522
1965905,Egelundsvej,9740,79,10.112517,57.271788
1965906,Pajhedevej,9740,1,10.1676446,57.2890633
1965907,Pajhedevej,9740,60,10.177759,57.286556
1965908,Pajhedevej,9740,104,10.1905612,57.2840801
1966003,Flyvbjergvej,9740,32,10.0905498,57.2910258
1966004,Flyvbjergvej,9740,41,10.08925,57.2927808
1966005,Flyvbjergvej,9740,55,10.0868496,57.2938935
1966006,Flyvbjergvej,9740,71,10.086226,57.295672
1966008,Flyvbjergvej,9740,82,10.0917126,57.2981296
1966010,Flyvbjergvej,9740,100,10.08655,57.299449
1966012,Flyvbjergvej,9740,108,10.0849628,57.2998493
1966013,Flyvbjergvej,9740,120,10.0833586,57.3016058
1966016,Flyvbjergvej,9740,143,10.0778498,57.3039816
1966020,Flyvbjergvej,9740,145,10.0777957,57.3038452
1966022,Flyvbjergvej,9740,160,10.077949,57.3053414
1966024,Flyvbjergvej,9740,170,10.0770515,57.3064156
1966027,Flyvbjergvej,9740,192,10.0750795,57.3089013
1966030,Flyvbjergvej,9740,195,10.0738787,57.3095464
1966034,Flyvbjergvej,9740,198,10.0739286,57.3102722
1966037,Flyvbjergvej,9740,220,10.0766695,57.3115551
1966042,Flyvbjergvej,9740,242,10.0734458,57.3136723
1966045,Flyvbjergvej,9740,247,10.0697613,57.3131966
1966049,Flyvbjergvej,9740,260,10.070425,57.315383
1966051,Flyvbjergvej,9740,270,10.0683916,57.3167529
1966094,Tvedensvej,9740,72,10.125498,57.311011
1966095,Tvedensvej,9740,90,10.1306675,57.310478
1966096,Tvedensvej,9740,92,10.13171,57.312015
1966097,Tvedensvej,9740,174,10.1427015,57.3120579
1966278,Sofievej,9740,3,10.1626909,57.2705632
1966279,Sofievej,9740,4,10.1630164,57.2704723
1966418,Horsevadvej,9740,120,10.1536573,57.2942435
1966419,Horsevadvej,9740,135,10.1569289,57.293326
1966420,Horsevadvej,9740,179,10.1628555,57.2901144
1966536,Byagervej,9740,1,10.0887487,57.2853584
1966537,Byagervej,9740,3,10.088414,57.2853623
1966538,Byagervej,9740,4,10.0883338,57.2855494
1966717,Sdr Alle,9740,2,10.0895418,57.2848681
1966718,Sdr Alle,9740,3,10.089064,57.2847209
1966719,Sdr Alle,9740,4,10.0890636,57.2848809
1966720,Birkagervej,9740,1,10.088693,57.2860894
1966721,Birkagervej,9740,3,10.0888339,57.2863226
1966722,Birkagervej,9740,5,10.0889384,57.2865336
1966723,Birkagervej,9740,6,10.0893595,57.286509
1966724,Birkagervej,9740,7,10.0890045,57.2867852
1966725,Birkagervej,9740,8,10.0894626,57.2867851
1966726,Birkagervej,9740,9,10.0890464,57.2869676
1966727,Birkagervej,9740,10,10.0894898,57.2870534
1966728,Birkagervej,9740,11,10.0890927,57.2871519
1966730,Birkagervej,9740,12,10.0895298,57.2872303
1966733,Birkagervej,9740,13,10.0891288,57.2873681
1966734,Birkagervej,9740,14,10.0895845,57.28742
1966736,Birkagervej,9740,15,10.089175,57.287569
1966737,Birkagervej,9740,16,10.0896267,57.287679
1966740,Birkagervej,9740,17,10.0891713,57.2878133
1966833,Øster Linderupvej,9740,169,10.0631219,57.264921
1966837,Øster Linderupvej,9740,170,10.0664629,57.2653571
1966839,Øster Linderupvej,9740,199,10.0655892,57.2672044
1966843,Øster Linderupvej,9740,211,10.065691,57.2685515
1966845,Øster Linderupvej,9740,217,10.0637587,57.2696972
1966850,Øster Linderupvej,9740,259,10.0732478,57.2732586
1966856,Øster Linderupvej,9740,269,10.0699247,57.2742628
1966857,Øster Linderupvej,9740,271,10.0745424,57.2746873
1966861,Øster Linderupvej,9740,272,10.0778493,57.274749
1966911,Agnetevej,9740,1,10.1662895,57.2700056
1966912,Agnetevej,9740,3,10.1658463,57.26983
1966913,Agnetevej,9740,4,10.1656017,57.2699645
1966914,Agnetevej,9740,5,10.1658055,57.2695939
1966915,Agnetevej,9740,6,10.1655333,57.2697894
1966916,Agnetevej,9740,7,10.1657606,57.2694536
1966917,Agnetevej,9740,8,10.165483,57.2696619
1966918,Agnetevej,9740,9,10.1655335,57.2691399
1966919,Agnetevej,9740,10,10.1654103,57.2695021
1966920,Agnetevej,9740,11,10.1651922,57.2682884
1966921,Agnetevej,9740,12,10.1653197,57.2693331
1966922,Agnetevej,9740,16,10.165096,57.268941
1966923,Agnetevej,9740,19,10.1648653,57.2678549
1966924,Agnetevej,9740,44,10.1636492,57.2650449
1967104,Præstelunden,9740,4,10.0889425,57.284021
1967105,Præstelunden,9740,6,10.0884906,57.2840441
1967106,Præstelunden,9740,7,10.087882,57.283779
1967108,Præstelunden,9740,8,10.0880366,57.2840418
1967110,Præstelunden,9740,9,10.0876589,57.2834524
1967111,Præstelunden,9740,10,10.0874377,57.2840794
1967113,Præstelunden,9740,11,10.087353,57.2837664
1967115,Præstelunden,9740,12,10.0869604,57.2839828
1967117,Præstelunden,9740,12A,10.0870424,57.2842278
1967119,Præstelunden,9740,13,10.0870718,57.283794
1967120,Præstelunden,9740,14,10.086636,57.2840028
1967121,Præstelunden,9740,15,10.0867763,57.2837819
1967123,Præstelunden,9740,16,10.086258,57.2839942
1967126,Præstelunden,9740,17,10.0864266,57.2837297
1967127,Præstelunden,9740,18,10.0859594,57.2840626
1967128,Præstelunden,9740,19,10.0860371,57.2836927
1967130,Præstelunden,9740,20,10.0856854,57.2839781
1967132,Præstelunden,9740,21,10.0856345,57.2837436
1967204,Askøgade,9740,3,10.0957925,57.2860016
1967205,Askøgade,9740,6,10.0962916,57.2859639
1967240,Mellerupvej,9740,1,10.0488991,57.2980544
1967242,Mellerupvej,9740,15,10.0525246,57.2980509
1967246,Mellerupvej,9740,29,10.0550928,57.2986016
1967249,Mellerupvej,9740,33,10.0558803,57.2967676
1967380,Bogøgade,9740,1,10.0977499,57.2852855
1967381,Bogøgade,9740,2,10.0982633,57.2852719
1967382,Bogøgade,9740,4,10.0984347,57.2856025
1967978,Terpetvej,9740,15,10.1208319,57.32246
1967981,Terpetvej,9740,60,10.1154287,57.3274414
1967983,Terpetvej,9740,110,10.116837,57.32909
1968086,Horsemosevej,9740,31,10.1629356,57.2987071
1968093,Horsemosevej,9740,72,10.1567076,57.2974424
1968096,Horsemosevej,9740,81,10.1585681,57.2953257
1968438,Bondersholtvej,9740,16,10.1425774,57.3168781
1968442,Bondersholtvej,9740,37,10.143979,57.315049
1968445,Bondersholtvej,9740,60,10.1438705,57.3134537
1968447,Bondersholtvej,9740,108,10.145028,57.307207
1968486,Hjulskovvej,9740,47,10.1008737,57.2896349
1968487,Hjulskovvej,9740,54,10.1023395,57.2886651
1968489,Hjulskovvej,9740,63,10.1039541,57.2893621
1968493,Hjulskovvej,9740,69,10.105078,57.289818
1968496,Hjulskovvej,9740,73,10.1063799,57.2912979
1968498,Hjulskovvej,9740,75,10.1054005,57.2929571
1968501,Hjulskovvej,9740,91,10.1098682,57.290748
1968503,Hjulskovvej,9740,96,10.1126102,57.2899052
1968505,Hjulskovvej,9740,97,10.110742,57.291863
1968507,Hjulskovvej,9740,99,10.1133204,57.2920466
1968509,Hjulskovvej,9740,120,10.1175971,57.2912809
1968512,Hjulskovvej,9740,159,10.1201443,57.2930293
1968513,Hjulskovvej,9740,161,10.118214,57.297689
1968515,Hjulskovvej,9740,184,10.1286576,57.2918232
1968518,Hjulskovvej,9740,263,10.1355143,57.3004791
1968520,Hjulskovvej,9740,265,10.1359374,57.3004466
1968523,Hjulskovvej,9740,399,10.1581355,57.3018588
1968726,Spejderstien,9740,3,10.0910836,57.2855713
1968727,Spejderstien,9740,4,10.0913895,57.2855895
1968839,Irisvej,9740,3,10.1060165,57.3132772
1968840,Irisvej,9740,4,10.1066228,57.3135264
1968841,Irisvej,9740,5,10.1056699,57.3133694
1968842,Irisvej,9740,6,10.106168,57.3134588
1968844,Irisvej,9740,7,10.1052775,57.3134257
1968845,Irisvej,9740,8,10.1057535,57.3136157
1968846,Irisvej,9740,10,10.1056435,57.3137519
1968847,Irisvej,9740,12,10.1054738,57.3139586
1968848,Irisvej,9740,13,10.1048619,57.3141885
1968850,Irisvej,9740,14,10.105373,57.314094
1968851,Irisvej,9740,15,10.1047413,57.3143752
1968852,Irisvej,9740,18,10.1050926,57.3143596
1968853,Irisvej,9740,20,10.105124,57.31461
1968854,Irisvej,9740,22,10.1050037,57.3149385
1968855,Irisvej,9740,24,10.1060789,57.3151903
1968856,Irisvej,9740,26,10.1049528,57.315205
1968909,Hausagervej,9740,9,10.081124,57.3047903
1968911,Hausagervej,9740,19,10.082887,57.304064
1968914,Hausagervej,9740,59,10.0881897,57.3040594
1968915,Hausagervej,9740,69,10.0914506,57.3043346
1968917,Hausagervej,9740,80,10.0924393,57.3038452
1968929,Fæholtvej,9740,3,10.1624633,57.3041087
1968931,Fæholtvej,9740,13,10.1616354,57.3041151
1968933,Fæholtvej,9740,16,10.1625952,57.3047337
1968934,Fæholtvej,9740,17,10.161403,57.304452
1968937,Fæholtvej,9740,19,10.1610684,57.3045707
1968939,Fæholtvej,9740,21,10.1608124,57.3046876
1968941,Fæholtvej,9740,25,10.160255,57.3048562
1968942,Fæholtvej,9740,41,10.1572671,57.3047253
1969128,Gammel Klæstrupvej,9740,3,10.05491,57.2821805
1969131,Gammel Klæstrupvej,9740,5,10.0548637,57.2824626
1969132,Gammel Klæstrupvej,9740,6,10.0553435,57.2823724
1969135,Gammel Klæstrupvej,9740,7,10.0550023,57.2826914
1969136,Gammel Klæstrupvej,9740,10,10.0557954,57.283277
1969139,Gammel Klæstrupvej,9740,19,10.055852,57.2847197
1969142,Gammel Klæstrupvej,9740,19A,10.056272,57.2848369
1969145,Gammel Klæstrupvej,9740,21,10.057161,57.2847604
1969146,Gammel Klæstrupvej,9740,26,10.059067,57.284396
1969150,Gammel Klæstrupvej,9740,31,10.0601958,57.2855973
1969153,Gammel Klæstrupvej,9740,33,10.060821,57.285942
1969155,Gammel Klæstrupvej,9740,33A,10.0587016,57.2864838
1969157,Gammel Klæstrupvej,9740,35,10.061205,57.287114
1969159,Gammel Klæstrupvej,9740,40,10.064163,57.285141
1969162,Gammel Klæstrupvej,9740,41,10.0624075,57.2855959
1969164,Gammel Klæstrupvej,9740,49,10.0640336,57.2863641
1969165,Gammel Klæstrupvej,9740,51,10.0654325,57.2865017
1969167,Gammel Klæstrupvej,9740,52,10.0648196,57.2858687
1969169,Gammel Klæstrupvej,9740,61,10.067426,57.28528
1969170,Gammel Klæstrupvej,9740,66,10.066908,57.2838271
1969173,Gammel Klæstrupvej,9740,74,10.066786,57.281831
1969174,Gammel Klæstrupvej,9740,75,10.0672682,57.2822429
1969226,Dalvej,9740,7,10.133889,57.2784364
1969227,Dalvej,9740,24,10.1378641,57.2794671
1969229,Dalvej,9740,27,10.1351212,57.2806775
1969231,Dalvej,9740,65,10.1362557,57.2824016
1969233,Dalvej,9740,68,10.138723,57.284268
1969235,Dalvej,9740,70,10.1389044,57.2851669
1969237,Dalvej,9740,84,10.1384982,57.2865463
1969460,Tollestrupvej,9740,481,10.0661431,57.3177858
1969536,Kvishøjvej,9740,2,10.0894689,57.2809533
1969537,Kvishøjvej,9740,4,10.0892678,57.2806644
1969538,Kvishøjvej,9740,6,10.089155,57.280503
1969540,Kvishøjvej,9740,65,10.0859235,57.2744376
1969542,Kvishøjvej,9740,66,10.0847134,57.274537
1969543,Kvishøjvej,9740,101,10.0842468,57.2704223
1969545,Kvishøjvej,9740,121,10.0835559,57.2682337
1969546,Kvishøjvej,9740,124,10.0798471,57.2681204
1969652,Lonevej,9740,1,10.1605078,57.2701553
1969653,Lonevej,9740,3,10.1604401,57.2704738
1969660,Lonevej,9740,5,10.160333,57.2707961
1969843,Langthjemvej,9740,14,10.0757515,57.2709873
1969854,Langthjemvej,9740,24,10.0765995,57.2695201
1969859,Langthjemvej,9740,25,10.0783772,57.2717386
1969913,Rugvangen,9740,1,10.0854011,57.282919
1969915,Rugvangen,9740,2,10.0847849,57.2829739
1969917,Rugvangen,9740,3,10.0853309,57.2827609
1969918,Rugvangen,9740,4,10.0848378,57.2827541
1969920,Rugvangen,9740,5,10.085242,57.2825361
1969921,Rugvangen,9740,6,10.0848076,57.2825457
1969922,Rugvangen,9740,7,10.085179,57.28229
1969923,Rugvangen,9740,8,10.0846831,57.2823278
1969925,Rugvangen,9740,9,10.0851342,57.282081
1969929,Rugvangen,9740,10,10.0846396,57.2821214
1969930,Rugvangen,9740,11,10.085253,57.281825
1969933,Rugvangen,9740,12,10.0845888,57.2818235
1969935,Rugvangen,9740,13,10.0852332,57.2817179
1969938,Rugvangen,9740,14,10.0845719,57.281757
1969941,Rugvangen,9740,15,10.0852107,57.2816238
1969944,Rugvangen,9740,16,10.0845565,57.2816892
1969945,Rugvangen,9740,17,10.0851823,57.2815339
1969948,Rugvangen,9740,18,10.0845446,57.2816166
1969951,Rugvangen,9740,20,10.0845324,57.281551
1970721,Bellisvej,9740,3,10.1058895,57.312682
1970722,Bellisvej,9740,5,10.1058468,57.3125924
1970729,Bellisvej,9740,9,10.105988,57.3121797
1970745,Bellisvej,9740,17,10.105715,57.310888
1970823,Mandøgade,9740,4,10.1005534,57.2873299
1970825,Mandøgade,9740,6,10.1012601,57.2871772
1970831,Mandøgade,9740,11,10.1032319,57.2879596
1970832,Mandøgade,9740,12,10.1028314,57.2875537
1970836,Mandøgade,9740,14,10.1040005,57.2874656
1971225,Tovevej,9740,1,10.160309,57.27229
1971226,Tovevej,9740,3,10.1598373,57.2722453
1971227,Tovevej,9740,4,10.1598192,57.2726058
1971306,Vandmøllevej,9740,39,10.1097578,57.3191427
1971749,Kirkestræde,9740,1,10.0899479,57.2817417
1971753,Kirkestræde,9740,2,10.0899112,57.2818974
1971755,Kirkestræde,9740,3,10.0895765,57.2817704
1971759,Kirkestræde,9740,4,10.0894171,57.2819825
1971760,Kirkestræde,9740,5,10.088838,57.2818995
1971764,Kirkestræde,9740,6,10.0888824,57.282004
1971812,Skovbrynet,9740,20,10.1752592,57.2815303
1971814,Skovbrynet,9740,50,10.1787451,57.2844952
1971887,Nøragervej,9740,2,10.0914203,57.2888718
1971891,Nøragervej,9740,3,10.092658,57.289146
1971894,Nøragervej,9740,5,10.0918907,57.289313
1971898,Nøragervej,9740,6,10.0917179,57.2889581
1972082,Øster Hjulskovvej,9740,8,10.143723,57.3002667
1972083,Øster Hjulskovvej,9740,11,10.1406559,57.3004
1972084,Øster Hjulskovvej,9740,13,10.1441559,57.3005856
1972085,Øster Hjulskovvej,9740,24,10.1457779,57.3004021
1972280,Mølholmvej,9740,49,10.0977046,57.2756064
1972283,Mølholmvej,9740,79,10.0988095,57.27217
1972287,Mølholmvej,9740,100,10.098301,57.2694655
1972289,Mølholmvej,9740,135,10.1052387,57.2677871
1972293,Mølholmvej,9740,139,10.1119824,57.2682279
1972452,Voldgade,9740,1,10.0927582,57.2848494
1972453,Voldgade,9740,3,10.0926764,57.2847987
1972456,Voldgade,9740,4,10.0918668,57.2845977
1972457,Voldgade,9740,5,10.0925437,57.2847038
1972459,Voldgade,9740,7,10.0924131,57.2846071
1972461,Voldgade,9740,8,10.0916875,57.2842839
1972462,Voldgade,9740,9,10.0922895,57.2845086
1972465,Voldgade,9740,10,10.0915399,57.284135
1972466,Voldgade,9740,11,10.0921544,57.2843992
1972467,Voldgade,9740,12,10.0914784,57.2840364
1972469,Voldgade,9740,13,10.0919797,57.2842351
1972470,Voldgade,9740,14,10.0914043,57.2839208
1972472,Voldgade,9740,21,10.0917848,57.2836827
1972474,Voldgade,9740,23,10.0915595,57.2834238
1972475,Voldgade,9740,25,10.0915047,57.2832424
1972476,Voldgade,9740,27,10.0913701,57.2830283
1972477,Voldgade,9740,29,10.0914065,57.2828241
1972478,Voldgade,9740,33,10.0909963,57.2823911
1972479,Voldgade,9740,35,10.0910201,57.2821707
1972480,Voldgade,9740,37,10.091169,57.2821669
1972481,Voldgade,9740,39,10.0914447,57.2821456
1972482,Voldgade,9740,40,10.0898847,57.2814953
1972483,Voldgade,9740,41,10.0915824,57.2821421
1972484,Voldgade,9740,43,10.0915472,57.281999
1972485,Voldgade,9740,45,10.0914098,57.2820026
1972486,Voldgade,9740,47,10.0911563,57.2820379
1972487,Voldgade,9740,49,10.0910145,57.2820416
1972488,Voldgade,9740,51,10.0918768,57.2816281
1972489,Voldgade,9740,53,10.0918631,57.2817623
1972490,Voldgade,9740,55,10.0918804,57.2818977
1972491,Voldgade,9740,57,10.0918959,57.2820334
1972492,Voldgade,9740,59,10.0920244,57.2820303
1972493,Voldgade,9740,61,10.092014,57.281895
1972494,Voldgade,9740,63,10.0919981,57.2817593
1972495,Voldgade,9740,65,10.0919984,57.2816252
1972496,Voldgade,9740,67,10.091267,57.281682
1972497,Voldgade,9740,69,10.0913696,57.2817327
1972591,Teglgårdsvej,9740,6,10.0554908,57.2813691
1972592,Teglgårdsvej,9740,12,10.056312,57.279974
1972593,Teglgårdsvej,9740,51A,10.0591368,57.2757723
1972594,Teglgårdsvej,9740,77,10.055654,57.273865
1972595,Teglgårdsvej,9740,96,10.0514176,57.2737397
1972596,Teglgårdsvej,9740,98,10.050307,57.272987
1972597,Teglgårdsvej,9740,121,10.0519572,57.2703299
1972793,Møgelhøjsvej,9740,6,10.0850449,57.3138709
1972794,Møgelhøjsvej,9740,12,10.0796438,57.3157872
1972795,Møgelhøjsvej,9740,18,10.0796182,57.3168564
1972920,Tårsvej,9740,10,10.167505,57.322184
1972922,Tårsvej,9740,12,10.1667098,57.322289
1972924,Tårsvej,9740,16,10.1665207,57.3224961
1972926,Tårsvej,9740,27,10.16362,57.322123
1972928,Tårsvej,9740,29,10.1663835,57.3221378
1972929,Tårsvej,9740,33,10.1662854,57.3223343
1972932,Tårsvej,9740,35,10.1661501,57.3224765
1972934,Tårsvej,9740,50,10.169083,57.327982
1973415,Yrsavej,9740,5,10.1667837,57.269246
1973417,Yrsavej,9740,6,10.1666968,57.2689526
1973420,Yrsavej,9740,8,10.1671047,57.2689971
1973443,Græsvangen,9740,3,10.0910014,57.2878141
1973444,Græsvangen,9740,4,10.0905253,57.2875692
1973447,Græsvangen,9740,5,10.0910179,57.287597
1973449,Græsvangen,9740,6,10.0904775,57.2873647
1973453,Græsvangen,9740,7,10.0909624,57.2873523
1973454,Græsvangen,9740,8A,10.0902487,57.2871251
1973456,Græsvangen,9740,8B,10.0902697,57.2871994
1973459,Græsvangen,9740,9,10.0909198,57.287162
1973460,Græsvangen,9740,10A,10.090216,57.2869874
1973463,Græsvangen,9740,10B,10.0902319,57.287056
1973466,Græsvangen,9740,11,10.0908621,57.28693
1973468,Græsvangen,9740,12A,10.0901847,57.2868554
1973469,Græsvangen,9740,12B,10.0901996,57.2869169
1973470,Græsvangen,9740,13,10.0908022,57.2867329
1973471,Græsvangen,9740,14A,10.0901563,57.2867246
1973473,Græsvangen,9740,14B,10.0901723,57.2867891
1973687,Åholmvej,9740,19,10.0617251,57.2671217
1973692,Åholmvej,9740,49,10.056575,57.265224
1973693,Åholmvej,9740,50,10.0548813,57.2688568
1973698,Åholmvej,9740,65,10.0507021,57.2638129
1973756,Klerkegade,9740,1,10.0880464,57.2827437
1973758,Klerkegade,9740,3,10.0879761,57.2823908
1973759,Klerkegade,9740,4,10.0874602,57.2824128
1973761,Klerkegade,9740,5,10.0879473,57.282127
1973762,Klerkegade,9740,6,10.0872645,57.2821938
1973764,Klerkegade,9740,7,10.0875216,57.2821082
1973765,Klerkegade,9740,8,10.0872441,57.2821111
1973786,Ingridvej,9740,2,10.161155,57.270497
1973787,Ingridvej,9740,3,10.1608081,57.270611
1973788,Ingridvej,9740,4,10.1611133,57.2707823
1973789,Ingridvej,9740,5,10.1607872,57.2708275
1973791,Ingridvej,9740,6,10.1610325,57.2711396
1973792,Ingridvej,9740,7,10.1606809,57.2710494
1973794,Ingridvej,9740,9,10.1606223,57.2712212
1973795,Ingridvej,9740,10,10.1608776,57.2719139
1974014,Kaløgade,9740,3,10.0938215,57.2864453
1974016,Kaløgade,9740,4,10.094254,57.2863503
1974019,Kaløgade,9740,5,10.0939211,57.2864379
1974085,Kærvangsvej,9740,8,10.084491,57.298468
1974086,Kærvangsvej,9740,12,10.080068,57.2982964
1974087,Kærvangsvej,9740,23,10.0814019,57.2975242
1974090,Kærvangsvej,9740,50,10.0747518,57.2967572
1974093,Kærvangsvej,9740,101,10.069076,57.2948302
1974097,Kærvangsvej,9740,102,10.068472,57.2958676
1974136,Øster Mellerupvej,9740,39,10.081979,57.292504
1974137,Øster Mellerupvej,9740,48,10.079578,57.293001
1974142,Øster Mellerupvej,9740,79,10.0755601,57.2926742
1974176,Jomsborgvej,9740,3,10.1638631,57.3042329
1974181,Jomsborgvej,9740,5,10.1642403,57.3042709
1974185,Jomsborgvej,9740,7,10.164727,57.304576
1974202,Hannevej,9740,1,10.1604801,57.27153
1974203,Hannevej,9740,2,10.1604054,57.2719286
1974204,Hannevej,9740,3,10.1600465,57.2715012
1974206,Hannevej,9740,4,10.1600496,57.2717845
1974442,Oustrupmøllevej,9740,3,10.1836044,57.3229226
1974444,Oustrupmøllevej,9740,35,10.18823,57.3202778
1974448,Oustrupmøllevej,9740,63,10.1871511,57.3178683
1974450,Oustrupmøllevej,9740,68,10.187729,57.3165799
1974692,Krattetvej,9740,6,10.1234893,57.3199268
1974693,Krattetvej,9740,19,10.1264866,57.3199772
1974696,Krattetvej,9740,26,10.128226,57.3190179
1974698,Krattetvej,9740,67,10.134706,57.325847
1974701,Krattetvej,9740,76,10.1367524,57.3186972
1974704,Krattetvej,9740,77,10.1416776,57.3245852
1974706,Krattetvej,9740,87,10.1397605,57.3208909
1974708,Krattetvej,9740,107,10.143694,57.319039
1974710,Krattetvej,9740,108,10.1435019,57.318894
1974712,Krattetvej,9740,109,10.1464804,57.3219871
1974714,Krattetvej,9740,111,10.1484344,57.3215959
1974715,Krattetvej,9740,125,10.1477654,57.3196737
1974717,Krattetvej,9740,145,10.1534506,57.31844
1974719,Krattetvej,9740,147,10.1542197,57.3226862
1975120,Skovsgårdsvej,9740,20,10.1715412,57.2653723
1975122,Skovsgårdsvej,9740,30,10.174748,57.264586
1975124,Skovsgårdsvej,9740,61,10.1784837,57.2668204
1975125,Skovsgårdsvej,9740,73,10.1820464,57.2666483
1975128,Skovsgårdsvej,9740,87,10.18763,57.2641805
1975129,Skovsgårdsvej,9740,90,10.1825325,57.2626987
1975154,Asylgade,9740,2,10.08792,57.2816138
1975155,Asylgade,9740,4,10.0876456,57.2816853
1975161,Asylgade,9740,6,10.0876598,57.2817936
1975162,Asylgade,9740,8,10.0873717,57.2815195
1975165,Asylgade,9740,10,10.0871303,57.2814853
1975166,Asylgade,9740,12,10.0868685,57.2814664
1975343,Hellumlundvej,9740,2,10.1608104,57.2724392
1975346,Hellumlundvej,9740,5,10.1602744,57.2726417
1975349,Hellumlundvej,9740,28,10.1594734,57.2762286
1975352,Hellumlundvej,9740,36,10.159402,57.276784
1975353,Huultgårdsvej,9740,3,10.1861363,57.3262291
1975354,Huultgårdsvej,9740,11,10.1858601,57.327052
1975355,Huultgårdsvej,9740,16,10.186541,57.328978
1975401,Vibekevej,9740,13,10.15473,57.2706607
1975402,Vibekevej,9740,27,10.1581007,57.2702568
1975403,Vibekevej,9740,43,10.1608281,57.270161
1975404,Vibekevej,9740,45,10.1613888,57.2702146
1975405,Vibekevej,9740,49,10.1626835,57.2701801
1975406,Vibekevej,9740,51,10.1630673,57.2701978
1975408,Vibekevej,9740,57A,10.1640647,57.2705941
1975409,Vibekevej,9740,63,10.1655742,57.2703699
1975413,Vibekevej,9740,65,10.1658609,57.2704276
1975416,Vibekevej,9740,67A,10.166468,57.2707792
1975418,Vibekevej,9740,69,10.1666318,57.2706051
1975419,Vibekevej,9740,70,10.1666149,57.2704307
1975425,Vibekevej,9740,70A,10.1667991,57.2703101
1975428,Vibekevej,9740,73,10.1671919,57.2708117
1975431,Vibekevej,9740,74,10.1674952,57.2707478
1975434,Vibekevej,9740,75,10.1673267,57.270862
1975436,Vibekevej,9740,76,10.167904,57.2709
1975438,Vibekevej,9740,77,10.1675135,57.2709283
1975442,Vibekevej,9740,78,10.1680706,57.2709616
1975444,Vibekevej,9740,79,10.1677834,57.2710577
1975446,Vibekevej,9740,80,10.1683235,57.2710443
1975448,Vibekevej,9740,81,10.1681892,57.2712245
1975451,Vibekevej,9740,82,10.1684432,57.271087
1975527,Hjallerupvej,9740,80,10.164709,57.262394
1975528,Hjallerupvej,9740,128,10.157154,57.2559091
1975664,Livøgade,9740,1,10.0937672,57.287904
1975666,Livøgade,9740,2,10.093308,57.287839
1975667,Livøgade,9740,3,10.0938672,57.2877007
1975669,Livøgade,9740,4,10.0934428,57.2875616
1975670,Livøgade,9740,5,10.09396,57.2874019
1975672,Livøgade,9740,6,10.0935437,57.2873513
1975673,Livøgade,9740,7,10.094207,57.287223
1975676,Livøgade,9740,8,10.0936642,57.2870938
1975677,Livøgade,9740,9,10.094204,57.2869696
1975681,Livøgade,9740,10,10.0937929,57.2869078
1975941,Birkmosevej,9740,5,10.1013877,57.2852684
1975942,Birkmosevej,9740,19,10.1025805,57.2850574
1975943,Birkmosevej,9740,95,10.1188824,57.2860065
1975944,Birkmosevej,9740,112,10.1227686,57.2851688
1975945,Birkmosevej,9740,120,10.1265213,57.2838298
1975946,Birkmosevej,9740,122,10.1260112,57.2854735
1975947,Birkmosevej,9740,144,10.1299928,57.2855809
1975948,Birkmosevej,9740,163,10.1341794,57.2870664
1975949,Birkmosevej,9740,254,10.143246,57.286453
1975950,Birkmosevej,9740,255,10.1434422,57.2887204
1975951,Birkmosevej,9740,256,10.1442494,57.2867213
1975952,Birkmosevej,9740,278,10.1475688,57.2869043
1975954,Birkmosevej,9740,288,10.149526,57.289331
1975957,Birkmosevej,9740,291,10.14998,57.290611
1975958,Birkmosevej,9740,295,10.1526681,57.2908043
1975961,Birkmosevej,9740,299,10.1530039,57.2898848
1975966,Birkmosevej,9740,300,10.1531685,57.2890159
1976450,Svennumvej,9740,39,10.1236627,57.2756654
1976455,Svennumvej,9740,42,10.1194463,57.2749895
1976456,Svennumvej,9740,70,10.1220475,57.2721563
1976460,Svennumvej,9740,89,10.1228192,57.2693763
1976522,Agervej,9740,29,10.081405,57.277787
1976524,Agervej,9740,59,10.0806233,57.2735486
1976525,Agervej,9740,69,10.0787597,57.2737749
1976526,Agervej,9740,79,10.0761224,57.2730422
1976527,Agervej,9740,85,10.0747453,57.2731641
1976696,Tunøgade,9740,2,10.0911686,57.2826048
1976697,Tunøgade,9740,4,10.091857,57.2824955
1976714,Lupinvej,9740,31,10.1346264,57.317421
1976716,Lupinvej,9740,43,10.137879,57.317117
1976759,P. Dyrskjøts Vej,9740,3,10.0912765,57.284354
1976762,P. Dyrskjøts Vej,9740,4,10.0910346,57.2845228
1976768,P. Dyrskjøts Vej,9740,6,10.090784,57.2845307
1976770,P. Dyrskjøts Vej,9740,7,10.090752,57.284386
1976772,P. Dyrskjøts Vej,9740,9,10.0902711,57.2844202
1976793,Anemonevej,9740,3,10.1023522,57.3130021
1976794,Anemonevej,9740,5,10.1040875,57.3132477
1976795,Anemonevej,9740,13,10.102455,57.313259
1977332,Brinken,9740,3,10.0891223,57.2853316
1977335,Brinken,9740,5,10.0890186,57.2850151
1977336,Brinken,9740,6,10.0886754,57.2850718
1977339,Brinken,9740,8,10.0886671,57.2849026
1977383,Abildgårdsvej,9740,1,10.1047569,57.3137453
1977384,Abildgårdsvej,9740,2,10.1048759,57.31391
1977385,Abildgårdsvej,9740,3,10.1041204,57.3138174
1977386,Abildgårdsvej,9740,5,10.1034933,57.3139058
1977387,Abildgårdsvej,9740,7,10.1020652,57.3136577
1977388,Abildgårdsvej,9740,10,10.1028367,57.3143063
1977389,Abildgårdsvej,9740,60,10.089922,57.3168173
1977390,Abildgårdsvej,9740,119,10.0789913,57.3191937
1977391,Abildgårdsvej,9740,152,10.075861,57.322422
1977392,Abildgårdsvej,9740,155,10.0748861,57.3234371
1977393,Abildgårdsvej,9740,175,10.0743257,57.3262678
1977394,Abildgårdsvej,9740,181,10.0720398,57.3289504
1977395,Abildgårdsvej,9740,183,10.0728434,57.3293838
1977396,Abildgårdsvej,9740,196,10.0760604,57.3289814
1977474,Violvej,9740,5,10.1073825,57.3127363
1977712,Fanøgade,9740,3,10.0937415,57.2859599
1977713,Fanøgade,9740,4,10.0940246,57.2858784
1977714,Fanøgade,9740,5,10.0940304,57.2860961
1977715,Fanøgade,9740,6,10.0942653,57.2859478
1977716,Fanøgade,9740,7,10.0943157,57.2861176
1977717,Fanøgade,9740,8,10.0945851,57.285986
1977718,Fanøgade,9740,9,10.094437,57.2866016
1977719,Fanøgade,9740,10,10.0948764,57.2860631
1977720,Fanøgade,9740,11,10.094803,57.2863802
1977721,Fanøgade,9740,12,10.0952637,57.2861666
1977722,Fanøgade,9740,13,10.094922,57.2866489
1977723,Fanøgade,9740,14,10.0954982,57.2862824
1977724,Fanøgade,9740,15,10.0953572,57.2864843
1977725,Fanøgade,9740,17,10.0956281,57.2866554
1977726,Fanøgade,9740,18,10.0958118,57.2863514
1977727,Fanøgade,9740,19,10.0960653,57.2866562
1977728,Fanøgade,9740,20,10.0961215,57.2863944
1977729,Fanøgade,9740,21,10.096399,57.286688
1977730,Fanøgade,9740,22,10.096813,57.2864559
1977731,Fanøgade,9740,23,10.0967823,57.2867224
1977732,Fanøgade,9740,24,10.0972348,57.2864674
1977733,Fanøgade,9740,27,10.0974499,57.2867619
1977734,Fanøgade,9740,32,10.0988325,57.2868316
1977735,Fanøgade,9740,34,10.098915,57.2868721
1977736,Fanøgade,9740,36,10.0994827,57.2871166
1977737,Fanøgade,9740,38,10.099787,57.28743
1977738,Fanøgade,9740,39,10.0997372,57.2877788
1977739,Fanøgade,9740,41,10.1000376,57.2881757
1977740,Fanøgade,9740,46,10.101389,57.287738
1977776,Anne-Marievej,9740,1,10.1620475,57.270262
1977777,Anne-Marievej,9740,2,10.1623005,57.2702718
1977778,Anne-Marievej,9740,3,10.1619736,57.2705852
1977779,Anne-Marievej,9740,4,10.1622663,57.2707428
1977780,Anne-Marievej,9740,5,10.1617379,57.2711728
1977781,Anne-Marievej,9740,6,10.162113,57.271207
1978063,Pølundvej,9740,5,10.171843,57.3208309
1978064,Pølundvej,9740,40,10.1723721,57.3173202
1978065,Pølundvej,9740,63,10.1747598,57.3148067
1978066,Pølundvej,9740,65,10.1772322,57.3160045
1978067,Håndsbækvej,9740,60,10.2179999,57.291828
1978068,Håndsbækvej,9740,62,10.2173145,57.2917396
1978069,Håndsbækvej,9740,80,10.2142993,57.2937013
1978070,Håndsbækvej,9740,140,10.2031573,57.2940522
1978071,Håndsbækvej,9740,144,10.203508,57.294045
1978072,Løthvej,9740,39,10.0903791,57.3104195
1978073,Løthvej,9740,46,10.0883935,57.3106918
1978074,Løthvej,9740,52,10.0859397,57.3110962
1978075,Løthvej,9740,59,10.083104,57.3107738
1978076,Løthvej,9740,82,10.079566,57.3138996
1978077,Løthvej,9740,93,10.0759571,57.3140463
1978089,Bygvangen,9740,11,10.0834186,57.2817412
1978090,Bygvangen,9740,12,10.0830629,57.2819424
1978091,Bygvangen,9740,13,10.0835563,57.2817317
1978092,Bygvangen,9740,14,10.0830426,57.281857
1978093,Bygvangen,9740,15,10.0836684,57.2817241
1978094,Bygvangen,9740,16,10.0830212,57.2817647
1978095,Bygvangen,9740,17,10.0838042,57.2817147
1978096,Bygvangen,9740,18,10.0829996,57.2816739
1978097,Bygvangen,9740,19,10.0839248,57.2817066
1978098,Bygvangen,9740,21,10.084048,57.281698
1978145,Sterup Hedevej,9740,30,10.0697371,57.3182041
1978148,Sterup Hedevej,9740,60,10.0708042,57.3196749
1978150,Sterup Hedevej,9740,70,10.0694256,57.3200863
1978327,Hummelhedevej,9740,40,10.130942,57.299021
1978328,Hummelhedevej,9740,42,10.1293296,57.2994906
1978329,Hummelhedevej,9740,100,10.1225459,57.3028267
1978330,Hummelhedevej,9740,102,10.122855,57.3037397
1978331,Hummelhedevej,9740,157,10.112964,57.301476
1978332,Hummelhedevej,9740,158,10.112596,57.302818
1978333,Hummelhedevej,9740,160,10.1171248,57.3070081
1978334,Hummelhedevej,9740,163,10.1106267,57.3028108
1978335,Hummelhedevej,9740,168,10.110659,57.30418
1978421,Nakkebjergvej,9740,21,10.1487159,57.2644417
1978422,Nakkebjergvej,9740,40,10.1442985,57.2695643
1978424,Nakkebjergvej,9740,41,10.1437587,57.2687886
1978425,Nakkebjergvej,9740,50,10.1441619,57.2695656
1978428,Nakkebjergvej,9740,64,10.132891,57.268794
1978430,Nakkebjergvej,9740,125,10.129514,57.263127
1978915,Mimosevej,9740,1,10.1041742,57.3121085
1978917,Mimosevej,9740,3,10.1035654,57.3118981
1978919,Mimosevej,9740,4,10.104156,57.31229
1978920,Mimosevej,9740,7,10.1032685,57.3117007
1978923,Mimosevej,9740,8,10.1030425,57.3120877
1978924,Mimosevej,9740,9,10.1028682,57.3114848
1978925,Mimosevej,9740,12,10.1029855,57.3118249
1978926,Mimosevej,9740,14,10.1027507,57.3116734
1978927,Mimosevej,9740,16,10.1022697,57.3113504
1978928,Mimosevej,9740,18,10.102356,57.311162
1978929,Mimosevej,9740,20,10.1021445,57.3109899
1978949,Toften,9740,3,10.0909945,57.2840711
1978969,Hellumvej,9740,20,10.1168084,57.2794929
1978971,Hellumvej,9740,23,10.120368,57.280332
1978973,Hellumvej,9740,27,10.118116,57.2798092
1978976,Hellumvej,9740,28,10.1193436,57.2790767
1978979,Hellumvej,9740,39,10.1237315,57.2790583
1978984,Hellumvej,9740,60,10.1289489,57.273436
1978986,Hellumvej,9740,80,10.1298355,57.2781894
1978989,Hellumvej,9740,87,10.1337148,57.2775347
1978990,Hellumvej,9740,120,10.1362025,57.2759692
1978992,Hellumvej,9740,131,10.139091,57.2776586
1978996,Hellumvej,9740,132,10.1376309,57.2756173
1978998,Hellumvej,9740,171,10.1434346,57.2745388
1979001,Hellumvej,9740,197,10.146619,57.273684
1979004,Hellumvej,9740,198,10.1475438,57.2714692
1979084,Liljevej,9740,2,10.1037828,57.3094394
1979090,Liljevej,9740,10,10.1037005,57.3102767
1979094,Liljevej,9740,12,10.1037737,57.3106262
1979101,Liljevej,9740,14,10.1038819,57.3108083
1979106,Liljevej,9740,18,10.10421,57.311345
1979108,Liljevej,9740,20,10.1043358,57.3115607
1979113,Liljevej,9740,21,10.103836,57.311327
1979115,Liljevej,9740,22,10.10445,57.311753
1979118,Liljevej,9740,23,10.103957,57.31154
1979121,Liljevej,9740,24,10.1045407,57.3119098
1979124,Liljevej,9740,27,10.1041383,57.311875
1979127,Liljevej,9740,28,10.1047502,57.31223
1979130,Liljevej,9740,29,10.1044028,57.3125606
1979133,Liljevej,9740,30,10.1048417,57.3124878
1979388,Valmuevej,9740,4,10.1031987,57.310818
1979392,Valmuevej,9740,8,10.1016267,57.3109053
1979394,Valmuevej,9740,8A,10.1018188,57.3111789
1979396,Valmuevej,9740,9,10.1015325,57.3103037
1979398,Valmuevej,9740,10,10.1011139,57.3108844
1979400,Valmuevej,9740,15,10.1007101,57.3107599
1979401,Valmuevej,9740,17,10.098605,57.309391
1979402,Valmuevej,9740,18,10.0990914,57.3113864
1979403,Valmuevej,9740,29,10.0972577,57.3112044
1980013,Søhedenvej,9740,3,10.1639996,57.3039609
1980014,Søhedenvej,9740,5,10.1642065,57.3038832
1980016,Søhedenvej,9740,7,10.1643406,57.3038097
1980018,Søhedenvej,9740,9,10.1646047,57.3037271
1980020,Søhedenvej,9740,10,10.164587,57.303524
1980024,Søhedenvej,9740,12,10.16494,57.303268
1980028,Søhedenvej,9740,17,10.1660254,57.3032096
1980032,Søhedenvej,9740,19,10.1662733,57.3031602
1980036,Søhedenvej,9740,43,10.17091,57.302502
1980171,Øster Stokbrovej,9740,32,10.104205,57.325819
1980174,Øster Stokbrovej,9740,79,10.113102,57.327929
1980190,Enghavevej,9740,3,10.0884061,57.2827458
1980192,Enghavevej,9740,4,10.0881844,57.2830048
1980194,Enghavevej,9740,6,10.0876717,57.2830826
1980195,Enghavevej,9740,7,10.0876032,57.2827227
1980197,Enghavevej,9740,8,10.0872705,57.2830798
1980198,Enghavevej,9740,9,10.0871861,57.2828475
1980199,Enghavevej,9740,10,10.0867937,57.2831208
1980200,Enghavevej,9740,12,10.0863681,57.2831586
1980203,Enghavevej,9740,14,10.0856582,57.2832461
1980219,Palnatokevej,9740,2,10.1632229,57.3037447
1980220,Palnatokevej,9740,4,10.1632857,57.3036354
1980222,Palnatokevej,9740,6,10.1634589,57.3034648
1980360,Mustedvej,9740,1,10.168379,57.271526
1980362,Mustedvej,9740,2,10.169321,57.2719612
1980363,Mustedvej,9740,3,10.168975,57.2718957
1980365,Mustedvej,9740,21,10.1682998,57.2744505
1980366,Mustedvej,9740,61,10.1678743,57.2781136
1980368,Mustedvej,9740,63,10.1689228,57.2784701
1980370,Mustedvej,9740,82,10.171377,57.2801791
1980372,Mustedvej,9740,120,10.1695832,57.2849149
1980373,Mustedvej,9740,129,10.1670287,57.2860124
1980375,Mustedvej,9740,160,10.1709645,57.2916869
1980376,Mustedvej,9740,170,10.1691226,57.294173
1980387,Øster Vandkrogvej,9740,10,10.1082135,57.3246542
1980388,Øster Vandkrogvej,9740,29,10.111915,57.323672
1980389,Øster Vandkrogvej,9740,50,10.1134682,57.3214065
1980495,Åkandevej,9740,1,10.1051075,57.3127797
1980498,Åkandevej,9740,2,10.1050309,57.3125278
1980500,Åkandevej,9740,4,10.1052505,57.3125337
1980503,Åkandevej,9740,5,10.1055242,57.3128287
1980505,Åkandevej,9740,7,10.105941,57.3129829
1980507,Åkandevej,9740,8,10.1058523,57.3127582
1980510,Åkandevej,9740,10,10.106298,57.312909
1980512,Åkandevej,9740,11,10.1067704,57.3132789
1980514,Åkandevej,9740,12,10.1067932,57.3130687
1980516,Åkandevej,9740,13,10.1071058,57.3133998
1980517,Åkandevej,9740,15,10.1073067,57.3134619
1980519,Åkandevej,9740,18,10.1075388,57.3133245
1980521,Åkandevej,9740,20,10.1078908,57.3134393
1980631,Benediktevej,9740,14,10.163298,57.271866
1980689,Sterupvej,9740,9,10.0924214,57.2899579
1980690,Sterupvej,9740,15,10.0928688,57.2908927
1980691,Sterupvej,9740,17,10.093201,57.291139
1980694,Sterupvej,9740,18,10.0936194,57.2909696
1980696,Sterupvej,9740,19,10.09332,57.2913304
1980697,Sterupvej,9740,20,10.0937191,57.2912711
1980699,Sterupvej,9740,21,10.0934115,57.2914964
1980701,Sterupvej,9740,22,10.0938385,57.2914371
1980703,Sterupvej,9740,24,10.0939944,57.2916683
1980704,Sterupvej,9740,26,10.0942157,57.2918343
1980706,Sterupvej,9740,27,10.0936767,57.291984
1980708,Sterupvej,9740,28,10.0945756,57.2920712
1980709,Sterupvej,9740,37,10.0948847,57.2928752
1980711,Sterupvej,9740,48,10.0973193,57.2937787
1980712,Sterupvej,9740,63,10.096439,57.295288
1980713,Sterupvej,9740,79,10.0997127,57.2980455
1980714,Sterupvej,9740,111,10.1023998,57.2984056
1980717,Sterupvej,9740,117,10.1031636,57.2995723
1980722,Sterupvej,9740,118,10.1041762,57.2992368
1980723,Sterupvej,9740,127,10.1006924,57.3016156
1980724,Sterupvej,9740,129,10.099673,57.303285
1980725,Sterupvej,9740,199,10.1041262,57.3056646
1980944,Møgelkærvej,9740,40,10.0812905,57.323484
1981057,Bodilvej,9740,1,10.1676267,57.270432
1981058,Bodilvej,9740,2,10.1678682,57.2701897
1981059,Bodilvej,9740,3,10.1680435,57.2704207
1981060,Bodilvej,9740,5,10.1683126,57.2704873
1981061,Bodilvej,9740,6,10.168212,57.2702202
1981077,Koldbrovej,9740,9,10.1782537,57.3245639
1981080,Koldbrovej,9740,36,10.179475,57.3265707
1981081,Koldbrovej,9740,49,10.174388,57.3282788
1981085,Koldbrovej,9740,88,10.1807975,57.3325887
1981086,Koldbrovej,9740,100,10.1805349,57.3347039
1981274,Skansen,9740,3,10.09349,57.2865957
1981295,Hækkensvej,9740,40,10.117154,57.288285
1981296,Hækkensvej,9740,79,10.117987,57.2901947
1981297,Hækkensvej,9740,104,10.1228256,57.2905079
1981962,Lillekærvej,9740,48,10.1066964,57.2961482
1981963,Lillekærvej,9740,56,10.1104281,57.2964197
1981964,Lillekærvej,9740,57,10.1078086,57.2976573
1982031,Korsholtvej,9740,1,10.1666842,57.3216082
1982032,Korsholtvej,9740,15,10.1654359,57.3202218
1982033,Korsholtvej,9740,17,10.1651552,57.3199357
1982036,Korsholtvej,9740,19,10.164988,57.319678
1982045,Korsholtvej,9740,21,10.1652109,57.3194311
1982048,Korsholtvej,9740,24,10.1645409,57.3196633
1982056,Korsholtvej,9740,26,10.1643314,57.319413
1982062,Korsholtvej,9740,28,10.1645168,57.3193247
1982066,Korsholtvej,9740,32,10.164562,57.3189283
1982076,Korsholtvej,9740,34,10.164793,57.318818
1982239,Bonbethvej,9740,20,10.089671,57.272864
1982246,Bonbethvej,9740,40,10.0941038,57.2749086
1982281,Højlandsvej,9740,2,10.0909057,57.2882789
1982282,Højlandsvej,9740,3,10.0910193,57.2880715
1982283,Højlandsvej,9740,5,10.0904392,57.2879894
1982284,Højlandsvej,9740,6,10.0902722,57.2882781
1982285,Højlandsvej,9740,7,10.09008,57.28797
1982286,Højlandsvej,9740,8,10.0896251,57.2881868
1982287,Højlandsvej,9740,9,10.0896756,57.2879193
1982288,Gammel Præstegårdsvej,9740,6,10.0754691,57.2825238
1982289,Gammel Præstegårdsvej,9740,20,10.0759133,57.2846243
1982290,Gammel Præstegårdsvej,9740,39,10.0735841,57.2863806
1982397,Risholmvej,9740,49,10.0459935,57.2905637
1982399,Risholmvej,9740,51,10.0412653,57.2891152
1982401,Risholmvej,9740,69,10.0465112,57.2928948
1982402,Risholmvej,9740,139,10.0476896,57.2999633
1982404,Risholmvej,9740,159,10.0478295,57.302724
1988662,Munkegade,9740,1,10.0860976,57.2815781
1988664,Munkegade,9740,2,10.0865514,57.2814798
1988665,Munkegade,9740,3,10.085978,57.281775
1988668,Munkegade,9740,4,10.0866082,57.2817641
1988670,Munkegade,9740,5,10.0860231,57.2819561
1988673,Munkegade,9740,6,10.0866242,57.2820299
1988676,Munkegade,9740,7,10.086195,57.282135
1988678,Munkegade,9740,8,10.0867639,57.2820315
1988681,Munkegade,9740,9,10.0862382,57.2823176
1988683,Munkegade,9740,10,10.0866783,57.2822565
1988686,Munkegade,9740,11,10.0862764,57.2824849
1988690,Munkegade,9740,12,10.0868461,57.2822557
1988692,Munkegade,9740,13,10.0863137,57.2826918
1988697,Munkegade,9740,14,10.0867533,57.2824878
1988699,Munkegade,9740,15,10.086342,57.2828791
1988704,Munkegade,9740,16,10.0868053,57.2828011
1988819,Lunderhedevej,9740,10,10.0869271,57.2683264
1988820,Lunderhedevej,9740,26,10.0888913,57.2682093
1989071,Øster Hjelmstedvej,9740,51,10.0670541,57.3019357
1989072,Øster Hjelmstedvej,9740,58,10.0671703,57.3053296
1989073,Øster Hjelmstedvej,9740,68,10.0616163,57.3045943
1989074,Øster Hjelmstedvej,9740,77,10.0580432,57.3024709
1989075,Øster Hjelmstedvej,9740,87,10.054298,57.3027657
2052255,Kjølskevej,9740,216,10.1080421,57.2635601
2052256,Kjølskevej,9740,225,10.103782,57.263324
2052262,Kjølskevej,9740,227,10.0981569,57.2635899
2085502,Ledetvej,9740,60,10.1348049,57.2580097
2085503,Ledetvej,9740,84,10.1350828,57.254718
2085831,Hulknøsevej,9740,179,10.0855919,57.2626001
2088535,Nørresidevej,9740,11,10.1626102,57.2628854
2088537,Nørresidevej,9740,16,10.1606233,57.2633506
2088540,Nørresidevej,9740,27,10.1590662,57.2632268
2088604,Meldkærvej,9740,10,10.1650056,57.2591542
2088605,Meldkærvej,9740,41,10.1708181,57.2609834
2088606,Meldkærvej,9740,55,10.1734545,57.2617599
2088607,Meldkærvej,9740,70,10.1830598,57.2602934
2088608,Meldkærvej,9740,160,10.1983899,57.2598844
2088609,Meldkærvej,9740,200,10.2072256,57.2591361
2088610,Meldkærvej,9740,211,10.2118462,57.2605095
2089021,Holmgårdsvej,9740,70,10.1769256,57.249458
2089022,Holmgårdsvej,9740,72,10.180502,57.2490202
2089023,Holmgårdsvej,9740,178,10.1635578,57.2589059
2090921,Vanderskrogvej,9740,33,10.1749693,57.2580654
2090922,Vanderskrogvej,9740,55,10.1810462,57.2564538
2091076,Engsigvej,9740,103,10.149828,57.250964
2091078,Engsigvej,9740,106,10.1497441,57.253268
2091079,Engsigvej,9740,124,10.1443963,57.2529294
2091082,Engsigvej,9740,125,10.1450361,57.2514237
2091083,Engsigvej,9740,144,10.1400913,57.2517362
2095967,Endeltvej,9740,41,10.194087,57.255611
2095968,Endeltvej,9740,49,10.1906485,57.2544897
2095969,Endeltvej,9740,91,10.199652,57.252586
2095970,Endeltvej,9740,149,10.2124279,57.2555719
2095971,Endeltvej,9740,163,10.2126459,57.2521732
2095972,Endeltvej,9740,171,10.216385,57.2531808
2099222,Kræmmergårdsvej,9740,2,10.1632233,57.2610599
2099223,Kræmmergårdsvej,9740,3,10.1628041,57.2608567
2099224,Kræmmergårdsvej,9740,5,10.1621958,57.2609569
2099225,Kræmmergårdsvej,9740,10,10.1617969,57.2612475
2099226,Kræmmergårdsvej,9740,14,10.1589307,57.2614365
2099288,Brøndbakvej,9740,41,10.2070682,57.2805798
2099289,Brøndbakvej,9740,51,10.2068443,57.2788666
2099290,Brøndbakvej,9740,83,10.2051655,57.2737848
2099291,Brøndbakvej,9740,115,10.2107943,57.2686177
2099296,Brøndbakvej,9740,140,10.2049952,57.2646133
2099298,Brøndbakvej,9740,156,10.2078263,57.2628555
2119825,Engbovej,9740,32,10.0713859,57.3269602
2119832,Engbovej,9740,39,10.0700029,57.3263475
2119835,Engbovej,9740,80,10.0673942,57.3298873
2120941,Lyøgade,9740,1,10.09543,57.288037
2120952,Lyøgade,9740,2,10.0947858,57.2879854
2120958,Lyøgade,9740,3,10.0953166,57.2877231
2120962,Lyøgade,9740,4,10.094969,57.287736
2120964,Lyøgade,9740,5,10.095417,57.287558
2120965,Lyøgade,9740,6,10.095014,57.287525
2120969,Lyøgade,9740,7,10.0954746,57.2872578
2120971,Lyøgade,9740,8,10.094853,57.287273
2120980,Lyøgade,9740,9,10.0956145,57.2870621
2120984,Lyøgade,9740,10,10.0950925,57.2870111
2121018,Læsøgade,9740,1,10.097023,57.288044
2121021,Læsøgade,9740,2,10.09652,57.287955
2121037,Læsøgade,9740,3,10.096826,57.287752
2121039,Læsøgade,9740,4,10.09656,57.287753
2121042,Læsøgade,9740,5,10.096823,57.287528
2121048,Læsøgade,9740,6,10.096558,57.287529
2121052,Læsøgade,9740,7,10.09682,57.287288
2121057,Læsøgade,9740,8,10.0964213,57.2872357
2121060,Læsøgade,9740,9,10.09671,57.287134
2121074,Læsøgade,9740,10,10.096528,57.287135
2121581,Myrtevej,9740,1,10.1046207,57.3126807
2121602,Myrtevej,9740,3,10.10468,57.3127915
2121643,Myrtevej,9740,4,10.1050325,57.3129934
2121661,Myrtevej,9740,5,10.1047854,57.3130887
2121667,Myrtevej,9740,6,10.105053,57.313091
2121701,Myrtevej,9740,7,10.1048918,57.3133371
2121708,Myrtevej,9740,8,10.1051789,57.3132407
2121749,Myrtevej,9740,9,10.1050105,57.313497
2122995,Sejerøgade,9740,1,10.103641,57.286525
2122997,Sejerøgade,9740,2,10.10434,57.286771
2122999,Sejerøgade,9740,10,10.102742,57.286957
2123024,Smuksdalvej,9740,36,10.1082475,57.2834213
2141546,Bastholmvej,9740,25,10.0971494,57.3263916
2153671,Øster Stokbrovej,9740,1,10.1001429,57.3284887
2153676,Øster Stokbrovej,9740,15,10.1022708,57.3277657
2213068,Gammel Klæstrupvej,9740,7A,10.0529252,57.2832206
2213069,Sønder Ringgade,9740,81,10.09461,57.28204
2213070,Sønder Ringgade,9740,100,10.097982,57.280831
2235385,Palægade,9740,7A,10.092916,57.285252
2235386,Palægade,9740,7B,10.092787,57.285262
2235422,Agnetevej,9740,18,10.164626,57.269206
2235423,Agnetevej,9740,40,10.163,57.265644
2235431,Terpetvej,9740,106,10.116062,57.329542
2235444,Hjulskovvej,9740,210,10.158141,57.301526
2235453,Kvishøjvej,9740,65A,10.085797,57.274256
2235460,Mandøgade,9740,13,10.104509,57.288412
2235509,Krattetvej,9740,49,10.133796,57.321062
2235562,Søhedenvej,9740,10A,10.164774,57.303461
2255886,Dårbakvej,9740,1,10.15437,57.31772
2255887,Dårbakvej,9740,7,10.15481,57.316107
2255888,Dårbakvej,9740,8,10.153769,57.314898
2255889,Dårbakvej,9740,14,10.15398,57.312957
2255902,Mylundvej,9740,65,10.156349,57.311861
