idx,street,postcode,housenumber,lon,lat
853051,Plantørvej,9881,1,10.2343829,57.6026032
853052,Plantørvej,9881,2,10.2313942,57.5879158
853053,Plantørvej,9881,3,10.236325,57.6030831
853054,Plantørvej,9881,7,10.2475112,57.6080023
899699,Skagensvej,9881,34,10.1462324,57.5682928
899700,Skagensvej,9881,34B,10.1527583,57.5751218
899701,Skagensvej,9881,34C,10.1527485,57.5714898
899702,Skagensvej,9881,36,10.1573694,57.5758703
899703,Skagensvej,9881,36C,10.1569878,57.571433
899704,Skagensvej,9881,38,10.163053,57.576697
899705,Skagensvej,9881,40,10.1655842,57.5749209
899706,Skagensvej,9881,42A,10.1685069,57.5764795
899707,Skagensvej,9881,42B,10.1701949,57.5726842
899708,Skagensvej,9881,44,10.1725514,57.5759541
899709,Skagensvej,9881,45,10.1380482,57.573321
899710,Skagensvej,9881,46,10.1768443,57.5763487
899711,Skagensvej,9881,47,10.1390345,57.5735932
899712,Skagensvej,9881,49,10.1462067,57.574932
899713,Skagensvej,9881,50,10.18013,57.577346
899714,Skagensvej,9881,51,10.147482,57.5747903
899715,Skagensvej,9881,52,10.1828823,57.580518
899716,Skagensvej,9881,53A,10.1596036,57.5765423
899717,Skagensvej,9881,53B,10.1632842,57.577836
899718,Skagensvej,9881,54,10.1821664,57.5809418
899719,Skagensvej,9881,55A,10.1652243,57.577467
899720,Skagensvej,9881,55B,10.1674101,57.5778558
899721,Skagensvej,9881,56,10.1826106,57.5808329
899722,Skagensvej,9881,57,10.1774518,57.5807766
899723,Skagensvej,9881,58,10.1829344,57.5810667
899724,Skagensvej,9881,59,10.181996,57.5825243
899725,Skagensvej,9881,61,10.1827704,57.581712
899726,Skagensvej,9881,65,10.1840758,57.5814199
899727,Skagensvej,9881,66,10.1850377,57.581139
899728,Skagensvej,9881,67A,10.184101,57.5814528
899729,Skagensvej,9881,67B,10.1841229,57.581491
899730,Skagensvej,9881,68,10.185854,57.5810679
899731,Skagensvej,9881,69,10.1845753,57.5814786
899732,Skagensvej,9881,71,10.185041,57.581411
899733,Skagensvej,9881,73,10.1853296,57.5814129
899734,Skagensvej,9881,74,10.1939196,57.5803106
899735,Skagensvej,9881,75,10.1856181,57.5814144
899736,Skagensvej,9881,76,10.2006365,57.5810338
899737,Skagensvej,9881,77,10.1982135,57.5817037
899738,Skagensvej,9881,78,10.2020998,57.5812381
899739,Skagensvej,9881,79,10.2014168,57.5816624
899740,Skagensvej,9881,80,10.216115,57.58071
899741,Skagensvej,9881,81,10.2063738,57.5837776
899742,Skagensvej,9881,82,10.2259329,57.5847679
899743,Skagensvej,9881,83,10.2140902,57.5827766
899744,Skagensvej,9881,84,10.2320891,57.5869217
899745,Skagensvej,9881,85,10.2166904,57.5843531
899746,Skagensvej,9881,86,10.2336263,57.5849133
899747,Skagensvej,9881,87,10.2181118,57.583259
899748,Skagensvej,9881,88,10.240484,57.5871346
899749,Skagensvej,9881,89A,10.238121,57.587366
899750,Skagensvej,9881,90,10.2440975,57.5870262
899751,Skagensvej,9881,91,10.2201757,57.5848815
899752,Skagensvej,9881,92,10.2480011,57.5872481
899753,Skagensvej,9881,93,10.2295383,57.5870924
899754,Skagensvej,9881,94A,10.2495528,57.5873451
899755,Skagensvej,9881,94B,10.2501045,57.5871939
899756,Skagensvej,9881,95,10.2794339,57.5885266
899757,Skagensvej,9881,96,10.2503772,57.5848305
899758,Skagensvej,9881,97,10.2809221,57.5884875
899759,Skagensvej,9881,98,10.2522069,57.5842687
899760,Skagensvej,9881,98B,10.2529841,57.5841551
899761,Skagensvej,9881,99,10.2963532,57.5946667
899762,Skagensvej,9881,100,10.2569275,57.5843281
899763,Skagensvej,9881,101,10.2987917,57.5961636
899764,Skagensvej,9881,102,10.2574585,57.5862231
899765,Skagensvej,9881,103,10.3121051,57.5989386
899766,Skagensvej,9881,104,10.2624541,57.5876189
899767,Skagensvej,9881,105,10.3131718,57.600014
899768,Skagensvej,9881,106A,10.273013,57.5869254
899769,Skagensvej,9881,106B,10.2725766,57.5869347
899770,Skagensvej,9881,107,10.316022,57.6045824
899771,Skagensvej,9881,108,10.2774382,57.5879576
899772,Skagensvej,9881,109,10.319239,57.6018832
899773,Skagensvej,9881,110,10.2803656,57.5877118
899774,Skagensvej,9881,111,10.3255666,57.6043273
899775,Skagensvej,9881,112,10.2814735,57.5878877
899776,Skagensvej,9881,114,10.280737,57.5856146
899777,Skagensvej,9881,116,10.302777,57.591821
899778,Skagensvej,9881,118A,10.3004794,57.5935836
899779,Skagensvej,9881,118B,10.3003099,57.5937669
899780,Skagensvej,9881,119A,10.3300494,57.6050647
899781,Skagensvej,9881,120,10.3044344,57.5953094
899782,Skagensvej,9881,122,10.3064872,57.595504
899783,Skagensvej,9881,126,10.3348972,57.6049524
901022,Hirtshalsvej,9881,1,10.183877,57.545554
901023,Hirtshalsvej,9881,2,10.188557,57.544749
901024,Hirtshalsvej,9881,3,10.178644,57.545028
901025,Hirtshalsvej,9881,4,10.183938,57.550533
901026,Hirtshalsvej,9881,5,10.182506,57.545883
901027,Hirtshalsvej,9881,7,10.179669,57.547454
901028,Hirtshalsvej,9881,9,10.175026,57.546803
901029,Hirtshalsvej,9881,10,10.1813554,57.550193
901030,Hirtshalsvej,9881,11,10.17437,57.549161
901031,Hirtshalsvej,9881,12,10.179463,57.550841
901032,Hirtshalsvej,9881,13,10.173079,57.548417
901033,Hirtshalsvej,9881,14,10.177611,57.548922
901034,Hirtshalsvej,9881,15,10.167088,57.551066
901035,Hirtshalsvej,9881,17,10.158637,57.552549
901036,Hirtshalsvej,9881,19,10.152753,57.553363
901037,Hirtshalsvej,9881,20,10.162057,57.55755
901038,Hirtshalsvej,9881,21,10.150234,57.55398
901039,Hirtshalsvej,9881,22,10.157742,57.554998
901040,Hirtshalsvej,9881,24,10.156765,57.555587
906862,Skramvej,9881,1,10.2900846,57.5974803
906863,Skramvej,9881,2,10.2855622,57.5991706
906864,Skramvej,9881,4,10.279373,57.599125
906865,Skramvej,9881,6,10.2759634,57.5985348
906866,Skramvej,9881,8,10.2743553,57.5989486
906867,Løgtenvej,9881,1,10.1899664,57.584541
906868,Løgtenvej,9881,2,10.1891313,57.5845432
906869,Løgtenvej,9881,3,10.1903911,57.5845443
906870,Løgtenvej,9881,4,10.1892748,57.5841224
906871,Løgtenvej,9881,5,10.1907421,57.5846128
906872,Løgtenvej,9881,6,10.1893069,57.5839727
906873,Løgtenvej,9881,7,10.1909168,57.5842603
906874,Løgtenvej,9881,8,10.1894739,57.5836317
906875,Løgtenvej,9881,9,10.1903424,57.5842649
906876,Løgtenvej,9881,11,10.1899048,57.584249
906877,Løgtenvej,9881,12,10.1898754,57.5830394
906878,Løgtenvej,9881,13,10.1898058,57.5839058
906879,Løgtenvej,9881,14,10.1900557,57.5824257
906880,Løgtenvej,9881,15,10.1903559,57.583832
906881,Løgtenvej,9881,16,10.1901936,57.5819561
906882,Løgtenvej,9881,16A,10.190891,57.582443
906883,Løgtenvej,9881,17,10.1907811,57.5838678
906884,Løgtenvej,9881,19,10.1912175,57.5838854
906885,Løgtenvej,9881,21,10.19132,57.583577
906886,Løgtenvej,9881,23,10.1909592,57.583584
906887,Løgtenvej,9881,25,10.1905353,57.5835919
906888,Løgtenvej,9881,27,10.1900944,57.5835676
906889,Løgtenvej,9881,29,10.1903567,57.5832175
906890,Løgtenvej,9881,31,10.1905041,57.5832273
906891,Løgtenvej,9881,33,10.190659,57.583237
906892,Løgtenvej,9881,35,10.1907996,57.5832469
906893,Løgtenvej,9881,37,10.1909373,57.5832559
906894,Løgtenvej,9881,39,10.1910694,57.5832647
906895,Løgtenvej,9881,41,10.1914797,57.5833498
906896,Løgtenvej,9881,43,10.191494,57.5832859
906897,Løgtenvej,9881,45,10.1915115,57.5832101
906898,Løgtenvej,9881,47,10.1915429,57.5830708
906899,Løgtenvej,9881,49,10.1915586,57.5830011
906900,Løgtenvej,9881,51,10.1915746,57.5829274
906901,Løgtenvej,9881,53,10.1911356,57.582981
906902,Løgtenvej,9881,55,10.1910065,57.5829726
906903,Løgtenvej,9881,57,10.1908675,57.5829636
906904,Løgtenvej,9881,59,10.190714,57.582953
906905,Løgtenvej,9881,61,10.190562,57.5829436
906906,Løgtenvej,9881,63,10.1904113,57.5829337
906907,Åbakkevej,9881,1,10.1895992,57.5833427
906908,Åbakkevej,9881,3,10.1892129,57.5831932
906909,Åbakkevej,9881,4,10.189015,57.583415
906910,Åbakkevej,9881,5,10.1889765,57.5830131
906911,Åbakkevej,9881,6,10.1887492,57.5832846
906912,Åbakkevej,9881,7,10.1886689,57.5828085
906913,Åbakkevej,9881,8,10.1885341,57.5830933
906914,Åbakkevej,9881,9,10.1884881,57.5826471
906915,Åbakkevej,9881,10,10.1882092,57.5829023
906916,Åbakkevej,9881,11,10.1882094,57.582486
906917,Åbakkevej,9881,12,10.1879414,57.5827166
906918,Åbakkevej,9881,13,10.187961,57.582283
906919,Åbakkevej,9881,14,10.1876548,57.5825334
906920,Sitkavej,9881,3,10.186124,57.584248
906921,Sitkavej,9881,4,10.1864243,57.5844151
906922,Sitkavej,9881,5,10.185732,57.5841788
906923,Sitkavej,9881,5A,10.185379,57.5839956
906924,Sitkavej,9881,6,10.1861592,57.5844013
906925,Sitkavej,9881,7,10.1851322,57.5838131
906926,Sitkavej,9881,8,10.1856488,57.5844623
906927,Sitkavej,9881,9,10.1850849,57.5841589
906928,Sitkavej,9881,10,10.1853369,57.5844539
906929,Sitkavej,9881,12,10.1850336,57.5844353
906930,Gammel Skagensvej,9881,3,10.188667,57.585067
906931,Gammel Skagensvej,9881,6,10.1887434,57.5849078
906932,Gammel Skagensvej,9881,7,10.1890579,57.5850945
906933,Gammel Skagensvej,9881,8,10.1890453,57.5849337
906934,Gammel Skagensvej,9881,9,10.1893717,57.5851146
906935,Gammel Skagensvej,9881,10,10.189383,57.5849707
906936,Gammel Skagensvej,9881,11,10.1892865,57.5853741
906937,Gammel Skagensvej,9881,12,10.190121,57.584933
906938,Gammel Skagensvej,9881,13,10.1897307,57.5851687
906939,Gammel Skagensvej,9881,14,10.1905446,57.5848908
906940,Gammel Skagensvej,9881,15,10.189994,57.5852007
906941,Gammel Skagensvej,9881,17,10.1903163,57.5852954
906942,Gammel Skagensvej,9881,19,10.1906867,57.5852287
906943,Gammel Skagensvej,9881,21,10.1909923,57.5852431
906944,Gammel Skagensvej,9881,23,10.1913936,57.5852393
906945,Gammel Skagensvej,9881,25,10.1917649,57.5852588
906946,Gammel Skagensvej,9881,27,10.1921367,57.5852323
906947,Nøddevænget,9881,1,10.1945678,57.5843306
906948,Nøddevænget,9881,2,10.1935101,57.584554
906949,Nøddevænget,9881,3,10.1939617,57.5843376
906950,Nøddevænget,9881,5,10.1935565,57.5842146
906951,Tannisbugtvej,9881,4,10.1841884,57.5817015
906952,Tannisbugtvej,9881,6,10.1844035,57.5818816
906953,Tannisbugtvej,9881,8,10.1852114,57.5818459
906954,Tannisbugtvej,9881,9,10.1852894,57.5831225
906955,Tannisbugtvej,9881,10,10.1846241,57.5820306
906956,Tannisbugtvej,9881,13,10.185204,57.5835011
906957,Tannisbugtvej,9881,14,10.1856021,57.5829818
906958,Tannisbugtvej,9881,15,10.1858104,57.583518
906959,Tannisbugtvej,9881,16A,10.186725,57.583321
906960,Tannisbugtvej,9881,16B,10.186986,57.583156
906961,Tannisbugtvej,9881,17,10.1861045,57.5837484
906962,Tannisbugtvej,9881,18,10.1859715,57.5831887
906963,Tannisbugtvej,9881,19,10.1862822,57.5838564
906964,Tannisbugtvej,9881,20,10.1863294,57.5834319
906965,Tannisbugtvej,9881,21,10.1864835,57.5840011
906966,Tannisbugtvej,9881,22,10.1866655,57.5837634
906967,Tannisbugtvej,9881,23,10.186723,57.5841391
906968,Tannisbugtvej,9881,24A,10.1869571,57.5839686
906969,Tannisbugtvej,9881,24B,10.1872881,57.5841825
906970,Tannisbugtvej,9881,24C,10.1874078,57.5837886
906971,Tannisbugtvej,9881,24D,10.187505,57.583558
906972,Tannisbugtvej,9881,24E,10.187523,57.5834696
906973,Tannisbugtvej,9881,24F,10.1878843,57.5835679
906974,Tannisbugtvej,9881,24G,10.1880169,57.5835148
906975,Tannisbugtvej,9881,32,10.1880149,57.5841997
906976,Tannisbugtvej,9881,34,10.1883002,57.5843457
906977,Tannisbugtvej,9881,35,10.1869945,57.5843272
906978,Tannisbugtvej,9881,36,10.1879276,57.5846162
906979,Tannisbugtvej,9881,36A,10.1880146,57.5846033
906980,Tannisbugtvej,9881,36B,10.188211,57.5845892
906981,Tannisbugtvej,9881,36C,10.1883241,57.5845965
906982,Tannisbugtvej,9881,37,10.1871894,57.5844742
906983,Tannisbugtvej,9881,38,10.1881126,57.5847968
906984,Tannisbugtvej,9881,39,10.1874203,57.5846272
906985,Tannisbugtvej,9881,40,10.188092,57.585008
906986,Tannisbugtvej,9881,41,10.1875966,57.5847582
906987,Tannisbugtvej,9881,42,10.1880816,57.585107
906988,Tannisbugtvej,9881,44,10.1880455,57.5852627
906989,Tannisbugtvej,9881,46,10.1885789,57.5853304
906990,Tannisbugtvej,9881,48,10.1880897,57.5854675
906991,Tannisbugtvej,9881,49,10.1877738,57.5853704
906992,Tannisbugtvej,9881,50,10.1880713,57.5856013
906993,Tannisbugtvej,9881,51,10.1876352,57.5858314
906994,Tannisbugtvej,9881,52,10.1881785,57.585877
906995,Tannisbugtvej,9881,53,10.1876299,57.5861011
906996,Tannisbugtvej,9881,55,10.1875662,57.586336
906997,Tannisbugtvej,9881,56,10.1881134,57.5862184
906998,Tannisbugtvej,9881,57,10.1870618,57.5865885
906999,Tannisbugtvej,9881,58,10.1879639,57.5868758
907000,Tannisbugtvej,9881,59,10.187585,57.586567
907001,Tannisbugtvej,9881,60,10.1879132,57.5871122
907002,Tannisbugtvej,9881,61A,10.1874305,57.5867459
907003,Tannisbugtvej,9881,61B,10.1872765,57.5868487
907004,Tannisbugtvej,9881,62,10.1879719,57.5874972
907005,Tannisbugtvej,9881,63,10.187326,57.587162
907006,Tannisbugtvej,9881,64,10.1879426,57.5877498
907007,Tannisbugtvej,9881,65,10.1873435,57.5875144
907008,Tannisbugtvej,9881,66,10.1879927,57.5880309
907009,Tannisbugtvej,9881,67,10.1873611,57.5878151
907010,Tannisbugtvej,9881,68,10.1879141,57.5882549
907011,Tannisbugtvej,9881,69,10.1869506,57.5878486
907012,Tannisbugtvej,9881,70,10.1879345,57.5885366
907013,Tannisbugtvej,9881,71,10.1869348,57.5882248
907014,Tannisbugtvej,9881,72,10.187918,57.5887698
907015,Tannisbugtvej,9881,73,10.187407,57.588147
907016,Tannisbugtvej,9881,74,10.1878208,57.5892206
907017,Tannisbugtvej,9881,75,10.1873957,57.5883291
907018,Tannisbugtvej,9881,76,10.1877463,57.5894175
907019,Tannisbugtvej,9881,77,10.1867375,57.5885742
907020,Tannisbugtvej,9881,78,10.1882039,57.5895345
907021,Tannisbugtvej,9881,80,10.1876415,57.5896521
907022,Tannisbugtvej,9881,81,10.1867796,57.5891917
907023,Tannisbugtvej,9881,82,10.1874262,57.5899741
907024,Tannisbugtvej,9881,83,10.1873457,57.5886451
907025,Tannisbugtvej,9881,84,10.1873388,57.590155
907026,Tannisbugtvej,9881,85,10.187358,57.588852
907027,Tannisbugtvej,9881,86,10.1888428,57.5904708
907028,Tannisbugtvej,9881,87,10.1871024,57.5891731
907029,Tannisbugtvej,9881,88,10.187167,57.5903674
907030,Tannisbugtvej,9881,90,10.1871089,57.590594
907031,Tannisbugtvej,9881,90A,10.1870072,57.5904564
907032,Tannisbugtvej,9881,90B,10.18696,57.5905066
907033,Tannisbugtvej,9881,90C,10.1869279,57.5905457
907034,Tannisbugtvej,9881,90D,10.1869463,57.5905994
907035,Tannisbugtvej,9881,90E,10.1869101,57.5906441
907036,Tannisbugtvej,9881,91,10.1871959,57.5893979
907037,Tannisbugtvej,9881,93,10.1866909,57.5896265
907038,Tannisbugtvej,9881,94,10.1868008,57.5908134
907039,Tannisbugtvej,9881,95A,10.1868663,57.5900712
907040,Tannisbugtvej,9881,96A,10.1864612,57.5912122
907041,Tannisbugtvej,9881,96B,10.1870489,57.5916568
907042,Tannisbugtvej,9881,96C,10.186596,57.5916199
907043,Tannisbugtvej,9881,97,10.1862368,57.5902313
907044,Tannisbugtvej,9881,98,10.1862586,57.591455
907045,Tannisbugtvej,9881,100,10.1859873,57.591741
907046,Tannisbugtvej,9881,102,10.186304,57.59181
907047,Tannisbugtvej,9881,103,10.1861154,57.591066
907048,Tannisbugtvej,9881,104,10.18678,57.591939
907049,Tannisbugtvej,9881,105,10.1858264,57.591343
907050,Tannisbugtvej,9881,106,10.1865986,57.59211
907051,Tannisbugtvej,9881,107,10.1858012,57.5914723
907052,Tannisbugtvej,9881,108,10.1864991,57.5922733
907053,Tannisbugtvej,9881,109,10.1855723,57.5916167
907054,Tannisbugtvej,9881,110,10.1863564,57.5923952
907055,Tannisbugtvej,9881,111,10.1854116,57.5918489
907056,Tannisbugtvej,9881,112,10.1860163,57.5919846
907057,Tannisbugtvej,9881,113,10.1852628,57.5920464
907058,Tannisbugtvej,9881,114,10.1858218,57.5921442
907059,Tannisbugtvej,9881,115,10.1851643,57.5922835
907060,Tannisbugtvej,9881,116,10.1856399,57.5923601
907061,Tannisbugtvej,9881,117,10.1847492,57.5925823
907062,Tannisbugtvej,9881,118,10.1855846,57.5925786
907063,Tannisbugtvej,9881,119,10.184807,57.5927998
907064,Tannisbugtvej,9881,120,10.1853793,57.5928389
907065,Tannisbugtvej,9881,121,10.1830831,57.5930351
907066,Tannisbugtvej,9881,123A,10.1843527,57.5930933
907067,Tannisbugtvej,9881,123B,10.1835122,57.5934042
907068,Tannisbugtvej,9881,123C,10.1838961,57.5935432
907069,Tannisbugtvej,9881,123D,10.1837287,57.5929166
907070,Tannisbugtvej,9881,123E,10.1827985,57.5937034
907071,Tannisbugtvej,9881,124,10.184517,57.5948547
907072,Tannisbugtvej,9881,125B,10.1835442,57.5950605
907073,Tannisbugtvej,9881,125C,10.1827426,57.5954133
907074,Tannisbugtvej,9881,127,10.181883,57.595673
907075,Tannisbugtvej,9881,129,10.1817408,57.5957306
907076,Åbovej,9881,4,10.187265,57.5851397
907077,Åbovej,9881,5,10.1869917,57.5849026
907078,Åbovej,9881,6,10.1869562,57.5850491
907079,Åbovej,9881,7,10.1867113,57.584804
907080,Åbovej,9881,8,10.1867627,57.5855114
907081,Åbovej,9881,11,10.186054,57.5849262
907082,Åbovej,9881,14,10.1858845,57.5852936
907083,Åbovej,9881,15,10.1854351,57.5847772
907084,Åbovej,9881,17,10.1845321,57.584037
907085,Åbovej,9881,18,10.1839188,57.5850779
907086,Markedsvej,9881,2,10.1892838,57.5843451
907087,Markedsvej,9881,3,10.1888741,57.584005
907088,Markedsvej,9881,5,10.188676,57.5836636
907089,Markedsvej,9881,6,10.1882867,57.5839228
907090,Markedsvej,9881,7,10.1886596,57.5835671
907091,Markedsvej,9881,8,10.1883777,57.5839861
907092,Markedsvej,9881,10,10.188316,57.584112
907093,Markedsvej,9881,12,10.1884129,57.5841807
907094,Markedsvej,9881,14,10.1878905,57.5838587
907095,Markedsvej,9881,16,10.1880757,57.5837822
907096,Markedsvej,9881,18,10.1880709,57.58367
907097,Markedsvej,9881,20,10.1882522,57.5835912
907098,Munkevænget,9881,1,10.1862096,57.5803533
907099,Munkevænget,9881,2,10.186227,57.5805631
907100,Munkevænget,9881,3,10.1857171,57.5803285
907101,Munkevænget,9881,4,10.18576,57.580583
907102,Munkevænget,9881,5,10.1852396,57.5803193
907103,Munkevænget,9881,6,10.1851835,57.580567
907104,Munkebakken,9881,1,10.1867115,57.5808373
907105,Munkebakken,9881,2,10.186934,57.580583
907106,Munkebakken,9881,3,10.1870965,57.5808702
907107,Munkebakken,9881,4,10.1874008,57.5805829
907108,Munkebakken,9881,5,10.1873841,57.5808646
907109,Munkebakken,9881,6,10.1880343,57.5806561
907110,Munkebakken,9881,7,10.187648,57.5808268
907111,Bindslevvej,9881,1,10.1840641,57.5808596
907112,Bindslevvej,9881,1A,10.1845068,57.5811669
907113,Bindslevvej,9881,3,10.1843825,57.5805788
907114,Bindslevvej,9881,4,10.1836397,57.5806968
907115,Bindslevvej,9881,5,10.1844792,57.5804127
907116,Bindslevvej,9881,6,10.1838364,57.5804071
907117,Bindslevvej,9881,7,10.1845452,57.5802553
907118,Bindslevvej,9881,8,10.183274,57.580178
907119,Bindslevvej,9881,9,10.184648,57.5800927
907120,Bindslevvej,9881,11,10.1861741,57.5801069
907121,Bindslevvej,9881,12,10.1841745,57.5801129
907122,Bindslevvej,9881,13,10.1858314,57.5800439
907123,Bindslevvej,9881,14,10.1843319,57.5799281
907124,Bindslevvej,9881,15,10.1855338,57.5799893
907125,Bindslevvej,9881,16,10.184411,57.5798101
907126,Bindslevvej,9881,17,10.1852822,57.5798862
907127,Bindslevvej,9881,18,10.1841092,57.5797209
907128,Bindslevvej,9881,19,10.1849792,57.5798434
907129,Bindslevvej,9881,20,10.1839008,57.579675
907130,Bindslevvej,9881,21,10.1847464,57.5798597
907131,Bindslevvej,9881,22A,10.1834737,57.5796033
907132,Bindslevvej,9881,22B,10.1833245,57.5799404
907133,Bindslevvej,9881,23,10.184932,57.579618
907134,Bindslevvej,9881,24,10.1845731,57.5796165
907135,Bindslevvej,9881,25,10.1850641,57.5795079
907136,Bindslevvej,9881,26,10.1846683,57.5794258
907137,Bindslevvej,9881,27,10.1852939,57.5794065
907138,Bindslevvej,9881,28,10.185093,57.5791904
907139,Bindslevvej,9881,29A,10.185495,57.579275
907140,Bindslevvej,9881,29B,10.1860847,57.5795232
907141,Bindslevvej,9881,29C,10.1861291,57.5792619
907142,Bindslevvej,9881,30,10.1853788,57.5790024
907143,Bindslevvej,9881,31,10.1860049,57.5790848
907144,Bindslevvej,9881,32,10.1856284,57.578897
907145,Bindslevvej,9881,33,10.186259,57.578929
907146,Bindslevvej,9881,34,10.1858985,57.5787654
907147,Bindslevvej,9881,35,10.1868147,57.5787246
907148,Bindslevvej,9881,36,10.1861883,57.5786293
907149,Bindslevvej,9881,38,10.1864648,57.5784955
907150,Bindslevvej,9881,40,10.1867371,57.5783274
907151,Bindslevvej,9881,41,10.1891672,57.5755277
907152,Bindslevvej,9881,42,10.1868773,57.5781608
907153,Bindslevvej,9881,43,10.1889757,57.5750233
907154,Bindslevvej,9881,44,10.1868821,57.5779917
907155,Bindslevvej,9881,45A,10.1898478,57.5746009
907156,Bindslevvej,9881,45B,10.1904464,57.5742133
907157,Bindslevvej,9881,46,10.1871801,57.5778218
907158,Bindslevvej,9881,47,10.1895388,57.5721824
907159,Bindslevvej,9881,49,10.187504,57.567462
907160,Bindslevvej,9881,50,10.1873332,57.5775114
907161,Bindslevvej,9881,50A,10.1876911,57.5772036
907162,Bindslevvej,9881,51A,10.1873974,57.5672628
907163,Bindslevvej,9881,51B,10.1874875,57.5671786
907164,Bindslevvej,9881,53,10.1908027,57.5632614
907165,Bindslevvej,9881,54,10.1872461,57.5758585
907166,Bindslevvej,9881,55,10.1882753,57.5602583
907167,Bindslevvej,9881,57,10.188267,57.5581685
907168,Bindslevvej,9881,60,10.1867275,57.5676906
907169,Bindslevvej,9881,62,10.183332,57.5647194
907170,Bindslevvej,9881,64,10.1825527,57.5636343
907171,Bindslevvej,9881,66,10.1840921,57.5535321
907172,Bindslevvej,9881,68,10.1873068,57.5532869
1540931,Rønholtvej,9881,1,10.2032645,57.5524331
1540933,Rønholtvej,9881,2,10.2046808,57.5530383
1540934,Rønholtvej,9881,3,10.1994585,57.553903
1540935,Rønholtvej,9881,4,10.2014595,57.5547148
1541060,Præstevejen,9881,1A,10.2268449,57.5820867
1541063,Præstevejen,9881,1B,10.2266981,57.5817807
1541066,Præstevejen,9881,2A,10.2182411,57.5818419
1541067,Præstevejen,9881,2B,10.2211159,57.581292
1541069,Præstevejen,9881,3,10.2306592,57.580314
1541071,Præstevejen,9881,3B,10.2313459,57.5819611
1541072,Præstevejen,9881,4,10.228053,57.579539
1541075,Præstevejen,9881,5A,10.2372199,57.5791212
1541076,Præstevejen,9881,5B,10.2361673,57.5765927
1541078,Præstevejen,9881,6,10.2298094,57.5778314
1541079,Præstevejen,9881,7,10.2393082,57.577834
1541081,Præstevejen,9881,8,10.2780243,57.572022
1541083,Præstevejen,9881,9,10.2498968,57.5750142
1541085,Præstevejen,9881,11,10.2543603,57.5785598
1541087,Præstevejen,9881,15,10.2610304,57.5738182
1542319,Sellebjergvej,9881,2,10.1982288,57.5376151
1542320,Sellebjergvej,9881,3,10.1980196,57.538171
1542321,Sellebjergvej,9881,4,10.1984605,57.5374322
1542322,Sellebjergvej,9881,5,10.198226,57.538049
1542323,Sellebjergvej,9881,6,10.1986824,57.5372846
1542324,Sellebjergvej,9881,7,10.1983516,57.5379295
1542325,Sellebjergvej,9881,8,10.1989928,57.5371166
1542326,Sellebjergvej,9881,9,10.1987522,57.5382173
1542327,Sellebjergvej,9881,10,10.1990129,57.536976
1542328,Sellebjergvej,9881,11,10.198983,57.538071
1542329,Sellebjergvej,9881,12,10.199332,57.536757
1542330,Sellebjergvej,9881,13,10.1986022,57.537817
1542331,Sellebjergvej,9881,14,10.1996364,57.5366326
1542332,Sellebjergvej,9881,15,10.1988089,57.5376767
1542333,Sellebjergvej,9881,16,10.1998174,57.536561
1542335,Sellebjergvej,9881,17,10.1989863,57.5375083
1542337,Sellebjergvej,9881,18,10.1998766,57.5363896
1542338,Sellebjergvej,9881,19,10.1991269,57.5373573
1542341,Sellebjergvej,9881,20,10.2005108,57.536077
1542342,Sellebjergvej,9881,21,10.1995671,57.5373449
1542343,Sellebjergvej,9881,22,10.2010877,57.5354652
1542345,Sellebjergvej,9881,23,10.1996273,57.5372063
1542347,Sellebjergvej,9881,24,10.2041955,57.533017
1542349,Sellebjergvej,9881,25,10.1999826,57.5368727
1542350,Sellebjergvej,9881,26,10.2063023,57.5317481
1542352,Sellebjergvej,9881,28,10.213108,57.5220775
1542354,Sellebjergvej,9881,29,10.2003269,57.5367292
1542355,Sellebjergvej,9881,31,10.2009291,57.5367613
1542357,Sellebjergvej,9881,33,10.2006549,57.5365506
1542359,Sellebjergvej,9881,35,10.2008517,57.5362705
1542361,Sellebjergvej,9881,37,10.2116295,57.5300026
1542363,Sellebjergvej,9881,41,10.2133573,57.5257072
1542367,Sellebjergvej,9881,43,10.213687,57.525383
1542370,Sellebjergvej,9881,45,10.2154091,57.5224042
1542373,Sellebjergvej,9881,47,10.2156713,57.5224056
1543269,Lykkegårdsvej,9881,2A,10.2036948,57.5414123
1543271,Lykkegårdsvej,9881,2B,10.2033976,57.5414441
1543272,Lykkegårdsvej,9881,2C,10.2033716,57.5413571
1543274,Lykkegårdsvej,9881,2D,10.2033487,57.5412799
1543275,Lykkegårdsvej,9881,2E,10.2033254,57.5412016
1543276,Lykkegårdsvej,9881,2F,10.2036247,57.5411787
1543277,Lykkegårdsvej,9881,3,10.2041345,57.5409088
1543278,Lykkegårdsvej,9881,5,10.2039545,57.540713
1543279,Lykkegårdsvej,9881,6,10.2035459,57.5409921
1543280,Lykkegårdsvej,9881,7,10.2040748,57.5404423
1543281,Lykkegårdsvej,9881,8,10.2033755,57.5410019
1543282,Lykkegårdsvej,9881,9,10.2039473,57.5402257
1543283,Lykkegårdsvej,9881,10,10.2031857,57.5410182
1543284,Lykkegårdsvej,9881,11,10.203839,57.5400156
1543285,Lykkegårdsvej,9881,12,10.203001,57.541034
1543286,Lykkegårdsvej,9881,14,10.202718,57.541059
1543287,Lykkegårdsvej,9881,16,10.2027006,57.5409853
1543288,Lykkegårdsvej,9881,18,10.2026913,57.5409017
1543289,Lykkegårdsvej,9881,20,10.2026609,57.5408001
1543290,Lykkegårdsvej,9881,22,10.2029303,57.5407718
1543291,Lykkegårdsvej,9881,24,10.2031084,57.5407563
1543292,Lykkegårdsvej,9881,26,10.2032773,57.5407419
1543293,Lykkegårdsvej,9881,28,10.203439,57.5407275
1543294,Lykkegårdsvej,9881,30,10.2032341,57.5404958
1543295,Lykkegårdsvej,9881,32,10.2030744,57.5405096
1543296,Lykkegårdsvej,9881,34,10.202893,57.5405251
1543297,Lykkegårdsvej,9881,36,10.2027432,57.5405378
1543298,Lykkegårdsvej,9881,38,10.2024963,57.540553
1543299,Lykkegårdsvej,9881,40,10.2024728,57.5404729
1543301,Lykkegårdsvej,9881,42,10.2024488,57.5403923
1543303,Lykkegårdsvej,9881,44,10.2024223,57.5403037
1543305,Lykkegårdsvej,9881,46,10.2026859,57.5402846
1543307,Lykkegårdsvej,9881,48,10.2028362,57.5402719
1543309,Lykkegårdsvej,9881,50,10.2030199,57.5402559
1543311,Lykkegårdsvej,9881,52,10.2031726,57.5402429
1544122,Svalevej,9881,1,10.1927092,57.5444317
1544124,Svalevej,9881,2,10.193135,57.544414
1544126,Svalevej,9881,3,10.1927793,57.5445966
1544127,Svalevej,9881,4,10.1931394,57.5446046
1544130,Svalevej,9881,5,10.1927294,57.544801
1544131,Svalevej,9881,6,10.1931408,57.5447724
1544134,Svalevej,9881,7,10.1926628,57.5450117
1544136,Svalevej,9881,8,10.1931478,57.5449893
1544138,Svalevej,9881,9,10.1926119,57.5451768
1544140,Svalevej,9881,10,10.1930903,57.545147
1544594,Carstenvej,9881,2,10.1561881,57.5861151
1544596,Carstenvej,9881,4,10.1568341,57.5870667
1544599,Carstenvej,9881,6,10.1566149,57.5875873
1544903,Soldugvej,9881,1,10.2027522,57.5919183
1544906,Soldugvej,9881,2,10.2027082,57.592203
1544910,Soldugvej,9881,3,10.2022197,57.5918397
1544911,Soldugvej,9881,4,10.2022204,57.5921176
1544914,Soldugvej,9881,5,10.2015899,57.5918719
1544915,Soldugvej,9881,6,10.2015213,57.5921193
1545227,Stensbæk,9881,1,10.2177234,57.5525793
1545232,Stensbæk,9881,1B,10.2175039,57.5527536
1545234,Stensbæk,9881,2,10.2189099,57.5526475
1545255,Norsvej,9881,2,10.3095967,57.5604568
1545434,Baggesvognsvej,9881,673,10.169973,57.512827
1547243,Tuengårdvej,9881,1,10.2893298,57.5888867
1547247,Tuengårdvej,9881,7,10.2899364,57.5897015
1547248,Tuengårdvej,9881,11,10.2902141,57.5892361
1547249,Tuengårdvej,9881,13,10.2901026,57.588992
1547251,Tuengårdvej,9881,15,10.2905447,57.588898
1547253,Tuengårdvej,9881,17,10.2907927,57.5893493
1547255,Tuengårdvej,9881,19,10.2915701,57.5898076
1548932,Hejselbækvej,9881,1,10.1696273,57.5353259
1548933,Hejselbækvej,9881,3,10.1625769,57.5331739
1548934,Hejselbækvej,9881,4,10.1684367,57.5408399
1548935,Hejselbækvej,9881,5,10.1570155,57.533739
1548936,Hejselbækvej,9881,6,10.1622389,57.5398217
1548937,Hejselbækvej,9881,7,10.1468026,57.5437552
1548938,Hejselbækvej,9881,8,10.1611072,57.543501
1548939,Hejselbækvej,9881,9,10.1426295,57.5438159
1548942,Hejselbækvej,9881,10,10.1613477,57.5480947
1548943,Hejselbækvej,9881,12,10.1586476,57.5464487
1548949,Hejselbækvej,9881,14,10.1562342,57.5433419
1548950,Hejselbækvej,9881,16,10.1479635,57.5453446
1548956,Hejselbækvej,9881,18,10.1476408,57.5454086
1548958,Hejselbækvej,9881,26,10.1469138,57.5457116
1548961,Hejselbækvej,9881,28,10.144483,57.5495462
1548965,Hejselbækvej,9881,30,10.1398525,57.5473214
1548978,Rævlingevej,9881,1,10.1910924,57.5879935
1548981,Rævlingevej,9881,2,10.1912681,57.5876272
1548984,Rævlingevej,9881,3,10.1915553,57.5880452
1548986,Rævlingevej,9881,4,10.1917283,57.5876128
1548992,Rævlingevej,9881,5,10.1920026,57.5880797
1548995,Rævlingevej,9881,6,10.19216,57.5876683
1548999,Rævlingevej,9881,7,10.1923731,57.5882916
1549003,Rævlingevej,9881,8,10.1926016,57.5877057
1549705,Søndenåvej,9881,1,10.1896171,57.5671311
1549708,Søndenåvej,9881,2,10.1959873,57.5666379
1549710,Søndenåvej,9881,3,10.19087,57.5674909
1549713,Søndenåvej,9881,4,10.1973717,57.5655895
1549714,Søndenåvej,9881,5,10.192947,57.5684394
1549715,Søndenåvej,9881,6,10.1971603,57.5640125
1549716,Søndenåvej,9881,7,10.1955981,57.5687224
1549717,Søndenåvej,9881,8,10.2003002,57.564256
1551312,Strandgårdsvej,9881,2,10.1535159,57.5857098
1551313,Strandgårdsvej,9881,3,10.155075,57.5853091
1551314,Strandgårdsvej,9881,4,10.1542915,57.5848033
1551315,Strandgårdsvej,9881,5,10.156446,57.584662
1551316,Strandgårdsvej,9881,6,10.152993,57.5844529
1551317,Strandgårdsvej,9881,7,10.1556292,57.5844958
1551318,Strandgårdsvej,9881,8,10.1546903,57.5842582
1551319,Strandgårdsvej,9881,9,10.1564085,57.5840693
1551320,Strandgårdsvej,9881,10,10.1532396,57.5839329
1551321,Strandgårdsvej,9881,12,10.15409,57.583376
1551322,Strandgårdsvej,9881,14,10.1550605,57.5835594
1551323,Strandgårdsvej,9881,15,10.1574728,57.5809949
1551324,Strandgårdsvej,9881,16,10.1544118,57.5828412
1551325,Strandgårdsvej,9881,18,10.1552011,57.5814467
1551410,Hjejlevej,9881,1,10.2130338,57.5903046
1551412,Hjejlevej,9881,2,10.2134694,57.5915837
1551414,Hjejlevej,9881,3,10.2123197,57.5906187
1551415,Hjejlevej,9881,4,10.2125502,57.5913469
1551418,Hjejlevej,9881,5,10.2114423,57.5905326
1551420,Hjejlevej,9881,6,10.211571,57.5910732
1552293,Bragholtvej,9881,2,10.19567,57.5173784
1552294,Bragholtvej,9881,4,10.1921164,57.5159436
1552295,Bragholtvej,9881,6,10.1889477,57.5112487
1552322,Åsenvej,9881,4,10.1988701,57.5224028
1552323,Åsenvej,9881,9,10.2000639,57.5225524
1552325,Åsenvej,9881,11,10.2003625,57.5225121
1552328,Åsenvej,9881,13,10.201028,57.5229186
1552329,Åsenvej,9881,20,10.2012035,57.5221741
1552331,Åsenvej,9881,21,10.202,57.522356
1552332,Åsenvej,9881,27,10.2048024,57.5220457
1552335,Åsenvej,9881,28,10.2028233,57.5220224
1552337,Åsenvej,9881,29,10.2078033,57.5215847
1552338,Åsenvej,9881,30,10.2128276,57.5197073
1552339,Åsenvej,9881,31,10.2102968,57.5215652
1552340,Åsenvej,9881,32,10.2164242,57.5188086
1552341,Åsenvej,9881,33,10.221438,57.5198027
1552342,Åsenvej,9881,34,10.2183638,57.5187946
1552343,Åsenvej,9881,35,10.236427,57.516815
1552344,Åsenvej,9881,38,10.2273984,57.5159388
1552345,Åsenvej,9881,38A,10.2268325,57.5159868
1552347,Åsenvej,9881,38B,10.226941,57.515856
1552348,Åsenvej,9881,40,10.2299366,57.5171344
1552350,Åsenvej,9881,42,10.2311635,57.5134887
1552352,Åsenvej,9881,44,10.2335971,57.5135013
1552357,Åsenvej,9881,46,10.2365346,57.5138343
1552670,Gyvelvej,9881,1,10.1902315,57.5914043
1552673,Gyvelvej,9881,2,10.1907663,57.5912701
1552675,Gyvelvej,9881,4,10.1907542,57.5915508
1552677,Gyvelvej,9881,5,10.1901303,57.5915949
1552679,Gyvelvej,9881,6,10.1906187,57.5917173
1552681,Gyvelvej,9881,7,10.1897823,57.5916964
1552684,Gyvelvej,9881,8,10.1905033,57.5918589
1552687,Gyvelvej,9881,9,10.1899906,57.5919353
1552689,Gyvelvej,9881,10,10.1904482,57.5921166
1552692,Gyvelvej,9881,11,10.1895708,57.5919561
1552693,Gyvelvej,9881,12,10.1907914,57.5921099
1552696,Gyvelvej,9881,13,10.1898689,57.5922063
1552699,Gyvelvej,9881,14,10.1907359,57.5923808
1552700,Gyvelvej,9881,15,10.1894421,57.5922187
1552704,Gyvelvej,9881,16,10.1903561,57.5923609
1552706,Gyvelvej,9881,17,10.189706,57.5924906
1552707,Gyvelvej,9881,18,10.1900876,57.5925973
1552711,Gyvelvej,9881,19,10.1895616,57.5926816
1552712,Gyvelvej,9881,20,10.1905699,57.5926099
1552715,Gyvelvej,9881,22,10.1905742,57.5928072
1552717,Gyvelvej,9881,23,10.1893302,57.5929458
1552719,Gyvelvej,9881,24,10.1905601,57.5929853
1552720,Gyvelvej,9881,25,10.1892554,57.5931501
1552722,Gyvelvej,9881,26,10.190607,57.5931873
1552723,Gyvelvej,9881,27,10.1889392,57.5932416
1552724,Gyvelvej,9881,28,10.1902081,57.5932366
1552726,Gyvelvej,9881,30,10.1900156,57.5928662
1552727,Gyvelvej,9881,32,10.1899229,57.5930436
1552728,Gyvelvej,9881,34,10.1896296,57.5931576
1552824,Sømærkevej,9881,2,10.1834777,57.5924264
1552825,Sømærkevej,9881,4,10.1832882,57.5925874
1552826,Sømærkevej,9881,5,10.1824371,57.5923736
1552828,Sømærkevej,9881,7,10.1824533,57.5927825
1552830,Sømærkevej,9881,9,10.1816664,57.5937649
1553068,Slyngestien,9881,7,10.3349,57.607679
1553736,Sønderbro,9881,1,10.1977099,57.5395138
1553737,Sønderbro,9881,1A,10.1978414,57.5397819
1553738,Sønderbro,9881,2,10.1972995,57.5400068
1553739,Sønderbro,9881,3,10.1976714,57.5392494
1553740,Sønderbro,9881,4,10.1969601,57.5400475
1553741,Sønderbro,9881,4A,10.1963501,57.5396051
1553742,Sønderbro,9881,5,10.1976481,57.5390838
1553743,Sønderbro,9881,6,10.1974118,57.5396936
1553744,Sønderbro,9881,7,10.197755,57.5389277
1553745,Sønderbro,9881,8,10.1973853,57.5394437
1553746,Sønderbro,9881,9,10.1976099,57.5388071
1553747,Sønderbro,9881,10,10.1973409,57.5391079
1553748,Sønderbro,9881,11,10.1975789,57.5386497
1553749,Sønderbro,9881,12,10.1971227,57.5388133
1553750,Sønderbro,9881,13,10.1975828,57.5383873
1553751,Sønderbro,9881,13A,10.198269,57.538647
1553752,Sønderbro,9881,14,10.1970367,57.538656
1553753,Sønderbro,9881,15,10.1975874,57.5380023
1553754,Sønderbro,9881,16,10.1970053,57.5385191
1553756,Sønderbro,9881,17,10.1975514,57.5377944
1553758,Sønderbro,9881,18,10.1969929,57.5383837
1553760,Sønderbro,9881,19,10.1975289,57.5376113
1553762,Sønderbro,9881,20A,10.1970598,57.5381432
1553764,Sønderbro,9881,20B,10.1968821,57.5381026
1553766,Sønderbro,9881,20C,10.1967616,57.5381086
1553768,Sønderbro,9881,20D,10.1966318,57.5381145
1553770,Sønderbro,9881,21,10.1974507,57.5368547
1553772,Sønderbro,9881,22,10.1966469,57.5375991
1553774,Sønderbro,9881,23,10.1962722,57.536354
1553777,Sønderbro,9881,24,10.1967819,57.5371053
1553780,Sønderbro,9881,25,10.1956031,57.5362284
1554335,Astersvej,9881,1,10.1939082,57.5903377
1554337,Astersvej,9881,2,10.1940928,57.5907571
1554342,Astersvej,9881,3,10.1932083,57.5904017
1554345,Astersvej,9881,4,10.1936661,57.5906938
1554348,Astersvej,9881,5,10.192647,57.590576
1554352,Astersvej,9881,6,10.1929892,57.5907667
1554354,Astersvej,9881,8,10.1926917,57.5910529
1555427,Sjaggervej,9881,11,10.2214889,57.5964677
1555431,Sjaggervej,9881,13,10.2206133,57.5965336
1555762,Møllevej,9881,1,10.1961671,57.5415582
1555764,Møllevej,9881,3A,10.195705,57.5413636
1555765,Møllevej,9881,3B,10.1959233,57.5413836
1555767,Møllevej,9881,5,10.1955839,57.5416186
1555770,Møllevej,9881,7,10.1951433,57.5414162
1555771,Møllevej,9881,9,10.1945925,57.5416754
1555799,Nordlysvej,9881,1,10.2265726,57.6020654
1555802,Nordlysvej,9881,2,10.2276381,57.6021351
1555804,Nordlysvej,9881,3,10.2259159,57.6019228
1555805,Nordlysvej,9881,4,10.2270653,57.6023667
1555808,Nordlysvej,9881,5,10.2251964,57.601913
1555809,Nordlysvej,9881,6,10.2280813,57.6024468
1555810,Nordlysvej,9881,7,10.224626,57.6016257
1555812,Nordlysvej,9881,8,10.228638,57.602459
1555814,Nordlysvej,9881,9,10.2243867,57.6022128
1555816,Nordlysvej,9881,10,10.2284847,57.6028625
1555817,Nordlysvej,9881,11,10.2248296,57.6023904
1555818,Nordlysvej,9881,13,10.2255848,57.6024103
1555820,Nordlysvej,9881,14,10.2285046,57.6030987
1555822,Nordlysvej,9881,15,10.2262225,57.6028663
1555823,Nordlysvej,9881,16,10.2279515,57.6030444
1555825,Nordlysvej,9881,18,10.2273994,57.6029315
1555826,Nordlysvej,9881,20,10.2268653,57.602722
1555876,Lævej,9881,9,10.1917628,57.5425729
1555877,Lævej,9881,10,10.1919723,57.5428363
1555880,Lævej,9881,11,10.1913279,57.5427229
1555882,Lævej,9881,12,10.1916052,57.5428807
1555884,Lævej,9881,13,10.1906163,57.5428494
1555887,Lævej,9881,14,10.1912027,57.5430343
1555891,Lævej,9881,16,10.1908021,57.5431588
1555893,Lævej,9881,18,10.1904651,57.5431999
1556085,Paradisdalen,9881,1,10.1952587,57.5943645
1556088,Paradisdalen,9881,3,10.1956632,57.5946978
1556090,Paradisdalen,9881,5,10.1956574,57.5949398
1556091,Paradisdalen,9881,6,10.1987639,57.5944029
1556093,Paradisdalen,9881,7,10.195462,57.595127
1556095,Paradisdalen,9881,8,10.1997316,57.5943799
1556096,Paradisdalen,9881,9,10.1953428,57.5953514
1556097,Paradisdalen,9881,9A,10.196018,57.595341
1556098,Paradisdalen,9881,10,10.1997589,57.5947043
1556099,Paradisdalen,9881,12,10.1998586,57.5950826
1556100,Paradisdalen,9881,14,10.199719,57.5953927
1556101,Paradisdalen,9881,15,10.1965767,57.5943027
1556102,Paradisdalen,9881,16,10.20028,57.595394
1556103,Paradisdalen,9881,17,10.1969312,57.5943881
1556104,Paradisdalen,9881,18,10.2002927,57.5956729
1556105,Paradisdalen,9881,19,10.1973964,57.5943255
1556106,Paradisdalen,9881,20,10.2000957,57.5959079
1556107,Paradisdalen,9881,21,10.1978547,57.5945163
1556108,Paradisdalen,9881,22,10.1995436,57.5958729
1556109,Paradisdalen,9881,23,10.1988952,57.5951501
1556110,Paradisdalen,9881,24,10.199314,57.5961404
1556111,Paradisdalen,9881,25,10.1989871,57.5954139
1556112,Paradisdalen,9881,26,10.1991889,57.5965821
1556113,Paradisdalen,9881,27,10.1988963,57.5956747
1556114,Paradisdalen,9881,28,10.198371,57.5964654
1556115,Paradisdalen,9881,29,10.1989551,57.5959557
1556116,Paradisdalen,9881,30,10.1976521,57.5962651
1556117,Paradisdalen,9881,31,10.1984708,57.5960694
1556118,Paradisdalen,9881,32,10.1970873,57.5962448
1556119,Paradisdalen,9881,33,10.1977428,57.5959481
1556120,Paradisdalen,9881,34,10.1966813,57.5961473
1556121,Paradisdalen,9881,35,10.1976451,57.5955175
1556122,Paradisdalen,9881,36,10.196143,57.5961116
1556124,Paradisdalen,9881,37,10.1970156,57.5957529
1556125,Paradisdalen,9881,38,10.195607,57.596021
1556127,Paradisdalen,9881,40,10.195284,57.596005
1556234,Granvej,9881,1,10.1845044,57.5912087
1556236,Granvej,9881,4,10.1852432,57.5911974
1556238,Granvej,9881,5,10.1842055,57.5915073
1556241,Granvej,9881,6,10.1851187,57.5914284
1556243,Granvej,9881,7,10.1842641,57.5917232
1556245,Granvej,9881,8,10.1849159,57.5917192
1556246,Granvej,9881,9,10.1841419,57.5918932
1556247,Granvej,9881,10,10.1846908,57.5919307
1556533,Grønspættevej,9881,1,10.22315,57.589246
1556535,Grønspættevej,9881,2,10.22191,57.588658
1556539,Grønspættevej,9881,3,10.223091,57.588775
1556540,Grønspættevej,9881,4,10.22165,57.587944
1556541,Grønspættevej,9881,5,10.223242,57.588376
1556542,Grønspættevej,9881,6,10.221594,57.587133
1556543,Grønspættevej,9881,7,10.223145,57.5878854
1556544,Grønspættevej,9881,9,10.222803,57.587477
1556545,Grønspættevej,9881,11,10.222982,57.58708
1556546,Grønspættevej,9881,13,10.2232228,57.5863774
1557117,Hybenvej,9881,1,10.1873694,57.5943414
1557120,Hybenvej,9881,3,10.1899865,57.5937404
1557122,Hybenvej,9881,4,10.1861672,57.593024
1557124,Hybenvej,9881,5,10.190331,57.593968
1557126,Hybenvej,9881,6,10.1863783,57.5926779
1557128,Hybenvej,9881,10,10.1875604,57.593086
1557130,Hybenvej,9881,14,10.1884953,57.5931843
1557132,Hybenvej,9881,18,10.1897368,57.5934306
1557134,Hybenvej,9881,20,10.1902776,57.5935317
1557135,Hybenvej,9881,22,10.1906768,57.5935698
1557158,Gøgevej,9881,1,10.212505,57.588897
1557159,Gøgevej,9881,3,10.2125946,57.5896053
1557160,Gøgevej,9881,4,10.2149749,57.5921049
1557161,Gøgevej,9881,6,10.215224,57.592549
1557162,Gøgevej,9881,8,10.2152298,57.5932506
1557163,Gøgevej,9881,10,10.215639,57.5937769
1557164,Gøgevej,9881,12,10.2157387,57.5942726
1557165,Gøgevej,9881,13,10.212974,57.593687
1557166,Gøgevej,9881,15,10.214283,57.593894
1557167,Gøgevej,9881,17,10.2140702,57.5945284
1557170,Gøgevej,9881,19,10.2124968,57.5945981
1557173,Gøgevej,9881,21,10.213094,57.595842
1557174,Gøgevej,9881,23,10.2146442,57.5956049
1557176,Gøgevej,9881,25,10.2150605,57.5964153
1557179,Gøgevej,9881,27,10.2146158,57.596838
1557181,Gøgevej,9881,29,10.2136466,57.5964722
1557183,Gøgevej,9881,31,10.2126117,57.5963232
1557185,Gøgevej,9881,33,10.212411,57.596704
1557188,Gøgevej,9881,35,10.2113198,57.5968617
1557372,Stærevej,9881,3,10.1908457,57.5447485
1557373,Stærevej,9881,4,10.1909278,57.5450093
1557376,Stærevej,9881,5,10.1903874,57.5447504
1557377,Stærevej,9881,6,10.1904518,57.545017
1557732,Bakkevej,9881,1,10.2029359,57.5903379
1557733,Bakkevej,9881,2,10.202758,57.5900003
1557734,Bakkevej,9881,3,10.2035176,57.5903119
1557735,Bakkevej,9881,4,10.2032781,57.5899809
1557736,Bakkevej,9881,5,10.2039282,57.590401
1557738,Bakkevej,9881,6,10.2040187,57.5899715
1557739,Bakkevej,9881,7,10.2044063,57.590396
1557740,Bakkevej,9881,8,10.204676,57.5900419
1557742,Bakkevej,9881,9,10.2047902,57.590385
1557743,Bakkevej,9881,10,10.205552,57.590003
1557746,Bakkevej,9881,11,10.20524,57.5904639
1557747,Bakkevej,9881,13,10.2059636,57.5905724
1558617,Østerbro,9881,1A,10.199436,57.540741
1558618,Østerbro,9881,1B,10.1995349,57.5407036
1558619,Østerbro,9881,2,10.199393,57.5406185
1558621,Østerbro,9881,3,10.1998308,57.5406197
1558623,Østerbro,9881,4,10.1995435,57.5404172
1558625,Østerbro,9881,5,10.200006,57.5405071
1558627,Østerbro,9881,6,10.1999206,57.5404048
1558629,Østerbro,9881,7,10.2002663,57.5404089
1558631,Østerbro,9881,8,10.2001013,57.5403011
1558632,Østerbro,9881,9,10.2004744,57.5403586
1558633,Østerbro,9881,10,10.1999567,57.5401085
1558634,Østerbro,9881,11A,10.2009265,57.5406304
1558635,Østerbro,9881,11B,10.2010496,57.540599
1558637,Østerbro,9881,11C,10.2011456,57.5406401
1558638,Østerbro,9881,12,10.2004505,57.5401036
1558640,Østerbro,9881,13,10.2006351,57.5402578
1558641,Østerbro,9881,14,10.2008722,57.539961
1558642,Østerbro,9881,15,10.2008048,57.5401899
1558645,Østerbro,9881,17,10.2012523,57.5405622
1558646,Østerbro,9881,19,10.2015359,57.5404972
1558648,Østerbro,9881,21,10.2012643,57.5401139
1558649,Østerbro,9881,23,10.201436,57.539855
1558742,Havtornvej,9881,1,10.1912467,57.5940511
1558744,Havtornvej,9881,2,10.1911682,57.5936056
1558746,Havtornvej,9881,3,10.1916087,57.5940286
1558748,Havtornvej,9881,8,10.193131,57.593764
1558749,Havtornvej,9881,11,10.194605,57.594351
1559174,Slugten,9881,1,10.2019283,57.5946728
1559175,Slugten,9881,2,10.2021132,57.594344
1559176,Slugten,9881,4,10.2024919,57.5946684
1559177,Slugten,9881,6,10.2025802,57.5948497
1559178,Slugten,9881,8,10.2031617,57.595082
1559179,Slugten,9881,10,10.2027967,57.5953243
1559181,Slugten,9881,12,10.2028458,57.5955736
1559183,Slugten,9881,14,10.2025899,57.5957678
1559293,Europavej,9881,1,10.2676225,57.5878414
1559295,Europavej,9881,2,10.265525,57.585736
1559296,Europavej,9881,3,10.2664198,57.5842769
1559297,Europavej,9881,4,10.2654317,57.5850417
1559298,Europavej,9881,5,10.2724746,57.5824452
1559299,Europavej,9881,6,10.2586342,57.5816441
1559300,Europavej,9881,7,10.2688733,57.5816568
1559301,Europavej,9881,8,10.2641566,57.5817481
1559302,Europavej,9881,9,10.2702853,57.5792157
1559303,Europavej,9881,10,10.2568411,57.579788
1559304,Europavej,9881,10A,10.2620756,57.5769191
1559305,Europavej,9881,11,10.2658045,57.5776379
1559306,Europavej,9881,13,10.2655883,57.5764928
1559307,Europavej,9881,14,10.2670774,57.565691
1559313,Europavej,9881,15,10.266875,57.5752384
1559314,Europavej,9881,16,10.2716007,57.5588743
1559315,Europavej,9881,17,10.2670369,57.5740736
1559316,Europavej,9881,18,10.2745294,57.5560189
1559317,Europavej,9881,21,10.2710375,57.5649547
1559318,Europavej,9881,23,10.271428,57.5640542
1559323,Europavej,9881,25,10.2723857,57.5597431
1559325,Europavej,9881,27,10.2765784,57.5553569
1559330,Europavej,9881,29,10.2784606,57.5544107
1559332,Europavej,9881,31,10.2794662,57.5537464
1559335,Europavej,9881,33,10.2798827,57.5521262
1559337,Europavej,9881,35,10.2806148,57.5513861
1559339,Europavej,9881,37,10.2818694,57.5500517
1559343,Europavej,9881,39,10.2846673,57.5495058
1559346,Europavej,9881,41,10.2882503,57.5481273
1559349,Europavej,9881,43,10.2860518,57.5459034
1559570,P. Møllers Vej,9881,1,10.2847766,57.5882741
1559574,P. Møllers Vej,9881,2,10.2852061,57.587988
1559577,P. Møllers Vej,9881,3,10.285602,57.5882657
1559580,P. Møllers Vej,9881,4,10.2856624,57.5879489
1559584,P. Møllers Vej,9881,5,10.2862529,57.5882246
1559585,P. Møllers Vej,9881,6,10.286582,57.58788
1559587,P. Møllers Vej,9881,7,10.2868344,57.5882244
1559588,P. Møllers Vej,9881,9,10.287072,57.5882278
1559589,P. Møllers Vej,9881,11,10.287466,57.588261
1559668,Ålevej,9881,1,10.1912841,57.5408363
1559669,Ålevej,9881,2,10.1919253,57.5408982
1559670,Ålevej,9881,3,10.1911681,57.5410921
1559671,Ålevej,9881,4,10.1915368,57.5412082
1559672,Ålevej,9881,5,10.1910626,57.5413308
1559674,Ålevej,9881,6,10.1914062,57.5414452
1559676,Ålevej,9881,7,10.1909179,57.5415778
1559678,Ålevej,9881,8,10.1912713,57.5417683
1559679,Ålevej,9881,9,10.1908036,57.54187
1559682,Ålevej,9881,10,10.1911771,57.5421183
1559683,Ålevej,9881,11,10.1906613,57.5421549
1559684,Ålevej,9881,12,10.1911315,57.5423006
1559685,Ålevej,9881,13,10.1906221,57.5424282
1560433,Andersvej,9881,2,10.1643324,57.5885054
1560434,Andersvej,9881,4,10.1642256,57.5888671
1560435,Andersvej,9881,5,10.1644162,57.5893842
1560436,Andersvej,9881,6,10.165143,57.5889797
1560437,Andersvej,9881,7,10.1651937,57.5895399
1560438,Andersvej,9881,8,10.1656635,57.5889363
1560439,Andersvej,9881,9,10.1659062,57.5896813
1560468,Ellenvej,9881,10,10.1432275,57.5828781
1560469,Ellenvej,9881,12,10.14221,57.5827582
1560470,Ellenvej,9881,14,10.1413503,57.5831994
1560471,Ellenvej,9881,16,10.140653,57.583896
1560472,Ellenvej,9881,17,10.1392766,57.5828533
1560960,Grøndalsvej,9881,1,10.1868268,57.5870776
1560961,Grøndalsvej,9881,3,10.1864624,57.5870596
1560962,Grøndalsvej,9881,4,10.1869621,57.5874792
1560963,Grøndalsvej,9881,6,10.1861637,57.5874572
1560964,Grøndalsvej,9881,10,10.1847811,57.5879754
1560965,Grøndalsvej,9881,12,10.1845725,57.5881797
1560966,Grøndalsvej,9881,14,10.1840553,57.5883598
1560969,Grøndalsvej,9881,15,10.1824777,57.5873636
1560972,Grøndalsvej,9881,16,10.1845961,57.588547
1560975,Grøndalsvej,9881,18,10.1845486,57.5888863
1560978,Grøndalsvej,9881,20,10.1836971,57.5886041
1560980,Grøndalsvej,9881,31,10.1809621,57.5902889
1560985,Grøndalsvej,9881,33,10.18033,57.590011
1560988,Grøndalsvej,9881,35,10.176385,57.592584
1560991,Grøndalsvej,9881,37,10.1745481,57.5922941
1561499,Vandværksvej,9881,1,10.2029686,57.5431561
1561501,Vandværksvej,9881,2,10.2021203,57.5432497
1561505,Vandværksvej,9881,3,10.2031526,57.543073
1561506,Vandværksvej,9881,4,10.2022238,57.5431904
1561510,Vandværksvej,9881,5,10.2035101,57.5430168
1561512,Vandværksvej,9881,6,10.2023831,57.5431076
1561514,Vandværksvej,9881,7,10.2041005,57.5429596
1561517,Vandværksvej,9881,8,10.2024839,57.5430537
1561519,Vandværksvej,9881,10,10.2026553,57.5429653
1561522,Vandværksvej,9881,12,10.2027603,57.5429251
1561524,Vandværksvej,9881,14,10.2029766,57.5428449
1561527,Vandværksvej,9881,16,10.2030751,57.542814
1561528,Vandværksvej,9881,18,10.2031355,57.5426771
1561532,Vandværksvej,9881,20,10.2030996,57.5426057
1561534,Vandværksvej,9881,22,10.2034316,57.5427182
1562680,Nørrebro,9881,1,10.1984764,57.5405208
1562681,Nørrebro,9881,2,10.1985396,57.5402484
1562682,Nørrebro,9881,3,10.198843,57.5407531
1562683,Nørrebro,9881,4,10.1987788,57.5404193
1562684,Nørrebro,9881,5A,10.1990241,57.5408933
1562686,Nørrebro,9881,5B,10.1991429,57.5409801
1562688,Nørrebro,9881,5C,10.1990767,57.5410113
1562690,Nørrebro,9881,5D,10.1989783,57.5409441
1562692,Nørrebro,9881,5E,10.1988326,57.54092
1562695,Nørrebro,9881,6,10.1989309,57.5405312
1562696,Nørrebro,9881,7,10.1992592,57.5410754
1562698,Nørrebro,9881,7B,10.1982452,57.5412602
1562699,Nørrebro,9881,8,10.1991031,57.5406596
1562700,Nørrebro,9881,9,10.1993317,57.5411426
1562701,Nørrebro,9881,10,10.1993064,57.5407932
1562702,Nørrebro,9881,11A,10.1994138,57.5412408
1562703,Nørrebro,9881,11B,10.1994832,57.5413129
1562704,Nørrebro,9881,11C,10.1994646,57.541272
1562705,Nørrebro,9881,11D,10.1991483,57.5413775
1562706,Nørrebro,9881,12,10.1993891,57.5408665
1562707,Nørrebro,9881,13,10.1996305,57.5414356
1562708,Nørrebro,9881,14,10.1995401,57.5409625
1562710,Nørrebro,9881,15,10.1999909,57.541794
1562711,Nørrebro,9881,16,10.1997339,57.5411162
1562713,Nørrebro,9881,17,10.2001259,57.541924
1562717,Nørrebro,9881,18,10.1998752,57.5412527
1562719,Nørrebro,9881,19,10.2003141,57.5421363
1562721,Nørrebro,9881,19A,10.19986,57.542137
1562725,Nørrebro,9881,19B,10.199768,57.542145
1562728,Nørrebro,9881,19C,10.199694,57.542288
1562730,Nørrebro,9881,19D,10.199696,57.542343
1562734,Nørrebro,9881,19E,10.199698,57.542398
1562736,Nørrebro,9881,19F,10.199863,57.542341
1562738,Nørrebro,9881,19G,10.199976,57.542307
1562743,Nørrebro,9881,20,10.2002264,57.5411717
1562745,Nørrebro,9881,21,10.2005988,57.5424021
1562749,Nørrebro,9881,23,10.2007114,57.5425149
1562752,Nørrebro,9881,24,10.2001058,57.541524
1562757,Nørrebro,9881,26A,10.2004489,57.5418818
1562758,Nørrebro,9881,26B,10.2005507,57.5418481
1562759,Nørrebro,9881,27,10.20012,57.543122
1562764,Nørrebro,9881,28,10.2006045,57.5420618
1562765,Nørrebro,9881,29,10.2012754,57.543045
1562768,Nørrebro,9881,30A,10.2007516,57.5422194
1562773,Nørrebro,9881,30B,10.2009068,57.5422357
1562774,Nørrebro,9881,30C,10.201159,57.5422339
1562776,Nørrebro,9881,31,10.2015213,57.5432269
1562780,Nørrebro,9881,32,10.2009107,57.5423692
1562782,Nørrebro,9881,33,10.2017087,57.5433313
1562783,Nørrebro,9881,34,10.2010293,57.5425248
1562788,Nørrebro,9881,35,10.2018612,57.5436925
1562789,Nørrebro,9881,36,10.201949,57.542848
1562790,Nørrebro,9881,37,10.2022523,57.5437577
1562793,Nørrebro,9881,39,10.2024524,57.5438365
1562795,Nørrebro,9881,41,10.202647,57.5439397
1562796,Nørrebro,9881,42,10.2024663,57.5434431
1562799,Nørrebro,9881,43,10.202823,57.5440508
1562801,Nørrebro,9881,44A,10.2033718,57.5434008
1562803,Nørrebro,9881,44B,10.2036019,57.5436682
1562805,Nørrebro,9881,45,10.2031655,57.5441542
1562806,Nørrebro,9881,46,10.2030715,57.5437152
1562810,Nørrebro,9881,47,10.2032257,57.5444576
1562812,Nørrebro,9881,48,10.2033456,57.5438735
1562813,Nørrebro,9881,50,10.2035342,57.5440199
1562816,Nørrebro,9881,51,10.2031958,57.5452873
1562818,Nørrebro,9881,52,10.2037156,57.5445486
1562819,Nørrebro,9881,53,10.2035595,57.5454867
1562823,Nørrebro,9881,54,10.203749,57.54469
1562825,Nørrebro,9881,55,10.2036277,57.5457797
1562826,Nørrebro,9881,56,10.2038401,57.5448172
1562829,Nørrebro,9881,57,10.2036463,57.5461064
1562830,Nørrebro,9881,58,10.2038198,57.5449623
1562831,Nørrebro,9881,60,10.2038473,57.545096
1562832,Nørrebro,9881,62,10.2039123,57.5455393
1562897,Skiverenvej,9881,3,10.2887485,57.5902361
1562899,Skiverenvej,9881,5,10.2889403,57.590501
1562900,Skiverenvej,9881,7,10.2890832,57.5907436
1562902,Skiverenvej,9881,21,10.2900858,57.5920033
1562905,Skiverenvej,9881,22,10.2911176,57.592865
1562907,Skiverenvej,9881,22B,10.2911546,57.5929468
1562909,Skiverenvej,9881,33,10.2901971,57.5953477
1562910,Skiverenvej,9881,35,10.2925398,57.5950094
1562912,Skiverenvej,9881,41,10.3014949,57.6006126
1562915,Skiverenvej,9881,44,10.2968089,57.599855
1562917,Skiverenvej,9881,45,10.2920956,57.5970616
1562919,Skiverenvej,9881,46,10.2977439,57.6008687
1562921,Skiverenvej,9881,47,10.294413,57.5982056
1562923,Skiverenvej,9881,49,10.292824,57.5990253
1562924,Skiverenvej,9881,51,10.3020337,57.6091842
1562925,Skiverenvej,9881,58,10.3106851,57.606115
1562956,Vesterå,9881,1,10.1962082,57.5388708
1562957,Vesterå,9881,20,10.1915337,57.5382209
1562975,Skolevej,9881,2,10.2010356,57.5818271
1562976,Skolevej,9881,4,10.2007148,57.5819916
1562977,Skolevej,9881,6,10.2002882,57.5821989
1562978,Skolevej,9881,7,10.198488,57.58203
1562979,Skolevej,9881,8,10.2000069,57.5822947
1562980,Skolevej,9881,10,10.1970593,57.5835876
1562981,Skolevej,9881,11,10.198575,57.582561
1562982,Skolevej,9881,12,10.1968595,57.5837474
1562983,Skolevej,9881,13,10.19738,57.5819332
1562984,Skolevej,9881,14,10.1969858,57.5843359
1562985,Skolevej,9881,15,10.196929,57.583204
1562986,Skolevej,9881,16,10.1949295,57.5846212
1563014,Folstedvej,9881,24,10.168059,57.584226
1563015,Folstedvej,9881,26,10.168456,57.584818
1563016,Folstedvej,9881,27,10.1670835,57.5849383
1563017,Folstedvej,9881,31,10.1678767,57.5872991
1563018,Folstedvej,9881,32,10.1690076,57.5872118
1563019,Folstedvej,9881,33,10.1683219,57.5877502
1563021,Folstedvej,9881,34,10.1691369,57.5877199
1563022,Folstedvej,9881,35,10.1683083,57.5880328
1563024,Folstedvej,9881,36,10.1693524,57.5883029
1563025,Folstedvej,9881,37,10.1685697,57.5884162
1563028,Folstedvej,9881,38,10.1693989,57.5887638
1563029,Folstedvej,9881,39,10.168793,57.5888728
1563031,Folstedvej,9881,40,10.1694633,57.58941
1563034,Folstedvej,9881,41,10.168574,57.589201
1563035,Folstedvej,9881,42,10.1697104,57.5898266
1563037,Folstedvej,9881,43,10.1685634,57.5896098
1563039,Folstedvej,9881,44,10.1695451,57.5902298
1563041,Folstedvej,9881,45,10.1686263,57.5901583
1563043,Folstedvej,9881,46,10.169737,57.5906982
1563045,Folstedvej,9881,47,10.1687063,57.590427
1563296,Tannisgårdvej,9881,10,10.1645122,57.581181
1563297,Tannisgårdvej,9881,12,10.165173,57.5841994
1563298,Tannisgårdvej,9881,14,10.166064,57.584251
1563299,Tannisgårdvej,9881,16,10.1671007,57.5843292
1563300,Tannisgårdvej,9881,17,10.1640708,57.5837898
1563301,Tannisgårdvej,9881,19,10.1641563,57.5846077
1563302,Tannisgårdvej,9881,20,10.1661433,57.5850927
1563303,Tannisgårdvej,9881,23,10.1644414,57.5864229
1563304,Tannisgårdvej,9881,25,10.1644081,57.5869796
1563305,Tannisgårdvej,9881,26,10.1661786,57.586787
1563306,Tannisgårdvej,9881,27,10.1642622,57.5877452
1563307,Tannisgårdvej,9881,28,10.1653686,57.5867788
1563308,Tannisgårdvej,9881,29,10.1649108,57.5883724
1563309,Tannisgårdvej,9881,30,10.1655136,57.587841
1563310,Tannisgårdvej,9881,31,10.1656614,57.588247
1563311,Tannisgårdvej,9881,32,10.165924,57.58755
1563312,Tannisgårdvej,9881,33,10.1662651,57.5886196
1563313,Tannisgårdvej,9881,34,10.1656752,57.5872664
1563314,Tannisgårdvej,9881,35,10.166636,57.588956
1563315,Tannisgårdvej,9881,36,10.1668297,57.5872118
1563316,Tannisgårdvej,9881,37,10.16643,57.589404
1563319,Tannisgårdvej,9881,38,10.1668781,57.5875304
1563321,Tannisgårdvej,9881,38B,10.167016,57.587567
1563322,Tannisgårdvej,9881,39,10.1664595,57.5897879
1563325,Tannisgårdvej,9881,40,10.1671855,57.5878516
1563327,Tannisgårdvej,9881,42,10.1668161,57.5881442
1563328,Tannisgårdvej,9881,44,10.1671468,57.5883948
1563330,Tannisgårdvej,9881,46,10.1673916,57.5886758
1563331,Tannisgårdvej,9881,48,10.1675203,57.5889326
1563333,Tannisgårdvej,9881,50,10.1675819,57.5892608
1563335,Tannisgårdvej,9881,52,10.1675584,57.5894928
1563337,Tannisgårdvej,9881,54,10.1675554,57.5898048
1563338,Tannisgårdvej,9881,56,10.1676751,57.5901751
1563390,Karpevej,9881,1A,10.1934103,57.5407948
1563391,Karpevej,9881,1B,10.1934516,57.5406778
1563392,Karpevej,9881,2,10.1929256,57.5407519
1563393,Karpevej,9881,3,10.1939063,57.5405228
1563394,Karpevej,9881,4,10.193036,57.540473
1563395,Karpevej,9881,5,10.1935584,57.5405083
1563396,Karpevej,9881,6,10.1931481,57.5402317
1563397,Karpevej,9881,7,10.1935981,57.5404195
1563398,Karpevej,9881,8,10.1932742,57.5400449
1563399,Karpevej,9881,9,10.1936422,57.5402604
1563400,Karpevej,9881,10,10.1933551,57.5398518
1563401,Karpevej,9881,11,10.1936819,57.5401739
1563402,Karpevej,9881,13,10.1941266,57.5402158
1563403,Karpevej,9881,15,10.1942819,57.5402309
1563404,Karpevej,9881,17,10.194387,57.5400578
1563405,Karpevej,9881,19,10.1944178,57.539976
1563406,Karpevej,9881,21,10.1941877,57.5399008
1563407,Karpevej,9881,23,10.1940438,57.5398887
1563408,Karpevej,9881,25,10.193805,57.5398675
1563409,Karpevej,9881,27,10.1937743,57.5399446
1564556,Buen,9881,1,10.2000993,57.5360714
1564559,Buen,9881,2,10.1995351,57.5361403
1564564,Buen,9881,3,10.1998545,57.5359672
1564567,Buen,9881,4,10.1993065,57.5360331
1564572,Buen,9881,5,10.1996329,57.5358646
1564574,Buen,9881,6,10.199078,57.5359236
1564579,Buen,9881,7,10.1994203,57.5357624
1564582,Buen,9881,8,10.198632,57.5357785
1564586,Buen,9881,9,10.1991961,57.5356552
1564591,Buen,9881,10,10.1983438,57.5359785
1564592,Buen,9881,11,10.198925,57.5355597
1564598,Buen,9881,12,10.1982312,57.5356461
1564603,Buen,9881,13,10.1989679,57.5355006
1564604,Buen,9881,14,10.1980163,57.5357656
1564607,Buen,9881,15,10.1990422,57.5354227
1564611,Buen,9881,16,10.1975264,57.5358619
1564614,Buen,9881,17,10.1989698,57.5353292
1564619,Buen,9881,18,10.1973403,57.5356237
1564622,Buen,9881,19,10.1988344,57.535295
1564626,Buen,9881,20,10.1972075,57.535626
1564629,Buen,9881,21,10.1986923,57.5352615
1564634,Buen,9881,23,10.198555,57.5352649
1564640,Buen,9881,25,10.1984951,57.5353366
1564642,Buen,9881,27,10.1984245,57.5354084
1564646,Buen,9881,29,10.1981056,57.5353286
1564648,Buen,9881,31,10.1977551,57.5353497
1564653,Buen,9881,33,10.1973035,57.535385
1564658,Buen,9881,35,10.1970354,57.5353426
1564970,Mosevej,9881,1,10.2753412,57.5499476
1564971,Mosevej,9881,2,10.2720102,57.5509163
1564978,Mosevej,9881,4,10.2793974,57.5429307
1564979,Mosevej,9881,6,10.2802411,57.5429269
1565761,Nørgårdsvej,9881,2,10.1960828,57.5443801
1565764,Nørgårdsvej,9881,3,10.1961682,57.5440864
1565766,Nørgårdsvej,9881,5,10.1956416,57.5440933
1565769,Nørgårdsvej,9881,7A,10.194668,57.5440158
1565773,Nørgårdsvej,9881,7B,10.1945115,57.5440206
1565775,Nørgårdsvej,9881,8,10.1948282,57.5444471
1565777,Nørgårdsvej,9881,9A,10.1944073,57.5440218
1565779,Nørgårdsvej,9881,9B,10.1942979,57.5440264
1565781,Nørgårdsvej,9881,10,10.194504,57.544389
1565783,Nørgårdsvej,9881,11A,10.1941723,57.5440258
1565785,Nørgårdsvej,9881,11B,10.1940681,57.5440244
1565786,Nørgårdsvej,9881,13A,10.1939686,57.5440256
1565787,Nørgårdsvej,9881,13B,10.1938592,57.5440277
1565789,Nørgårdsvej,9881,15A,10.1937761,57.5440293
1565791,Nørgårdsvej,9881,15B,10.1936687,57.5440295
1565793,Nørgårdsvej,9881,17,10.1933613,57.5440835
1565794,Nørgårdsvej,9881,19,10.1929283,57.5441161
1565795,Nørgårdsvej,9881,21,10.1925365,57.5441183
1565796,Nørgårdsvej,9881,23,10.1920676,57.5441177
1565906,Valmuevej,9881,2,10.1965557,57.5913038
1565907,Valmuevej,9881,4,10.197334,57.591314
1565908,Valmuevej,9881,6,10.1975918,57.5918112
1565909,Valmuevej,9881,8,10.197671,57.592089
1565910,Valmuevej,9881,10,10.1975663,57.5924508
1565949,Teglmarken,9881,3,10.1856226,57.5904912
1565950,Teglmarken,9881,4,10.1849166,57.5904162
1565951,Teglmarken,9881,5,10.1855912,57.5902654
1565952,Teglmarken,9881,6,10.1849354,57.5902661
1565953,Teglmarken,9881,7,10.1857115,57.5900398
1565954,Teglmarken,9881,8,10.1851444,57.5900987
1565955,Teglmarken,9881,10,10.1850961,57.5898964
1565956,Teglmarken,9881,12,10.1853803,57.5897004
1566327,Brogårdsvej,9881,1,10.1973382,57.5364482
1566329,Brogårdsvej,9881,2,10.1967263,57.5362299
1566331,Brogårdsvej,9881,3,10.1974895,57.5361012
1566333,Brogårdsvej,9881,4,10.1967323,57.5360386
1566335,Brogårdsvej,9881,5,10.1971303,57.5357299
1566337,Brogårdsvej,9881,6,10.1963831,57.5357693
1566338,Brogårdsvej,9881,7,10.1955733,57.5297921
1566340,Brogårdsvej,9881,8,10.1951233,57.5318719
1567245,Ejåsvej,9881,1,10.2136874,57.5329797
1567249,Ejåsvej,9881,2,10.2245076,57.524856
1567250,Ejåsvej,9881,3,10.2264275,57.5259414
1567254,Ejåsvej,9881,4,10.2319634,57.5215476
1567256,Ejåsvej,9881,5,10.2362772,57.5195722
1567257,Ejåsvej,9881,7,10.2401934,57.5171875
1567553,Holtvej,9881,1,10.212284,57.5157049
1567555,Holtvej,9881,2,10.2109237,57.5170961
1567560,Holtvej,9881,3,10.2098589,57.5131569
1567562,Holtvej,9881,5,10.2120274,57.5122142
1567841,Lupinvej,9881,1,10.1938524,57.5880199
1567842,Lupinvej,9881,2,10.1937622,57.5883658
1567843,Lupinvej,9881,3,10.1934064,57.5878591
1567844,Lupinvej,9881,4,10.1930302,57.588297
1567845,Lupinvej,9881,5,10.1930425,57.5877426
1567972,Klintevej,9881,2,10.1967706,57.5898956
1567973,Klintevej,9881,3,10.1975422,57.5906494
1567974,Klintevej,9881,4,10.1973113,57.5898029
1567975,Klintevej,9881,5,10.198888,57.590681
1567976,Klintevej,9881,6,10.1977928,57.5900772
1567977,Klintevej,9881,7,10.1987995,57.590275
1567978,Klintevej,9881,8,10.1983073,57.5901407
1568311,Musvågevej,9881,1,10.216345,57.5966482
1568313,Musvågevej,9881,2,10.2161487,57.5961451
1568314,Musvågevej,9881,3,10.2169361,57.5967502
1568316,Musvågevej,9881,4,10.2164404,57.5959227
1568318,Musvågevej,9881,5,10.2174688,57.5965575
1568319,Musvågevej,9881,6,10.2166558,57.5955854
1568322,Musvågevej,9881,7,10.218093,57.5964258
1568324,Musvågevej,9881,8,10.2170074,57.5953133
1568325,Musvågevej,9881,9,10.2186254,57.5964892
1568326,Musvågevej,9881,10,10.2177551,57.5954448
1568327,Musvågevej,9881,11,10.2192802,57.5965171
1568330,Musvågevej,9881,12,10.2190858,57.5955653
1568332,Musvågevej,9881,13,10.2199834,57.5964731
1568334,Musvågevej,9881,14,10.2195511,57.595876
1568823,Humlevej,9881,1,10.1887468,57.5936848
1568824,Humlevej,9881,3,10.1887682,57.5939906
1568825,Humlevej,9881,5,10.1888211,57.5943698
1568826,Humlevej,9881,6,10.1892899,57.5945922
1568827,Humlevej,9881,7,10.1886909,57.5946044
1568829,Humlevej,9881,8,10.1893623,57.5949204
1568831,Humlevej,9881,9,10.188532,57.5948909
1568932,Granbovej,9881,1,10.1822023,57.5548631
1568934,Granbovej,9881,2,10.1808314,57.5571825
1569053,Borrisholtvej,9881,3,10.1844375,57.5789747
1569054,Borrisholtvej,9881,4,10.184279,57.5792463
1569057,Borrisholtvej,9881,5,10.18479,57.578748
1569058,Borrisholtvej,9881,6,10.1838141,57.5794242
1569062,Borrisholtvej,9881,7,10.1838979,57.5785025
1569064,Borrisholtvej,9881,8,10.1835634,57.5791467
1569068,Borrisholtvej,9881,10,10.1832048,57.5790695
1569072,Borrisholtvej,9881,12,10.1828278,57.5789639
1569074,Borrisholtvej,9881,13,10.1830503,57.5786721
1569080,Borrisholtvej,9881,14,10.18254,57.578813
1569084,Borrisholtvej,9881,15,10.1828747,57.5784182
1569087,Borrisholtvej,9881,17,10.182297,57.578419
1569091,Borrisholtvej,9881,18,10.1815627,57.5786382
1569095,Borrisholtvej,9881,19,10.1819033,57.5784215
1569096,Borrisholtvej,9881,21,10.1814347,57.5782966
1569312,Solbakkevej,9881,2,10.1875288,57.5785067
1569314,Solbakkevej,9881,3,10.1871077,57.5789644
1569316,Solbakkevej,9881,4,10.1876849,57.578797
1569319,Solbakkevej,9881,5,10.187018,57.579177
1569612,Udsigten,9881,1,10.202336,57.593341
1569615,Udsigten,9881,2,10.2019041,57.5937288
1569619,Udsigten,9881,3,10.2015384,57.5933738
1569623,Udsigten,9881,4,10.2014542,57.5938177
1569719,Klitvej,9881,3,10.1846063,57.5922518
1569720,Klitvej,9881,4,10.1840984,57.5923694
1569722,Klitvej,9881,5,10.1843469,57.5921723
1569723,Klitvej,9881,6,10.183584,57.5923189
1569725,Klitvej,9881,7,10.1837774,57.5920797
1569726,Klitvej,9881,8,10.18293,57.5921507
1569728,Klitvej,9881,9,10.1830221,57.5919766
1569729,Klitvej,9881,10,10.1824099,57.592019
1569730,Klitvej,9881,11,10.1826616,57.5918407
1569731,Klitvej,9881,12,10.1811839,57.5920043
1571072,Spurvevej,9881,1,10.191139,57.543716
1571075,Spurvevej,9881,2A,10.1914484,57.5435206
1571080,Spurvevej,9881,2B,10.1916219,57.5435071
1571084,Spurvevej,9881,3,10.191286,57.543958
1571088,Spurvevej,9881,4A,10.1918882,57.5434101
1571100,Spurvevej,9881,4B,10.1920585,57.5433982
1571102,Spurvevej,9881,5,10.1913722,57.5443788
1571107,Spurvevej,9881,6,10.1918908,57.5444674
1571113,Spurvevej,9881,7,10.1913126,57.5447082
1571115,Spurvevej,9881,8,10.1919126,57.5446526
1571118,Spurvevej,9881,9,10.1913771,57.5450943
1571119,Spurvevej,9881,10,10.1919209,57.5448731
1571122,Spurvevej,9881,11,10.191278,57.545385
1571124,Spurvevej,9881,12,10.191823,57.5451365
1571127,Spurvevej,9881,13,10.1907189,57.5455349
1571134,Spurvevej,9881,14,10.1920032,57.5453842
1571136,Spurvevej,9881,15,10.1903126,57.5455598
1571141,Spurvevej,9881,16,10.1915345,57.5456171
1571144,Spurvevej,9881,18,10.1914066,57.5457768
1571145,Spurvevej,9881,20,10.1909998,57.5458074
1571147,Spurvevej,9881,22,10.1905758,57.5458068
1571148,Spurvevej,9881,24,10.1902211,57.5459396
1571591,Vagtelvej,9881,1,10.2220976,57.5932884
1571592,Vagtelvej,9881,2,10.2240934,57.5931813
1571593,Vagtelvej,9881,3,10.2216875,57.5930058
1571594,Vagtelvej,9881,4,10.2231391,57.5933041
1571595,Vagtelvej,9881,5,10.2206417,57.5932601
1571596,Vagtelvej,9881,6,10.2230006,57.5936739
1571597,Vagtelvej,9881,7,10.2199799,57.5931677
1571598,Vagtelvej,9881,8,10.2213972,57.5936883
1571599,Vagtelvej,9881,9,10.2193093,57.5930721
1571600,Vagtelvej,9881,10,10.2206769,57.5943347
1571601,Vagtelvej,9881,11,10.21869,57.5933451
1571602,Vagtelvej,9881,12,10.2198642,57.5940025
1572151,Cecilievej,9881,1,10.150641,57.5857012
1572152,Cecilievej,9881,2,10.1498122,57.5857659
1572153,Cecilievej,9881,3,10.1507488,57.5854779
1572154,Cecilievej,9881,4,10.1502982,57.5850267
1572155,Cecilievej,9881,5,10.1517839,57.5848859
1572156,Cecilievej,9881,6,10.1506684,57.584518
1572157,Cecilievej,9881,7,10.1517884,57.584431
1572158,Cecilievej,9881,8,10.1509634,57.5839428
1572159,Cecilievej,9881,9,10.1523496,57.5838905
1572160,Cecilievej,9881,10,10.151428,57.583279
1572161,Cecilievej,9881,11,10.152438,57.5832008
1572162,Cecilievej,9881,12,10.1518649,57.5826229
1572163,Cecilievej,9881,13,10.1527999,57.5826303
1572548,Skråvej,9881,2,10.196332,57.577274
1572552,Skråvej,9881,3,10.1968417,57.5778506
1572556,Skråvej,9881,5,10.197254,57.578208
1572558,Skråvej,9881,7,10.1982314,57.5785053
1572561,Skråvej,9881,9,10.1982764,57.578008
1572652,Porsevej,9881,1,10.1919881,57.5942472
1572656,Porsevej,9881,2,10.1925918,57.5942431
1572660,Porsevej,9881,3,10.1913381,57.5944213
1572662,Porsevej,9881,4,10.1924244,57.5948749
1572666,Porsevej,9881,6,10.192748,57.595257
1572670,Porsevej,9881,7,10.1915539,57.5948703
1572672,Porsevej,9881,9,10.191554,57.5953501
1572927,Store Bragholtvej,9881,1,10.1945598,57.5117543
1573046,Ørredvej,9881,1,10.1934462,57.5411884
1573048,Ørredvej,9881,2,10.1939673,57.5411848
1573050,Ørredvej,9881,3,10.1933305,57.5414357
1573052,Ørredvej,9881,4,10.1938063,57.5414229
1573053,Ørredvej,9881,5,10.193198,57.5416592
1573056,Ørredvej,9881,6,10.1938313,57.5416282
1573122,Ågårdvej,9881,3,10.1479761,57.547471
1573125,Ågårdvej,9881,4,10.1486647,57.5465607
1573130,Ågårdvej,9881,5,10.151975,57.5507824
1573503,Vesterbro,9881,2,10.1994255,57.5417157
1573504,Vesterbro,9881,2A,10.1994571,57.5420972
1573507,Vesterbro,9881,3,10.1987627,57.5416893
1573509,Vesterbro,9881,4,10.19904,57.5418101
1573512,Vesterbro,9881,4A,10.199164,57.542075
1573514,Vesterbro,9881,4B,10.198935,57.5422045
1573515,Vesterbro,9881,4C,10.1990219,57.542382
1573519,Vesterbro,9881,5,10.1983937,57.5417781
1573520,Vesterbro,9881,6,10.198769,57.5418742
1573523,Vesterbro,9881,7A,10.198168,57.5418317
1573524,Vesterbro,9881,7B,10.1979267,57.5416501
1573525,Vesterbro,9881,8,10.1985552,57.5419281
1573526,Vesterbro,9881,9,10.1963109,57.5418222
1573527,Vesterbro,9881,10,10.1982819,57.541987
1573528,Vesterbro,9881,11,10.1953488,57.5421915
1573529,Vesterbro,9881,12,10.1975257,57.5421067
1573947,Barkholtvej,9881,1,10.2061819,57.5564883
1573949,Barkholtvej,9881,2,10.2032906,57.557958
1573951,Barkholtvej,9881,3,10.2050567,57.5567756
1573953,Barkholtvej,9881,3B,10.2043484,57.557049
1573954,Barkholtvej,9881,4,10.1984275,57.5603434
1573957,Barkholtvej,9881,5,10.2029602,57.5562117
1573958,Barkholtvej,9881,7,10.1910943,57.5603609
1574028,Erikvej,9881,1,10.1511676,57.5865111
1574033,Erikvej,9881,3,10.1515731,57.5869
1574034,Erikvej,9881,5,10.1518855,57.5871942
1574038,Erikvej,9881,7,10.1510429,57.5876564
1574042,Erikvej,9881,9,10.1519416,57.5876463
1574713,Korsgade,9881,1,10.1981284,57.5363752
1574715,Korsgade,9881,2,10.1984257,57.5362426
1574716,Korsgade,9881,4,10.1986458,57.5363018
1574717,Korsgade,9881,6,10.1990352,57.5364494
1574718,Korsgade,9881,7,10.2001223,57.5373311
1574720,Korsgade,9881,9,10.2003282,57.5372432
1574722,Korsgade,9881,11,10.2003966,57.5370761
1574723,Korsgade,9881,13,10.2005656,57.536957
1575732,Hulsigvej,9881,1,10.2101799,57.5362797
1575733,Hulsigvej,9881,3,10.2154066,57.5343284
1576540,Øster Tverstedvej,9881,1,10.2084799,57.5732526
1576542,Øster Tverstedvej,9881,2A,10.2087961,57.5786857
1576543,Øster Tverstedvej,9881,2B,10.204814,57.569013
1576544,Øster Tverstedvej,9881,2C,10.2076208,57.5618119
1576546,Øster Tverstedvej,9881,3,10.2069814,57.568917
1576547,Øster Tverstedvej,9881,4,10.2069625,57.5610306
1576548,Øster Tverstedvej,9881,5,10.2077833,57.5636229
1576549,Øster Tverstedvej,9881,6,10.2063514,57.5590817
1576550,Øster Tverstedvej,9881,7,10.2105871,57.5617312
1576551,Øster Tverstedvej,9881,8A,10.1999203,57.5606132
1576552,Øster Tverstedvej,9881,8B,10.1998452,57.5607314
1576553,Øster Tverstedvej,9881,8C,10.2049464,57.5585535
1576554,Øster Tverstedvej,9881,9,10.2081457,57.5606406
1576555,Øster Tverstedvej,9881,10,10.2059295,57.5580604
1576556,Øster Tverstedvej,9881,11,10.2071456,57.5569291
1576557,Øster Tverstedvej,9881,13,10.2072776,57.553877
1576558,Øster Tverstedvej,9881,14,10.2063017,57.5529283
1576559,Øster Tverstedvej,9881,15,10.207901,57.551828
1576560,Øster Tverstedvej,9881,16,10.2066391,57.5508829
1576561,Øster Tverstedvej,9881,17,10.2066911,57.5493935
1577112,Vinthers Vej,9881,1,10.1605158,57.5852104
1577113,Vinthers Vej,9881,2,10.1595185,57.5853231
1577114,Vinthers Vej,9881,3,10.1616199,57.5844816
1577115,Vinthers Vej,9881,4,10.1596711,57.5845685
1577116,Vinthers Vej,9881,5,10.1616478,57.5840559
1577117,Vinthers Vej,9881,6,10.159475,57.5838516
1577118,Vinthers Vej,9881,7,10.1615387,57.5835912
1577119,Vinthers Vej,9881,14,10.1587656,57.5809202
1577120,Vinthers Vej,9881,15,10.1602399,57.5807054
1577124,Vinthers Vej,9881,17,10.1603101,57.5802621
1577527,Teglværksvej,9881,1A,10.207445,57.540269
1577528,Teglværksvej,9881,1B,10.2072408,57.5399848
1577529,Teglværksvej,9881,2,10.2064379,57.5405598
1577530,Teglværksvej,9881,3,10.206847,57.539632
1577532,Teglværksvej,9881,4,10.2064283,57.5403407
1577536,Teglværksvej,9881,5,10.2067245,57.539414
1577538,Teglværksvej,9881,6,10.2062151,57.5400228
1577542,Teglværksvej,9881,7,10.2066373,57.5391982
1577545,Teglværksvej,9881,10,10.2053765,57.5395296
1577548,Teglværksvej,9881,16A,10.2053083,57.5382481
1577551,Teglværksvej,9881,21,10.205738,57.537347
1577607,Tronsmarkvej,9881,1,10.1733053,57.5548417
1577608,Tronsmarkvej,9881,2,10.1738988,57.5498436
1577609,Tronsmarkvej,9881,3,10.1706617,57.5596828
1577610,Tronsmarkvej,9881,4,10.1756556,57.553407
1577611,Tronsmarkvej,9881,5,10.1745448,57.5589989
1577612,Tronsmarkvej,9881,6,10.1797301,57.5597002
1577613,Tronsmarkvej,9881,7,10.177197,57.5596289
1577656,Finkevej,9881,3,10.1905384,57.5440194
1577658,Finkevej,9881,4,10.1908692,57.5442703
1577660,Finkevej,9881,6,10.1904103,57.5443312
1577800,Biledvej,9881,1,10.1965338,57.5431584
1577801,Biledvej,9881,2,10.196174,57.543103
1578081,Skolegade,9881,2,10.199969,57.54296
1578083,Skolegade,9881,5,10.1991721,57.5428631
1578085,Skolegade,9881,6,10.1989168,57.543092
1578258,Industrivej,9881,1,10.1948615,57.537387
1578261,Industrivej,9881,2,10.1958896,57.5368948
1578262,Industrivej,9881,4,10.1956936,57.5375677
1578265,Industrivej,9881,6,10.1961613,57.5381449
1578338,Præstebakken,9881,2,10.1680616,57.578149
1578340,Præstebakken,9881,4,10.1681331,57.5783344
1578342,Præstebakken,9881,5,10.1678036,57.5786159
1578343,Præstebakken,9881,7,10.1674288,57.5803676
1578344,Præstebakken,9881,10,10.172476,57.584884
1578345,Præstebakken,9881,11,10.170718,57.585372
1578346,Præstebakken,9881,13,10.1708592,57.5863069
1578347,Præstebakken,9881,15,10.1708771,57.5868302
1578348,Præstebakken,9881,17,10.1700117,57.5873506
1578349,Præstebakken,9881,19,10.170735,57.5873972
1578350,Præstebakken,9881,20,10.1712009,57.5879243
1578351,Præstebakken,9881,21,10.170226,57.5877566
1578352,Præstebakken,9881,22,10.1710877,57.5882992
1578353,Præstebakken,9881,23,10.1704698,57.588009
1578354,Præstebakken,9881,24,10.171079,57.588612
1578355,Præstebakken,9881,25,10.170145,57.588328
1578356,Præstebakken,9881,26,10.17106,57.58894
1578357,Præstebakken,9881,27,10.170151,57.58886
1578358,Præstebakken,9881,28,10.1709941,57.5893454
1578359,Præstebakken,9881,30,10.1708092,57.5899339
1578360,Præstebakken,9881,31,10.1701928,57.5893506
1578446,Svallerhulvej,9881,4,10.2023928,57.5892551
1578447,Svallerhulvej,9881,6,10.2025204,57.5895967
1578449,Svallerhulvej,9881,16,10.2038043,57.5919185
1578450,Svallerhulvej,9881,18,10.2034917,57.5921279
1578451,Svallerhulvej,9881,20,10.203643,57.592367
1578453,Svallerhulvej,9881,27,10.2014885,57.5941448
1578455,Svallerhulvej,9881,29,10.2006928,57.5942306
1578456,Svallerhulvej,9881,31,10.200796,57.594583
1578458,Svallerhulvej,9881,32,10.2017064,57.5949781
1578459,Svallerhulvej,9881,33,10.2009243,57.5948316
1578460,Svallerhulvej,9881,34,10.201739,57.5952367
1578461,Svallerhulvej,9881,35,10.2009126,57.5951132
1578462,Svallerhulvej,9881,36,10.201889,57.5955129
1578463,Svallerhulvej,9881,37,10.2010699,57.5953504
1578464,Svallerhulvej,9881,39,10.2012495,57.5956169
1578484,Margueritevej,9881,1,10.1943446,57.5872691
1578485,Margueritevej,9881,2,10.193242,57.587113
1578487,Margueritevej,9881,3,10.195247,57.587339
1578488,Margueritevej,9881,4,10.192204,57.586918
1578489,Margueritevej,9881,5,10.195378,57.586899
1578490,Margueritevej,9881,6,10.1924654,57.5865458
1578491,Margueritevej,9881,7,10.194478,57.586676
1578492,Margueritevej,9881,8,10.193344,57.586653
1578493,Ågade,9881,2,10.1981895,57.5398173
1578494,Ågade,9881,2A,10.198736,57.5398073
1578495,Ågade,9881,2B,10.1990624,57.5396528
1578496,Ågade,9881,3,10.1992123,57.5399734
1578497,Ågade,9881,4,10.1994973,57.5395966
1578498,Ågade,9881,5,10.1995355,57.5398731
1578499,Ågade,9881,6A,10.1996984,57.5395414
1578500,Ågade,9881,6B,10.1994513,57.5391084
1578501,Ågade,9881,8,10.1999111,57.5394799
1578502,Ågade,9881,9,10.2005361,57.5395915
1578503,Ågade,9881,10,10.1999342,57.5391826
1578504,Ågade,9881,12,10.2006721,57.5392794
1578505,Ågade,9881,16,10.2015778,57.5386309
1578506,Ågade,9881,19,10.2038547,57.5387674
1578507,Ågade,9881,21,10.2045453,57.5385865
1578508,Ågade,9881,23,10.2051808,57.5385457
1578514,Lærkevej,9881,1,10.1953273,57.5444636
1578515,Lærkevej,9881,2,10.1957712,57.5444622
1578516,Lærkevej,9881,3,10.1952637,57.5446698
1578517,Lærkevej,9881,5,10.1951442,57.5449069
1578765,Tuenvej,9881,1,10.292583,57.5497922
1578770,Tuenvej,9881,5,10.2859326,57.5515607
1578781,Tuenvej,9881,10,10.290778,57.5561333
1578784,Tuenvej,9881,12,10.292002,57.5578752
1578790,Tuenvej,9881,14,10.2877019,57.5578789
1578793,Tuenvej,9881,21,10.283439,57.571533
1578797,Tuenvej,9881,25A,10.2829273,57.5724642
1578798,Tuenvej,9881,28,10.285837,57.565006
1578799,Tuenvej,9881,31,10.276418,57.580127
1578800,Tuenvej,9881,59,10.286673,57.5867358
1578801,Tuenvej,9881,62A,10.2877431,57.5873821
1578802,Tuenvej,9881,65A,10.2870112,57.5872341
1578803,Tuenvej,9881,65B,10.2870646,57.5874476
1578804,Tuenvej,9881,65C,10.287115,57.5876499
1578805,Tuenvej,9881,69,10.2876749,57.5886371
1578806,Tuenvej,9881,69A,10.2874228,57.5883959
1578807,Tuenvej,9881,71,10.2877951,57.589013
1578946,Skrubbeltrangvej,9881,1A,10.212787,57.5434479
1578947,Skrubbeltrangvej,9881,1B,10.2144178,57.543018
1578948,Skrubbeltrangvej,9881,2,10.2044502,57.5439097
1578949,Skrubbeltrangvej,9881,3,10.2176721,57.5422647
1578950,Skrubbeltrangvej,9881,4,10.2043256,57.5436243
1578951,Skrubbeltrangvej,9881,6,10.204366,57.54342
1578952,Skrubbeltrangvej,9881,8,10.2043629,57.5432083
1578953,Skrubbeltrangvej,9881,10,10.2047613,57.5429246
1578954,Skrubbeltrangvej,9881,12,10.2047639,57.5431614
1578955,Skrubbeltrangvej,9881,14,10.2048196,57.5433568
1578956,Skrubbeltrangvej,9881,16,10.2048992,57.5435699
1578957,Skrubbeltrangvej,9881,18,10.2049043,57.54373
1578959,Skrubbeltrangvej,9881,20,10.2050117,57.5439811
1579114,Svingelvej,9881,3,10.1940009,57.5900212
1579115,Svingelvej,9881,5,10.1935467,57.5900441
1579116,Svingelvej,9881,7,10.1931306,57.5900653
1579117,Svingelvej,9881,9,10.192595,57.5900981
1579664,Vestervej,9881,1,10.1469573,57.5865772
1579665,Vestervej,9881,3,10.1484001,57.5871886
1579666,Vestervej,9881,5,10.14811,57.586828
1579667,Vestervej,9881,6,10.1449261,57.5862139
1579668,Vestervej,9881,7,10.1487797,57.586603
1579669,Vestervej,9881,9,10.149506,57.586573
1579670,Vestervej,9881,11,10.1503755,57.5864493
1579671,Vestervej,9881,15,10.1574779,57.5862732
1579672,Vestervej,9881,16,10.1523707,57.5855206
1579673,Vestervej,9881,20,10.15465,57.5857196
1579674,Vestervej,9881,22,10.1565814,57.5853654
1579675,Vestervej,9881,25,10.1591772,57.5859567
1579678,Vestervej,9881,26,10.1586273,57.5853337
1579679,Vestervej,9881,27,10.1603567,57.5859047
1579681,Vestervej,9881,29,10.1614912,57.5862052
1579684,Vestervej,9881,32,10.1614142,57.5851981
1579686,Vestervej,9881,34,10.1620208,57.5851593
1579688,Vestervej,9881,35,10.1633161,57.5862708
1579690,Vestervej,9881,36,10.1624603,57.5851389
1579692,Vestervej,9881,38,10.1632564,57.5842045
1579693,Vestervej,9881,40,10.1632501,57.5851004
1579694,Vestervej,9881,41,10.1656175,57.5860131
1579695,Vestervej,9881,43A,10.1668909,57.5860321
1579696,Vestervej,9881,43B,10.1671668,57.5867274
1579697,Vestervej,9881,44,10.1641501,57.5851476
1579698,Vestervej,9881,45,10.1681848,57.5864609
1579699,Vestervej,9881,46,10.1652423,57.5852477
1579700,Vestervej,9881,47,10.1686569,57.5861627
1579701,Vestervej,9881,49,10.1695635,57.5862127
1579702,Vestervej,9881,51,10.1700581,57.5868244
1579703,Vestervej,9881,52,10.1685907,57.5854117
1579704,Vestervej,9881,54,10.1695514,57.5850254
1579798,Falkevej,9881,1,10.207562,57.588203
1579799,Falkevej,9881,2,10.206329,57.588435
1579800,Falkevej,9881,3,10.2078,57.58772
1579801,Falkevej,9881,4,10.2066302,57.5879924
1579802,Falkevej,9881,5,10.2080099,57.5869221
1579803,Falkevej,9881,6,10.206247,57.587493
1579804,Falkevej,9881,7,10.209283,57.587186
1579805,Falkevej,9881,8,10.2066619,57.5870089
1579806,Falkevej,9881,9,10.208889,57.587789
1579807,Falkevej,9881,10A,10.207108,57.58657
1579808,Falkevej,9881,10B,10.206951,57.586261
1579809,Falkevej,9881,11,10.210284,57.587817
1579810,Falkevej,9881,12,10.2070981,57.5858258
1579811,Falkevej,9881,13,10.2104733,57.5873224
1579812,Falkevej,9881,14,10.207316,57.58537
1579813,Falkevej,9881,15,10.2110098,57.5866502
1579814,Falkevej,9881,16,10.2074215,57.5848773
1579816,Falkevej,9881,17,10.211271,57.586156
1579818,Falkevej,9881,18,10.2063844,57.5851214
1579820,Falkevej,9881,19,10.211519,57.5856458
1579821,Falkevej,9881,20,10.206312,57.584642
1579822,Falkevej,9881,21,10.209779,57.585632
1579823,Falkevej,9881,23,10.209435,57.586443
1579824,Falkevej,9881,25,10.208484,57.586312
1579825,Falkevej,9881,27,10.208714,57.585777
1579826,Falkevej,9881,29,10.208749,57.585317
1832407,Tuenvej,9881,2,10.2949908,57.549143
1832408,Tuenvej,9881,3,10.2898943,57.5528097
1832409,Tuenvej,9881,4,10.2984187,57.5495524
1832410,Tuenvej,9881,6,10.2913099,57.5524254
1832411,Tuenvej,9881,7,10.28657,57.5524851
1832412,Tuenvej,9881,9,10.2848045,57.554768
1832413,Tuenvej,9881,11,10.2772811,57.5638862
1832414,Tuenvej,9881,13,10.2838888,57.5650539
1832415,Tuenvej,9881,15,10.2834993,57.5664058
1832416,Tuenvej,9881,16,10.2866965,57.5597369
1832417,Tuenvej,9881,17,10.2783972,57.5683039
1832418,Tuenvej,9881,18,10.2866483,57.5605377
1832419,Tuenvej,9881,19,10.2830225,57.5707294
1832420,Tuenvej,9881,20,10.2853577,57.5622608
1832421,Tuenvej,9881,22,10.2852505,57.5626677
1832422,Tuenvej,9881,24,10.284742,57.56408
1832423,Tuenvej,9881,25,10.2831284,57.5724856
1832424,Tuenvej,9881,26,10.2894018,57.5644536
1832425,Tuenvej,9881,27,10.2825994,57.5755937
1832426,Tuenvej,9881,29,10.2831607,57.5780645
1832427,Tuenvej,9881,30,10.2847291,57.5742098
1832428,Tuenvej,9881,32,10.2848856,57.5760021
1832429,Tuenvej,9881,33,10.2832444,57.5812529
1832430,Tuenvej,9881,34,10.2850432,57.5784037
1832431,Tuenvej,9881,35,10.2800187,57.5833218
1832432,Tuenvej,9881,36,10.2839596,57.5791707
1832433,Tuenvej,9881,37,10.283436,57.5819904
1832434,Tuenvej,9881,38,10.2868352,57.5812945
1832435,Tuenvej,9881,39,10.2847791,57.5827874
1832436,Tuenvej,9881,40,10.2862143,57.5815937
1832437,Tuenvej,9881,41,10.2852889,57.5834697
1832438,Tuenvej,9881,43,10.2852984,57.5836896
1832439,Tuenvej,9881,45,10.2854493,57.5841027
1832440,Tuenvej,9881,50,10.2870115,57.5854955
1832441,Tuenvej,9881,52,10.2870504,57.5856858
1832442,Tuenvej,9881,53,10.2863769,57.5860679
1832443,Tuenvej,9881,54,10.2871805,57.5864048
1832444,Tuenvej,9881,55,10.2864928,57.5862526
1832445,Tuenvej,9881,56,10.2875605,57.5868118
1832447,Tuenvej,9881,57,10.2866078,57.5864308
1832448,Tuenvej,9881,60,10.287577,57.5872124
1832450,Tuenvej,9881,61,10.2867839,57.586896
1832451,Tuenvej,9881,63,10.2868343,57.5870745
1832452,Tuenvej,9881,64,10.2885848,57.589025
1832453,Tuenvej,9881,66,10.288697,57.589178
1832454,Tuenvej,9881,68,10.2889446,57.5895175
1832455,Tuenvej,9881,70,10.2892082,57.5898142
1833201,Mosbjergvej,9881,1,10.201115,57.5418054
1833202,Mosbjergvej,9881,2,10.2015551,57.5415978
1833204,Mosbjergvej,9881,3A,10.2016168,57.5419764
1833205,Mosbjergvej,9881,3B,10.2016817,57.5421521
1833208,Mosbjergvej,9881,3C,10.2018899,57.5423705
1833210,Mosbjergvej,9881,4A,10.2018691,57.5414363
1833212,Mosbjergvej,9881,4B,10.2020279,57.5414357
1833214,Mosbjergvej,9881,5,10.2018652,57.5418592
1833215,Mosbjergvej,9881,6A,10.2023283,57.5413774
1833216,Mosbjergvej,9881,6B,10.2025071,57.5413713
1833217,Mosbjergvej,9881,7,10.2021595,57.5421003
1833218,Mosbjergvej,9881,8A,10.2021672,57.5415961
1833219,Mosbjergvej,9881,8B,10.2023884,57.5415888
1833220,Mosbjergvej,9881,9A,10.2024987,57.542394
1833222,Mosbjergvej,9881,9B,10.2028103,57.541942
1833223,Mosbjergvej,9881,10,10.2029866,57.5415206
1833230,Mosbjergvej,9881,11,10.2031897,57.5418232
1833237,Mosbjergvej,9881,13,10.2035116,57.5418228
1833242,Mosbjergvej,9881,14,10.2041525,57.5413261
1833246,Mosbjergvej,9881,15,10.2038289,57.5417898
1833251,Mosbjergvej,9881,16,10.2044445,57.5412712
1833254,Mosbjergvej,9881,17,10.2043974,57.5415481
1833258,Mosbjergvej,9881,20,10.210083,57.539483
1833259,Mosbjergvej,9881,21,10.2142596,57.5396086
1833260,Mosbjergvej,9881,22,10.2114856,57.5392984
1833261,Mosbjergvej,9881,23,10.2220636,57.537768
1833262,Mosbjergvej,9881,24,10.2119282,57.5390703
1833263,Mosbjergvej,9881,25,10.2287279,57.5361871
1833264,Mosbjergvej,9881,26,10.217458,57.5370538
1833265,Mosbjergvej,9881,27,10.2329453,57.5369455
1833267,Mosbjergvej,9881,28,10.2235618,57.5369793
1833269,Mosbjergvej,9881,30,10.2269043,57.5360185
1833273,Mosbjergvej,9881,31,10.2294183,57.5357413
1833275,Mosbjergvej,9881,32,10.228197,57.535783
1833279,Mosbjergvej,9881,33,10.2309546,57.5352342
1833282,Mosbjergvej,9881,34,10.2283497,57.5334326
1833296,Mosbjergvej,9881,35,10.2338528,57.5338439
1833298,Mosbjergvej,9881,36,10.224104,57.5302732
1833304,Mosbjergvej,9881,37,10.237039,57.533787
1833310,Mosbjergvej,9881,38,10.2327166,57.5296455
1833314,Mosbjergvej,9881,39,10.2397818,57.532462
1833320,Mosbjergvej,9881,40,10.2292977,57.5273397
1833323,Mosbjergvej,9881,41,10.247009,57.533686
1833330,Mosbjergvej,9881,42,10.2368366,57.5280303
1833333,Mosbjergvej,9881,43,10.2488083,57.5326596
1833337,Mosbjergvej,9881,44,10.2378687,57.524153
1833339,Mosbjergvej,9881,45,10.251002,57.5324858
1833344,Mosbjergvej,9881,46,10.2417949,57.5291619
1833346,Mosbjergvej,9881,47,10.2545746,57.5292884
1833351,Mosbjergvej,9881,48,10.2408127,57.5277633
1833356,Mosbjergvej,9881,49A,10.249596,57.527559
1833359,Mosbjergvej,9881,49B,10.2480396,57.526279
1833363,Mosbjergvej,9881,50,10.2454548,57.5268879
1833366,Mosbjergvej,9881,51,10.2494258,57.5254607
1833372,Mosbjergvej,9881,52,10.2462853,57.524805
1836055,Østervej,9881,2,10.1882893,57.5864381
1836059,Østervej,9881,2A,10.1880097,57.5865076
1836063,Østervej,9881,2B,10.1881566,57.5865242
1836066,Østervej,9881,2C,10.1883119,57.5865407
1836070,Østervej,9881,2D,10.1884546,57.5865573
1836074,Østervej,9881,4,10.1889761,57.5865816
1836076,Østervej,9881,8,10.1899791,57.5863767
1836080,Østervej,9881,10,10.190833,57.586802
1836083,Østervej,9881,12,10.196054,57.587522
1836085,Østervej,9881,14,10.1961145,57.5871057
1836089,Østervej,9881,22,10.1974648,57.5873547
1836092,Østervej,9881,26,10.1986014,57.5873719
1836095,Østervej,9881,27,10.1953517,57.5881354
1836098,Østervej,9881,28,10.1983522,57.5877764
1836099,Østervej,9881,29,10.1965372,57.5882214
1836104,Østervej,9881,31,10.1982621,57.5886191
1836108,Østervej,9881,32,10.1997018,57.5882423
1836110,Østervej,9881,34,10.200479,57.588309
1836115,Østervej,9881,36,10.2014391,57.5883731
1836119,Østervej,9881,40,10.2032894,57.5884313
1836121,Østervej,9881,41,10.202464,57.588953
1836125,Østervej,9881,43,10.203177,57.5888694
1836128,Østervej,9881,44,10.2046255,57.5886579
1836131,Østervej,9881,45,10.2031849,57.5892064
1836135,Østervej,9881,47,10.203799,57.589187
1836139,Østervej,9881,49,10.2044744,57.5890372
1836141,Østervej,9881,50,10.208735,57.588186
1836143,Østervej,9881,51,10.2050006,57.5890675
1836147,Østervej,9881,52,10.210075,57.588453
1836151,Østervej,9881,53,10.2065593,57.5890954
1836153,Østervej,9881,55,10.207865,57.5892157
1836156,Østervej,9881,57,10.2088005,57.5891354
1836161,Østervej,9881,67,10.214474,57.5889817
1836164,Østervej,9881,68,10.2208716,57.5885272
1836167,Østervej,9881,69,10.215481,57.5888633
1836169,Østervej,9881,71,10.2162872,57.5886465
1836170,Østervej,9881,73,10.217189,57.5890581
1836173,Østervej,9881,75,10.2183138,57.5894383
1836176,Østervej,9881,77,10.219136,57.589438
1836177,Østervej,9881,79,10.2200353,57.5894597
1836180,Østervej,9881,81,10.2209753,57.5897007
1836182,Østervej,9881,83,10.2219475,57.5897704
1836183,Østervej,9881,85,10.2229888,57.5901289
1836323,Parkvej,9881,1,10.197932,57.5423193
1836326,Parkvej,9881,2,10.1981944,57.5422088
1836329,Parkvej,9881,3A,10.1979105,57.542454
1836330,Parkvej,9881,3B,10.197706,57.542512
1836332,Parkvej,9881,4,10.1983182,57.5423641
1836335,Parkvej,9881,5,10.1980247,57.5426172
1836336,Parkvej,9881,6,10.1983374,57.5425922
1836338,Parkvej,9881,7,10.1980738,57.5427659
1836340,Parkvej,9881,8,10.1984031,57.5427719
1836342,Parkvej,9881,9,10.1981168,57.5428841
1836344,Parkvej,9881,10A,10.1984115,57.5428988
1836346,Parkvej,9881,10B,10.1984471,57.5429675
1836348,Parkvej,9881,10C,10.1984901,57.5428762
1836350,Parkvej,9881,11,10.1981015,57.5430528
1836351,Parkvej,9881,12,10.1985352,57.5431986
1836353,Parkvej,9881,13,10.1979937,57.5431968
1836355,Parkvej,9881,13A,10.1980327,57.543165
1836358,Parkvej,9881,13B,10.1978778,57.5431628
1836360,Parkvej,9881,14,10.1983478,57.5432222
1836362,Parkvej,9881,15,10.1977509,57.5432571
1836364,Parkvej,9881,16,10.1982192,57.5433284
1836366,Parkvej,9881,17,10.1976168,57.543453
1836367,Parkvej,9881,18,10.198049,57.5434668
1836370,Parkvej,9881,19,10.1971642,57.5438285
1836371,Parkvej,9881,20,10.1977995,57.5437687
1836373,Parkvej,9881,20A,10.1978578,57.5436982
1836375,Parkvej,9881,20B,10.197853,57.543767
1836377,Parkvej,9881,21,10.1968905,57.5441421
1836380,Parkvej,9881,22,10.1976197,57.5438681
1836381,Parkvej,9881,23,10.1964188,57.5444507
1836383,Parkvej,9881,24,10.1974438,57.5440234
1836385,Parkvej,9881,25,10.1961323,57.544729
1836386,Parkvej,9881,26,10.197303,57.5441413
1836388,Parkvej,9881,27,10.1959323,57.5449094
1836390,Parkvej,9881,28,10.1971463,57.5443122
1836392,Parkvej,9881,29,10.195619,57.5451512
1836393,Parkvej,9881,30,10.1968398,57.5445769
1836394,Parkvej,9881,31,10.195278,57.54535
1836395,Parkvej,9881,32,10.196502,57.544881
1836396,Parkvej,9881,33,10.1936738,57.5471975
1836397,Parkvej,9881,34,10.1962955,57.5450558
1836398,Parkvej,9881,35,10.1904118,57.5491818
1836399,Parkvej,9881,36,10.194147,57.5500054
1836400,Parkvej,9881,37,10.191413,57.5494727
1836401,Parkvej,9881,38,10.1912367,57.5548126
1836402,Parkvej,9881,39,10.1903145,57.552902
1836403,Parkvej,9881,41,10.1888937,57.5551291
1836404,Sørig Engvej,9881,4,10.287918,57.587985
1836405,Sørig Engvej,9881,6,10.2878847,57.5879146
1836406,Sørig Engvej,9881,8,10.2878511,57.5878421
1836408,Sørig Engvej,9881,10,10.2883979,57.5876626
1836410,Sørig Engvej,9881,11,10.2882688,57.5882616
1836412,Sørig Engvej,9881,11A,10.2880414,57.588291
1836414,Sørig Engvej,9881,11B,10.2882375,57.5883092
1836416,Sørig Engvej,9881,11C,10.2884526,57.5883032
1836418,Sørig Engvej,9881,11D,10.2884276,57.588339
1836420,Sørig Engvej,9881,11E,10.2881886,57.5883447
1836422,Sørig Engvej,9881,12,10.2889396,57.588135
1836424,Sørig Engvej,9881,12A,10.2886037,57.5878109
1836426,Sørig Engvej,9881,13,10.2888916,57.5884036
1836428,Sørig Engvej,9881,14,10.2895275,57.5881843
1836430,Sørig Engvej,9881,15,10.289565,57.5884032
1836432,Sørig Engvej,9881,16,10.2904998,57.5882734
1836434,Sørig Engvej,9881,17,10.2902243,57.5884689
1836436,Sørig Engvej,9881,18,10.291219,57.588309
1836437,Sørig Engvej,9881,19,10.2904834,57.5885801
1836439,Sørig Engvej,9881,20,10.2917109,57.5880469
1836442,Sørig Engvej,9881,21,10.2910128,57.5885515
1836444,Sørig Engvej,9881,22,10.2930466,57.5884976
1836446,Sørig Engvej,9881,23,10.2981528,57.5903695
1836448,Sørig Engvej,9881,24,10.3008418,57.5882231
1836451,Sørig Engvej,9881,25,10.3068453,57.5860992
1836453,Sørig Engvej,9881,26,10.3003775,57.583359
1836456,Sørig Engvej,9881,27,10.3053701,57.5856438
1836457,Sørig Engvej,9881,28,10.2974128,57.5774752
1836459,Sørig Engvej,9881,30,10.296997,57.575335
1836462,Sørig Engvej,9881,31,10.3036008,57.5786789
1836463,Sørig Engvej,9881,32,10.2995386,57.5735718
1836465,Sørig Engvej,9881,33,10.3062097,57.5747069
1836468,Sørig Engvej,9881,34,10.2990179,57.5703855
1836469,Sørig Engvej,9881,35,10.3061736,57.5740534
1836472,Sørig Engvej,9881,38,10.2994385,57.5619962
1836474,Sørig Engvej,9881,39,10.3060551,57.5586924
1836475,Sørig Engvej,9881,40,10.3005968,57.5615447
1836478,Sørig Engvej,9881,41,10.3081638,57.5566147
1836480,Sørig Engvej,9881,42,10.2970248,57.5586
1836481,Sørig Engvej,9881,43,10.303014,57.5548253
1840558,Vester Klitvej,9881,1,10.225485,57.596519
1840559,Vester Klitvej,9881,2,10.2259977,57.5988558
1840560,Vester Klitvej,9881,3,10.2245223,57.5968273
1840561,Vester Klitvej,9881,4A,10.225803,57.597603
1840562,Vester Klitvej,9881,4B,10.224815,57.597512
1840563,Vester Klitvej,9881,5,10.222604,57.597115
1840564,Vester Klitvej,9881,6,10.225857,57.597942
1840565,Vester Klitvej,9881,8,10.224196,57.5980563
1840566,Vester Klitvej,9881,9,10.2213994,57.5973738
1840567,Vester Klitvej,9881,10,10.2232228,57.5978367
1840568,Vester Klitvej,9881,11,10.2216475,57.5969596
1840569,Vester Klitvej,9881,12A,10.219119,57.599294
1840570,Vester Klitvej,9881,12B,10.2186846,57.5997568
1840571,Vester Klitvej,9881,13,10.2206894,57.5969919
1840572,Vester Klitvej,9881,14A,10.217665,57.600729
1840573,Vester Klitvej,9881,14B,10.217242,57.6003951
1840574,Vester Klitvej,9881,15,10.220602,57.597407
1840575,Vester Klitvej,9881,16,10.21715,57.599967
1840576,Vester Klitvej,9881,17,10.219636,57.5972424
1840577,Vester Klitvej,9881,18,10.216242,57.600397
1840578,Vester Klitvej,9881,19,10.2180341,57.5990269
1840579,Vester Klitvej,9881,20,10.2160454,57.6000001
1840580,Vester Klitvej,9881,22,10.2155181,57.5999896
1840581,Vester Klitvej,9881,23,10.2155768,57.5990494
1840582,Vester Klitvej,9881,24,10.2150589,57.5997308
1840583,Vester Klitvej,9881,26,10.2147076,57.6000716
1840584,Vester Klitvej,9881,27,10.2129255,57.598755
1840585,Vester Klitvej,9881,28,10.2136987,57.5999181
1840586,Vester Klitvej,9881,29,10.2119034,57.5987124
1840587,Vester Klitvej,9881,30,10.2135711,57.5995427
1840588,Vester Klitvej,9881,32,10.2126948,57.5995391
1841113,Kløvervej,9881,1,10.1887324,57.5869302
1841114,Kløvervej,9881,2,10.1892449,57.5870257
1841115,Kløvervej,9881,3,10.1887437,57.587148
1841116,Kløvervej,9881,4,10.1891897,57.5872397
1841117,Kløvervej,9881,5,10.1886851,57.5873708
1841118,Kløvervej,9881,6,10.1891348,57.5874532
1841119,Kløvervej,9881,7,10.1886957,57.587596
1841120,Kløvervej,9881,8,10.1891445,57.5876696
1841121,Kløvervej,9881,9,10.188433,57.5877163
1841122,Kløvervej,9881,9A,10.1885248,57.5877441
1841123,Kløvervej,9881,9B,10.1885164,57.5878224
1841124,Kløvervej,9881,10,10.1891551,57.5878865
1841125,Kløvervej,9881,11,10.188644,57.5880609
1841126,Kløvervej,9881,12,10.1890993,57.5881007
1841127,Kløvervej,9881,13,10.1885871,57.5882911
1841128,Kløvervej,9881,14,10.1890394,57.5883129
1841129,Kløvervej,9881,15,10.1886056,57.5884718
1841132,Kløvervej,9881,16,10.1890199,57.588537
1841134,Kløvervej,9881,17,10.1885855,57.5886788
1841136,Kløvervej,9881,18,10.1890017,57.5887083
1841139,Kløvervej,9881,19,10.1885645,57.5888883
1841141,Kløvervej,9881,20,10.1890064,57.5889218
1841144,Kløvervej,9881,21,10.1884434,57.5891656
1841148,Kløvervej,9881,22,10.1889608,57.5892886
1841150,Kløvervej,9881,23A,10.1882947,57.5893798
1841153,Kløvervej,9881,23B,10.1881789,57.5894177
1841154,Kløvervej,9881,24,10.1889471,57.5895709
1841156,Kløvervej,9881,25,10.1885463,57.5895447
1841258,Sdr Bindslevvej,9881,2,10.1867582,57.5387462
1841262,Sdr Bindslevvej,9881,2B,10.1870605,57.5381976
1841267,Sdr Bindslevvej,9881,3,10.196661,57.5276755
1841269,Sdr Bindslevvej,9881,4,10.1906898,57.5370046
1841274,Sdr Bindslevvej,9881,5,10.1953092,57.5278496
1841275,Sdr Bindslevvej,9881,6,10.193399,57.52851
1841276,Sdr Bindslevvej,9881,7,10.1955748,57.5275778
1841280,Sdr Bindslevvej,9881,8,10.1892967,57.527178
1841282,Sdr Bindslevvej,9881,9,10.1957768,57.5273339
1841285,Sdr Bindslevvej,9881,10,10.189893,57.5270092
1841289,Sdr Bindslevvej,9881,11,10.1957134,57.5269568
1841290,Sdr Bindslevvej,9881,12,10.1893863,57.5267997
1841293,Sdr Bindslevvej,9881,13,10.1958258,57.5267563
1841295,Sdr Bindslevvej,9881,14,10.1944474,57.5267892
1841299,Sdr Bindslevvej,9881,16,10.194387,57.525265
1841303,Sdr Bindslevvej,9881,17,10.1964707,57.5261255
1841305,Sdr Bindslevvej,9881,18A,10.1963292,57.5248414
1841308,Sdr Bindslevvej,9881,18B,10.1959533,57.5246001
1841310,Sdr Bindslevvej,9881,19,10.1988182,57.5230689
1841315,Sdr Bindslevvej,9881,21,10.1982881,57.5223453
1841318,Sdr Bindslevvej,9881,22,10.1975861,57.5225531
1841321,Sdr Bindslevvej,9881,23,10.198308,57.52215
1841326,Sdr Bindslevvej,9881,24,10.1977037,57.5222431
1841328,Sdr Bindslevvej,9881,25,10.1985146,57.5218552
1841330,Sdr Bindslevvej,9881,26,10.1977567,57.5220362
1841336,Sdr Bindslevvej,9881,27,10.1984966,57.5217126
1841339,Sdr Bindslevvej,9881,28,10.1979097,57.5218392
1841344,Sdr Bindslevvej,9881,29,10.1990665,57.521273
1841347,Sdr Bindslevvej,9881,30,10.1971728,57.5214864
1841350,Sdr Bindslevvej,9881,31,10.1991843,57.5202467
1841357,Sdr Bindslevvej,9881,33,10.2015406,57.5205472
1841358,Sdr Bindslevvej,9881,35,10.2007258,57.5176443
1841362,Sdr Bindslevvej,9881,37,10.2057073,57.5162768
1841363,Sdr Bindslevvej,9881,39,10.2067905,57.5140632
1841369,Sdr Bindslevvej,9881,41,10.2056681,57.5114778
1842616,Mellemklitvej,9881,1,10.2296466,57.6011747
1842618,Mellemklitvej,9881,2,10.22955,57.6020938
1842619,Mellemklitvej,9881,3,10.2283503,57.6017349
1842620,Mellemklitvej,9881,4,10.2272643,57.6038651
1842621,Mellemklitvej,9881,5,10.2279,57.601646
1842622,Mellemklitvej,9881,6,10.2239335,57.6015924
1842623,Mellemklitvej,9881,7,10.2278074,57.601285
1842624,Mellemklitvej,9881,8,10.2234922,57.6020481
1842625,Mellemklitvej,9881,9,10.227139,57.601225
1842626,Mellemklitvej,9881,10,10.2227941,57.6017668
1842627,Mellemklitvej,9881,11,10.2271592,57.6015549
1842628,Mellemklitvej,9881,12,10.2229856,57.6012074
1842629,Mellemklitvej,9881,13,10.2264006,57.6014947
1842630,Mellemklitvej,9881,14,10.2222565,57.6014676
1842631,Mellemklitvej,9881,15,10.2263769,57.6011248
1842632,Mellemklitvej,9881,16,10.2214547,57.6010814
1842633,Mellemklitvej,9881,17,10.225628,57.601077
1842634,Mellemklitvej,9881,18,10.221515,57.600795
1842635,Mellemklitvej,9881,19,10.2255422,57.6013116
1842636,Mellemklitvej,9881,20,10.220466,57.601173
1842637,Mellemklitvej,9881,21,10.2248126,57.6011882
1842638,Mellemklitvej,9881,22,10.2207499,57.6006525
1842639,Mellemklitvej,9881,24,10.2201472,57.6006102
1842640,Mellemklitvej,9881,25,10.2236883,57.600802
1842641,Mellemklitvej,9881,26,10.2195418,57.6012991
1842642,Mellemklitvej,9881,27,10.2240828,57.6010827
1842643,Mellemklitvej,9881,28,10.218837,57.6011826
1842644,Mellemklitvej,9881,29,10.2232348,57.6007753
1842645,Mellemklitvej,9881,30,10.2192927,57.6007433
1842646,Mellemklitvej,9881,31,10.2226246,57.6007771
1842647,Mellemklitvej,9881,32,10.2195769,57.6003513
1842648,Mellemklitvej,9881,34,10.2182951,57.6001803
1843744,Mogensbækvej,9881,1,10.193222,57.5239249
1843745,Mogensbækvej,9881,2,10.1966135,57.5242816
1843746,Mogensbækvej,9881,3,10.1864689,57.5227128
1843747,Mogensbækvej,9881,4,10.1959002,57.5242755
1843748,Mogensbækvej,9881,5,10.182026,57.51892
1843749,Mogensbækvej,9881,6,10.1954341,57.5242589
1843750,Mogensbækvej,9881,8,10.1949802,57.5242417
1843751,Mogensbækvej,9881,10,10.1883573,57.5258261
1843752,Mogensbækvej,9881,10B,10.1894704,57.5263583
1843753,Mogensbækvej,9881,12,10.186945,57.5250303
1843754,Mogensbækvej,9881,14,10.1865687,57.525437
1843755,Mogensbækvej,9881,16,10.1826588,57.5275148
1843756,Mogensbækvej,9881,18,10.1833689,57.5265526
1843757,Mogensbækvej,9881,20,10.185264,57.525035
1843758,Mogensbækvej,9881,22,10.177009,57.5247056
1843759,Mogensbækvej,9881,24,10.1860128,57.524359
1843760,Mogensbækvej,9881,26,10.181331,57.523138
1843761,Mogensbækvej,9881,28,10.1778796,57.5210751
1843762,Mogensbækvej,9881,30,10.1758369,57.5220688
1843763,Mogensbækvej,9881,32,10.1774825,57.5189501
1843764,Mogensbækvej,9881,34,10.1775417,57.5153958
1843765,Mogensbækvej,9881,36,10.1735777,57.5137881
1843766,Kornblomstvej,9881,2,10.197559,57.5885099
1843767,Kornblomstvej,9881,3,10.1962469,57.588493
1843768,Kornblomstvej,9881,4,10.1974082,57.5888606
1843769,Kornblomstvej,9881,5,10.1964687,57.5889116
1843770,Kornblomstvej,9881,6,10.198106,57.5891203
1843771,Kornblomstvej,9881,7,10.1958273,57.5892008
1843772,Kornblomstvej,9881,8,10.1982903,57.5894606
1843773,Kornblomstvej,9881,9,10.1961849,57.5895231
1843774,Kornblomstvej,9881,11,10.195853,57.590171
1843775,Kornblomstvej,9881,12,10.1966718,57.5906677
1843776,Kornblomstvej,9881,13,10.1957905,57.590519
1843777,Kornblomstvej,9881,15,10.1957462,57.5912249
1843778,Kornblomstvej,9881,16,10.1966936,57.5917108
1843779,Kornblomstvej,9881,17,10.1957204,57.5917109
1843780,Kornblomstvej,9881,18,10.196712,57.592083
1843781,Kornblomstvej,9881,19,10.1958837,57.5923565
1843782,Kornblomstvej,9881,20,10.1971467,57.5926773
1843783,Kornblomstvej,9881,21,10.1960451,57.5928003
1843785,Kornblomstvej,9881,22,10.1984737,57.5930483
1843786,Kornblomstvej,9881,23,10.1963542,57.5931559
1843788,Kornblomstvej,9881,24,10.1977307,57.5936094
1843790,Kornblomstvej,9881,25,10.1966998,57.5937113
1843891,Stadion Alle,9881,1A,10.195975,57.5466872
1843892,Stadion Alle,9881,1B,10.1966199,57.5469578
1843893,Stadion Alle,9881,1C,10.1982921,57.5454302
1843894,Stadion Alle,9881,2,10.1968258,57.5451567
1843895,Stadion Alle,9881,3,10.1978279,57.5467308
1843898,Stadion Alle,9881,4,10.19744,57.5451977
1843900,Stadion Alle,9881,5,10.1988835,57.5478103
1843902,Stadion Alle,9881,6,10.1981008,57.5451996
1843904,Stadion Alle,9881,7,10.1991853,57.5454999
1843907,Stadion Alle,9881,8,10.1990982,57.5452498
1843909,Stadion Alle,9881,9,10.1999285,57.5454871
1843911,Stadion Alle,9881,10,10.1998115,57.5451772
1843913,Stadion Alle,9881,11,10.1998592,57.5459778
1843914,Stadion Alle,9881,13,10.20021,57.5455461
1843918,Stadion Alle,9881,13B,10.2003267,57.545853
1843921,Stadion Alle,9881,14,10.2010683,57.5452989
1843922,Stadion Alle,9881,15,10.2009649,57.5456018
1843924,Stadion Alle,9881,17,10.2015858,57.5457094
1843927,Stadion Alle,9881,19,10.202111,57.54574
1843931,Stadion Alle,9881,23,10.2027687,57.5473465
1844946,Gammel Uggerbyvej,9881,1,10.197267,57.543487
1844947,Gammel Uggerbyvej,9881,2,10.1967216,57.5437527
1844950,Gammel Uggerbyvej,9881,3,10.1971072,57.5431798
1844953,Gammel Uggerbyvej,9881,4,10.1962916,57.5438257
1844955,Gammel Uggerbyvej,9881,5,10.196916,57.5435036
1844958,Gammel Uggerbyvej,9881,7,10.1966629,57.5435117
1844959,Gammel Uggerbyvej,9881,8,10.195744,57.5437964
1844962,Gammel Uggerbyvej,9881,9,10.1961257,57.5435341
1844964,Gammel Uggerbyvej,9881,10,10.1952868,57.5438353
1844966,Gammel Uggerbyvej,9881,11,10.195792,57.5435487
1844969,Gammel Uggerbyvej,9881,12,10.194969,57.543844
1844971,Gammel Uggerbyvej,9881,13,10.195191,57.543579
1844973,Gammel Uggerbyvej,9881,15,10.194883,57.543602
1844976,Gammel Uggerbyvej,9881,17,10.1944479,57.5436247
1844978,Gammel Uggerbyvej,9881,19,10.1937124,57.5436547
1844981,Gammel Uggerbyvej,9881,21,10.1931055,57.5436317
1844983,Gammel Uggerbyvej,9881,23,10.1924145,57.5437129
1844985,Gammel Uggerbyvej,9881,25,10.1920581,57.5437278
1844987,Gammel Uggerbyvej,9881,27,10.1918908,57.5437409
1844990,Gammel Uggerbyvej,9881,29,10.1916311,57.5437491
1845297,Trynbakkevej,9881,1,10.230305,57.541324
1845301,Trynbakkevej,9881,2,10.2245889,57.5376399
1845302,Trynbakkevej,9881,3,10.2282688,57.5395092
1845307,Trynbakkevej,9881,4,10.2260491,57.5376654
1845310,Trynbakkevej,9881,5,10.2465551,57.542069
1845311,Trynbakkevej,9881,6,10.2353629,57.5387751
1845316,Trynbakkevej,9881,7,10.2476793,57.5412153
1845321,Trynbakkevej,9881,8,10.2434569,57.5407268
1845324,Trynbakkevej,9881,9A,10.247759,57.540485
1845326,Trynbakkevej,9881,9B,10.2482146,57.5401951
1845329,Trynbakkevej,9881,10,10.2419294,57.5383731
1845330,Trynbakkevej,9881,11,10.2487928,57.5394585
1845331,Trynbakkevej,9881,12,10.2492735,57.5381312
1845332,Trynbakkevej,9881,13,10.2534953,57.537935
1845333,Trynbakkevej,9881,14,10.2563606,57.5358878
1845334,Trynbakkevej,9881,15,10.2592444,57.5351557
1845335,Trynbakkevej,9881,16,10.259212,57.534342
1845336,Trynbakkevej,9881,17,10.2604326,57.5343443
1845337,Trynbakkevej,9881,19,10.2608851,57.5339241
1845338,Trynbakkevej,9881,231,10.2629334,57.5329332
1845339,Trynbakkevej,9881,237,10.2620714,57.5337019
1845663,Rævevej,9881,1,10.2023158,57.5909314
1845664,Rævevej,9881,2,10.2026917,57.5912781
1845668,Rævevej,9881,3,10.2015162,57.5910026
1845669,Rævevej,9881,4,10.2023045,57.5914757
1845671,Rævevej,9881,5,10.2010136,57.5910774
1845673,Rævevej,9881,6,10.2017758,57.5914849
1845675,Rævevej,9881,7,10.2006491,57.5909153
1845677,Rævevej,9881,8,10.2012714,57.5916172
1845679,Rævevej,9881,9,10.2003928,57.5912522
1845682,Rævevej,9881,10,10.2006296,57.5916824
1845683,Rævevej,9881,11,10.1997063,57.5909766
1845684,Rævevej,9881,12,10.200524,57.591979
1845687,Rævevej,9881,13,10.1999623,57.5913529
1845690,Rævevej,9881,14,10.2007013,57.5922532
1845691,Rævevej,9881,15,10.1997414,57.5917465
1845693,Rævevej,9881,16,10.2001884,57.5925252
1845695,Rævevej,9881,17,10.1999163,57.5920486
1845697,Rævevej,9881,18,10.200209,57.5927404
1845699,Rævevej,9881,20,10.2005759,57.5930472
1846058,Bettevej,9881,1,10.1674809,57.5779522
1846059,Bettevej,9881,3,10.1675332,57.5781504
1846060,Bettevej,9881,5,10.1670948,57.5781429
1846061,Bettevej,9881,8,10.16316,57.579008
1846062,Bettevej,9881,9,10.162959,57.578658
1846063,Bettevej,9881,11,10.1614018,57.5786882
1846064,Bettevej,9881,13,10.1608232,57.5789788
1846065,Bettevej,9881,17,10.1599214,57.5790109
1846066,Bettevej,9881,17A,10.1580632,57.5791061
1846067,Bettevej,9881,22,10.1662557,57.5805961
1846068,Bettevej,9881,34,10.1536265,57.5812311
1846069,Bettevej,9881,36,10.1526794,57.5806329
1846070,Bettevej,9881,38,10.149566,57.5820973
1846071,Bettevej,9881,40,10.1491233,57.5789366
1846072,Bettevej,9881,44,10.1465942,57.5780958
1846073,Bettevej,9881,48,10.1427118,57.5798886
1846074,Bettevej,9881,50,10.1417396,57.5773901
1846075,Bettevej,9881,53,10.1378154,57.5743686
1846076,Bettevej,9881,54,10.1386084,57.5788727
1846077,Bettevej,9881,60,10.1352317,57.5784458
1846078,Bettevej,9881,62,10.1364067,57.5752677
1846227,Flodbækvej,9881,1,10.2030056,57.5933801
1846228,Flodbækvej,9881,2,10.203184,57.592646
1846229,Flodbækvej,9881,3,10.2037257,57.5933673
1846230,Flodbækvej,9881,4,10.2034759,57.5928354
1846233,Flodbækvej,9881,5,10.2041357,57.5935481
1846234,Flodbækvej,9881,6,10.2038667,57.5930751
1846236,Flodbækvej,9881,7,10.2045293,57.5937717
1846238,Flodbækvej,9881,8,10.2042644,57.5931058
1846240,Flodbækvej,9881,9,10.2041031,57.59404
1846242,Flodbækvej,9881,10,10.2048047,57.5929057
1846244,Flodbækvej,9881,11,10.2044012,57.5943074
1846246,Flodbækvej,9881,12,10.2054073,57.5930684
1846249,Flodbækvej,9881,14,10.205349,57.593368
1846252,Flodbækvej,9881,16,10.205289,57.593671
1846254,Flodbækvej,9881,18,10.2051423,57.5938744
1846255,Flodbækvej,9881,20,10.2051261,57.5940439
1846258,Flodbækvej,9881,22,10.2050422,57.594426
1847015,Trynmosevej,9881,1,10.260901,57.549807
1847016,Trynmosevej,9881,2,10.2395606,57.5413596
1847017,Trynmosevej,9881,3,10.2648289,57.5516911
1847018,Trynmosevej,9881,4,10.2430573,57.544069
1847019,Trynmosevej,9881,5,10.2668847,57.5524578
1847020,Trynmosevej,9881,5B,10.267449,57.5550299
1847021,Trynmosevej,9881,7,10.3006772,57.5610799
1847022,Trynmosevej,9881,8,10.2447266,57.546368
1847023,Trynmosevej,9881,10,10.2551169,57.5465649
1847024,Trynmosevej,9881,12,10.2677752,57.5516191
1847025,Trynmosevej,9881,14,10.2738798,57.5582557
1847026,Trynmosevej,9881,16,10.2880842,57.5599303
1847027,Trynmosevej,9881,20,10.2997566,57.5608159
1847028,Trynmosevej,9881,22,10.3001591,57.5608519
1847031,Trynmosevej,9881,24,10.3005775,57.5607053
1847138,Månedalsvej,9881,1,10.2035701,57.5916481
1847139,Månedalsvej,9881,2,10.2032092,57.5911323
1847140,Månedalsvej,9881,3,10.2040951,57.5916664
1847141,Månedalsvej,9881,4,10.2038751,57.591044
1847144,Månedalsvej,9881,5,10.2045042,57.5915979
1847145,Månedalsvej,9881,6,10.2046998,57.591183
1847147,Månedalsvej,9881,7,10.2048405,57.5917499
1847149,Månedalsvej,9881,8,10.2054451,57.5911451
1847151,Månedalsvej,9881,9,10.2052055,57.5919458
1847152,Månedalsvej,9881,10,10.205711,57.59151
1847155,Månedalsvej,9881,11,10.2057452,57.5919554
1847156,Månedalsvej,9881,12,10.207274,57.593141
1847159,Månedalsvej,9881,13,10.2056983,57.5922998
1847161,Månedalsvej,9881,15,10.2059582,57.5925074
1847163,Månedalsvej,9881,17,10.2061221,57.592806
1847164,Månedalsvej,9881,19,10.2064125,57.5930884
1847452,Fyrrevej,9881,1A,10.1867294,57.5910344
1847453,Fyrrevej,9881,1B,10.1870835,57.5913416
1847454,Fyrrevej,9881,3,10.187972,57.5914956
1847456,Fyrrevej,9881,4,10.1871381,57.5908743
1847457,Fyrrevej,9881,6,10.1873584,57.5909293
1847459,Fyrrevej,9881,7,10.1892465,57.591471
1847460,Fyrrevej,9881,9,10.1898371,57.5914086
1847461,Fyrrevej,9881,15A,10.1911846,57.5915546
1847463,Fyrrevej,9881,15B,10.1917527,57.5915053
1847464,Fyrrevej,9881,15C,10.1914635,57.5912794
1847466,Fyrrevej,9881,15D,10.1918949,57.5912898
1847467,Fyrrevej,9881,17,10.1917237,57.5909963
1847469,Fyrrevej,9881,19,10.1918123,57.5907763
1847470,Fyrrevej,9881,21,10.1915643,57.590538
1847471,Fyrrevej,9881,23,10.1916927,57.5903216
1847472,Fyrrevej,9881,25,10.1917869,57.5900776
1847473,Fyrrevej,9881,27,10.1915592,57.5897762
1847670,Elkærvej,9881,1,10.1906428,57.5773304
1847671,Elkærvej,9881,2,10.1899584,57.5763091
1847672,Elkærvej,9881,3,10.1910816,57.5772822
1847673,Elkærvej,9881,4,10.1912631,57.576091
1847674,Elkærvej,9881,5,10.1917937,57.5772767
1847675,Elkærvej,9881,6,10.1924435,57.5765951
1847676,Elkærvej,9881,7,10.1928212,57.5771572
1847677,Elkærvej,9881,8,10.1999746,57.5731312
1847678,Elkærvej,9881,10,10.226828,57.5656847
1847679,Elkærvej,9881,10A,10.2314193,57.5607918
1847680,Elkærvej,9881,11,10.1987144,57.5769748
1847681,Elkærvej,9881,12,10.2372054,57.557414
1847682,Elkærvej,9881,13A,10.2184395,57.5726258
1847683,Elkærvej,9881,14,10.2410989,57.5573614
1847684,Elkærvej,9881,15,10.2365246,57.5624191
1847685,Elkærvej,9881,15B,10.2358065,57.5627848
1847686,Elkærvej,9881,16,10.2376547,57.5530641
1847687,Elkærvej,9881,17,10.2436467,57.5561878
1847688,Elkærvej,9881,19,10.2503851,57.5498917
1848078,Ålehulsvej,9881,2,10.2183209,57.5983921
1848079,Ålehulsvej,9881,3,10.2176709,57.5972621
1848080,Ålehulsvej,9881,4,10.2183207,57.5986698
1848081,Ålehulsvej,9881,5,10.2164813,57.5972154
1848082,Ålehulsvej,9881,6,10.2173145,57.5984303
1848083,Ålehulsvej,9881,7,10.215802,57.597413
1848084,Ålehulsvej,9881,8,10.2174679,57.5981228
1848085,Ålehulsvej,9881,10,10.2178782,57.5977018
1848086,Ålehulsvej,9881,12,10.217181,57.5977629
1848087,Ålehulsvej,9881,14,10.2165733,57.5979951
1848088,Ålehulsvej,9881,16,10.2159196,57.598033
1848089,Ålehulsvej,9881,18,10.2141553,57.5982882
1848090,Ålehulsvej,9881,20,10.2147424,57.5975192
1848091,Ålehulsvej,9881,22,10.213933,57.597592
1848092,Ålehulsvej,9881,26,10.2111398,57.5980154
1848321,Lynggårdsvej,9881,4,10.1658031,57.5690813
1848328,Lynggårdsvej,9881,6,10.1688718,57.5663533
1848331,Lynggårdsvej,9881,7,10.1579316,57.5661791
1848333,Lynggårdsvej,9881,8,10.1703177,57.5653548
1848337,Lynggårdsvej,9881,9,10.159776,57.566518
1848341,Lynggårdsvej,9881,10,10.1776175,57.5670372
1848342,Lynggårdsvej,9881,11,10.1700776,57.5692375
1848344,Lynggårdsvej,9881,12,10.1757906,57.5641104
1848347,Lynggårdsvej,9881,15,10.1792247,57.570423
1848349,Lynggårdsvej,9881,17,10.1800689,57.5709474
1848915,Klitrosevej,9881,2,10.1947445,57.5881033
1848919,Klitrosevej,9881,4,10.1946089,57.5885722
1848921,Klitrosevej,9881,6,10.1950075,57.588734
1848922,Klitrosevej,9881,8,10.1952155,57.5892337
1848925,Klitrosevej,9881,10,10.194708,57.5893379
1848927,Klitrosevej,9881,12,10.1948766,57.5897057
1848929,Klitrosevej,9881,14,10.1948385,57.5901269
1848931,Klitrosevej,9881,16,10.194855,57.590639
1848933,Klitrosevej,9881,18,10.1949628,57.5911677
1848935,Klitrosevej,9881,19,10.1940107,57.5915254
1848938,Klitrosevej,9881,20,10.1950456,57.5918348
1848940,Klitrosevej,9881,21,10.1943904,57.5934431
1848942,Klitrosevej,9881,22,10.1950798,57.5923966
1848943,Klitrosevej,9881,23,10.194528,57.5938439
1848945,Klitrosevej,9881,24,10.195174,57.5928323
1848948,Klitrosevej,9881,28,10.1957259,57.5938347
1849946,Stensbækvej,9881,1,10.2043818,57.5445281
1849947,Stensbækvej,9881,2,10.2049072,57.5444019
1849948,Stensbækvej,9881,4,10.2057218,57.5445025
1849949,Stensbækvej,9881,4B,10.2066353,57.5443777
1849950,Stensbækvej,9881,5,10.2129052,57.547839
1849951,Stensbækvej,9881,6,10.2227903,57.546525
1849952,Stensbækvej,9881,7,10.2188197,57.5496462
1849953,Stensbækvej,9881,8,10.2267651,57.5465226
1849954,Stensbækvej,9881,9,10.2195712,57.5496184
1849955,Stensbækvej,9881,10,10.2287049,57.5458945
1849956,Stensbækvej,9881,11,10.22642,57.5503481
1849957,Stensbækvej,9881,12,10.2300393,57.5450314
1849960,Stensbækvej,9881,13,10.2297138,57.5486534
1849962,Stensbækvej,9881,14,10.2378847,57.5453042
1850060,Mellemgade,9881,2,10.1975016,57.5426669
1850062,Mellemgade,9881,4,10.1972662,57.5427791
1850063,Mellemgade,9881,6,10.1968666,57.5427733
1850065,Mellemgade,9881,8,10.1965079,57.5427933
1850066,Mellemgade,9881,9,10.1973384,57.5425075
1850067,Mellemgade,9881,11,10.1973058,57.5424102
1850068,Mellemgade,9881,13,10.1970203,57.5425301
1850069,Mellemgade,9881,15,10.1968509,57.5425449
1850070,Mellemgade,9881,17,10.1970473,57.542281
1850071,Mellemgade,9881,19,10.1968849,57.542301
1850072,Mellemgade,9881,21,10.1966377,57.5423512
1850073,Mellemgade,9881,23,10.1964753,57.5423713
1850074,Mellemgade,9881,25,10.1964866,57.5425027
1850075,Mellemgade,9881,27,10.1965167,57.54259
1850672,Lykkevangen,9881,1,10.2003311,57.5407369
1850673,Lykkevangen,9881,2,10.2005647,57.540577
1850674,Lykkevangen,9881,3,10.2004006,57.5408281
1850675,Lykkevangen,9881,4,10.2006707,57.540704
1850676,Lykkevangen,9881,5,10.2002906,57.5410557
1850677,Lykkevangen,9881,6,10.2007987,57.5408698
1850678,Lykkevangen,9881,7,10.200359,57.5410328
1850679,Lykkevangen,9881,8,10.2009703,57.5410032
1850680,Lykkevangen,9881,9,10.2004319,57.5410088
1850681,Lykkevangen,9881,10,10.2010874,57.541173
1850682,Lykkevangen,9881,11,10.2005228,57.5409879
1850683,Lykkevangen,9881,12,10.2011469,57.5413946
1850684,Lykkevangen,9881,14,10.2012294,57.5415314
1850685,Lykkevangen,9881,15,10.20069,57.5411397
1851490,Dortevej,9881,1,10.1442708,57.5851447
1851491,Dortevej,9881,2,10.14468,57.584431
1851492,Dortevej,9881,3,10.1435103,57.5857386
1851493,Dortevej,9881,4,10.145219,57.5846451
1851494,Dortevej,9881,5,10.1440285,57.5859021
1851495,Dortevej,9881,6,10.1459429,57.5848989
1851496,Dortevej,9881,8,10.1468426,57.5852063
1851497,Dortevej,9881,9,10.1453453,57.5855321
1851498,Dortevej,9881,10,10.1485465,57.5856422
1851499,Dortevej,9881,11,10.1466884,57.5859116
1851500,Dortevej,9881,12,10.1490114,57.5849394
1851501,Dortevej,9881,13,10.1474675,57.5858884
1851502,Dortevej,9881,14,10.149284,57.584291
1851503,Dortevej,9881,16,10.1495931,57.5837331
1851592,Timianvej,9881,4,10.1913722,57.5934059
1851594,Timianvej,9881,5,10.192259,57.5927622
1851599,Timianvej,9881,6,10.1914146,57.5932017
1851600,Timianvej,9881,7,10.1922882,57.5925566
1851604,Timianvej,9881,8,10.191404,57.592997
1851608,Timianvej,9881,9,10.192224,57.5922728
1851610,Timianvej,9881,10,10.1913203,57.5927844
1851614,Timianvej,9881,12,10.1915257,57.5925593
1851615,Timianvej,9881,14,10.1914834,57.5923632
1851619,Timianvej,9881,16,10.1915547,57.5921503
1851623,Timianvej,9881,18,10.1916867,57.5919488
1851626,Timianvej,9881,20,10.1921896,57.5919719
1851910,Nørre Alle,9881,1,10.2014964,57.5438162
1851911,Nørre Alle,9881,2,10.2016131,57.5440044
1851912,Nørre Alle,9881,3,10.2012634,57.5439444
1851913,Nørre Alle,9881,4,10.2015345,57.5441572
1851914,Nørre Alle,9881,5,10.2012143,57.5442412
1851915,Nørre Alle,9881,7,10.2010207,57.5445227
1851916,Nørre Alle,9881,7B,10.2009566,57.5443106
1851917,Nørre Alle,9881,9,10.200921,57.544668
1851918,Nørre Alle,9881,11,10.2007723,57.544895
1851919,Nørre Alle,9881,12,10.2012957,57.5448194
1851920,Nørre Alle,9881,13,10.2006461,57.545087
1851921,Nørre Alle,9881,15,10.2004483,57.5453054
1852471,Plantagevej,9881,1,10.1984531,57.5440979
1852475,Plantagevej,9881,2,10.198926,57.5440735
1852476,Plantagevej,9881,3,10.1982834,57.5442531
1852478,Plantagevej,9881,4,10.1987948,57.5442423
1852481,Plantagevej,9881,5,10.1982052,57.544411
1852484,Plantagevej,9881,6,10.1986785,57.5444136
1852487,Plantagevej,9881,7,10.1980743,57.5445573
1852488,Plantagevej,9881,8,10.1986707,57.5446279
1852490,Plantagevej,9881,9,10.1979627,57.5447196
1852492,Plantagevej,9881,10,10.1983654,57.5448147
1852495,Plantagevej,9881,11,10.197714,57.544906
1852497,Plantagevej,9881,12,10.1982276,57.5449941
1852518,Gammel Skovvej,9881,1,10.1860829,57.5907972
1852520,Gammel Skovvej,9881,1B,10.1860113,57.5905506
1852521,Gammel Skovvej,9881,3,10.185324,57.590738
1852524,Gammel Skovvej,9881,4,10.1853513,57.5910168
1852526,Gammel Skovvej,9881,7,10.184379,57.590666
1852528,Gammel Skovvej,9881,9,10.184317,57.59096
1852530,Gammel Skovvej,9881,11A,10.184017,57.5911213
1852531,Gammel Skovvej,9881,11B,10.183481,57.591245
1852533,Gammel Skovvej,9881,12,10.18361,57.591647
1852535,Gammel Skovvej,9881,13,10.1833014,57.5915247
1852537,Gammel Skovvej,9881,14,10.1833351,57.5918003
1852538,Gammel Skovvej,9881,15,10.182993,57.5916311
1852539,Elværksvej,9881,3,10.1974212,57.5411633
1852540,Elværksvej,9881,4,10.194552,57.541301
1852541,Elværksvej,9881,5,10.1969075,57.5412831
1852542,Elværksvej,9881,7,10.1965209,57.541213
1852543,Elværksvej,9881,9,10.1958532,57.5411183
1852544,Elværksvej,9881,11,10.1943582,57.5406639
1852545,Elværksvej,9881,13A,10.1945119,57.5409291
1852546,Elværksvej,9881,13B,10.1943034,57.5409066
1852547,Elværksvej,9881,15A,10.1939782,57.5408688
1852548,Elværksvej,9881,15B,10.193778,57.54085
1852549,Elværksvej,9881,19,10.1923669,57.5406731
1852877,Danielvej,9881,1,10.1528864,57.5863268
1852879,Danielvej,9881,2,10.1542518,57.5862434
1852880,Danielvej,9881,3,10.1529337,57.5866389
1852881,Danielvej,9881,4,10.1553905,57.5866654
1852882,Danielvej,9881,5,10.153705,57.5871871
1852883,Danielvej,9881,6,10.1554635,57.5870241
1852884,Danielvej,9881,7,10.1529163,57.5875904
1852885,Danielvej,9881,8,10.1558532,57.5875028
1852886,Danielvej,9881,9,10.1534935,57.587537
1852887,Danielvej,9881,10,10.1551547,57.587429
1852888,Danielvej,9881,11,10.1541842,57.5918461
1852889,Danielvej,9881,12,10.1544691,57.5874717
1853332,Markvej,9881,1,10.1854391,57.5875973
1853333,Markvej,9881,3,10.1852663,57.5879262
1853334,Markvej,9881,4,10.1860238,57.5878243
1853335,Markvej,9881,5,10.1855021,57.588244
1853336,Markvej,9881,6,10.1861857,57.5880993
1853337,Markvej,9881,7,10.1852091,57.5884702
1853338,Markvej,9881,8,10.1859721,57.5883931
1853339,Markvej,9881,9,10.1853668,57.5887021
1853340,Markvej,9881,10,10.186101,57.588723
1853341,Markvej,9881,11,10.1852128,57.5890119
1853342,Markvej,9881,12,10.1860914,57.5890481
1853343,Markvej,9881,14,10.1860644,57.5892431
1853354,Kirkevej,9881,1,10.1869651,57.5338832
1853355,Kirkevej,9881,3,10.180334,57.5326867
1853356,Kirkevej,9881,4,10.1853645,57.5351823
1853357,Kirkevej,9881,5,10.179467,57.53083
1853358,Kirkevej,9881,6,10.183355,57.535163
1853359,Kirkevej,9881,7,10.178758,57.532757
1853360,Kirkevej,9881,7A,10.1775738,57.5326737
1853361,Kirkevej,9881,8,10.1757486,57.5346151
1853362,Kirkevej,9881,9,10.1755466,57.5319042
1853363,Kirkevej,9881,10,10.1735885,57.5334366
1853364,Kirkevej,9881,10A,10.1736597,57.5328942
1853365,Kirkevej,9881,10B,10.1747162,57.5327563
1853366,Kirkevej,9881,11,10.1638965,57.5253992
1853367,Kirkevej,9881,11A,10.1617218,57.5275111
1853368,Kirkevej,9881,12,10.1513669,57.5283345
1853369,Kirkevej,9881,13,10.1650147,57.5245499
1853370,Kirkevej,9881,15,10.1644172,57.5217317
1853506,Spættevej,9881,1,10.2209156,57.5980991
1853507,Spættevej,9881,2,10.2231162,57.5985193
1853508,Spættevej,9881,3,10.221121,57.598426
1853509,Spættevej,9881,4,10.2227845,57.5989159
1853511,Spættevej,9881,5,10.221196,57.598751
1853512,Spættevej,9881,6,10.2228232,57.599429
1853513,Spættevej,9881,7,10.2208244,57.5990511
1853514,Spættevej,9881,8,10.2228222,57.5998665
1853515,Spættevej,9881,9,10.2205341,57.5994069
1853516,Spættevej,9881,10,10.2221455,57.6002852
1853517,Spættevej,9881,11,10.220334,57.599847
1853841,Glentevej,9881,1,10.2164997,57.5908427
1853845,Glentevej,9881,2,10.2141959,57.5896142
1853850,Glentevej,9881,3,10.2173027,57.5909051
1853853,Glentevej,9881,4,10.2149287,57.5895066
1853857,Glentevej,9881,5,10.2184738,57.5909021
1853860,Glentevej,9881,6,10.2158368,57.5895389
1853862,Glentevej,9881,7,10.2194994,57.5908415
1853864,Glentevej,9881,8,10.2165721,57.5896199
1853868,Glentevej,9881,10,10.2173119,57.589615
1853870,Glentevej,9881,12,10.2180558,57.5897816
1853873,Glentevej,9881,14,10.219789,57.590215
1854215,Uglevej,9881,1,10.2131828,57.5883149
1854216,Uglevej,9881,2,10.2113109,57.5884656
1854217,Uglevej,9881,3,10.213422,57.587859
1854218,Uglevej,9881,4,10.211679,57.587906
1854219,Uglevej,9881,5,10.213875,57.587482
1854220,Uglevej,9881,6,10.212013,57.587277
1854221,Uglevej,9881,7,10.213767,57.58687
1854222,Uglevej,9881,8,10.2123353,57.5866921
1854223,Uglevej,9881,9,10.213954,57.586336
1854224,Uglevej,9881,10,10.2127323,57.5859903
1854313,Haren,9881,1,10.201276,57.588967
1854315,Haren,9881,2,10.2014787,57.5892891
1854316,Haren,9881,3,10.2004697,57.5888445
1854317,Haren,9881,4,10.200696,57.589321
1854318,Haren,9881,5,10.199572,57.588724
1854319,Haren,9881,6,10.2000193,57.589345
1854322,Haren,9881,7,10.19922,57.58909
1854324,Haren,9881,8,10.200141,57.589904
1854327,Haren,9881,9,10.199315,57.589692
1854329,Haren,9881,10,10.2008624,57.5899229
1854333,Haren,9881,11,10.199588,57.590176
1854337,Haren,9881,12,10.2016223,57.5899051
1854340,Haren,9881,13,10.2001404,57.5903211
1854342,Haren,9881,15,10.2008275,57.5904428
1854345,Haren,9881,17,10.2014065,57.5903604
1854349,Haren,9881,19,10.2020163,57.5903339
1854425,Vangenvej,9881,2,10.1947989,57.5359463
1854426,Vangenvej,9881,3,10.1952684,57.5359031
1854427,Vangenvej,9881,4,10.1944751,57.535811
1854428,Vangenvej,9881,5,10.1949766,57.5355604
1854429,Vangenvej,9881,6,10.1940506,57.5357247
1854430,Vangenvej,9881,7,10.1943025,57.5355174
1854431,Vangenvej,9881,8,10.1935831,57.5357212
1854432,Vangenvej,9881,9,10.1938909,57.5354231
1854433,Vangenvej,9881,10,10.1930365,57.5355499
1854434,Vangenvej,9881,11,10.1932984,57.5353831
1854986,Søttrupvej,9881,1,10.1502676,57.5311056
1854988,Søttrupvej,9881,2,10.1527166,57.5398381
1854992,Søttrupvej,9881,4,10.1501275,57.5340666
1854993,Søttrupvej,9881,5,10.151348,57.5181787
1854995,Søttrupvej,9881,6,10.1492608,57.5307093
1854997,Søttrupvej,9881,7,10.1560331,57.5176202
1854999,Søttrupvej,9881,8,10.1493367,57.5250132
1855001,Søttrupvej,9881,9,10.1590203,57.5177872
1855004,Søttrupvej,9881,11,10.1533399,57.51549
1855007,Søttrupvej,9881,12,10.1488436,57.5248039
1855120,Musvitvej,9881,1,10.2241415,57.5917652
1855122,Musvitvej,9881,2,10.2239751,57.5924599
1855123,Musvitvej,9881,3,10.2234491,57.59176
1855124,Musvitvej,9881,4,10.2231456,57.5927028
1855126,Musvitvej,9881,5,10.2227779,57.591755
1855128,Musvitvej,9881,6,10.2222878,57.5925633
1855129,Musvitvej,9881,7,10.2219999,57.5915801
1855130,Musvitvej,9881,8,10.22133,57.5923916
1855131,Musvitvej,9881,9,10.221415,57.5916874
1855132,Musvitvej,9881,11,10.220727,57.591832
1855269,Hængebrovej,9881,2,10.140833,57.585668
1855270,Hængebrovej,9881,4,10.1424769,57.5851367
1855271,Hængebrovej,9881,5,10.1453937,57.5837771
1855272,Hængebrovej,9881,6,10.1416046,57.5850369
1855273,Hængebrovej,9881,7,10.1458166,57.5830626
1855274,Hængebrovej,9881,8,10.1414709,57.584646
1855275,Hængebrovej,9881,10,10.142808,57.5843557
1855276,Hængebrovej,9881,12,10.1438244,57.5836721
1855278,Hængebrovej,9881,12B,10.1434173,57.5836231
1855279,Hængebrovej,9881,20,10.1461157,57.5812986
1855422,Grønningen,9881,2,10.200757,57.5437609
1855424,Grønningen,9881,4,10.1999407,57.5437766
1855426,Grønningen,9881,5,10.1988864,57.543565
1855428,Grønningen,9881,6,10.1996116,57.5437699
1855430,Grønningen,9881,7,10.1985558,57.5435488
1855431,Grønningen,9881,8,10.1992633,57.5437148
1855434,Grønningen,9881,8A,10.1990302,57.5438141
1855435,Grønningen,9881,10,10.1985328,57.5437374
1855438,Grønningen,9881,12,10.1981397,57.5437288
1855449,Havevej,9881,1,10.1998107,57.5441341
1855450,Havevej,9881,2,10.2006489,57.5440907
1855451,Havevej,9881,3,10.199715,57.5443454
1855452,Havevej,9881,4,10.2002656,57.5443871
1855453,Havevej,9881,5,10.1996074,57.5445613
1855454,Havevej,9881,6,10.2001557,57.5446099
1855455,Havevej,9881,7,10.1995194,57.5447407
1855456,Havevej,9881,8,10.19991,57.544972
1855457,Havevej,9881,9,10.1994321,57.544918
1855458,Havevej,9881,11,10.1993495,57.5450831
1855468,Floddalsvej,9881,2,10.2074951,57.5900414
1855469,Floddalsvej,9881,3,10.207214,57.590491
1855470,Floddalsvej,9881,4,10.208184,57.590264
1855471,Floddalsvej,9881,5,10.2072826,57.5911083
1855472,Floddalsvej,9881,6,10.2087156,57.5905789
1855473,Floddalsvej,9881,7,10.2081969,57.591277
1855474,Floddalsvej,9881,8,10.2096171,57.5910454
1855475,Floddalsvej,9881,9,10.2086068,57.5919076
1855476,Floddalsvej,9881,12,10.2103133,57.5923367
1855631,Geddevej,9881,1,10.1919241,57.5405524
1855634,Geddevej,9881,2,10.1914314,57.5405697
1855636,Geddevej,9881,3,10.1920456,57.5403284
1855637,Geddevej,9881,4,10.1915442,57.5403387
1855641,Geddevej,9881,5,10.192045,57.5401017
1855642,Geddevej,9881,6,10.1916608,57.5400882
1855645,Geddevej,9881,7,10.1922418,57.5398681
1855648,Geddevej,9881,8,10.191705,57.5398139
1855650,Geddevej,9881,9,10.192386,57.5396641
1855652,Geddevej,9881,10,10.1918062,57.5395963
1855653,Geddevej,9881,11,10.1922764,57.5393001
1855836,Sulevej,9881,1,10.2150884,57.5918248
1855841,Sulevej,9881,2,10.2166577,57.5912951
1855842,Sulevej,9881,3,10.2162739,57.5925992
1855844,Sulevej,9881,4,10.2171508,57.5914171
1855846,Sulevej,9881,5,10.2171658,57.5918416
1855848,Sulevej,9881,6,10.2189052,57.5914327
1855850,Sulevej,9881,7,10.2183598,57.5923303
1855852,Sulevej,9881,9,10.2192819,57.5924098
1855854,Sulevej,9881,11,10.2196696,57.5919648
1856028,Bentvej,9881,2,10.1585566,57.5865119
1856029,Bentvej,9881,3,10.1575509,57.5870878
1856030,Bentvej,9881,4,10.1585609,57.5870234
1856031,Bentvej,9881,5,10.1574714,57.5876623
1856032,Bentvej,9881,6,10.1588421,57.587547
1856033,Bentvej,9881,7,10.158759,57.5878426
1856034,Bentvej,9881,9,10.159369,57.5881547
1856035,Bentvej,9881,11,10.1601332,57.5882026
1856036,Bentvej,9881,13,10.160758,57.588239
1856422,Laksevej,9881,1,10.1923435,57.5409946
1856423,Laksevej,9881,2,10.1928221,57.5410554
1856424,Laksevej,9881,3,10.1922212,57.5412805
1856425,Laksevej,9881,4,10.1926071,57.5413596
1856426,Laksevej,9881,5,10.1921003,57.5415387
1856427,Laksevej,9881,6,10.1924748,57.5415922
1856428,Laksevej,9881,7,10.1918798,57.5418398
1856429,Laksevej,9881,8,10.1923938,57.5418329
1856430,Laksevej,9881,10,10.1922321,57.5420348
1856626,Fasanvej,9881,1,10.2252171,57.595347
1856628,Fasanvej,9881,2,10.225491,57.5960804
1856631,Fasanvej,9881,3,10.22439,57.595524
1856632,Fasanvej,9881,4,10.2246367,57.596088
1856634,Fasanvej,9881,5,10.223412,57.5955336
1856637,Fasanvej,9881,6,10.2237528,57.5964034
1856638,Fasanvej,9881,7,10.2225933,57.5959572
1856640,Fasanvej,9881,8,10.222732,57.596402
1856643,Fasanvej,9881,10,10.222241,57.596577
1856666,Bogfinkevej,9881,1,10.2134036,57.5919759
1856667,Bogfinkevej,9881,2,10.2139306,57.5931445
1856668,Bogfinkevej,9881,3,10.2125694,57.5920122
1856669,Bogfinkevej,9881,4,10.212914,57.592794
1856670,Bogfinkevej,9881,5,10.2113463,57.5924263
1856671,Bogfinkevej,9881,6,10.2119046,57.593127
1856672,Bogfinkevej,9881,8,10.2122048,57.5937918
1856673,Bogfinkevej,9881,10,10.2112943,57.5943094
1856674,Bogfinkevej,9881,13,10.210708,57.5937602
1857134,Tyttebærvej,9881,1,10.1907258,57.5889339
1857137,Tyttebærvej,9881,2,10.190883,57.5885902
1857141,Tyttebærvej,9881,3,10.1910684,57.5889672
1857142,Tyttebærvej,9881,4,10.1912433,57.5886117
1857147,Tyttebærvej,9881,5,10.191568,57.5891106
1857150,Tyttebærvej,9881,6,10.1917769,57.5886453
1857153,Tyttebærvej,9881,7,10.1920264,57.5891301
1857156,Tyttebærvej,9881,8,10.1921695,57.5886458
1857246,Snerlevej,9881,1,10.194066,57.592128
1857249,Snerlevej,9881,2,10.1944097,57.5925203
1857250,Snerlevej,9881,3,10.193646,57.5920615
1857253,Snerlevej,9881,4,10.1936802,57.5925385
1857254,Snerlevej,9881,5,10.1932647,57.591787
1857255,Snerlevej,9881,6,10.1933224,57.5924563
1857257,Snerlevej,9881,8,10.1931123,57.5922616
1858065,Duevej,9881,1,10.2095677,57.5892789
1858067,Duevej,9881,2,10.211317,57.588939
1858069,Duevej,9881,3,10.2096871,57.5896645
1858070,Duevej,9881,4,10.210891,57.58951
1858072,Duevej,9881,5,10.2096891,57.5901411
1858074,Duevej,9881,6,10.210573,57.590106
1858076,Duevej,9881,7,10.2095323,57.5905008
1858079,Duevej,9881,8,10.2105548,57.590719
1858359,Åskrænten,9881,1,10.187615,57.579224
1858361,Åskrænten,9881,2,10.1877091,57.5790123
1858366,Åskrænten,9881,3,10.1880687,57.5792856
1858367,Åskrænten,9881,4,10.1881465,57.5790248
1858369,Åskrænten,9881,5,10.188562,57.5793788
1858372,Åskrænten,9881,6,10.188523,57.5790136
1858374,Åskrænten,9881,7,10.1887891,57.5792235
1858524,Tranebærvej,9881,5,10.1903753,57.5881675
1858526,Tranebærvej,9881,7,10.1902743,57.5883966
1858529,Tranebærvej,9881,9,10.1900137,57.5885834
1858530,Tranebærvej,9881,10,10.190665,57.589406
1858531,Tranebærvej,9881,11,10.1899226,57.588828
1858532,Tranebærvej,9881,13,10.1898397,57.589067
1858533,Tranebærvej,9881,15,10.1898354,57.5894098
1858534,Vester Alle,9881,1,10.1957264,57.5431262
1858535,Vester Alle,9881,2,10.195329,57.543285
1858536,Vester Alle,9881,3,10.1958427,57.5429249
1858537,Vester Alle,9881,4,10.19531,57.543094
1858538,Vester Alle,9881,5,10.1958494,57.5427043
1858539,Vester Alle,9881,6,10.1952764,57.5429438
1858540,Vester Alle,9881,8,10.1953045,57.542673
1858710,Rødkælkvej,9881,1,10.219958,57.588223
1858711,Rødkælkvej,9881,2,10.218183,57.5878976
1858712,Rødkælkvej,9881,3,10.219885,57.587771
1858713,Rødkælkvej,9881,4,10.2181631,57.5873903
1858714,Rødkælkvej,9881,5,10.219934,57.587342
1858715,Rødkælkvej,9881,6,10.218366,57.58671
1858716,Rødkælkvej,9881,7,10.220009,57.586887
1859270,Nordkapvej,9881,2,10.198947,57.588
1859275,Nordkapvej,9881,3,10.199928,57.587926
1859280,Nordkapvej,9881,4,10.199093,57.587584
1859282,Nordkapvej,9881,5,10.2000222,57.5876423
1859285,Nordkapvej,9881,6,10.199286,57.587242
1859287,Nordkapvej,9881,7,10.200214,57.587273
1859290,Nordkapvej,9881,8,10.2011576,57.585737
1859390,Lucernevej,9881,1,10.193781,57.5888613
1859391,Lucernevej,9881,2,10.1939002,57.5893862
1859392,Lucernevej,9881,3,10.1933351,57.5888085
1859393,Lucernevej,9881,4,10.1934884,57.589349
1859394,Lucernevej,9881,5,10.1927891,57.5887206
1859395,Lucernevej,9881,6,10.1930901,57.5892214
1859396,Lucernevej,9881,8,10.1925747,57.5891609
1859492,Klitstuevej,9881,1,10.189308,57.594343
1859493,Klitstuevej,9881,2,10.1893986,57.593857
1859494,Klitstuevej,9881,3,10.190095,57.594793
1859495,Klitstuevej,9881,4,10.189942,57.594018
1859496,Klitstuevej,9881,5,10.1898378,57.5950791
1859497,Klitstuevej,9881,8,10.1904846,57.5944584
1859498,Klitstuevej,9881,10,10.1905418,57.5947407
1859499,Klitstuevej,9881,12,10.1906122,57.5951816
1859565,Mejsevej,9881,1,10.224329,57.5908753
1859566,Mejsevej,9881,2,10.2214463,57.5910359
1859568,Mejsevej,9881,3,10.2236471,57.5909762
1859571,Mejsevej,9881,4,10.2206975,57.5911453
1859572,Mejsevej,9881,5,10.2226652,57.590505
1859574,Mejsevej,9881,7,10.2214675,57.5902511
1859576,Mejsevej,9881,9,10.2208904,57.5902217
1860208,Ferievej,9881,2,10.1862609,57.5898555
1860209,Ferievej,9881,5,10.185917,57.5894299
1860210,Ferievej,9881,7,10.1854929,57.5893512
1860211,Ferievej,9881,9,10.1841462,57.5890837
1860212,Ferievej,9881,12,10.1839711,57.5893506
1860571,Vibevej,9881,1,10.1940309,57.5444212
1860573,Vibevej,9881,3,10.194042,57.5445889
1860574,Vibevej,9881,4,10.1944617,57.5447161
1860576,Vibevej,9881,5,10.1939771,57.5448263
1860578,Vibevej,9881,6,10.1945692,57.5449447
1860580,Vibevej,9881,7,10.1939992,57.544957
1860963,Nattergalevej,9881,1,10.1942953,57.5433423
1860964,Nattergalevej,9881,2,10.1938791,57.5434262
1860965,Nattergalevej,9881,3,10.1943858,57.5430809
1860966,Nattergalevej,9881,4,10.193887,57.5431501
1860967,Nattergalevej,9881,5,10.1943102,57.5428293
1860968,Nattergalevej,9881,6,10.1937862,57.5429642
1861097,Kærmindevej,9881,2,10.2893781,57.5826064
1861101,Kærmindevej,9881,3,10.2966689,57.5820463
1861104,Kærmindevej,9881,4,10.2923197,57.5817817
1861105,Kærmindevej,9881,6,10.2927941,57.5822379
1861110,Kærmindevej,9881,8,10.2944814,57.5817944
1861113,Kærmindevej,9881,10,10.2988726,57.5808958
1861588,Fårebakken,9881,1,10.2026653,57.5925251
1861590,Fårebakken,9881,2,10.2024077,57.5929845
1861593,Fårebakken,9881,3,10.2020139,57.5925013
1861597,Fårebakken,9881,4,10.2018304,57.5929949
1861598,Fårebakken,9881,5,10.201405,57.592513
1861602,Fårebakken,9881,6,10.2013829,57.5927394
1862047,Abelvej,9881,3,10.1615298,57.5868416
1862050,Abelvej,9881,4,10.162574,57.5875521
1862053,Abelvej,9881,5,10.1612768,57.587477
1862056,Abelvej,9881,6,10.1635207,57.5878288
1862059,Abelvej,9881,7,10.1612488,57.5885269
1862062,Abelvej,9881,9,10.1626381,57.5887278
1862132,Øster Mogensbækvej,9881,1,10.1799206,57.5165479
1862134,Øster Mogensbækvej,9881,3,10.1847873,57.5123635
1862137,Arvevej,9881,1,10.1942891,57.592937
1862138,Arvevej,9881,3,10.1938693,57.5929486
1862140,Arvevej,9881,4,10.1940215,57.5933624
1862142,Arvevej,9881,5,10.1934364,57.5930436
1862143,Arvevej,9881,6,10.1935971,57.5933647
1862898,Kamillevej,9881,1,10.192116,57.593554
1862901,Kamillevej,9881,2,10.1920783,57.5931024
1862907,Kamillevej,9881,3,10.1925872,57.5936639
1862914,Kamillevej,9881,4,10.1924331,57.5931801
1862917,Kamillevej,9881,6,10.1928819,57.5932454
1862976,Elkærmarkvej,9881,1,10.2280018,57.5712868
1862977,Elkærmarkvej,9881,2,10.231193,57.568959
1862978,Elkærmarkvej,9881,3,10.2303573,57.5698144
1862979,Elkærmarkvej,9881,4,10.2334795,57.5679733
1862980,Elkærmarkvej,9881,6,10.234924,57.56741
1863520,Stabækvej,9881,6,10.1393205,57.5718149
1864130,Hjælmevej,9881,2,10.193878,57.5945167
1864132,Hjælmevej,9881,3,10.1935493,57.5947244
1864133,Hjælmevej,9881,4,10.1943372,57.5947125
1864134,Hjælmevej,9881,6,10.1943542,57.594937
1864135,Hjælmevej,9881,8,10.194713,57.595547
1864340,Enebærvej,9881,1,10.1906567,57.5873637
1864341,Enebærvej,9881,2,10.1905148,57.5878022
1864343,Enebærvej,9881,3,10.1900523,57.5873355
1864344,Enebærvej,9881,4,10.1899861,57.5876806
1864375,Fælledvej,9881,3,10.2021107,57.5803163
1864376,Fælledvej,9881,3A,10.20209,57.58009
1864380,Fælledvej,9881,4,10.2003492,57.5785878
1864383,Fælledvej,9881,5,10.2025968,57.5796738
1864387,Fælledvej,9881,7,10.2017319,57.5787286
1864555,Annavej,9881,2,10.1576144,57.5853387
1864557,Annavej,9881,3,10.1587672,57.5847147
1864559,Annavej,9881,4,10.1578068,57.5847819
1864560,Annavej,9881,6,10.1578008,57.5841082
1864841,Søndergårdsvej,9881,2,10.1950456,57.5245414
1864842,Søndergårdsvej,9881,4,10.1954989,57.5245463
1864845,Søndergårdsvej,9881,8,10.1956812,57.5247805
1864846,Søndergårdsvej,9881,10,10.1949411,57.5247558
1864946,Solsortevej,9881,1,10.193088,57.5433943
1864947,Solsortevej,9881,2,10.1925723,57.5433212
1864949,Solsortevej,9881,3,10.1931242,57.5431474
1865247,Pilevej,9881,1,10.1878609,57.5899007
1865249,Pilevej,9881,3,10.188285,57.5900398
1865252,Pilevej,9881,11,10.1907595,57.5898789
1865489,Lyngvej,9881,1,10.202444,57.594061
1865492,Lyngvej,9881,2,10.2033604,57.5938524
1865494,Lyngvej,9881,4,10.2031323,57.5941546
1865956,Gårdbogårdvej,9881,8,10.2965889,57.5652864
1865960,Gårdbogårdvej,9881,10,10.2972473,57.566091
1865963,Gårdbogårdvej,9881,12,10.2971518,57.5674757
1866069,Drosselvej,9881,1,10.2239464,57.590005
1866072,Drosselvej,9881,2,10.2255621,57.5936391
1866074,Drosselvej,9881,3,10.2234774,57.5904021
1866175,Doravej,9881,1,10.147308,57.584442
1866177,Doravej,9881,2,10.146741,57.583861
1866178,Doravej,9881,3,10.1478518,57.5840257
1866180,Doravej,9881,4,10.147012,57.583215
1866181,Doravej,9881,5,10.148554,57.583488
1866183,Doravej,9881,7,10.1485825,57.5829102
1866503,Tvervej,9881,1,10.1991667,57.5401888
1866513,Tvervej,9881,2,10.199192,57.5403828
2106396,Løgtegården,9881,2,10.1923428,57.5848232
2106398,Løgtegården,9881,4,10.1917373,57.5849067
2106399,Løgtegården,9881,6,10.191317,57.584821
2106401,Løgtegården,9881,8,10.191553,57.584483
2106403,Løgtegården,9881,10,10.1920568,57.5845317
2106407,Løgtegården,9881,12,10.1926201,57.5845986
2106408,Løgtegården,9881,14,10.1928214,57.584242
2106411,Løgtegården,9881,16,10.1922829,57.5841843
2106418,Løgtegården,9881,18,10.1916949,57.5841463
2106423,Løgtegården,9881,20,10.191949,57.583792
2106433,Løgtegården,9881,22,10.1924092,57.5838128
2106436,Løgtegården,9881,24,10.1929714,57.5838551
2106447,Løgtegården,9881,26,10.1930386,57.5834947
2106457,Løgtegården,9881,28,10.192612,57.583488
2106461,Løgtegården,9881,30,10.1921302,57.5834628
2106470,Løgtegården,9881,32,10.19236,57.5830744
2106479,Løgtegården,9881,34,10.1927324,57.5830821
2106482,Løgtegården,9881,36,10.1931171,57.583113
2140858,Agerhønevej,9881,4,10.2007082,57.5879798
2140865,Agerhønevej,9881,6,10.2008839,57.587684
2140870,Agerhønevej,9881,8,10.200809,57.58734
2140874,Agerhønevej,9881,10,10.20158,57.587464
2140882,Agerhønevej,9881,12,10.2016323,57.587685
2140884,Agerhønevej,9881,14,10.2014399,57.5880534
2141723,Blishønevej,9881,1,10.216737,57.587995
2141729,Blishønevej,9881,2,10.214983,57.587996
2141733,Blishønevej,9881,3,10.216607,57.587544
2141738,Blishønevej,9881,4,10.21513,57.587407
2141746,Blishønevej,9881,5,10.2171062,57.5871215
2141749,Blishønevej,9881,6,10.215435,57.586981
2141758,Blishønevej,9881,7,10.2169931,57.5866396
2141763,Blishønevej,9881,8,10.215258,57.586428
2144736,Høgevej,9881,2,10.20225,57.588453
2144746,Høgevej,9881,4,10.202467,57.588185
2144750,Høgevej,9881,6,10.2025526,57.5878636
2144759,Høgevej,9881,8,10.202611,57.5875898
2144762,Høgevej,9881,10,10.203341,57.587689
2144776,Høgevej,9881,12,10.2033112,57.5880349
2148433,Røllikevej,9881,2,10.204123,57.588467
2148441,Røllikevej,9881,4,10.204036,57.588108
2148444,Røllikevej,9881,6,10.204208,57.587718
2148451,Røllikevej,9881,8,10.204763,57.587772
2148453,Røllikevej,9881,12,10.2048203,57.5884179
2224076,Tannisbugtvej,9881,9A,10.184124,57.583346
2224077,Tannisbugtvej,9881,86A,10.189401,57.59042
2224078,Tannisbugtvej,9881,129A,10.181648,57.595688
2231338,Paradisdalen,9881,39,10.196388,57.595715
2231404,Andersvej,9881,1,10.163633,57.588488
2231405,Andersvej,9881,3,10.162992,57.589175
2231456,Teglmarken,9881,9,10.185821,57.589807
2234162,Stadion Alle,9881,22,10.202773,57.545429
2234359,Hjælmevej,9881,1,10.193464,57.594294
