idx,street,postcode,housenumber,lon,lat
677363,Agerhønevej,9940,1,11.123317,57.301292
677364,Agerhønevej,9940,2,11.1236053,57.3013198
677365,Agerhønevej,9940,4,11.1238275,57.3021441
677366,Alsdybvejen,9940,1,10.9668268,57.2513592
677367,Alsdybvejen,9940,3,10.9661786,57.2498955
677368,Alsdybvejen,9940,5,10.9660286,57.2473496
677369,Agersigen,9940,1,10.9263562,57.2817766
677370,Agersigen,9940,2,10.9249548,57.2805216
677371,Agersigen,9940,3,10.9266,57.282523
677372,Agersigen,9940,4,10.9306053,57.2815172
677373,Agersigen,9940,5,10.9277618,57.2821857
677374,Agersigen,9940,7,10.9284927,57.2825014
677375,Agersigen,9940,8,10.929979,57.2828831
677376,Agersigen,9940,8A,10.9304806,57.2830996
677377,Agersigen,9940,9,10.927432,57.283852
677378,Agersigen,9940,9A,10.9279008,57.283822
677379,Agersigen,9940,10,10.931752,57.2831302
677380,Agersigen,9940,11,10.9292205,57.2830842
677381,Agersigen,9940,12,10.9322446,57.2834031
677382,Agersigen,9940,13,10.933605,57.284682
677383,Agersigen,9940,15,10.9346874,57.2852288
677384,Agersigen,9940,16,10.9357407,57.2848435
677385,Agersigen,9940,16A,10.9360494,57.2847571
677386,Agersigen,9940,17,10.9352075,57.2853669
677387,Agersigen,9940,18,10.9364102,57.2851956
677388,Agersigen,9940,18A,10.9366368,57.2846161
677389,Agersigen,9940,20,10.9369331,57.2858855
677390,Agersigen,9940,21,10.9359083,57.2857031
677391,Agersigen,9940,21A,10.944891,57.2857799
677392,Agersigen,9940,22,10.9385458,57.2859807
677393,Agersigen,9940,24,10.9409306,57.2851378
677394,Ahornvej,9940,1,10.9976569,57.257695
677395,Alkevej,9940,2,10.8940266,57.2652668
677396,Alkevej,9940,4,10.8933325,57.2654948
677397,Alkevej,9940,6,10.8926596,57.2657183
677398,Alkevej,9940,8,10.8919815,57.2659323
677399,Alkevej,9940,10,10.891323,57.2661367
677400,Alleen,9940,1,11.1500795,57.307533
677401,Alleen,9940,2,11.1511195,57.3041576
677402,Alleen,9940,2A,11.1524684,57.3027287
677403,Alleen,9940,3,11.1522858,57.3052104
677404,Alleen,9940,4,11.1561595,57.3038994
677405,Alleen,9940,5,11.155193,57.304472
677406,Alleen,9940,6,11.1568658,57.3035976
677407,Alleen,9940,7,11.1583016,57.3097662
677408,Alleen,9940,10,11.1565342,57.3031002
677409,Alleen,9940,12,11.1577778,57.3036017
677410,Alleen,9940,14,11.1606901,57.3030945
677411,Alleen,9940,16,11.1589379,57.30417
677412,Alleen,9940,18,11.1594394,57.3046558
677413,Alleen,9940,20,11.162589,57.3027422
677414,Alleen,9940,22,11.161579,57.306929
677415,Alleen,9940,24,11.164144,57.3071167
677416,Alleen,9940,26,11.1629415,57.3079953
677417,Alleen,9940,30,11.1641055,57.3097741
677418,Alleen,9940,32,11.1627342,57.3104358
677419,Alleen,9940,34,11.1624963,57.3109769
677420,A.M. Andreasens Vej,9940,1,10.917731,57.2818868
677421,A.M. Andreasens Vej,9940,2,10.9170133,57.2821106
677422,A.M. Andreasens Vej,9940,3,10.9166492,57.2810293
677423,A.M. Andreasens Vej,9940,4,10.9158194,57.281548
677424,A.M. Andreasens Vej,9940,5,10.9165827,57.2806565
677425,A.M. Andreasens Vej,9940,7,10.9161193,57.2804623
677426,A.M. Andreasens Vej,9940,9,10.9158414,57.2800813
677427,A.M. Andreasens Vej,9940,10,10.9155552,57.2802696
677428,Anemonevej,9940,1,10.9384598,57.2948416
677429,Anemonevej,9940,2,10.938697,57.2951052
677430,Anemonevej,9940,3,10.9380556,57.2949362
677431,Anemonevej,9940,4,10.9382837,57.2953493
677432,Anemonevej,9940,5,10.9374171,57.2948151
677433,Anemonevej,9940,6,10.9378791,57.2954301
677434,Anholtvej,9940,1,11.1236756,57.316592
677435,Anholtvej,9940,2,11.1230101,57.3165168
677436,Anholtvej,9940,4,11.1234552,57.316238
677437,Anne Margrethes Vej,9940,1,10.9163427,57.2816821
677438,Anne Margrethes Vej,9940,2,10.9163578,57.2819128
677439,Anne Margrethes Vej,9940,4,10.916054,57.282369
677440,Anne Margrethes Vej,9940,6,10.9157967,57.2822326
677441,Anne Margrethes Vej,9940,8,10.9155894,57.2818896
677442,Anne Margrethes Vej,9940,10,10.91548,57.281687
677443,Askevej,9940,2,10.935287,57.2827
677444,Askevej,9940,3,10.9346423,57.2829601
677445,Askevej,9940,4,10.9362356,57.2829071
677446,Askevej,9940,5,10.9353318,57.2831799
677447,Askevej,9940,6,10.9366399,57.2829243
677448,Askevej,9940,7,10.9361651,57.2832034
677449,Askevej,9940,8,10.9371411,57.2829778
677450,Askevej,9940,9,10.9367368,57.2832913
677451,Askevej,9940,10,10.9375643,57.283
677452,Askevej,9940,11,10.9382542,57.2835373
677453,Askevej,9940,15,10.9387823,57.2831097
677454,Askevej,9940,17,10.939178,57.2830085
677455,Askevej,9940,19,10.9395609,57.2831851
677456,Askevej,9940,21,10.939702,57.282931
677457,Askevej,9940,23,10.9400975,57.2828729
677458,Askevej,9940,25,10.9404979,57.2828146
677459,Askevej,9940,27,10.9409138,57.2827541
677460,Askevej,9940,29,10.9394808,57.2828319
677461,Bakkevej,9940,3,10.9283816,57.2660579
677462,Bakkevej,9940,5,10.9294048,57.2655214
677463,Bakkevej,9940,7,10.9282916,57.2648568
677464,Blåmejsevej,9940,2,11.1427251,57.3212773
677465,Blåmejsevej,9940,4,11.1423255,57.3209263
677466,Blåmejsevej,9940,9,11.1411665,57.3203926
677467,Blåmejsevej,9940,10,11.140893,57.3208132
677468,Benbrækvej,9940,3,10.940563,57.294957
677469,Benbrækvej,9940,4,10.9403847,57.2945148
677470,Benbrækvej,9940,5,10.9414191,57.2948591
677471,Benbrækvej,9940,6,10.941035,57.2943689
677472,Benbrækvej,9940,7,10.9417778,57.2945737
677473,Bangsbogårdvejen,9940,1,11.0600009,57.2750465
677474,Bangsbogårdvejen,9940,2,11.0587193,57.2781725
677475,Bangsbogårdvejen,9940,3,11.0602607,57.2745998
677476,Bangsbogårdvejen,9940,6,11.0597428,57.2729097
677477,Bangsbogårdvejen,9940,8,11.0602415,57.2728669
677478,Banstensvejen,9940,2,11.0763683,57.3054658
677479,Banstensvejen,9940,4,11.0769015,57.3055618
677480,Banstensvejen,9940,6,11.0774127,57.3056736
677481,Banstensvejen,9940,8,11.0779197,57.305794
677482,Banstensvejen,9940,10,11.078358,57.3059461
677483,Banstensvejen,9940,12,11.0781708,57.3061893
677484,Banstensvejen,9940,14,11.0776447,57.3061138
677485,Banstensvejen,9940,16,11.0771601,57.3059896
677486,Banstensvejen,9940,18,11.0766529,57.3058669
677487,Banstensvejen,9940,20,11.0761565,57.3057103
677488,Banstensvejen,9940,22,11.0756157,57.3064086
677489,Banstensvejen,9940,24,11.0761335,57.3065047
677490,Banstensvejen,9940,26,11.0766515,57.3066166
677491,Banstensvejen,9940,28,11.0771694,57.3067344
677492,Banstensvejen,9940,30,11.0776037,57.3069059
677493,Banstensvejen,9940,32,11.07742,57.3071078
677494,Banstensvejen,9940,34,11.0768919,57.3070491
677495,Banstensvejen,9940,36,11.0764028,57.3069311
677496,Banstensvejen,9940,38,11.0758802,57.3068096
677497,Banstensvejen,9940,40,11.0754039,57.3066529
677498,Banstensvejen,9940,42,11.0749155,57.3072844
677499,Banstensvejen,9940,44,11.0754394,57.3073635
677500,Banstensvejen,9940,46,11.0759752,57.3074777
677501,Banstensvejen,9940,48,11.0764909,57.3075932
677502,Banstensvejen,9940,50,11.076921,57.3077707
677503,Banstensvejen,9940,52,11.0767508,57.3079833
677504,Banstensvejen,9940,54,11.0762112,57.3079091
677505,Banstensvejen,9940,56,11.0757064,57.3077851
677506,Banstensvejen,9940,58,11.0751882,57.3076612
677507,Banstensvejen,9940,60,11.0747187,57.3075117
677508,Banstensvejen,9940,62,11.0741575,57.3082042
677509,Banstensvejen,9940,64,11.0747042,57.3082918
677510,Banstensvejen,9940,66,11.0752176,57.3084097
677511,Banstensvejen,9940,68,11.0757292,57.3085336
677512,Banstensvejen,9940,70,11.0761877,57.3086904
677513,Banstensvejen,9940,72,11.0759888,57.3089116
677514,Banstensvejen,9940,74,11.0754628,57.3088446
677515,Banstensvejen,9940,76,11.0749581,57.3087254
677516,Banstensvejen,9940,78,11.0744375,57.3086064
677517,Banstensvejen,9940,80,11.0739501,57.3084509
677518,Banstensvejen,9940,82,11.0734894,57.3090645
677519,Banstensvejen,9940,84,11.0740085,57.3091512
677520,Banstensvejen,9940,86,11.0745256,57.3092698
677521,Banstensvejen,9940,88,11.0750499,57.3093816
677522,Banstensvejen,9940,90,11.0755044,57.3095467
677523,Banstensvejen,9940,92,11.0753204,57.3097539
677524,Banstensvejen,9940,94,11.074768,57.3097069
677525,Banstensvejen,9940,96,11.0742631,57.309583
677526,Banstensvejen,9940,98,11.0737435,57.3094554
677527,Banstensvejen,9940,100,11.0732866,57.309306
677528,Banstensvejen,9940,102,11.0728052,57.3099915
677529,Banstensvejen,9940,104,11.0732571,57.3101056
677530,Banstensvejen,9940,106,11.0738929,57.3101763
677531,Banstensvejen,9940,108,11.0742919,57.3103303
677532,Banstensvejen,9940,110,11.0747199,57.3104537
677533,Banstensvejen,9940,112,11.0742888,57.3110066
677534,Banstensvejen,9940,114,11.0740364,57.3106642
677535,Banstensvejen,9940,116,11.0733521,57.3108351
677536,Banstensvejen,9940,118,11.0729769,57.3104263
677537,Banstensvejen,9940,120,11.0725157,57.3102505
677538,Birkeskellet,9940,3,10.9550976,57.2790534
677539,Birkeskellet,9940,5,10.955923,57.278626
677540,Birkeskellet,9940,7,10.956799,57.2782781
677541,Becksvej,9940,1,11.0036171,57.2549378
677542,Becksvej,9940,2,11.0033909,57.2546461
677543,Becksvej,9940,3,11.0045446,57.2548296
677544,Becksvej,9940,5,11.0049828,57.2546759
677545,Becksvej,9940,6,11.00535,57.2543681
677546,Becksvej,9940,7,11.0054248,57.2545753
677547,Becksvej,9940,9,11.0056808,57.2546091
677548,Becksvej,9940,11,11.0060337,57.2544569
677549,Becksvej,9940,13,11.0063938,57.2543748
677550,Bekkasinvej,9940,1,10.8943029,57.2655716
677551,Bekkasinvej,9940,2,10.8949374,57.2660166
677552,Bekkasinvej,9940,3,10.8937366,57.2657684
677553,Bekkasinvej,9940,4,10.8942348,57.2661136
677554,Bekkasinvej,9940,5,10.8930769,57.2660172
677555,Bekkasinvej,9940,6,10.8935781,57.2664178
677556,Bekkasinvej,9940,7,10.8924528,57.2662707
677557,Bekkasinvej,9940,8,10.8929659,57.2666399
677558,Bekkasinvej,9940,9,10.8918008,57.2665212
677559,Bekkasinvej,9940,10,10.8922792,57.2668413
677560,Bellisvej,9940,1,10.9392512,57.2959569
677561,Bellisvej,9940,2,10.939574,57.296547
677562,Bellisvej,9940,3,10.938683,57.2959613
677563,Bellisvej,9940,4,10.9388848,57.2964818
677564,Bellisvej,9940,5,10.9382921,57.2961539
677565,Bellisvej,9940,6,10.9385048,57.296577
677566,Birkealle,9940,1,10.996243,57.2567801
677567,Birkealle,9940,3,10.9961634,57.2571386
677568,Birkealle,9940,4,10.9968891,57.25718
677569,Birkealle,9940,5,10.9961621,57.2574914
677570,Birkealle,9940,6,10.9967587,57.2574819
677571,Birkealle,9940,7,10.9962016,57.2576991
677572,Birkealle,9940,8,10.9968151,57.2576909
677573,Birkealle,9940,9,10.9960522,57.2579148
677574,Birkealle,9940,10,10.9967671,57.2578649
677575,Birkealle,9940,11,10.9959499,57.2582463
677576,Birkealle,9940,12,10.9968348,57.2581004
677577,Birkealle,9940,13,10.9963083,57.2590156
677578,Birkealle,9940,14,10.996827,57.258291
677579,Birkealle,9940,15,10.9962446,57.2594379
677580,Birkelygårdvej,9940,1,10.9207375,57.2745565
677581,Birkelygårdvej,9940,4,10.917826,57.2720239
677582,Birkekrattet,9940,3,10.9506963,57.2771695
677583,Birkekrattet,9940,5,10.9512448,57.2777161
677584,Birkelyvej,9940,1,11.043453,57.2574862
677585,Blommevej,9940,1,11.0610947,57.2891108
677586,Blågranvej,9940,2,10.990145,57.262626
677587,Blågranvej,9940,2A,10.995803,57.2627574
677588,Blågranvej,9940,4,10.9960383,57.2653447
677589,Blågranvej,9940,5,11.0017121,57.2689999
677590,Blågranvej,9940,6,10.9955465,57.266052
677591,Blågranvej,9940,8,10.9965024,57.266339
677592,Blågranvej,9940,10,10.9978996,57.2672965
677593,Blågranvej,9940,18,11.0007931,57.2686624
677594,Blågranvej,9940,20,11.0018756,57.2685067
677595,Blågranvej,9940,22,11.0029563,57.2683514
677596,Brombærvej,9940,1,10.9071688,57.2722827
677597,Brombærvej,9940,2,10.9083619,57.2721329
677598,Brombærvej,9940,3,10.9078479,57.2723859
677599,Brombærvej,9940,4,10.9105862,57.2723188
677600,Brombærvej,9940,5,10.9083067,57.2727065
677601,Brombærvej,9940,7,10.9089275,57.2726347
677602,Blåmunkevej,9940,2,10.942407,57.281917
677603,Blåmunkevej,9940,4,10.941976,57.281959
677604,Blåmunkevej,9940,6,10.941856,57.281801
677605,Blåmunkevej,9940,8,10.942443,57.2815477
677606,Blåmunkevej,9940,10,10.9420187,57.2812897
677607,Blåmunkevej,9940,12,10.9419072,57.2809751
677608,Blåmunkevej,9940,14,10.941616,57.280775
677609,Blåbærvej,9940,4,11.0900955,57.3033371
677610,Blåbærvej,9940,6,11.0897172,57.3038089
677611,Blåbærvej,9940,8,11.0904075,57.3045726
677612,Blåbærvej,9940,10,11.0901294,57.3049788
677613,Blåbærvej,9940,12,11.0885287,57.3052998
677614,Blåbærvej,9940,14,11.0881152,57.3057934
677615,Blåbærvej,9940,16,11.087729,57.306285
677616,Blåbærvej,9940,18,11.0884233,57.3069378
677617,Blåbærvej,9940,20,11.0869445,57.3072658
677618,Bogøgårdvej,9940,1,10.9046213,57.2725073
677619,Bogøgårdvej,9940,2,10.9045609,57.2719956
677620,Bogøgårdvej,9940,3,10.9052177,57.2724745
677621,Bogøgårdvej,9940,4,10.9052369,57.2718564
677622,Bogøgårdvej,9940,5,10.9059315,57.2722227
677623,Bogøgårdvej,9940,6,10.9056404,57.2714969
677624,Bogøgårdvej,9940,7,10.9060212,57.2717876
677625,Bogøgårdvej,9940,8,10.9059894,57.2713729
677626,Bogøgårdvej,9940,9,10.90699,57.271474
677627,Bogøgårdvej,9940,10,10.9063721,57.2709648
677628,Bogøgårdvej,9940,12,10.9066235,57.2705726
677629,Bogøgårdvej,9940,13,10.9094806,57.2692981
677630,Bogøgårdvej,9940,14,10.9071444,57.2701484
677631,Bogøgårdvej,9940,16,10.9074903,57.2698388
677632,Bogøgårdvej,9940,18,10.9077613,57.269599
677633,Bogøgårdvej,9940,20,10.9080795,57.2693445
677634,Bogøgårdvej,9940,22,10.9084009,57.2691184
677635,Bogøgårdvej,9940,24,10.9087988,57.2688434
677636,Bogfinkevej,9940,1,10.9867362,57.263293
677637,Bogfinkevej,9940,2,10.9864589,57.2634514
677638,Bogfinkevej,9940,3,10.9863954,57.2631105
677639,Bogfinkevej,9940,4,10.9861361,57.2632775
677640,Bogfinkevej,9940,5,10.9860126,57.2629676
677641,Bogfinkevej,9940,6,10.9858492,57.2630861
677642,Bærmosevej,9940,4,10.947135,57.2784741
677643,Bærmosevej,9940,5,10.9491797,57.2794432
677644,Bærmosevej,9940,6,10.948872,57.2784121
677645,Bærmosevej,9940,8,10.9492035,57.2786569
677646,Bøgevej,9940,1,10.9104012,57.2727567
677647,Bøgevej,9940,2,10.9113487,57.2732149
677648,Bøgevej,9940,3,10.9097156,57.2730647
677649,Bøgevej,9940,4,10.9109663,57.2732462
677650,Bøgevej,9940,5,10.9091562,57.2732713
677651,Bøgevej,9940,6,10.910387,57.273472
677652,Bøgevej,9940,7,10.9085609,57.273183
677653,Bøgevej,9940,8,10.9097434,57.273635
677654,Bøgevej,9940,9,10.907994,57.2732123
677655,Bøgevej,9940,10,10.9091171,57.2736701
677656,Bøgevej,9940,11,10.907359,57.2733339
677657,Bøgevej,9940,12,10.9085031,57.2735396
677658,Bøgevej,9940,13,10.9067648,57.2733486
677659,Bøgevej,9940,14,10.9080252,57.2737287
677660,Bøgevej,9940,15,10.9058381,57.2736439
677661,Bøgevej,9940,16,10.9075008,57.2736399
677662,Bøgevej,9940,17,10.906262,57.2739795
677663,Bøgevej,9940,18,10.9072886,57.2740374
677664,Bøgevej,9940,19,10.906708,57.2743474
677665,Bøgevej,9940,20,10.9073916,57.2742549
677666,Bøgevej,9940,21,10.9069902,57.2746628
677667,Bøgevej,9940,22,10.907982,57.2746274
677668,Bøgelunden,9940,4,11.0045196,57.262903
677669,Bøgelunden,9940,6,11.0046976,57.2634204
677670,Bøgelunden,9940,8,11.0059154,57.2640627
677671,Brushanevej,9940,1,11.1302627,57.3186487
677672,Byrum Hovedgade,9940,1,10.9845393,57.2593672
677673,Byrum Hovedgade,9940,2,10.9865362,57.257697
677674,Byrum Hovedgade,9940,3,10.9850115,57.2589921
677675,Byrum Hovedgade,9940,4,10.9870049,57.2573843
677676,Byrum Hovedgade,9940,5,10.9857896,57.2586237
677677,Byrum Hovedgade,9940,6,10.9887038,57.2576453
677678,Byrum Hovedgade,9940,7,10.9870886,57.2583752
677679,Byrum Hovedgade,9940,8,10.9889348,57.2571566
677680,Byrum Hovedgade,9940,9,10.9874277,57.2586372
677681,Byrum Hovedgade,9940,10,10.9894813,57.2567596
677682,Byrum Hovedgade,9940,11,10.9874344,57.258196
677683,Byrum Hovedgade,9940,12,10.9900536,57.2566674
677684,Byrum Hovedgade,9940,12A,10.9904748,57.2569876
677685,Byrum Hovedgade,9940,13,10.9882022,57.258157
677686,Byrum Hovedgade,9940,14,10.9905945,57.2572483
677687,Byrum Hovedgade,9940,15,10.9885524,57.2580668
677688,Byrum Hovedgade,9940,16,10.9909973,57.2571554
677689,Byrum Hovedgade,9940,17,10.9889307,57.2580087
677690,Byrum Hovedgade,9940,17A,10.9888737,57.2583699
677691,Byrum Hovedgade,9940,18,10.9916546,57.2569469
677692,Byrum Hovedgade,9940,19A,10.9896206,57.2578088
677693,Byrum Hovedgade,9940,20,10.9920703,57.2566557
677694,Byrum Hovedgade,9940,21,10.990135,57.2577408
677695,Byrum Hovedgade,9940,22,10.9926244,57.2566411
677696,Byrum Hovedgade,9940,22A,10.993237,57.2566585
677697,Byrum Hovedgade,9940,22B,10.9934877,57.2563008
677698,Byrum Hovedgade,9940,23,10.99056,57.257588
677699,Byrum Hovedgade,9940,24,10.9940605,57.2564839
677700,Byrum Hovedgade,9940,25,10.9913599,57.2575917
677701,Byrum Hovedgade,9940,26,10.9944594,57.2564156
677702,Byrum Hovedgade,9940,27,10.9916185,57.2572952
677703,Byrum Hovedgade,9940,28,10.9948377,57.2563622
677704,Byrum Hovedgade,9940,29,10.9920032,57.2573121
677705,Byrum Hovedgade,9940,30,10.995275,57.2563151
677706,Byrum Hovedgade,9940,31,10.9922381,57.2571748
677707,Byrum Hovedgade,9940,32,10.9956536,57.2561413
677708,Byrum Hovedgade,9940,33,10.9928055,57.2570503
677709,Byrum Hovedgade,9940,34,10.996147,57.2562672
677710,Byrum Hovedgade,9940,35,10.9931691,57.257001
677711,Byrum Hovedgade,9940,36,10.996533,57.2562042
677712,Byrum Hovedgade,9940,37,10.9934694,57.2569367
677713,Byrum Hovedgade,9940,38,10.9968633,57.2561462
677714,Byrum Hovedgade,9940,39,10.9938627,57.2568972
677715,Byrum Hovedgade,9940,40,10.997509,57.256049
677716,Byrum Hovedgade,9940,40A,10.9976604,57.2558258
677717,Byrum Hovedgade,9940,42,10.9979638,57.2559341
677718,Byrum Hovedgade,9940,44,10.9983631,57.2559109
677719,Byrum Hovedgade,9940,44A,10.9987795,57.2554471
677720,Byrum Hovedgade,9940,45,10.995437,57.256692
677721,Byrum Hovedgade,9940,45A,10.9961368,57.2565148
677722,Byrum Hovedgade,9940,46,10.999086,57.254874
677723,Byrum Hovedgade,9940,48,11.0005588,57.2551652
677724,Byrum Hovedgade,9940,50,10.9999841,57.2546414
677725,Byrum Hovedgade,9940,51,11.0000804,57.2559137
677726,Byrum Hovedgade,9940,52,11.0002134,57.2544512
677727,Byrum Hovedgade,9940,55,11.0010462,57.255352
677728,Byrum Hovedgade,9940,58,11.0024111,57.253742
677729,Byrum Hovedgade,9940,59,11.0012939,57.2551191
677730,Byrum Hovedgade,9940,60,11.0029763,57.2537946
677731,Byrum Hovedgade,9940,61,11.0017732,57.2550204
677732,Byrum Hovedgade,9940,62,11.0031332,57.2537542
677733,Byrum Hovedgade,9940,63,11.0018504,57.2548393
677734,Byrum Hovedgade,9940,64,11.0036297,57.2536711
677735,Byrum Hovedgade,9940,65,11.002036,57.2546885
677736,Byrum Hovedgade,9940,66,11.004478,57.2535539
677737,Byrum Hovedgade,9940,67,11.00213,57.2545239
677738,Byrum Hovedgade,9940,68,11.0049043,57.2535001
677739,Byrum Hovedgade,9940,69,11.0024145,57.2543682
677740,Byrum Hovedgade,9940,70,11.0053267,57.2534387
677741,Byrum Hovedgade,9940,71,11.0026261,57.2541734
677742,Byrum Hovedgade,9940,72,11.0055557,57.2534128
677743,Byrum Hovedgade,9940,75,11.0031761,57.2539477
677744,Byrum Hovedgade,9940,76,11.0059218,57.2533554
677745,Byrum Hovedgade,9940,78,11.0062535,57.2533003
677746,Byrum Hovedgade,9940,79,11.0041523,57.253821
677747,Byrum Hovedgade,9940,80,11.0067431,57.2533854
677748,Byrum Hovedgade,9940,81,11.0047248,57.254099
677749,Byrum Hovedgade,9940,82,11.0071944,57.2533856
677750,Byrum Hovedgade,9940,83,11.0047619,57.2538999
677751,Byrum Hovedgade,9940,83A,11.0045928,57.2537565
677752,Byrum Hovedgade,9940,83B,11.0046349,57.2538477
677753,Byrum Hovedgade,9940,84,11.0076273,57.2542341
677754,Byrum Hovedgade,9940,85,11.0051251,57.2538546
677755,Byrum Hovedgade,9940,87,11.0055324,57.2536031
677756,Byrum Hovedgade,9940,89,11.0060907,57.2535794
677757,Byrum Hovedgade,9940,93,11.0068093,57.2540458
677758,Byrum Hovedgade,9940,95,11.0070777,57.2542581
677759,Byrum Hovedgade,9940,97,11.0072859,57.2545324
677760,Byrum Hovedgade,9940,99,11.0074432,57.2546926
677761,Byrum Hovedgade,9940,101,11.007458,57.2549722
677762,Byrum Hovedgade,9940,103,11.00775,57.255115
677763,Byrum Hovedgade,9940,105,11.0078715,57.2554528
677764,Byrum Hovedgade,9940,107,11.0080934,57.255612
677765,Byrum Hovedgade,9940,109,11.008232,57.2558198
677766,Byrum Hovedgade,9940,111,11.0081231,57.2560664
677767,Byrum Hovedgade,9940,113,11.0084483,57.2561942
677768,Byrum Hovedgade,9940,115,11.0085369,57.2563323
677769,Byrum Hovedgade,9940,117,11.0085281,57.2566548
677770,Byrum Hovedgade,9940,119,11.0087564,57.2569337
677771,Blåtopvej,9940,3,10.9418795,57.297372
677772,Blåtopvej,9940,4,10.9414727,57.2969041
677773,Blåtopvej,9940,5,10.9421047,57.297003
677774,Blåtopvej,9940,6,10.9419968,57.2968142
677775,Blåtopvej,9940,7,10.9428891,57.2973076
677776,Blåtopvej,9940,8,10.9424993,57.2966046
677777,Blåtopvej,9940,9,10.9430828,57.2968353
677778,Blåtopvej,9940,11,10.9436669,57.2969245
677779,Byrumvej,9940,1,10.9377218,57.2773306
677780,Byrumvej,9940,2,10.9427768,57.275357
677781,Byrumvej,9940,3,10.9386407,57.2769342
677782,Byrumvej,9940,4,10.946352,57.2738122
677783,Byrumvej,9940,5,10.9418545,57.2759771
677784,Byrumvej,9940,6,10.9481396,57.2734074
677785,Byrumvej,9940,7,10.9423034,57.2758737
677786,Byrumvej,9940,8,10.9486294,57.2732401
677787,Byrumvej,9940,10,10.9491627,57.2730496
677788,Byrumvej,9940,11,10.9432917,57.2756111
677789,Byrumvej,9940,12,10.9511495,57.2724547
677790,Byrumvej,9940,13,10.9453185,57.2749934
677791,Byrumvej,9940,14,10.9531979,57.2718077
677792,Byrumvej,9940,15,10.9464813,57.2743812
677793,Byrumvej,9940,16,10.9548969,57.2713856
677794,Byrumvej,9940,17,10.9476704,57.2739361
677795,Byrumvej,9940,18,10.9556298,57.2712186
677796,Byrumvej,9940,19,10.948209,57.2737345
677797,Byrumvej,9940,20,10.9561913,57.2710411
677798,Byrumvej,9940,22,10.9679401,57.2666858
677799,Byrumvej,9940,23,10.9493571,57.2732626
677800,Byrumvej,9940,24,10.9674249,57.2652645
677801,Byrumvej,9940,25,10.9497259,57.2731329
677802,Byrumvej,9940,26,10.9727031,57.2647004
677803,Byrumvej,9940,27,10.950024,57.2730737
677804,Byrumvej,9940,28,10.9701895,57.2629851
677805,Byrumvej,9940,29,10.9506324,57.2728528
677806,Byrumvej,9940,29A,10.9506701,57.2730736
677807,Byrumvej,9940,30,10.972724,57.262152
677808,Byrumvej,9940,31,10.9513092,57.2726766
677809,Byrumvej,9940,31A,10.9517106,57.2726067
677810,Byrumvej,9940,32,10.9761111,57.2633294
677811,Byrumvej,9940,33,10.9521505,57.272451
677812,Byrumvej,9940,34,10.9774008,57.2627061
677813,Byrumvej,9940,35,10.9537137,57.2731746
677814,Byrumvej,9940,36,10.9778954,57.2625717
677815,Byrumvej,9940,39,10.9537547,57.2721134
677816,Byrumvej,9940,41,10.9543127,57.2719647
677817,Byrumvej,9940,43,10.9548648,57.2716847
677818,Byrumvej,9940,45,10.955104,57.2716313
677819,Byrumvej,9940,47,10.955559,57.2715171
677820,Byrumvej,9940,49,10.9561141,57.2714494
677821,Byrumvej,9940,51,10.9569559,57.2711713
677822,Byrumvej,9940,53,10.9573703,57.2710821
677823,Byrumvej,9940,55,10.9589481,57.2702486
677824,Byrumvej,9940,57,10.965019,57.268763
677825,Byrumvej,9940,61,10.9699957,57.2661411
677826,Byrumvej,9940,63,10.9732382,57.2667516
677827,Byrumvej,9940,65,10.9726206,57.2651487
677828,Byrumvej,9940,67,10.9734631,57.2648291
677829,Byrumvej,9940,69,10.977365,57.263822
677830,Byrumvej,9940,71,10.982455,57.261318
677831,Byrumvej,9940,73,10.9835964,57.2600142
677832,Byrumvej,9940,75,10.983982,57.2596769
677833,Børumgårdvej,9940,2,10.926859,57.272747
677834,Børumgårdvej,9940,3,10.9194107,57.2719283
677835,Campingpladsvej,9940,1,11.1291526,57.3181224
677836,Campingpladsvej,9940,2,11.1295053,57.3179012
677837,Campingpladsvej,9940,3,11.1297034,57.3181607
677838,Campingpladsvej,9940,5,11.130143,57.3181991
677839,Campingpladsvej,9940,7,11.1305907,57.3182293
677840,Campingpladsvej,9940,8,11.1308479,57.3178202
677841,Campingpladsvej,9940,11,11.131182,57.3182806
677842,Campingpladsvej,9940,12,11.132442,57.318175
677843,Campingpladsvej,9940,13,11.1321991,57.3183787
677844,Campingpladsvej,9940,13A,11.1325871,57.3184024
677845,Campingpladsvej,9940,15,11.1333083,57.3185263
677846,Campingpladsvej,9940,17,11.1338775,57.3185708
677847,Campingpladsvej,9940,18,11.1351131,57.3183853
677848,Campingpladsvej,9940,19,11.1343784,57.3185596
677849,Campingpladsvej,9940,20,11.1357747,57.3184526
677850,Campingpladsvej,9940,21,11.13502,57.3186387
677851,Campingpladsvej,9940,22,11.1361725,57.3185002
677852,Campingpladsvej,9940,23,11.1354704,57.3188102
677853,Campingpladsvej,9940,23A,11.1355446,57.3189901
677854,Campingpladsvej,9940,25,11.1362611,57.3187249
677855,Campingpladsvej,9940,28,11.1380743,57.3185654
677856,Campingpladsvej,9940,30,11.1388668,57.3185816
677857,Cypresvej,9940,1,10.9115582,57.2746422
677858,Cypresvej,9940,2,10.9097376,57.2753348
677859,Cypresvej,9940,3,10.9109138,57.2747837
677860,Cypresvej,9940,4,10.9091966,57.2754521
677861,Cypresvej,9940,5,10.9102773,57.2747196
677862,Cypresvej,9940,6,10.908528,57.2754793
677863,Cypresvej,9940,7,10.9097304,57.2748503
677864,Cypresvej,9940,9,10.9090744,57.2749544
677865,Cypresvej,9940,11,10.9083328,57.2750933
677866,Dannebrogsvej,9940,1,10.9883112,57.2607931
677867,Dannebrogsvej,9940,2,10.987633,57.2620298
677868,Dannebrogsvej,9940,3,10.9875904,57.2615655
677869,Dannebrogsvej,9940,5,10.9868275,57.2623828
677870,Danzigmannvej,9940,1,11.1493124,57.3088723
677871,Danzigmannvej,9940,1A,11.1496319,57.3090192
677872,Danzigmannvej,9940,1B,11.1498805,57.3092576
677873,Danzigmannvej,9940,1C,11.1503605,57.3094515
677874,Danzigmannvej,9940,1D,11.1506261,57.3096606
677875,Danzigmannvej,9940,2,11.1496116,57.3085995
677876,Danzigmannvej,9940,2A,11.1503818,57.3089339
677877,Danzigmannvej,9940,2B,11.1509836,57.3090948
677878,Danzigmannvej,9940,2C,11.151429,57.309343
677879,Danzigmannvej,9940,3,11.1510765,57.309886
677880,Danzigmannvej,9940,5A,11.1526602,57.3106266
677881,Danzigmannvej,9940,5C,11.1539405,57.3113711
677882,Danzigmannvej,9940,6,11.153095,57.3093437
677883,Danzigmannvej,9940,8,11.1539437,57.3107016
677884,Danzigmannvej,9940,10,11.156092,57.3110082
677885,Danzigmannvej,9940,11,11.1608243,57.3139358
677886,Danzigmannvej,9940,12,11.1578409,57.3122526
677887,Danzigmannvej,9940,13,11.1607663,57.313191
677888,Danzigmannvej,9940,14,11.1595206,57.3120772
677889,Danzigmannvej,9940,15,11.1621553,57.3138099
677890,Danzigmannvej,9940,16,11.1642618,57.313902
677891,Danzigmannvej,9940,18,11.1650672,57.3144786
677892,Danzigmannvej,9940,19,11.1630639,57.3155541
677893,Danzigmannvej,9940,20,11.1668007,57.3146519
677894,Danzigmannvej,9940,21,11.16452,57.3149664
677895,Danzigmannvej,9940,22,11.1673368,57.3151664
677896,Danzigmannvej,9940,23,11.1659563,57.3156458
677897,Danzigmannvej,9940,24,11.1673574,57.316206
677898,Danzigmannvej,9940,25,11.1657417,57.3169871
677899,Danzigmannvej,9940,25A,11.1651817,57.3179044
677900,Danzigmannvej,9940,26,11.1692776,57.3165286
677901,Danzigmannvej,9940,27,11.1689427,57.3173078
677902,Danzigmannvej,9940,28,11.1696097,57.3169807
677903,Danzigmannvej,9940,29,11.1698511,57.3184539
677904,Danzigmannvej,9940,30,11.1705781,57.3170653
677905,Danzigmannvej,9940,30A,11.1828686,57.3225299
677906,Danzigmannvej,9940,31,11.1713116,57.3180415
677907,Danzigmannvej,9940,32,11.1935219,57.3221824
677908,Danzigmannvej,9940,34,11.1982194,57.3209516
677909,Danzigmannvej,9940,35,11.1801092,57.3205459
677910,Danzigmannvej,9940,36,11.1940357,57.3201643
677911,Danzigmannvej,9940,37,11.1801952,57.3223896
677912,Danzigmannvej,9940,38,11.1905533,57.3191791
677913,Danzigmannvej,9940,39,11.1790619,57.3218207
677914,Danzigmannvej,9940,40,11.1888164,57.3186875
677915,Danzigmannvej,9940,41,11.1814905,57.3224782
677916,Danzigmannvej,9940,42,11.1884515,57.3185843
677917,Danzigmannvej,9940,44,11.187989,57.3184534
677918,Danzigmannvej,9940,46,11.1873171,57.3182633
677919,Danzigmannvej,9940,48,11.186156,57.3179346
677920,Danzigmannvej,9940,50,11.1838078,57.3172699
677921,Danzigmannvej,9940,52,11.180927,57.316455
677922,Danzigmannvej,9940,54,11.1937033,57.3106622
677923,Danzigmannvej,9940,56,11.177862,57.3155869
677924,Danzigmannvej,9940,58,11.1773541,57.3154423
677925,Danzigmannvej,9940,60,11.1765624,57.3153262
677926,Danzigmannvej,9940,62,11.1731677,57.3148287
677927,Danzigmannvej,9940,64,11.1714477,57.3145766
677928,Danzigmannvej,9940,66,11.1699379,57.3143552
677929,Danzigmannvej,9940,68,11.169217,57.31425
677930,Danzigmannvej,9940,68A,11.1690797,57.3139696
677931,Danzigmannvej,9940,70,11.1690223,57.3138524
677932,Danzigmannvej,9940,70A,11.1689331,57.3136695
677933,Danzigmannvej,9940,72,11.1680215,57.3118031
677934,Danzigmannvej,9940,74,11.1678795,57.3115123
677935,Danzigmannvej,9940,76,11.1678256,57.3114018
677936,Danzigmannvej,9940,78,11.167267,57.3102581
677937,Diskovej,9940,1,10.9863668,57.2612027
677938,Diskovej,9940,2,10.9866898,57.2608599
677939,Diskovej,9940,3,10.9867633,57.2611727
677940,Diskovej,9940,4,10.9868764,57.2610466
677941,Den Store Jolle,9940,1,11.078867,57.3067551
677942,Den Store Jolle,9940,2,11.0794255,57.3075744
677943,Den Store Jolle,9940,3,11.0788373,57.3070147
677944,Den Store Jolle,9940,4,11.0789792,57.3077521
677945,Den Store Jolle,9940,5,11.0788242,57.3073206
677946,Den Store Jolle,9940,6,11.0787778,57.3080042
677947,Den Store Jolle,9940,7,11.0786252,57.3075696
677948,Den Store Jolle,9940,8,11.0785656,57.3084458
677949,Den Store Jolle,9940,9,11.0784275,57.307817
677950,Den Store Jolle,9940,10,11.0783702,57.3086902
677951,Den Store Jolle,9940,11,11.0782324,57.3080609
677952,Den Store Jolle,9940,12,11.0781777,57.308931
677953,Den Store Jolle,9940,13,11.0780796,57.3084221
677954,Den Store Jolle,9940,14,11.0779817,57.3091762
677955,Den Store Jolle,9940,15,11.0778844,57.3086666
677956,Den Store Jolle,9940,16,11.0777841,57.3094235
677957,Den Store Jolle,9940,17,11.0776844,57.3089165
677958,Den Store Jolle,9940,18,11.0773172,57.3098095
677959,Den Store Jolle,9940,19,11.0774929,57.309156
677960,Den Store Jolle,9940,20,11.0774418,57.3101016
677961,Den Store Jolle,9940,21,11.0770352,57.3096461
677962,Den Store Jolle,9940,22,11.077265,57.3103901
677963,Den Store Jolle,9940,23,11.0768339,57.3098982
677964,Den Store Jolle,9940,24,11.0769377,57.3106291
677965,Den Store Jolle,9940,25,11.0766403,57.3101403
677966,Den Store Jolle,9940,26,11.0765168,57.3109906
677967,Den Store Jolle,9940,27,11.0764367,57.3103948
677968,Den Store Jolle,9940,28,11.0766541,57.3113008
677969,Den Store Jolle,9940,29,11.0762516,57.3106264
677970,Den Store Jolle,9940,30,11.07612,57.3114868
677971,Den Store Jolle,9940,31,11.0755859,57.3109136
677972,Den Store Jolle,9940,32,11.0763431,57.3118602
677973,Den Store Jolle,9940,33,11.0758209,57.3112155
677974,Den Store Jolle,9940,34,11.0757254,57.3119803
677975,Den Store Jolle,9940,35,11.075488,57.3114253
677976,Den Store Jolle,9940,36,11.0759059,57.3124101
677977,Den Store Jolle,9940,37,11.07543,57.3117042
677978,Den Store Jolle,9940,39,11.0752108,57.3119782
677979,Doktorvejen,9940,1,10.9981721,57.2567852
677980,Doktorvejen,9940,1A,10.9970607,57.2567386
677981,Doktorvejen,9940,1B,10.9993234,57.2593262
677982,Doktorvejen,9940,2,10.9994038,57.2562844
677983,Doktorvejen,9940,3,10.9996676,57.2594607
677984,Doktorvejen,9940,3A,10.9996982,57.2597186
677985,Doktorvejen,9940,3B,10.9996312,57.2599845
677986,Doktorvejen,9940,4,10.9998327,57.2565921
677987,Doktorvejen,9940,4A,11.0000258,57.2568538
677988,Doktorvejen,9940,5,10.9997343,57.2602376
677989,Doktorvejen,9940,5A,10.9999571,57.2605615
677990,Doktorvejen,9940,5B,10.9999649,57.2608388
677991,Doktorvejen,9940,7,11.0000193,57.2611483
677992,Doktorvejen,9940,9,11.0001951,57.2615073
677993,Doktorvejen,9940,9A,11.0003713,57.2620835
677994,Doktorvejen,9940,10,10.9999563,57.2579804
677995,Doktorvejen,9940,11,11.000763,57.262831
677996,Doktorvejen,9940,12,11.0002739,57.2584489
677997,Doktorvejen,9940,13,11.001635,57.2642981
677998,Doktorvejen,9940,14,11.000504,57.259465
677999,Doktorvejen,9940,16,11.0006229,57.2606963
678000,Doktorvejen,9940,17,11.0030691,57.2664362
678001,Doktorvejen,9940,18,11.0013643,57.2612932
678002,Doktorvejen,9940,18A,11.0007272,57.2620108
678003,Doktorvejen,9940,19,11.0033143,57.2671499
678004,Doktorvejen,9940,21,11.0045788,57.2675318
678005,Doktorvejen,9940,22,11.0011468,57.2624917
678006,Doktorvejen,9940,23,11.0043514,57.2680539
678007,Doktorvejen,9940,24,11.0015621,57.2631702
678008,Doktorvejen,9940,26,11.002564,57.2636358
678009,Doktorvejen,9940,27,11.004423,57.269007
678010,Doktorvejen,9940,29,11.0053079,57.2684491
678011,Doktorvejen,9940,30,11.0041818,57.2642433
678012,Doktorvejen,9940,31,11.0066329,57.2700524
678013,Doktorvejen,9940,32,11.0030349,57.2649273
678014,Doktorvejen,9940,33,11.0104141,57.2725516
678015,Doktorvejen,9940,34,11.0037235,57.265456
678016,Doktorvejen,9940,36,11.0041272,57.2662382
678017,Doktorvejen,9940,37,11.011017,57.273828
678018,Doktorvejen,9940,38,11.0051022,57.2668613
678019,Doktorvejen,9940,39,11.0230959,57.2792168
678020,Doktorvejen,9940,40,11.0051032,57.2675654
678021,Doktorvejen,9940,41,11.0283747,57.2793973
678022,Doktorvejen,9940,42,11.0075765,57.2684135
678023,Doktorvejen,9940,43,11.032607,57.2796784
678024,Doktorvejen,9940,44,11.0078011,57.2691444
678025,Doktorvejen,9940,45,11.0404953,57.2777468
678026,Doktorvejen,9940,46,11.0084095,57.2697756
678027,Doktorvejen,9940,47,11.0426769,57.2780504
678028,Doktorvejen,9940,48,11.0090656,57.2707579
678029,Doktorvejen,9940,49,11.0438554,57.2773752
678030,Doktorvejen,9940,50,11.0106207,57.2708196
678031,Doktorvejen,9940,51,11.0466471,57.2771886
678032,Doktorvejen,9940,52,11.0105517,57.2716154
678033,Doktorvejen,9940,54,11.012728,57.272579
678034,Doktorvejen,9940,54A,11.0138399,57.2734996
678035,Doktorvejen,9940,56,11.0234128,57.2776902
678036,Doktorvejen,9940,58,11.041778,57.276151
678037,Doktorvejen,9940,60,11.0452268,57.2770634
678038,Doktorvejen,9940,62,11.046114,57.2767449
678039,Doktorvejen,9940,64,11.0475994,57.2765415
678040,Drosselvej,9940,4,11.1320191,57.3192026
678041,Drosselvej,9940,6,11.1324653,57.3192362
678042,Drosselvej,9940,7,11.1331831,57.319596
678043,Drosselvej,9940,8,11.1329698,57.3193942
678044,Drosselvej,9940,10,11.1336145,57.3193477
678045,Duevej,9940,1,10.8965013,57.2665598
678046,Duevej,9940,2,10.8962718,57.2664023
678047,Duevej,9940,3,10.8969141,57.2664286
678048,Duevej,9940,4,10.8966913,57.2662457
678049,Duevej,9940,5,10.8972681,57.2661265
678050,Egevej,9940,1,10.9112849,57.2756739
678051,Egevej,9940,2,10.9104446,57.275867
678052,Egevej,9940,3,10.911285,57.275431
678053,Egevej,9940,4,10.91047,57.2755223
678054,Egevej,9940,5,10.9108016,57.2751056
678055,Egevej,9940,6,10.9102853,57.2752057
678056,Egegårdsvej,9940,1,11.030501,57.252343
678057,Egegårdsvej,9940,2,11.0256622,57.2523837
678058,Egegårdsvej,9940,2A,11.0251039,57.2520606
678059,Egegårdsvej,9940,3,11.0327653,57.2510352
678060,Egegårdsvej,9940,7,11.0461109,57.2525597
678061,Egegårdsvej,9940,8,11.0394607,57.2513413
678062,Egegårdsvej,9940,8A,11.0416961,57.2518231
678063,Egegårdsvej,9940,10,11.0388079,57.2512307
678064,Egegårdsvej,9940,11,11.0674261,57.2816931
678065,Egegårdsvej,9940,12,11.0456281,57.2470702
678066,Egegårdsvej,9940,14,11.0455484,57.2505621
678067,Egegårdsvej,9940,14A,11.0501915,57.2527743
678068,Egegårdsvej,9940,16,11.0534545,57.2531453
678069,Egegårdsvej,9940,16A,11.0551699,57.2533381
678070,Egegårdsvej,9940,20,11.057741,57.2536277
678071,Egegårdsvej,9940,20A,11.0599556,57.2504677
678072,Egegårdsvej,9940,20B,11.0604525,57.2494188
678073,Egegårdsvej,9940,20C,11.061208,57.2494851
678074,Egegårdsvej,9940,20D,11.065349,57.2499163
678075,Egegårdsvej,9940,22,11.0643701,57.2588788
678076,Egegårdsvej,9940,24,11.064708,57.2591791
678077,Egegårdsvej,9940,24A,11.06712,57.2559079
678078,Egegårdsvej,9940,24B,11.0689388,57.2629425
678079,Egegårdsvej,9940,24C,11.0696698,57.2635926
678080,Egegårdsvej,9940,24D,11.0702273,57.2640886
678081,Egegårdsvej,9940,24E,11.0712076,57.2649604
678082,Egegårdsvej,9940,24F,11.0784081,57.2637106
678083,Egegårdsvej,9940,24G,11.067136,57.261339
678084,Egegårdsvej,9940,26,11.0747633,57.26754
678085,Egegårdsvej,9940,30,11.077083,57.270185
678086,Egegårdsvej,9940,32,11.073184,57.278342
678087,Elhøjvej,9940,1,11.0049623,57.2655896
678088,Elhøjvej,9940,3,11.0059998,57.2657242
678089,Ellevej,9940,1,11.0310372,57.2501719
678090,Ellevej,9940,2,11.0305719,57.2497425
678091,Ellevej,9940,3,11.0337635,57.2499377
678092,Ellevej,9940,6,11.029701,57.2462636
678093,Ellevej,9940,8,11.0351351,57.2422617
678094,Ellegårdsvej,9940,1,11.1379909,57.3030382
678095,Ellegårdsvej,9940,1A,11.1399465,57.302978
678096,Ellegårdsvej,9940,2A,11.1378344,57.3038249
678097,Ellegårdsvej,9940,3,11.1388481,57.3024329
678098,Ellegårdsvej,9940,3A,11.1396981,57.3025192
678099,Ellegårdsvej,9940,4,11.1379053,57.302259
678100,Ellegårdsvej,9940,4A,11.1365615,57.3023858
678101,Ellegårdsvej,9940,5,11.1386868,57.301617
678102,Ellegårdsvej,9940,5A,11.1407751,57.3015187
678103,Ellegårdsvej,9940,6,11.1378474,57.3016074
678104,Ellegårdsvej,9940,6A,11.1365902,57.3014864
678105,Elmevej,9940,1,10.999414,57.25783
678106,Elmevej,9940,2,10.9994286,57.2582033
678107,Elmevej,9940,4,10.9989907,57.258161
678108,Elmevej,9940,5,10.9985247,57.2578721
678109,Elmevej,9940,6,10.9985723,57.258154
678110,Elmevej,9940,7,10.9981674,57.2578809
678111,Elmevej,9940,8,10.9982057,57.2581851
678112,Elmevej,9940,9,10.9977033,57.257995
678113,Elmevej,9940,10,10.9977418,57.2582759
678114,Enghaven,9940,1,10.9406965,57.2824717
678115,Enghaven,9940,2,10.940361,57.282516
678116,Enghaven,9940,3,10.940543,57.282211
678117,Enghaven,9940,5,10.940373,57.281932
678118,Enghaven,9940,7,10.940215,57.281682
678119,Enghaven,9940,9,10.9400613,57.2814349
678120,Enghaven,9940,11,10.939919,57.281163
678121,Enghaven,9940,12,10.939656,57.281204
678122,Englandsvej,9940,5,11.1233915,57.317901
678123,Englandsvej,9940,7,11.1230409,57.3182286
678124,Englandsvej,9940,8,11.1235394,57.3182667
678125,Englandsvej,9940,9,11.1229148,57.3185682
678126,Englandsvej,9940,10,11.1233456,57.3184987
678127,Englandsvej,9940,11,11.1224465,57.3188962
678128,Englandsvej,9940,12,11.1231691,57.3187716
678129,Englandsvej,9940,14,11.1228669,57.3189868
678130,Emilievej,9940,1,11.1359374,57.3181313
678131,Emilievej,9940,2,11.1353381,57.3181009
678132,Emilievej,9940,3,11.1362524,57.3177467
678133,Emilievej,9940,4,11.135512,57.3178222
678134,Emilievej,9940,6,11.1359574,57.3175544
678135,Enebærvej,9940,4,10.9262688,57.284556
678136,Enebærvej,9940,6,10.9264192,57.2843191
678137,Enebærvej,9940,8,10.9263756,57.2840914
678138,Enebærvej,9940,10,10.926352,57.2838583
678139,Enebærvej,9940,12,10.9262951,57.2833974
678140,Erantisvej,9940,3,10.9976086,57.2659963
678141,Erantisvej,9940,4,10.9971048,57.2654448
678142,Elsevej,9940,1,10.9240083,57.2866481
678143,Elsevej,9940,2,10.9230531,57.2868879
678144,Elsevej,9940,3,10.9227737,57.286029
678145,Elsevej,9940,4,10.9236483,57.2866969
678146,Elsevej,9940,6,10.9233085,57.2864841
678147,Elsevej,9940,8,10.9228136,57.2865686
678148,Estrupsvej,9940,1,10.9116381,57.2740772
678149,Estrupsvej,9940,1A,10.9118299,57.2717661
678150,Estrupsvej,9940,2,10.9165399,57.2691003
678151,Estrupsvej,9940,3,10.912387,57.274629
678152,Estrupsvej,9940,5,10.9121212,57.2752864
678153,Estrupsvej,9940,6,10.913933,57.271466
678154,Estrupsvej,9940,7,10.9097662,57.2761436
678155,Estrupsvej,9940,8,10.9091849,57.2770152
678156,Estrupsvej,9940,9,10.9089159,57.2763715
678157,Erbækvej,9940,1,11.0037874,57.2634548
678158,Erbækvej,9940,2,11.0030092,57.2631824
678159,Erbækvej,9940,3,11.0040573,57.2628977
678160,Erbækvej,9940,4,11.0021086,57.262526
678161,Evbakken,9940,1,11.1653436,57.3014749
678162,Eskimovej,9940,1,10.9846763,57.2620049
678163,Eskimovej,9940,2,10.9842593,57.2621725
678164,Eskimovej,9940,3,10.9841985,57.261905
678165,Eskimovej,9940,4,10.9839667,57.2620471
678166,Fanøvej,9940,1,11.1248829,57.3165099
678167,Fanøvej,9940,3,11.1252808,57.3160177
678168,Fanøvej,9940,4,11.1244468,57.3165704
678169,Fanøvej,9940,5,11.1254449,57.3163405
678170,Fanøvej,9940,6,11.1246348,57.3162841
678171,Fanøvej,9940,7,11.1257764,57.3158662
678172,Fanøvej,9940,8,11.1247217,57.3158688
678173,Fanøvej,9940,10,11.123745,57.315651
678174,Fanøvej,9940,12,11.1250507,57.3148311
678175,Fanøvej,9940,14,11.1258029,57.3140444
678176,Farsøvej,9940,1,11.132469,57.3167773
678177,Farsøvej,9940,2,11.132029,57.3167203
678178,Farsøvej,9940,3,11.1326226,57.3165642
678179,Farsøvej,9940,4,11.1327623,57.3158312
678180,Farsøvej,9940,5,11.1327751,57.3163584
678181,Farsøvej,9940,7,11.1330207,57.3160338
678182,Fasanstien,9940,1,11.14182,57.3234152
678183,Fasanstien,9940,2,11.1420173,57.3231536
678184,Fasanstien,9940,3,11.1420756,57.3236873
678185,Fasanstien,9940,4,11.1424279,57.3232504
678186,Fasanstien,9940,5,11.1425855,57.3237357
678187,Fasanstien,9940,6,11.1428761,57.3233516
678188,Fasanstien,9940,7,11.1431442,57.3237621
678189,Fasanstien,9940,8,11.1433032,57.3234521
678190,Finlandsvej,9940,1,11.1218302,57.318267
678191,Finlandsvej,9940,2,11.1229006,57.3174261
678192,Finlandsvej,9940,3,11.1205854,57.319174
678193,Finlandsvej,9940,8,11.1219109,57.318802
678194,Fingerbølvej,9940,3,11.0698971,57.2938018
678195,Fingerbølvej,9940,4,11.0692346,57.2936674
678196,Flarumvej,9940,1,10.9258389,57.2944188
678197,Flarumvej,9940,1A,10.9249637,57.294832
678198,Flarumvej,9940,2,10.9258989,57.294148
678199,Flarumvej,9940,3,10.9261078,57.2942874
678200,Flarumvej,9940,4,10.9262676,57.2939761
678201,Flarumvej,9940,5,10.9267683,57.2940189
678202,Flarumvej,9940,6,10.9264619,57.2938163
678203,Flarumvej,9940,7,10.9270476,57.2938737
678204,Flarumvej,9940,8,10.9267274,57.2936979
678205,Flarumvej,9940,9,10.9272951,57.2937751
678206,Flarumvej,9940,10,10.9269505,57.2935428
678207,Flarumvej,9940,11,10.9275888,57.2936914
678208,Flarumvej,9940,12,10.9272725,57.293451
678209,Flarumvej,9940,13,10.9283659,57.2936488
678210,Flarumvej,9940,14,10.9279307,57.2931301
678211,Flarumvej,9940,15,10.9313433,57.2927468
678212,Flarumvej,9940,16,10.9311342,57.2923421
678213,Flarumvej,9940,17,10.9324191,57.2922538
678214,Flarumvej,9940,18,10.9321401,57.2917508
678215,Flarumvej,9940,19,10.9326688,57.2920243
678216,Flarumvej,9940,20,10.9320955,57.2890281
678217,Flarumvej,9940,20A,10.930551,57.288462
678218,Flarumvej,9940,20B,10.9294568,57.2887146
678219,Flarumvej,9940,20C,10.9283286,57.2890887
678220,Flarumvej,9940,21,10.933956,57.291295
678221,Flarumvej,9940,21A,10.9365886,57.2901796
678222,Flarumvej,9940,22,10.9314447,57.2881112
678223,Flarumvej,9940,23,10.937141,57.289754
678224,Flarumvej,9940,24,10.9292998,57.2870114
678225,Flarumvej,9940,25,10.9365812,57.2887717
678226,Flarumvej,9940,26,10.9303276,57.2866558
678227,Flarumvej,9940,27,10.9341777,57.2887915
678228,Flarumvej,9940,28,10.929887,57.286598
678229,Flarumvej,9940,29,10.9323516,57.2884226
678230,Flarumvej,9940,31,10.9323902,57.287792
678231,Flarumvej,9940,31A,10.9321612,57.2881163
678232,Flarumvej,9940,31B,10.9319123,57.2878566
678233,Flarumvej,9940,33,10.931786,57.287633
678234,Flarumvej,9940,35,10.9314065,57.287335
678235,Flarumvej,9940,37,10.9311412,57.2870623
678236,Flarumvej,9940,37A,10.931131,57.286805
678237,Flarumvej,9940,39,10.9308456,57.2866838
678238,Flarumvej,9940,43,10.9303678,57.28602
678239,Flyvepladsvej,9940,2,11.007998,57.27576
678240,Flyvepladsvej,9940,4,11.008554,57.276418
678241,Flyvepladsvej,9940,4A,11.008329,57.276747
678242,Flyvepladsvej,9940,6,11.007553,57.276215
678243,Frysehusvej,9940,1,11.0055782,57.254238
678244,Frysehusvej,9940,4,11.0058594,57.2540309
678245,Fyrrehegnet,9940,1,10.9606252,57.2763277
678246,Fyrrestien,9940,1,10.9346061,57.2846516
678247,Fyrrestien,9940,1A,10.934909,57.2847138
678248,Fyrrestien,9940,2,10.9338859,57.2844784
678249,Fyrrestien,9940,3,10.9350246,57.2844813
678250,Fyrrestien,9940,3A,10.9350756,57.2846603
678251,Fyrrestien,9940,4,10.9337045,57.2842697
678252,Fyrrestien,9940,6,10.9343674,57.2842659
678253,Fyrrestien,9940,7A,10.9364199,57.2843553
678254,Fyrrestien,9940,10,10.9347139,57.2841282
678255,Fyrrestien,9940,20,10.9361611,57.2835167
678256,Fyrvej,9940,1,10.9057291,57.272837
678257,Fyrvej,9940,2,10.9065237,57.2724185
678258,Fyrvej,9940,4,10.9065185,57.2728541
678259,Følfodvej,9940,1,10.9426404,57.2809614
678260,Følfodvej,9940,2,10.9422111,57.2806782
678261,Følfodvej,9940,3,10.9431453,57.2808231
678262,Følfodvej,9940,4,10.9426588,57.2804985
678263,Følfodvej,9940,5,10.9434192,57.280534
678264,Følfodvej,9940,6,10.9430938,57.2803558
678265,Fædrelandsvej,9940,1,11.0613908,57.278421
678266,Fædrelandsvej,9940,3,11.0622565,57.2788243
678267,Fædrelandsvej,9940,4,11.063894,57.27812
678268,Fædrelandsvej,9940,4A,11.0673756,57.2794129
678269,Fædrelandsvej,9940,6,11.069995,57.277815
678270,Fædrelandsvej,9940,7A,11.0697011,57.280442
678271,Gammel Havnevej,9940,1A,11.1298533,57.3133094
678272,Gammel Havnevej,9940,2,11.1317556,57.307336
678273,Gammel Havnevej,9940,2A,11.1320457,57.3077492
678274,Gammel Havnevej,9940,3,11.1287362,57.3066762
678275,Gammel Havnevej,9940,4,11.131505,57.307649
678276,Gammel Havnevej,9940,5,11.1302239,57.309183
678277,Gammel Havnevej,9940,6,11.1313333,57.3084934
678278,Gammel Havnevej,9940,8,11.1319797,57.3092739
678279,Gammel Kirkevej,9940,1,11.0081095,57.2570789
678280,Gammel Kirkevej,9940,2,11.007962,57.2574207
678281,Gammel Kirkevej,9940,3,11.0070416,57.2570939
678282,Gammel Kirkevej,9940,5,11.0064892,57.2570919
678283,Gammel Kirkevej,9940,6,11.005572,57.257296
678284,Gammel Kirkevej,9940,6A,11.0064949,57.2574766
678285,Gammel Kirkevej,9940,7,11.0060155,57.2570795
678286,Gammel Kirkevej,9940,9,11.0055985,57.2570576
678287,Gammel Kirkevej,9940,11,11.0051661,57.2570411
678288,Gammel Kirkevej,9940,14,11.0023672,57.2576364
678289,Gammel Kirkevej,9940,15,11.0038716,57.2570322
678290,Gammel Kirkevej,9940,17,11.0030992,57.2570146
678291,Gammel Kirkevej,9940,19,11.0026702,57.2569836
678292,Gammel Kirkevej,9940,21,11.0021549,57.2569587
678293,Gammel Kirkevej,9940,23,11.0021715,57.2568226
678294,Gammel Kirkevej,9940,25,11.0021552,57.256678
678295,Gammel Kirkevej,9940,27,11.0018391,57.256669
678296,Gammel Kirkevej,9940,29,11.0017708,57.2568171
678297,Gammel Kirkevej,9940,31,11.0017682,57.2569484
678298,Gammel Kirkevej,9940,33,11.0012156,57.2569377
678299,Gammel Kirkevej,9940,35,11.0005917,57.2568972
678300,Grårisvej,9940,3,10.9411149,57.2961095
678301,Grårisvej,9940,4,10.9410534,57.2956197
678302,Grårisvej,9940,5,10.9416738,57.2960931
678303,Grårisvej,9940,6,10.9414417,57.2954578
678304,Grårisvej,9940,7,10.9420365,57.2958672
678305,Grårisvej,9940,9,10.9423997,57.2956856
678306,Gammel Østerbyvej,9940,1,11.1387298,57.3063419
678307,Gammel Østerbyvej,9940,2,11.1422188,57.3051479
678308,Gammel Østerbyvej,9940,3,11.140514,57.3063807
678309,Gammel Østerbyvej,9940,4,11.1438045,57.3062539
678310,Gammel Østerbyvej,9940,5,11.1411476,57.3065381
678311,Gammel Østerbyvej,9940,6,11.1449319,57.3067999
678312,Gammel Østerbyvej,9940,7,11.1418833,57.3067249
678313,Gammel Østerbyvej,9940,8,11.1450487,57.3066161
678314,Gammel Østerbyvej,9940,9,11.1424713,57.30658
678315,Gammel Østerbyvej,9940,10,11.145603,57.3069745
678316,Gammel Østerbyvej,9940,10A,11.1461506,57.3070281
678317,Gammel Østerbyvej,9940,12,11.146872,57.306656
678318,Gammel Østerbyvej,9940,13,11.1434232,57.3067998
678319,Gammel Østerbyvej,9940,14,11.1466421,57.3072457
678320,Gammel Østerbyvej,9940,15,11.1439705,57.3069132
678321,Gammel Østerbyvej,9940,15A,11.1439923,57.3075834
678322,Gammel Østerbyvej,9940,16,11.1470972,57.3074476
678323,Gammel Østerbyvej,9940,17,11.1443566,57.3069453
678324,Gammel Østerbyvej,9940,18,11.1475814,57.3077086
678325,Gammel Østerbyvej,9940,19,11.1446527,57.3073576
678326,Gammel Østerbyvej,9940,20,11.1479143,57.3078562
678327,Gammel Østerbyvej,9940,21,11.1454397,57.3073434
678328,Gammel Østerbyvej,9940,22,11.1484387,57.3080139
678329,Gammel Østerbyvej,9940,23,11.1447887,57.3076162
678330,Gammel Østerbyvej,9940,25,11.1452161,57.3077079
678331,Gammel Østerbyvej,9940,27,11.145166,57.3078723
678332,Gammel Østerbyvej,9940,29,11.1455403,57.3083289
678333,Gammel Østerbyvej,9940,33,11.1465381,57.3075915
678334,Gammel Østerbyvej,9940,35,11.1468772,57.3077949
678335,Gammel Østerbyvej,9940,35A,11.1468959,57.307889
678336,Gammel Østerbyvej,9940,37,11.1471321,57.3084032
678337,Gartnervænget,9940,12,11.0034643,57.2558124
678338,Gransangervej,9940,1,11.1373127,57.318403
678339,Gransangervej,9940,3,11.137592,57.3180502
678340,Gransangervej,9940,4,11.1372404,57.3177378
678341,Glashusvejen,9940,2,10.9112694,57.2604556
678342,Glashusvejen,9940,4,10.9096215,57.2596037
678343,Glashusvejen,9940,4A,10.9065431,57.2598088
678344,Glashusvejen,9940,6,10.9053705,57.2602892
678345,Glashusvejen,9940,8,10.9040706,57.2603274
678346,Glashusvejen,9940,10,10.897219,57.2636271
678347,Grankrogen,9940,2,11.1404722,57.3130998
678348,Grankrogen,9940,4,11.1401087,57.3136085
678349,Grankrogen,9940,8,11.1392921,57.3146159
678350,Gravens Jolle,9940,1,11.0840076,57.3112092
678351,Gravens Jolle,9940,2,11.0846548,57.3113221
678352,Gravens Jolle,9940,3,11.0836168,57.3114242
678353,Gravens Jolle,9940,4,11.084859,57.311705
678354,Gravens Jolle,9940,5,11.0837961,57.3117553
678355,Gravens Jolle,9940,6,11.0842756,57.311794
678356,Gravens Jolle,9940,7,11.0833946,57.3119848
678357,Gravens Jolle,9940,8,11.0840504,57.3120747
678358,Gravens Jolle,9940,9,11.0832167,57.3121871
678359,Gravens Jolle,9940,10,11.0838494,57.312325
678360,Gravens Jolle,9940,11,11.0830865,57.3125446
678361,Gravens Jolle,9940,12,11.0834022,57.3127063
678362,Gravens Jolle,9940,13,11.0826689,57.3127806
678363,Gravens Jolle,9940,14,11.083209,57.312948
678364,Gravens Jolle,9940,15,11.0826934,57.3130339
678365,Gravens Jolle,9940,16,11.083364,57.313228
678366,Gravens Jolle,9940,17,11.0825046,57.3132691
678367,Gravens Jolle,9940,18,11.0828144,57.3134382
678368,Gravens Jolle,9940,19,11.082132,57.3134523
678369,Gravens Jolle,9940,20,11.0828176,57.3137698
678370,Granstien,9940,1,10.9196261,57.2875375
678371,Granstien,9940,2,10.9203526,57.287707
678372,Granstien,9940,3,10.9188115,57.2876737
678373,Granstien,9940,4,10.919859,57.287827
678374,Granstien,9940,5,10.918287,57.287765
678375,Granstien,9940,6,10.9193634,57.2879443
678376,Granstien,9940,8,10.9185216,57.2879662
678377,Grønlandsvej,9940,1,10.9846238,57.2624733
678378,Grønlandsvej,9940,2,10.9849566,57.2622821
678379,Grønlandsvej,9940,3,10.984842,57.2627905
678380,Grønlandsvej,9940,4,10.985136,57.2625169
678381,Grønlandsvej,9940,5,10.9852121,57.2630149
678382,Grønlandsvej,9940,6,10.9853525,57.2626538
678383,Grusvejen,9940,1,11.1365608,57.3118266
678384,Grusvejen,9940,1A,11.1354754,57.3115866
678385,Grusvejen,9940,2,11.1369293,57.3109373
678386,Grusvejen,9940,3,11.1394923,57.3125714
678387,Grusvejen,9940,7,11.1421726,57.3133157
678388,Guldbrandsvej,9940,1,10.9382364,57.2865277
678389,Guldbrandsvej,9940,3,10.9384619,57.2869116
678390,Guldbrandsvej,9940,5,10.9386339,57.2873043
678391,Guldbrandsvej,9940,6,10.9404527,57.2881283
678392,Guldbrandsvej,9940,7,10.938849,57.2876997
678393,Guldbrandsvej,9940,9,10.9389785,57.2880321
678394,Guldregnsvej,9940,1,10.9940299,57.2581364
678395,Guldregnsvej,9940,2,10.9940123,57.2584966
678396,Guldregnsvej,9940,3,10.9936224,57.2580932
678397,Guldregnsvej,9940,4,10.993547,57.2584171
678398,Guldregnsvej,9940,5,10.9932241,57.2580474
678399,Guldregnsvej,9940,6,10.9932706,57.2582323
678400,Guldregnsvej,9940,7,10.992832,57.2580008
678401,Guldregnsvej,9940,8,10.9928568,57.2581807
678402,Guldregnsvej,9940,9,10.9922925,57.2579649
678403,Guldregnsvej,9940,10,10.9924515,57.2581333
678404,Guldregnsvej,9940,12,10.9921167,57.2580905
678405,Grønningen,9940,1,11.079851,57.306129
678406,Grønningen,9940,2,11.079706,57.305169
678407,Grønningen,9940,3,11.0801639,57.3057398
678408,Grønningen,9940,4,11.080089,57.30469
678409,Grønningen,9940,5,11.0805693,57.305227
678410,Grønningen,9940,6,11.0805,57.304152
678411,Grønningen,9940,7,11.081573,57.304974
678412,Grønningen,9940,8,11.080842,57.30368
678413,Grønningen,9940,9,11.081349,57.304275
678414,Grønningen,9940,11,11.081729,57.303783
678415,Gyvelvej,9940,1,10.9332225,57.298097
678416,Gyvelvej,9940,2,10.9323766,57.2977674
678417,Gyvelvej,9940,3,10.933774,57.2981409
678418,Gyvelvej,9940,4,10.9328498,57.2975201
678419,Gyvelvej,9940,5,10.9343302,57.2982768
678420,Gyvelvej,9940,6,10.9333581,57.2978437
678421,Gyvelvej,9940,7,10.9348932,57.2981972
678422,Gyvelvej,9940,8,10.9339803,57.297776
678423,Gyvelvej,9940,9,10.9353731,57.2986844
678424,Gyvelvej,9940,10,10.934854,57.297926
678425,Gyvelvej,9940,11,10.9356356,57.2983063
678426,Gyvelvej,9940,13,10.9363211,57.2984222
678427,Gærdesmuttevej,9940,3,11.1359121,57.3193408
678428,Gærdesmuttevej,9940,6,11.136837,57.3192976
678429,Gærdesmuttevej,9940,11,11.1355126,57.3200936
678430,Gærdesmuttevej,9940,13,11.1352378,57.3203702
678431,Gærdesmuttevej,9940,15,11.1351163,57.3207084
678432,Gærdesmuttevej,9940,17,11.1349186,57.3209552
678433,Gærdesmuttevej,9940,18,11.1359177,57.3208285
678434,Gærdesmuttevej,9940,19,11.1345367,57.3211319
678435,Gærdesmuttevej,9940,20,11.1357419,57.3210052
678436,Gærdesmuttevej,9940,21,11.1347196,57.3214845
678437,Gærdesmuttevej,9940,22,11.1352335,57.3212298
678438,Gærdesmuttevej,9940,24,11.1352377,57.321431
678439,Gydensvej,9940,1,11.0047921,57.2582432
678440,Gydensvej,9940,2,11.007632,57.257875
678441,Gydensvej,9940,6,11.007279,57.258046
678442,Gydensvej,9940,8,11.0054233,57.258316
678443,Gårdenes Vej,9940,1,10.914375,57.264642
678444,Gårdenes Vej,9940,2,10.913612,57.264327
678445,Gårdenes Vej,9940,3,10.9142344,57.2640847
678446,Gøgevej,9940,3,11.1330574,57.3206753
678447,Gøgevej,9940,4,11.1337079,57.3208907
678448,Gøgevej,9940,5,11.133249,57.3209564
678449,Gøgevej,9940,6,11.1340447,57.3207956
678450,Hals Kirkevej,9940,2,11.0965396,57.3026778
678451,Hals Skolevej,9940,1A,11.0485604,57.270154
678452,Hals Skolevej,9940,2,11.0488465,57.2689675
678453,Hals Skolevej,9940,2A,11.0491571,57.2696242
678454,Hals Skolevej,9940,2B,11.0517751,57.2674161
678455,Hals Skolevej,9940,2C,11.062411,57.264326
678456,Hals Skolevej,9940,2D,11.0594652,57.2621309
678457,Hals Skolevej,9940,3,11.052772,57.268824
678458,Hals Skolevej,9940,4,11.0515729,57.2649266
678459,Hals Skolevej,9940,5,11.057227,57.2668413
678460,Hals Skolevej,9940,9,11.064183,57.2648612
678461,Harestien,9940,1,11.142508,57.3224922
678462,Harestien,9940,2,11.1429868,57.3220263
678463,Harestien,9940,3,11.1430842,57.3224618
678464,Harestien,9940,4,11.1434557,57.3219845
678465,Harestien,9940,5,11.1433748,57.3226873
678466,Harestien,9940,6,11.143836,57.3222134
678467,Harestien,9940,7,11.1439533,57.3226565
678468,Harestien,9940,8,11.1443204,57.3221908
678469,Hankærvej,9940,1,11.044638,57.282051
678470,Hankærvej,9940,1A,11.0463948,57.28018
678471,Hankærvej,9940,1B,11.045948,57.281006
678472,Hankærvej,9940,2,11.048495,57.27734
678473,Hankærvej,9940,2A,11.0503023,57.2804441
678474,Hankærvej,9940,4,11.048744,57.28044
678475,Hankærvej,9940,5,11.043989,57.287337
678476,Hankærvej,9940,6,11.0497769,57.2843632
678477,Hankærvej,9940,8,11.04857,57.28611
678478,Hankærvej,9940,12,11.045818,57.286411
678479,Haslevej,9940,2,11.1338621,57.3176979
678480,Haslevej,9940,4,11.1339982,57.3177067
678481,Haslevej,9940,6,11.1341004,57.3177282
678482,Haslevej,9940,8,11.134286,57.3177391
678483,Haslevej,9940,10,11.1343972,57.3177426
678484,Haslevej,9940,12,11.1344963,57.3177625
678485,Havnebakken,9940,1,10.9256258,57.2955447
678486,Havnebakken,9940,3,10.9260972,57.2953324
678487,Havnebakken,9940,4,10.9236252,57.2943512
678488,Havnebakken,9940,6,10.9238011,57.294505
678489,Havnebakken,9940,8,10.9242301,57.2948159
678490,Havnebakken,9940,10,10.9245549,57.2951167
678491,Havnebakken,9940,12,10.924768,57.2952604
678492,Havnebakken,9940,14,10.9250574,57.295449
678493,Havnebakken,9940,16,10.9258104,57.2951039
678494,Havnepladsen,9940,1,10.9228384,57.2962544
678495,Havnepladsen,9940,1B,10.922812,57.2954668
678496,Havnepladsen,9940,2,10.9229644,57.2952002
678497,Havnepladsen,9940,3,10.92325,57.2950009
678498,Havnepladsen,9940,4,10.9255864,57.2958004
678499,Havnepladsen,9940,5,10.9230645,57.2948955
678500,Havnepladsen,9940,6,10.9259417,57.2958886
678501,Havnepladsen,9940,6A,10.9257224,57.2958799
678502,Havnepladsen,9940,7,10.9263262,57.2961699
678503,Havstien,9940,1,10.9215298,57.2904931
678504,Havstien,9940,2,10.9201062,57.2907523
678505,Havstien,9940,3,10.9213076,57.2903044
678506,Havstien,9940,4,10.920832,57.2905061
678507,Havstien,9940,6,10.920464,57.2903287
678508,Havstien,9940,7,10.9205726,57.2893977
678509,Havstien,9940,8,10.9204028,57.2901362
678510,Havstien,9940,9,10.9202815,57.2892538
678511,Havstien,9940,10,10.920079,57.289753
678512,Havstien,9940,11,10.9198649,57.2889302
678513,Havstien,9940,12,10.9198713,57.2896361
678514,Havstien,9940,13,10.9199891,57.288655
678515,Havstien,9940,14,10.919662,57.289362
678516,Havstien,9940,16,10.9193795,57.2890977
678517,Havstien,9940,18,10.9190977,57.2887789
678518,Hedemarken,9940,2,11.1621837,57.316608
678519,Hedemarken,9940,4,11.1617799,57.3161603
678520,Hedevej,9940,2,10.930117,57.296136
678521,Hedevej,9940,3,10.9294072,57.2969878
678522,Hedevej,9940,4,10.930344,57.29639
678523,Hedevej,9940,5,10.9315791,57.2981201
678524,Hedevej,9940,6,10.9306733,57.296506
678525,Hedevej,9940,8,10.9309695,57.296755
678526,Hedevej,9940,10,10.9313988,57.2970601
678527,Hedevej,9940,12,10.9316188,57.2973481
678528,Hedevej,9940,14,10.9323572,57.2980844
678529,Hedevej,9940,16,10.9331412,57.2983694
678530,Hedevej,9940,18,10.9335564,57.2986552
678531,Hedevej,9940,20,10.9339644,57.2986405
678532,Hedevej,9940,22,10.934591,57.298852
678533,Hejrevej,9940,1,10.924427,57.290648
678534,Hejrevej,9940,2,10.9246466,57.290372
678535,Hejrevej,9940,3,10.9249063,57.2905616
678536,Hejrevej,9940,4,10.9260774,57.2901683
678537,Hejrevej,9940,5,10.925451,57.2904768
678538,Hejrevej,9940,7,10.9259761,57.2904239
678539,Hejrevej,9940,9,10.9264777,57.2903564
678540,Hejrevej,9940,11,10.9267432,57.2902254
678541,Hejrevej,9940,13,10.9270827,57.2901966
678542,Himmerigvejen,9940,1,11.063042,57.28619
678543,Himmerigvejen,9940,1A,11.0623914,57.2907963
678544,Himmerigvejen,9940,3,11.0646813,57.2929013
678545,Himmerigvejen,9940,4,11.0659834,57.2913477
678546,Himmerigvejen,9940,6,11.0692897,57.2908478
678547,Himmerigvejen,9940,11,11.0458656,57.3168336
678548,Hindbærvej,9940,1,10.909145,57.270194
678549,Hindbærvej,9940,1A,10.9087077,57.2698559
678550,Hindbærvej,9940,2,10.9099593,57.269697
678551,Hindbærvej,9940,3,10.9094709,57.2706004
678552,Hindbærvej,9940,4,10.9102981,57.2701179
678553,Hindbærvej,9940,5,10.9099219,57.2709514
678554,Hindbærvej,9940,6,10.9107424,57.2705186
678555,Hindbærvej,9940,7,10.9102491,57.2713671
678556,Hindbærvej,9940,8,10.9111082,57.2709491
678557,Hindbærvej,9940,9,10.9105986,57.2716481
678558,Hindbærvej,9940,10,10.9115195,57.2712457
678559,Høgevej,9940,12,11.1440209,57.3193762
678560,Holmbækvejen,9940,1,10.9282242,57.2855134
678561,Holmbækvejen,9940,2,10.9281558,57.2856964
678562,Holmbækvejen,9940,3,10.928272,57.2851209
678563,Holmbækvejen,9940,4,10.9276945,57.2857497
678564,Holmbækvejen,9940,5,10.927516,57.2853322
678565,Holmbækvejen,9940,6,10.9260439,57.2854947
678566,Holmbækvejen,9940,6A,10.9250609,57.2854007
678567,Holmbækvejen,9940,7,10.9270258,57.2853627
678568,Holmbækvejen,9940,8,10.9241029,57.2853092
678569,Holmbækvejen,9940,9,10.9261031,57.2852804
678570,Holmbækvejen,9940,10,10.92145,57.283282
678571,Holmbækvejen,9940,11,10.9251037,57.2852256
678572,Holmbækvejen,9940,13,10.9233754,57.2846117
678573,Holmbækvejen,9940,15,10.9248331,57.2841087
678574,Holmbækvejen,9940,17,10.9242495,57.2840333
678575,Holmbækvejen,9940,19,10.9235307,57.2839689
678576,Hornfiskrønvej,9940,3,10.9903685,57.2395869
678577,Horneksvejen,9940,2,11.0241973,57.3158086
678578,Holmelundsvej,9940,1,10.9940742,57.2571175
678579,Holmelundsvej,9940,2,10.9947309,57.2573629
678580,Holmelundsvej,9940,3,10.9939799,57.2574488
678581,Holmelundsvej,9940,3A,10.993655,57.2573337
678582,Holmelundsvej,9940,4,10.9949055,57.2575684
678583,Holmelundsvej,9940,6,10.995264,57.2578786
678584,Holmelundsvej,9940,8,10.9946477,57.2581657
678585,Holmelundsvej,9940,10,10.9944118,57.2585345
678586,Hvedevænget,9940,4,11.0026599,57.2566441
678587,Hyacintvej,9940,1,10.9399805,57.2971483
678588,Hyacintvej,9940,2,10.9401428,57.2975132
678589,Hyacintvej,9940,3,10.9393685,57.2971725
678590,Hyacintvej,9940,4,10.9397509,57.2977339
678591,Hyacintvej,9940,5,10.9390369,57.2973587
678592,Hyacintvej,9940,6,10.939186,57.297738
678593,Hundetudevej,9940,1,10.9502698,57.272038
678594,Hundetudevej,9940,2,10.9418972,57.2716783
678595,Hundetudevej,9940,3,10.949329,57.271384
678596,Hundetudevej,9940,4,10.9411547,57.2716462
678597,Hundetudevej,9940,5,10.9497938,57.2720378
678598,Hundetudevej,9940,6,10.940631,57.271511
678599,Hundetudevej,9940,7,10.9377907,57.2701969
678600,Hundetudevej,9940,8,10.9391054,57.2709578
678601,Hundetudevej,9940,9,10.9348404,57.2698592
678602,Hundetudevej,9940,11,10.9342334,57.2698732
678603,Hybenvej,9940,2,10.9085056,57.2702259
678604,Hybenvej,9940,4,10.9088757,57.2706022
678605,Hybenvej,9940,5,10.9085933,57.2712418
678606,Hybenvej,9940,6,10.9092526,57.2709685
678607,Hybenvej,9940,7,10.9089595,57.2717214
678608,Hybenvej,9940,8,10.909626,57.271351
678609,Hybenvej,9940,9,10.9092277,57.2722113
678610,Hybenvej,9940,10,10.9101009,57.2717494
678611,Hvidkløvervej,9940,1,10.9376826,57.2981942
678612,Hvidkløvervej,9940,2,10.9377299,57.297802
678613,Hvidkløvervej,9940,3,10.9383631,57.2981844
678614,Hvidkløvervej,9940,5,10.9385802,57.2980508
678615,Hvidkløvervej,9940,6,10.9385736,57.2977662
678616,Høyersvej,9940,1,10.9243455,57.2938381
678617,Høyersvej,9940,2,10.9244959,57.2935147
678618,Høyersvej,9940,3,10.9245345,57.2937542
678619,Høyersvej,9940,4,10.9249724,57.2933072
678620,Høyersvej,9940,5,10.9247252,57.2936533
678621,Høyersvej,9940,6,10.9254762,57.2930873
678622,Høyersvej,9940,7,10.925247,57.2937289
678623,Høyersvej,9940,8,10.9262843,57.2926661
678624,Høyersvej,9940,9,10.9253579,57.2933769
678625,Høyersvej,9940,10,10.9266684,57.2924801
678626,Høyersvej,9940,11,10.9256514,57.2932288
678627,Høyersvej,9940,13,10.9261408,57.2931057
678628,Høyersvej,9940,15,10.9265306,57.2929558
678629,Høyersvej,9940,17,10.926864,57.292832
678630,Høstvejen,9940,1,10.9446824,57.2773846
678631,Høstvejen,9940,4,10.9459982,57.2770417
678632,Kirkevænget,9940,3,10.9223626,57.2912489
678633,Kirkevænget,9940,5,10.9215578,57.2912521
678634,Industrivej,9940,2,11.1271442,57.3201837
678635,Industrivej,9940,4,11.1278196,57.3204753
678636,Jagtvej,9940,1,11.1458345,57.3171449
678637,Jagtvej,9940,2,11.1477298,57.3170941
678638,Jagtvej,9940,3,11.1448182,57.3184894
678639,Jagtvej,9940,3A,11.1444806,57.3190049
678640,Jagtvej,9940,3B,11.1435947,57.3201694
678641,Jagtvej,9940,4,11.1451726,57.3185791
678642,Jagtvej,9940,6,11.1422747,57.3227458
678643,Irisvej,9940,1,11.139008,57.318252
678644,Irisvej,9940,2,11.138356,57.31819
678645,Irisvej,9940,3,11.1390872,57.3179665
678646,Irisvej,9940,4,11.138703,57.317895
678647,Jenses Jolle,9940,1,11.0815065,57.3110522
678648,Jenses Jolle,9940,2,11.0819983,57.3113401
678649,Jenses Jolle,9940,3,11.0810263,57.3109124
678650,Jenses Jolle,9940,4,11.0826306,57.3110433
678651,Jenses Jolle,9940,5,11.0806109,57.3108778
678652,Jenses Jolle,9940,6,11.0828632,57.3112734
678653,Jenses Jolle,9940,7,11.0804798,57.3110521
678654,Jenses Jolle,9940,8,11.0826984,57.3116629
678655,Jenses Jolle,9940,9,11.0808065,57.3111678
678656,Jenses Jolle,9940,10,11.0820914,57.3118342
678657,Jenses Jolle,9940,11,11.0813224,57.3112556
678658,Jenses Jolle,9940,12,11.0818839,57.3116327
678659,Jenses Jolle,9940,13,11.0807435,57.3118597
678660,Jenses Jolle,9940,14,11.0812498,57.3123312
678661,Jenses Jolle,9940,15,11.0802714,57.3118452
678662,Jenses Jolle,9940,16,11.0817964,57.3122832
678663,Jenses Jolle,9940,17,11.0798345,57.3118041
678664,Jenses Jolle,9940,18,11.0817524,57.3126066
678665,Jenses Jolle,9940,19,11.0796988,57.3120054
678666,Jenses Jolle,9940,20,11.0814861,57.3131733
678667,Jenses Jolle,9940,21,11.0800473,57.312097
678668,Jenses Jolle,9940,22,11.0810566,57.3130545
678669,Jenses Jolle,9940,23,11.0805616,57.3122642
678670,Jenses Jolle,9940,24,11.0808394,57.3128198
678671,Jenses Jolle,9940,25,11.080217,57.3127305
678672,Jenses Jolle,9940,27,11.0795286,57.3127914
678673,Jenses Jolle,9940,29,11.0790703,57.3127244
678674,Jenses Jolle,9940,31,11.0788209,57.3129396
678675,Jenses Jolle,9940,33,11.0793025,57.3130536
678676,Jenses Jolle,9940,35,11.0798358,57.313144
678677,Jegens Vej,9940,3,11.1672923,57.3177749
678678,Jegens Vej,9940,4,11.1687225,57.3179067
678679,Jegens Vej,9940,6,11.168569,57.3183417
678680,Jegens Vej,9940,7,11.167145,57.32227
678681,Jegens Vej,9940,8,11.1681044,57.3197486
678682,Jegens Vej,9940,10,11.167531,57.322506
678683,Juelsmindevej,9940,2,11.045371,57.261658
678684,Juelsmindevej,9940,3,11.0409566,57.2626327
678685,Juelsmindevej,9940,4,11.0451016,57.26306
678686,Kirkestien,9940,2,10.9984063,57.2551736
678687,Kajakvej,9940,1,10.9870289,57.2604167
678688,Kajakvej,9940,2,10.9871803,57.2602609
678689,Kajakvej,9940,3,10.987364,57.260499
678690,Kajakvej,9940,4,10.987474,57.260397
678691,Kanderedevej,9940,3,10.9345982,57.2798118
678692,Kanderedevej,9940,7,10.9336729,57.2800926
678693,Kanderedevej,9940,9,10.9333589,57.2802041
678694,Klokkeblomstvej,9940,1,10.938994,57.2947308
678695,Klokkeblomstvej,9940,2,10.9395408,57.2945688
678696,Klokkeblomstvej,9940,3,10.9394548,57.2951931
678697,Klokkeblomstvej,9940,4,10.9399725,57.2950691
678698,Klokkeblomstvej,9940,5,10.9397221,57.2958496
678699,Klokkeblomstvej,9940,6,10.9402608,57.2957218
678700,Klokkeblomstvej,9940,7,10.9399257,57.2963186
678701,Klokkeblomstvej,9940,8,10.9405292,57.2962551
678702,Klokkeblomstvej,9940,9,10.9402898,57.2969663
678703,Klokkeblomstvej,9940,10,10.9409682,57.2968507
678704,Klokkeblomstvej,9940,11,10.9407785,57.2974383
678705,Klokkeblomstvej,9940,12,10.9413428,57.297351
678706,Klokkeblomstvej,9940,13,10.9410846,57.2981031
678707,Klokkeblomstvej,9940,14,10.9416896,57.2980589
678708,Klokkeblomstvej,9940,15,10.9414528,57.2985798
678709,Klokkeblomstvej,9940,16,10.9419263,57.2985002
678710,Klokkeblomstvej,9940,18,10.9419379,57.2989711
678711,Klitrosevej,9940,1,10.934303,57.2956179
678712,Klitrosevej,9940,2,10.9352472,57.2958297
678713,Klitrosevej,9940,5,10.9353254,57.2965027
678714,Klitrosevej,9940,7,10.9360351,57.2965807
678715,Klitrosevej,9940,8,10.9371096,57.2973227
678716,Klitrosevej,9940,9,10.9363179,57.2968462
678717,Klitrosevej,9940,11,10.9364908,57.2971206
678718,Klitrosevej,9940,13,10.9362053,57.2974986
678719,Klitrosevej,9940,15,10.936704,57.2976992
678720,Klitvejen,9940,1,11.0736458,57.2915472
678721,Klitvejen,9940,1A,11.0735215,57.2916148
678722,Klitvejen,9940,5,11.0714366,57.2910932
678723,Kløvermarken,9940,1,11.1613802,57.3142966
678724,Kløvermarken,9940,2,11.1630726,57.3145324
678725,Kløvermarken,9940,2A,11.162406,57.314924
678726,Kløvermarken,9940,3,11.160503,57.314455
678727,Kløvermarken,9940,4,11.161439,57.3148824
678728,Kløvermarken,9940,5,11.1591286,57.3147383
678729,Kløvermarken,9940,6,11.1605059,57.316412
678730,Kløvermarken,9940,7,11.1578613,57.3152916
678731,Kløvermarken,9940,8,11.1599755,57.3170462
678732,Kløvermarken,9940,9,11.1589356,57.3165465
678733,Knoldevej,9940,1,10.9357424,57.2979417
678734,Knoldevej,9940,2,10.9346108,57.2975785
678735,Knoldevej,9940,3,10.9351653,57.2975837
678736,Knoldevej,9940,4,10.9345243,57.2970231
678737,Knoldevej,9940,5,10.9351547,57.2973188
678738,Knoldevej,9940,5A,10.9352476,57.2970561
678739,Knoldevej,9940,6,10.9343423,57.2967264
678740,Knoldevej,9940,7,10.9348447,57.2968107
678741,Knæet,9940,1,10.9365568,57.2815578
678742,Knæet,9940,2,10.9369618,57.2809214
678743,Knæet,9940,2A,10.9362272,57.2810847
678744,Knæet,9940,3,10.9371677,57.2816494
678745,Knæet,9940,4,10.9369538,57.2812107
678746,Knæet,9940,5,10.9376528,57.2819933
678747,Knæet,9940,6,10.9376567,57.2811499
678748,Knæet,9940,8,10.9381371,57.2812208
678749,Knæet,9940,10,10.9373482,57.281376
678750,Knæet,9940,12,10.937904,57.281682
678751,Knæet,9940,14,10.9388921,57.2824698
678752,Koglestien,9940,3,10.9346711,57.2788182
678753,Koglestien,9940,4,10.934337,57.279224
678754,Koglestien,9940,6,10.9329486,57.2787975
678755,Klydevej,9940,1,10.8962899,57.2671402
678756,Klydevej,9940,3,10.8955241,57.267311
678757,Klydevej,9940,5,10.8950531,57.2674914
678758,Klydevej,9940,7,10.8944163,57.2677534
678759,Klydevej,9940,9,10.8938768,57.2679914
678760,Kokvadvejen,9940,1,11.0064389,57.2528642
678761,Kokvadvejen,9940,2,11.0060841,57.2528711
678762,Kokvadvejen,9940,4,11.0056724,57.2527251
678763,Kokvadvejen,9940,5,11.0109457,57.2466277
678764,Kokvadvejen,9940,6,11.0057453,57.2522729
678765,Kokvadvejen,9940,8A,11.0055005,57.250225
678766,Kokvadvejen,9940,10,11.0058375,57.2490832
678767,Kokvadvejen,9940,12,11.0089815,57.2457772
678768,Kokvadvejen,9940,14,11.0147641,57.2468233
678769,Kokvadgårdsvej,9940,1,11.005352,57.245272
678770,Kokvadgårdsvej,9940,3,10.9953535,57.2449892
678771,Kokvadgårdsvej,9940,4,11.0012775,57.2472289
678772,Kokvadgårdsvej,9940,5,10.9937409,57.2449086
678773,Kokvadgårdsvej,9940,6,10.9998788,57.2489738
678774,Kokvadgårdsvej,9940,8,10.992806,57.245189
678775,Kongenshusvej,9940,3,11.1691855,57.3156481
678776,Kongenshusvej,9940,5,11.1707501,57.3156537
678777,Kongenshusvej,9940,5A,11.1698013,57.3162034
678778,Kongenshusvej,9940,6,11.1660301,57.3128524
678779,Kongenshusvej,9940,7,11.1691291,57.3148286
678780,Kongenshusvej,9940,12,11.1669871,57.310737
678781,Kongenshusvej,9940,15,11.1670955,57.3099073
678782,Kongevejen,9940,1,10.9364912,57.2769643
678783,Kongevejen,9940,2,10.935115,57.2779573
678784,Kongevejen,9940,2A,10.935895,57.2774918
678785,Kongevejen,9940,2B,10.9340076,57.2781964
678786,Kongevejen,9940,3,10.9360808,57.2771915
678787,Kongevejen,9940,4,10.9335007,57.2785678
678788,Kongevejen,9940,5,10.9356777,57.2773254
678789,Kongevejen,9940,7,10.934986,57.277599
678790,Kongevejen,9940,8,10.930688,57.279339
678791,Kongevejen,9940,9,10.935167,57.277403
678792,Kongevejen,9940,11,10.9344282,57.2777772
678793,Kongevejen,9940,13,10.9339772,57.277882
678794,Kongevejen,9940,15,10.9336296,57.2779907
678795,Kongevejen,9940,17,10.9330709,57.278271
678796,Kongevejen,9940,19,10.9314066,57.2784467
678797,Kongevejen,9940,21,10.9281706,57.2795697
678798,Kongevejen,9940,23,10.9277714,57.2796244
678799,Kongevejen,9940,27,10.9208495,57.280369
678800,Kongevejen,9940,29,10.9204839,57.2805508
678801,Kornblomstvej,9940,1,10.9305774,57.2946562
678802,Kornblomstvej,9940,2,10.930255,57.2943707
678803,Kornblomstvej,9940,3,10.9310843,57.2945534
678804,Kornblomstvej,9940,4,10.9307392,57.2943472
678805,Kornblomstvej,9940,6,10.9310554,57.2941509
678806,Kamillevej,9940,3,10.9456908,57.2822879
678807,Kamillevej,9940,4,10.945231,57.282008
678808,Kromarksvej,9940,1,11.0060435,57.2550262
678809,Kromarksvej,9940,2,11.0063949,57.2548947
678810,Kromarksvej,9940,3,11.0061161,57.2552091
678811,Kromarksvej,9940,3A,11.0056307,57.2552499
678812,Kromarksvej,9940,4,11.0065043,57.2551076
678813,Kromarksvej,9940,5,11.0062484,57.2554747
678814,Kromarksvej,9940,5A,11.0057904,57.2555013
678815,Kromarksvej,9940,6,11.0068274,57.2553048
678816,Kromarksvej,9940,7,11.0063892,57.2556548
678817,Kromarksvej,9940,8,11.0069576,57.2554974
678818,Kromarksvej,9940,9,11.0065282,57.255973
678819,Kromarksvej,9940,10,11.0070911,57.2557238
678820,Kromarksvej,9940,11,11.0067071,57.2562236
678821,Kromarksvej,9940,12,11.0071716,57.2559878
678822,Kromarksvej,9940,13,11.0070473,57.2565494
678823,Kromarksvej,9940,14,11.007268,57.2561878
678824,Kromarksvej,9940,15,11.0071815,57.2568094
678825,Kromarksvej,9940,16,11.0074483,57.2563689
678826,Kromarksvej,9940,18,11.0075949,57.2566467
678827,Kromarksvej,9940,20,11.00776,57.2568479
678828,Kærvej,9940,1,10.9721477,57.2717069
678829,Kærvej,9940,3,10.9711244,57.2710788
678830,Kærsangervej,9940,1,11.1095578,57.3045407
678831,Kærsangervej,9940,2,11.1090998,57.3044362
678832,Kærsangervej,9940,3,11.110036,57.303977
678833,Kærsangervej,9940,4,11.1094051,57.3040168
678834,Kærmindevej,9940,1,10.9980687,57.2550206
678835,Kærmindevej,9940,1A,10.997798,57.255076
678836,Kærmindevej,9940,3,10.9977229,57.2553392
678837,Kærmindevej,9940,5,10.9970788,57.2553696
678838,Køllesvinget,9940,1,11.0057746,57.2558347
678839,Køllesvinget,9940,2,11.0060285,57.2560866
678840,Køllesvinget,9940,3,11.0051682,57.2556759
678841,Køllesvinget,9940,4,11.0051727,57.2559784
678842,Lillekæret,9940,2,10.9719217,57.2705792
678843,Lille Skovvej,9940,1,11.011961,57.261827
678844,Lille Skovvej,9940,2,11.0129658,57.2633872
678845,Lille Skovvej,9940,3,11.0120574,57.2626102
678846,Lille Skovvej,9940,4,11.0133016,57.2638304
678847,Lille Skovvej,9940,6,11.0134025,57.2645184
678848,Lille Skovvej,9940,8,11.0158498,57.2650158
678849,Lille Skovvej,9940,9,11.0139682,57.265908
678850,Lille Skovvej,9940,11,11.0168994,57.2657316
678851,Langvarigheden,9940,1,11.086777,57.3116938
678852,Langvarigheden,9940,2,11.0872123,57.3117826
678853,Langvarigheden,9940,3,11.0863751,57.3119598
678854,Langvarigheden,9940,4,11.087216,57.3121266
678855,Langvarigheden,9940,5,11.0863651,57.3122077
678856,Langvarigheden,9940,6,11.0867869,57.3123053
678857,Langvarigheden,9940,7,11.0859383,57.3124413
678858,Langvarigheden,9940,8,11.0868232,57.3126311
678859,Langvarigheden,9940,9,11.085965,57.3127069
678860,Langvarigheden,9940,10,11.0863976,57.3127988
678861,Langvarigheden,9940,11,11.0855627,57.312958
678862,Langvarigheden,9940,12,11.0861977,57.3130483
678863,Langvarigheden,9940,13,11.0855788,57.3131886
678864,Langvarigheden,9940,14,11.0860037,57.3132902
678865,Langvarigheden,9940,15,11.0854028,57.3135884
678866,Langvarigheden,9940,16,11.085992,57.313934
678867,Langvarigheden,9940,17,11.0849084,57.313769
678868,Langvarigheden,9940,18,11.0854704,57.3140457
678869,Langvarigheden,9940,19,11.084773,57.3140476
678870,Langvarigheden,9940,20,11.0852705,57.3142951
678871,Langvarigheden,9940,21,11.0845722,57.3143038
678872,Langvarigheden,9940,22,11.0850716,57.3145429
678873,Langvarigheden,9940,23,11.0842381,57.3145187
678874,Langvarigheden,9940,24,11.0852728,57.3149234
678875,Lindholmvej,9940,3,11.117811,57.300225
678876,Lindholmvej,9940,5,11.118835,57.300279
678877,Lindholmvej,9940,8,11.118071,57.299618
678878,Lindholmvej,9940,10,11.11905,57.30002
678879,Lindholmvej,9940,12,11.118864,57.299235
678880,Lille Stoklundvej,9940,1,11.0505994,57.2556046
678881,Lille Stoklundvej,9940,2,11.0484909,57.2543853
678882,Lille Stoklundvej,9940,3,11.0511362,57.2558429
678883,Lille Stoklundvej,9940,5,11.0513895,57.2556329
678884,Lille Stoklundvej,9940,6,11.0568528,57.2561169
678885,Krogen,9940,2,11.1487558,57.3078108
678886,Lille Strandgårdsvej,9940,1,11.068258,57.274613
678887,Lille Strandgårdsvej,9940,1A,11.0634202,57.2744375
678888,Lille Strandgårdsvej,9940,2,11.051519,57.269929
678889,Lille Strandgårdsvej,9940,3,11.072258,57.275451
678890,Lille Strandgårdsvej,9940,4,11.0511498,57.2714958
678891,Lille Strandgårdsvej,9940,6,11.052858,57.2708982
678892,Lille Strandgårdsvej,9940,8,11.0515088,57.2723349
678893,Lille Strandgårdsvej,9940,10,11.0539693,57.2721359
678894,Lille Strandgårdsvej,9940,16,11.0608624,57.2738699
678895,Lille Strandgårdsvej,9940,18,11.0634256,57.2741314
678896,Lille Strandgårdsvej,9940,20,11.0654823,57.2717761
678897,Lille Strandgårdsvej,9940,22,11.067211,57.273672
678898,Lille Strandgårdsvej,9940,24,11.0721341,57.274268
678899,Lille Strandgårdsvej,9940,26,11.072818,57.274122
678900,Lille Strandgårdsvej,9940,28,11.072944,57.271961
678901,Linievejen,9940,1,11.0204411,57.2829825
678902,Linievejen,9940,2,11.0308289,57.2844881
678903,Linievejen,9940,2A,11.0357285,57.286125
678904,Linievejen,9940,2B,11.0389406,57.2869369
678905,Linievejen,9940,2C,11.044432,57.2883245
678906,Linievejen,9940,2E,11.0478732,57.289194
678907,Linievejen,9940,3,11.0439357,57.2886641
678908,Linievejen,9940,4,11.0500841,57.2881589
678909,Linievejen,9940,4A,11.050305,57.2898262
678910,Linievejen,9940,7,11.0488207,57.289668
678911,Linievejen,9940,7B,11.049418,57.289819
678912,Linievejen,9940,8,11.0548175,57.2896442
678913,Linievejen,9940,9,11.0577441,57.2919761
678914,Linievejen,9940,10,11.068472,57.294405
678915,Linievejen,9940,11,11.0656373,57.2942909
678916,Linievejen,9940,11A,11.0678643,57.2944756
678917,Linievejen,9940,11B,11.0687067,57.2946882
678918,Linievejen,9940,12,11.0696237,57.2946965
678919,Linievejen,9940,13,11.0694263,57.2951262
678920,Linievejen,9940,13A,11.068738,57.297126
678921,Linievejen,9940,13B,11.063411,57.308089
678922,Linievejen,9940,14,11.0708284,57.2946479
678923,Linievejen,9940,14A,11.0861828,57.2983059
678924,Linievejen,9940,14B,11.0716598,57.2944264
678925,Linievejen,9940,15,11.075532,57.296436
678926,Linievejen,9940,15C,11.0801878,57.2976021
678927,Linievejen,9940,15D,11.081657,57.297974
678928,Linievejen,9940,16,11.0868567,57.2980708
678929,Linievejen,9940,17,11.082099,57.298081
678930,Linievejen,9940,17A,11.082588,57.298204
678931,Linievejen,9940,17B,11.0873364,57.2993928
678932,Linievejen,9940,17C,11.086751,57.300505
678933,Linievejen,9940,18,11.0875187,57.2992057
678934,Linievejen,9940,18A,11.0881788,57.2993711
678935,Linievejen,9940,19,11.1264571,57.3094418
678936,Linievejen,9940,19B,11.1261915,57.310002
678937,Linievejen,9940,19C,11.1259131,57.3101173
678938,Linievejen,9940,20,11.0912954,57.2994333
678939,Linievejen,9940,22,11.1004894,57.3025107
678940,Linievejen,9940,22A,11.1033877,57.303247
678941,Linievejen,9940,22B,11.1051958,57.3037064
678942,Linievejen,9940,22C,11.1075219,57.3042972
678943,Linievejen,9940,27,11.1304451,57.3103034
678944,Linievejen,9940,28,11.1177063,57.3060108
678945,Linievejen,9940,29,11.1309043,57.3104197
678946,Linievejen,9940,30,11.119693,57.3073877
678947,Linievejen,9940,31,11.1320816,57.310718
678948,Linievejen,9940,31A,11.1303859,57.3128675
678949,Linievejen,9940,32,11.122491,57.3080827
678950,Linievejen,9940,32A,11.12395,57.307863
678951,Linievejen,9940,32B,11.1241173,57.3076445
678952,Linievejen,9940,34,11.1243971,57.30856
678953,Linievejen,9940,35,11.1326911,57.3108724
678954,Linievejen,9940,36,11.125462,57.3076409
678955,Linievejen,9940,37,11.1334454,57.3110635
678956,Linievejen,9940,38,11.1260516,57.30813
678957,Linievejen,9940,40,11.1267016,57.30909
678958,Linievejen,9940,44,11.1315749,57.3102142
678959,Lodsvej,9940,3,10.922357,57.2906447
678960,Lodsvej,9940,4,10.9223612,57.2908584
678961,Lodsvej,9940,5,10.9218104,57.2907
678962,Lodsvej,9940,6,10.9218246,57.2909302
678963,Lodsvej,9940,7,10.9213431,57.290777
678964,Lodsvej,9940,8,10.9212561,57.2910231
678965,Lodsvej,9940,9,10.9208879,57.2908624
678966,Lodsvej,9940,10,10.920647,57.291098
678967,Lodsvej,9940,11,10.92049,57.290917
678968,Lundevej,9940,2,11.0244776,57.2730701
678969,Lundevej,9940,3,11.022153,57.275671
678970,Lundevej,9940,5,11.0219757,57.2763129
678971,Lupinvej,9940,1,10.9331908,57.2971738
678972,Lupinvej,9940,3,10.9335898,57.2972184
678973,Lyngholmvej,9940,1,11.1613906,57.3183719
678974,Lyngholmvej,9940,3,11.1608034,57.3185272
678975,Lyngholmvej,9940,4,11.1620031,57.3192394
678976,Lyngholmvej,9940,5,11.1603385,57.3187386
678977,Lyngholmvej,9940,6,11.1610522,57.3197094
678978,Lyngholmvej,9940,7,11.1609043,57.3191674
678979,Lyngholmvej,9940,9,11.160355,57.3193135
678980,Lyngholmvej,9940,11,11.1605436,57.3197792
678981,Lyngholmvej,9940,13,11.1605378,57.320062
678982,Lyngvej,9940,1,10.9310342,57.2962124
678983,Lyngvej,9940,2,10.9318994,57.296029
678984,Lyngvej,9940,3,10.9313466,57.2963982
678985,Lyngvej,9940,4,10.9322374,57.2963441
678986,Lyngvej,9940,5,10.9316933,57.2966419
678987,Lyngvej,9940,6,10.9325204,57.2965591
678988,Lyngvej,9940,7,10.9319315,57.2968984
678989,Lyngvej,9940,8,10.933289,57.29663
678990,Lyngvej,9940,9,10.9322135,57.2971316
678991,Lynghøjen,9940,1,10.9438292,57.282171
678992,Lynghøjen,9940,3,10.9440181,57.2824586
678993,Lynghøjen,9940,4,10.9446995,57.2819216
678994,Lynghøjen,9940,5,10.9441762,57.282722
678995,Lynghøjen,9940,7,10.9445661,57.2829044
678996,Lynghøjen,9940,9,10.9446971,57.2831469
678997,Lynghøjen,9940,10,10.9449957,57.2823203
678998,Lynghøjen,9940,11,10.9438011,57.2832452
678999,Lynghøjen,9940,13,10.9432825,57.2832493
679000,Lynghøjen,9940,15,10.942855,57.283346
679001,Lynghøjen,9940,17,10.9425399,57.2836434
679002,Løvfaldsvej,9940,1,10.9549182,57.2804396
679003,Løvfaldsvej,9940,2,10.9545176,57.280643
679004,Løvfaldsvej,9940,3,10.954112,57.2797297
679005,Løvfaldsvej,9940,4,10.9538546,57.2800006
679006,Løvfaldsvej,9940,6,10.9531877,57.2793911
679007,Løvfaldsvej,9940,7,10.953223,57.2786226
679008,Løvfaldsvej,9940,8,10.9525807,57.2787058
679009,Løvfaldsvej,9940,9,10.9525883,57.2783312
679010,Lærkevej,9940,1,10.9241082,57.2923633
679011,Lærkevej,9940,2,10.9242614,57.2917538
679012,Lærkevej,9940,4,10.9244377,57.2920634
679013,Lærkevej,9940,6,10.9245087,57.2923706
679014,Løvstien,9940,1,11.0091408,57.2697734
679015,Løvstien,9940,2,11.008526,57.268854
679016,Løvstien,9940,3,11.0094365,57.2688806
679017,Løvstien,9940,4,11.0079866,57.2681347
679018,Løvstien,9940,5,11.0101596,57.2687247
679019,Løvstien,9940,6,11.0089652,57.2683347
679020,Markedspladsen,9940,1,11.0009009,57.2546225
679021,Marehalmsvej,9940,1,10.9325394,57.2959053
679022,Marehalmsvej,9940,3,10.9327582,57.2961021
679023,Margueritevej,9940,1,10.939935,57.282084
679024,Margueritevej,9940,2,10.940005,57.282208
679025,Markvejen,9940,1,11.140216,57.3065574
679026,Markvejen,9940,3,11.1407233,57.3069832
679027,Markvejen,9940,5,11.141427,57.3071658
679028,Markvejen,9940,9,11.142063,57.307416
679029,Markvejen,9940,11,11.1427659,57.3069972
679030,Markstien,9940,2,10.9321676,57.286801
679031,Markstien,9940,3,10.9330698,57.2868814
679032,Markstien,9940,4,10.9327865,57.286697
679033,Markstien,9940,5,10.9335179,57.2868606
679034,Markstien,9940,6,10.933208,57.2866088
679035,Markstien,9940,7,10.9341009,57.2868507
679036,Markstien,9940,8,10.9336406,57.2865108
679037,Markstien,9940,9,10.9344045,57.2868872
679038,Markstien,9940,11,10.9345691,57.2865674
679039,Markstien,9940,12,10.9344441,57.2863156
679040,Markstien,9940,13,10.9349198,57.2866602
679041,Markstien,9940,14,10.9348525,57.2862249
679042,Markstien,9940,15,10.9352945,57.2866174
679043,Markstien,9940,16,10.9356581,57.2860959
679044,Markstien,9940,17,10.9355618,57.2865126
679045,Markstien,9940,19,10.9358893,57.2864576
679046,Markstien,9940,21,10.9361151,57.2862385
679047,Markstien,9940,23,10.9364186,57.2861822
679048,Markstien,9940,25,10.9368691,57.2862858
679049,Mellemvej,9940,1,10.9325119,57.2863146
679050,Mellemvej,9940,2,10.931987,57.286596
679051,Mellemvej,9940,3,10.9328746,57.2862383
679052,Mellemvej,9940,4,10.9317247,57.2863112
679053,Mellemvej,9940,5,10.93327,57.286155
679054,Mellemvej,9940,6,10.9320895,57.2861731
679055,Mellemvej,9940,7,10.9336785,57.286069
679056,Mellemvej,9940,8,10.932491,57.286089
679057,Mellemvej,9940,9,10.9340942,57.2859815
679058,Mellemvej,9940,10,10.9328636,57.2859938
679059,Mellemvej,9940,11,10.934478,57.285901
679060,Mellemvej,9940,12,10.933304,57.2859173
679061,Mellemvej,9940,14,10.9337015,57.2858336
679062,Mellemvej,9940,16,10.9341245,57.2857444
679063,Mellemvej,9940,18,10.9344728,57.285671
679064,Mellemvej,9940,20,10.9347803,57.2857672
679065,Mellemvej,9940,22,10.9351357,57.285922
679066,Moselundsvej,9940,1,11.0078999,57.2655891
679067,Moselundsvej,9940,3,11.0065901,57.2669787
679068,Moselundsvej,9940,4,11.008366,57.265948
679069,Moselundsvej,9940,6,11.0068782,57.2671189
679070,Moselundsvej,9940,8,11.0059407,57.2678544
679071,Mosevej,9940,1,11.150345,57.315364
679072,Mosevej,9940,3,11.150791,57.315479
679073,Mosevej,9940,4,11.145582,57.313654
679074,Mosevej,9940,5,11.151275,57.316069
679075,Mosevej,9940,5A,11.150367,57.316403
679076,Mosevej,9940,6,11.146759,57.314214
679077,Mosevej,9940,7,11.152029,57.317053
679078,Mosevej,9940,8,11.14803,57.314535
679079,Mosevej,9940,9,11.153275,57.316478
679080,Mosevej,9940,11,11.153507,57.317437
679081,Mosevej,9940,11A,11.152659,57.318744
679082,Mosevej,9940,12,11.152384,57.315636
679083,Mosevej,9940,13,11.155301,57.31726
679084,Mosevej,9940,15,11.156636,57.317047
679085,Mosevej,9940,16,11.1561678,57.3163119
679086,Mosevej,9940,17,11.157638,57.317202
679087,Mosevej,9940,18,11.157777,57.316329
679088,Mosevej,9940,19,11.159498,57.317673
679089,Mosevej,9940,23,11.162567,57.318579
679090,Mosevej,9940,24,11.16221,57.317268
679091,Mosevej,9940,25,11.164339,57.318852
679092,Mosevej,9940,27,11.165449,57.32002
679093,Mosevej,9940,28,11.1632759,57.3181451
679094,Mosevej,9940,29,11.166094,57.319288
679095,Mosevej,9940,30,11.16386,57.318323
679096,Mosevej,9940,31,11.167306,57.319729
679097,Mosevej,9940,32,11.16599,57.318951
679098,Mosevej,9940,34,11.167512,57.31919
679099,Mirabellevej,9940,4,11.0793666,57.2985276
679100,Mirabellevej,9940,6,11.0787649,57.2992039
679101,Mirabellevej,9940,8,11.0786912,57.2997539
679102,Mirabellevej,9940,10,11.078315,57.3003586
679103,Mirabellevej,9940,12,11.0777705,57.3011503
679104,Mirabellevej,9940,14,11.0766182,57.3014406
679105,Mirabellevej,9940,16,11.0766992,57.302221
679106,Museumsvej,9940,1,11.023478,57.263553
679107,Museumsvej,9940,3,11.0326204,57.2631718
679108,Museumsvej,9940,5,11.04241,57.266528
679109,Museumsvej,9940,8A,11.0452091,57.2666974
679110,Museumsvej,9940,8B,11.0443728,57.266947
679111,Museumsvej,9940,10,11.045019,57.2683212
679112,Mælkebøttevej,9940,1,10.9432311,57.2816774
679113,Mælkebøttevej,9940,2,10.9429404,57.2813638
679114,Mælkebøttevej,9940,3,10.9438533,57.2815017
679115,Mælkebøttevej,9940,4,10.943397,57.2812386
679116,Mælkebøttevej,9940,5,10.9443854,57.2814084
679117,Mælkebøttevej,9940,6,10.9438507,57.2811144
679118,Mælkebøttevej,9940,7,10.9445803,57.2810954
679119,Mælkebøttevej,9940,8,10.944327,57.280905
679120,Musvitstien,9940,4,11.1406866,57.3232646
679121,Musvitstien,9940,6,11.1401926,57.3230964
679122,Musvitstien,9940,8,11.1401366,57.3223587
679123,Musvitstien,9940,10,11.1397178,57.3222753
679124,Mågevej,9940,1,11.1274517,57.3195524
679125,Mågevej,9940,2,11.1281357,57.3194162
679126,Mågevej,9940,3,11.1277312,57.3195467
679127,Mågevej,9940,4,11.1284435,57.3195036
679128,Mågevej,9940,5,11.1280242,57.3195984
679129,Mågevej,9940,6,11.1294673,57.3196872
679130,Mågevej,9940,6A,11.1300278,57.3197631
679131,Mågevej,9940,6B,11.1306055,57.3197471
679132,Mågevej,9940,7,11.12848,57.3196748
679133,Mågevej,9940,8,11.1312176,57.3199228
679134,Mågevej,9940,9,11.1288958,57.3197912
679135,Mågevej,9940,10,11.1316646,57.3199039
679136,Mågevej,9940,11,11.132252,57.3202841
679137,Mågevej,9940,13,11.1325935,57.3202937
679138,Mågevej,9940,14,11.1328296,57.3200302
679139,Mågevej,9940,15,11.1328696,57.3204441
679140,Mågevej,9940,16,11.1333513,57.3200749
679141,Mågevej,9940,17,11.1334147,57.3203978
679142,Mågevej,9940,19,11.133855,57.3205692
679143,Mågevej,9940,20,11.1344525,57.3202944
679144,Mågevej,9940,21,11.1343018,57.3205141
679145,N.P. Nielsens Vej,9940,1,11.0030321,57.2548166
679146,N.P. Nielsens Vej,9940,6,11.0032163,57.255291
679147,N.P. Nielsens Vej,9940,8,11.0028677,57.2552333
679148,N.P. Nielsens Vej,9940,9,11.0016157,57.25565
679149,N.P. Nielsens Vej,9940,10,11.0022078,57.2555141
679150,N.P. Nielsens Vej,9940,12,11.0019691,57.2557594
679151,N.P. Nielsens Vej,9940,13,11.0008496,57.2565536
679152,N.P. Nielsens Vej,9940,14,11.0017118,57.256028
679153,N.P. Nielsens Vej,9940,16,11.0013297,57.2563446
679154,N.P. Nielsens Vej,9940,18,11.0012628,57.256639
679155,Nattergalevej,9940,1,10.9211341,57.2900998
679156,Nattergalevej,9940,2,10.920975,57.289734
679157,Nattergalevej,9940,3,10.9219163,57.2902832
679158,Nattergalevej,9940,4,10.9215026,57.2896108
679159,Nattergalevej,9940,6,10.924806,57.2894873
679160,Nattergalevej,9940,7,10.9226938,57.2900062
679161,Nattergalevej,9940,8,10.9256441,57.289427
679162,Nattergalevej,9940,9,10.9244653,57.2898574
679163,Nattergalevej,9940,11,10.924798,57.289819
679164,Nattergalevej,9940,13,10.9255579,57.2897497
679165,Nattergalevej,9940,15,10.9264744,57.2896701
679166,Neksøvej,9940,1,11.1304881,57.3170274
679167,Neksøvej,9940,2,11.1313154,57.3167277
679168,Neksøvej,9940,3,11.1310303,57.3170804
679169,Neksøvej,9940,4,11.1318178,57.3168964
679170,Neksøvej,9940,5,11.1348743,57.3177566
679171,Neksøvej,9940,6,11.1325669,57.3170648
679172,Neksøvej,9940,8,11.1333553,57.3172636
679173,Nissebakkevej,9940,1,10.9251834,57.2605055
679174,Nissebakkevej,9940,2,10.9162848,57.261569
679175,Nylandsvej,9940,1,10.905513,57.252574
679176,Nylandsvej,9940,2,10.9032116,57.2522872
679177,Nylandsvej,9940,3,10.914531,57.2529188
679178,Nordgårdsvej,9940,1,11.0113459,57.2711818
679179,Nordgårdsvej,9940,2,11.0112696,57.2706708
679180,Nordgårdsvej,9940,4,11.0133477,57.2686599
679181,Nordgårdsvej,9940,10,11.0170649,57.2645178
679182,Nørholmsvej,9940,2,11.0803946,57.3076073
679183,Nørholmsvej,9940,4,11.0806912,57.3080345
679184,Nordlysvej,9940,1,10.9855692,57.262037
679185,Nordlysvej,9940,2,10.9859791,57.2617196
679186,Nordlysvej,9940,3,10.9859695,57.2620463
679187,Nordlysvej,9940,4,10.9861013,57.2619003
679188,Nordmarksvej,9940,1,11.0717614,57.2927677
679189,Nordmarksvej,9940,1A,11.0722628,57.293311
679190,Nordmarksvej,9940,2,11.0757709,57.2910283
679191,Nordmarksvej,9940,3,11.073102,57.293344
679192,Nordmarksvej,9940,4,11.0745838,57.2928449
679193,Nordmarksvej,9940,5,11.0729756,57.2938185
679194,Nordstjernevej,9940,6,10.9336899,57.2853482
679195,Nordstjernevej,9940,8,10.9332725,57.2854352
679196,Nordstjernevej,9940,10,10.9328129,57.2855419
679197,Nordstjernevej,9940,14,10.9315718,57.2859762
679198,Norgesvej,9940,1,11.1251811,57.3179788
679199,Norgesvej,9940,5,11.1248201,57.3184961
679200,Norgesvej,9940,7,11.1246381,57.3187461
679201,Norgesvej,9940,9,11.1239758,57.3189364
679202,Norgesvej,9940,11,11.1235752,57.3193581
679203,Nyvej,9940,3,10.9268569,57.2946289
679204,Nyvej,9940,4,10.927254,57.2943836
679205,Nyvej,9940,6,10.927806,57.294598
679206,Nyvej,9940,7,10.9277894,57.2950737
679207,Nordsvinget,9940,4,11.0715431,57.2994176
679208,Nordsvinget,9940,6,11.0711295,57.2999628
679209,Nordsvinget,9940,8,11.0707233,57.300498
679210,Nordsvinget,9940,10,11.070267,57.3010997
679211,Nordsvinget,9940,12,11.069805,57.301709
679212,Nordsvinget,9940,14,11.0694437,57.3024483
679213,Otto Nielsensvej,9940,1,10.964454,57.2582722
679214,Otto Nielsensvej,9940,1A,10.9631199,57.2586473
679215,Otto Nielsensvej,9940,1C,10.9698846,57.2569359
679216,Otto Nielsensvej,9940,2,10.9645616,57.2597598
679217,Otto Nielsensvej,9940,4,10.9645448,57.2607958
679218,Otto Nielsensvej,9940,6,10.9566361,57.2624111
679219,Otto Nielsensvej,9940,7,10.9618818,57.2580436
679220,Otto Nielsensvej,9940,8,10.9546721,57.2617696
679221,Otto Nielsensvej,9940,9,10.9567153,57.2609348
679222,Otto Nielsensvej,9940,10,10.9530821,57.2622433
679223,Otto Nielsensvej,9940,12,10.9521541,57.2624929
679224,Orøvej,9940,3,11.128544,57.316983
679225,Paulas Vej,9940,1,10.9173024,57.2816051
679226,Paulas Vej,9940,2,10.9170238,57.2814991
679227,Paulas Vej,9940,3,10.9184033,57.2814852
679228,Paulas Vej,9940,4,10.9175095,57.2813319
679229,Paulas Vej,9940,5,10.9188496,57.2812879
679230,Paulas Vej,9940,6,10.9182631,57.2810971
679231,Paulas Vej,9940,7,10.9197782,57.2812923
679232,Paulas Vej,9940,8,10.9195176,57.2810471
679233,Pentstrømsvej,9940,1,10.9413089,57.2709518
679234,Pentstrømsvej,9940,1A,10.9407095,57.2676519
679235,Pentstrømsvej,9940,2,10.9364576,57.2646359
679236,Pentstrømsvej,9940,3,10.9431761,57.2670868
679237,Pentstrømsvej,9940,4,10.935725,57.2553536
679238,Pentstrømsvej,9940,6,10.9361122,57.2544357
679239,Pentstrømsvej,9940,6A,10.9355414,57.2544981
679240,Pentstrømsvej,9940,6B,10.9347982,57.252216
679241,Pentstrømsvej,9940,7,10.9386329,57.2636486
679242,Pentstrømsvej,9940,8,10.9307614,57.2527736
679243,Pentstrømsvej,9940,9,10.9347469,57.262071
679244,Pentstrømsvej,9940,11,10.9342059,57.2609309
679245,Peter Danielsvej,9940,1,11.1266996,57.3175112
679246,Peter Danielsvej,9940,1A,11.1269829,57.317116
679247,Peter Danielsvej,9940,2,11.1264676,57.3179192
679248,Peter Danielsvej,9940,2A,11.1259346,57.3177781
679249,Peter Danielsvej,9940,3,11.125535,57.317273
679250,Peter Danielsvej,9940,4,11.1251634,57.3175718
679251,Peter Danielsvej,9940,5,11.1251876,57.317203
679252,Peter Danielsvej,9940,5A,11.1254485,57.3168627
679253,Peter Danielsvej,9940,6,11.1245557,57.3174025
679254,Peter Danielsvej,9940,7,11.1248148,57.3171539
679255,Peter Danielsvej,9940,8,11.1242032,57.3173572
679256,Peter Danielsvej,9940,9,11.1244681,57.3170123
679257,Peter Danielsvej,9940,10,11.123773,57.317421
679258,Peter Danielsvej,9940,11,11.1241697,57.3168519
679259,Peter Danielsvej,9940,12,11.1232878,57.31711
679260,Peter Danielsvej,9940,13,11.1235116,57.3168954
679261,Peter Danielsvej,9940,14,11.1227932,57.3169778
679262,Peter Danielsvej,9940,15,11.1228706,57.3167752
679263,Peter Danielsvej,9940,16,11.121317,57.3177252
679264,Peter Danielsvej,9940,18,11.1210892,57.3166109
679265,Peter Danielsvej,9940,19,11.1224513,57.3166812
679266,Peter Danielsvej,9940,19A,11.1220006,57.3165861
679267,Peter Danielsvej,9940,20,11.1203565,57.316552
679268,Peter Danielsvej,9940,20A,11.1199918,57.3164684
679269,Peter Danielsvej,9940,20B,11.1175403,57.3158586
679270,Peter Danielsvej,9940,25,11.1029085,57.3128551
679271,Pilealle,9940,2,11.0115789,57.2616614
679272,Pilealle,9940,4,11.0111582,57.2616987
679273,Pilealle,9940,6,11.0036007,57.2621969
679274,Pilealle,9940,8,11.0026109,57.2621171
679275,Plantagevej,9940,1,10.9243756,57.2941029
679276,Plantagevej,9940,2,10.9241006,57.2934327
679277,Plantagevej,9940,3,10.9252551,57.294692
679278,Plantagevej,9940,4,10.9248303,57.2941278
679279,Plantagevej,9940,6,10.9250321,57.2942664
679280,Plantagevej,9940,7,10.9256672,57.2949509
679281,Plantagevej,9940,8,10.9252419,57.2943976
679282,Plantagevej,9940,9,10.9261739,57.295504
679283,Plantagevej,9940,10,10.9257067,57.2947029
679284,Plantagevej,9940,11,10.9262409,57.2957126
679285,Plantagevej,9940,12,10.9259393,57.2948506
679286,Plantagevej,9940,12A,10.9260541,57.2946091
679287,Plantagevej,9940,13,10.9264415,57.2957979
679288,Plantagevej,9940,14,10.926144,57.2949867
679289,Plantagevej,9940,15,10.9273726,57.2957843
679290,Plantagevej,9940,15A,10.9270641,57.2959792
679291,Plantagevej,9940,16,10.9263741,57.2951552
679292,Plantagevej,9940,17,10.9275972,57.2959276
679293,Plantagevej,9940,17A,10.9280502,57.2964356
679294,Plantagevej,9940,18,10.9267625,57.2953968
679295,Plantagevej,9940,19,10.927936,57.2957392
679296,Plantagevej,9940,20,10.9271891,57.2954021
679297,Plantagevej,9940,21,10.9283131,57.2956713
679298,Plantagevej,9940,22,10.9278676,57.2954529
679299,Plantagevej,9940,23,10.9285719,57.2956762
679300,Plantagevej,9940,25,10.9293084,57.2956926
679301,Plantagevej,9940,26,10.9289327,57.2954825
679302,Plantagevej,9940,27,10.9302132,57.2957865
679303,Plantagevej,9940,28,10.9293073,57.2954448
679304,Plantagevej,9940,29,10.9306871,57.2956961
679305,Plantagevej,9940,30,10.9301548,57.2953954
679306,Plantagevej,9940,31,10.9313464,57.2956186
679307,Plantagevej,9940,32,10.930893,57.2953712
679308,Plantagevej,9940,33,10.9318548,57.2955331
679309,Plantagevej,9940,34,10.9315227,57.2952491
679310,Plantagevej,9940,35,10.932468,57.2954976
679311,Plantagevej,9940,36,10.9319979,57.2951478
679312,Plantagevej,9940,36A,10.9328446,57.2951642
679313,Plantagevej,9940,37,10.9329229,57.295366
679314,Plantagevej,9940,38,10.9331997,57.2948822
679315,Plantagevej,9940,39,10.9334113,57.2953147
679316,Plantagevej,9940,40,10.931839,57.2931924
679317,Plantagevej,9940,41,10.9337183,57.2952607
679318,Plantagevej,9940,44,10.9344528,57.294924
679319,Plantagevej,9940,45,10.9357781,57.2949491
679320,Plantagevej,9940,46,10.9352562,57.294809
679321,Plantagevej,9940,47,10.9362729,57.2948533
679322,Plantagevej,9940,48,10.9356703,57.2945532
679323,Plantagevej,9940,50,10.9368519,57.2945299
679324,Plantagevej,9940,50A,10.9373543,57.2944501
679325,Plantagevej,9940,50B,10.9378259,57.2943174
679326,Plantagevej,9940,51A,10.9425463,57.2988129
679327,Plantagevej,9940,51B,10.9441267,57.2985523
679328,Plantagevej,9940,52,10.9382544,57.294247
679329,Plantagevej,9940,53,10.9414525,57.2941896
679330,Plantagevej,9940,53A,10.9418639,57.2939934
679331,Plantagevej,9940,53B,10.9444204,57.2935971
679332,Plantagevej,9940,53C,10.9487983,57.2970502
679333,Plantagevej,9940,53D,10.9481808,57.2930116
679334,Plantagevej,9940,53E,10.9508599,57.2925951
679335,Plantagevej,9940,53F,10.9523153,57.2973113
679336,Plantagevej,9940,53G,10.9541744,57.2972671
679337,Plantagevej,9940,53H,10.9584124,57.2968778
679338,Plantagevej,9940,53I,10.9554315,57.2972359
679339,Plantagevej,9940,53J,10.9545558,57.2920221
679340,Plantagevej,9940,53K,10.9553793,57.2919171
679341,Plantagevej,9940,53L,10.9560939,57.291778
679342,Plantagevej,9940,53M,10.9567378,57.2927467
679343,Plantagevej,9940,54,10.9409483,57.2915446
679344,Plantagevej,9940,55,10.9591734,57.2915289
679345,Plantagevej,9940,55A,10.9601877,57.2966153
679346,Plantagevej,9940,55B,10.9609455,57.296508
679347,Plantagevej,9940,55C,10.9607539,57.2910327
679348,Plantagevej,9940,55D,10.9619362,57.2908533
679349,Plantagevej,9940,55E,10.9631993,57.3008184
679350,Plantagevej,9940,55F,10.9651321,57.2992866
679351,Plantagevej,9940,55G,10.959142,57.2967571
679352,Plantagevej,9940,56,10.9527807,57.2920722
679353,Plantagevej,9940,60,10.9452827,57.2928906
679354,Plantagevej,9940,62,10.9534874,57.2919549
679355,Plantagevej,9940,64,10.9608006,57.2908008
679356,Plantagevej,9940,66,10.9678213,57.2897173
679357,Plantagevej,9940,68,10.9728585,57.288906
679358,Plantagevej,9940,70,10.976006,57.2889884
679359,Plantagevej,9940,72,10.9785749,57.2892031
679360,Plantagevej,9940,74,10.9850453,57.2875213
679361,Plantagevej,9940,76,10.9857678,57.2872897
679362,Polarvej,9940,2,10.9851509,57.2616388
679363,Polarvej,9940,3,10.9851763,57.2613978
679364,Polarvej,9940,4,10.9848783,57.2614714
679365,Poppelvej,9940,2,10.999344,57.2574133
679366,Poppelvej,9940,4,10.9988989,57.2574274
679367,Poppelvej,9940,6,10.9984801,57.257444
679368,Post-Jollen,9940,1,11.0804062,57.3085472
679369,Post-Jollen,9940,2,11.0799093,57.3105887
679370,Post-Jollen,9940,3,11.0804938,57.3090228
679371,Post-Jollen,9940,4,11.0796336,57.3108222
679372,Post-Jollen,9940,5,11.0802961,57.3092669
679373,Post-Jollen,9940,6,11.0797087,57.3111265
679374,Post-Jollen,9940,7,11.0797004,57.309395
679375,Post-Jollen,9940,8,11.0793299,57.3112632
679376,Post-Jollen,9940,9,11.0798975,57.3097583
679377,Post-Jollen,9940,10,11.0790396,57.3115678
679378,Post-Jollen,9940,11,11.0793934,57.3099702
679379,Post-Jollen,9940,12,11.0785034,57.3118733
679380,Post-Jollen,9940,13,11.0791961,57.3103057
679381,Post-Jollen,9940,14,11.0783042,57.3121189
679382,Post-Jollen,9940,15,11.0791854,57.3105602
679383,Post-Jollen,9940,16,11.0780958,57.3123758
679384,Post-Jollen,9940,17,11.0789754,57.3108192
679385,Post-Jollen,9940,18,11.0779001,57.3126172
679386,Post-Jollen,9940,19,11.0787785,57.3110621
679387,Post-Jollen,9940,20,11.0779102,57.3129933
679388,Post-Jollen,9940,21,11.0783838,57.3112733
679389,Post-Jollen,9940,23,11.0780018,57.3115724
679390,Post-Jollen,9940,25,11.0780023,57.3118567
679391,Post-Jollen,9940,27,11.077459,57.3120184
679392,Post-Jollen,9940,29,11.0776005,57.3123522
679393,Post-Jollen,9940,31,11.0773988,57.3126009
679394,Post-Jollen,9940,33,11.0772015,57.3128441
679395,Porsevej,9940,2,10.9346298,57.2961748
679396,Porsevej,9940,3,10.9339435,57.2958919
679397,Porsevej,9940,4,10.9342135,57.296325
679398,Porsevej,9940,5,10.9333945,57.295845
679399,Porsevej,9940,6,10.9337901,57.2964108
679400,Porsevej,9940,8,10.9335941,57.2962408
679401,Professor Johansens Vej,9940,1,11.088735,57.3130621
679402,Professor Johansens Vej,9940,1A,11.08959,57.312275
679403,Professor Johansens Vej,9940,2,11.088464,57.3142915
679404,Professor Johansens Vej,9940,3,11.0881624,57.3129796
679405,Professor Johansens Vej,9940,4,11.0877246,57.3153332
679406,Professor Johansens Vej,9940,5,11.0877298,57.3129063
679407,Professor Johansens Vej,9940,6,11.0905444,57.3173566
679408,Professor Johansens Vej,9940,7,11.0873761,57.313263
679409,Professor Johansens Vej,9940,9,11.0879254,57.3134034
679410,Professor Johansens Vej,9940,11,11.0884834,57.3134631
679411,Professor Johansens Vej,9940,13,11.0879864,57.3140234
679412,Professor Johansens Vej,9940,15,11.0874318,57.3138716
679413,Professor Johansens Vej,9940,17,11.0869909,57.3138042
679414,Professor Johansens Vej,9940,19,11.0866462,57.3141434
679415,Professor Johansens Vej,9940,21,11.0872773,57.3140985
679416,Professor Johansens Vej,9940,23,11.0876128,57.3143804
679417,Professor Johansens Vej,9940,25,11.0872917,57.3149033
679418,Professor Johansens Vej,9940,27,11.0868473,57.3147267
679419,Professor Johansens Vej,9940,29,11.0862896,57.3146727
679420,Professor Johansens Vej,9940,31,11.0858678,57.3150132
679421,Professor Johansens Vej,9940,33,11.0865513,57.3149904
679422,Professor Johansens Vej,9940,35,11.0870093,57.3152761
679423,Rørsangervej,9940,1,11.1116322,57.3050267
679424,Rørsangervej,9940,2,11.111372,57.304903
679425,Rørsangervej,9940,3,11.1130092,57.3048732
679426,Rørsangervej,9940,4,11.1119408,57.3041831
679427,Rørsangervej,9940,6,11.1125595,57.3046406
679428,Rørsangervej,9940,8,11.1129038,57.3037562
679429,Rørsangervej,9940,10,11.1119888,57.3033762
679430,Rørsangervej,9940,12,11.1130628,57.303108
679431,Rørsangervej,9940,14,11.1131867,57.3047693
679432,Præstevejen,9940,1,10.9359837,57.2734301
679433,Præstevejen,9940,1A,10.9361481,57.2742332
679434,Præstevejen,9940,2,10.93683,57.276872
679435,Præstevejen,9940,3,10.9355774,57.2727837
679436,Præstevejen,9940,4,10.9365857,57.2765777
679437,Præstevejen,9940,5,10.934506,57.270662
679438,Præstevejen,9940,6,10.9362256,57.2764873
679439,Præstevejen,9940,7,10.9295985,57.2675976
679440,Præstevejen,9940,8,10.9359306,57.2761858
679441,Præstevejen,9940,9,10.9286587,57.2673799
679442,Præstevejen,9940,10,10.935861,57.2758935
679443,Præstevejen,9940,11,10.9274495,57.266371
679444,Præstevejen,9940,12,10.9342203,57.2749735
679445,Præstevejen,9940,13,10.9245261,57.2665393
679446,Præstevejen,9940,14,10.9344572,57.2737633
679447,Præstevejen,9940,15,10.9234186,57.2662594
679448,Præstevejen,9940,16,10.933043,57.270127
679449,Præstevejen,9940,17,10.9215083,57.266128
679450,Præstevejen,9940,18,10.9290955,57.267839
679451,Præstevejen,9940,19,10.9206424,57.2660107
679452,Præstevejen,9940,20,10.9254689,57.2670822
679453,Præstevejen,9940,21,10.9198464,57.2659028
679454,Præstevejen,9940,21A,10.9192593,57.2653567
679455,Præstevejen,9940,22,10.924663,57.2678441
679456,Præstevejen,9940,23,10.9177379,57.2652593
679457,Præstevejen,9940,24,10.9246846,57.2674035
679458,Præstevejen,9940,25,10.9165143,57.2659535
679459,Præstevejen,9940,25A,10.9148874,57.2661322
679460,Præstevejen,9940,26,10.923608,57.266614
679461,Præstevejen,9940,27,10.9136635,57.2662694
679462,Præstevejen,9940,29,10.9131516,57.2664092
679463,Præstevejen,9940,30,10.9225111,57.2665126
679464,Præstevejen,9940,31,10.9123793,57.266646
679465,Præstevejen,9940,32,10.9201468,57.2663202
679466,Præstevejen,9940,34,10.9157876,57.2663757
679467,Præstevejen,9940,36,10.913761,57.2665036
679468,Præstevejen,9940,37,10.9023873,57.2680428
679469,Præstevejen,9940,38,10.9124144,57.267153
679470,Rødgranvej,9940,4,10.9885071,57.2598101
679471,Rødgranvej,9940,6,10.9879881,57.2598889
679472,Pærevej,9940,1,11.0579394,57.2915066
679473,Pærevej,9940,3,11.0583663,57.2910249
679474,Pærevej,9940,5,11.0595547,57.2907518
679475,Pærevej,9940,7,11.059149,57.290142
679476,Pærevej,9940,9,11.0596139,57.2896172
679477,På Remmerne,9940,1,10.9882322,57.2625022
679478,På Remmerne,9940,2,10.98887,57.262946
679479,På Remmerne,9940,3,10.987556,57.2629567
679480,På Remmerne,9940,4,10.9883243,57.2630246
679481,På Remmerne,9940,6,10.9876139,57.2631896
679482,På Remmerne,9940,7,10.986418,57.2632841
679483,På Remmerne,9940,8,10.9871357,57.2640287
679484,På Remmerne,9940,9,10.985783,57.263898
679485,På Remmerne,9940,10,10.9846952,57.2650122
679486,På Remmerne,9940,11,10.9836026,57.2645234
679487,På Remmerne,9940,12,10.9838314,57.2656176
679488,På Remmerne,9940,13,10.9813492,57.2663476
679489,På Remmerne,9940,14,10.9827538,57.2658507
679490,På Remmerne,9940,15,10.9799797,57.2653349
679491,På Remmerne,9940,16,10.982487,57.2662143
679492,På Remmerne,9940,17,10.9799129,57.2666359
679493,På Remmerne,9940,18,10.9808535,57.2670159
679494,På Remmerne,9940,19,10.9793464,57.2661646
679495,På Remmerne,9940,20,10.9800964,57.2673027
679496,På Remmerne,9940,21,10.9791037,57.2669538
679497,På Remmerne,9940,22,10.9796666,57.2676815
679498,På Remmerne,9940,23,10.9782615,57.26742
679499,På Remmerne,9940,24,10.9808098,57.267813
679500,På Remmerne,9940,25,10.9783282,57.2680031
679501,På Remmerne,9940,26,10.9790286,57.2683547
679502,På Remmerne,9940,27,10.9775285,57.2684274
679503,På Remmerne,9940,28,10.9762118,57.2698597
679504,På Remmerne,9940,28A,10.982201,57.272526
679505,På Remmerne,9940,28B,10.982815,57.272683
679506,På Remmerne,9940,28C,10.974154,57.271142
679507,På Remmerne,9940,28D,10.973077,57.271698
679508,På Remmerne,9940,28E,10.970137,57.273216
679509,På Remmerne,9940,28F,10.974924,57.270937
679510,På Remmerne,9940,29,10.9764194,57.2678441
679511,På Remmerne,9940,29A,10.9768725,57.2686941
679512,På Remmerne,9940,30,10.9684417,57.2742566
679513,På Remmerne,9940,31,10.9765356,57.2690927
679514,På Remmerne,9940,31A,10.9752026,57.2686487
679515,På Remmerne,9940,32,10.9676841,57.2744827
679516,På Remmerne,9940,33,10.9758102,57.2696888
679517,På Remmerne,9940,33A,10.9742895,57.2690688
679518,På Remmerne,9940,34,10.966824,57.274927
679519,På Remmerne,9940,36,10.966015,57.2753443
679520,På Remmerne,9940,40,10.959981,57.278459
679521,På Remmerne,9940,41,10.9730348,57.2714385
679522,På Remmerne,9940,42,10.9576024,57.2796861
679523,På Remmerne,9940,44,10.9557265,57.2807337
679524,På Remmerne,9940,45,10.9711492,57.2724122
679525,På Remmerne,9940,49,10.9632641,57.2764826
679526,På Remmerne,9940,49A,10.960585,57.2779924
679527,På Remmerne,9940,51,10.9619361,57.277168
679528,På Remmerne,9940,53,10.9611424,57.2775776
679529,På Remmerne,9940,55,10.9602989,57.278013
679530,På Remmerne,9940,57,10.9592297,57.2784249
679531,På Remmerne,9940,59,10.9587288,57.2788232
679532,På Remmerne,9940,61,10.957807,57.2791628
679533,På Remmerne,9940,61A,10.9571623,57.2796315
679534,På Remmerne,9940,63,10.956223,57.2799506
679535,På Remmerne,9940,63A,10.9525572,57.2820076
679536,På Remmerne,9940,65,10.9496566,57.2833481
679537,Ranunkelvej,9940,1,10.945211,57.2829989
679538,Ranunkelvej,9940,2,10.9449986,57.282776
679539,Ranunkelvej,9940,3,10.9458643,57.2830698
679540,Ranunkelvej,9940,4,10.945531,57.282712
679541,Ranunkelvej,9940,5,10.9464172,57.2830076
679542,Ranunkelvej,9940,6,10.9460395,57.2827054
679543,Rådyrvej,9940,3,11.0824654,57.3084351
679544,Rådyrvej,9940,5,11.0825866,57.3078543
679545,Rådyrvej,9940,7,11.0830993,57.3073589
679546,Rådyrvej,9940,9,11.0835349,57.3068048
679547,Rådyrvej,9940,11,11.0836833,57.3062148
679548,Rådyrvej,9940,13,11.08402,57.3057513
679549,Revlingevej,9940,1,10.9141262,57.2789039
679550,Revlingevej,9940,2,10.9133848,57.2784564
679551,Revlingevej,9940,3,10.9147314,57.2797924
679552,Revlingevej,9940,4,10.9143767,57.2784173
679553,Revlingevej,9940,5,10.9155079,57.2785987
679554,Revlingevej,9940,6,10.915905,57.278322
679555,Revlingevej,9940,7,10.91588,57.279487
679556,Revlingevej,9940,8,10.9165381,57.278986
679557,Rolighedsvej,9940,2,10.887788,57.262439
679558,Rolighedsvej,9940,4,10.886914,57.2626992
679559,Rolighedsvej,9940,6,10.8875624,57.2622527
679560,Rosevej,9940,6,11.0006224,57.2663636
679561,Rosevej,9940,8,11.0002112,57.2656303
679562,Rosevej,9940,10,11.0000668,57.2654086
679563,Rosevej,9940,12,11.000051,57.2653708
679564,Rosevej,9940,14,10.999905,57.2650596
679565,Rullegårdsvej,9940,1,10.9898405,57.2585753
679566,Rullegårdsvej,9940,1C,10.989558,57.2592998
679567,Rullegårdsvej,9940,2,10.9908459,57.2578004
679568,Rullegårdsvej,9940,3,10.9897226,57.2596981
679569,Rullegårdsvej,9940,4,10.9908226,57.258183
679570,Rullegårdsvej,9940,5,10.9888256,57.2599846
679571,Rullegårdsvej,9940,5A,10.989217,57.2604663
679572,Rullegårdsvej,9940,6,10.9908223,57.2585363
679573,Rullegårdsvej,9940,7,10.9890332,57.260853
679574,Rullegårdsvej,9940,8,10.9905191,57.2589595
679575,Rullegårdsvej,9940,9,10.9890852,57.2610901
679576,Rullegårdsvej,9940,10,10.9906125,57.2592677
679577,Rullegårdsvej,9940,11,10.9890189,57.261377
679578,Rullegårdsvej,9940,12,10.9911046,57.2594977
679579,Rullegårdsvej,9940,13,10.9889187,57.2616296
679580,Rullegårdsvej,9940,14,10.9902531,57.2594307
679581,Rullegårdsvej,9940,14A,10.990439,57.2597392
679582,Rullegårdsvej,9940,15,10.9887363,57.2618844
679583,Rullegårdsvej,9940,16,10.9901006,57.2601248
679584,Rullegårdsvej,9940,17,10.9885778,57.2621587
679585,Rullegårdsvej,9940,18,10.990481,57.2607703
679586,Rullegårdsvej,9940,19,10.9893334,57.2635103
679587,Rullegårdsvej,9940,20,10.9902148,57.2612019
679588,Rullegårdsvej,9940,21,10.9912377,57.2659418
679589,Rullegårdsvej,9940,24,10.9893494,57.2620048
679590,Rullegårdsvej,9940,26,10.9901789,57.2621262
679591,Rullegårdsvej,9940,28,10.9893898,57.2624061
679592,Rosmarinvej,9940,1,10.940511,57.2981676
679593,Rosmarinvej,9940,2,10.9408088,57.2986939
679594,Rosmarinvej,9940,3,10.9399965,57.2982305
679595,Rosmarinvej,9940,4,10.9401953,57.298563
679596,Rosmarinvej,9940,5,10.9395198,57.2982536
679597,Rosmarinvej,9940,6,10.9398647,57.2988641
679598,Rughaven,9940,3,11.0044238,57.2553191
679599,Rughaven,9940,4,11.0042576,57.2552129
679600,Rumbyvej,9940,3,10.9520707,57.2734683
679601,Rumbyvej,9940,5,10.9535818,57.2760478
679602,Rumbyvej,9940,6,10.9553274,57.2757859
679603,Rumbyvej,9940,7,10.9542194,57.2771671
679604,Rumbyvej,9940,9,10.9553747,57.2772027
679605,Rumbyvej,9940,11,10.955963,57.2774827
679606,Røllikevej,9940,2,10.9220862,57.2888961
679607,Røllikevej,9940,3,10.9211354,57.2890481
679608,Røllikevej,9940,5,10.9216793,57.2891309
679609,Røllikevej,9940,7,10.9221522,57.2892666
679610,Rødkløvervej,9940,2,10.9369926,57.2969159
679611,Rødkløvervej,9940,3,10.9377089,57.2971171
679612,Rødkløvervej,9940,5,10.9379696,57.2969639
679613,Rylevej,9940,1,11.1315682,57.3185353
679614,Rylevej,9940,2,11.1318116,57.3189587
679615,Rylevej,9940,3,11.1313933,57.3189482
679616,Rylevej,9940,4,11.131635,57.319127
679617,Rylevej,9940,6,11.1313869,57.3194286
679618,Rylevej,9940,7,11.130512,57.3192337
679619,Rylevej,9940,9,11.1309065,57.3195838
679620,Rævestien,9940,1,11.1432018,57.3216717
679621,Rævestien,9940,2,11.143857,57.321308
679622,Rævestien,9940,3,11.1437927,57.3216608
679623,Rævestien,9940,5,11.1440927,57.3218705
679624,Rævestien,9940,6,11.1443986,57.3214413
679625,Rævestien,9940,7,11.1446918,57.3218002
679626,Rævestien,9940,8,11.1448755,57.3214239
679627,Rønnevej,9940,2,11.1298655,57.3177337
679628,Rønnevej,9940,4,11.1299499,57.317507
679629,Sandstien,9940,1,11.1447064,57.314343
679630,Sandstien,9940,2,11.1423035,57.3184632
679631,Sandstien,9940,2A,11.1432025,57.3186623
679632,Sandstien,9940,3,11.1437984,57.3151708
679633,Sandstien,9940,5,11.1434544,57.3160206
679634,Sandstien,9940,7,11.1424914,57.317311
679635,Sandstien,9940,9,11.1412492,57.3184824
679636,Sandstien,9940,11,11.1412772,57.318938
679637,Sandstien,9940,13,11.1407967,57.3195814
679638,Sandstien,9940,15,11.1399871,57.3202277
679639,Sandstien,9940,17,11.1395894,57.3207754
679640,Sandstien,9940,19,11.1391807,57.3213054
679641,Sandstien,9940,21,11.1388652,57.3218017
679642,Sandstien,9940,23,11.1386552,57.3223696
679643,Sandstien,9940,25,11.1382953,57.3227553
679644,Sejerøvej,9940,1,11.1222552,57.3163627
679645,Sejerøvej,9940,1A,11.1226595,57.3163816
679646,Sejerøvej,9940,3,11.1225299,57.3159851
679647,Sejerøvej,9940,3A,11.1229837,57.3160414
679648,Sejerøvej,9940,5,11.122706,57.315628
679649,Sejerøvej,9940,5A,11.1231035,57.3158298
679650,Sejerøvej,9940,7,11.1227769,57.3153842
679651,Sejerøvej,9940,7A,11.1233905,57.3155362
679652,Sejerøvej,9940,9,11.1230241,57.3150599
679653,Sejerøvej,9940,9A,11.1234513,57.3152519
679654,Sejerøvej,9940,11,11.1234005,57.3147794
679655,Sithjemsvej,9940,2,10.9213883,57.2575072
679656,Sithjemsvej,9940,2A,10.921782,57.2566867
679657,Sithjemsvej,9940,3,10.9239333,57.2510343
679658,Sithjemsvej,9940,4,10.9202083,57.2560706
679659,Sivagervej,9940,1,10.9355701,57.2870549
679660,Sivagervej,9940,3,10.9366832,57.2872303
679661,Sivagervej,9940,6,10.937302,57.287133
679662,Sivagervej,9940,17,10.9351787,57.287894
679663,Sivagervej,9940,18,10.9367776,57.2879018
679664,Sivagervej,9940,19,10.9346296,57.2875394
679665,Sivagervej,9940,20,10.9361628,57.2879779
679666,Sivagervej,9940,22,10.9355478,57.2880412
679667,Sivagervej,9940,24,10.9350144,57.2880961
679668,Skovduevej,9940,1,11.146909,57.3152017
679669,Skovduevej,9940,2,11.1467677,57.3153837
679670,Skovduevej,9940,3,11.1462298,57.314992
679671,Skovduevej,9940,4,11.1457478,57.3152064
679672,Skovduevej,9940,5,11.1453616,57.3148578
679673,Skovduevej,9940,6,11.14507,57.315127
679674,Skolevej,9940,1,11.0044416,57.2532073
679675,Skolevej,9940,2,11.0037419,57.2530371
679676,Skolevej,9940,3,11.0046748,57.2529216
679677,Skolevej,9940,4,11.0028238,57.2525342
679678,Skomagervej,9940,1,10.9314295,57.2839012
679679,Skomagervej,9940,1A,10.9310377,57.284147
679680,Skomagervej,9940,3,10.9307083,57.2843537
679681,Skomagervej,9940,4,10.9308556,57.2848504
679682,Skomagervej,9940,5,10.9300841,57.2847191
679683,Skovbrynet,9940,1,11.0061914,57.2709281
679684,Skovbrynet,9940,3,11.005543,57.272848
679685,Skovstien,9940,3,10.9335705,57.2879879
679686,Skovstien,9940,4,10.9333659,57.2878543
679687,Skovstien,9940,5,10.9341023,57.2878505
679688,Skovstien,9940,6,10.9332282,57.2875725
679689,Skovstien,9940,7,10.9340136,57.2876501
679690,Skovstien,9940,9,10.933608,57.287516
679691,Smørblomstvej,9940,1,10.939602,57.281555
679692,Smørblomstvej,9940,2,10.939709,57.281722
679693,Smørblomstvej,9940,3,10.939007,57.281516
679694,Slædesporet,9940,1,10.9859983,57.2606429
679695,Slædesporet,9940,2,10.9859353,57.2608014
679696,Slædesporet,9940,3,10.9855119,57.2606126
679697,Slædesporet,9940,4,10.9854758,57.2607859
679698,Skovvej,9940,1,11.0218648,57.267766
679699,Skovvej,9940,1A,11.0227241,57.2706728
679700,Skovvej,9940,1B,11.0254286,57.2723884
679701,Skovvej,9940,2,11.0236607,57.267867
679702,Skovvej,9940,3,11.0304987,57.2770497
679703,Skovvej,9940,4,11.0258157,57.2723003
679704,Skovvej,9940,4A,11.0264523,57.2724657
679705,Skovvej,9940,6,11.0270737,57.2729247
679706,Skovvej,9940,8,11.028947,57.274576
679707,Skovvej,9940,10,11.0295925,57.2750803
679708,Skovvej,9940,12,11.031316,57.276045
679709,Skovvej,9940,14,11.0339641,57.2763954
679710,Skovvej,9940,18,11.0340285,57.2768743
679711,Snebærvej,9940,1,11.162393,57.312507
679712,Snebærvej,9940,1A,11.1639429,57.3117501
679713,Snebærvej,9940,1B,11.1623477,57.3114266
679714,Snebærvej,9940,2,11.1605449,57.312514
679715,Snebærvej,9940,3,11.1634638,57.3111485
679716,Snebærvej,9940,3A,11.1640669,57.3112333
679717,Snebærvej,9940,4,11.1612496,57.3119558
679718,Solstien,9940,1,10.9361797,57.2824648
679719,Solstien,9940,2,10.935798,57.2824942
679720,Solstien,9940,3,10.9368497,57.2822578
679721,Solstien,9940,4,10.9353539,57.2823888
679722,Solstien,9940,6,10.935463,57.282192
679723,Solstien,9940,8,10.9355765,57.2819574
679724,Skovensgårdsvej,9940,1,10.991558,57.256627
679725,Skovensgårdsvej,9940,1A,10.9888826,57.2539878
679726,Skovensgårdsvej,9940,1B,10.989201,57.2537909
679727,Skovensgårdsvej,9940,1C,10.9883428,57.2520464
679728,Skovensgårdsvej,9940,2,10.9908046,57.2567391
679729,Skovensgårdsvej,9940,2A,10.9874225,57.2510965
679730,Skovensgårdsvej,9940,2B,10.9907006,57.2563598
679731,Skovensgårdsvej,9940,3,10.978726,57.252471
679732,Skovensgårdsvej,9940,4,10.983158,57.251918
679733,Skovensgårdsvej,9940,4A,10.9837957,57.2518801
679734,Skovensgårdsvej,9940,6,10.9821749,57.2531767
679735,Skovensgårdsvej,9940,8,10.9773733,57.2548312
679736,Sneppevej,9940,2,11.1346924,57.3190613
679737,Sneppevej,9940,4,11.1344857,57.3193318
679738,Sneppevej,9940,6,11.1342193,57.3196247
679739,Sneppevej,9940,9,11.13361,57.319753
679740,Solsortevej,9940,3,11.1377059,57.3199338
679741,Solsortevej,9940,5,11.1373392,57.3198231
679742,Solsortevej,9940,6,11.1369018,57.3201988
679743,Starbækvej,9940,1,10.9558977,57.2659671
679744,Starbækvej,9940,2B,10.9535088,57.2660999
679745,Starbækvej,9940,3,10.9568522,57.2653809
679746,Starbækvej,9940,4,10.952925,57.265514
679747,Starbækvej,9940,5,10.957556,57.2649219
679748,Starbækvej,9940,7,10.9527064,57.2648442
679749,Starbækvej,9940,8,10.952598,57.2659925
679750,Starbækvej,9940,9,10.9521506,57.2645246
679751,Starbækvej,9940,11,10.9462177,57.2610051
679752,Spurvevej,9940,1,11.1376436,57.3209353
679753,Spurvevej,9940,2,11.137299,57.321332
679754,Spurvevej,9940,3,11.1372344,57.3208758
679755,Spurvevej,9940,4,11.1368523,57.3210976
679756,Spurvevej,9940,5,11.1369353,57.3206742
679757,Spurvevej,9940,6,11.1364693,57.3209662
679758,Spurvevej,9940,7,11.1364659,57.32071
679759,Spættevej,9940,1,11.1370021,57.3216121
679760,Spættevej,9940,2,11.1367453,57.3221707
679761,Spættevej,9940,3,11.1366058,57.3215158
679762,Spættevej,9940,4,11.1363884,57.3220733
679763,Spættevej,9940,5,11.1361173,57.3213297
679764,Spættevej,9940,6,11.1360496,57.3219289
679765,Spættevej,9940,8,11.1356503,57.3217794
679766,Stoklundvejen,9940,2A,11.0092002,57.2535198
679767,Stoklundvejen,9940,3,11.0120622,57.2539546
679768,Stoklundvejen,9940,3A,11.0126114,57.2538992
679769,Stoklundvejen,9940,5,11.0189299,57.2551478
679770,Stoklundvejen,9940,5A,11.0208769,57.254732
679771,Stoklundvejen,9940,6,11.0170866,57.2543814
679772,Stoklundvejen,9940,7,11.0215825,57.254725
679773,Stoklundvejen,9940,8,11.021887,57.25251
679774,Stoklundvejen,9940,9,11.0204198,57.2554823
679775,Stoklundvejen,9940,10,11.0247848,57.255138
679776,Stoklundvejen,9940,11,11.0219193,57.2559402
679777,Stoklundvejen,9940,12,11.0272387,57.2556347
679778,Stoklundvejen,9940,13,11.0250102,57.2568346
679779,Stoklundvejen,9940,16,11.0336758,57.2536196
679780,Stoklundvejen,9940,17,11.03723,57.259903
679781,Stoklundvejen,9940,19,11.037822,57.26031
679782,Stoklundvejen,9940,20,11.0422272,57.2574061
679783,Stoklundvejen,9940,23,11.0544003,57.2604597
679784,Stoklundvejen,9940,24,11.0690666,57.2651799
679785,Stoklundvejen,9940,25,11.0659417,57.2694856
679786,Stoklundvejen,9940,28,11.0690158,57.2690878
679787,Smedievejen,9940,2,11.1254673,57.3201198
679788,Smedievejen,9940,4,11.1246732,57.3201171
679789,Smedievejen,9940,4A,11.1245693,57.3199601
679790,Smedievejen,9940,4B,11.1242672,57.320093
679791,Smedievejen,9940,7,11.1247328,57.3195546
679792,Smedievejen,9940,13,11.1227046,57.3193499
679793,Smedievejen,9940,16,11.122316,57.319776
679794,Smedievejen,9940,18,11.1216867,57.3195525
679795,Storhavevej,9940,2,10.9962923,57.255852
679796,Storhavevej,9940,3,10.989879,57.2478478
679797,Storhavevej,9940,5,10.9892079,57.2475929
679798,Storhavevej,9940,6,10.98482,57.2506529
679799,Storhavevej,9940,6A,10.9856148,57.2493136
679800,Storhavevej,9940,7,10.9865912,57.2457759
679801,Storhavevej,9940,8,10.982601,57.2476142
679802,Skramborgvej,9940,2,11.0303263,57.2596059
679803,Sandskægvej,9940,3,10.9422492,57.2982214
679804,Sandskægvej,9940,4,10.942057,57.2979979
679805,Sandskægvej,9940,5,10.9430661,57.2984922
679806,Sandskægvej,9940,6,10.942504,57.297676
679807,Sandskægvej,9940,7,10.9434642,57.2984497
679808,Sandskægvej,9940,8,10.9431375,57.2977756
679809,Sandskægvej,9940,9,10.9439987,57.2983161
679810,Sandskægvej,9940,10,10.9436473,57.2977744
679811,Sandskægvej,9940,11,10.9444957,57.2982537
679812,Sandskægvej,9940,12,10.944117,57.2976939
679813,Strandgårdsvej,9940,1,10.9207893,57.2885461
679814,Strandgårdsvej,9940,2,10.9216693,57.2885002
679815,Strandgårdsvej,9940,4,10.9211018,57.2888249
679816,Strandgårdsvej,9940,7,10.9210831,57.2886561
679817,Strandgårdsvej,9940,12,10.9188733,57.2891807
679818,Strandvejen,9940,1,10.923314,57.288247
679819,Strandvejen,9940,2,10.9232336,57.2884857
679820,Strandvejen,9940,3,10.9227429,57.2882199
679821,Strandvejen,9940,4,10.9228486,57.288441
679822,Strandvejen,9940,5,10.9224088,57.2881604
679823,Strandvejen,9940,6,10.921927,57.2883648
679824,Strandvejen,9940,7,10.9220536,57.2880687
679825,Strandvejen,9940,8,10.9207513,57.2880783
679826,Strandvejen,9940,9,10.921859,57.2878098
679827,Strandvejen,9940,10,10.9203051,57.2872852
679828,Strandvejen,9940,11,10.9212568,57.2875546
679829,Strandvejen,9940,12,10.916514,57.285501
679830,Strandvejen,9940,13,10.920969,57.2871812
679831,Strandvejen,9940,15,10.9219162,57.2870189
679832,Strandvejen,9940,16,10.9164238,57.2852252
679833,Strandvejen,9940,18,10.9160984,57.2852909
679834,Strandvejen,9940,19,10.9203635,57.2865716
679835,Strandvejen,9940,19A,10.9192586,57.2862819
679836,Strandvejen,9940,20,10.9162647,57.2847749
679837,Strandvejen,9940,21,10.9175371,57.2852964
679838,Strandvejen,9940,22,10.9162486,57.2844302
679839,Strandvejen,9940,23,10.9181461,57.2837528
679840,Strandvejen,9940,24,10.9123816,57.2836946
679841,Strandvejen,9940,25,10.9154317,57.2809768
679842,Strandvejen,9940,26,10.9112497,57.2813258
679843,Strandvejen,9940,27,10.9138059,57.2809269
679844,Strandvejen,9940,28,10.9108384,57.28082
679845,Strandvejen,9940,28B,10.9100871,57.2799636
679846,Strandvejen,9940,28C,10.9092362,57.279976
679847,Strandvejen,9940,29,10.9133436,57.2807075
679848,Strandvejen,9940,29A,10.9129305,57.2803632
679849,Strandvejen,9940,29B,10.9132626,57.2798641
679850,Strandvejen,9940,30,10.9084036,57.2800061
679851,Strandvejen,9940,31,10.9126243,57.279552
679852,Strandvejen,9940,32,10.9106526,57.2788992
679853,Strandvejen,9940,33,10.9115492,57.2789577
679854,Strandvejen,9940,34,10.9041328,57.2735391
679855,Strandvejen,9940,35,10.9113303,57.2787361
679856,Strandvejen,9940,36,10.9038571,57.2732237
679857,Strandvejen,9940,38,10.896331,57.270478
679858,Strandvejen,9940,40,10.8929031,57.2715752
679859,Strandvejen,9940,41,10.9084874,57.2764677
679860,Strandvejen,9940,43,10.9077897,57.2761639
679861,Strandvejen,9940,45,10.9074712,57.2755533
679862,Strandvejen,9940,47,10.90483,57.273334
679863,Strandvejen,9940,47A,10.9056039,57.273217
679864,Strandvejen,9940,49,10.904541,57.2729753
679865,Strandvejen,9940,51,10.9040405,57.2723712
679866,Stærevej,9940,1,10.8953456,57.2655507
679867,Stærevej,9940,2,10.895032,57.265345
679868,Stærevej,9940,3,10.8957494,57.2653372
679869,Stærevej,9940,4,10.8955076,57.2651524
679870,Stærevej,9940,5,10.8961148,57.2650246
679871,Svalevej,9940,1,10.924957,57.291749
679872,Svalevej,9940,2,10.9241335,57.2915948
679873,Svalevej,9940,2A,10.9241891,57.2913767
679874,Svalevej,9940,3,10.9256368,57.291546
679875,Svalevej,9940,4,10.9244901,57.2915251
679876,Svalevej,9940,5,10.926013,57.2914506
679877,Svalevej,9940,6,10.9248363,57.291464
679878,Svalevej,9940,7,10.9265309,57.2913922
679879,Svalevej,9940,8,10.9249838,57.2911649
679880,Svalevej,9940,9,10.9268338,57.2913214
679881,Svalevej,9940,10,10.9255544,57.2912247
679882,Svalevej,9940,12,10.9259325,57.2913082
679883,Svinehaven,9940,1,10.9575655,57.2726756
679884,Svanevej,9940,1,11.1291608,57.3194679
679885,Svanevej,9940,2,11.1287656,57.3192116
679886,Svanevej,9940,3,11.1292787,57.3192574
679887,Svanevej,9940,4,11.1290346,57.3190486
679888,Svanevej,9940,5,11.1295451,57.3190174
679889,Svanevej,9940,6,11.1289588,57.318833
679890,Svanevej,9940,7,11.1297567,57.3187151
679891,Svanevej,9940,8,11.1291108,57.3187118
679892,Svanevej,9940,9,11.1298036,57.3185328
679893,Svanevej,9940,10,11.1293178,57.3185233
679894,Svanevej,9940,11,11.1299116,57.3183936
679895,Syrenvej,9940,1,11.150652,57.310288
679896,Syrenvej,9940,3,11.1484923,57.3116183
679897,Sydstien,9940,6,11.091293,57.2983641
679898,Sydstien,9940,8,11.0916781,57.2978677
679899,Sydstien,9940,10,11.0920535,57.2973842
679900,Søndergårdsvej,9940,6,11.017262,57.2470546
679901,Søndergårdsvej,9940,8,11.021091,57.247764
679902,Søndergårdsvej,9940,8A,11.024799,57.2452422
679903,Søndergårdsvej,9940,10,11.023824,57.248207
679904,Søndergårdsvej,9940,12,11.0293099,57.2490294
679905,Sydhavnsvej,9940,4,11.125251,57.302333
679906,Sydhavnsvej,9940,7,11.125481,57.300553
679907,Sydhavnsvej,9940,8,11.1257022,57.3016369
679908,Sydhavnsvej,9940,12,11.124892,57.301732
679909,Sydhavnsvej,9940,16,11.1238863,57.3006382
679910,Søndre Kirkevej,9940,1,10.9040299,57.266889
679911,Søndre Kirkevej,9940,3,10.9076305,57.2634417
679912,Søndre Kirkevej,9940,3A,10.9036826,57.2622099
679913,Søndre Kirkevej,9940,4,10.8996623,57.266854
679914,Søndre Kirkevej,9940,5,10.9017054,57.2574039
679915,Søndre Kirkevej,9940,6,10.900046,57.2633822
679916,Søndre Kirkevej,9940,7,10.9048041,57.25819
679917,Søndre Kirkevej,9940,8,10.8956726,57.2598921
679918,Søndre Kirkevej,9940,9,10.9074539,57.2566417
679919,Søndre Kirkevej,9940,10,10.8994316,57.2574289
679920,Søndre Kirkevej,9940,11,10.911584,57.255671
679921,Søndre Kirkevej,9940,12,10.9011193,57.2563457
679922,Søndre Kirkevej,9940,14,10.900231,57.257107
679923,Søndre Kirkevej,9940,18,10.9140838,57.2548369
679924,Søndre Kirkevej,9940,20,10.9179465,57.2553969
679925,Søndre Kirkevej,9940,22,10.919853,57.25769
679926,Søndre Skolevej,9940,1,10.9245694,57.2658466
679927,Søndre Skolevej,9940,2,10.9207843,57.2606677
679928,Søndre Skolevej,9940,2A,10.923127,57.2647239
679929,Søndre Skolevej,9940,2B,10.9227271,57.2642942
679930,Søndre Skolevej,9940,2C,10.9223709,57.2638796
679931,Søndre Skolevej,9940,2D,10.9219182,57.2634308
679932,Søndre Skolevej,9940,3,10.9234853,57.2634737
679933,Søndre Skolevej,9940,3A,10.922009,57.262742
679934,Søndre Skolevej,9940,5,10.9285631,57.2638141
679935,Søndre Strandvej,9940,1,10.8983706,57.2682866
679936,Søndre Strandvej,9940,2,10.8979961,57.2683721
679937,Søndre Strandvej,9940,3,10.8942382,57.2644654
679938,Søndre Strandvej,9940,5,10.8929705,57.263
679939,Søndre Strandvej,9940,6A,10.8925575,57.2638669
679940,Søndre Strandvej,9940,7,10.889783,57.2612
679941,Søndre Strandvej,9940,7A,10.8929835,57.2596007
679942,Søndre Strandvej,9940,8,10.8915269,57.2634698
679943,Søndre Strandvej,9940,9,10.8912394,57.2579799
679944,Søndre Strandvej,9940,10,10.8884518,57.2631477
679945,Søndre Strandvej,9940,13,10.8876398,57.2530391
679946,Søndre Strandvej,9940,14,10.8708045,57.2584193
679947,Søndre Strandvej,9940,15,10.8825668,57.2547469
679948,Tangborgvej,9940,1,11.1344199,57.3023749
679949,Tangborgvej,9940,8,11.134855,57.300839
679950,Tangborgvej,9940,12,11.135168,57.300222
679951,Ternevej,9940,1,11.1265527,57.3187976
679952,Ternevej,9940,2,11.1262978,57.3189596
679953,Ternevej,9940,3,11.125934,57.318486
679954,Ternevej,9940,4,11.1259158,57.3188578
679955,Ternevej,9940,7,11.1241025,57.3180418
679956,Troldstien,9940,2,10.9176695,57.2764523
679957,Troldstien,9940,4,10.9186968,57.2765699
679958,Troldstien,9940,5,10.917165,57.27726
679959,Troldstien,9940,6,10.9184623,57.2771706
679960,Troldstien,9940,8,10.9174801,57.2770088
679961,Troldstien,9940,10,10.9176637,57.2774343
679962,Trekløvervej,9940,1,10.9368664,57.2963976
679963,Trekløvervej,9940,3,10.9372156,57.2962574
679964,Trekløvervej,9940,4,10.9364922,57.2960468
679965,Trekløvervej,9940,5,10.9376277,57.2961065
679966,Trekløvervej,9940,6,10.9368407,57.2957978
679967,Trekløvervej,9940,8,10.9373002,57.2955302
679968,Thorasvej,9940,4A,10.968439,57.27034
679969,Thorasvej,9940,6,10.9673942,57.2724906
679970,Thorasvej,9940,8,10.9671116,57.2729936
679971,Thulevej,9940,1,10.9866558,57.2601331
679972,Thulevej,9940,2,10.9863753,57.2602354
679973,Thulevej,9940,3,10.9865315,57.2600354
679974,Thulevej,9940,4,10.9860189,57.2601107
679975,Thulevej,9940,5,10.9862216,57.2599797
679976,Thorvald Hansensvej,9940,2,11.0053678,57.2530747
679977,Thorvald Hansensvej,9940,3,11.0055742,57.2529465
679978,Thorvald Hansensvej,9940,5,11.0054682,57.2528431
679979,Tjørnevej,9940,1,10.9131704,57.2768662
679980,Tjørnevej,9940,6,10.9143358,57.2777869
679981,Tjørnevej,9940,7,10.9135961,57.2779329
679982,Tunøvej,9940,1,11.1257797,57.31911
679983,Tunøvej,9940,3,11.125469,57.319594
679984,Tunøvej,9940,4,11.1261519,57.3192796
679985,Tværvej,9940,1,10.9281464,57.2940524
679986,Tværvej,9940,3,10.9284842,57.2942732
679987,Tværvej,9940,4,10.928693,57.2940984
679988,Tværvej,9940,5,10.9292089,57.2946965
679989,Tværvej,9940,6,10.9295956,57.2945156
679990,Tværvej,9940,7,10.9298562,57.295204
679991,Tværvej,9940,8,10.930195,57.294794
679992,Troldmosevej,9940,2,10.9165175,57.274983
679993,Troldmosevej,9940,3,10.9143325,57.2761389
679994,Troldmosevej,9940,3A,10.9157238,57.2760746
679995,Troldmosevej,9940,4,10.9163517,57.275178
679996,Troldmosevej,9940,5,10.92978,57.2739844
679997,Troldmosevej,9940,7,10.930732,57.2732392
679998,Troldmosevej,9940,8,10.9253291,57.2767893
679999,Troldmosevej,9940,9,10.9330087,57.2728881
680000,Troldmosevej,9940,16,10.9311065,57.2727988
680001,Troldmosevej,9940,18,10.9314713,57.2727802
680002,Tranevej,9940,1,10.8952832,57.2663428
680003,Tranevej,9940,2,10.895694,57.266726
680004,Tranevej,9940,3,10.8947348,57.2665881
680005,Tranevej,9940,4,10.8951315,57.2669638
680006,Tranevej,9940,5,10.894082,57.2667296
680007,Tranevej,9940,6,10.8945983,57.2671885
680008,Tranevej,9940,7,10.8934364,57.2670121
680009,Tranevej,9940,8,10.8939334,57.2673853
680010,Tranevej,9940,9,10.8928621,57.267247
680011,Tranevej,9940,10,10.893294,57.2675884
680012,Tyvhulvejen,9940,1,11.1459176,57.3096783
680013,Tyvhulvejen,9940,1A,11.1448628,57.3104916
680014,Tyvhulvejen,9940,2,11.1482569,57.3087643
680015,Tyvhulvejen,9940,3,11.1423067,57.3128267
680016,Tyvhulvejen,9940,4,11.1477627,57.3088096
680017,Tyvhulvejen,9940,5,11.1428942,57.3139658
680018,Tyvhulvejen,9940,6,11.147183,57.309071
680019,Tyvhulvejen,9940,7,11.1420095,57.3145453
680020,Tyvhulvejen,9940,8,11.1465729,57.3097724
680021,Tyvhulvejen,9940,9,11.1419855,57.3151959
680022,Tyvhulvejen,9940,10,11.1477399,57.3109503
680023,Tyvhulvejen,9940,10A,11.1464716,57.3107071
680024,Tyvhulvejen,9940,11,11.1408291,57.3156947
680025,Tyvhulvejen,9940,12,11.1460956,57.3111477
680026,Tyvhulvejen,9940,14,11.1451383,57.3122171
680027,Tyvhulvejen,9940,14A,11.1462546,57.3123283
680028,Tyvhulvejen,9940,16,11.1441387,57.3132242
680029,Tyvhulvejen,9940,18,11.1432525,57.3140637
680030,Tyvhulvejen,9940,18A,11.142597,57.3149482
680031,Tyvhulvejen,9940,18B,11.1420304,57.3157126
680032,Tyvhulvejen,9940,19,11.1397109,57.3180216
680033,Tyvhulvejen,9940,20,11.13786,57.321473
680034,Tyvhulvejen,9940,21,11.1396465,57.3183139
680035,Tyvhulvejen,9940,23,11.139398,57.318651
680036,Tyvhulvejen,9940,25,11.1385514,57.3197987
680037,Tyttebærvej,9940,2,11.0593815,57.2918673
680038,Tyttebærvej,9940,4,11.0598644,57.2913017
680039,Tranebærvej,9940,10,10.912416,57.277425
680040,Tørkerivej,9940,1,10.981271,57.256129
680041,Tørkerivej,9940,1A,10.9763391,57.2558466
680042,Tørkerivej,9940,2,10.976925,57.256801
680043,Tørkerivej,9940,4,10.9694097,57.2536359
680044,Tørkerivej,9940,5,10.970227,57.252722
680045,Tørkerivej,9940,5A,10.9694845,57.2485881
680046,Tørkerivej,9940,5B,10.9678753,57.2525701
680047,Tørkerivej,9940,5C,10.9692027,57.2517913
680048,Tørkerivej,9940,6,10.9666595,57.2526862
680049,Tørkerivej,9940,7,10.96398,57.251698
680050,Tørkerivej,9940,8,10.9664543,57.2542248
680051,Tørkerivej,9940,10,10.9497513,57.253701
680052,Tørkerivej,9940,10A,10.9503796,57.2541176
680053,Tørkerivej,9940,11,10.949498,57.248634
680054,Tørkerivej,9940,12,10.951925,57.256411
680055,Tørkerivej,9940,13,10.9484782,57.2545663
680056,Tørkerivej,9940,13D,10.9468462,57.2542986
680057,Tørkerivej,9940,14,10.948597,57.256037
680058,Tørkerivej,9940,15,10.9448968,57.25576
680059,Tørkerivej,9940,16,10.942225,57.258137
680060,Tørkerivej,9940,17A,10.9344197,57.2587472
680061,Tørkerivej,9940,19,10.9317944,57.2584445
680062,Tørkerivej,9940,20,10.929542,57.2604994
680063,Tørkerivej,9940,21,10.930549,57.257186
680064,Tørkerivej,9940,21B,10.9285879,57.2589939
680065,Tørkerivej,9940,21C,10.9259779,57.2591131
680066,Tørkerivej,9940,23,10.9223264,57.2589583
680067,Tørkerivej,9940,23A,10.9227895,57.2584788
680068,Tårnvej,9940,1,10.9274295,57.2929347
680069,Tårnvej,9940,2,10.9271322,57.2932158
680070,Tårnvej,9940,3,10.9274509,57.2927377
680071,Tårnvej,9940,4,10.9264229,57.292247
680072,Tårnvej,9940,5,10.9273472,57.2924943
680073,Tårnvej,9940,6,10.9264393,57.2920398
680074,Tårnvej,9940,7,10.9270909,57.2923469
680075,Tårnvej,9940,9,10.9270721,57.2921876
680076,Tårnvej,9940,10,10.9255682,57.2907646
680077,Tårnvej,9940,11,10.9269357,57.2919296
680078,Tårnvej,9940,12,10.9256539,57.2903171
680079,Tårnvej,9940,13,10.9266815,57.291703
680080,Tårnvej,9940,15,10.9263881,57.2910452
680081,Tårnvej,9940,17,10.9261505,57.2906358
680082,Valmuevej,9940,1,10.9292314,57.2939624
680083,Valmuevej,9940,2,10.929039,57.293657
680084,Valmuevej,9940,3,10.929726,57.2938868
680085,Valmuevej,9940,4,10.9295442,57.293547
680086,Valmuevej,9940,5,10.9303044,57.2937861
680087,Valmuevej,9940,6,10.9299481,57.2935296
680088,Valmuevej,9940,7,10.9305981,57.2936261
680089,Valmuevej,9940,8,10.9304315,57.2934172
680090,Valmuevej,9940,9,10.9312049,57.2935584
680091,Valmuevej,9940,10,10.9308718,57.2932721
680092,Vandrehjemsvej,9940,1,10.9256357,57.2926523
680093,Vandrehjemsvej,9940,2,10.9248612,57.2929326
680094,Vandrehjemsvej,9940,3,10.9256744,57.2924463
680095,Vandrehjemsvej,9940,4,10.9250642,57.2927207
680096,Vandrehjemsvej,9940,5,10.9256225,57.2921184
680097,Vandrehjemsvej,9940,8,10.9250614,57.2920003
680098,Virkelystvej,9940,1,10.989145,57.2643806
680099,Uglevej,9940,1,11.1329078,57.3037708
680100,Uglevej,9940,3,11.1319572,57.3035091
680101,Uglevej,9940,3A,11.1322584,57.3030087
680102,Uglevej,9940,6,11.130325,57.302916
680103,Uglevej,9940,7,11.1315574,57.3023856
680104,Uglevej,9940,9,11.1302026,57.301869
680105,Vennebjergvej,9940,1,10.951626,57.270654
680106,Vennebjergvej,9940,2,10.9516304,57.2720512
680107,Vennebjergvej,9940,2A,10.9514345,57.2715862
680108,Vennebjergvej,9940,4,10.949149,57.268286
680109,Vesterø Havnegade,9940,1,10.923355,57.293972
680110,Vesterø Havnegade,9940,2,10.9229274,57.2940017
680111,Vesterø Havnegade,9940,3,10.923579,57.2937852
680112,Vesterø Havnegade,9940,4,10.9229338,57.2938023
680113,Vesterø Havnegade,9940,5,10.9235433,57.2935565
680114,Vesterø Havnegade,9940,6,10.9227687,57.2934911
680115,Vesterø Havnegade,9940,7,10.923563,57.293322
680116,Vesterø Havnegade,9940,9,10.9235951,57.2931754
680117,Vesterø Havnegade,9940,10,10.9229935,57.2929782
680118,Vesterø Havnegade,9940,11,10.9236315,57.2930138
680119,Vesterø Havnegade,9940,12,10.9229214,57.2928098
680120,Vesterø Havnegade,9940,13,10.9236529,57.2928581
680121,Vesterø Havnegade,9940,14,10.9223938,57.2926541
680122,Vesterø Havnegade,9940,15,10.9236833,57.2926728
680123,Vesterø Havnegade,9940,16,10.92313,57.292596
680124,Vesterø Havnegade,9940,17,10.9237454,57.2925349
680125,Vesterø Havnegade,9940,18,10.923024,57.2924244
680126,Vesterø Havnegade,9940,19,10.9236746,57.2923361
680127,Vesterø Havnegade,9940,20,10.9230024,57.2921684
680128,Vesterø Havnegade,9940,21,10.9236877,57.2921663
680129,Vesterø Havnegade,9940,22,10.9224645,57.2921679
680130,Vesterø Havnegade,9940,22A,10.9225902,57.2919523
680131,Vesterø Havnegade,9940,23,10.9237436,57.2920098
680132,Vesterø Havnegade,9940,24,10.9215052,57.2919026
680133,Vesterø Havnegade,9940,25,10.9237272,57.2918809
680134,Vesterø Havnegade,9940,26,10.9232175,57.2918446
680135,Vesterø Havnegade,9940,27,10.92366,57.29162
680136,Vesterø Havnegade,9940,28,10.92269,57.2916081
680137,Vesterø Havnegade,9940,29,10.9236618,57.2914934
680138,Vesterø Havnegade,9940,30,10.9231693,57.2911189
680139,Vesterø Havnegade,9940,31,10.9236951,57.2913325
680140,Vesterø Havnegade,9940,32,10.9231893,57.2909348
680141,Vesterø Havnegade,9940,33,10.9236608,57.2911716
680142,Vesterø Havnegade,9940,34,10.9231812,57.2907519
680143,Vesterø Havnegade,9940,35A,10.9244052,57.2910457
680144,Vesterø Havnegade,9940,35B,10.923995,57.290972
680145,Vesterø Havnegade,9940,35C,10.9237368,57.2909108
680146,Vesterø Havnegade,9940,35D,10.9237409,57.2908553
680147,Vesterø Havnegade,9940,36,10.923219,57.2904554
680148,Vesterø Havnegade,9940,37,10.923758,57.290524
680149,Vesterø Havnegade,9940,39,10.9238233,57.2903257
680150,Vesterø Havnegade,9940,41,10.9238635,57.2901521
680151,Vesterø Havnegade,9940,42,10.9232175,57.2901851
680152,Vesterø Havnegade,9940,43,10.9238821,57.2900023
680153,Vesterø Havnegade,9940,44,10.9232248,57.2899915
680154,Vesterø Havnegade,9940,45,10.9238883,57.2898892
680155,Vesterø Havnegade,9940,46,10.9232416,57.2897744
680156,Vesterø Havnegade,9940,47,10.9238752,57.2896617
680157,Vesterø Havnegade,9940,48,10.9232495,57.2896061
680158,Vesterø Havnegade,9940,49,10.923927,57.289416
680159,Vesterø Havnegade,9940,50,10.9234021,57.2893494
680160,Vesterø Havnegade,9940,51,10.9239274,57.289202
680161,Vesterø Havnegade,9940,52,10.9232382,57.2889114
680162,Vesterø Havnegade,9940,53,10.9239503,57.2889818
680163,Vesterø Havnegade,9940,54,10.9234327,57.2887206
680164,Vesterø Havnegade,9940,55,10.9242547,57.2884247
680165,Vesterø Havnegade,9940,56,10.923739,57.2882977
680166,Vesterø Havnegade,9940,57,10.9245946,57.2884284
680167,Vesterø Havnegade,9940,58,10.924116,57.288163
680168,Vesterø Havnegade,9940,59,10.9249749,57.2881968
680169,Vesterø Havnegade,9940,60,10.9243258,57.2880762
680170,Vesterø Havnegade,9940,62,10.9246293,57.2879704
680171,Vesterø Havnegade,9940,63,10.9257826,57.2887478
680172,Vesterø Havnegade,9940,64,10.9249112,57.2879074
680173,Vesterø Havnegade,9940,65,10.9261013,57.287914
680174,Vesterø Havnegade,9940,66,10.925501,57.2876956
680175,Vesterø Havnegade,9940,67,10.9283741,57.2869204
680176,Vesterø Havnegade,9940,68,10.9258288,57.2875376
680177,Vesterø Havnegade,9940,69,10.9287422,57.2868221
680178,Vesterø Havnegade,9940,71,10.9291886,57.2867227
680179,Vesterø Havnegade,9940,73,10.9294518,57.2863646
680180,Vesterø Havnegade,9940,74,10.9291729,57.286071
680181,Vesterø Havnegade,9940,75,10.9300159,57.2861711
680182,Vesterø Havnegade,9940,77,10.930645,57.285616
680183,Vesterø Havnegade,9940,79,10.9308986,57.2854842
680184,Vesterø Havnegade,9940,81,10.9312144,57.285356
680185,Vesterø Havnegade,9940,82,10.9326432,57.2836696
680186,Vesterø Havnegade,9940,83,10.9321555,57.2857646
680187,Vesterø Havnegade,9940,84,10.9334566,57.283118
680188,Vesterø Havnegade,9940,85,10.9317403,57.2851194
680189,Vesterø Havnegade,9940,86,10.9348981,57.2817135
680190,Vesterø Havnegade,9940,87,10.931883,57.2848697
680191,Vesterø Havnegade,9940,88,10.9354605,57.279293
680192,Vesterø Havnegade,9940,89,10.9323047,57.2846562
680193,Vesterø Havnegade,9940,90,10.9355836,57.2790393
680194,Vesterø Havnegade,9940,91,10.9324834,57.2845238
680195,Vesterø Havnegade,9940,92,10.9355628,57.2788053
680196,Vesterø Havnegade,9940,93,10.9327166,57.284366
680197,Vesterø Havnegade,9940,94,10.9354887,57.2783895
680198,Vesterø Havnegade,9940,95,10.9339234,57.2836819
680199,Vesterø Havnegade,9940,95A,10.9336471,57.2836139
680200,Vesterø Havnegade,9940,95B,10.9338506,57.2834737
680201,Vesterø Havnegade,9940,95C,10.934232,57.2835419
680202,Vesterø Havnegade,9940,97,10.9349794,57.2838382
680203,Vesterø Havnegade,9940,98,10.9366587,57.2773114
680204,Vesterø Havnegade,9940,99,10.9347528,57.2826128
680205,Vesterø Havnegade,9940,109,10.9360219,57.281372
680206,Vesterø Havnegade,9940,113,10.9362355,57.2802423
680207,Vesterø Havnegade,9940,115,10.9376449,57.2793024
680208,Vesterø Havnegade,9940,119,10.9361552,57.2791682
680209,Ydegårdsvej,9940,1,10.9580608,57.2717308
680210,Vibestien,9940,1,11.0004747,57.2637491
680211,Vibestien,9940,2,10.9990321,57.2640632
680212,Vibestien,9940,3,10.9991437,57.2637023
680213,Vibestien,9940,4,11.0001913,57.2641443
680214,Vibestien,9940,5,10.999026,57.263399
680215,Vibestien,9940,6,10.9989559,57.2641573
680216,Vibestien,9940,7,10.9983384,57.2634178
680217,Vibestien,9940,8,10.9985292,57.2647639
680218,Vibestien,9940,9,10.997396,57.2636136
680219,Vibestien,9940,11,10.997891,57.263918
680220,Vibestien,9940,13,10.9957514,57.2643567
680221,Vibevej,9940,2,11.1319617,57.3187186
680222,Vibevej,9940,4,11.1323223,57.318728
680223,Vibevej,9940,5,11.1331897,57.3190261
680224,Vibevej,9940,6,11.1327152,57.31883
680225,Vibevej,9940,7,11.1339546,57.3190842
680226,Vibevej,9940,8,11.1333386,57.3188229
680227,Vibevej,9940,12,11.1341812,57.318881
680228,Violvej,9940,1,11.0008262,57.2668061
680229,Violvej,9940,2,11.0011706,57.2666767
680230,Violvej,9940,3,11.0010573,57.2672323
680231,Violvej,9940,4,11.0019583,57.2671051
680232,Violvej,9940,5,11.0013542,57.2677257
680233,Violvej,9940,6,11.0015997,57.2674685
680234,Vårvej,9940,2,11.115323,57.305609
680235,Vårvej,9940,3,11.1163715,57.3058598
680236,Vårvej,9940,5,11.1167621,57.305362
680237,Vårvej,9940,6,11.1157597,57.3050848
680238,Vodbindervej,9940,1,11.1331334,57.3216556
680239,Vodbindervej,9940,2,11.127702,57.3198433
680240,Vodbindervej,9940,4,11.1282556,57.3199161
680241,Vodbindervej,9940,6,11.1286496,57.3200968
680242,Vestre Himmerigvej,9940,3,11.0615446,57.2852591
680243,Vestre Himmerigvej,9940,5,11.0612902,57.2855696
680244,Vestre Himmerigvej,9940,7,11.0596867,57.2856344
680245,Vestre Himmerigvej,9940,9,11.0571773,57.2874512
680246,Vestre Himmerigvej,9940,10,11.0527245,57.2874208
680247,Vestre Himmerigvej,9940,11,11.0538868,57.2859608
680248,Vestre Himmerigvej,9940,18,11.0467712,57.2861087
680249,Æblevej,9940,1,11.0061213,57.2563786
680250,Æblevej,9940,2,11.0063047,57.2566452
680251,Æblevej,9940,3,11.0059383,57.2563773
680252,Æblevej,9940,4,11.0062555,57.2567243
680253,Æblevej,9940,5,11.0057456,57.2563759
680254,Æblevej,9940,6,11.0062319,57.2568085
680255,Æblevej,9940,7,11.005528,57.2563719
680256,Æblevej,9940,8,11.0059043,57.2566387
680257,Æblevej,9940,9,11.0053024,57.2563694
680258,Æblevej,9940,10,11.0058809,57.2567143
680259,Æblevej,9940,11,11.0050925,57.2563661
680260,Æblevej,9940,12,11.0058422,57.256799
680261,Æblevej,9940,14,11.00543,57.256635
680262,Æblevej,9940,16,11.0054003,57.2567145
680263,Æblevej,9940,18,11.0053572,57.2568011
680264,Æblevej,9940,20,11.0050464,57.2566042
680265,Æblevej,9940,22,11.005012,57.256696
680266,Æblevej,9940,24,11.0049767,57.2567868
680267,Ærøvej,9940,2,11.1257382,57.3170111
680268,Ærøvej,9940,4,11.1257635,57.3165432
680269,Ærøvej,9940,6,11.1261306,57.3164782
680270,Ærøvej,9940,8,11.1264409,57.3162928
680271,Ærøvej,9940,8A,11.1260177,57.3161682
680272,Ærøvej,9940,10,11.1265803,57.3159551
680273,Ærøvej,9940,12,11.1272884,57.3152004
680274,Ærøvej,9940,14,11.1274383,57.314326
680275,Ærøvej,9940,16,11.1281947,57.3141242
680276,Ørnevej,9940,1,10.9276942,57.2910462
680277,Ørnevej,9940,1A,10.9275549,57.2913624
680278,Ørnevej,9940,2,10.9269072,57.2906965
680279,Ødisvej,9940,1,11.1362961,57.314457
680280,Ødisvej,9940,2,11.133693,57.316731
680281,Ødisvej,9940,4,11.1372115,57.312131
680282,Østerby Havnegade,9940,1,11.1262899,57.3204584
680283,Østerby Havnegade,9940,1A,11.1263039,57.3203133
680284,Østerby Havnegade,9940,1B,11.1254798,57.3204138
680285,Østerby Havnegade,9940,2A,11.1259043,57.3202087
680286,Østerby Havnegade,9940,3,11.1267409,57.3199501
680287,Østerby Havnegade,9940,4A,11.1266714,57.3195152
680288,Østerby Havnegade,9940,4B,11.1267382,57.319447
680289,Østerby Havnegade,9940,4C,11.1268351,57.3193392
680290,Østerby Havnegade,9940,4D,11.1268978,57.3192769
680291,Østerby Havnegade,9940,6,11.1270175,57.3191478
680292,Østerby Havnegade,9940,7,11.1269583,57.3197212
680293,Østerby Havnegade,9940,8,11.1272166,57.3189535
680294,Østerby Havnegade,9940,9,11.127439,57.319296
680295,Østerby Havnegade,9940,10,11.1273415,57.318825
680296,Østerby Havnegade,9940,11,11.1276135,57.3190708
680297,Østerby Havnegade,9940,12,11.1274918,57.3186752
680298,Østerby Havnegade,9940,13,11.12777,57.318882
680299,Østerby Havnegade,9940,13A,11.1280228,57.3187177
680300,Østerby Havnegade,9940,13B,11.1280815,57.3186596
680301,Østerby Havnegade,9940,13C,11.1281506,57.3186027
680302,Østerby Havnegade,9940,14,11.1276362,57.3185243
680303,Østerby Havnegade,9940,15,11.1282511,57.3184417
680304,Østerby Havnegade,9940,16,11.1279069,57.3182613
680305,Østerby Havnegade,9940,17,11.1284236,57.3182744
680306,Østerby Havnegade,9940,18,11.1280267,57.3181457
680307,Østerby Havnegade,9940,19,11.1285901,57.3181288
680308,Østerby Havnegade,9940,20,11.1281236,57.3180177
680309,Østerby Havnegade,9940,21,11.1288906,57.317849
680310,Østerby Havnegade,9940,22,11.1283598,57.3179028
680311,Østerby Havnegade,9940,23,11.1290887,57.3176383
680312,Østerby Havnegade,9940,24,11.1282229,57.3177211
680313,Østerby Havnegade,9940,25,11.1294378,57.3172473
680314,Østerby Havnegade,9940,26,11.1285381,57.3177117
680315,Østerby Havnegade,9940,27,11.1296047,57.3170921
680316,Østerby Havnegade,9940,28,11.1286627,57.3175953
680317,Østerby Havnegade,9940,29,11.1298416,57.3168462
680318,Østerby Havnegade,9940,30,11.1282707,57.3174738
680319,Østerby Havnegade,9940,31,11.1301893,57.3165309
680320,Østerby Havnegade,9940,32,11.1287661,57.3173963
680321,Østerby Havnegade,9940,33,11.1304964,57.3160603
680322,Østerby Havnegade,9940,33A,11.130576,57.315849
680323,Østerby Havnegade,9940,34,11.1289127,57.3172592
680324,Østerby Havnegade,9940,35,11.1309507,57.3155967
680325,Østerby Havnegade,9940,37,11.1311127,57.3153694
680326,Østerby Havnegade,9940,39,11.1313036,57.3151926
680327,Østerby Havnegade,9940,40,11.1293034,57.3169686
680328,Østerby Havnegade,9940,41,11.1314344,57.3149816
680329,Østerby Havnegade,9940,41A,11.1325582,57.3149883
680330,Østerby Havnegade,9940,43,11.1314776,57.3147207
680331,Østerby Havnegade,9940,44,11.1292584,57.3166552
680332,Østerby Havnegade,9940,45,11.1316634,57.314497
680333,Østerby Havnegade,9940,46,11.1296615,57.3165323
680334,Østerby Havnegade,9940,46A,11.1288869,57.3163227
680335,Østerby Havnegade,9940,47,11.131905,57.314185
680336,Østerby Havnegade,9940,48,11.1298747,57.3162184
680337,Østerby Havnegade,9940,49A,11.132347,57.313974
680338,Østerby Havnegade,9940,50,11.1301484,57.3158555
680339,Østerby Havnegade,9940,51,11.1324242,57.3137149
680340,Østerby Havnegade,9940,52,11.1304042,57.3155165
680341,Østerby Havnegade,9940,53,11.1332309,57.3125686
680342,Østerby Havnegade,9940,54,11.1306331,57.3152131
680343,Østerby Havnegade,9940,56,11.1306547,57.3148217
680344,Østerby Havnegade,9940,56A,11.1312109,57.3144599
680345,Østerby Havnegade,9940,58,11.131419,57.314079
680346,Østerby Havnegade,9940,60,11.1313734,57.3137591
680347,Ørnklitvej,9940,2,11.0805676,57.2982334
680348,Ørnklitvej,9940,4,11.0797813,57.2992095
680349,Ørnklitvej,9940,6,11.0785716,57.3007112
680350,Ørnklitvej,9940,8,11.0775323,57.3020009
680351,Ørredvej,9940,1,11.1670425,57.3090821
680352,Ørredvej,9940,2,11.170582,57.3074958
680353,Ørredvej,9940,3,11.1694936,57.3086503
680354,Ørredvej,9940,5,11.1705017,57.3078629
680355,Ørredvej,9940,9,11.1729105,57.3069687
680356,Østerbyvejen,9940,1,11.0157842,57.2638453
680357,Østerbyvejen,9940,1A,11.0144827,57.2629019
680358,Østerbyvejen,9940,1B,11.0150748,57.2631524
680359,Østerbyvejen,9940,2,11.010586,57.258689
680360,Østerbyvejen,9940,3,11.0161992,57.2650931
680361,Østerbyvejen,9940,4,11.0120123,57.2598427
680362,Østerbyvejen,9940,6,11.012093,57.2608393
680363,Østerbyvejen,9940,8,11.0139761,57.2622791
680364,Østerbyvejen,9940,8A,11.0159295,57.262535
680365,Østerbyvejen,9940,8B,11.0260736,57.2666956
680366,Østerbyvejen,9940,12,11.0394588,57.2700986
680367,Østerbyvejen,9940,13,11.039584,57.271214
680368,Østerbyvejen,9940,14,11.040104,57.270174
680369,Østerbyvejen,9940,14A,11.0413052,57.270509
680370,Østerbyvejen,9940,14B,11.0432288,57.2720283
680371,Østerbyvejen,9940,15,11.0442433,57.2752933
680372,Østerbyvejen,9940,16,11.049515,57.274379
680373,Østerbyvejen,9940,18,11.0478498,57.2761043
680374,Østerbyvejen,9940,19,11.0498824,57.2775178
680375,Østerbyvejen,9940,20,11.0497032,57.2770186
680376,Østerbyvejen,9940,20A,11.050713,57.27732
680377,Østerbyvejen,9940,21,11.0507213,57.2779527
680378,Østerbyvejen,9940,22,11.0526486,57.2778373
680379,Østerbyvejen,9940,23,11.0527234,57.2801497
680380,Østerbyvejen,9940,24,11.053273,57.2780277
680381,Østerbyvejen,9940,25,11.0528729,57.2834796
680382,Østerbyvejen,9940,26,11.054328,57.278412
680383,Østerbyvejen,9940,27,11.0551186,57.2802712
680384,Østerbyvejen,9940,28,11.0572904,57.279992
680385,Østerbyvejen,9940,29,11.0574882,57.2808726
680386,Østerbyvejen,9940,29A,11.0597749,57.2816054
680387,Østerbyvejen,9940,30,11.0583322,57.28054
680388,Østerbyvejen,9940,31,11.0587137,57.2826338
680389,Østerbyvejen,9940,32,11.0588435,57.2807777
680390,Østerbyvejen,9940,33,11.0619366,57.2828704
680391,Østerbyvejen,9940,33A,11.0629151,57.2831765
680392,Østerbyvejen,9940,34,11.0606663,57.2810283
680393,Østerbyvejen,9940,35,11.0708083,57.2897232
680394,Østerbyvejen,9940,36,11.0652974,57.2837359
680395,Østerbyvejen,9940,36A,11.0663401,57.284489
680396,Østerbyvejen,9940,37,11.0669907,57.2862305
680397,Østerbyvejen,9940,38,11.0724662,57.2868331
680398,Østerbyvejen,9940,38A,11.1034488,57.2971151
680399,Østerbyvejen,9940,39,11.0685826,57.2873732
680400,Østerbyvejen,9940,40,11.1133696,57.2990369
680401,Østerbyvejen,9940,40A,11.1140732,57.2991434
680402,Østerbyvejen,9940,40B,11.1143836,57.2999611
680403,Østerbyvejen,9940,40C,11.1145038,57.2990671
680404,Østerbyvejen,9940,40E,11.1153959,57.2993178
680405,Østerbyvejen,9940,41,11.0787699,57.2929056
680406,Østerbyvejen,9940,42,11.117263,57.299508
680407,Østerbyvejen,9940,43,11.081199,57.292317
680408,Østerbyvejen,9940,43A,11.087665,57.2932041
680409,Østerbyvejen,9940,43B,11.0889375,57.2935351
680410,Østerbyvejen,9940,43C,11.0818276,57.2913263
680411,Østerbyvejen,9940,43D,11.1006922,57.2968903
680412,Østerbyvejen,9940,43E,11.1023119,57.2972405
680413,Østerbyvejen,9940,43F,11.104013,57.2976602
680414,Østerbyvejen,9940,43G,11.1038531,57.297863
680415,Østerbyvejen,9940,43H,11.1036868,57.298074
680416,Østerbyvejen,9940,43I,11.103542,57.2982577
680417,Østerbyvejen,9940,43K,11.1029995,57.298891
680418,Østerbyvejen,9940,43L,11.1028482,57.2990831
680419,Østerbyvejen,9940,43M,11.1026937,57.299279
680420,Østerbyvejen,9940,43N,11.1046634,57.2977572
680421,Østerbyvejen,9940,43O,11.1064019,57.2981378
680422,Østerbyvejen,9940,44,11.1176641,57.3013618
680423,Østerbyvejen,9940,45,11.1110479,57.3001072
680424,Østerbyvejen,9940,45A,11.1129531,57.2997602
680425,Østerbyvejen,9940,46,11.1201891,57.3013826
680426,Østerbyvejen,9940,47,11.1117708,57.3022061
680427,Østerbyvejen,9940,48,11.1243282,57.3029567
680428,Østerbyvejen,9940,51,11.1152714,57.30268
680429,Østerbyvejen,9940,53,11.1160546,57.3010864
680430,Østerbyvejen,9940,55,11.1196125,57.3031328
680431,Østerbyvejen,9940,57,11.1163059,57.3025793
680432,Østerbyvejen,9940,58,11.1252361,57.3031866
680433,Østerbyvejen,9940,59,11.1222205,57.3032378
680434,Østerbyvejen,9940,59A,11.1200495,57.3059574
680435,Østerbyvejen,9940,60,11.1259705,57.303306
680436,Østerbyvejen,9940,61,11.1238009,57.3048552
680437,Østerbyvejen,9940,62,11.1265448,57.3032614
680438,Østerbyvejen,9940,63,11.1264089,57.3038348
680439,Østerbyvejen,9940,64,11.1269234,57.3034612
680440,Østerbyvejen,9940,65,11.1284501,57.3040875
680441,Østerbyvejen,9940,66,11.1281467,57.3036601
680442,Østerbyvejen,9940,67,11.1258543,57.3049117
680443,Østerbyvejen,9940,69,11.1309476,57.3044756
680444,Østerbyvejen,9940,71,11.131719,57.304993
680445,Østerbyvejen,9940,75,11.1337226,57.3052779
680446,Østerbyvejen,9940,76,11.1301394,57.3037842
680447,Østerbyvejen,9940,77,11.1343551,57.3050527
680448,Østerbyvejen,9940,77A,11.1348796,57.3052798
680449,Østerbyvejen,9940,78,11.1326214,57.3043319
680450,Østerbyvejen,9940,79,11.1368438,57.3058574
680451,Østerbyvejen,9940,84,11.1338512,57.3046722
680452,Rønnerne,9940,1,10.999417,57.207268
799970,Peter Danielsvej,9940,22,11.0917479,57.3124761
799971,Otto Nielsensvej,9940,3,10.9619911,57.256792
799972,Otto Nielsensvej,9940,5,10.9610158,57.2568793
799973,Norgesvej,9940,4A,11.1253193,57.3181722
799974,Norgesvej,9940,4B,11.1254506,57.3181714
799975,Norgesvej,9940,4C,11.1255818,57.3181706
799976,Norgesvej,9940,6,11.1248259,57.3188262
799977,Norgesvej,9940,11A,11.1239525,57.3195204
799978,Snebærvej,9940,6,11.160015,57.311411
799979,Snebærvej,9940,10,11.161713,57.311396
799980,Snebærvej,9940,12,11.160559,57.310914
799981,Museumsvej,9940,2,11.0239,57.261384
799982,Museumsvej,9940,2A,11.0235906,57.2610692
799983,Museumsvej,9940,2B,11.0235674,57.2614893
799984,Museumsvej,9940,2C,11.0237096,57.2616421
799985,Museumsvej,9940,4,11.028654,57.261511
799986,Museumsvej,9940,6,11.0355809,57.2637591
799987,Nylandsvej,9940,4,10.9043098,57.2525244
799988,Kongevejen,9940,25,10.9257694,57.2796956
799989,Strandvejen,9940,10A,10.9201046,57.2871316
799990,Strandvejen,9940,24A,10.9126997,57.2832146
799991,Strandvejen,9940,43A,10.907404,57.2758255
799992,Strandvejen,9940,45A,10.9070918,57.2752718
799993,Strandvejen,9940,53,10.902902,57.270621
799994,Nørholmsvej,9940,1,11.0816274,57.3104648
799995,Danzigmannvej,9940,4,11.153599,57.3083462
799996,Danzigmannvej,9940,7,11.1560117,57.3125707
826866,Himmerigvejen,9940,2,11.0636229,57.2883541
826868,Doktorvejen,9940,6A,10.9999244,57.2571777
826869,Doktorvejen,9940,6B,10.9999303,57.2572423
826870,Doktorvejen,9940,6C,10.999936,57.2573057
826871,Doktorvejen,9940,6D,10.999942,57.2573755
826872,Doktorvejen,9940,8A,10.9999267,57.25762
826873,Doktorvejen,9940,8B,11.0001075,57.2576236
826874,Doktorvejen,9940,8C,10.9999253,57.2577931
826875,Doktorvejen,9940,8D,11.0001269,57.2577952
826876,Doktorvejen,9940,15A,11.0021024,57.2647713
826877,Doktorvejen,9940,15B,11.001935,57.2653251
826878,Doktorvejen,9940,43A,11.0385766,57.27964
826885,Østerby Havnegade,9940,1C,11.125586,57.3204643
826886,Østerby Havnegade,9940,1D,11.1254344,57.3204075
826887,Østerby Havnegade,9940,1E,11.1269581,57.3205762
826888,Østerby Havnegade,9940,1F,11.1270819,57.3205955
826889,Østerby Havnegade,9940,2B,11.1262418,57.3199572
826890,Østerby Havnegade,9940,2C,11.1262818,57.3196947
826891,Østerby Havnegade,9940,66A,11.1342197,57.3104932
826892,Østerby Havnegade,9940,66B,11.1339982,57.3104356
826893,Østerby Havnegade,9940,66C,11.1339643,57.3106184
826894,Østerby Havnegade,9940,68,11.1365262,57.3078178
826897,Gammel Kirkevej,9940,4A,11.0072041,57.2574019
826898,Gammel Kirkevej,9940,4B,11.007578,57.257674
826899,Gammel Kirkevej,9940,8,11.0046047,57.2576347
826900,Byrum Hovedgade,9940,53A,11.0004563,57.2557006
826901,Byrum Hovedgade,9940,53B,11.0004895,57.2557777
826902,Byrum Hovedgade,9940,53C,11.0007437,57.2558304
826903,Byrum Hovedgade,9940,53D,11.0008442,57.2557668
826904,Byrum Hovedgade,9940,56,11.0012932,57.2540323
826909,Østerbyvejen,9940,2A,11.0107908,57.2589375
826910,Østerbyvejen,9940,2B,11.0109864,57.2588954
826911,Østerbyvejen,9940,2C,11.0112105,57.2588469
826912,Østerbyvejen,9940,2D,11.011449,57.258795
826913,Østerbyvejen,9940,2E,11.0116663,57.2587486
826914,Østerbyvejen,9940,5,11.0202146,57.2649846
826915,Østerbyvejen,9940,7,11.0203512,57.2668334
826916,Østerbyvejen,9940,9,11.031052,57.270067
826917,Østerbyvejen,9940,10,11.0285884,57.2670399
826918,Østerbyvejen,9940,11,11.034524,57.269741
826919,Østerbyvejen,9940,40D,11.1151097,57.3002572
826920,Plantagevej,9940,15B,10.9272762,57.2961393
826921,Plantagevej,9940,52A,10.9387337,57.2942403
826922,Plantagevej,9940,52B,10.9392132,57.2941613
826923,Plantagevej,9940,57,10.969355,57.290079
826924,Plantagevej,9940,61,10.980408,57.290355
826925,Egegårdsvej,9940,5,11.034617,57.2525259
826926,Egegårdsvej,9940,6,11.0363859,57.2500079
826928,Vesterø Havnegade,9940,22B,10.9218198,57.2922826
826929,Vesterø Havnegade,9940,22C,10.9220101,57.2925391
826930,Vesterø Havnegade,9940,35E,10.9237938,57.2907694
826931,Vesterø Havnegade,9940,35F,10.9238001,57.2907059
826932,Vesterø Havnegade,9940,61A,10.9253527,57.2885312
826933,Vesterø Havnegade,9940,61B,10.9253919,57.2881034
826934,Vesterø Havnegade,9940,70,10.928039,57.2866874
826935,Vesterø Havnegade,9940,72,10.9289836,57.286185
826936,Tørkerivej,9940,3,10.970982,57.253981
826937,Tørkerivej,9940,9,10.956631,57.251659
826938,Tørkerivej,9940,17,10.9426303,57.2568805
826939,Tørkerivej,9940,22,10.9266044,57.2605787
826940,Linievejen,9940,3A,11.043349,57.2883
826941,Campingpladsvej,9940,6A,11.1304129,57.3177248
826942,Campingpladsvej,9940,6B,11.1305229,57.3178647
826943,Campingpladsvej,9940,14A,11.1335822,57.318249
826944,Campingpladsvej,9940,14B,11.1337846,57.3182687
826945,Campingpladsvej,9940,14C,11.1339829,57.3182852
826946,Campingpladsvej,9940,14D,11.1342254,57.3183039
826947,Campingpladsvej,9940,14E,11.1344653,57.3183243
826948,Campingpladsvej,9940,14F,11.1346734,57.3183416
826949,Agersigen,9940,6A,10.9281113,57.2821188
826950,Agersigen,9940,6B,10.9292321,57.2825417
826951,Agersigen,9940,19,10.935528,57.2854983
826952,Agersigen,9940,23,10.9362748,57.2858132
827039,Gærdesmuttevej,9940,2,11.1368947,57.3188381
827040,Gærdesmuttevej,9940,4,11.1367276,57.3190647
827041,Gærdesmuttevej,9940,7,11.1358863,57.3196177
827106,Svalevej,9940,16A,10.9269697,57.2911457
827107,Svalevej,9940,16B,10.9270767,57.291056
827109,Kokvadvejen,9940,3,11.0066468,57.2521612
827110,Kokvadvejen,9940,8,11.0050632,57.2520181
827111,Kokvadvejen,9940,14A,11.0150237,57.2468743
827112,Kokvadvejen,9940,14B,11.0150115,57.2467873
827113,Kokvadvejen,9940,14C,11.0149971,57.2466882
827114,Kokvadvejen,9940,14D,11.014983,57.2465942
827127,Smedievejen,9940,5,11.124934,57.3198444
827128,Smedievejen,9940,15,11.121551,57.319256
827143,Poppelvej,9940,8A,10.9981144,57.2574374
827144,Poppelvej,9940,8B,10.9981222,57.2575142
827145,Poppelvej,9940,10A,10.9977087,57.2574347
827146,Poppelvej,9940,10B,10.997706,57.257524
827147,Poppelvej,9940,12A,10.9973914,57.2574367
827148,Poppelvej,9940,12B,10.9973939,57.2575232
827150,Uglevej,9940,1A,11.1327529,57.3030657
827151,Uglevej,9940,4,11.1314004,57.3037604
827152,Ternevej,9940,5A,11.1248231,57.3183054
827153,Ternevej,9940,5B,11.1243985,57.3182406
827154,Ternevej,9940,14,11.1244305,57.3183858
827155,Ternevej,9940,16,11.124212,57.318332
827161,Ellevej,9940,5,11.0330023,57.2451551
827164,Søndergårdsvej,9940,1,11.0154949,57.2496249
827165,Kirkevænget,9940,2,10.9215789,57.2914283
827166,Kirkevænget,9940,4,10.9212518,57.2913875
827167,Høstvejen,9940,6,10.9477872,57.2770119
827168,Høstvejen,9940,8,10.9489166,57.2773752
827169,Orøvej,9940,7,11.1288177,57.3166058
827171,Lille Stoklundvej,9940,4,11.0543514,57.2549919
829926,Lille Skovvej,9940,5,11.012338,57.264196
1266266,Byrum Hovedgade,9940,77,11.0038177,57.2542253
1266415,Præstevejen,9940,33,10.909755,57.268056
1266416,Præstevejen,9940,33B,10.9103001,57.2676466
1266426,Flarumvej,9940,24A,10.9297337,57.2868208
1266428,Flarumvej,9940,41A,10.931172,57.2863049
1266430,Flarumvej,9940,41B,10.9305752,57.2863872
1266434,Byrumvej,9940,21,10.9493471,57.2736257
1266435,Byrumvej,9940,37,10.9533243,57.2720983
1266436,Byrumvej,9940,59,10.9688951,57.2679878
1266437,Byrumvej,9940,59A,10.969519,57.267688
1266438,Byrumvej,9940,59B,10.9688528,57.2677674
1266439,Gammel Østerbyvej,9940,16A,11.1475493,57.3074389
1266440,Gammel Østerbyvej,9940,31,11.143011,57.308252
2144666,Bynkevej,9940,1,11.1311717,57.3143967
2144669,Bynkevej,9940,3,11.1308224,57.3143207
2144675,Bynkevej,9940,6,11.13049,57.314375
2144710,Dommergårdsvej,9940,1,10.9422969,57.2515312
2144714,Dommergårdsvej,9940,3,10.9399936,57.2542768
2144733,Firkløvervej,9940,3,11.1225789,57.3006054
2144751,Firkløvervej,9940,5,11.1213891,57.3004633
2144815,Fuglekongevej,9940,1,11.1387388,57.3191368
2144822,Fuglekongevej,9940,2,11.1387966,57.3193618
2144832,Fuglekongevej,9940,3,11.1381409,57.3190077
2144844,Fuglekongevej,9940,4,11.1384111,57.3192787
2144846,Fuglekongevej,9940,6,11.1380276,57.3191959
2144855,Fuglekongevej,9940,8,11.1377331,57.3191323
2144893,Grøniriskvej,9940,1,11.145024,57.3191981
2144900,Grøniriskvej,9940,3,11.1454795,57.3192971
2144930,Grøniriskvej,9940,5,11.1458974,57.3193879
2144937,Grøniriskvej,9940,7,11.1463268,57.3194812
2144998,Gulspurvevej,9940,2,11.1445679,57.3198508
2145001,Gulspurvevej,9940,4,11.1449906,57.3199426
2145009,Gulspurvevej,9940,6,11.1454157,57.3200351
2145013,Gulspurvevej,9940,8,11.1458533,57.3201302
2145056,Hyldebærvej,9940,1,10.9517013,57.2820523
2145066,Hyldebærvej,9940,2,10.9513872,57.2821989
2145071,Hyldebærvej,9940,5,10.9497212,57.2809443
2145077,Hyldebærvej,9940,7,10.9507828,57.2801711
2145086,Hyldebærvej,9940,9,10.951545,57.2798688
2145089,Hyldebærvej,9940,10,10.9486263,57.2806117
2145098,Hyldebærvej,9940,12,10.9494872,57.2804302
2145102,Hyldebærvej,9940,14,10.9505541,57.2799728
2145108,Hyldebærvej,9940,16,10.9511817,57.279747
2145192,Holtemmenvej,9940,1,10.9659758,57.2949899
2145242,J.O. Dolmers Vej,9940,1,10.9238003,57.2940887
2145302,Kragebærvej,9940,1,10.9522354,57.2812853
2145311,Kragebærvej,9940,3,10.952721,57.2810254
2145425,Ravmarken,9940,3,10.9253099,57.2891492
2145428,Ravmarken,9940,4,10.9250886,57.2891809
2145434,Ravmarken,9940,5,10.9251253,57.2889532
2145440,Ravmarken,9940,6,10.924901,57.2889568
2145445,Ravmarken,9940,7,10.9251116,57.288895
2145453,Ravmarken,9940,8,10.9248066,57.2887987
2145458,Ravmarken,9940,9,10.9249555,57.2887786
2145518,Ringduevej,9940,2,11.0405013,57.2997084
2145598,Storedalsvej,9940,4,11.0068808,57.2855002
2145605,Storedalsvej,9940,7,11.002703,57.3036539
2145609,Storedalsvej,9940,8,11.0023762,57.2987907
2145644,Sortmejsevej,9940,1,11.1423295,57.3216382
2145652,Sortmejsevej,9940,2,11.142167,57.321854
2145656,Sortmejsevej,9940,3,11.141893,57.3215434
2145663,Sortmejsevej,9940,4,11.141731,57.3217596
2145666,Sortmejsevej,9940,5,11.1414408,57.321445
2145673,Sortmejsevej,9940,6,11.1412667,57.3216587
2145677,Sortmejsevej,9940,7,11.1409969,57.3213353
2145686,Sortmejsevej,9940,8,11.1408366,57.3215653
2145692,Sortmejsevej,9940,9,11.140535,57.3211674
2145693,Sortmejsevej,9940,10,11.1403948,57.3214692
2145737,Strandstien,9940,1,10.9198123,57.2884162
2145739,Strandstien,9940,3,10.9193444,57.2884884
2145742,Strandstien,9940,5,10.9188486,57.2885271
2145810,Trawlvej,9940,1,11.1289432,57.3206082
2145814,Trawlvej,9940,3,11.1292648,57.3200675
2146032,Nordre Rønner,9940,999,10.923921,57.357882
2188714,Engblommevej,9940,1,10.9382957,57.2825555
2188715,Engblommevej,9940,3,10.9377987,57.2826254
2188716,Strandkanten,9940,1,10.9225031,57.2929874
2188718,Strandkanten,9940,2,10.9226342,57.2930564
2188720,Strandkanten,9940,3,10.9223988,57.292979
2188722,Strandkanten,9940,4,10.92263,57.2931073
2188724,Strandkanten,9940,5,10.9222991,57.2929714
2188726,Strandkanten,9940,6,10.9226261,57.293159
2188727,Strandkanten,9940,7,10.92221,57.292965
2188730,Strandkanten,9940,8,10.922622,57.2932108
2188731,Strandkanten,9940,9,10.921936,57.292937
2188733,Strandkanten,9940,10,10.9225179,57.2932623
2188735,Strandkanten,9940,11,10.9219365,57.2930243
2188737,Strandkanten,9940,12,10.922442,57.293283
2188739,Strandkanten,9940,13,10.921937,57.2931042
2188740,Strandkanten,9940,14,10.9223703,57.2933019
2188742,Strandkanten,9940,15,10.9219329,57.2931893
2188743,Strandkanten,9940,16,10.922296,57.2933216
2188746,Strandkanten,9940,17,10.9219288,57.2932728
2188747,Strandkanten,9940,18,10.922223,57.2933409
2188748,Strandkanten,9940,19,10.921925,57.2933544
2188750,Strandkanten,9940,20,10.922166,57.2934424
2188752,Strandkanten,9940,22,10.9222122,57.2934876
2188754,Strandkanten,9940,24,10.922261,57.2935379
2188755,Strandkanten,9940,26,10.9223083,57.293587
2188757,Strandkanten,9940,28,10.9223549,57.2936309
2189172,Skomagervej,9940,2A,10.93163,57.284556
2193397,Ærøvej,9940,1,11.126236,57.316921
2193398,Ærøvej,9940,9,11.1275557,57.3152522
2193403,Sithjemsvej,9940,1,10.924626,57.255909
2193404,Sithjemsvej,9940,6,10.923896,57.255862
2193405,Sandstien,9940,8,11.13877,57.322852
2193406,Rødkløvervej,9940,4,10.937495,57.296822
2193407,Rødkløvervej,9940,6,10.938013,57.296721
2193408,Røllikevej,9940,1,10.920874,57.289318
2193409,Rullegårdsvej,9940,22,10.989734,57.261769
2193410,Elsevej,9940,3A,10.9234,57.28611
2193411,Elsevej,9940,5,10.923414,57.285921
2193414,Fanøvej,9940,9,11.12533,57.315774
2193415,Fanøvej,9940,11,11.124916,57.315687
2193416,Fanøvej,9940,13,11.125302,57.315109
2193417,Flyvepladsvej,9940,4B,11.00773,57.276667
2193419,Kongenshusvej,9940,17,11.16705,57.309559
2193420,Kokvadgårdsvej,9940,2,11.0059342,57.247973
2193421,Blågranvej,9940,12,10.998247,57.267052
2193422,Blågranvej,9940,14,10.998082,57.267508
2193423,Blågranvej,9940,16,10.99929,57.268181
2193424,Blåtopvej,9940,10,10.94294,57.296553
2193425,Blåtopvej,9940,12,10.943441,57.296567
2193426,Benbrækvej,9940,9,10.9422339,57.2944953
2193427,Blåmejsevej,9940,1,11.142967,57.320786
2193428,Blåmejsevej,9940,3,11.142542,57.320698
2193429,Blåmejsevej,9940,5,11.142032,57.320594
2193430,Blåmejsevej,9940,6,11.141876,57.320877
2193431,Blåmejsevej,9940,7,11.141621,57.320532
2193432,Blåmejsevej,9940,8,11.1414533,57.3207384
2193433,Askevej,9940,12,10.938094,57.282862
2193434,Askevej,9940,14,10.9384576,57.2828168
2193435,Agerhønevej,9940,3,11.123216,57.301957
2193436,Lille Skovvej,9940,7,11.011377,57.265772
2193437,Krogen,9940,1,11.148967,57.307547
2193438,Krogen,9940,3,11.148511,57.307375
2193439,Krogen,9940,4,11.1484,57.307463
2193440,Krogen,9940,5,11.148182,57.30729
2193441,Lundevej,9940,1,11.02012,57.274029
2193442,Markstien,9940,1A,10.932364,57.28734
2193443,Markstien,9940,1B,10.932472,57.287105
2193444,Hals Skolevej,9940,7,11.060596,57.26567
2193445,Havnepladsen,9940,2A,10.922821,57.295655
2193446,Havnepladsen,9940,2B,10.922848,57.295607
2193447,Havnepladsen,9940,2C,10.922896,57.295561
2193448,Havnepladsen,9940,2D,10.922949,57.295532
2193449,Havnepladsen,9940,2E,10.923004,57.295505
2193450,Havnepladsen,9940,2F,10.92306,57.295476
2193451,Havnepladsen,9940,2G,10.923107,57.29545
2193452,Havnepladsen,9940,2H,10.92316,57.295423
2193453,Havnepladsen,9940,2I,10.923051,57.295378
2193454,Havnepladsen,9940,2J,10.923303,57.295222
2193455,Havnepladsen,9940,2L,10.925149,57.295636
2193456,Havnepladsen,9940,2M,10.925408,57.295528
2193457,Havnepladsen,9940,2P,10.9256106,57.2956884
2193458,Havnepladsen,9940,2Q,10.925688,57.29572
2193459,Hejrevej,9940,10,10.926872,57.290037
2193460,Høgevej,9940,1,11.1413914,57.3194685
2193461,Høgevej,9940,2,11.141516,57.319245
2193462,Høgevej,9940,3,11.141901,57.319577
2193463,Høgevej,9940,4,11.141945,57.319335
2193464,Høgevej,9940,5,11.142448,57.319694
2193465,Høgevej,9940,6,11.1423856,57.3194286
2193466,Høgevej,9940,7,11.1429891,57.3198093
2193467,Høgevej,9940,8,11.142827,57.319523
2193468,Høgevej,9940,9,11.143527,57.319923
2193469,Høgevej,9940,10,11.143295,57.319623
2193470,Holmbækvejen,9940,2A,10.9284962,57.2857245
2193471,Horneksvejen,9940,3A,11.022773,57.31554
2193472,Horneksvejen,9940,3B,11.022476,57.315417
2193473,Holmelundsvej,9940,2A,10.994772,57.256786
2193474,Holmelundsvej,9940,2B,10.994787,57.2567
2193475,Holmelundsvej,9940,2C,10.9950177,57.2566693
2193476,Holmelundsvej,9940,2D,10.995199,57.25668
2193477,Kanderedevej,9940,1A,10.935462,57.279662
2193478,Kanderedevej,9940,1B,10.935021,57.279675
2193479,Kanderedevej,9940,5,10.9340556,57.2799461
2193480,Kanderedevej,9940,11,10.932281,57.28071
2193481,Klitrosevej,9940,4,10.935903,57.296234
2193806,Nattergalevej,9940,4A,10.922261,57.289849
2193807,Nattergalevej,9940,11A,10.925128,57.289767
2193954,Tårnvej,9940,8A,10.925978,57.291837
2193955,Tangborgvej,9940,2,11.1340593,57.3024327
2193956,Tangborgvej,9940,3,11.134672,57.30188
2193957,Tangborgvej,9940,4,11.134135,57.301663
2193958,Tangborgvej,9940,5,11.134953,57.301327
2193959,Tangborgvej,9940,6,11.1346203,57.301296
2193960,Tangborgvej,9940,7,11.13514,57.3009594
2193961,Storhavevej,9940,1,10.991752,57.249736
2193962,Storhavevej,9940,4,10.988637,57.250046
2193963,Syrenvej,9940,2,11.151543,57.310395
2193964,Starbækvej,9940,1A,10.955448,57.269507
2193965,Starbækvej,9940,2A,10.953782,57.266538
2193966,Starbækvej,9940,10,10.946584,57.262528
2193967,Solsortevej,9940,1,11.138224,57.320047
2193968,Solsortevej,9940,2,11.138078,57.320217
2193969,Solsortevej,9940,4,11.137569,57.320119
2193970,Sneppevej,9940,2A,11.134989,57.319223
2193971,Sneppevej,9940,10,11.133897,57.320148
2193972,Stoklundvejen,9940,1,11.0083617,57.2537769
2193973,Stoklundvejen,9940,2,11.007666,57.252858
2193974,Stoklundvejen,9940,4,11.0157252,57.2540903
2193975,Stoklundvejen,9940,14,11.0319625,57.2563648
2193976,Stoklundvejen,9940,18,11.0369394,57.2556976
2193977,Skovvej,9940,1C,11.023873,57.266227
2193978,Englandsvej,9940,16,11.123055,57.318907
2193979,Finlandsvej,9940,4A,11.122675,57.317691
2193980,Finlandsvej,9940,4B,11.122524,57.317882
2193981,Finlandsvej,9940,4C,11.12237,57.318078
2193982,Finlandsvej,9940,6A,11.122335,57.318321
2193983,Finlandsvej,9940,6B,11.121981,57.318535
2193984,Gammel Havnevej,9940,1,11.1296713,57.3065902
2193985,Grårisvej,9940,8,10.942321,57.295534
2193986,Grårisvej,9940,10,10.942775,57.295456
2193987,Grårisvej,9940,11,10.942897,57.295609
2193988,Fyrrehegnet,9940,3,10.960046,57.277084
2193989,Fyrrehegnet,9940,5,10.959352,57.277424
2193990,Fyrrehegnet,9940,7,10.9586631,57.2777766
2193991,Fyrrehegnet,9940,9,10.958176,57.27804
2193992,Fyrrestien,9940,8A,10.9338916,57.2840947
2193993,Fyrrestien,9940,8B,10.934031,57.284016
2193994,Fyrrestien,9940,8C,10.9341746,57.2839351
2193995,Fyrrestien,9940,8D,10.934316,57.283853
2193996,Grønningen,9940,10,11.081229,57.303174
2193997,Grønningen,9940,12,11.08161,57.30269
2193998,Grønningen,9940,13,11.082109,57.303254
2193999,Sitkavej,9940,2,10.943199,57.295215
2194000,Sitkavej,9940,14,10.946493,57.294846
2194012,Drosselvej,9940,3,11.131855,57.319465
2194013,Drosselvej,9940,5,11.132409,57.319987
2194014,Ellegårdsvej,9940,2B,11.137509,57.302796
2194015,Ellegårdsvej,9940,2C,11.1363949,57.3027554
2194016,Elmevej,9940,3,10.999014,57.257866
2194017,Hybenvej,9940,1,10.907812,57.270471
2194018,Hybenvej,9940,3,10.908223,57.270877
2194019,Jagtvej,9940,5,11.143419,57.320419
2198893,Danzigmannvej,9940,14A,11.158733,57.311846
2212668,Skovfyrvej,9940,6,10.944167,57.294064
2212669,Skovfyrvej,9940,13,10.946298,57.294204
2217191,Gærdesmuttevej,9940,8,11.136178,57.319842
2217192,Fædrelandsvej,9940,2A,11.061321,57.277195
2217193,Fædrelandsvej,9940,2B,11.061118,57.277202
2217194,Orøvej,9940,5,11.128769,57.316895
2223431,Gammel Kirkevej,9940,6B,11.006071,57.257705
2229176,Præstevejen,9940,39,10.899927,57.268476
2237432,Trawlvej,9940,1A,11.130117,57.320791
2238260,Tranebærvej,9940,3,10.911368,57.278308
2238261,Tranebærvej,9940,5,10.9119277,57.2781282
2238262,Tranebærvej,9940,7,10.91259,57.277898
2238263,Bærmosevej,9940,3,10.947875,57.278959
2238271,Tranebærvej,9940,2,10.910455,57.277912
2238272,Tranebærvej,9940,4,10.91079,57.277705
2238273,Tranebærvej,9940,6,10.911446,57.277717
2238274,Tranebærvej,9940,8,10.911874,57.277382
2239410,Strandvejen,9940,37,10.911076,57.278505
2256305,Agersigen,9940,999,10.933818,57.284657
2256306,Ahornvej,9940,999,10.99789,57.257511
2256307,Alkevej,9940,999,10.893806,57.264988
2256308,Becksvej,9940,999,11.003345,57.254794
2256309,Bekkasinvej,9940,999,10.894653,57.265679
2256310,Birkealle,9940,16,10.996828,57.258963
2256311,Byrum Hovedgade,9940,49A,10.999198,57.256001
2256312,Byrum Hovedgade,9940,49B,10.999354,57.255969
2256313,Byrum Hovedgade,9940,49C,10.999587,57.255923
2256314,Campingpladsvej,9940,999,10.905984,57.275307
2256315,Danzigmannvej,9940,999,11.149705,57.309186
2256316,Drosselvej,9940,999,11.131762,57.319351
2256317,Duevej,9940,999,10.896244,57.266557
2256318,Elmevej,9940,999,10.999321,57.257983
2256319,Emilievej,9940,999,11.135396,57.318429
2256320,Fanøvej,9940,999,11.1252798,57.315883
2256321,Flarumvej,9940,999,10.929736,57.292685
2256322,Hedevej,9940,999,10.9330068,57.2990137
2256323,Klokkeblomstvej,9940,999,10.940617,57.2993795
2256324,Klitrosevej,9940,999,10.937484,57.298958
2256325,Knæet,9940,999,10.93653,57.281342
2256326,Kongevejen,9940,999,10.917208,57.280698
2256327,Krogen,9940,999,11.148983,57.307632
2256328,Lyngvej,9940,999,10.930888,57.295659
2256329,Lynghøjen,9940,999,10.941311,57.28257
2256330,Marehalmsvej,9940,999,10.93269,57.295361
2256331,Markstien,9940,999,10.933589,57.286654
2256332,N.P. Nielsens Vej,9940,999,11.003354,57.254978
2256333,Nattergalevej,9940,5A,10.922375,57.289992
2256334,Nattergalevej,9940,5B,10.922529,57.290234
2256335,Nylandsvej,9940,999,10.895857,57.242283
2256336,Nørholmsvej,9940,999,11.0759772,57.3088683
2256337,Nordstjernevej,9940,999,10.934503,57.285077
2256338,Nordvestpassagen,9940,999,10.980657,57.261767
2256339,Peter Danielsvej,9940,999,11.126555,57.317645
2256340,Plantagevej,9940,999,10.927292,57.295684
2256341,Ravmarken,9940,999,10.925244,57.289218
2256342,Sejerøvej,9940,999,11.122827,57.315523
2256343,Solstien,9940,999,10.935895,57.282924
2256344,Sneppevej,9940,999,11.133727,57.319843
2256345,Strandvejen,9940,999,10.904566,57.275801
2256346,Stærevej,9940,999,10.894977,57.26548
2256347,Søndre Strandvej,9940,999,10.896752,57.267187
2256348,Tangborgvej,9940,2A,11.13204,57.301214
2256349,Ternevej,9940,999,11.125844,57.318675
2256350,Tværvej,9940,999,10.92925,57.29375
2256351,Tranevej,9940,999,10.895653,57.266409
2256352,Tyvhulvejen,9940,999,11.135924,57.32237
2256353,Tårnvej,9940,999,10.925727,57.290462
2256354,Vesterø Havnegade,9940,999,10.921567,57.29222
2256355,Ydegårdsvej,9940,3A,10.960819,57.271854
